{"version": 0.6, "generator": "Overpass API 0.7.62.8 e802775f", "osm3s": {"timestamp_osm_base": "2025-11-23T07:58:40Z", "copyright": "The data included in this document is from www.openstreetmap.org. The data is made available under ODbL."}, "elements": [{"type": "node", "id": 1430720259, "lat": 40.4112852, "lon": 49.9649461, "tags": {"amenity": "restaurant", "name": "S\u0259bin\u0259 \u015eadl\u0131q Saray\u0131 \\ Bak\u0131xanov"}}, {"type": "node", "id": 1642766649, "lat": 40.411887, "lon": 49.9616173, "tags": {"name": "Ma\u015f\u0131nqay\u0131rma Texnikumun Yataqxanas\u0131 \\ Bak\u0131xanov", "tourism": "hostel"}}, {"type": "node", "id": 1652805666, "lat": 40.4097829, "lon": 49.9697623, "tags": {"amenity": "restaurant", "name": "Napoleon Hall \u015eadl\u0131q Saray\u0131"}}, {"type": "node", "id": 1652806792, "lat": 40.4078171, "lon": 49.9702504, "tags": {"amenity": "restaurant", "name": "Sunbul \u015eadl\u0131q Saray\u0131"}}, {"type": "node", "id": 1846110834, "lat": 40.4124525, "lon": 49.9681615, "tags": {"amenity": "restaurant"}}, {"type": "node", "id": 2280792275, "lat": 40.4260613, "lon": 49.9916253, "tags": {"historic": "memorial", "name": "Albert Aqarunov abid\u0259 \\ \u018fmircan", "subject:wikidata": "Q4056681", "subject:wikipedia": "ru:\u0410\u0433\u0430\u0440\u0443\u043d\u043e\u0432, \u0410\u043b\u044c\u0431\u0435\u0440\u0442 \u0410\u0433\u0430\u0440\u0443\u043d\u043e\u0432\u0438\u0447", "subject:wikipedia:en": "Albert_Agarunov", "wikimedia_commons": "Category:Albert Aqarunov"}}, {"type": "node", "id": 2987284744, "lat": 40.4352515, "lon": 49.9779115, "tags": {"name": "1-ci d\u00f6ng\u0259 B\u00fclb\u00fcl\u0259", "tourism": "attraction"}}, {"type": "node", "id": 3440691035, "lat": 40.4240525, "lon": 49.9990512, "tags": {"historic": "monument"}}, {"type": "node", "id": 3473869693, "lat": 40.4341069, "lon": 49.9807803, "tags": {"name": "11-ci d\u00f6ng\u0259 B\u00fclb\u00fcl\u0259", "tourism": "attraction"}}, {"type": "node", "id": 3517082445, "lat": 40.4252983, "lon": 49.9949774, "tags": {"amenity": "restaurant", "name": "At\u0259\u015fgah Restoran\u0131 \\ \u018fmircan"}}, {"type": "node", "id": 3517082447, "lat": 40.4249399, "lon": 49.9956144, "tags": {"name": "Heyd\u0259r \u018fliyev Muzeyi \\ \u018fmircan", "tourism": "museum"}}, {"type": "node", "id": 3517273270, "lat": 40.4210525, "lon": 49.9986741, "tags": {"amenity": "restaurant", "name": "L\u0259zgi Restoran\u0131"}}, {"type": "node", "id": 3532696462, "lat": 40.4312521, "lon": 49.9548541, "tags": {"historic": "memorial", "memorial": "statue", "name": "Abbasqulu Bak\u0131xanov heyk\u0259li \\ Bak\u0131xanov"}}, {"type": "node", "id": 3532696463, "lat": 40.4337853, "lon": 49.9551664, "tags": {"amenity": "restaurant", "name": "Ada Restoran\u0131 \\ Bak\u0131xanov"}}, {"type": "node", "id": 3532701543, "lat": 40.4315762, "lon": 49.9532424, "tags": {"amenity": "restaurant", "name": "K\u0259ng\u0259rli Restoran \\ Bak\u0131xanov"}}, {"type": "node", "id": 3532701544, "lat": 40.4315527, "lon": 49.9529209, "tags": {"amenity": "restaurant", "name": "Su P\u0259risi Kafesi \\ Bak\u0131xanov"}}, {"type": "node", "id": 3536070383, "lat": 40.41743, "lon": 49.9607926, "tags": {"addr:street": "S\u00fclh", "amenity": "restaurant", "name": "\u00c7udo Pe\u00e7ka 11 \\ Bak\u0131xanov", "shop": "confectionery"}}, {"type": "node", "id": 3536073016, "lat": 40.4298213, "lon": 49.9864558, "tags": {"addr:street": "\u0130lqar M\u0259mm\u0259dov k\u00fc\u00e7.", "amenity": "restaurant", "name": "Olimp \u015eirniyyat Evi \\ B\u00fclb\u00fcl\u0259", "shop": "confectionery"}}, {"type": "node", "id": 3547796698, "lat": 40.4284853, "lon": 49.9864201, "tags": {"historic": "memorial", "name": "Bak\u0131xanov heyk\u0259li \\ \u018fmircan"}}, {"type": "node", "id": 3605013044, "lat": 40.4067438, "lon": 49.9513642, "tags": {"amenity": "restaurant", "name": "Diri Da\u011f Restoran\u0131"}}, {"type": "node", "id": 4145137789, "lat": 40.4134512, "lon": 49.9597775, "tags": {"amenity": "restaurant", "name": "Kabak Kafe / Bak\u0131xanov"}}, {"type": "node", "id": 4243769190, "lat": 40.4045869, "lon": 49.9564681, "tags": {"addr:housenumber": "83", "addr:street": "Bahruz Nuriyev", "amenity": "cafe", "internet_access": "wlan", "name": "131 club"}}, {"type": "node", "id": 4245222292, "lat": 40.408832, "lon": 49.956377, "tags": {"amenity": "restaurant", "name": "Deniz Restorani"}}, {"type": "node", "id": 4245225992, "lat": 40.4087053, "lon": 49.9575508, "tags": {"amenity": "restaurant", "name": "Nazli Saray"}}, {"type": "node", "id": 4308750498, "lat": 40.4056998, "lon": 49.9517176, "tags": {"addr:street": "C\u0259m\u015fid Nax\u00e7\u0131vanski", "amenity": "cafe", "name": "Sheki"}}, {"type": "node", "id": 4386026006, "lat": 40.4298527, "lon": 49.9649946, "tags": {"addr:housenumber": "49", "addr:street": "Deputat Street", "name": "\u015e\u0259ms Otel - Shams Hotel \\ Bak\u0131xanov", "phone": "+994 12 425 00 56", "tourism": "hotel", "website": "http://www.shamshotel.az"}}, {"type": "node", "id": 4388832298, "lat": 40.4224625, "lon": 49.9678228, "tags": {"name:en": "BAHRI RAZIN", "name:ru": "BAHRI RAZIN", "tourism": "guest_house"}}, {"type": "node", "id": 4396544589, "lat": 40.4176944, "lon": 49.9600869, "tags": {"name:ru": "Arzu day\u0131q\u0131z\u0131", "tourism": "guest_house"}}, {"type": "node", "id": 4399115289, "lat": 40.4096149, "lon": 49.9554683, "tags": {"addr:postcode": "AZ1118", "amenity": "restaurant", "cuisine": "barbecue;buschenschank;chicken;international;kebab;local", "internet_access": "wlan", "level": "1", "name:ru": "Qedim Qala", "opening_hours": "Mo-Su 09:00-03:00", "phone": "+994507510111"}}, {"type": "node", "id": 4407740798, "lat": 40.4127716, "lon": 49.9590303, "tags": {"amenity": "restaurant", "name": "G\u00fcl\u00fcstan Ail\u0259vi Restoran \\ Bak\u0131xanov"}}, {"type": "node", "id": 4407773891, "lat": 40.4209119, "lon": 49.9614725, "tags": {"amenity": "cafe", "cuisine": "regional", "name:en": "Ocaq d\u00f6n\u0259r", "opening_hours": "Mo-Su 10:00-22:00"}}, {"type": "node", "id": 4407778801, "lat": 40.4218228, "lon": 49.9630968, "tags": {"amenity": "restaurant", "cuisine": "regional", "name": "Nilufer/Niluf\u0259r", "opening_hours": "Mo-Su 10:00-22:00"}}, {"type": "node", "id": 4422091790, "lat": 40.4017862, "lon": 49.9771383, "tags": {"amenity": "restaurant", "name": "Villa"}}, {"type": "node", "id": 4428046489, "lat": 40.4022154, "lon": 49.979036, "tags": {"addr:street": "C\u0259lal Qurbanov", "amenity": "cafe", "internet_access": "wlan", "name": "Atilla"}}, {"type": "node", "id": 4500810593, "lat": 40.421205, "lon": 49.9718448, "tags": {"amenity": "cafe", "name": "Tamerlan Cay Evi"}}, {"type": "node", "id": 4518442790, "lat": 40.4144437, "lon": 49.9617665, "tags": {"amenity": "cafe", "name": "A\u011fr\u0131da\u011f Kafe"}}, {"type": "node", "id": 4565733389, "lat": 40.4299287, "lon": 49.9536612, "tags": {"amenity": "restaurant", "name": "Aqat \u015eadl\u0131q Saray\u0131 \\ Bak\u0131xanov"}}, {"type": "node", "id": 4573523693, "lat": 40.4207737, "lon": 49.9664931, "tags": {"addr:housenumber": "33", "addr:street": "S\u00fclh", "amenity": "cafe", "cuisine": "russian", "internet_access": "wlan", "name": "K\u00fcnc\u00fct un m\u0259mulatlar\u0131", "opening_hours": "Mo-Su 08:00-00:00", "phone": "+994124285283", "shop": "bakery", "website": "https://www.instagram.com/kuncut1516"}}, {"type": "node", "id": 4579276391, "lat": 40.4184797, "lon": 49.9596579, "tags": {"amenity": "restaurant", "name": "Vida M\u0259rasim Evi \\ Bak\u0131xanov"}}, {"type": "node", "id": 4586673395, "lat": 40.416345, "lon": 49.9681737, "tags": {"addr:housenumber": "110", "addr:street": "Muxtar F\u0259t\u0259liyev", "amenity": "restaurant", "name": "Qloriya", "opening_hours": "24/7"}}, {"type": "node", "id": 4607349995, "lat": 40.4056259, "lon": 49.9564052, "tags": {"addr:street": "Bahruz Nuriyev", "amenity": "cafe", "name:en": "Boston"}}, {"type": "node", "id": 4712469889, "lat": 40.4122252, "lon": 49.9561613, "tags": {"amenity": "cafe", "name": "Panorama Kafe"}}, {"type": "node", "id": 4741055622, "lat": 40.4152507, "lon": 49.968384, "tags": {"addr:housenumber": "68 \u0430", "addr:street": "Eldar X\u0259lilov", "amenity": "restaurant", "name": "Arzau \u015eadl\u0131q Saray\u0131"}}, {"type": "node", "id": 4838326524, "lat": 40.4239776, "lon": 49.9991966, "tags": {"amenity": "cafe", "name": "Kafe"}}, {"type": "node", "id": 4857748522, "lat": 40.4186324, "lon": 49.9699472, "tags": {"amenity": "cafe", "name": "\u00c7empion"}}, {"type": "node", "id": 4858430222, "lat": 40.4017223, "lon": 49.978168, "tags": {"amenity": "restaurant", "name:en": "Elvin \u015eadl\u0131q Saray\u0131"}}, {"type": "node", "id": 4861524721, "lat": 40.4186522, "lon": 49.965645, "tags": {"amenity": "restaurant", "name": "Party"}}, {"type": "node", "id": 4861662225, "lat": 40.4175725, "lon": 49.9611164, "tags": {"amenity": "restaurant", "name": "Tbilisi Restoran\u0131 \\ Bak\u0131xanov"}}, {"type": "node", "id": 4861662327, "lat": 40.4174735, "lon": 49.9662543, "tags": {"amenity": "restaurant", "name": "Astoria"}}, {"type": "node", "id": 4878591924, "lat": 40.4283403, "lon": 49.9622479, "tags": {"amenity": "cafe", "name:en": "Yasil makan"}}, {"type": "node", "id": 4897651924, "lat": 40.4177891, "lon": 49.9603632, "tags": {"amenity": "cafe", "cuisine": "regional;fish_and_chips;local;kebab", "internet_access": "wlan", "name:en": "Bublik", "name:ru": "\u0411\u0443\u0431\u043b\u0438\u043a", "opening_hours": "Mo-Su 10:05-04:00"}}, {"type": "node", "id": 5120497322, "lat": 40.4079675, "lon": 49.9589061, "tags": {"amenity": "cafe", "name:en": "Carona Pub"}}, {"type": "node", "id": 5120497323, "lat": 40.4034286, "lon": 49.9570071, "tags": {"amenity": "cafe", "name:en": "Carona Pub"}}, {"type": "node", "id": 5120570921, "lat": 40.4020939, "lon": 49.9563094, "tags": {"amenity": "restaurant", "name": "Siaqut Resotran"}}, {"type": "node", "id": 5121808121, "lat": 40.403794, "lon": 49.9508056, "tags": {"amenity": "restaurant", "name:en": "Fereh Restoran"}}, {"type": "node", "id": 5121808221, "lat": 40.4080926, "lon": 49.954717, "tags": {"amenity": "cafe", "name:en": "Limon Cay Evi"}}, {"type": "node", "id": 5136350922, "lat": 40.4008969, "lon": 49.9514886, "tags": {"amenity": "restaurant", "name:en": "Urfa Restoran"}}, {"type": "node", "id": 5136350923, "lat": 40.4061652, "lon": 49.9509752, "tags": {"amenity": "restaurant", "name:en": "Urfa Restoran"}}, {"type": "node", "id": 5150703530, "lat": 40.4070376, "lon": 49.9591285, "tags": {"amenity": "cafe", "name:en": "Champion Playstation Club"}}, {"type": "node", "id": 5370786721, "lat": 40.4258885, "lon": 49.9591948, "tags": {"internet_access": "wlan", "name": "G\u00fcltac", "tourism": "apartment"}}, {"type": "node", "id": 5550593022, "lat": 40.4355381, "lon": 49.9578901, "tags": {"amenity": "restaurant", "name:en": "Ulvi shadliq sarayi"}}, {"type": "node", "id": 5755201121, "lat": 40.4318607, "lon": 49.9966149, "tags": {"name": "Suraxani ev 119", "tourism": "apartment"}}, {"type": "node", "id": 5873364385, "lat": 40.4320865, "lon": 49.9577423, "tags": {"amenity": "restaurant", "name": "DeCode 13 Lounge \\ Bak\u0131xanov"}}, {"type": "node", "id": 6085861792, "lat": 40.4337099, "lon": 49.9539432, "tags": {"amenity": "restaurant", "name": "Mu\u011fan Restoran \\ Sabun\u00e7u"}}, {"type": "node", "id": 6162364986, "lat": 40.4138305, "lon": 49.9514202, "tags": {"amenity": "restaurant", "name:en": "Kendci"}}, {"type": "node", "id": 6162386985, "lat": 40.4081951, "lon": 49.957674, "tags": {"amenity": "cafe", "name:en": "Karizma"}}, {"type": "node", "id": 6447862785, "lat": 40.428751, "lon": 49.9571927, "tags": {"amenity": "restaurant", "name": "Badu Kub\u0259 \\ Bak\u0131xanov"}}, {"type": "node", "id": 6792705688, "lat": 40.4011971, "lon": 49.9545946, "tags": {"addr:street": "B\u0259hruz Nuriyev k\u00fc\u00e7\u0259si", "amenity": "restaurant", "name:en": "Eyyub kafe", "opening_hours": "Mo-Su 10:00-23:00"}}, {"type": "node", "id": 7888911085, "lat": 40.4018066, "lon": 49.9508695, "tags": {"amenity": "cafe", "name:en": "\u201cX\u0259z\u0259r\u201d", "name:ru": "\u041a\u0430\u0444\u0435 \u00ab\u0423 \u0428\u0435\u043c\u043a\u0438\u0440\u0430\u00bb"}}, {"type": "node", "id": 8228436917, "lat": 40.4118454, "lon": 49.9980472, "tags": {"historic": "monument", "name": "Abid\u0259 \u00dc\u00e7yol \\ Suraxan\u0131"}}, {"type": "node", "id": 10002904018, "lat": 40.423381, "lon": 49.968016, "tags": {"amenity": "cafe", "name": "\u0130mbir \u00c7ay Evi"}}, {"type": "node", "id": 10038060882, "lat": 40.4321846, "lon": 49.9781129, "tags": {"leisure": "sauna", "name": "\u018flib\u0259y V\u0259lib\u0259y Hamam\u0131 \\ B\u00fclb\u00fcl\u0259", "tourism": "attraction"}}, {"type": "node", "id": 10040160757, "lat": 40.4232826, "lon": 49.9883549, "tags": {"name": "S\u0259ttar B\u0259hlulzad\u0259 Ev Muzeyi \\ \u018fmircan", "tourism": "museum"}}, {"type": "node", "id": 10040279576, "lat": 40.4202166, "lon": 49.9870621, "tags": {"leisure": "sauna", "name": "Hamam", "tourism": "attraction"}}, {"type": "node", "id": 10040373102, "lat": 40.4225536, "lon": 49.992637, "tags": {"historic": "memorial", "name": "Murtuza Muxtarov heyk\u0259li \\ Suraxan\u0131"}}, {"type": "node", "id": 10040387960, "lat": 40.4242453, "lon": 49.9965839, "tags": {"historic": "monument", "name": "Heyd\u0259r \u018fliyev abid\u0259 \\ Suraxan\u0131"}}, {"type": "node", "id": 10040388029, "lat": 40.4277001, "lon": 49.9875731, "tags": {"addr:city": "\u018fmircan", "addr:street": "Tofiq Bayram k\u00fc\u00e7.", "amenity": "cafe", "name": "Kafe"}}, {"type": "node", "id": 10043347897, "lat": 40.4186646, "lon": 49.9955982, "tags": {"amenity": "cafe", "name": "Gilava Kafe \\ Suraxan\u0131"}}, {"type": "node", "id": 10043414611, "lat": 40.4211247, "lon": 49.9986278, "tags": {"amenity": "cafe", "name": "Dostluq Kafe"}}, {"type": "node", "id": 10045924159, "lat": 40.434759, "lon": 49.9861032, "tags": {"amenity": "restaurant", "name": "Xon\u00e7a Restoran\u0131 \\ B\u00fclb\u00fcl\u0259"}}, {"type": "node", "id": 10049767632, "lat": 40.4392106, "lon": 49.962139, "tags": {"historic": "monument", "name": "Sabun\u00e7u Saat Abid\u0259si"}}, {"type": "node", "id": 10049767652, "lat": 40.4395126, "lon": 49.9648279, "tags": {"amenity": "restaurant", "name": "B\u00fclb\u00fcl\u0259 \u015eadl\u0131q Saray\u0131"}}, {"type": "node", "id": 10049767661, "lat": 40.4315589, "lon": 49.9881564, "tags": {"building": "yes", "building:levels": "3", "name": "15 sayl\u0131 Yataqxana \\ B\u00fclb\u00fcl\u0259", "tourism": "guest_house"}}, {"type": "node", "id": 10051987576, "lat": 40.4143088, "lon": 49.98992, "tags": {"leisure": "sauna", "name": "Hamam \\ Suraxan\u0131", "tourism": "attraction"}}, {"type": "node", "id": 10051987658, "lat": 40.4186483, "lon": 49.9872753, "tags": {"leisure": "sauna", "name": "K\u00f6hn\u0259 Hamam \\ \u018fmircan", "tourism": "attraction"}}, {"type": "node", "id": 10054149147, "lat": 40.4221207, "lon": 49.9996229, "tags": {"amenity": "cafe", "name": "Qalatasaray Kafe"}}, {"type": "node", "id": 10059405919, "lat": 40.4286801, "lon": 49.9553543, "tags": {"name": "S\u0259rh\u0259d Qo\u015funlar\u0131 Yataqxanas\u0131 \\ Bak\u0131xanov", "tourism": "hotel"}}, {"type": "node", "id": 10059405986, "lat": 40.4231754, "lon": 49.9618158, "tags": {"amenity": "restaurant", "name": "Kristal Restoran\u0131 \\ Bak\u0131xanov"}}, {"type": "node", "id": 10061897385, "lat": 40.4173465, "lon": 49.9605672, "tags": {"amenity": "restaurant", "name": "Mega Palace \u015eadl\u0131q Saray\u0131 \\ Bak\u0131xanov"}}, {"type": "node", "id": 10061973578, "lat": 40.4189908, "lon": 49.9647796, "tags": {"historic": "memorial", "name": "Heyd\u0259r \u018fliyev heyk\u0259li"}}, {"type": "node", "id": 10067543724, "lat": 40.4111373, "lon": 49.9646147, "tags": {"amenity": "restaurant", "name": "\u015e\u0259hriyar \u015eadl\u0131q Saray\u0131 \\ Bak\u0131xanov"}}, {"type": "node", "id": 10067558568, "lat": 40.4103408, "lon": 49.9673157, "tags": {"amenity": "cafe", "name": "\u00dcz\u00fcml\u00fc Kafe / Bak\u0131xanov"}}, {"type": "node", "id": 10067564620, "lat": 40.4106012, "lon": 49.964549, "tags": {"amenity": "restaurant", "name": "H\u0259yat Hall \u015eadl\u0131q Saray\u0131 \\ Bak\u0131xanov"}}, {"type": "node", "id": 10078367390, "lat": 40.4315722, "lon": 49.9598806, "tags": {"amenity": "cafe", "name": "Ten 11 Lanch \\ Bak\u0131xanov"}}, {"type": "node", "id": 10078367402, "lat": 40.4328165, "lon": 49.9591255, "tags": {"addr:housenumber": "4A", "addr:street": "Leyla M\u0259mm\u0259db\u0259yli k\u00fc\u00e7.", "amenity": "cafe", "contact:instagram": "kulleme_kabab_evi", "cuisine": "beef_bowl;chicken;fish_and_chips;kebab;local", "internet_access": "wlan", "level": "1", "name": "Kulleme kabab evi \\ Bakixanov", "opening_hours": "Mo-Su 12:00-00:00", "phone": "+994702233353"}}, {"type": "node", "id": 10078367410, "lat": 40.4299255, "lon": 49.9626284, "tags": {"name": "SOCAR Yataqxana \\ Bak\u0131xanov", "tourism": "motel"}}, {"type": "node", "id": 10078369525, "lat": 40.4298561, "lon": 49.9567223, "tags": {"amenity": "cafe", "name": "313 Kafe \\ Bak\u0131xanov"}}, {"type": "node", "id": 10078369526, "lat": 40.4302236, "lon": 49.9564755, "tags": {"amenity": "cafe", "name": "Miramar Kafe \\ Bak\u0131xanov"}}, {"type": "node", "id": 10078369538, "lat": 40.4310965, "lon": 49.9555702, "tags": {"amenity": "restaurant", "name": "Meh Retro Pub \\ Bak\u0131xanov"}}, {"type": "node", "id": 10078458098, "lat": 40.4356604, "lon": 49.9576583, "tags": {"amenity": "restaurant", "name": "\u00dclvi \u015eadl\u0131q Saray\u0131 \\ Bak\u0131xanov"}}, {"type": "node", "id": 10078458101, "lat": 40.4329411, "lon": 49.9545309, "tags": {"amenity": "restaurant", "name": "Kahkaha Restoran \\ Bak\u0131xanov"}}, {"type": "node", "id": 10078458102, "lat": 40.4331799, "lon": 49.9546516, "tags": {"amenity": "restaurant", "name": "La Villa Restoran \\ Bak\u0131xanov"}}, {"type": "node", "id": 10078470969, "lat": 40.430142, "lon": 49.9528304, "tags": {"amenity": "restaurant", "name": "EL M\u0259rasim Evi \\ Bak\u0131xanov"}}, {"type": "node", "id": 10078470977, "lat": 40.4286929, "lon": 49.9564138, "tags": {"amenity": "restaurant", "name": "Qafqaz Restoran \\ Bak\u0131xanov"}}, {"type": "node", "id": 10078470978, "lat": 40.42875, "lon": 49.9563716, "tags": {"amenity": "cafe", "name": "Bib\u0259r Pizza \\ Bak\u0131xanov"}}, {"type": "node", "id": 10078470979, "lat": 40.4288766, "lon": 49.9562851, "tags": {"amenity": "restaurant", "name": "Kazbeki Restoran \\ Bak\u0131xanov"}}, {"type": "node", "id": 10078470989, "lat": 40.4277317, "lon": 49.9578166, "tags": {"amenity": "restaurant", "name": "Bak\u0131 Restoran \\ Bak\u0131xanov"}}, {"type": "node", "id": 10078470991, "lat": 40.4285453, "lon": 49.958805, "tags": {"amenity": "restaurant", "name": "Q\u0259dir Xum M\u0259rasim Zal\u0131 \\ Bak\u0131xanov"}}, {"type": "node", "id": 10078470992, "lat": 40.4285351, "lon": 49.9583168, "tags": {"amenity": "cafe", "name": "Restoran 57"}}, {"type": "node", "id": 10078470993, "lat": 40.4286485, "lon": 49.9585757, "tags": {"amenity": "cafe", "name": "Faxral\u0131 Kafe"}}, {"type": "node", "id": 10078471003, "lat": 40.4285362, "lon": 49.9634854, "tags": {"amenity": "cafe", "name": "Star\u0131 Dvor Kafe \\ Bak\u0131xanov"}}, {"type": "node", "id": 10080655671, "lat": 40.4110209, "lon": 49.9624783, "tags": {"amenity": "cafe", "name": "Futbo Kafe \\ Bak\u0131xanov"}}, {"type": "node", "id": 10080655676, "lat": 40.4114906, "lon": 49.9613705, "tags": {"name": "Bliss Land \u018fyl\u0259nc\u0259 \\ Bak\u0131xanov", "tourism": "theme_park"}}, {"type": "node", "id": 10080655714, "lat": 40.4144191, "lon": 49.9623147, "tags": {"amenity": "cafe", "name": "Bolnisi Kafe \\ Bak\u0131xanov"}}, {"type": "node", "id": 10080655715, "lat": 40.4145355, "lon": 49.9616951, "tags": {"amenity": "cafe", "name": "\u0130mperator \u00c7ay Evi"}}, {"type": "node", "id": 10080655920, "lat": 40.4260278, "lon": 49.953281, "tags": {"amenity": "cafe", "name": "Sev\u0259n \u00dcr\u0259kl\u0259r Kafe"}}, {"type": "node", "id": 10082583793, "lat": 40.417175, "lon": 49.9669468, "tags": {"name": "Kiddyland U\u015faq \u018fyl\u0259nc\u0259 \\ Bak\u0131xanov", "tourism": "theme_park"}}, {"type": "node", "id": 10082583794, "lat": 40.4172434, "lon": 49.9667618, "tags": {"amenity": "restaurant", "name": "Z\u0259m-Z\u0259m Restoran \\ Bak\u0131xanov"}}, {"type": "node", "id": 10082708041, "lat": 40.4160773, "lon": 49.9675168, "tags": {"amenity": "restaurant", "name": "Q\u0131zlar \u015eadl\u0131q Saray\u0131"}}, {"type": "node", "id": 10082708046, "lat": 40.4189546, "lon": 49.9660751, "tags": {"amenity": "restaurant", "name": "Avini"}}, {"type": "node", "id": 10082708090, "lat": 40.4223749, "lon": 49.9698463, "tags": {"amenity": "cafe", "name": "Praqa Kafe \\ Bak\u0131xanov"}}, {"type": "node", "id": 10087595068, "lat": 40.4129712, "lon": 49.960126, "tags": {"name": "Bak\u0131 Sosial \u0130qtisadi Kolleci Yataqxana \\ Bak\u0131xanov", "tourism": "hostel"}}, {"type": "node", "id": 10087595070, "lat": 40.4104766, "lon": 49.9638006, "tags": {"amenity": "cafe", "name": "Balak\u0259n Kafe \\ Bak\u0131xanov"}}, {"type": "node", "id": 10087595074, "lat": 40.4104541, "lon": 49.9649137, "tags": {"amenity": "cafe", "name": "Elit Kafe \\ Bak\u0131xanov"}}, {"type": "node", "id": 10087595075, "lat": 40.410061, "lon": 49.9636558, "tags": {"name": "Manor Motel \\ Bak\u0131xanov", "tourism": "motel"}}, {"type": "node", "id": 10087645462, "lat": 40.4012826, "lon": 49.9764258, "tags": {"amenity": "restaurant", "name": "\u00d6z Urfa Lahmacun"}}, {"type": "node", "id": 10087645463, "lat": 40.4011835, "lon": 49.975318, "tags": {"amenity": "restaurant", "name": "Food Book Restoran \\ Qara\u00e7uxur"}}, {"type": "node", "id": 10087645464, "lat": 40.4011141, "lon": 49.975145, "tags": {"amenity": "restaurant", "name": "Orion Palace \u015eadl\u0131q Saray\u0131"}}, {"type": "node", "id": 10087645473, "lat": 40.4012683, "lon": 49.9748674, "tags": {"amenity": "restaurant", "name": "Z\u0259ng\u0259zur \u015eadl\u0131q Saray\u0131"}}, {"type": "node", "id": 10087645487, "lat": 40.4040053, "lon": 49.9728611, "tags": {"amenity": "restaurant", "name": "Sultan"}}, {"type": "node", "id": 10087645503, "lat": 40.4090613, "lon": 49.9696706, "tags": {"amenity": "cafe", "name": "Zirv\u0259"}}, {"type": "node", "id": 10087645506, "lat": 40.4099242, "lon": 49.9692066, "tags": {"amenity": "cafe", "name": "MM \u00c7ay Evi"}}, {"type": "node", "id": 10087645508, "lat": 40.4108279, "lon": 49.9694909, "tags": {"amenity": "restaurant", "name": "Konya"}}, {"type": "node", "id": 10087721594, "lat": 40.4010007, "lon": 49.976407, "tags": {"amenity": "cafe", "name": "Bor\u00e7al\u0131 2"}}, {"type": "node", "id": 10090412465, "lat": 40.4278103, "lon": 49.9633178, "tags": {"amenity": "cafe", "name": "G\u00f6z\u0259l M\u0259kan Kafe"}}, {"type": "node", "id": 10090412483, "lat": 40.4216715, "lon": 49.9622315, "tags": {"name": "Kinder Land \\ Bak\u0131xanov", "tourism": "theme_park"}}, {"type": "node", "id": 10093299892, "lat": 40.4164786, "lon": 49.9717668, "tags": {"amenity": "restaurant", "name": "Restoran"}}, {"type": "node", "id": 10093299897, "lat": 40.4161856, "lon": 49.9709916, "tags": {"amenity": "cafe", "name": "X\u0259z\u0259r Kafe"}}, {"type": "node", "id": 10093339239, "lat": 40.4170412, "lon": 49.9718325, "tags": {"amenity": "restaurant", "name": "G\u00fcn\u0259\u015f M\u0259rasim Evi \\ Bak\u0131xanov"}}, {"type": "node", "id": 10093389770, "lat": 40.4057388, "lon": 49.9607603, "tags": {"amenity": "cafe", "name": "Qaraba\u011f \u00c7ay Evi"}}, {"type": "node", "id": 10114811311, "lat": 40.4447364, "lon": 49.9680358, "tags": {"addr:city": "Ramana", "amenity": "cafe", "name": "Moskovski Kafe"}}, {"type": "node", "id": 10114841848, "lat": 40.444025, "lon": 49.9643598, "tags": {"addr:city": "Ramana", "amenity": "restaurant", "name": "Q\u0259dim Bak\u0131"}}, {"type": "node", "id": 10114841853, "lat": 40.4425665, "lon": 49.9636236, "tags": {"addr:city": "B\u00fclb\u00fcl\u0259", "amenity": "cafe", "name": "Saml\u0131q Kafe"}}, {"type": "node", "id": 10114841863, "lat": 40.439972, "lon": 49.9605672, "tags": {"addr:city": "B\u00fclb\u00fcl\u0259", "amenity": "cafe", "name": "L\u0259ziz D\u00f6n\u0259r"}}, {"type": "node", "id": 10115012597, "lat": 40.4446323, "lon": 49.9695379, "tags": {"addr:city": "Ramana", "amenity": "restaurant", "name": "\u015e\u0259fal\u0131 Restoran"}}, {"type": "node", "id": 10115021017, "lat": 40.4404384, "lon": 49.9837321, "tags": {"amenity": "cafe", "name": "K\u0259ndistan Kafe", "residential": "Yeni Ramana"}}, {"type": "node", "id": 10115088172, "lat": 40.4444701, "lon": 49.9677381, "tags": {"addr:city": "Yeni Ramana", "amenity": "cafe", "name": "\u015e\u0259rur Kafe"}}, {"type": "node", "id": 10121907520, "lat": 40.4443588, "lon": 49.998039, "tags": {"addr:city": "Yeni Ramana", "amenity": "cafe", "name": "N\u0259q\u015ficahan Kafe"}}, {"type": "node", "id": 10803025409, "lat": 40.4355564, "lon": 49.9509033, "tags": {"addr:city": "Bak\u0131xanov", "addr:street": "El\u015f\u0259n Mehdiyev k\u00fc\u00e7.", "amenity": "cafe", "name": "Fuad G\u00f6r\u00fc\u015f Kafe \\ Sabun\u00e7u"}}, {"type": "node", "id": 10822565538, "lat": 40.446995, "lon": 49.9542882, "tags": {"amenity": "cafe", "name": "Q\u0259dim M\u0259h\u0259ll\u0259 Kafe \\ Sabun\u00e7u"}}, {"type": "node", "id": 10822565558, "lat": 40.4434229, "lon": 49.9510279, "tags": {"addr:street": "Z\u0259rdabi k\u00fc\u00e7.", "name": "Sabun\u00e7u Hamam\u0131", "tourism": "attraction"}}, {"type": "node", "id": 10825051755, "lat": 40.4322775, "lon": 49.9530798, "tags": {"addr:city": "Bak\u0131xanov", "addr:street": "B\u0259\u015fir B\u00fcnyadov k\u00fc\u00e7.", "name": "Fidan Motel \\ Bak\u0131xanov", "tourism": "motel"}}, {"type": "node", "id": 10825051767, "lat": 40.4337853, "lon": 49.9539033, "tags": {"amenity": "cafe", "name": "Pizza Line \\ Sabun\u00e7u"}}, {"type": "node", "id": 10832499650, "lat": 40.4300287, "lon": 49.9853642, "tags": {"addr:street": "N\u0259rimanov k\u00fc\u00e7.", "amenity": "restaurant", "name": "Orman Restoran \\ B\u00fclb\u00fcl\u0259"}}, {"type": "node", "id": 10832499679, "lat": 40.4297811, "lon": 49.9860127, "tags": {"addr:street": "N\u0259rimanov k\u00fc\u00e7.", "amenity": "cafe", "name": "Lal\u0259 Kafe \\ B\u00fclb\u00fcl\u0259"}}, {"type": "node", "id": 10832499681, "lat": 40.4299572, "lon": 49.9865632, "tags": {"addr:street": "\u0130lqar M\u0259mm\u0259dov k\u00fc\u00e7.", "amenity": "cafe", "name": "Qaranqu\u015f Kafe \\ B\u00fclb\u00fcl\u0259"}}, {"type": "node", "id": 10834316414, "lat": 40.4274704, "lon": 49.9909848, "tags": {"amenity": "cafe", "name": "Kafe"}}, {"type": "node", "id": 10834423944, "lat": 40.4208833, "lon": 49.9980135, "tags": {"amenity": "cafe", "name": "Tonqal Kafe \\ Suraxan\u0131"}}, {"type": "node", "id": 10834435092, "lat": 40.4212825, "lon": 49.998951, "tags": {"amenity": "cafe", "name": "\u00c7ay Evi 777 \\ Suraxan\u0131"}}, {"type": "node", "id": 10837877865, "lat": 40.4175895, "lon": 49.99637, "tags": {"addr:street": "Tahir Ba\u011f\u0131rov k\u00fc\u00e7.", "amenity": "cafe", "name": "Xil\u0259 D\u00f6n\u0259r \\ \u018fmircan"}}, {"type": "node", "id": 11155621005, "lat": 40.4244834, "lon": 49.9876819, "tags": {"addr:street": "Tofiq Bayram d\u00f6ng\u0259 4", "tourism": "apartment"}}, {"type": "way", "id": 154653952, "nodes": [1671550831, 3595706676, 10061973561, 10061973559, 13152972360, 10061973575, 1671550825, 1671550824, 1671550827, 1671550828, 1671550823, 3595580833, 1671550832, 1671550826, 1671550829, 1671550831], "tags": {"addr:city": "Bak\u0131", "addr:street": "S\u00fclh", "leisure": "park", "name": "Heyd\u0259r \u018fliyev Park\u0131 \\ Bak\u0131xanov"}}, {"type": "way", "id": 154661458, "nodes": [1671617021, 1671617020, 1671617023, 1671617018, 1671617016, 1671617022, 10059405957, 1671617019, 1671617025, 10059405910, 1671617024, 1671617021], "tags": {"leisure": "park"}}, {"type": "way", "id": 190980059, "nodes": [2015659452, 10073453308, 10073473017, 3600003142, 10073453306, 2015659437, 10073439810, 10073453307, 2015659447, 10073453309, 10073362901, 10073814224, 2015659452], "tags": {"leisure": "park"}}, {"type": "way", "id": 190981099, "nodes": [2015670047, 2015670053, 10073814118, 2015670032, 2015670034, 10073814119, 2015670047], "tags": {"leisure": "park"}}, {"type": "way", "id": 218823686, "nodes": [2280339078, 2280339020, 3517085225, 3517085217, 3517085222, 2280339014, 2280338960, 2280338954, 2280338948, 2280338946, 2280338930, 10052169238, 10040387980, 10040278200, 10040278199, 2280338916, 3517085203, 10040387966, 10040387967, 2280338950, 2280339004, 10052169242, 2280339016, 2280339022, 10040387956, 3540109388, 2280339048, 10052169231, 10040387957, 10040387958, 10040387959, 2280339078], "tags": {"leisure": "park", "name": "Heyd\u0259r \u018fliyev Park\u0131 \\ \u018fmircan"}}, {"type": "way", "id": 218848102, "nodes": [2280532399, 3440691037, 2280532393, 2280532386, 2280532378, 2280532397, 2280532399], "tags": {"leisure": "park", "name": "Q\u0259l\u0259b\u0259 Park\u0131"}}, {"type": "way", "id": 218848104, "nodes": [2280532340, 2280532325, 2280532320, 10043396358, 10834443366, 10834443365, 10834443364, 10834443363, 2280532309, 2280532312, 3517273289, 10043396357, 2280532332, 2280532362, 2280532351, 2280532346, 2280532343, 2280532340], "tags": {"amenity": "marketplace", "name": "Bazar \\ Suraxan\u0131"}}, {"type": "way", "id": 253156244, "nodes": [2591305478, 10082586536, 2591305479, 10082586542, 10082586541, 2591305477, 10082586534, 2591305478], "tags": {"leisure": "park"}}, {"type": "way", "id": 272395942, "nodes": [2773373037, 10822565584, 2773373019, 2773373022, 10112177381, 2773373025, 2773373028, 2773373031, 2773373037], "tags": {"leisure": "park"}}, {"type": "way", "id": 336991350, "nodes": [3440848470, 10115012313, 10115012314, 10115012312, 10115012310, 10115012311, 3440848465, 3440848466, 3440848468, 3440848470], "tags": {"leisure": "park"}}, {"type": "way", "id": 339784173, "nodes": [3469965407, 3469965406, 10049767633, 3469965402, 3469965394, 10049767649, 3469965288, 3469965423, 3469965418, 3469965448, 10049767646, 3469965427, 10049767643, 10049767639, 10049767635, 10049767634, 3469965411, 3469965410, 3469965407], "tags": {"leisure": "park"}}, {"type": "way", "id": 339784183, "nodes": [3469965567, 3469965533, 3469965534, 3469965553, 3469965564, 3469965571, 3469965567], "tags": {"leisure": "park"}}, {"type": "way", "id": 339784236, "nodes": [3469965520, 10115012614, 3469965474, 3469965471, 3469965469, 3520118656, 3469965470, 3520118658, 3469965472, 3463941727, 10114841857, 10115012621, 10115012626, 10115012625, 10115012624, 10115012623, 10115012622, 10112287637, 10115012620, 3469965503, 10115012619, 10115012618, 10115012617, 10115012611, 3469965531, 10115012615, 3469965528, 3469965526, 3469965520], "tags": {"leisure": "park"}}, {"type": "way", "id": 339784240, "nodes": [3469961663, 3469961647, 3469961637, 3469961634, 3469961633, 10045959422, 3469961650, 3469961663], "tags": {"leisure": "park"}}, {"type": "way", "id": 340679762, "nodes": [3479286877, 3479286999, 3479287010, 3479287021, 3479287008, 10815288002, 10815288001, 3479287047, 3479286876, 3479286866, 3479286847, 3479286827, 3479286813, 3479286810, 3479286811, 3479286818, 3479286821, 3479286820, 3479286817, 3479286819, 3479286853, 3479286860, 3479286877], "tags": {"leisure": "park"}}, {"type": "way", "id": 340679769, "nodes": [3479286806, 3479286808, 9923354980, 3479286798, 10054437428, 6001494299, 3479286793, 6001494300, 10054437425, 3479286806], "tags": {"leisure": "park", "name": "Bak\u0131xanov Park\u0131 Yeni"}}, {"type": "way", "id": 340679779, "nodes": [3479286892, 3479286874, 3479286873, 3479286844, 3479286807, 3479286834, 3479286859, 3479286869, 3479286882, 3479286892], "tags": {"leisure": "park"}}, {"type": "way", "id": 346763430, "nodes": [3532696534, 10057018985, 3532696507, 13152972342, 13152972341, 10057018997, 10057018983, 3532696502, 10057018981, 10057018998, 3532696510, 10057018982, 13152972346, 13152972344, 3532696534], "tags": {"leisure": "park", "name": "Bak\u0131xanov Park\u0131 K\u00f6hn\u0259"}}, {"type": "way", "id": 348730113, "nodes": [3547796740, 10038060847, 3547796735, 10832499626, 10832499627, 10038060825, 10038060822, 10038060823, 10038060824, 10038060850, 3547796733, 10038060846, 3547796738, 10038060849, 3547796740], "tags": {"leisure": "park", "name": "Bak\u0131xanov Park\u0131 \\ \u018fmircan"}}, {"type": "way", "id": 348731757, "nodes": [3547813383, 3547813381, 3547813380, 3547813379, 3547813373, 3547813366, 3547813370, 3547813383], "tags": {"leisure": "park"}}, {"type": "way", "id": 348734701, "nodes": [3547851041, 3547851034, 3547851030, 3547851031, 3547851023, 3547851024, 3547851035, 3547851037, 11406159960, 3547851038, 3547851040, 3547851041], "tags": {"leisure": "park", "name": "1941-1945 \\ \u018fmircan"}}, {"type": "way", "id": 349977753, "nodes": [3557536964, 3557536960, 3557536958, 3557536959, 11406159956, 3557536961, 3557536962, 3557536963, 10040373103, 3557536965, 3557536964], "tags": {"leisure": "park", "name": "Murtuza Muxtarov Park\u0131 \\ Suraxan\u0131"}}, {"type": "way", "id": 351315083, "nodes": [3570916844, 10057018945, 3570916845, 3570916843, 10057018939, 10057018946, 10057018938, 3570916841, 3570916844], "tags": {"leisure": "park"}}, {"type": "way", "id": 351315084, "nodes": [3570916800, 5950676216, 3570916801, 3570916799, 5950676218, 3570916798, 3570916800], "tags": {"leisure": "park"}}, {"type": "way", "id": 351315085, "nodes": [3570916840, 10057018936, 10057018940, 10057018937, 3570916842, 3570916803, 10057018941, 5950676215, 10057018942, 3570916802, 3570916840], "tags": {"leisure": "park"}}, {"type": "way", "id": 351315086, "nodes": [3570916796, 5950676219, 3570916797, 3570916795, 10061897403, 3570916794, 3570916796], "tags": {"leisure": "park"}}, {"type": "way", "id": 351315087, "nodes": [3570916852, 3570916853, 3570916851, 10057018952, 10057018951, 3570916850, 3570916847, 10057018948, 10057018947, 10057018949, 3570916846, 3570916848, 10057018956, 10057018957, 3570916849, 3570916852], "tags": {"leisure": "park"}}, {"type": "way", "id": 351625065, "nodes": [3574402030, 10059405831, 3574402023, 3574401290, 3574401286, 10059405844, 3574401280, 3574401271, 10059510672, 10059403174, 3574402024, 3574402030], "tags": {"leisure": "park"}}, {"type": "way", "id": 351630427, "nodes": [3574441324, 3574441326, 3574441307, 3574441305, 3574441324], "tags": {"leisure": "park"}}, {"type": "way", "id": 351630430, "nodes": [3574441329, 3574441331, 3574441335, 3574441334, 3574441329], "tags": {"leisure": "park"}}, {"type": "way", "id": 351633223, "nodes": [3574461820, 3574461818, 3574461815, 3574461816, 3574461820], "tags": {"leisure": "park"}}, {"type": "way", "id": 351639400, "nodes": [3574519461, 3574519440, 3574519445, 3574519464, 3574519461], "tags": {"leisure": "park"}}, {"type": "way", "id": 353753484, "nodes": [3595698323, 3595698290, 3595698302, 3595698307, 3595698329, 3595698323], "tags": {"leisure": "park"}}, {"type": "way", "id": 354841104, "nodes": [3605014212, 1899684334, 3605014044, 3605014223, 3605014212], "tags": {"leisure": "park"}}, {"type": "way", "id": 354841122, "nodes": [3605014207, 3605014203, 3605014193, 3605014226, 3605014265, 3605014207], "tags": {"amenity": "marketplace", "building": "yes", "building:levels": "2", "name": "8-ci km Bazar\u0131"}}, {"type": "way", "id": 354845037, "nodes": [3605044748, 3605044743, 3605044744, 3605044761, 3605044763, 3605044764, 3605044767, 3605044769, 1899683041, 3605044759, 3605044756, 1899683129, 3605044748], "tags": {"leisure": "park"}}, {"type": "way", "id": 354845040, "nodes": [1899684569, 3605047446, 3605047399, 3605047409, 3605047414, 1899684565, 1899684569], "tags": {"leisure": "park"}}, {"type": "way", "id": 354845041, "nodes": [3605044735, 3605044732, 3605044737, 3605044739, 3605044738, 3605044734, 3605044736, 3605044735], "tags": {"leisure": "park"}}, {"type": "way", "id": 354845042, "nodes": [1899684564, 3605044774, 3605044768, 3605047396, 3605047401, 3605047398, 3605047403, 1899684564], "tags": {"leisure": "park"}}, {"type": "way", "id": 355013958, "nodes": [3606539467, 3606539462, 3606539466, 3606539460, 3606539474, 3606539480, 3606539485, 3606539482, 3606539488, 3606539492, 3606539504, 3606539500, 3606539494, 3606539487, 3606539481, 3606539469, 3606539467], "tags": {"leisure": "park"}}, {"type": "way", "id": 355013960, "nodes": [3606539611, 3606539553, 3606539533, 3606539591, 3606539611], "tags": {"leisure": "park"}}, {"type": "way", "id": 355016290, "nodes": [3606554247, 3606554226, 3606554230, 3606554253, 3606554247], "tags": {"leisure": "park"}}, {"type": "way", "id": 355016291, "nodes": [3606554280, 3606554256, 3606554263, 3606554275, 3606554280], "tags": {"leisure": "park"}}, {"type": "way", "id": 355395267, "nodes": [3610198082, 3610198105, 3606552858, 3606552865, 3610198151, 3610198137, 3610198122, 3610198130, 3610198111, 3610198098, 3610198082], "tags": {"leisure": "park"}}, {"type": "way", "id": 355395273, "nodes": [3610198054, 3610198031, 3610198037, 3610198056, 3610198073, 3610198054], "tags": {"leisure": "park"}}, {"type": "way", "id": 355395278, "nodes": [3610198184, 3610198155, 3610198149, 3610198123, 3610198143, 3610198171, 3610198166, 3610198192, 3610198184], "tags": {"amenity": "restaurant"}}, {"type": "way", "id": 355395333, "nodes": [3610198089, 3610198018, 3610198051, 3610198070, 3610198079, 3610198119, 3610198089], "tags": {"landuse": "grass", "leisure": "park"}}, {"type": "way", "id": 355396936, "nodes": [3610208957, 3610208950, 3610208971, 3610208989, 3610208957], "tags": {"leisure": "park"}}, {"type": "way", "id": 355396940, "nodes": [3610209108, 3610209103, 3610209106, 3610209107, 3610209110, 3610209109, 3610209108], "tags": {"amenity": "restaurant", "name": "Qaya restoran\u0131"}}, {"type": "way", "id": 358194570, "nodes": [5950676071, 5950676072, 5950676073, 3631568628, 3631568632, 3631568634, 3631568633, 3631568631, 3631568627, 5950676067, 5950676068, 5950676069, 5950676070, 3631568623, 3631568621, 3631568619, 3631568620, 3631568622, 3631568624, 5950676071], "tags": {"landuse": "grass", "name": "Bak\u0131xanov Dair\u0259si", "tourism": "attraction"}}, {"type": "way", "id": 521509557, "nodes": [5081283095, 5081283096, 5081283080, 5081283083, 5081283084, 5081283085, 9923193239, 5081283086, 5081283087, 5081283088, 5081283089, 10049795432, 10797751280, 5081283091, 10049795433, 5081283095], "tags": {"landuse": "forest", "name": "Sabun\u00e7u Dair\u0259si \\ Komsomol Dair\u0259si", "name:az": "Sabun\u00e7u Dair\u0259si / Komsomol Dair\u0259si", "tourism": "attraction"}}, {"type": "way", "id": 589153119, "nodes": [5626099186, 10115088153, 5626099187, 5626099188, 5626099189, 5626099190, 10115088151, 5626099191, 5626099192, 10115088149, 10115088147, 10114841850, 10114841849, 5626099193, 10115088146, 10115088157, 5626099194, 10114841851, 5626099195, 5626099196, 5626099197, 5626099198, 5626099186], "tags": {"leisure": "park"}}, {"type": "way", "id": 589538097, "nodes": [5629620521, 5629620522, 5629620523, 5629620524, 5629620525, 10034463776, 5629620526, 5629620527, 5629620521], "tags": {"leisure": "park"}}, {"type": "way", "id": 663086365, "nodes": [6207092943, 10078470920, 10078470921, 6207092944, 6207092945, 6207092946, 6207092943], "tags": {"addr:city": "Bak\u0131", "addr:housenumber": "8", "addr:postcode": "AZ1040", "addr:street": "Oskar \u018ff\u0259ndiyev", "leisure": "park", "name": "\u015e\u0259hidl\u0259r Xiyaban\u0131 \\ Bak\u0131xanov"}}, {"type": "way", "id": 663089668, "nodes": [6207126485, 6207126486, 6207126487, 6207126488, 6207126489, 6207126490, 6207126491, 9786633868, 6207126485], "tags": {"addr:housenumber": "2", "addr:postcode": "AZ1040", "addr:street": "B\u0259\u015fir B\u00fcnyadov k\u00fc\u00e7\u0259si", "amenity": "restaurant", "building": "yes", "building:levels": "2", "name": "Fidan \u015eadl\u0131q Saray\u0131 \\ Bak\u0131xanov"}}, {"type": "way", "id": 663102269, "nodes": [6207226160, 10112209806, 6207226161, 6207226162, 6207226163, 6207226160], "tags": {"leisure": "park", "name": "Yeni Ramana Park\u0131"}}, {"type": "way", "id": 810224313, "nodes": [7575099180, 7575099179, 7575099178, 10049744723, 7575099177, 7575099176, 7575099175, 7575099174, 7575099173, 10049744717, 7575099172, 7575099171, 7575099170, 7575099169, 10049687806, 7575099168, 7575099180], "tags": {"leisure": "park"}}, {"type": "way", "id": 1096399104, "nodes": [10040414996, 10040414995, 10040414991, 10040414994, 10040414993, 10040414996], "tags": {"leisure": "park"}}, {"type": "way", "id": 1096400907, "nodes": [10040408190, 10040408189, 10040408188, 3632626648, 10040408187, 10040408186, 10040408185, 10040408184, 10040408183, 10040408182, 10040408181, 10040408180, 10040408190], "tags": {"leisure": "park"}}, {"type": "way", "id": 1096789045, "nodes": [10043279647, 10043279646, 10043279645, 10043279644, 10043279643, 10043279642, 10043279647], "tags": {"leisure": "park"}}, {"type": "way", "id": 1097103868, "nodes": [10045924170, 10045924169, 10045924168, 10045924167, 10045924166, 3540013516, 3540013511, 10045924165, 10045924164, 10045924146, 10045924145, 10045924170], "tags": {"leisure": "park"}}, {"type": "way", "id": 1098062479, "nodes": [10054305305, 10054305304, 10054305303, 10054305302, 10054305301, 10054305300, 10054305305], "tags": {"leisure": "park"}}, {"type": "way", "id": 1098647073, "nodes": [6602731704, 10059398587, 10059398586, 10059398585, 6602731701, 6602731704], "tags": {"leisure": "park"}}, {"type": "way", "id": 1098664675, "nodes": [10059519171, 10059519170, 10059519169, 10059519168, 10059519167, 10059519166, 10059519171], "tags": {"leisure": "park"}}, {"type": "way", "id": 1099416887, "nodes": [10065141880, 10065141879, 10065141878, 10065141877, 10065141880], "tags": {"leisure": "park"}}, {"type": "way", "id": 1099416893, "nodes": [10065141899, 10065141898, 10065141897, 10065141891, 10065141896, 10065141899], "tags": {"landuse": "religious", "leisure": "park"}}, {"type": "way", "id": 1099420715, "nodes": [1671621170, 1671621114, 10065186425, 10065186424, 10065186423, 10065186422, 10065186421, 10065186420, 10065186419, 1671621159, 1671621170], "tags": {"leisure": "park"}}, {"type": "way", "id": 1099422948, "nodes": [10065205528, 10065205527, 10065205526, 10065205525, 10065205528], "tags": {"leisure": "park"}}, {"type": "way", "id": 1099733097, "nodes": [10067558590, 10067558567, 10067558581, 10067558580, 10067558579, 10067558566, 10067558590], "tags": {"leisure": "park"}}, {"type": "way", "id": 1100683902, "nodes": [10073553676, 10073553672, 10073553667, 10073553675, 10073553668, 10073553674, 10073553671, 10073553673, 10073553670, 10073553676], "tags": {"leisure": "park"}}, {"type": "way", "id": 1100707438, "nodes": [10073813916, 10073813915, 10073813914, 10073813913, 10073813912, 10073813911, 10073813910, 10073813909, 10073813916], "tags": {"leisure": "park"}}, {"type": "way", "id": 1100707471, "nodes": [10073814152, 10073814151, 10073814150, 10073814149, 10073814148, 10073814147, 10073814146, 10073814145, 10073814144, 10073814143, 10073814142, 10073814141, 10073814140, 10073814139, 10073814138, 10073814152], "tags": {"leisure": "park"}}, {"type": "way", "id": 1100707484, "nodes": [10073814207, 10073814206, 10073814202, 10073814205, 10073814204, 10073814203, 10073814207], "tags": {"leisure": "park"}}, {"type": "way", "id": 1101565119, "nodes": [10080655708, 10080655707, 10080655706, 10080655705, 10080655704, 10065113441, 10065113442, 10065113443, 10065113444, 10065113445, 10080655708], "tags": {"leisure": "park"}}, {"type": "way", "id": 1101565133, "nodes": [10080655805, 10080655804, 10080655803, 1671621112, 1671621124, 1671621126, 1671621169, 10080655802, 10080655801, 10080655800, 10080655799, 10080655798, 10080655797, 7396966364, 10080655796, 10080655795, 10080655794, 3574542152, 10080655793, 10080655792, 10080655791, 10080655790, 10080655789, 1885271128, 10080655788, 10080655805], "tags": {"leisure": "park"}}, {"type": "way", "id": 1101565137, "nodes": [10080655846, 10080655845, 10080655844, 10080655848, 10080655847, 10080655846], "tags": {"leisure": "park"}}, {"type": "way", "id": 1101565150, "nodes": [10059405875, 10080655918, 10080655917, 10059405876, 10059405875], "tags": {"leisure": "park"}}, {"type": "way", "id": 1101818092, "nodes": [10082672806, 10082672805, 10082672804, 10082672803, 10082672802, 10082672801, 10082672807, 10082672806], "tags": {"leisure": "park"}}, {"type": "way", "id": 1102985132, "nodes": [10093339229, 10093339228, 10093339227, 10093339226, 10093339229], "tags": {"leisure": "park"}}, {"type": "way", "id": 1102986084, "nodes": [10093344135, 10093344134, 10093344133, 10093344132, 10093344131, 10093344130, 10093344135], "tags": {"leisure": "park"}}, {"type": "way", "id": 1102993517, "nodes": [10093400529, 10093400528, 10093400527, 10093400526, 10093400529], "tags": {"leisure": "park"}}, {"type": "way", "id": 1105054674, "nodes": [10112209784, 10112209783, 10112209782, 10112209781, 10112209780, 10112209779, 10112209778, 10112209777, 10112209776, 10112209775, 10112209774, 10112209773, 10112209772, 10112209771, 10112209770, 10112209763, 10112209762, 10112209761, 10112209760, 10112209759, 10112209758, 10112177416, 10112209757, 10112209756, 10112209755, 10112209754, 10112209753, 10112209752, 10112209751, 10112209750, 10112209749, 10112209748, 10112209747, 10112209746, 10112209745, 10112209744, 10112209743, 10112209742, 10112209741, 10112209740, 10112209739, 10112209738, 10112209737, 10112209736, 10112209735, 10112209734, 10112209733, 10112209732, 10112209731, 10112209730, 10112209729, 10112209784], "tags": {"leisure": "park"}}, {"type": "way", "id": 1162911686, "nodes": [10815287998, 10815287997, 10815287996, 10815287995, 10815287994, 7297164110, 10815287992, 7297164107, 7297164108, 7297164105, 7297164104, 10815287998], "tags": {"leisure": "park"}}, {"type": "way", "id": 1163694924, "nodes": [10822565586, 10822565585, 2773373019, 10822565584, 2773373037, 10822565583, 10822565582, 10822565586], "tags": {"addr:street": "Asif \u018fs\u0259dullayev k\u00fc\u00e7.", "amenity": "cafe", "name": "\u015eaurma No 1 \\ Sabun\u00e7u"}}, {"type": "way", "id": 1163973295, "nodes": [10825051766, 10825051765, 10825051764, 10825051763, 10825051756, 10825051762, 10825051761, 10825051760, 10825051759, 10825051758, 10825051757, 10825051766], "tags": {"leisure": "park"}}, {"type": "way", "id": 1164729381, "nodes": [10832499636, 10832499635, 10832499634, 10832499633, 10832499636], "tags": {"leisure": "park"}}, {"type": "way", "id": 1164729382, "nodes": [10832499643, 10832499642, 10832499641, 10832499640, 10832499639, 10832499638, 10832499637, 10832499643], "tags": {"leisure": "park"}}, {"type": "way", "id": 1164904543, "nodes": [10834370388, 10834370387, 10834370386, 10834370385, 10834370388], "tags": {"leisure": "park"}}, {"type": "way", "id": 1164910232, "nodes": [10834423921, 10834423920, 10834423919, 10834423918, 10834423917, 10834423921], "tags": {"leisure": "park"}}, {"type": "way", "id": 1185585090, "nodes": [11012971157, 11012971152, 11012971151, 11012971150, 11012971149, 11012971156, 11012971157], "tags": {"leisure": "park"}}, {"type": "way", "id": 1185585095, "nodes": [11012971191, 11012971190, 11012971189, 11012971188, 11012971187, 11012971186, 11012971185, 11012971184, 11012971191], "tags": {"leisure": "park"}}, {"type": "way", "id": 1185585097, "nodes": [11012971202, 11012971201, 11012971200, 11012971199, 11012971198, 11012971197, 11012971196, 11012971202], "tags": {"leisure": "park"}}, {"type": "way", "id": 1218377481, "nodes": [11289661002, 11289661001, 11289661000, 11289660999, 11289661002], "tags": {"leisure": "park"}}, {"type": "node", "id": 3605014193, "lat": 40.4048658, "lon": 49.9491271}, {"type": "node", "id": 3605014203, "lat": 40.4051098, "lon": 49.9483525}, {"type": "node", "id": 3605014207, "lat": 40.4051746, "lon": 49.9483608}, {"type": "node", "id": 3605014226, "lat": 40.4056679, "lon": 49.951004}, {"type": "node", "id": 3605014265, "lat": 40.4061391, "lon": 49.9506427}, {"type": "node", "id": 3610198089, "lat": 40.4075585, "lon": 49.9511859}, {"type": "node", "id": 3610208950, "lat": 40.409872, "lon": 49.9503762}, {"type": "node", "id": 3610208957, "lat": 40.4100034, "lon": 49.9494216}, {"type": "node", "id": 3610208971, "lat": 40.4101348, "lon": 49.950443}, {"type": "node", "id": 3610208989, "lat": 40.4103722, "lon": 49.950276}, {"type": "node", "id": 1899683041, "lat": 40.4026133, "lon": 49.9550193}, {"type": "node", "id": 1899683129, "lat": 40.4021001, "lon": 49.9540675}, {"type": "node", "id": 1899684334, "lat": 40.4044026, "lon": 49.9560483}, {"type": "node", "id": 1899684564, "lat": 40.4026585, "lon": 49.9554162}, {"type": "node", "id": 1899684565, "lat": 40.4033664, "lon": 49.9570532}, {"type": "node", "id": 3605014044, "lat": 40.4044841, "lon": 49.956245}, {"type": "node", "id": 3605014212, "lat": 40.4053422, "lon": 49.9554085}, {"type": "node", "id": 3605014223, "lat": 40.4056749, "lon": 49.9562107}, {"type": "node", "id": 3605044732, "lat": 40.4008502, "lon": 49.9518529}, {"type": "node", "id": 3605044734, "lat": 40.4010427, "lon": 49.9520043}, {"type": "node", "id": 3605044735, "lat": 40.4010534, "lon": 49.9517076}, {"type": "node", "id": 3605044736, "lat": 40.4011487, "lon": 49.9519298}, {"type": "node", "id": 3605044737, "lat": 40.4013886, "lon": 49.9530999}, {"type": "node", "id": 3605044738, "lat": 40.4014159, "lon": 49.9528876}, {"type": "node", "id": 3605044739, "lat": 40.4014741, "lon": 49.9530343}, {"type": "node", "id": 3605044743, "lat": 40.4015526, "lon": 49.9534245}, {"type": "node", "id": 3605044744, "lat": 40.4015633, "lon": 49.9535041}, {"type": "node", "id": 3605044748, "lat": 40.4017601, "lon": 49.9532687}, {"type": "node", "id": 3605044756, "lat": 40.4021171, "lon": 49.9541049}, {"type": "node", "id": 3605044759, "lat": 40.4021919, "lon": 49.9540485}, {"type": "node", "id": 3605044761, "lat": 40.4022537, "lon": 49.9550694}, {"type": "node", "id": 3605044763, "lat": 40.4022846, "lon": 49.9550506}, {"type": "node", "id": 3605044764, "lat": 40.4023215, "lon": 49.9551349}, {"type": "node", "id": 3605044767, "lat": 40.4024225, "lon": 49.9550537}, {"type": "node", "id": 3605044768, "lat": 40.4024355, "lon": 49.9554054}, {"type": "node", "id": 3605044769, "lat": 40.4024593, "lon": 49.955124}, {"type": "node", "id": 3605044774, "lat": 40.40254, "lon": 49.9554303}, {"type": "node", "id": 3605047396, "lat": 40.4030724, "lon": 49.9569192}, {"type": "node", "id": 3605047398, "lat": 40.4031057, "lon": 49.9567225}, {"type": "node", "id": 3605047399, "lat": 40.4031366, "lon": 49.9570409}, {"type": "node", "id": 3605047401, "lat": 40.403158, "lon": 49.9568505}, {"type": "node", "id": 3605047403, "lat": 40.4031885, "lon": 49.9566614}, {"type": "node", "id": 3605047409, "lat": 40.4033553, "lon": 49.9568942}, {"type": "node", "id": 3605047414, "lat": 40.4034097, "lon": 49.957022}, {"type": "node", "id": 3606539460, "lat": 40.405913, "lon": 49.9573144}, {"type": "node", "id": 3606539462, "lat": 40.4059368, "lon": 49.9569732}, {"type": "node", "id": 3606539466, "lat": 40.4060364, "lon": 49.9572149}, {"type": "node", "id": 3606539467, "lat": 40.4060473, "lon": 49.9568936}, {"type": "node", "id": 3606539469, "lat": 40.4061252, "lon": 49.956851}, {"type": "node", "id": 11012971149, "lat": 40.4013847, "lon": 49.9557339}, {"type": "node", "id": 11012971150, "lat": 40.4010161, "lon": 49.9548393}, {"type": "node", "id": 11012971151, "lat": 40.4011396, "lon": 49.9547522}, {"type": "node", "id": 11012971152, "lat": 40.4012254, "lon": 49.95496}, {"type": "node", "id": 11012971156, "lat": 40.4017105, "lon": 49.9555112}, {"type": "node", "id": 11012971157, "lat": 40.4014174, "lon": 49.9548112}, {"type": "node", "id": 11012971184, "lat": 40.402455, "lon": 49.9536525}, {"type": "node", "id": 11012971185, "lat": 40.4022641, "lon": 49.9537691}, {"type": "node", "id": 11012971186, "lat": 40.4020792, "lon": 49.9533413}, {"type": "node", "id": 11012971187, "lat": 40.4022028, "lon": 49.9532528}, {"type": "node", "id": 11012971188, "lat": 40.4020598, "lon": 49.9529162}, {"type": "node", "id": 11012971189, "lat": 40.4019362, "lon": 49.9530047}, {"type": "node", "id": 11012971190, "lat": 40.4018739, "lon": 49.9528532}, {"type": "node", "id": 11012971191, "lat": 40.4020527, "lon": 49.9527311}, {"type": "node", "id": 11012971196, "lat": 40.4018801, "lon": 49.9524347}, {"type": "node", "id": 11012971197, "lat": 40.4019301, "lon": 49.9525005}, {"type": "node", "id": 11012971198, "lat": 40.4020414, "lon": 49.9525474}, {"type": "node", "id": 11012971199, "lat": 40.4020445, "lon": 49.9525917}, {"type": "node", "id": 11012971200, "lat": 40.401782, "lon": 49.9527901}, {"type": "node", "id": 11012971201, "lat": 40.4014695, "lon": 49.9520659}, {"type": "node", "id": 11012971202, "lat": 40.4016676, "lon": 49.9519198}, {"type": "node", "id": 1899684569, "lat": 40.4040512, "lon": 49.9586927}, {"type": "node", "id": 3605047446, "lat": 40.4039019, "lon": 49.9588075}, {"type": "node", "id": 3606539533, "lat": 40.4081339, "lon": 49.95683}, {"type": "node", "id": 3606539553, "lat": 40.4083109, "lon": 49.9572632}, {"type": "node", "id": 3606539591, "lat": 40.4087, "lon": 49.9565475}, {"type": "node", "id": 3606539611, "lat": 40.4088424, "lon": 49.9568668}, {"type": "node", "id": 3606552858, "lat": 40.4077434, "lon": 49.9520511}, {"type": "node", "id": 3606552865, "lat": 40.4081403, "lon": 49.952976}, {"type": "node", "id": 3606554226, "lat": 40.4088531, "lon": 49.9556029}, {"type": "node", "id": 3606554230, "lat": 40.4089282, "lon": 49.9557972}, {"type": "node", "id": 3606554247, "lat": 40.4091137, "lon": 49.9554148}, {"type": "node", "id": 3606554253, "lat": 40.4091795, "lon": 49.9556214}, {"type": "node", "id": 3606554256, "lat": 40.4092123, "lon": 49.9553346}, {"type": "node", "id": 3606554263, "lat": 40.4092992, "lon": 49.9555474}, {"type": "node", "id": 3606554275, "lat": 40.4093767, "lon": 49.9555011}, {"type": "node", "id": 3606554280, "lat": 40.4094166, "lon": 49.9551742}, {"type": "node", "id": 3610198018, "lat": 40.4070477, "lon": 49.9515873}, {"type": "node", "id": 3610198031, "lat": 40.4071658, "lon": 49.9525598}, {"type": "node", "id": 3610198037, "lat": 40.4071952, "lon": 49.9526296}, {"type": "node", "id": 3610198051, "lat": 40.4072935, "lon": 49.9521226}, {"type": "node", "id": 3610198054, "lat": 40.4073053, "lon": 49.9524583}, {"type": "node", "id": 3610198056, "lat": 40.4073154, "lon": 49.9529148}, {"type": "node", "id": 3610198070, "lat": 40.4074362, "lon": 49.9520122}, {"type": "node", "id": 3610198073, "lat": 40.4074549, "lon": 49.9528134}, {"type": "node", "id": 3610198079, "lat": 40.407468, "lon": 49.9520574}, {"type": "node", "id": 3610198082, "lat": 40.4074841, "lon": 49.9521543}, {"type": "node", "id": 3610198098, "lat": 40.4076309, "lon": 49.9524938}, {"type": "node", "id": 3610198105, "lat": 40.4077206, "lon": 49.9519858}, {"type": "node", "id": 3610198111, "lat": 40.4077749, "lon": 49.95239}, {"type": "node", "id": 3610198119, "lat": 40.4078285, "lon": 49.9518065}, {"type": "node", "id": 3610198122, "lat": 40.4078614, "lon": 49.95284}, {"type": "node", "id": 3610198123, "lat": 40.4078644, "lon": 49.9535309}, {"type": "node", "id": 3610198130, "lat": 40.4079447, "lon": 49.9527785}, {"type": "node", "id": 3610198137, "lat": 40.4080044, "lon": 49.95316}, {"type": "node", "id": 3610198143, "lat": 40.4080539, "lon": 49.9539772}, {"type": "node", "id": 3610198149, "lat": 40.4081257, "lon": 49.953362}, {"type": "node", "id": 3610198151, "lat": 40.4081676, "lon": 49.9530276}, {"type": "node", "id": 3610198155, "lat": 40.4082069, "lon": 49.9535647}, {"type": "node", "id": 3610198166, "lat": 40.4083315, "lon": 49.9536892}, {"type": "node", "id": 3610198171, "lat": 40.4083721, "lon": 49.9538776}, {"type": "node", "id": 3610198184, "lat": 40.4085277, "lon": 49.9533887}, {"type": "node", "id": 3610198192, "lat": 40.4085724, "lon": 49.9535896}, {"type": "node", "id": 3610209103, "lat": 40.4127415, "lon": 49.9517025}, {"type": "node", "id": 1671621159, "lat": 40.4124535, "lon": 49.9589487}, {"type": "node", "id": 3606539474, "lat": 40.4065863, "lon": 49.9588865}, {"type": "node", "id": 3606539480, "lat": 40.4067487, "lon": 49.9592817}, {"type": "node", "id": 3606539481, "lat": 40.4067898, "lon": 49.9585283}, {"type": "node", "id": 3606539482, "lat": 40.4067898, "lon": 49.9589377}, {"type": "node", "id": 3606539485, "lat": 40.4068699, "lon": 49.959114}, {"type": "node", "id": 3606539487, "lat": 40.406924, "lon": 49.9584345}, {"type": "node", "id": 3606539488, "lat": 40.4069457, "lon": 49.9588183}, {"type": "node", "id": 3606539492, "lat": 40.4070193, "lon": 49.9589917}, {"type": "node", "id": 3606539494, "lat": 40.4070339, "lon": 49.9587114}, {"type": "node", "id": 3606539500, "lat": 40.4071292, "lon": 49.9586506}, {"type": "node", "id": 3606539504, "lat": 40.4072163, "lon": 49.9588666}, {"type": "node", "id": 10065186419, "lat": 40.4124504, "lon": 49.9590504}, {"type": "node", "id": 10065186420, "lat": 40.4124709, "lon": 49.9591362}, {"type": "node", "id": 10065186421, "lat": 40.4125219, "lon": 49.9592221}, {"type": "node", "id": 10065186422, "lat": 40.4125995, "lon": 49.9592784}, {"type": "node", "id": 10065186423, "lat": 40.4127037, "lon": 49.959316}, {"type": "node", "id": 1671621124, "lat": 40.419328, "lon": 49.9501807}, {"type": "node", "id": 3610209108, "lat": 40.4132718, "lon": 49.9513725}, {"type": "node", "id": 1671621112, "lat": 40.41949, "lon": 49.9501558}, {"type": "node", "id": 1885271128, "lat": 40.4213757, "lon": 49.9500241}, {"type": "node", "id": 3574542152, "lat": 40.4219352, "lon": 49.9509742}, {"type": "node", "id": 10080655788, "lat": 40.4213601, "lon": 49.9499725}, {"type": "node", "id": 10080655789, "lat": 40.4213958, "lon": 49.9500704}, {"type": "node", "id": 10080655790, "lat": 40.4214867, "lon": 49.9500141}, {"type": "node", "id": 10080655791, "lat": 40.4217215, "lon": 49.9506229}, {"type": "node", "id": 10080655792, "lat": 40.4218992, "lon": 49.9505773}, {"type": "node", "id": 10080655793, "lat": 40.4219686, "lon": 49.9508992}, {"type": "node", "id": 10080655794, "lat": 40.4217542, "lon": 49.9511728}, {"type": "node", "id": 10080655803, "lat": 40.4199256, "lon": 49.9500221}, {"type": "node", "id": 10080655804, "lat": 40.4198409, "lon": 49.9494696}, {"type": "node", "id": 10080655805, "lat": 40.4210701, "lon": 49.9497002}, {"type": "node", "id": 3610209106, "lat": 40.4129366, "lon": 49.9521579}, {"type": "node", "id": 3610209107, "lat": 40.4132294, "lon": 49.9521034}, {"type": "node", "id": 3610209109, "lat": 40.413364, "lon": 49.9515956}, {"type": "node", "id": 3610209110, "lat": 40.4133766, "lon": 49.9518145}, {"type": "node", "id": 1671550823, "lat": 40.418502, "lon": 49.9638748}, {"type": "node", "id": 1671550826, "lat": 40.4192456, "lon": 49.9636959}, {"type": "node", "id": 1671550827, "lat": 40.4181194, "lon": 49.9639455}, {"type": "node", "id": 1671550828, "lat": 40.4184329, "lon": 49.9637199}, {"type": "node", "id": 1671550829, "lat": 40.4192968, "lon": 49.9637134}, {"type": "node", "id": 1671550831, "lat": 40.4193358, "lon": 49.9637609}, {"type": "node", "id": 1671550832, "lat": 40.4187333, "lon": 49.9636972}, {"type": "node", "id": 1671621114, "lat": 40.4132871, "lon": 49.9589948}, {"type": "node", "id": 1671621170, "lat": 40.4131475, "lon": 49.9585884}, {"type": "node", "id": 3595580833, "lat": 40.4185739, "lon": 49.9638164}, {"type": "node", "id": 10065113441, "lat": 40.4137093, "lon": 49.9623107}, {"type": "node", "id": 10065113442, "lat": 40.4135973, "lon": 49.9620488}, {"type": "node", "id": 10065113443, "lat": 40.4134537, "lon": 49.9621548}, {"type": "node", "id": 10065113444, "lat": 40.4133927, "lon": 49.9620122}, {"type": "node", "id": 10065113445, "lat": 40.4135013, "lon": 49.9619321}, {"type": "node", "id": 10065186424, "lat": 40.4128078, "lon": 49.959316}, {"type": "node", "id": 10065186425, "lat": 40.4129263, "lon": 49.9592757}, {"type": "node", "id": 10065205525, "lat": 40.4180861, "lon": 49.9631895}, {"type": "node", "id": 10065205526, "lat": 40.4174025, "lon": 49.9637123}, {"type": "node", "id": 10065205527, "lat": 40.4173196, "lon": 49.9635252}, {"type": "node", "id": 10065205528, "lat": 40.4180032, "lon": 49.9630025}, {"type": "node", "id": 10080655704, "lat": 40.413475, "lon": 49.9624836}, {"type": "node", "id": 10080655705, "lat": 40.4133228, "lon": 49.9621277}, {"type": "node", "id": 10080655706, "lat": 40.4132158, "lon": 49.9622066}, {"type": "node", "id": 10080655707, "lat": 40.4131127, "lon": 49.9619656}, {"type": "node", "id": 10080655708, "lat": 40.4134189, "lon": 49.9617397}, {"type": "node", "id": 10093400526, "lat": 40.414603, "lon": 49.9641445}, {"type": "node", "id": 10093400527, "lat": 40.4147319, "lon": 49.9644447}, {"type": "node", "id": 10093400528, "lat": 40.4155994, "lon": 49.9637887}, {"type": "node", "id": 10093400529, "lat": 40.4154654, "lon": 49.9634844}, {"type": "node", "id": 1671621126, "lat": 40.4196443, "lon": 49.9516613}, {"type": "node", "id": 1671621169, "lat": 40.4199051, "lon": 49.9515784}, {"type": "node", "id": 3574401271, "lat": 40.4248512, "lon": 49.9579985}, {"type": "node", "id": 3574401280, "lat": 40.4252362, "lon": 49.9573277}, {"type": "node", "id": 3574401286, "lat": 40.4253862, "lon": 49.9571063}, {"type": "node", "id": 3574401290, "lat": 40.4254435, "lon": 49.9570715}, {"type": "node", "id": 3574519440, "lat": 40.4234313, "lon": 49.9528851}, {"type": "node", "id": 3574519445, "lat": 40.4235054, "lon": 49.9533584}, {"type": "node", "id": 3574519461, "lat": 40.4238118, "lon": 49.95279}, {"type": "node", "id": 3574519464, "lat": 40.4238774, "lon": 49.9532628}, {"type": "node", "id": 7396966364, "lat": 40.4203121, "lon": 49.9519975}, {"type": "node", "id": 10059403174, "lat": 40.4255786, "lon": 49.9574947}, {"type": "node", "id": 10059405844, "lat": 40.4253295, "lon": 49.9571662}, {"type": "node", "id": 10059405875, "lat": 40.4252024, "lon": 49.9532445}, {"type": "node", "id": 10059405876, "lat": 40.4241241, "lon": 49.9535211}, {"type": "node", "id": 10059510672, "lat": 40.4248997, "lon": 49.9580352}, {"type": "node", "id": 10080655795, "lat": 40.4205607, "lon": 49.9515657}, {"type": "node", "id": 10080655796, "lat": 40.4206893, "lon": 49.9519117}, {"type": "node", "id": 10080655797, "lat": 40.4202829, "lon": 49.9520089}, {"type": "node", "id": 10080655798, "lat": 40.4203034, "lon": 49.9521558}, {"type": "node", "id": 10080655799, "lat": 40.4202988, "lon": 49.9521813}, {"type": "node", "id": 10080655800, "lat": 40.4202926, "lon": 49.9521967}, {"type": "node", "id": 10080655801, "lat": 40.4202758, "lon": 49.9522115}, {"type": "node", "id": 10080655802, "lat": 40.4200766, "lon": 49.9522703}, {"type": "node", "id": 10080655844, "lat": 40.4206184, "lon": 49.9540352}, {"type": "node", "id": 10080655845, "lat": 40.4208856, "lon": 49.953985}, {"type": "node", "id": 10080655846, "lat": 40.4208978, "lon": 49.9540972}, {"type": "node", "id": 10080655847, "lat": 40.4209084, "lon": 49.9541953}, {"type": "node", "id": 10080655848, "lat": 40.4206413, "lon": 49.9542455}, {"type": "node", "id": 10080655917, "lat": 40.4241391, "lon": 49.9536645}, {"type": "node", "id": 10080655918, "lat": 40.4252213, "lon": 49.9533883}, {"type": "node", "id": 2591305477, "lat": 40.4242117, "lon": 49.961402}, {"type": "node", "id": 2591305478, "lat": 40.4249658, "lon": 49.9608652}, {"type": "node", "id": 2591305479, "lat": 40.4252705, "lon": 49.961555}, {"type": "node", "id": 3570916794, "lat": 40.419406, "lon": 49.9633703}, {"type": "node", "id": 3570916795, "lat": 40.4194623, "lon": 49.9634983}, {"type": "node", "id": 3570916796, "lat": 40.4209433, "lon": 49.9622352}, {"type": "node", "id": 3570916797, "lat": 40.4210044, "lon": 49.9623914}, {"type": "node", "id": 3570916798, "lat": 40.4211531, "lon": 49.9620941}, {"type": "node", "id": 3570916799, "lat": 40.421218, "lon": 49.9622334}, {"type": "node", "id": 3570916800, "lat": 40.422824, "lon": 49.9608887}, {"type": "node", "id": 3570916801, "lat": 40.4228846, "lon": 49.9610366}, {"type": "node", "id": 3570916802, "lat": 40.4230024, "lon": 49.9607799}, {"type": "node", "id": 3570916803, "lat": 40.4230682, "lon": 49.9609327}, {"type": "node", "id": 3574441305, "lat": 40.4203919, "lon": 49.9604703}, {"type": "node", "id": 3574441307, "lat": 40.4204149, "lon": 49.9605216}, {"type": "node", "id": 3574441324, "lat": 40.4212351, "lon": 49.9598432}, {"type": "node", "id": 3574441326, "lat": 40.4212639, "lon": 49.9598991}, {"type": "node", "id": 3574441329, "lat": 40.4213064, "lon": 49.9597933}, {"type": "node", "id": 3574441331, "lat": 40.4213283, "lon": 49.9598553}, {"type": "node", "id": 3574441334, "lat": 40.4221094, "lon": 49.9592221}, {"type": "node", "id": 3574441335, "lat": 40.4221393, "lon": 49.9592901}, {"type": "node", "id": 3595698290, "lat": 40.4212866, "lon": 49.9624119}, {"type": "node", "id": 3595698302, "lat": 40.4214477, "lon": 49.9628162}, {"type": "node", "id": 3595698307, "lat": 40.421628, "lon": 49.9629141}, {"type": "node", "id": 3595698323, "lat": 40.4219102, "lon": 49.9619728}, {"type": "node", "id": 3595698329, "lat": 40.4221314, "lon": 49.9625083}, {"type": "node", "id": 3595706676, "lat": 40.4194068, "lon": 49.9639387}, {"type": "node", "id": 5950676215, "lat": 40.4230074, "lon": 49.9608849}, {"type": "node", "id": 5950676216, "lat": 40.4228895, "lon": 49.9609414}, {"type": "node", "id": 5950676218, "lat": 40.4211593, "lon": 49.9621873}, {"type": "node", "id": 5950676219, "lat": 40.4209946, "lon": 49.962289}, {"type": "node", "id": 10057018941, "lat": 40.4230253, "lon": 49.9609213}, {"type": "node", "id": 10057018942, "lat": 40.4229936, "lon": 49.9608462}, {"type": "node", "id": 10061897403, "lat": 40.4194243, "lon": 49.9634519}, {"type": "node", "id": 10061973559, "lat": 40.4195704, "lon": 49.964338}, {"type": "node", "id": 10061973561, "lat": 40.4194633, "lon": 49.9640765}, {"type": "node", "id": 10082586534, "lat": 40.4243697, "lon": 49.9612895}, {"type": "node", "id": 10082586536, "lat": 40.4250535, "lon": 49.9610638}, {"type": "node", "id": 10082586541, "lat": 40.4242167, "lon": 49.9614617}, {"type": "node", "id": 10082586542, "lat": 40.4252438, "lon": 49.9616052}, {"type": "node", "id": 13152972360, "lat": 40.4195736, "lon": 49.9643457}, {"type": "node", "id": 6207092943, "lat": 40.4285808, "lon": 49.9515007}, {"type": "node", "id": 6207092946, "lat": 40.4284237, "lon": 49.9513102}, {"type": "node", "id": 1671617016, "lat": 40.4281933, "lon": 49.9546086}, {"type": "node", "id": 1671617018, "lat": 40.4287638, "lon": 49.9539595}, {"type": "node", "id": 1671617019, "lat": 40.4278269, "lon": 49.9536531}, {"type": "node", "id": 1671617020, "lat": 40.4284555, "lon": 49.9537449}, {"type": "node", "id": 1671617021, "lat": 40.4284003, "lon": 49.953364}, {"type": "node", "id": 1671617022, "lat": 40.427568, "lon": 49.9541932}, {"type": "node", "id": 1671617023, "lat": 40.4286343, "lon": 49.9536671}, {"type": "node", "id": 1671617024, "lat": 40.4277959, "lon": 49.9534418}, {"type": "node", "id": 1671617025, "lat": 40.4277654, "lon": 49.9536162}, {"type": "node", "id": 3532696502, "lat": 40.4307385, "lon": 49.955307}, {"type": "node", "id": 3532696507, "lat": 40.4311763, "lon": 49.9545423}, {"type": "node", "id": 3532696510, "lat": 40.4312001, "lon": 49.9557817}, {"type": "node", "id": 3532696534, "lat": 40.4315272, "lon": 49.9548258}, {"type": "node", "id": 3570916840, "lat": 40.4285167, "lon": 49.9568036}, {"type": "node", "id": 3570916841, "lat": 40.4286754, "lon": 49.9566902}, {"type": "node", "id": 3570916842, "lat": 40.4285799, "lon": 49.9569402}, {"type": "node", "id": 3570916843, "lat": 40.4287278, "lon": 49.9568256}, {"type": "node", "id": 3570916844, "lat": 40.429288, "lon": 49.9562434}, {"type": "node", "id": 3570916845, "lat": 40.4293445, "lon": 49.9563734}, {"type": "node", "id": 3570916846, "lat": 40.4294364, "lon": 49.9561106}, {"type": "node", "id": 3570916847, "lat": 40.4295068, "lon": 49.9562809}, {"type": "node", "id": 3570916848, "lat": 40.4303988, "lon": 49.9554714}, {"type": "node", "id": 3570916849, "lat": 40.4305157, "lon": 49.9553139}, {"type": "node", "id": 3570916850, "lat": 40.4304631, "lon": 49.9556014}, {"type": "node", "id": 3570916851, "lat": 40.4306116, "lon": 49.9553949}, {"type": "node", "id": 3570916852, "lat": 40.4308524, "lon": 49.9544917}, {"type": "node", "id": 3570916853, "lat": 40.4309442, "lon": 49.9545661}, {"type": "node", "id": 3574402023, "lat": 40.4264692, "lon": 49.956798}, {"type": "node", "id": 3574402024, "lat": 40.4265141, "lon": 49.956867}, {"type": "node", "id": 3574402030, "lat": 40.4266103, "lon": 49.9568358}, {"type": "node", "id": 6207092944, "lat": 40.4282277, "lon": 49.9529391}, {"type": "node", "id": 6207092945, "lat": 40.4280025, "lon": 49.9528693}, {"type": "node", "id": 6602731701, "lat": 40.4297891, "lon": 49.953592}, {"type": "node", "id": 6602731704, "lat": 40.4300853, "lon": 49.9532711}, {"type": "node", "id": 7297164104, "lat": 40.4321194, "lon": 49.9535801}, {"type": "node", "id": 7297164105, "lat": 40.4320651, "lon": 49.9537842}, {"type": "node", "id": 7297164107, "lat": 40.4320496, "lon": 49.9536621}, {"type": "node", "id": 7297164108, "lat": 40.4320221, "lon": 49.9537664}, {"type": "node", "id": 7297164110, "lat": 40.43192, "lon": 49.9535961}, {"type": "node", "id": 10057018936, "lat": 40.4285688, "lon": 49.9567987}, {"type": "node", "id": 10057018937, "lat": 40.4286025, "lon": 49.9568832}, {"type": "node", "id": 10057018938, "lat": 40.4286546, "lon": 49.9567477}, {"type": "node", "id": 10057018939, "lat": 40.4286832, "lon": 49.9568228}, {"type": "node", "id": 10057018940, "lat": 40.4285836, "lon": 49.9568417}, {"type": "node", "id": 10057018945, "lat": 40.4293146, "lon": 49.9563072}, {"type": "node", "id": 10057018946, "lat": 40.4286698, "lon": 49.9567896}, {"type": "node", "id": 10057018947, "lat": 40.4294302, "lon": 49.9562262}, {"type": "node", "id": 10057018948, "lat": 40.4294478, "lon": 49.956273}, {"type": "node", "id": 10057018949, "lat": 40.4294141, "lon": 49.9561831}, {"type": "node", "id": 10057018951, "lat": 40.4305156, "lon": 49.9555542}, {"type": "node", "id": 10057018952, "lat": 40.4305687, "lon": 49.9554777}, {"type": "node", "id": 10057018956, "lat": 40.4304411, "lon": 49.9554335}, {"type": "node", "id": 10057018957, "lat": 40.4304758, "lon": 49.9553879}, {"type": "node", "id": 10057018981, "lat": 40.4307496, "lon": 49.9553627}, {"type": "node", "id": 10057018982, "lat": 40.4315433, "lon": 49.9549932}, {"type": "node", "id": 10057018983, "lat": 40.4310237, "lon": 49.9546115}, {"type": "node", "id": 10057018985, "lat": 40.4314918, "lon": 49.954781}, {"type": "node", "id": 10057018997, "lat": 40.4310549, "lon": 49.9545572}, {"type": "node", "id": 10057018998, "lat": 40.4307718, "lon": 49.9554737}, {"type": "node", "id": 10059398585, "lat": 40.4295356, "lon": 49.9531844}, {"type": "node", "id": 10059398586, "lat": 40.4296173, "lon": 49.9531093}, {"type": "node", "id": 10059398587, "lat": 40.4299909, "lon": 49.9531227}, {"type": "node", "id": 10059405831, "lat": 40.426574, "lon": 49.9567866}, {"type": "node", "id": 10059405910, "lat": 40.427783, "lon": 49.9535158}, {"type": "node", "id": 10059405957, "lat": 40.4276114, "lon": 49.9541065}, {"type": "node", "id": 10078470920, "lat": 40.4285167, "lon": 49.951762}, {"type": "node", "id": 10078470921, "lat": 40.4284034, "lon": 49.9522233}, {"type": "node", "id": 10815287992, "lat": 40.4319856, "lon": 49.9536295}, {"type": "node", "id": 10815287994, "lat": 40.4319056, "lon": 49.9536424}, {"type": "node", "id": 10815287995, "lat": 40.4318421, "lon": 49.9535967}, {"type": "node", "id": 10815287996, "lat": 40.4319345, "lon": 49.9532983}, {"type": "node", "id": 10815287997, "lat": 40.4322331, "lon": 49.9534612}, {"type": "node", "id": 10815287998, "lat": 40.4321905, "lon": 49.953614}, {"type": "node", "id": 10825051756, "lat": 40.4321152, "lon": 49.9531147}, {"type": "node", "id": 10825051761, "lat": 40.432398, "lon": 49.9533722}, {"type": "node", "id": 10825051762, "lat": 40.4321111, "lon": 49.9532247}, {"type": "node", "id": 10825051763, "lat": 40.4321173, "lon": 49.9530101}, {"type": "node", "id": 13152972341, "lat": 40.4310908, "lon": 49.9545305}, {"type": "node", "id": 13152972342, "lat": 40.4311305, "lon": 49.954525}, {"type": "node", "id": 13152972344, "lat": 40.4315495, "lon": 49.954867}, {"type": "node", "id": 13152972346, "lat": 40.431558, "lon": 49.9549346}, {"type": "node", "id": 3574461818, "lat": 40.4264477, "lon": 49.9641869}, {"type": "node", "id": 3574461820, "lat": 40.4266576, "lon": 49.9644647}, {"type": "node", "id": 3479286793, "lat": 40.4324948, "lon": 49.9551822}, {"type": "node", "id": 3479286798, "lat": 40.4339218, "lon": 49.9555432}, {"type": "node", "id": 3479286806, "lat": 40.4343023, "lon": 49.9547627}, {"type": "node", "id": 3479286807, "lat": 40.4333602, "lon": 49.9521459}, {"type": "node", "id": 3479286808, "lat": 40.4340741, "lon": 49.9553282}, {"type": "node", "id": 3479286810, "lat": 40.4333956, "lon": 49.9536341}, {"type": "node", "id": 3479286811, "lat": 40.4334094, "lon": 49.9535886}, {"type": "node", "id": 3479286813, "lat": 40.4334336, "lon": 49.9536568}, {"type": "node", "id": 3479286817, "lat": 40.4334873, "lon": 49.9532408}, {"type": "node", "id": 3479286818, "lat": 40.4334925, "lon": 49.9535068}, {"type": "node", "id": 3479286819, "lat": 40.4335184, "lon": 49.9531272}, {"type": "node", "id": 3479286820, "lat": 40.4335202, "lon": 49.9533067}, {"type": "node", "id": 3479286821, "lat": 40.4335219, "lon": 49.9534204}, {"type": "node", "id": 3479286827, "lat": 40.4335721, "lon": 49.9536659}, {"type": "node", "id": 3479286834, "lat": 40.4335929, "lon": 49.9520064}, {"type": "node", "id": 3479286844, "lat": 40.4335444, "lon": 49.9523117}, {"type": "node", "id": 3479286847, "lat": 40.4336828, "lon": 49.9536477}, {"type": "node", "id": 3479286853, "lat": 40.4337122, "lon": 49.9532272}, {"type": "node", "id": 3479286859, "lat": 40.4337188, "lon": 49.9519802}, {"type": "node", "id": 3479286860, "lat": 40.4338029, "lon": 49.9528871}, {"type": "node", "id": 3479286866, "lat": 40.4337745, "lon": 49.9535772}, {"type": "node", "id": 3479286869, "lat": 40.4338058, "lon": 49.9520143}, {"type": "node", "id": 3479286873, "lat": 40.4338295, "lon": 49.9525071}, {"type": "node", "id": 3479286874, "lat": 40.4338436, "lon": 49.9526016}, {"type": "node", "id": 3479286876, "lat": 40.4338541, "lon": 49.9534568}, {"type": "node", "id": 3479286877, "lat": 40.433859, "lon": 49.9527048}, {"type": "node", "id": 3479286882, "lat": 40.4338657, "lon": 49.9520605}, {"type": "node", "id": 3479286892, "lat": 40.4339683, "lon": 49.9524998}, {"type": "node", "id": 3479286999, "lat": 40.4340046, "lon": 49.9525657}, {"type": "node", "id": 3479287008, "lat": 40.4342347, "lon": 49.9523565}, {"type": "node", "id": 3479287010, "lat": 40.4340842, "lon": 49.9527157}, {"type": "node", "id": 3479287021, "lat": 40.4341483, "lon": 49.9525627}, {"type": "node", "id": 3479287047, "lat": 40.434412, "lon": 49.9521137}, {"type": "node", "id": 3631568619, "lat": 40.4339735, "lon": 49.9562333}, {"type": "node", "id": 3631568620, "lat": 40.4339544, "lon": 49.9561762}, {"type": "node", "id": 3631568621, "lat": 40.4340063, "lon": 49.9562784}, {"type": "node", "id": 3631568622, "lat": 40.4339513, "lon": 49.9561139}, {"type": "node", "id": 3631568623, "lat": 40.4340489, "lon": 49.9563061}, {"type": "node", "id": 3631568624, "lat": 40.4339647, "lon": 49.956054}, {"type": "node", "id": 3631568627, "lat": 40.4342186, "lon": 49.956184}, {"type": "node", "id": 3631568628, "lat": 40.4341257, "lon": 49.9559611}, {"type": "node", "id": 3631568631, "lat": 40.434224, "lon": 49.9561283}, {"type": "node", "id": 3631568632, "lat": 40.4341644, "lon": 49.9559851}, {"type": "node", "id": 3631568633, "lat": 40.4342161, "lon": 49.956073}, {"type": "node", "id": 3631568634, "lat": 40.4341955, "lon": 49.9560237}, {"type": "node", "id": 5950676067, "lat": 40.4342003, "lon": 49.9562349}, {"type": "node", "id": 5950676068, "lat": 40.4341709, "lon": 49.9562758}, {"type": "node", "id": 5950676069, "lat": 40.4341334, "lon": 49.9563028}, {"type": "node", "id": 5950676070, "lat": 40.4340914, "lon": 49.9563132}, {"type": "node", "id": 5950676071, "lat": 40.4339928, "lon": 49.9560037}, {"type": "node", "id": 5950676072, "lat": 40.4340323, "lon": 49.955969}, {"type": "node", "id": 5950676073, "lat": 40.4340785, "lon": 49.9559543}, {"type": "node", "id": 6001494299, "lat": 40.4333237, "lon": 49.9557816}, {"type": "node", "id": 6001494300, "lat": 40.4328248, "lon": 49.9543665}, {"type": "node", "id": 6207126485, "lat": 40.4333683, "lon": 49.9523176}, {"type": "node", "id": 6207126486, "lat": 40.4330286, "lon": 49.9525041}, {"type": "node", "id": 6207126487, "lat": 40.4331445, "lon": 49.9529179}, {"type": "node", "id": 6207126488, "lat": 40.433342, "lon": 49.9530113}, {"type": "node", "id": 6207126489, "lat": 40.4334034, "lon": 49.9527507}, {"type": "node", "id": 6207126490, "lat": 40.4332949, "lon": 49.9527047}, {"type": "node", "id": 6207126491, "lat": 40.4334519, "lon": 49.9526273}, {"type": "node", "id": 9786633868, "lat": 40.4334121, "lon": 49.9524765}, {"type": "node", "id": 9923354980, "lat": 40.4339973, "lon": 49.9554639}, {"type": "node", "id": 10054437425, "lat": 40.433488, "lon": 49.954524}, {"type": "node", "id": 10054437428, "lat": 40.433831, "lon": 49.9556016}, {"type": "node", "id": 10815288001, "lat": 40.4343661, "lon": 49.952133}, {"type": "node", "id": 10815288002, "lat": 40.4342936, "lon": 49.9522269}, {"type": "node", "id": 10825051757, "lat": 40.4331166, "lon": 49.9529511}, {"type": "node", "id": 10825051758, "lat": 40.4333453, "lon": 49.953061}, {"type": "node", "id": 10825051759, "lat": 40.4333433, "lon": 49.9536243}, {"type": "node", "id": 10825051760, "lat": 40.432792, "lon": 49.9534821}, {"type": "node", "id": 10825051764, "lat": 40.4326267, "lon": 49.9528572}, {"type": "node", "id": 10825051765, "lat": 40.4328104, "lon": 49.9527606}, {"type": "node", "id": 10825051766, "lat": 40.4330044, "lon": 49.9525461}, {"type": "node", "id": 5081283089, "lat": 40.4389776, "lon": 49.9618561}, {"type": "node", "id": 10049795432, "lat": 40.4389911, "lon": 49.9617541}, {"type": "node", "id": 11289661000, "lat": 40.3995842, "lon": 49.9665619}, {"type": "node", "id": 11289661001, "lat": 40.3996189, "lon": 49.9662602}, {"type": "node", "id": 2015670032, "lat": 40.3992169, "lon": 49.9770092}, {"type": "node", "id": 2015670053, "lat": 40.3992248, "lon": 49.9766968}, {"type": "node", "id": 10073814118, "lat": 40.3992209, "lon": 49.976852}, {"type": "node", "id": 11289660999, "lat": 40.3999948, "lon": 49.9666625}, {"type": "node", "id": 11289661002, "lat": 40.4000591, "lon": 49.9663943}, {"type": "node", "id": 2015659437, "lat": 40.4018907, "lon": 49.976993}, {"type": "node", "id": 2015659447, "lat": 40.4033479, "lon": 49.9774848}, {"type": "node", "id": 2015659452, "lat": 40.4034048, "lon": 49.976931}, {"type": "node", "id": 2015670034, "lat": 40.4002511, "lon": 49.9770543}, {"type": "node", "id": 2015670047, "lat": 40.400259, "lon": 49.976742}, {"type": "node", "id": 3600003142, "lat": 40.4018986, "lon": 49.9768822}, {"type": "node", "id": 10073362901, "lat": 40.403415, "lon": 49.9774303}, {"type": "node", "id": 10073439810, "lat": 40.4026695, "lon": 49.9772694}, {"type": "node", "id": 10073453306, "lat": 40.4018948, "lon": 49.9769356}, {"type": "node", "id": 10073453307, "lat": 40.4030218, "lon": 49.9773812}, {"type": "node", "id": 10073453308, "lat": 40.403078, "lon": 49.9769168}, {"type": "node", "id": 10073453309, "lat": 40.4033893, "lon": 49.9774512}, {"type": "node", "id": 10073473017, "lat": 40.4027782, "lon": 49.976908}, {"type": "node", "id": 10073814119, "lat": 40.4002552, "lon": 49.9768902}, {"type": "node", "id": 10073814202, "lat": 40.4004305, "lon": 49.9768844}, {"type": "node", "id": 10073814203, "lat": 40.4013989, "lon": 49.9769062}, {"type": "node", "id": 10073814204, "lat": 40.4014031, "lon": 49.9767637}, {"type": "node", "id": 10073814205, "lat": 40.4004349, "lon": 49.9767342}, {"type": "node", "id": 10073814206, "lat": 40.4004268, "lon": 49.9770078}, {"type": "node", "id": 10073814207, "lat": 40.401395, "lon": 49.9770373}, {"type": "node", "id": 10073814224, "lat": 40.4034375, "lon": 49.9769984}, {"type": "node", "id": 10067558566, "lat": 40.4102335, "lon": 49.9674792}, {"type": "node", "id": 10067558567, "lat": 40.4103755, "lon": 49.9672177}, {"type": "node", "id": 10067558579, "lat": 40.410223, "lon": 49.9674499}, {"type": "node", "id": 10067558580, "lat": 40.4101772, "lon": 49.967322}, {"type": "node", "id": 10067558581, "lat": 40.4102879, "lon": 49.9672536}, {"type": "node", "id": 10067558590, "lat": 40.410494, "lon": 49.9673022}, {"type": "node", "id": 10073553667, "lat": 40.4093411, "lon": 49.9674095}, {"type": "node", "id": 10073553668, "lat": 40.4096311, "lon": 49.9685608}, {"type": "node", "id": 10073553670, "lat": 40.4099174, "lon": 49.9683545}, {"type": "node", "id": 10073553671, "lat": 40.4099903, "lon": 49.9689625}, {"type": "node", "id": 10073553672, "lat": 40.4095358, "lon": 49.9678795}, {"type": "node", "id": 10073553673, "lat": 40.4101325, "lon": 49.9688593}, {"type": "node", "id": 10073553674, "lat": 40.4098445, "lon": 49.9690685}, {"type": "node", "id": 10073553675, "lat": 40.4091859, "lon": 49.9675249}, {"type": "node", "id": 10073553676, "lat": 40.409673, "lon": 49.967781}, {"type": "node", "id": 10073813909, "lat": 40.4002021, "lon": 49.9834585}, {"type": "node", "id": 10073813910, "lat": 40.4001306, "lon": 49.9834585}, {"type": "node", "id": 10073813911, "lat": 40.4001286, "lon": 49.9836087}, {"type": "node", "id": 10073813912, "lat": 40.3999161, "lon": 49.9836034}, {"type": "node", "id": 10073813913, "lat": 40.3998896, "lon": 49.9832815}, {"type": "node", "id": 10073813914, "lat": 40.3996996, "lon": 49.9832278}, {"type": "node", "id": 10073813915, "lat": 40.3997098, "lon": 49.9829328}, {"type": "node", "id": 10073813916, "lat": 40.4002021, "lon": 49.9829489}, {"type": "node", "id": 10073814138, "lat": 40.40298, "lon": 49.9821281}, {"type": "node", "id": 10073814139, "lat": 40.4028962, "lon": 49.9821308}, {"type": "node", "id": 10073814140, "lat": 40.402886, "lon": 49.9822783}, {"type": "node", "id": 10073814141, "lat": 40.4025919, "lon": 49.9822971}, {"type": "node", "id": 10073814142, "lat": 40.4026062, "lon": 49.9824902}, {"type": "node", "id": 10073814143, "lat": 40.4019485, "lon": 49.9828738}, {"type": "node", "id": 10073814144, "lat": 40.4016441, "lon": 49.9828577}, {"type": "node", "id": 10073814145, "lat": 40.4016482, "lon": 49.9827236}, {"type": "node", "id": 10073814146, "lat": 40.401781, "lon": 49.9827236}, {"type": "node", "id": 10073814147, "lat": 40.4017892, "lon": 49.9822596}, {"type": "node", "id": 10073814148, "lat": 40.4021037, "lon": 49.9822462}, {"type": "node", "id": 10073814149, "lat": 40.4021139, "lon": 49.9821201}, {"type": "node", "id": 10073814150, "lat": 40.4018035, "lon": 49.9821174}, {"type": "node", "id": 10073814151, "lat": 40.4017422, "lon": 49.9819753}, {"type": "node", "id": 10073814152, "lat": 40.4029718, "lon": 49.9819887}, {"type": "node", "id": 10054305303, "lat": 40.406109, "lon": 49.9855211}, {"type": "node", "id": 10054305304, "lat": 40.4061601, "lon": 49.984931}, {"type": "node", "id": 10054305300, "lat": 40.4067953, "lon": 49.9858403}, {"type": "node", "id": 10054305301, "lat": 40.4062867, "lon": 49.9859503}, {"type": "node", "id": 10054305302, "lat": 40.406252, "lon": 49.9855024}, {"type": "node", "id": 10054305305, "lat": 40.4067299, "lon": 49.9849069}, {"type": "node", "id": 1671550824, "lat": 40.4188954, "lon": 49.9657773}, {"type": "node", "id": 10065141877, "lat": 40.4179049, "lon": 49.9665924}, {"type": "node", "id": 10065141878, "lat": 40.4175718, "lon": 49.9668491}, {"type": "node", "id": 10065141879, "lat": 40.4174467, "lon": 49.966569}, {"type": "node", "id": 10065141880, "lat": 40.4177797, "lon": 49.9663123}, {"type": "node", "id": 10093344130, "lat": 40.4184083, "lon": 49.9692617}, {"type": "node", "id": 10093344131, "lat": 40.4178822, "lon": 49.9696336}, {"type": "node", "id": 10093344132, "lat": 40.4177371, "lon": 49.9692792}, {"type": "node", "id": 10093344133, "lat": 40.4178865, "lon": 49.9691736}, {"type": "node", "id": 10093344134, "lat": 40.4177361, "lon": 49.9688066}, {"type": "node", "id": 10093344135, "lat": 40.4181127, "lon": 49.9685404}, {"type": "node", "id": 10082672801, "lat": 40.4170878, "lon": 49.9716057}, {"type": "node", "id": 10082672802, "lat": 40.4172948, "lon": 49.9721026}, {"type": "node", "id": 10082672803, "lat": 40.417473, "lon": 49.9719745}, {"type": "node", "id": 10082672804, "lat": 40.4174214, "lon": 49.9718507}, {"type": "node", "id": 10082672805, "lat": 40.4174751, "lon": 49.9718121}, {"type": "node", "id": 10082672806, "lat": 40.4173197, "lon": 49.971439}, {"type": "node", "id": 10082672807, "lat": 40.4171186, "lon": 49.9715835}, {"type": "node", "id": 10093339226, "lat": 40.4177988, "lon": 49.9724075}, {"type": "node", "id": 10093339227, "lat": 40.4174751, "lon": 49.9726275}, {"type": "node", "id": 10093339228, "lat": 40.4173491, "lon": 49.9723076}, {"type": "node", "id": 10093339229, "lat": 40.4176727, "lon": 49.9720876}, {"type": "node", "id": 1671550825, "lat": 40.4198708, "lon": 49.9650711}, {"type": "node", "id": 3574461815, "lat": 40.4247622, "lon": 49.9664357}, {"type": "node", "id": 3574461816, "lat": 40.4248951, "lon": 49.9667441}, {"type": "node", "id": 10059519166, "lat": 40.4231825, "lon": 49.9680787}, {"type": "node", "id": 10059519167, "lat": 40.4230639, "lon": 49.9681621}, {"type": "node", "id": 10059519168, "lat": 40.4229412, "lon": 49.9678613}, {"type": "node", "id": 10059519169, "lat": 40.4228402, "lon": 49.9679325}, {"type": "node", "id": 10059519170, "lat": 40.4227046, "lon": 49.9676002}, {"type": "node", "id": 10059519171, "lat": 40.4229241, "lon": 49.9674456}, {"type": "node", "id": 10061973575, "lat": 40.419737, "lon": 49.9647445}, {"type": "node", "id": 10065141891, "lat": 40.4200103, "lon": 49.9668539}, {"type": "node", "id": 10065141896, "lat": 40.420501, "lon": 49.9664922}, {"type": "node", "id": 10065141897, "lat": 40.4199648, "lon": 49.9668875}, {"type": "node", "id": 10065141898, "lat": 40.4194605, "lon": 49.9657073}, {"type": "node", "id": 10065141899, "lat": 40.4199967, "lon": 49.9653119}, {"type": "node", "id": 3547851023, "lat": 40.4219327, "lon": 49.9873668}, {"type": "node", "id": 3547851024, "lat": 40.421941, "lon": 49.9875346}, {"type": "node", "id": 3547851030, "lat": 40.4220868, "lon": 49.9871543}, {"type": "node", "id": 3547851031, "lat": 40.4221175, "lon": 49.987299}, {"type": "node", "id": 3547851034, "lat": 40.42223, "lon": 49.9870976}, {"type": "node", "id": 3547851035, "lat": 40.4223601, "lon": 49.9875797}, {"type": "node", "id": 3547851037, "lat": 40.4223952, "lon": 49.9875653}, {"type": "node", "id": 3547851038, "lat": 40.4224652, "lon": 49.9874745}, {"type": "node", "id": 3547851040, "lat": 40.4225503, "lon": 49.9871721}, {"type": "node", "id": 3547851041, "lat": 40.4225587, "lon": 49.9870622}, {"type": "node", "id": 11406159960, "lat": 40.4224365, "lon": 49.9875268}, {"type": "node", "id": 3469961633, "lat": 40.4372608, "lon": 49.9700074}, {"type": "node", "id": 3469961634, "lat": 40.4373188, "lon": 49.9697651}, {"type": "node", "id": 3469961637, "lat": 40.4374611, "lon": 49.9697513}, {"type": "node", "id": 3469961647, "lat": 40.4376472, "lon": 49.9694397}, {"type": "node", "id": 3469961650, "lat": 40.4376933, "lon": 49.9702348}, {"type": "node", "id": 3469961663, "lat": 40.4378791, "lon": 49.9695643}, {"type": "node", "id": 10045959422, "lat": 40.4375548, "lon": 49.9701673}, {"type": "node", "id": 5629620521, "lat": 40.4385231, "lon": 49.975431}, {"type": "node", "id": 5629620522, "lat": 40.4384341, "lon": 49.9753971}, {"type": "node", "id": 5629620523, "lat": 40.4383692, "lon": 49.9756112}, {"type": "node", "id": 5629620524, "lat": 40.4382245, "lon": 49.9758119}, {"type": "node", "id": 5629620525, "lat": 40.4381277, "lon": 49.9762889}, {"type": "node", "id": 5629620526, "lat": 40.4383349, "lon": 49.9765411}, {"type": "node", "id": 5629620527, "lat": 40.438434, "lon": 49.9758819}, {"type": "node", "id": 10034463776, "lat": 40.4381429, "lon": 49.9763533}, {"type": "node", "id": 3547796733, "lat": 40.4281916, "lon": 49.986852}, {"type": "node", "id": 3547796735, "lat": 40.4280409, "lon": 49.9858795}, {"type": "node", "id": 3547796738, "lat": 40.428631, "lon": 49.9865831}, {"type": "node", "id": 3547796740, "lat": 40.4287531, "lon": 49.9862833}, {"type": "node", "id": 3547813366, "lat": 40.4285686, "lon": 49.9891453}, {"type": "node", "id": 3547813370, "lat": 40.4286503, "lon": 49.9891665}, {"type": "node", "id": 3547813373, "lat": 40.4287803, "lon": 49.9882059}, {"type": "node", "id": 3547813379, "lat": 40.4290463, "lon": 49.9869263}, {"type": "node", "id": 3547813380, "lat": 40.4291157, "lon": 49.9866001}, {"type": "node", "id": 3547813381, "lat": 40.4291647, "lon": 49.9864324}, {"type": "node", "id": 3547813383, "lat": 40.4292535, "lon": 49.9864771}, {"type": "node", "id": 10038060822, "lat": 40.4280962, "lon": 49.9862306}, {"type": "node", "id": 10038060823, "lat": 40.4280114, "lon": 49.986527}, {"type": "node", "id": 10038060824, "lat": 40.4282064, "lon": 49.9866275}, {"type": "node", "id": 10038060825, "lat": 40.4282748, "lon": 49.9863124}, {"type": "node", "id": 10038060846, "lat": 40.4284512, "lon": 49.9866931}, {"type": "node", "id": 10038060847, "lat": 40.4286305, "lon": 49.9862173}, {"type": "node", "id": 10038060849, "lat": 40.4286801, "lon": 49.9865109}, {"type": "node", "id": 10038060850, "lat": 40.4281656, "lon": 49.9868381}, {"type": "node", "id": 10832499626, "lat": 40.4280145, "lon": 49.9859597}, {"type": "node", "id": 10832499627, "lat": 40.428333, "lon": 49.9861233}, {"type": "node", "id": 10832499633, "lat": 40.4284923, "lon": 49.9890804}, {"type": "node", "id": 10832499634, "lat": 40.4284157, "lon": 49.9890456}, {"type": "node", "id": 10832499635, "lat": 40.4286127, "lon": 49.9881712}, {"type": "node", "id": 10832499636, "lat": 40.4286883, "lon": 49.988206}, {"type": "node", "id": 10832499637, "lat": 40.4289078, "lon": 49.9872284}, {"type": "node", "id": 10832499638, "lat": 40.4290027, "lon": 49.9867201}, {"type": "node", "id": 10832499639, "lat": 40.4289006, "lon": 49.9865511}, {"type": "node", "id": 10832499640, "lat": 40.428626, "lon": 49.9867389}, {"type": "node", "id": 10832499641, "lat": 40.4288863, "lon": 49.986932}, {"type": "node", "id": 10832499642, "lat": 40.4286638, "lon": 49.9879754}, {"type": "node", "id": 10832499643, "lat": 40.4287332, "lon": 49.9879995}, {"type": "node", "id": 3540013511, "lat": 40.4342223, "lon": 49.9876801}, {"type": "node", "id": 3540013516, "lat": 40.4344086, "lon": 49.9866661}, {"type": "node", "id": 10045924145, "lat": 40.4347488, "lon": 49.9862749}, {"type": "node", "id": 10045924146, "lat": 40.4349704, "lon": 49.9864733}, {"type": "node", "id": 10045924164, "lat": 40.4350612, "lon": 49.9863674}, {"type": "node", "id": 10045924165, "lat": 40.4351297, "lon": 49.9865042}, {"type": "node", "id": 10045924166, "lat": 40.434245, "lon": 49.9866279}, {"type": "node", "id": 10045924167, "lat": 40.43456, "lon": 49.9860401}, {"type": "node", "id": 10045924168, "lat": 40.4347969, "lon": 49.9854474}, {"type": "node", "id": 10045924169, "lat": 40.4348949, "lon": 49.9855171}, {"type": "node", "id": 10045924170, "lat": 40.4349459, "lon": 49.9859329}, {"type": "node", "id": 10043279645, "lat": 40.4192364, "lon": 49.9962714}, {"type": "node", "id": 10834370385, "lat": 40.4183686, "lon": 49.9981919}, {"type": "node", "id": 10834370386, "lat": 40.418293, "lon": 49.9980095}, {"type": "node", "id": 2280338916, "lat": 40.4231803, "lon": 49.9951256}, {"type": "node", "id": 2280338930, "lat": 40.423703, "lon": 49.9964311}, {"type": "node", "id": 2280338946, "lat": 40.42384, "lon": 49.9965711}, {"type": "node", "id": 2280338948, "lat": 40.4239427, "lon": 49.9966791}, {"type": "node", "id": 2280338950, "lat": 40.4239551, "lon": 49.9945307}, {"type": "node", "id": 2280338954, "lat": 40.424066, "lon": 49.9968356}, {"type": "node", "id": 2280338960, "lat": 40.4242016, "lon": 49.996949}, {"type": "node", "id": 2280339004, "lat": 40.4245304, "lon": 49.9939153}, {"type": "node", "id": 2280339014, "lat": 40.4244585, "lon": 49.9969704}, {"type": "node", "id": 2280339016, "lat": 40.424968, "lon": 49.9947555}, {"type": "node", "id": 2280339020, "lat": 40.424931, "lon": 49.9967482}, {"type": "node", "id": 2280339022, "lat": 40.4248764, "lon": 49.9948538}, {"type": "node", "id": 2280339048, "lat": 40.425216, "lon": 49.9952829}, {"type": "node", "id": 2280339078, "lat": 40.4256869, "lon": 49.9956187}, {"type": "node", "id": 3517085203, "lat": 40.4235573, "lon": 49.9948627}, {"type": "node", "id": 3517085217, "lat": 40.4246258, "lon": 49.9966529}, {"type": "node", "id": 3517085222, "lat": 40.4247617, "lon": 49.9969331}, {"type": "node", "id": 3517085225, "lat": 40.4248201, "lon": 49.9965012}, {"type": "node", "id": 3540109388, "lat": 40.4250712, "lon": 49.9950682}, {"type": "node", "id": 3557536958, "lat": 40.4223974, "lon": 49.9924727}, {"type": "node", "id": 3557536959, "lat": 40.4224784, "lon": 49.9926979}, {"type": "node", "id": 3557536960, "lat": 40.4225274, "lon": 49.9924036}, {"type": "node", "id": 3557536961, "lat": 40.4225724, "lon": 49.9927953}, {"type": "node", "id": 3557536962, "lat": 40.4226241, "lon": 49.9927988}, {"type": "node", "id": 3557536963, "lat": 40.4226768, "lon": 49.9927852}, {"type": "node", "id": 3557536964, "lat": 40.4229765, "lon": 49.9923322}, {"type": "node", "id": 3557536965, "lat": 40.4230419, "lon": 49.9925159}, {"type": "node", "id": 10040278199, "lat": 40.4232346, "lon": 49.9953005}, {"type": "node", "id": 10040278200, "lat": 40.423206, "lon": 49.995456}, {"type": "node", "id": 10040373103, "lat": 40.4227174, "lon": 49.9927604}, {"type": "node", "id": 10040387956, "lat": 40.4250222, "lon": 49.9951181}, {"type": "node", "id": 10040387957, "lat": 40.4253724, "lon": 49.9954641}, {"type": "node", "id": 10040387958, "lat": 40.4254725, "lon": 49.9955285}, {"type": "node", "id": 10040387959, "lat": 40.4256358, "lon": 49.9955606}, {"type": "node", "id": 10040387966, "lat": 40.4235041, "lon": 49.9946916}, {"type": "node", "id": 10040387967, "lat": 40.4238267, "lon": 49.9943644}, {"type": "node", "id": 10040387980, "lat": 40.4232862, "lon": 49.9956249}, {"type": "node", "id": 10040408180, "lat": 40.4247435, "lon": 49.9970788}, {"type": "node", "id": 10040408181, "lat": 40.4247721, "lon": 49.9971941}, {"type": "node", "id": 10040408190, "lat": 40.424182, "lon": 49.9970815}, {"type": "node", "id": 10040414991, "lat": 40.4207128, "lon": 49.9953581}, {"type": "node", "id": 10040414993, "lat": 40.42128, "lon": 49.9948042}, {"type": "node", "id": 10040414994, "lat": 40.4207754, "lon": 49.9954413}, {"type": "node", "id": 10040414995, "lat": 40.4205017, "lon": 49.9950673}, {"type": "node", "id": 10040414996, "lat": 40.4210063, "lon": 49.9944302}, {"type": "node", "id": 10043279642, "lat": 40.4199532, "lon": 49.9964726}, {"type": "node", "id": 10043279643, "lat": 40.4197857, "lon": 49.9966523}, {"type": "node", "id": 10043279644, "lat": 40.4195223, "lon": 49.9968615}, {"type": "node", "id": 10043279646, "lat": 40.4197939, "lon": 49.9957484}, {"type": "node", "id": 10043279647, "lat": 40.4200941, "lon": 49.9962714}, {"type": "node", "id": 10052169231, "lat": 40.4253019, "lon": 49.9953917}, {"type": "node", "id": 10052169238, "lat": 40.4233707, "lon": 49.9957884}, {"type": "node", "id": 10052169242, "lat": 40.424615, "lon": 49.9940854}, {"type": "node", "id": 10834370387, "lat": 40.4200267, "lon": 49.9966443}, {"type": "node", "id": 10834370388, "lat": 40.4201431, "lon": 49.9968106}, {"type": "node", "id": 11406159956, "lat": 40.4225206, "lon": 49.9927579}, {"type": "node", "id": 2280532309, "lat": 40.4217476, "lon": 50.0002433}, {"type": "node", "id": 2280532312, "lat": 40.42179, "lon": 50.0002346}, {"type": "node", "id": 2280532320, "lat": 40.4222062, "lon": 49.9995529}, {"type": "node", "id": 2280532325, "lat": 40.4223165, "lon": 49.9996199}, {"type": "node", "id": 2280532332, "lat": 40.4223594, "lon": 50.0007517}, {"type": "node", "id": 2280532340, "lat": 40.4223536, "lon": 49.9994997}, {"type": "node", "id": 2280532343, "lat": 40.4227117, "lon": 49.9996786}, {"type": "node", "id": 2280532346, "lat": 40.4226703, "lon": 49.9997919}, {"type": "node", "id": 2280532351, "lat": 40.4227543, "lon": 49.9998204}, {"type": "node", "id": 2280532362, "lat": 40.4228452, "lon": 49.9999164}, {"type": "node", "id": 2280532378, "lat": 40.4235632, "lon": 49.9993957}, {"type": "node", "id": 2280532386, "lat": 40.4236731, "lon": 49.9995558}, {"type": "node", "id": 2280532393, "lat": 40.4240156, "lon": 49.9995104}, {"type": "node", "id": 2280532397, "lat": 40.4243832, "lon": 49.9981472}, {"type": "node", "id": 2280532399, "lat": 40.4246715, "lon": 49.9984604}, {"type": "node", "id": 3440691037, "lat": 40.424286, "lon": 49.9990667}, {"type": "node", "id": 3517273289, "lat": 40.42182, "lon": 50.000483}, {"type": "node", "id": 3632626648, "lat": 40.4232346, "lon": 49.9978357}, {"type": "node", "id": 10040408182, "lat": 40.4243004, "lon": 49.9979371}, {"type": "node", "id": 10040408183, "lat": 40.4242433, "lon": 49.9978727}, {"type": "node", "id": 10040408184, "lat": 40.424037, "lon": 49.9981678}, {"type": "node", "id": 10040408185, "lat": 40.4241167, "lon": 49.998267}, {"type": "node", "id": 10040408186, "lat": 40.4238063, "lon": 49.9987283}, {"type": "node", "id": 10040408187, "lat": 40.4231284, "lon": 49.9979746}, {"type": "node", "id": 10040408188, "lat": 40.4233428, "lon": 49.9976984}, {"type": "node", "id": 10040408189, "lat": 40.4235204, "lon": 49.9979237}, {"type": "node", "id": 10043396357, "lat": 40.422087, "lon": 50.0004262}, {"type": "node", "id": 10043396358, "lat": 40.4216715, "lon": 49.9996121}, {"type": "node", "id": 10834423917, "lat": 40.4211906, "lon": 49.9994217}, {"type": "node", "id": 10834423918, "lat": 40.4211988, "lon": 49.9996255}, {"type": "node", "id": 10834423919, "lat": 40.4208996, "lon": 49.9997798}, {"type": "node", "id": 10834423920, "lat": 40.4208016, "lon": 49.9995156}, {"type": "node", "id": 10834423921, "lat": 40.4211365, "lon": 49.999254}, {"type": "node", "id": 10834443363, "lat": 40.4217123, "lon": 49.9999943}, {"type": "node", "id": 10834443364, "lat": 40.4217572, "lon": 49.9999756}, {"type": "node", "id": 10834443365, "lat": 40.421744, "lon": 49.9998441}, {"type": "node", "id": 10834443366, "lat": 40.4217001, "lon": 49.9998468}, {"type": "node", "id": 2773373019, "lat": 40.4397111, "lon": 49.9599287}, {"type": "node", "id": 2773373022, "lat": 40.4397258, "lon": 49.9600726}, {"type": "node", "id": 2773373025, "lat": 40.439794, "lon": 49.9601927}, {"type": "node", "id": 2773373028, "lat": 40.4398723, "lon": 49.9602277}, {"type": "node", "id": 2773373031, "lat": 40.4399448, "lon": 49.9602496}, {"type": "node", "id": 2773373037, "lat": 40.4399836, "lon": 49.9600075}, {"type": "node", "id": 3463941727, "lat": 40.4423227, "lon": 49.9635491}, {"type": "node", "id": 3469965288, "lat": 40.4393901, "lon": 49.9643857}, {"type": "node", "id": 3469965394, "lat": 40.4394324, "lon": 49.9640332}, {"type": "node", "id": 3469965402, "lat": 40.4395044, "lon": 49.9635176}, {"type": "node", "id": 3469965406, "lat": 40.4395466, "lon": 49.9630933}, {"type": "node", "id": 3469965407, "lat": 40.4395504, "lon": 49.9626788}, {"type": "node", "id": 3469965410, "lat": 40.4395752, "lon": 49.962669}, {"type": "node", "id": 3469965411, "lat": 40.4396609, "lon": 49.9631161}, {"type": "node", "id": 3469965423, "lat": 40.4398422, "lon": 49.9645424}, {"type": "node", "id": 3469965427, "lat": 40.439877, "lon": 49.9641768}, {"type": "node", "id": 3469965469, "lat": 40.4419479, "lon": 49.9611134}, {"type": "node", "id": 3469965470, "lat": 40.4421278, "lon": 49.9629641}, {"type": "node", "id": 3469965471, "lat": 40.4421962, "lon": 49.9607447}, {"type": "node", "id": 3469965472, "lat": 40.4422956, "lon": 49.963488}, {"type": "node", "id": 3469965474, "lat": 40.4427296, "lon": 49.9604484}, {"type": "node", "id": 3469965503, "lat": 40.4429539, "lon": 49.9643105}, {"type": "node", "id": 3469965520, "lat": 40.4435326, "lon": 49.9603759}, {"type": "node", "id": 3469965526, "lat": 40.4435948, "lon": 49.9618479}, {"type": "node", "id": 3469965528, "lat": 40.4436585, "lon": 49.9625418}, {"type": "node", "id": 3469965531, "lat": 40.4437598, "lon": 49.963595}, {"type": "node", "id": 3520118656, "lat": 40.4420667, "lon": 49.9623696}, {"type": "node", "id": 3520118658, "lat": 40.4422042, "lon": 49.9632491}, {"type": "node", "id": 5081283080, "lat": 40.4394232, "lon": 49.9630043}, {"type": "node", "id": 5081283083, "lat": 40.4394178, "lon": 49.9632631}, {"type": "node", "id": 5081283084, "lat": 40.4393333, "lon": 49.9640696}, {"type": "node", "id": 5081283085, "lat": 40.4393058, "lon": 49.9641047}, {"type": "node", "id": 5081283086, "lat": 40.4392128, "lon": 49.9640212}, {"type": "node", "id": 5081283087, "lat": 40.4391403, "lon": 49.9636702}, {"type": "node", "id": 5081283088, "lat": 40.4390035, "lon": 49.9622561}, {"type": "node", "id": 5081283091, "lat": 40.4390663, "lon": 49.96166}, {"type": "node", "id": 5081283095, "lat": 40.4393093, "lon": 49.9620194}, {"type": "node", "id": 5081283096, "lat": 40.4394082, "lon": 49.9626224}, {"type": "node", "id": 5626099186, "lat": 40.4451839, "lon": 49.9622804}, {"type": "node", "id": 5626099187, "lat": 40.4444289, "lon": 49.9622743}, {"type": "node", "id": 5626099188, "lat": 40.4441241, "lon": 49.9634389}, {"type": "node", "id": 5626099189, "lat": 40.4441545, "lon": 49.963808}, {"type": "node", "id": 5626099190, "lat": 40.4443299, "lon": 49.9642904}, {"type": "node", "id": 5626099198, "lat": 40.4454535, "lon": 49.9639173}, {"type": "node", "id": 9923193239, "lat": 40.4392595, "lon": 49.9640889}, {"type": "node", "id": 10049767633, "lat": 40.4395131, "lon": 49.9634298}, {"type": "node", "id": 10049767634, "lat": 40.4397247, "lon": 49.9634291}, {"type": "node", "id": 10049767635, "lat": 40.4397553, "lon": 49.9635797}, {"type": "node", "id": 10049767639, "lat": 40.4398083, "lon": 49.9638395}, {"type": "node", "id": 10049767643, "lat": 40.4398605, "lon": 49.964096}, {"type": "node", "id": 10049767646, "lat": 40.4399411, "lon": 49.9644832}, {"type": "node", "id": 10049767649, "lat": 40.4393954, "lon": 49.9643414}, {"type": "node", "id": 10049795433, "lat": 40.439275, "lon": 49.9619591}, {"type": "node", "id": 10112177381, "lat": 40.4397535, "lon": 49.9601435}, {"type": "node", "id": 10112209729, "lat": 40.4406099, "lon": 49.9637751}, {"type": "node", "id": 10112209730, "lat": 40.4405773, "lon": 49.9641131}, {"type": "node", "id": 10112209731, "lat": 40.4406579, "lon": 49.964156}, {"type": "node", "id": 10112209732, "lat": 40.4405956, "lon": 49.9644765}, {"type": "node", "id": 10112209733, "lat": 40.4403925, "lon": 49.9644376}, {"type": "node", "id": 10112209734, "lat": 40.4403956, "lon": 49.9645691}, {"type": "node", "id": 10112209781, "lat": 40.4400853, "lon": 49.9633111}, {"type": "node", "id": 10112209782, "lat": 40.440221, "lon": 49.9633232}, {"type": "node", "id": 10112209783, "lat": 40.4402292, "lon": 49.9634117}, {"type": "node", "id": 10112209784, "lat": 40.4405089, "lon": 49.9634653}, {"type": "node", "id": 10112287637, "lat": 40.442536, "lon": 49.9639266}, {"type": "node", "id": 10114841857, "lat": 40.4423747, "lon": 49.9636477}, {"type": "node", "id": 10115012611, "lat": 40.4435238, "lon": 49.9636906}, {"type": "node", "id": 10115012614, "lat": 40.4432651, "lon": 49.9603589}, {"type": "node", "id": 10115012615, "lat": 40.4437266, "lon": 49.9632496}, {"type": "node", "id": 10115012617, "lat": 40.4433647, "lon": 49.963755}, {"type": "node", "id": 10115012618, "lat": 40.44353, "lon": 49.9645463}, {"type": "node", "id": 10115012619, "lat": 40.4432973, "lon": 49.9644846}, {"type": "node", "id": 10115012620, "lat": 40.4427217, "lon": 49.9641278}, {"type": "node", "id": 10115012621, "lat": 40.4424839, "lon": 49.9636249}, {"type": "node", "id": 10115012622, "lat": 40.4423981, "lon": 49.9637148}, {"type": "node", "id": 10115012623, "lat": 40.4425278, "lon": 49.9636813}, {"type": "node", "id": 10115012624, "lat": 40.4426176, "lon": 49.9637523}, {"type": "node", "id": 10115012625, "lat": 40.4426951, "lon": 49.9635699}, {"type": "node", "id": 10115012626, "lat": 40.442538, "lon": 49.9634653}, {"type": "node", "id": 10115088151, "lat": 40.4443592, "lon": 49.9644621}, {"type": "node", "id": 10115088153, "lat": 40.4446895, "lon": 49.9622764}, {"type": "node", "id": 10797751280, "lat": 40.4390268, "lon": 49.9616736}, {"type": "node", "id": 10822565582, "lat": 40.4398934, "lon": 49.9597746}, {"type": "node", "id": 10822565583, "lat": 40.4400159, "lon": 49.9598256}, {"type": "node", "id": 10822565584, "lat": 40.4398738, "lon": 49.959976}, {"type": "node", "id": 10822565585, "lat": 40.4396984, "lon": 49.9595252}, {"type": "node", "id": 10822565586, "lat": 40.4399291, "lon": 49.9595962}, {"type": "node", "id": 5626099196, "lat": 40.4456792, "lon": 49.9643589}, {"type": "node", "id": 5626099197, "lat": 40.4456023, "lon": 49.9640261}, {"type": "node", "id": 3469965418, "lat": 40.4397429, "lon": 49.9651298}, {"type": "node", "id": 3469965448, "lat": 40.4401105, "lon": 49.965293}, {"type": "node", "id": 3469965533, "lat": 40.4438467, "lon": 49.9686689}, {"type": "node", "id": 3469965534, "lat": 40.4439029, "lon": 49.9701278}, {"type": "node", "id": 3469965553, "lat": 40.4441544, "lon": 49.9700901}, {"type": "node", "id": 3469965564, "lat": 40.4444232, "lon": 49.9691134}, {"type": "node", "id": 3469965567, "lat": 40.4444887, "lon": 49.9686498}, {"type": "node", "id": 3469965571, "lat": 40.4444699, "lon": 49.9688791}, {"type": "node", "id": 5626099191, "lat": 40.444443, "lon": 49.9649548}, {"type": "node", "id": 5626099192, "lat": 40.4442976, "lon": 49.9650349}, {"type": "node", "id": 5626099193, "lat": 40.4450455, "lon": 49.9674158}, {"type": "node", "id": 10112209735, "lat": 40.4404022, "lon": 49.964791}, {"type": "node", "id": 10112209736, "lat": 40.4404803, "lon": 49.9652168}, {"type": "node", "id": 10112209737, "lat": 40.4405252, "lon": 49.9653509}, {"type": "node", "id": 10112209738, "lat": 40.4406334, "lon": 49.9654904}, {"type": "node", "id": 10112209739, "lat": 40.4407783, "lon": 49.9655548}, {"type": "node", "id": 10112209740, "lat": 40.4408232, "lon": 49.9658632}, {"type": "node", "id": 10112209741, "lat": 40.4407191, "lon": 49.9658847}, {"type": "node", "id": 10112209742, "lat": 40.4408416, "lon": 49.9664775}, {"type": "node", "id": 10112209743, "lat": 40.4408171, "lon": 49.9667028}, {"type": "node", "id": 10112209744, "lat": 40.440809, "lon": 49.9668905}, {"type": "node", "id": 10112209745, "lat": 40.4408314, "lon": 49.9670434}, {"type": "node", "id": 10112209746, "lat": 40.4408641, "lon": 49.967325}, {"type": "node", "id": 10112209747, "lat": 40.4407763, "lon": 49.9688606}, {"type": "node", "id": 10112209748, "lat": 40.4407977, "lon": 49.9689344}, {"type": "node", "id": 10112209749, "lat": 40.4409437, "lon": 49.96898}, {"type": "node", "id": 10112209750, "lat": 40.4408804, "lon": 49.9698329}, {"type": "node", "id": 10112209751, "lat": 40.4408335, "lon": 49.9698409}, {"type": "node", "id": 10112209752, "lat": 40.4407028, "lon": 49.9704176}, {"type": "node", "id": 10112209753, "lat": 40.4405089, "lon": 49.9707395}, {"type": "node", "id": 10112209754, "lat": 40.4404476, "lon": 49.9708924}, {"type": "node", "id": 10112209772, "lat": 40.4401598, "lon": 49.9711123}, {"type": "node", "id": 10112209773, "lat": 40.4403303, "lon": 49.9704699}, {"type": "node", "id": 10112209774, "lat": 40.4404976, "lon": 49.9696197}, {"type": "node", "id": 10112209775, "lat": 40.4406099, "lon": 49.9687506}, {"type": "node", "id": 10112209776, "lat": 40.4406681, "lon": 49.9677515}, {"type": "node", "id": 10112209777, "lat": 40.440664, "lon": 49.9671333}, {"type": "node", "id": 10112209778, "lat": 40.4406344, "lon": 49.9665619}, {"type": "node", "id": 10112209779, "lat": 40.4405436, "lon": 49.9657667}, {"type": "node", "id": 10112209780, "lat": 40.4403935, "lon": 49.964903}, {"type": "node", "id": 10114841849, "lat": 40.4449793, "lon": 49.9670434}, {"type": "node", "id": 10114841850, "lat": 40.4445935, "lon": 49.9670649}, {"type": "node", "id": 10115088146, "lat": 40.4451471, "lon": 49.9674109}, {"type": "node", "id": 10115088147, "lat": 40.4444567, "lon": 49.9661261}, {"type": "node", "id": 10115088149, "lat": 40.4443093, "lon": 49.9651154}, {"type": "node", "id": 6207226160, "lat": 40.4415717, "lon": 49.9771414}, {"type": "node", "id": 6207226161, "lat": 40.4408489, "lon": 49.9763157}, {"type": "node", "id": 6207226162, "lat": 40.4407778, "lon": 49.9764509}, {"type": "node", "id": 6207226163, "lat": 40.4406812, "lon": 49.9768793}, {"type": "node", "id": 10112177416, "lat": 40.4400312, "lon": 49.9718325}, {"type": "node", "id": 10112209755, "lat": 40.4402292, "lon": 49.9715026}, {"type": "node", "id": 10112209756, "lat": 40.4401914, "lon": 49.9716005}, {"type": "node", "id": 10112209757, "lat": 40.4400618, "lon": 49.9716903}, {"type": "node", "id": 10112209758, "lat": 40.4400669, "lon": 49.9719666}, {"type": "node", "id": 10112209759, "lat": 40.4400506, "lon": 49.9720833}, {"type": "node", "id": 10112209760, "lat": 40.4394647, "lon": 49.9739796}, {"type": "node", "id": 10112209761, "lat": 40.4393432, "lon": 49.9741714}, {"type": "node", "id": 10112209762, "lat": 40.4390044, "lon": 49.9750404}, {"type": "node", "id": 10112209763, "lat": 40.4390972, "lon": 49.9746756}, {"type": "node", "id": 10112209770, "lat": 40.439432, "lon": 49.9735732}, {"type": "node", "id": 10112209771, "lat": 40.4398914, "lon": 49.9719653}, {"type": "node", "id": 10112209806, "lat": 40.4415449, "lon": 49.9770655}, {"type": "node", "id": 5626099194, "lat": 40.4462655, "lon": 49.9673565}, {"type": "node", "id": 5626099195, "lat": 40.445598, "lon": 49.9646513}, {"type": "node", "id": 10114841851, "lat": 40.4460489, "lon": 49.9665311}, {"type": "node", "id": 10115088157, "lat": 40.4461329, "lon": 49.967363}, {"type": "node", "id": 3440848465, "lat": 40.441015, "lon": 49.9861342}, {"type": "node", "id": 3440848466, "lat": 40.4414746, "lon": 49.987627}, {"type": "node", "id": 3440848468, "lat": 40.4417623, "lon": 49.9874774}, {"type": "node", "id": 3440848470, "lat": 40.4418721, "lon": 49.9866144}, {"type": "node", "id": 10115012310, "lat": 40.4413356, "lon": 49.9864197}, {"type": "node", "id": 10115012311, "lat": 40.4412213, "lon": 49.9860227}, {"type": "node", "id": 10115012312, "lat": 40.4419644, "lon": 49.9861219}, {"type": "node", "id": 10115012313, "lat": 40.4419154, "lon": 49.9864894}, {"type": "node", "id": 10115012314, "lat": 40.4420399, "lon": 49.9863151}, {"type": "node", "id": 7575099168, "lat": 40.4436943, "lon": 49.9997288}, {"type": "node", "id": 7575099169, "lat": 40.4437516, "lon": 50.0006501}, {"type": "node", "id": 7575099170, "lat": 40.4436913, "lon": 50.0006622}, {"type": "node", "id": 7575099171, "lat": 40.4436545, "lon": 50.0003779}, {"type": "node", "id": 7575099172, "lat": 40.4434137, "lon": 50.0004718}, {"type": "node", "id": 7575099173, "lat": 40.4433749, "lon": 50.0002035}, {"type": "node", "id": 7575099174, "lat": 40.4435219, "lon": 50.0000828}, {"type": "node", "id": 7575099175, "lat": 40.4434749, "lon": 49.9999541}, {"type": "node", "id": 7575099176, "lat": 40.4433688, "lon": 50.0000345}, {"type": "node", "id": 7575099177, "lat": 40.4433136, "lon": 49.9997985}, {"type": "node", "id": 7575099178, "lat": 40.4436219, "lon": 49.9995652}, {"type": "node", "id": 7575099179, "lat": 40.4434953, "lon": 49.9992218}, {"type": "node", "id": 7575099180, "lat": 40.4436117, "lon": 49.9990851}, {"type": "node", "id": 10049687806, "lat": 40.4437362, "lon": 50.0002304}, {"type": "node", "id": 10049744717, "lat": 40.4433928, "lon": 50.0003271}, {"type": "node", "id": 10049744723, "lat": 40.443452, "lon": 49.9996938}]}