{"version": 0.6, "generator": "Overpass API 0.7.62.8 e802775f", "osm3s": {"timestamp_osm_base": "2025-11-23T07:58:40Z", "copyright": "The data included in this document is from www.openstreetmap.org. The data is made available under ODbL."}, "elements": [{"type": "node", "id": 1427954234, "lat": 40.3854162, "lon": 49.9799685, "tags": {"addr:housenumber": "2Q", "addr:postcode": "AZ1131", "addr:street": "Samir C\u0259f\u0259rov", "amenity": "cafe", "cuisine": "tea", "internet_access": "wlan", "name:ru": "CARDAG CAY EVI\u2615\ufe0f", "opening_hours": "Mo-Su 11:00-22:00", "phone": "+994555711510", "website": "https://instagram.com/cardag_cay_evi"}}, {"type": "node", "id": 1427954242, "lat": 40.3857917, "lon": 49.9838099, "tags": {"amenity": "cafe"}}, {"type": "node", "id": 1427954266, "lat": 40.3833894, "lon": 49.9806873, "tags": {"amenity": "restaurant"}}, {"type": "node", "id": 1427954267, "lat": 40.3859719, "lon": 49.9812345, "tags": {"amenity": "restaurant"}}, {"type": "node", "id": 1427972286, "lat": 40.3798834, "lon": 49.9802474, "tags": {"amenity": "restaurant", "name:en": "Texas"}}, {"type": "node", "id": 1427974281, "lat": 40.3774785, "lon": 49.9846946, "tags": {"amenity": "cafe"}}, {"type": "node", "id": 1427974282, "lat": 40.3772946, "lon": 49.9846946, "tags": {"amenity": "restaurant"}}, {"type": "node", "id": 1430719148, "lat": 40.3943639, "lon": 49.9723142, "tags": {"amenity": "restaurant", "name": "Nuray \u015eadl\u0131q Saray\u0131 \\ Qara\u00e7uxur"}}, {"type": "node", "id": 1430720265, "lat": 40.3934099, "lon": 49.975793, "tags": {"amenity": "restaurant"}}, {"type": "node", "id": 1646575688, "lat": 40.3943479, "lon": 49.9759107, "tags": {"amenity": "restaurant", "name": "Aura \u015eadl\u0131q Saray\u0131 \\ Qara\u00e7uxur"}}, {"type": "node", "id": 1654039510, "lat": 40.3832917, "lon": 49.9793876, "tags": {"amenity": "marketplace", "name": "Gunashli Trade Center", "name:az": "G\u00fcn\u0259\u015fli Ticar\u0259t M\u0259rk\u0259zi"}}, {"type": "node", "id": 2015325759, "lat": 40.3931725, "lon": 49.9817688, "tags": {"amenity": "restaurant", "name": "Ya\u011fmur \u015eadl\u0131q Saray\u0131 \\ Qara\u00e7uxur"}}, {"type": "node", "id": 2015329809, "lat": 40.3943512, "lon": 49.981565, "tags": {"amenity": "restaurant", "name": "D\u0259niz \u015eadl\u0131q Saray \u0131\\ Qara\u00e7uxur"}}, {"type": "node", "id": 2118824810, "lat": 40.3851269, "lon": 49.9742643, "tags": {"historic": "monument", "name": "Qartal Abid\u0259si \\ Yeni G\u00fcn\u0259\u015fli"}}, {"type": "node", "id": 2545014224, "lat": 40.3948232, "lon": 49.9562599, "tags": {"amenity": "cafe"}}, {"type": "node", "id": 3066492019, "lat": 40.3936584, "lon": 49.966858, "tags": {"amenity": "restaurant", "name": "\u015eur \u015eadl\u0131q Saray\u0131 \\ G\u00fcn\u0259\u015fli"}}, {"type": "node", "id": 3296015209, "lat": 40.3844113, "lon": 49.9782902, "tags": {"historic": "monument", "name": "Ana v\u0259 u\u015faq heyk\u0259li"}}, {"type": "node", "id": 3553883404, "lat": 40.3925326, "lon": 49.9721391, "tags": {"historic": "monument", "name": "V\u0259t\u0259n \u015e\u0259hidl\u0259ri"}}, {"type": "node", "id": 4200744021, "lat": 40.3917745, "lon": 49.9661807, "tags": {"addr:street": "Telnov", "amenity": "restaurant", "name": "Leyla \u015eadl\u0131q Saray\u0131 \\ G\u00fcn\u0259\u015fli"}}, {"type": "node", "id": 4253358510, "lat": 40.383357, "lon": 49.9749302, "tags": {"amenity": "cafe", "name": "Gunesh Kafe"}}, {"type": "node", "id": 4299068190, "lat": 40.3928152, "lon": 49.9727584, "tags": {"amenity": "cafe", "name": "Z\u00fcmr\u00fcd Kafe \\ Qara\u00e7uxur"}}, {"type": "node", "id": 4299068393, "lat": 40.3925573, "lon": 49.9744929, "tags": {"amenity": "cafe", "name": "\u015e\u0131dd\u0131 Vedibasar Kafe \\ Qara\u00e7uxur"}}, {"type": "node", "id": 4306242094, "lat": 40.3873072, "lon": 49.9553188, "tags": {"amenity": "restaurant", "name": "Bak\u0131 \u015eadl\u0131q Saray\u0131", "name:en": "Bak\u0131 \u015ead\u0131q Saray\u0131 / \u04d8hm\u04d9dli"}}, {"type": "node", "id": 4356794807, "lat": 40.3885433, "lon": 49.9577514, "tags": {"addr:street": "Qacag Nabi", "amenity": "restaurant", "name": "URFA"}}, {"type": "node", "id": 4356805689, "lat": 40.389206, "lon": 49.9580299, "tags": {"amenity": "restaurant", "name:ru": "Rock in Rose", "name:tr": "Ya\u015f\u0131l tala"}}, {"type": "node", "id": 4422322791, "lat": 40.3742667, "lon": 49.9644477, "tags": {"amenity": "restaurant", "name:en": "Afrodita", "name:ru": "\u0410\u0444\u0440\u043e\u0434\u0438\u0442\u0430"}}, {"type": "node", "id": 4471891989, "lat": 40.3767072, "lon": 49.9805798, "tags": {"historic": "memorial", "name:tr": "9-cu bina"}}, {"type": "node", "id": 4507791497, "lat": 40.3824997, "lon": 49.9533583, "tags": {"amenity": "cafe", "name:en": "Qala \u00c7ay evi"}}, {"type": "node", "id": 4522452491, "lat": 40.3769605, "lon": 49.9783154, "tags": {"amenity": "cafe", "name": "EmRus"}}, {"type": "node", "id": 4540016789, "lat": 40.3859334, "lon": 49.979544, "tags": {"amenity": "cafe", "name:en": "\u00c7ayka Pub"}}, {"type": "node", "id": 4614382596, "lat": 40.3932578, "lon": 49.9723273, "tags": {"amenity": "restaurant", "name": "\u018fli M\u0259rasim Evi \\ Qara\u00e7uxur"}}, {"type": "node", "id": 4621023992, "lat": 40.3706688, "lon": 49.9940612, "tags": {"historic": "monument", "name:tr": "nesimi"}}, {"type": "node", "id": 4658649390, "lat": 40.3890944, "lon": 49.9658823, "tags": {"amenity": "restaurant", "name": "Pion Sadliq sarayi \\ G\u00fcn\u0259\u015fli"}}, {"type": "node", "id": 4660561289, "lat": 40.3693966, "lon": 49.9527576, "tags": {"addr:housenumber": "2944", "addr:street": "M\u0259h\u0259mm\u0259d Hadi", "amenity": "restaurant", "internet_access": "wlan", "name": "Dadli Restoran"}}, {"type": "node", "id": 4669431289, "lat": 40.3731678, "lon": 49.9541569, "tags": {"amenity": "cafe", "cuisine": "georgian", "internet_access": "wlan", "name:en": "33 X\u0259ng\u0259l Evi / H\u04d9zi Aslanov", "name:ru": "33 \u0425\u0438\u043d\u043a\u0430\u043b\u044c\u043d\u0430\u044f"}}, {"type": "node", "id": 4681231795, "lat": 40.3610383, "lon": 49.9567315, "tags": {"addr:street": "Sad\u0131qcan k\u00fc\u00e7\u0259si", "amenity": "cafe", "name:en": "Majito cafe Xa\u015f"}}, {"type": "node", "id": 4683744790, "lat": 40.3864054, "lon": 49.9629039, "tags": {"addr:street": "Sarayevo", "amenity": "restaurant", "name:en": "Murad Palace"}}, {"type": "node", "id": 4712577389, "lat": 40.3942532, "lon": 49.9671111, "tags": {"name": "G\u00fcn\u0259\u015f Motel", "tourism": "motel"}}, {"type": "node", "id": 4719470691, "lat": 40.3778881, "lon": 49.9553746, "tags": {"addr:street": "Vunqtau k\u00fc\u00e7\u0259si", "amenity": "restaurant", "name": "Xa\u00e7apuri Park", "name:en": "Xachapuri Park (Ukraina Dairesi)", "phone": "+994557117744", "website": "https://instagram.com/khachapuri_park"}}, {"type": "node", "id": 4720868390, "lat": 40.3746108, "lon": 49.9775704, "tags": {"addr:street": "Yeni G\u00fcn\u0259\u015fli, massiv D", "amenity": "restaurant", "cuisine": "kebab", "internet_access": "wlan", "name:en": "\u015eam i\u015f\u0131\u011f\u0131", "opening_hours": "24/7"}}, {"type": "node", "id": 4721479689, "lat": 40.3767883, "lon": 49.9756265, "tags": {"addr:street": "Abbas F\u0259tullayev", "name:en": "S\u00fcl\u00fc", "tourism": "guest_house"}}, {"type": "node", "id": 4784202822, "lat": 40.3634158, "lon": 49.9828592, "tags": {"name:en": "Elbay", "name:ru": "\u042d\u043b\u044c\u0431\u0430\u0439", "tourism": "guest_house"}}, {"type": "node", "id": 4792505321, "lat": 40.3927346, "lon": 49.9727513, "tags": {"amenity": "restaurant", "cuisine": "kebab", "name": "\u0130ki 2 Tik\u0259 Restoran \\ Qara\u00e7uxur"}}, {"type": "node", "id": 4803619721, "lat": 40.3722606, "lon": 49.9644445, "tags": {"addr:street": "\u018flia\u011fa \u015e\u0131xlinski", "amenity": "cafe", "internet_access": "wlan", "name:en": "Terace Kafe", "name:ru": "\u0422\u0435\u0440\u0430\u0441\u0430 \u041a\u0430\u0444\u0435", "opening_hours": "24/7"}}, {"type": "node", "id": 4836451927, "lat": 40.3834911, "lon": 49.9700282, "tags": {"amenity": "cafe", "name:en": "555 kafe"}}, {"type": "node", "id": 4838316822, "lat": 40.376594, "lon": 49.9689915, "tags": {"amenity": "cafe", "name:en": "Dashli Dere"}}, {"type": "node", "id": 4848728722, "lat": 40.3861749, "lon": 49.9624708, "tags": {"amenity": "restaurant", "name:en": "Murad \u015fadl\u0131q saray\u0131"}}, {"type": "node", "id": 4848728723, "lat": 40.3944422, "lon": 49.9672225, "tags": {"leisure": "sauna", "name": "Topkap\u0131 Hamam\u0131 \\ G\u00fcn\u0259\u015fli", "name:az": "Topkap\u0131 Hamam\u0131 \\ G\u00fcn\u0259\u015fli", "name:en": "Topkapy Sauna \\ G\u00fcn\u0259\u015fli", "tourism": "attraction"}}, {"type": "node", "id": 4858435222, "lat": 40.3991484, "lon": 49.977248, "tags": {"amenity": "cafe", "name:en": "Marani kafe"}}, {"type": "node", "id": 4858490123, "lat": 40.3732459, "lon": 49.9691241, "tags": {"amenity": "cafe", "name": "Ozan Restoran \\ G\u00fcn\u0259\u015fli"}}, {"type": "node", "id": 4858533327, "lat": 40.3701383, "lon": 49.969864, "tags": {"amenity": "restaurant", "name:en": "Tursh su restoran"}}, {"type": "node", "id": 4858533328, "lat": 40.3754671, "lon": 49.9684579, "tags": {"amenity": "restaurant", "name": "Venesiya \u015eadl\u0131q Saray\u0131 \\ G\u00fcn\u0259\u015fli"}}, {"type": "node", "id": 4860892924, "lat": 40.3777026, "lon": 49.9546288, "tags": {"amenity": "cafe", "name:en": "Dere cicek kafe"}}, {"type": "node", "id": 4864740921, "lat": 40.3825296, "lon": 49.9637154, "tags": {"addr:postcode": "AZ1149", "addr:street": "Neapol k\u00fc\u00e7\u0259si", "amenity": "cafe", "name:en": "Kafe \"Tatl\u0131\""}}, {"type": "node", "id": 4889266921, "lat": 40.3805841, "lon": 49.9542995, "tags": {"amenity": "restaurant", "name": "Tiblisi 313 Restoran \\ Ukrayna Dair\u0259si"}}, {"type": "node", "id": 4899530326, "lat": 40.385642, "lon": 49.9536277, "tags": {"addr:street": "axmedli, baku", "amenity": "cafe", "cuisine": "diner", "name:en": "S\u04d9rxanin d\u00f6n\u04d9ri", "name:ru": "Serxanin Doneri", "operator": "Serxan"}}, {"type": "node", "id": 4914907323, "lat": 40.3972994, "lon": 49.9943798, "tags": {"addr:city": "Bak\u0131", "addr:street": "Etibar B\u0259kirov k\u00fc\u00e7\u0259si", "amenity": "marketplace", "landuse": "quarry", "landuse_1": "retail", "name": "Da\u015f Bazar\u0131 Qara\u00e7uxur"}}, {"type": "node", "id": 5040096821, "lat": 40.3683292, "lon": 49.9601483, "tags": {"addr:housenumber": "23", "addr:street": "G\u0259nc\u0259 prospekti", "amenity": "restaurant", "cuisine": "tea;coffee_shop", "internet_access": "wlan", "name:en": "cardaq cay evi", "name:tr": "\u00e7ardaq \u00e7ay evi", "opening_hours": "Mo-Su 09:00-00:00"}}, {"type": "node", "id": 5088143677, "lat": 40.3886645, "lon": 49.9757807, "tags": {"historic": "monument", "name": "\u015eir Abid\u0259si"}}, {"type": "node", "id": 5134365921, "lat": 40.3851993, "lon": 49.9548289, "tags": {"addr:housenumber": "141-145", "addr:street": "M\u0259h\u0259mm\u0259d Hadi", "amenity": "cafe", "internet_access": "wlan", "name:en": "Relax 085 Cafe", "name:ru": "\u0420\u0435\u043b\u0430\u043a\u0441 085 \u041a\u0430\u0444\u0435", "opening_hours": "Mo-Su 10:00-12:00", "phone": "+994559506550"}}, {"type": "node", "id": 5146631221, "lat": 40.3720337, "lon": 49.9686245, "tags": {"name:en": "Sahil usta", "operator": "Sahil usta", "tourism": "caravan_site"}}, {"type": "node", "id": 5212073821, "lat": 40.3700467, "lon": 49.9641464, "tags": {"amenity": "restaurant", "name": "Yusif M\u0259rasim Evi \\ G\u00fcn\u0259\u015fli"}}, {"type": "node", "id": 5245222922, "lat": 40.3862832, "lon": 49.9547512, "tags": {"addr:postcode": "az1149", "addr:street": "Sarayevo", "amenity": "restaurant", "internet_access": "wlan", "name:en": "Borani", "name:tr": "Borani"}}, {"type": "node", "id": 5451452522, "lat": 40.3941079, "lon": 49.9635883, "tags": {"amenity": "restaurant", "name:en": "M&M Restoran"}}, {"type": "node", "id": 5475364221, "lat": 40.3867487, "lon": 49.9541206, "tags": {"amenity": "cafe", "name:en": "Coffeemania"}}, {"type": "node", "id": 5490339421, "lat": 40.3776849, "lon": 49.9810102, "tags": {"addr:housenumber": "34", "addr:street": "Samir C\u0259f\u0259rov", "internet_access": "wlan", "name:ru": "\u041c\u0438\u043b\u044b\u0439 \u0434\u043e\u043c", "tourism": "guest_house"}}, {"type": "node", "id": 5561316844, "lat": 40.3667198, "lon": 49.9858477, "tags": {"name:en": "bibi avr sehv olan market zig", "tourism": "apartment"}}, {"type": "node", "id": 5563997921, "lat": 40.3944491, "lon": 49.9529481, "tags": {"name:en": "avr16286 aybeniz kt", "tourism": "apartment"}}, {"type": "node", "id": 5564164521, "lat": 40.3914906, "lon": 49.9532259, "tags": {"name:en": "avr2275 aile mt", "tourism": "apartment"}}, {"type": "node", "id": 5607772210, "lat": 40.3666784, "lon": 49.9596764, "tags": {"amenity": "cafe", "name": "Stadium Game & Tea House"}}, {"type": "node", "id": 5718564982, "lat": 40.3743208, "lon": 49.9505035, "tags": {"amenity": "restaurant", "name": "Kolxoz\u00e7u Restoran \\ X\u0259tai"}}, {"type": "node", "id": 5803369706, "lat": 40.3638854, "lon": 49.954957, "tags": {"addr:housenumber": "107", "addr:street": "M\u0259h\u0259mm\u0259d Hadi", "name": "\u015eahinin Evi", "tourism": "apartment"}}, {"type": "node", "id": 5873615486, "lat": 40.3949002, "lon": 49.9728314, "tags": {"amenity": "cafe"}}, {"type": "node", "id": 5909435088, "lat": 40.3646452, "lon": 49.9567678, "tags": {"addr:housenumber": "165", "addr:postcode": "1121", "addr:street": "\u0130lqar Z\u00fclf\u00fcqarov k\u00fc\u00e7\u0259si", "internet_access": "wlan", "name:en": "I.Zulfugarov str.165", "name:ru": "\u0443\u043b. \u0418.\u0417\u0443\u043b\u044c\u0444\u0443\u0433\u0430\u0440\u043e\u0432 165", "opening_hours": "24/7", "tourism": "apartment"}}, {"type": "node", "id": 5919281185, "lat": 40.3682783, "lon": 49.9751569, "tags": {"internet_access": "wlan", "name:en": "yeni gunesli", "opening_hours": "24/7", "operator": "Elcin", "phone": "994556850555", "tourism": "guest_house"}}, {"type": "node", "id": 6142540487, "lat": 40.3637247, "lon": 49.9506848, "tags": {"amenity": "restaurant", "name": "Elita Palace"}}, {"type": "node", "id": 6354530187, "lat": 40.3957288, "lon": 49.9546652, "tags": {"name:en": "Seddamin evi", "tourism": "apartment"}}, {"type": "node", "id": 6359981386, "lat": 40.3855309, "lon": 49.9831627, "tags": {"historic": "memorial", "name:en": "Hakim Ad\u0131g\u00f6z\u04d9l", "name:tr": "HAK\u0130M ADIG\u00d6ZEL"}}, {"type": "node", "id": 6442375786, "lat": 40.3738829, "lon": 49.9642397, "tags": {"amenity": "restaurant", "name": "Afrodita Restoran & Sadliq Saray\u0131 \\ \u018fhm\u0259dli"}}, {"type": "node", "id": 6470000388, "lat": 40.3904809, "lon": 49.9576971, "tags": {"amenity": "restaurant", "name": "50 Q\u018fP\u0130K RESTORAN"}}, {"type": "node", "id": 6512253585, "lat": 40.3879814, "lon": 49.976114, "tags": {"amenity": "cafe", "name:en": "Serin"}}, {"type": "node", "id": 6613015845, "lat": 40.3730658, "lon": 49.9771125, "tags": {"name:en": "Samir (Gunashli ev)", "tourism": "apartment"}}, {"type": "node", "id": 6685044587, "lat": 40.3830937, "lon": 49.9800629, "tags": {"internet_access": "wlan", "name:en": "5D", "name:ru": "5\u0414", "tourism": "guest_house"}}, {"type": "node", "id": 6715295187, "lat": 40.3730569, "lon": 49.9770813, "tags": {"name:en": "Samir (Gunashli ev)", "tourism": "apartment"}}, {"type": "node", "id": 6792721386, "lat": 40.3964785, "lon": 49.954078, "tags": {"addr:street": "\u0130smay\u0131l Memmedov", "amenity": "restaurant", "cuisine": "beef_bowl;chicken;kebab;local", "internet_access": "wlan", "level": "1", "name": "Bu\u011fda X\u018fNG\u018fL", "opening_hours": "Mo-Su 10:00-23:30", "phone": "+994517333200"}}, {"type": "node", "id": 6801809186, "lat": 40.3856097, "lon": 49.9503853, "tags": {"historic": "monument", "name:en": "1941-1945 Abid\u04d9si / \u04d8hm\u04d9dli"}}, {"type": "node", "id": 6841605785, "lat": 40.368937, "lon": 49.955346, "tags": {"historic": "castle", "name:en": "PERV\u0130Z\u0130N evi"}}, {"type": "node", "id": 7187886086, "lat": 40.3737208, "lon": 49.9912439, "tags": {"addr:street": "Mirz\u0259 \u018fl\u0259kb\u0259r Sabir", "name:en": "House Gafarov", "name:ru": "\u0414\u043e\u043c \u0413\u0430\u0444\u0430\u0440\u043e\u0432\u0430", "tourism": "apartment"}}, {"type": "node", "id": 7214086285, "lat": 40.3838597, "lon": 49.9682425, "tags": {"addr:housenumber": "27", "addr:street": "S\u0259m\u0259d b\u0259y Mehmandarov", "amenity": "restaurant", "cuisine": "turkish", "internet_access": "wlan", "name": "Medallion Restoran \\ G\u00fcn\u0259\u015fli"}}, {"type": "node", "id": 7523986885, "lat": 40.3995092, "lon": 49.9840984, "tags": {"name": "Anar \u018fsg\u0259rov (ev)", "tourism": "apartment"}}, {"type": "node", "id": 7852580990, "lat": 40.3876976, "lon": 49.9541437, "tags": {"amenity": "restaurant", "name": "Coffemania"}}, {"type": "node", "id": 7852587185, "lat": 40.378892, "lon": 49.9539364, "tags": {"historic": "monument", "name": "Ukrayna dair\u0259si"}}, {"type": "node", "id": 7929363885, "lat": 40.3779892, "lon": 49.9844164, "tags": {"addr:street": "Yeni G\u00fcn\u0259\u015fli", "amenity": "restaurant", "name:en": "Altun istirah\u0259t m\u0259rk\u0259zi"}}, {"type": "node", "id": 8211460835, "lat": 40.3919592, "lon": 49.9559402, "tags": {"addr:city": "Baki", "addr:housenumber": "2B", "addr:postcode": "AZ1142", "addr:street": "Seyid \u018fzim \u015eirvani", "amenity": "cafe", "name": "3 M\u0259rt\u0259b\u0259"}}, {"type": "node", "id": 8570547517, "lat": 40.3631605, "lon": 49.9600652, "tags": {"name": "X\u0259z\u0259r Q\u0131rat Dair\u0259si", "tourism": "viewpoint"}}, {"type": "node", "id": 8607173617, "lat": 40.3700751, "lon": 49.954154, "tags": {"name:en": "R\u0259\u015fad\u0131n evi", "tourism": "apartment"}}, {"type": "node", "id": 9786572894, "lat": 40.3951056, "lon": 49.9672982, "tags": {"amenity": "cafe", "name": "L\u0259l\u0259 T\u0259p\u0259 Kafe"}}, {"type": "node", "id": 9786623833, "lat": 40.3934812, "lon": 49.9666491, "tags": {"amenity": "restaurant", "name": "Kolissa Hall \u015eadl\u0131q Saray\u0131 \\ G\u00fcn\u0259\u015fli"}}, {"type": "node", "id": 9786623863, "lat": 40.3943968, "lon": 49.9668878, "tags": {"name": "Qaya Motel", "tourism": "motel"}}, {"type": "node", "id": 9786623952, "lat": 40.3944478, "lon": 49.9664533, "tags": {"amenity": "restaurant", "name": "Q\u0131z\u0131l Ba\u011f \u015eadl\u0131q Saray\u0131 \\ G\u00fcn\u0259\u015fli"}}, {"type": "node", "id": 9786638718, "lat": 40.3954355, "lon": 49.9662817, "tags": {"amenity": "cafe", "name": "Samovar S\u00fcfr\u0259si \\ \u018fhm\u0259dli"}}, {"type": "node", "id": 9799267637, "lat": 40.3557241, "lon": 49.9531791, "tags": {"amenity": "cafe", "name": "Kafe"}}, {"type": "node", "id": 9892249387, "lat": 40.3780882, "lon": 49.9598434, "tags": {"amenity": "restaurant", "name": "B\u0259xt \u00dcz\u00fcy\u00fc"}}, {"type": "node", "id": 9992586718, "lat": 40.3738761, "lon": 49.9525175, "tags": {"amenity": "restaurant", "name": "Z\u04d9m-Z\u04d9m M\u04d9rasim Zal\u0131 \\ H\u0259zi Aslanov"}}, {"type": "node", "id": 10016868172, "lat": 40.3944468, "lon": 49.9976876, "tags": {"historic": "monument", "name": "\u00d6k\u00fcz abid\u0259si"}}, {"type": "node", "id": 10069342636, "lat": 40.394172, "lon": 49.9907032, "tags": {"amenity": "restaurant", "name": "Qara\u00e7uxur M\u0259rasim Evi"}}, {"type": "node", "id": 10069369166, "lat": 40.3933539, "lon": 49.9906629, "tags": {"amenity": "cafe", "name": "A\u011f \u00c7i\u00e7\u0259yim Kafe / Qara\u00e7uxur"}}, {"type": "node", "id": 10075685864, "lat": 40.3939269, "lon": 49.9723005, "tags": {"amenity": "restaurant", "name": "Ba\u011f\u00e7al\u0131 Restoran \\ Qara\u00e7uxur"}}, {"type": "node", "id": 10087686855, "lat": 40.3966949, "lon": 49.9937394, "tags": {"amenity": "restaurant", "name": "Yanar Da\u011f restoran \\ Qara\u00e7uxur"}}, {"type": "node", "id": 10087686861, "lat": 40.3953324, "lon": 49.9932995, "tags": {"amenity": "cafe", "name": "Ramal Kafe"}}, {"type": "node", "id": 10087686905, "lat": 40.3914306, "lon": 49.976002, "tags": {"name": "G\u00fcn\u0259\u015f Park \u018fyk\u0259nc\u0259 M\u0259rk\u0259zi \\ Qara\u00e7uxur", "tourism": "theme_park"}}, {"type": "node", "id": 10087721552, "lat": 40.3918801, "lon": 49.9728195, "tags": {"amenity": "restaurant", "name": "Kronos Restoran \\ Qara\u00e7uxur"}}, {"type": "node", "id": 10087721572, "lat": 40.3994892, "lon": 49.978648, "tags": {"amenity": "cafe", "name": "Troya \u00c7ay"}}, {"type": "node", "id": 10090473155, "lat": 40.3920577, "lon": 49.9726841, "tags": {"amenity": "cafe", "name": "Piramida Kafe \\ Qara\u00e7uxur"}}, {"type": "node", "id": 10103454120, "lat": 40.3921516, "lon": 49.9608637, "tags": {"name:en": "Fuad ev", "name:ru": "Fuad ev", "tourism": "apartment"}}, {"type": "node", "id": 10244280060, "lat": 40.3565069, "lon": 49.9584764, "tags": {"amenity": "restaurant", "contact:email": "citypark@cafecity.az", "contact:facebook": "https://www.facebook.com/cityparkbaku", "contact:instagram": "https://www.instagram.com/cityparkbaku/", "contact:phone": "+994 50 988 02 05;+994 55 988 02 05", "contact:website": "https://cafecity.az/ru/restaurant/city-park", "name": "City Park", "opening_hours": "Mo-Th,Su 09:00-24:00; Fr-Sa 09:00-02:00"}}, {"type": "node", "id": 10539836509, "lat": 40.3829802, "lon": 49.966416, "tags": {"addr:housenumber": "50", "addr:street": "S\u0259m\u0259d b\u0259y Mehmandarov", "amenity": "restaurant", "contact:instagram": "gamarjoba_baku_333", "internet_access": "wlan", "name:en": "Gamarjoba Baku 333", "opening_hours": "Mo-Su 11:00-23:00", "phone": "+994508230333"}}, {"type": "node", "id": 10608922988, "lat": 40.3728773, "lon": 49.9537738, "tags": {"amenity": "cafe", "name": "\u00c7ak\u0131rb\u0259yli Kafe \\ H\u0259zi Aslanov"}}, {"type": "node", "id": 10608922989, "lat": 40.3726592, "lon": 49.9537242, "tags": {"amenity": "cafe", "name": "X\u0259z\u0259r Kafe \\ H\u0259zi Aslanov"}}, {"type": "node", "id": 10608922990, "lat": 40.3736094, "lon": 49.9533293, "tags": {"amenity": "cafe", "name": "Pizza Mizza \\ H\u0259zi Aslanov"}}, {"type": "node", "id": 11012726354, "lat": 40.3705207, "lon": 49.9739876, "tags": {"amenity": "restaurant", "name": "K\u00f6vs\u0259r M\u0259rasim Evi \\ Yeni G\u00fcn\u0259\u015fli"}}, {"type": "node", "id": 11012772979, "lat": 40.3743082, "lon": 49.96911, "tags": {"amenity": "restaurant", "name": "Maestro Restoran \\ G\u00fcn\u0259\u015fli"}}, {"type": "node", "id": 11012777112, "lat": 40.3689931, "lon": 49.9904577, "tags": {"amenity": "cafe", "name": "Yurd Kafe \\ Z\u0131\u011f"}}, {"type": "node", "id": 11012835362, "lat": 40.3717805, "lon": 49.9693581, "tags": {"amenity": "restaurant", "name": "Q\u0259b\u0259l\u0259 Restoran \\ G\u00fcn\u0259\u015fli Dair\u0259si"}}, {"type": "node", "id": 11012835538, "lat": 40.362338, "lon": 49.9699858, "tags": {"historic": "memorial", "name": "\u0130nqlab \u0130smay\u0131lov heyk\u0259li \\ G\u00fcn\u0259\u015fli"}}, {"type": "node", "id": 11012835593, "lat": 40.3638207, "lon": 49.9692321, "tags": {"amenity": "restaurant", "name": "Sehirli \u00c7\u0131raq Restoran \\ G\u00fcn\u0259\u015fli"}}, {"type": "node", "id": 11012971264, "lat": 40.378731, "lon": 49.9652222, "tags": {"amenity": "restaurant", "name": "Bu Gec\u0259 Restoran \\ \u018fhm\u0259dli"}}, {"type": "node", "id": 11012971533, "lat": 40.3828796, "lon": 49.963991, "tags": {"amenity": "cafe", "name": "Zirv\u0259 Kafe \\ \u018fhm\u0259dli"}}, {"type": "node", "id": 11012971543, "lat": 40.3831013, "lon": 49.9640876, "tags": {"amenity": "restaurant", "name": "Q\u0259sr Restoran \\ \u018fhm\u0259dli"}}, {"type": "node", "id": 11014459335, "lat": 40.3696869, "lon": 49.9639025, "tags": {"amenity": "cafe", "name": "Q\u0259dim Bak\u0131 Kafe \\ G\u00fcn\u0259\u015fli"}}, {"type": "node", "id": 11026181185, "lat": 40.3617331, "lon": 49.9554455, "tags": {"amenity": "restaurant", "name": "Gec\u0259 Gec\u0259 Restoran"}}, {"type": "node", "id": 11026181186, "lat": 40.3621817, "lon": 49.9559136, "tags": {"name": "Yataqxana", "tourism": "guest_house"}}, {"type": "node", "id": 11225440593, "lat": 40.3805198, "lon": 49.9542989, "tags": {"name": "Hakim Plaza \\ Ukrayna Dair\u0259si", "tourism": "hotel"}}, {"type": "node", "id": 11225440594, "lat": 40.3803614, "lon": 49.9543083, "tags": {"amenity": "restaurant", "name": "Love Tbilisi Restoran \\ Ukrayna Dair\u0259si"}}, {"type": "node", "id": 11225440595, "lat": 40.3801776, "lon": 49.9545309, "tags": {"amenity": "restaurant", "name": "Viktoriya \u015eadl\u0131q Saray\u0131 \\ Ukrayna Dair\u0259si"}}, {"type": "node", "id": 11371436969, "lat": 40.3901184, "lon": 49.9591287, "tags": {"name:en": "Elwane ev", "name:ru": "Elwane ev", "tourism": "apartment"}}, {"type": "node", "id": 11401491069, "lat": 40.378796, "lon": 49.9773623, "tags": {"name:en": "Mahir ev", "name:ru": "Mahir ev", "tourism": "apartment"}}, {"type": "node", "id": 11435133397, "lat": 40.3833531, "lon": 49.9615562, "tags": {"amenity": "restaurant", "cuisine": "sushi", "name": "Sushi Natsu"}}, {"type": "node", "id": 11886350069, "lat": 40.3991298, "lon": 49.9505289, "tags": {"addr:street": "B\u0259hruz Nuriyev k\u00fc\u00e7\u0259si", "amenity": "cafe", "contact:instagram": "coffeeleabaku", "internet_access": "wlan", "name:en": "CoffeeLea Khalglar", "opening_hours": "Mo-Su 08:00-23:30"}}, {"type": "node", "id": 12639410801, "lat": 40.3601867, "lon": 49.9577962, "tags": {"addr:street": "Ceyhun H\u0259s\u0259nov k\u00fc\u00e7\u0259si", "amenity": "cafe", "cuisine": "fish_and_chips;kebab;local;tea", "level": "2", "name": "Qebele Metbexi \\ Xetai", "phone": "+994504633813"}}, {"type": "node", "id": 12679838101, "lat": 40.380747, "lon": 49.9649838, "tags": {"addr:street": "Neapol", "amenity": "restaurant", "cuisine": "barbecue;chicken;pizza;tea;turkish", "email": "aladdin22nebiyev@gmail.com", "internet_access": "wlan", "phone": "+994 55 310 18 02", "website": "https://www.tiktok.com/@kuzudoner?_t=ZS-8uo4zPB4Zux&_r=1"}}, {"type": "node", "id": 13168722301, "lat": 40.3920596, "lon": 49.9536635, "tags": {"addr:housenumber": "46", "addr:street": "M\u0259h\u0259mm\u0259d Hadi k\u00fc\u00e7.", "amenity": "restaurant", "cuisine": "chicken;kebab;local;oriental", "name": "Q\u0131z\u0131lg\u00fcl \\ Xalqlar", "name:en": "Q\u0131z\u0131lg\u00fcl \\ Xalqlar", "outdoor_seating": "yes", "self_service": "no"}}, {"type": "way", "id": 95164643, "nodes": [1103964643, 3600153057, 10075538459, 1103964641, 3600152994, 1103964640, 1103964642, 3600152940, 3600152936, 1103964644, 10075349445, 3600152916, 1103964646, 3600153001, 1103964643], "tags": {"leisure": "park", "name": "Neft\u00e7il\u0259r Park\u0131 \\ Qara\u00e7uxur"}}, {"type": "way", "id": 129752676, "nodes": [1430884915, 1430884919, 1430884927, 3589152762, 1430884925, 1430884894, 1430884884, 1430884877, 1430884875, 1430884872, 1430884915], "tags": {"leisure": "park", "name": "G\u00fcn\u0259\u015fli Ail\u0259vi \u0130stirah\u0259t M\u0259rk\u0259zi"}}, {"type": "way", "id": 135454834, "nodes": [1487683981, 1487683983, 1487683962, 1487683960, 1487683981], "tags": {"leisure": "park"}}, {"type": "way", "id": 136580225, "nodes": [1498382692, 1498382693, 1498382690, 1498382688, 1498382692], "tags": {"leisure": "park"}}, {"type": "way", "id": 152465157, "nodes": [1652825398, 1652825402, 1652825396, 1652825403, 11012971570, 1652825400, 1652825398], "tags": {"leisure": "park"}}, {"type": "way", "id": 154683996, "nodes": [1671844303, 1671844295, 9893627934, 12523207831, 1671844283, 1671844273, 1671844288, 11012971368, 1671844301, 11012971367, 1671844308, 1671844298, 1671844260, 1671844292, 1671844285, 1671844277, 1671844327, 1671844307, 1671844269, 1671844272, 1671844262, 1671844325, 4099955612, 1671844266, 1671844264, 1671844279, 1671844303], "tags": {"leisure": "park", "name": "Neapol Dair\u0259si \\ \u018fhm\u0259dli"}}, {"type": "way", "id": 154685746, "nodes": [11026518779, 11026518715, 3029577782, 1671872965, 1671872980, 3029568533, 9891914258, 1671872964, 3029577814, 10005202666, 1671872962, 1671872982, 1671872986, 1671872974, 1671872972, 9846999919, 1671872976, 1671872987, 1671872990, 1671872984, 11026518779], "tags": {"leisure": "park", "name": "Heyd\u0259r \u018fliyev Park\u0131 \\ G\u00fcn\u0259\u015fli"}}, {"type": "way", "id": 163793200, "nodes": [1754706331, 1754706330, 1754706328, 3303727245, 1754706329, 1754706331], "tags": {"leisure": "park"}}, {"type": "way", "id": 173008675, "nodes": [1838393610, 9772075457, 9772075463, 1838393615, 9772075467, 1838393609, 9772075462, 1838393607, 1838393610], "tags": {"amenity": "restaurant", "building": "yes", "name": "Park Cafe"}}, {"type": "way", "id": 190955155, "nodes": [2015439262, 2015439243, 2015439263, 2015439260, 2015439250, 2015439239, 10075498292, 10075498291, 2015439253, 2015439264, 2015439228, 10075498290, 2015439235, 2015439241, 2015439237, 10075349444, 10075349443, 2015439251, 2015439265, 2015439231, 2015439248, 2015439262], "tags": {"leisure": "park"}}, {"type": "way", "id": 190958527, "nodes": [2015461083, 10075349442, 2015461078, 2015461082, 9786758791, 10075349441, 2015461084, 2015461083], "tags": {"leisure": "park", "name": "\u015e\u0259hidl\u0131r Xiyaban\u0131 \\ Qara\u00e7uxur"}}, {"type": "way", "id": 190981097, "nodes": [2015670024, 2015670036, 2015670048, 2015670029, 2015670023, 2015670035, 2015670045, 2015670021, 2015670022, 2015670024], "tags": {"leisure": "park"}}, {"type": "way", "id": 190981099, "nodes": [2015670047, 2015670053, 10073814118, 2015670032, 2015670034, 10073814119, 2015670047], "tags": {"leisure": "park"}}, {"type": "way", "id": 229246667, "nodes": [2378707928, 2378707926, 2378707925, 2378707923, 2378707927, 2378707930, 2378707929, 2378707924, 2378707928], "tags": {"addr:housenumber": "12a", "addr:street": "\u0130nqilab \u0130smay\u0131lov", "building": "yes", "building:levels": "5", "name:en": "12a", "tourism": "hostel"}}, {"type": "way", "id": 271981339, "nodes": [2769147119, 2769147120, 2769147121, 2769147122, 2769147104, 2769147105, 2769147106, 2769147107, 2769147108, 2769147114, 2769147115, 2769147116, 2769147117, 2769147118, 2769147109, 2769147110, 2769147111, 2769147112, 2769147113, 2769147119], "tags": {"landuse": "grass", "name": "K\u00f6hn\u0259 G\u00fcn\u0259\u015fli Dair\u0259si", "tourism": "attraction"}}, {"type": "way", "id": 273656233, "nodes": [9799315335, 2784920297, 9893122355, 9893122354, 2784920299, 9893122353, 2784920301, 2784920303, 2784920305, 2784920307, 2784920309, 9893121911, 9799315356, 9893121924, 2784920313, 2784920314, 2784920316, 2784920318, 2784920322, 9893121923, 2784920324, 2784920326, 2784920328, 2784920330, 9799315358, 2784920332, 2784920336, 2784920337, 2784920339, 9799315377, 2784920341, 2784920343, 2784920350, 2784920358, 9799315335], "tags": {"leisure": "park"}}, {"type": "way", "id": 273656892, "nodes": [2784930001, 2784930003, 2784930005, 2784930007, 2784930009, 2784930011, 2784930013, 2784930015, 2784930018, 2784930020, 2784929982, 2784929989, 2784929991, 2784929993, 2784929995, 2784929997, 2784929999, 2784929984, 2784929987, 2784930001], "tags": {"name": "\u015eir Dair\u0259si \\ Qara\u00e7uxur", "tourism": "attraction"}}, {"type": "way", "id": 286552500, "nodes": [2902344741, 2902344733, 2902344734, 2902344739, 2902344746, 2902344745, 2902344752, 2902344751, 2902344748, 2902344747, 2902344742, 2902344741], "tags": {"amenity": "restaurant", "building": "yes", "building:levels": "2", "name": "Ab\u015feron"}}, {"type": "way", "id": 286552503, "nodes": [2902344754, 2902344746, 2902344739, 2902344734, 2902344738, 2902344755, 2902344754], "tags": {"amenity": "marketplace", "building": "yes", "building:levels": "2", "name": "21 \u0259sr Marketi"}}, {"type": "way", "id": 287045474, "nodes": [2907068286, 2907068287, 2907068282, 2907068281, 2907068284, 2907068286], "tags": {"addr:housenumber": "24", "addr:street": "Neapol k\u00fc\u00e7\u0259si", "amenity": "restaurant", "building": "yes", "building:levels": "3", "name": "Neapol"}}, {"type": "way", "id": 287045760, "nodes": [2907068909, 2907068907, 2907068908, 2907068910, 2907068909], "tags": {"amenity": "cafe", "building": "yes", "height": "5", "name": "G\u00f6y\u00e7\u0259 Kafesi"}}, {"type": "way", "id": 287046719, "nodes": [2907078334, 2907078332, 2907078333, 2907078335, 2907078334], "tags": {"amenity": "restaurant", "building": "yes", "height": "7", "name": "Movida Plaza"}}, {"type": "way", "id": 299023367, "nodes": [3029551679, 3029551633, 3029551634, 3029551680, 3029551679], "tags": {"leisure": "park"}}, {"type": "way", "id": 299023928, "nodes": [3029548404, 3029548399, 3029548400, 3029548405, 3029548404], "tags": {"leisure": "park"}}, {"type": "way", "id": 314992349, "nodes": [4611515191, 3210747470, 3210747471, 3210747472, 3210747473, 3210747474, 3210747475, 3210747476, 3210747477, 3210747478, 4611515191], "tags": {"addr:housenumber": "19", "addr:street": "G\u0259nc\u0259 prospekti", "amenity": "restaurant", "building": "yes", "name": "F\u0259rid\u0259 \u015eadl\u0131q Saray\u0131", "name:az": "F\u0259rid\u0259 \u015eadl\u0131q Saray\u0131", "name:en": "Farida Wedding Palace"}}, {"type": "way", "id": 315015930, "nodes": [3210988072, 3210988073, 3210988074, 3210988075, 3210988072], "tags": {"addr:street": "M\u0259h\u0259mm\u0259d Hadi k\u00fc\u00e7\u0259si", "amenity": "restaurant", "building": "yes", "name": "T\u0259brik"}}, {"type": "way", "id": 350795503, "nodes": [3565460132, 3565460130, 3565460127, 11011067235, 11011067236, 11011067237, 3565460121, 11011067238, 3565460120, 11011067234, 3565460134, 9786780729, 9786780728, 3565460135, 3565460131, 3565460132], "tags": {"leisure": "park", "name": "G\u00fcn\u0259\u015fli Dair\u0259si"}}, {"type": "way", "id": 352781644, "nodes": [3585501732, 3585501721, 3585501719, 3585501715, 3585501718, 3585501711, 3585501710, 3585501708, 3585501703, 3585501704, 3585501706, 3585501723, 3585501728, 3585501735, 3585501713, 3585501714, 3585501709, 3585501712, 3585501716, 3585501717, 3585501727, 3585501732], "tags": {"leisure": "park"}}, {"type": "way", "id": 352782211, "nodes": [3585510304, 3585510301, 3585510300, 3585510303, 3585510304], "tags": {"leisure": "park"}}, {"type": "way", "id": 352976313, "nodes": [3587639566, 3587639542, 3587639526, 3587639522, 3587639517, 3587639515, 3587639513, 3587639510, 3587639514, 3587639553, 3587639561, 3587639562, 3587639566], "tags": {"leisure": "park"}}, {"type": "way", "id": 352980158, "nodes": [3587664633, 3587664617, 3587664616, 3587664608, 3587664607, 3587664626, 3587664634, 3587664633], "tags": {"leisure": "park"}}, {"type": "way", "id": 353143988, "nodes": [9786780761, 3589108117, 3589108113, 3589108108, 3589108094, 3589092377, 3589092376, 3589092368, 3589092367, 3589092362, 9786780760, 9786780761], "tags": {"leisure": "park"}}, {"type": "way", "id": 353143989, "nodes": [3589108119, 3589108118, 3589108107, 3589108106, 3589108098, 11010780525, 11011067324, 3589092383, 3589092378, 3589108097, 3589108103, 3589108105, 3589108111, 3589108112, 3589108119], "tags": {"leisure": "park"}}, {"type": "way", "id": 353143994, "nodes": [3471471697, 3589108162, 3589108163, 3589108126, 3589108125, 3471471696, 3471471697], "tags": {"leisure": "park"}}, {"type": "way", "id": 353143995, "nodes": [3589108187, 11011067322, 3589108186, 3589108185, 3589108127, 3589108128, 3471462983, 3471462986, 11011067321, 11011067320, 11011067318, 11011067319, 3589108184, 3589108183, 3589108187], "tags": {"leisure": "park"}}, {"type": "way", "id": 353144017, "nodes": [3589108148, 3589108142, 11012545877, 5088260867, 3589108139, 3589108133, 3589108137, 3589108145, 11011121796, 3589108147, 11012545918, 3589108148], "tags": {"leisure": "park"}}, {"type": "way", "id": 353147157, "nodes": [3589151710, 3589151699, 3589151704, 3589151706, 3589151705, 3589151702, 3589151701, 3589151700, 3589151703, 3589151707, 3589151708, 3589151709, 3589151710], "tags": {"leisure": "park"}}, {"type": "way", "id": 353147158, "nodes": [3589151729, 3589151732, 3589151728, 3589151727, 3589151726, 9786780763, 3589108188, 3589108295, 3589151780, 3589151779, 3589151775, 3589151770, 3471462978, 3471462975, 3589151729], "tags": {"leisure": "park"}}, {"type": "way", "id": 353147161, "nodes": [3589151794, 3589151786, 3589151788, 3589151773, 3589151774, 3589151796, 3589151794], "tags": {"leisure": "park"}}, {"type": "way", "id": 353147187, "nodes": [3589151713, 11012545872, 11012545869, 11012545870, 11012545871, 3589151698, 3589151697, 3589151712, 3589151713], "tags": {"leisure": "park"}}, {"type": "way", "id": 353177100, "nodes": [3589425267, 3589425225, 3589425226, 3589425249, 3589425268, 3589425267], "tags": {"leisure": "park"}}, {"type": "way", "id": 353183501, "nodes": [3589507058, 3589507036, 3589507043, 3589507056, 3589507058], "tags": {"leisure": "park"}}, {"type": "way", "id": 353188891, "nodes": [3589546723, 3589546722, 3589546721, 3589546723], "tags": {"leisure": "park"}}, {"type": "way", "id": 353380222, "nodes": [3591630093, 9799467600, 3591630098, 3591630099, 3591630101, 3591630137, 3591630142, 3591630141, 3591630133, 3591630125, 3591630093], "tags": {"leisure": "park"}}, {"type": "way", "id": 353577531, "nodes": [3593870363, 3593870358, 3593870353, 3593870387, 3593870388, 3593870362, 3593870363], "tags": {"leisure": "park"}}, {"type": "way", "id": 353577532, "nodes": [3593870887, 3593870878, 3593870870, 3593870855, 3593870852, 3593870851, 3593870854, 3593870884, 3593870887], "tags": {"leisure": "park"}}, {"type": "way", "id": 353577622, "nodes": [3593885418, 3593885394, 3593868871, 3593868869, 3593868866, 3593868861, 3593868856, 3593868854, 3593868848, 3593868844, 3593868842, 3593868837, 3593868841, 3593868846, 3593868862, 3593868864, 3593868878, 3593868881, 3593885418], "tags": {"leisure": "park"}}, {"type": "way", "id": 353578048, "nodes": [3593895667, 3593895665, 3593895662, 3593895663, 3593895664, 3593895666, 3593895668, 3593895667], "tags": {"leisure": "park"}}, {"type": "way", "id": 353578554, "nodes": [3593915081, 3593915068, 3593915066, 3593915065, 3593915064, 10075671766, 10075671767, 3593915069, 3593915082, 3593915081], "tags": {"leisure": "park"}}, {"type": "way", "id": 354484115, "nodes": [3602006027, 3602006017, 3602006018, 3602006026, 3071965425, 3602006030, 3602006022, 3602006023, 3601988886, 3601988885, 2902439453, 2902439452, 2902439455, 2902439454, 2902439451, 2902439449, 2902439448, 3602006027], "tags": {"leisure": "park"}}, {"type": "way", "id": 354523490, "nodes": [3602261600, 3602261599, 9993745647, 3602261598, 3602259191, 3602259182, 9993745665, 9993745664, 9993745666, 3602259125, 3602259126, 9993745648, 3602259130, 3602259129, 3602261600], "tags": {"leisure": "park"}}, {"type": "way", "id": 354523514, "nodes": [3602259117, 3602259124, 9993745646, 3602259123, 3602259122, 9993745662, 3602259120, 3602259119, 9993745645, 3602259118, 3602259117], "tags": {"leisure": "park"}}, {"type": "way", "id": 354732775, "nodes": [3604316712, 3604316708, 3604316709, 3604316706, 3604316707, 3604316710, 3604316711, 3604316713, 3604316712], "tags": {"leisure": "park"}}, {"type": "way", "id": 354739520, "nodes": [3604352126, 3604352100, 3604352099, 3604352097, 3604352092, 3604352095, 3604352125, 3604352126], "tags": {"leisure": "park"}}, {"type": "way", "id": 365111404, "nodes": [3691553008, 3691553004, 3691552999, 3691553002, 3691553006, 3691553013, 3691553825, 3691553839, 3208589582, 3208589594, 3208589593, 3208589592, 3691553856, 3691553853, 3691553023, 2774989429, 3691553008], "tags": {"leisure": "park"}}, {"type": "way", "id": 365111405, "nodes": [3691553017, 3691553022, 3691553019, 3691553014, 3691553010, 3691553011, 3691553016, 3691553024, 3691553828, 3691553840, 3691553848, 3691553850, 3691553857, 2774989445, 2774989436, 2774989438, 2774989439, 2774989440, 2774989441, 2774989442, 2774989443, 3691553017], "tags": {"leisure": "park"}}, {"type": "way", "id": 365133031, "nodes": [3691761181, 3691761180, 11026150799, 3691761177, 2774989430, 3691761176, 11026150801, 11026150802, 3691761182, 3691761183, 3691761184, 3691761185, 11026150803, 3691761181], "tags": {"leisure": "park"}}, {"type": "way", "id": 365344214, "nodes": [3693577366, 3693577358, 3693577356, 3693577365, 3693577366], "tags": {"leisure": "park"}}, {"type": "way", "id": 365344241, "nodes": [3693577087, 3693577049, 3693577043, 3208568492, 3208568493, 3208568494, 3693577068, 3693577086, 3693577098, 3693577090, 3693577087], "tags": {"leisure": "park"}}, {"type": "way", "id": 365344242, "nodes": [3693577230, 3693577074, 3693577072, 3693577053, 3693577055, 3693577058, 3693577069, 3693577093, 3693577106, 3693577249, 3693577230], "tags": {"leisure": "park"}}, {"type": "way", "id": 405724393, "nodes": [4078761064, 4078761065, 4078761070, 4078761073, 4078761064], "tags": {"addr:housenumber": "6B", "addr:street": "Neapol k\u00fc\u00e7\u0259si", "amenity": "restaurant", "building": "yes", "building:levels": "2", "name": "Napoli"}}, {"type": "way", "id": 407977636, "nodes": [4099955651, 4099955641, 4099955640, 4099955635, 4099955634, 4099955628, 4099955629, 4099955636, 4099955637, 4099955642, 4099955643, 4099955646, 4099955647, 4099955649, 4099955651], "tags": {"leisure": "park"}}, {"type": "way", "id": 407977646, "nodes": [4099956065, 4099956067, 4099956072, 4099956070, 9786623953, 4099956065], "tags": {"amenity": "restaurant", "name": "C\u0259nn\u0259t M\u0259rasim Evi"}}, {"type": "way", "id": 450233107, "nodes": [4471556839, 4471556840, 4471556842, 9891914229, 4471556843, 4471556844, 9891914228, 9891914230, 4471556839], "tags": {"amenity": "restaurant", "building": "yes", "name": "Ba\u011fda"}}, {"type": "way", "id": 518757167, "nodes": [5059720841, 5059720842, 5059720843, 5059720845, 9925519809, 9925519807, 9925519806, 9925519805, 9925519804, 9925519803, 9925519808, 9925519810, 5059720841], "tags": {"addr:city": "Bak\u0131", "addr:street": "Z\u0131\u011f - Aeroport yolu", "building": "hotel", "building:levels": "2", "name": "Maral Otel \\ Z\u0131\u011f", "name:az": "Maral Otel \\ Z\u0131\u011f", "name:en": "Maral Hotel \\ Zygh", "tourism": "hotel"}}, {"type": "way", "id": 588771337, "nodes": [5622832464, 5622832465, 5622832466, 5622832467, 5622832464], "tags": {"leisure": "park"}}, {"type": "way", "id": 662652271, "nodes": [6203492865, 6203492866, 6203492867, 6203492868, 6203492865], "tags": {"leisure": "park"}}, {"type": "way", "id": 663245130, "nodes": [6208359373, 6208359374, 6208359375, 6208359376, 6208359377, 6208359378, 11011092241, 6208359379, 6208359373], "tags": {"leisure": "park"}}, {"type": "way", "id": 663456719, "nodes": [6210015054, 6210015056, 6210015057, 6210015058, 6210015054], "tags": {"leisure": "park"}}, {"type": "way", "id": 671201170, "nodes": [6285501357, 6285501358, 6285501359, 6285501360, 6285501357], "tags": {"addr:city": "Bak\u0131", "addr:housenumber": "2346", "addr:street": "Telnov k\u00fc\u00e7\u0259si", "amenity": "restaurant", "building": "yes", "contact:mobile": "(050) 355 07 00", "cuisine": "regional", "name": "Kremlin Hall \u015fadl\u0131q saray\u0131", "name:en": "Kremlin Hall wedding plaza", "opening_hours": "24/7", "outdoor_seating": "no", "phone": "(012) 375 07 00", "website": "www.kremlinhall.az"}}, {"type": "way", "id": 701405430, "nodes": [6587330054, 6587330055, 6587330056, 6587330057, 6587330054], "tags": {"addr:postcode": "1129", "addr:street": "N\u0259sr\u0259ddin Tusi k\u00fc\u00e7\u0259si", "amenity": "restaurant", "bar": "yes", "building": "yes", "name": "B\u0259ylik hamam\u0131", "name:en": "Beylik Hamam", "opening_hours": "Mo-Su 10:00-00:00", "phone": "+994123723134"}}, {"type": "way", "id": 946843045, "nodes": [8764737234, 8764737235, 9891914237, 9891914236, 9891914235, 9891914233, 9891914232, 9891914234, 8764737234], "tags": {"amenity": "restaurant", "building": "yes", "name": "\u00c7\u0259nli Bel restoran\u0131"}}, {"type": "way", "id": 962061934, "nodes": [9202760868, 9202760869, 8899291269, 8899291268, 8899291267, 8899291266, 8899291265, 8899291264, 8899291263, 9202760866, 9202760867, 8899291262, 8899291261, 8899291260, 8899291259, 8899291258, 8899291257, 8899291256, 8899291255, 9202760868], "tags": {"landuse": "grass", "name": "X\u0259z\u0259r Dair\u0259si \\ Z\u0131\u011f", "tourism": "attraction"}}, {"type": "way", "id": 1063938355, "nodes": [9772075457, 9772075458, 9772075459, 9772075460, 9772075461, 9772075462, 1838393607, 1838393610, 9772075457], "tags": {"amenity": "cafe", "building": "yes", "name": "Lounge area"}}, {"type": "way", "id": 1063938358, "nodes": [9772075472, 9772075473, 9772075474, 9772075475, 9772075476, 9772075477, 9772075478, 9772075479, 9772075480, 9772075481, 9772075482, 9772075483, 9772075484, 9772075485, 9772075486, 9772075487, 9772075488, 9772075489, 9772075490, 9772075491, 9772075492, 9772075493, 9772075494, 9772075495, 9772075496, 9772075497, 9772075498, 9772075499, 9772075534, 9772075500, 9772075501, 9772075502, 9772075503, 9772075504, 9772075505, 9772075506, 9772075507, 9772075508, 9772075509, 9772075510, 9772075511, 9772075512, 9772075513, 9772075472], "tags": {"amenity": "cafe", "building": "yes"}}, {"type": "way", "id": 1063938359, "nodes": [9772075514, 9772075515, 9772075516, 9772075517, 9772075518, 9772075519, 9772075533, 9772075520, 9772075521, 9772075522, 9772075523, 9772075524, 9772075525, 9772075526, 9772075527, 9772075528, 9772075529, 9772075530, 9772075531, 9772075532, 9772075536, 9772075514], "tags": {"amenity": "cafe", "building": "yes"}}, {"type": "way", "id": 1065705602, "nodes": [9786780813, 9786780812, 9786780814, 9786780806, 9786780811, 9786780810, 9786780813], "tags": {"leisure": "park"}}, {"type": "way", "id": 1065705605, "nodes": [9786780846, 9786780845, 9786780844, 9786780843, 9786780842, 9786780841, 9786696154, 9786696163, 9786780846], "tags": {"leisure": "park"}}, {"type": "way", "id": 1067283438, "nodes": [9799572227, 9799572226, 9799572225, 9799572224, 9799572223, 9799572222, 9799572227], "tags": {"amenity": "restaurant", "name": "Manqal Kabab Evi"}}, {"type": "way", "id": 1079072176, "nodes": [9891913808, 3693577112, 3693577104, 9891913807, 9891913806, 9891913805, 9891913804, 9891913803, 9891913802, 9891913809, 9891913801, 9891913800, 9891913799, 9891913798, 9891913808], "tags": {"leisure": "park"}}, {"type": "way", "id": 1079072206, "nodes": [3693577242, 3693577255, 3693577256, 3693577243, 9891913937, 9891913936, 3693577242], "tags": {"leisure": "park"}}, {"type": "way", "id": 1079072230, "nodes": [9891914042, 3693577117, 3693577119, 3693577121, 3693577227, 3693577114, 3693577111, 3693577079, 9891914042], "tags": {"leisure": "park"}}, {"type": "way", "id": 1079110695, "nodes": [9892249574, 9892249669, 9892249660, 9892249659, 9892249661, 9892249658, 9892249657, 3589582708, 9892249573, 9892249574], "tags": {"leisure": "park"}}, {"type": "way", "id": 1079110704, "nodes": [9892249572, 3589582710, 3589582714, 9892249655, 9892249654, 9892249653, 9892249656, 9892249652, 9892249651, 9892249650, 3589582716, 3589582713, 9892249571, 9892249572], "tags": {"leisure": "park"}}, {"type": "way", "id": 1083032097, "nodes": [9925519751, 9925519750, 9925519749, 9925519748, 9925519747, 9925519746, 9925519745, 9925519744, 9925519743, 9925519742, 9925519741, 9925519740, 9925519751], "tags": {"leisure": "park"}}, {"type": "way", "id": 1100707423, "nodes": [3600043819, 10073802604, 10073802603, 10073813825, 10073802602, 10073802601, 10073802600, 10073802599, 10073802598, 10073802597, 10073802596, 10073802595, 10073802594, 10073802593, 10073802592, 10073802609, 10073802591, 10073802590, 10073802589, 3600030873, 3600030872, 3600043819], "tags": {"leisure": "park"}}, {"type": "way", "id": 1100707432, "nodes": [10073813884, 10073813883, 10073813882, 10073813881, 10073813880, 10073813879, 10073813878, 10073813877, 10073813876, 10073813875, 10073813874, 10073813873, 10073813872, 10073813871, 10073813870, 10073813869, 10073813868, 10073813867, 10073813866, 10073813865, 10073813864, 10073813863, 10073813862, 10073813861, 10073813860, 10073813884], "tags": {"leisure": "park"}}, {"type": "way", "id": 1100707437, "nodes": [10073813908, 10073813907, 10073813906, 10073813905, 10073813904, 10073813903, 10073813908], "tags": {"leisure": "park"}}, {"type": "way", "id": 1100707438, "nodes": [10073813916, 10073813915, 10073813914, 10073813913, 10073813912, 10073813911, 10073813910, 10073813909, 10073813916], "tags": {"leisure": "park"}}, {"type": "way", "id": 1100921288, "nodes": [10075685863, 10075685862, 10075685861, 10075685860, 10075685863], "tags": {"leisure": "park"}}, {"type": "way", "id": 1102423117, "nodes": [10087686884, 10087686883, 10087686882, 10087686881, 10087686884], "tags": {"leisure": "park"}}, {"type": "way", "id": 1102423118, "nodes": [10087686889, 10087686888, 10087686887, 10087686886, 10087686885, 10087686889], "tags": {"leisure": "park"}}, {"type": "way", "id": 1102423126, "nodes": [10087721539, 10087721538, 10087721537, 10075685912, 10087721536, 10087721535, 10087721534, 10087721533, 10087721547, 10087721548, 10087721549, 10087721550, 10087721551, 10087721539], "tags": {"leisure": "park"}}, {"type": "way", "id": 1185341538, "nodes": [11010780389, 11010780388, 11010780387, 11010780386, 11010780385, 11010780384, 11010780383, 11010780382, 11010780389], "tags": {"leisure": "park"}}, {"type": "way", "id": 1185363995, "nodes": [11010972230, 11010972229, 11010972228, 11010972227, 11010972226, 11010972225, 11010972224, 11010972230], "tags": {"leisure": "park"}}, {"type": "way", "id": 1185536914, "nodes": [11012545804, 11012545803, 11012545802, 11012545801, 11012545800, 11012545799, 11012545798, 11012545797, 11012545804], "tags": {"leisure": "park"}}, {"type": "way", "id": 1185548105, "nodes": [11012609664, 11012609663, 11012609662, 11012609661, 11012609660, 11012609664], "tags": {"leisure": "park"}}, {"type": "way", "id": 1185548106, "nodes": [11012609672, 11012609671, 11012609670, 11012609669, 11012609668, 11012609667, 11012609666, 11012609665, 11012609672], "tags": {"leisure": "park"}}, {"type": "way", "id": 1185569071, "nodes": [11012772987, 11012772986, 11012772985, 11012772984, 11012772983, 11012772982, 11012772987], "tags": {"leisure": "park"}}, {"type": "way", "id": 1185569081, "nodes": [11012835353, 11012835352, 11012835351, 11012835350, 11012835349, 11012835353], "tags": {"leisure": "park"}}, {"type": "way", "id": 1185569085, "nodes": [11012835387, 11012835370, 11012835369, 11012835386, 11012835387], "tags": {"leisure": "park"}}, {"type": "way", "id": 1185569092, "nodes": [11012835405, 11012835401, 11012835404, 11012835403, 11012835400, 11012835402, 11012835405], "tags": {"leisure": "park"}}, {"type": "way", "id": 1185569121, "nodes": [11012835581, 11012835576, 11012835580, 11012835555, 11012835579, 11012835547, 11012835578, 11012835571, 11012835577, 11012835553, 11012835581], "tags": {"leisure": "park", "name": "\u0130nqlab \u0130smay\u0131lov Park\u0131 \\ G\u00fcn\u0259\u015fli"}}, {"type": "way", "id": 1185585109, "nodes": [11012971276, 11012971275, 11012971274, 11012971273, 11012971272, 11012971276], "tags": {"leisure": "park"}}, {"type": "way", "id": 1185585120, "nodes": [11012971354, 11012971353, 11012971352, 11012971351, 11012971354], "tags": {"leisure": "park"}}, {"type": "way", "id": 1185585136, "nodes": [11012971471, 11012971470, 11012971469, 11012971468, 11012971467, 11012971441, 11012971466, 11012971465, 11012971464, 11012971463, 11012971462, 11012971461, 11012971460, 11012971442, 11012971459, 11012971458, 11012971443, 11012971457, 11012971456, 11012971477, 11012971476, 11012971455, 11012971454, 11012971453, 11012971452, 11012971451, 11012971450, 11012971471], "tags": {"leisure": "park"}}, {"type": "way", "id": 1185585146, "nodes": [11012971532, 11012971531, 11012971530, 11012971529, 11012971532], "tags": {"leisure": "park"}}, {"type": "way", "id": 1185585150, "nodes": [11012971558, 11012971555, 11012971554, 11012971553, 11012971552, 11012971538, 11012971551, 11012971550, 11012971549, 11012971548, 11012971558], "tags": {"leisure": "park"}}, {"type": "way", "id": 1185585159, "nodes": [11012971590, 11012971589, 11012971588, 11012971587, 11012971586, 11012971590], "tags": {"leisure": "park"}}, {"type": "way", "id": 1185765195, "nodes": [11014390268, 11014390267, 11014390266, 11014390265, 11014390264, 11014390263, 11014390262, 11014390261, 11014390260, 11014390259, 11014390258, 11014390257, 11014390256, 11014390255, 11014390254, 11014390253, 11014390252, 11014390268], "tags": {"leisure": "park"}}, {"type": "way", "id": 1185765200, "nodes": [11014390299, 11014390298, 11014390297, 11014390296, 11014390299], "tags": {"leisure": "park"}}, {"type": "way", "id": 1185768264, "nodes": [11014409847, 11014409846, 11014409845, 11014409844, 11014409843, 11014409842, 11014409847], "tags": {"leisure": "park"}}, {"type": "way", "id": 1185778870, "nodes": [11014459393, 11014459392, 11014459391, 11014459390, 11014459389, 11014459388, 11014459387, 11014459386, 11014459385, 11014459384, 11014459393], "tags": {"leisure": "park"}}, {"type": "way", "id": 1185778879, "nodes": [11014479363, 11014479362, 11014479361, 11014479360, 11014479359, 11014479358, 11014479363], "tags": {"leisure": "park"}}, {"type": "way", "id": 1185786023, "nodes": [11014526562, 11014526561, 11014526560, 11014526559, 11014526558, 11014526557, 11014526556, 11014526555, 11014526554, 11014526553, 11014526552, 11014526551, 11014526550, 11014526549, 11014526548, 11014526562], "tags": {"leisure": "park"}}, {"type": "way", "id": 1185791798, "nodes": [11014577051, 11014577050, 11014577049, 11014577048, 11014577047, 11014577046, 11014577045, 11014577044, 11014577043, 11014577042, 11014577051], "tags": {"leisure": "park"}}, {"type": "way", "id": 1186581612, "nodes": [11020868650, 11020868649, 11020868648, 11020868647, 11020868646, 11020868645, 11020868644, 11020868643, 11020868642, 11020868641, 11369038115, 11020868640, 11020868639, 11020868638, 11020868650], "tags": {"leisure": "park"}}, {"type": "way", "id": 1186581617, "nodes": [11020868697, 11020868696, 11020868695, 11020868694, 11020868693, 11020868692, 11020868691, 11020868690, 11020868689, 11020868688, 11020868687, 11020868686, 11020868685, 11020868684, 11020868697], "tags": {"leisure": "park"}}, {"type": "way", "id": 1187379680, "nodes": [11026181122, 11026181118, 11026181121, 11026181116, 11026181120, 11026181119, 11026181122], "tags": {"leisure": "park"}}, {"type": "way", "id": 1187379683, "nodes": [11026181127, 11026181126, 11026181125, 11026181124, 11026181127], "tags": {"leisure": "park"}}, {"type": "way", "id": 1187385312, "nodes": [11026147551, 11026147550, 11026147549, 11026147548, 11026147551], "tags": {"leisure": "park"}}, {"type": "way", "id": 1187385316, "nodes": [11026147565, 11026147557, 11026147560, 11026147564, 11026147563, 11026147561, 11026147562, 11026147565], "tags": {"leisure": "park"}}, {"type": "way", "id": 1187387628, "nodes": [11026157845, 11026157844, 11026157843, 11026157842, 11026157841, 11026157840, 11026157839, 11026181308, 11026157845], "tags": {"leisure": "park"}}, {"type": "way", "id": 1187425505, "nodes": [11026518715, 11026518779, 11026518763, 11026518764, 11026508843, 11026518765, 11026508844, 11026518766, 11026518774, 11026518767, 11026518768, 11026518769, 11026518770, 11026518771, 11026518772, 11026518773, 11026518775, 11026518776, 11026518777, 11026518778, 11026518780, 11026518715], "tags": {"leisure": "park"}}, {"type": "way", "id": 1218377481, "nodes": [11289661002, 11289661001, 11289661000, 11289660999, 11289661002], "tags": {"leisure": "park"}}, {"type": "node", "id": 9772075459, "lat": 40.3580785, "lon": 49.9514911}, {"type": "node", "id": 2784920297, "lat": 40.3490078, "lon": 49.9608924}, {"type": "node", "id": 2784920299, "lat": 40.3490119, "lon": 49.9609336}, {"type": "node", "id": 2784920301, "lat": 40.3490348, "lon": 49.9609536}, {"type": "node", "id": 2784920303, "lat": 40.3490495, "lon": 49.9609554}, {"type": "node", "id": 2784920305, "lat": 40.3491135, "lon": 49.9609308}, {"type": "node", "id": 2784920307, "lat": 40.3492394, "lon": 49.9608492}, {"type": "node", "id": 2784920309, "lat": 40.3498579, "lon": 49.9604309}, {"type": "node", "id": 2784920313, "lat": 40.3506088, "lon": 49.9599426}, {"type": "node", "id": 2784920314, "lat": 40.350663, "lon": 49.9598971}, {"type": "node", "id": 2784920316, "lat": 40.3506734, "lon": 49.9598568}, {"type": "node", "id": 2784920318, "lat": 40.3506777, "lon": 49.9598091}, {"type": "node", "id": 2784920322, "lat": 40.3506308, "lon": 49.9596752}, {"type": "node", "id": 2784920324, "lat": 40.3505588, "lon": 49.959598}, {"type": "node", "id": 2784920326, "lat": 40.3504944, "lon": 49.9595744}, {"type": "node", "id": 2784920328, "lat": 40.3504281, "lon": 49.9595832}, {"type": "node", "id": 2784920330, "lat": 40.3502796, "lon": 49.9596357}, {"type": "node", "id": 2784920332, "lat": 40.350241, "lon": 49.9596508}, {"type": "node", "id": 2784920336, "lat": 40.3499139, "lon": 49.9598047}, {"type": "node", "id": 2784920337, "lat": 40.3497535, "lon": 49.9599}, {"type": "node", "id": 2784920339, "lat": 40.349632, "lon": 49.9599831}, {"type": "node", "id": 2784920341, "lat": 40.3495902, "lon": 49.9600159}, {"type": "node", "id": 2784920343, "lat": 40.3494362, "lon": 49.960165}, {"type": "node", "id": 2784920350, "lat": 40.3492928, "lon": 49.9603747}, {"type": "node", "id": 2784920358, "lat": 40.349159, "lon": 49.9606036}, {"type": "node", "id": 3591630093, "lat": 40.3506734, "lon": 49.9594879}, {"type": "node", "id": 3591630098, "lat": 40.3507896, "lon": 49.9596436}, {"type": "node", "id": 3591630099, "lat": 40.3508201, "lon": 49.9597038}, {"type": "node", "id": 3591630101, "lat": 40.3508443, "lon": 49.9597821}, {"type": "node", "id": 3591630125, "lat": 40.3513904, "lon": 49.959263}, {"type": "node", "id": 3591630133, "lat": 40.3517445, "lon": 49.9591301}, {"type": "node", "id": 3591630137, "lat": 40.3517538, "lon": 49.959193}, {"type": "node", "id": 3591630141, "lat": 40.3519948, "lon": 49.9589903}, {"type": "node", "id": 3591630142, "lat": 40.3520118, "lon": 49.9590108}, {"type": "node", "id": 9799315335, "lat": 40.3490129, "lon": 49.9608724}, {"type": "node", "id": 9799315356, "lat": 40.3502625, "lon": 49.9601661}, {"type": "node", "id": 9799315358, "lat": 40.3502617, "lon": 49.9596428}, {"type": "node", "id": 9799315377, "lat": 40.3496125, "lon": 49.9599973}, {"type": "node", "id": 9799467600, "lat": 40.3507326, "lon": 49.9595614}, {"type": "node", "id": 9893121911, "lat": 40.3502495, "lon": 49.9601746}, {"type": "node", "id": 9893121923, "lat": 40.3506008, "lon": 49.9596305}, {"type": "node", "id": 9893121924, "lat": 40.3502719, "lon": 49.9601598}, {"type": "node", "id": 9893122353, "lat": 40.3490224, "lon": 49.9609446}, {"type": "node", "id": 9893122354, "lat": 40.3490067, "lon": 49.9609208}, {"type": "node", "id": 9893122355, "lat": 40.3490053, "lon": 49.9609065}, {"type": "node", "id": 11014390297, "lat": 40.3533654, "lon": 49.9624515}, {"type": "node", "id": 11014390298, "lat": 40.3533511, "lon": 49.9622999}, {"type": "node", "id": 1838393607, "lat": 40.3578925, "lon": 49.9517141}, {"type": "node", "id": 1838393609, "lat": 40.3580153, "lon": 49.9520305}, {"type": "node", "id": 1838393610, "lat": 40.3580803, "lon": 49.951594}, {"type": "node", "id": 1838393615, "lat": 40.3581867, "lon": 49.9519263}, {"type": "node", "id": 9772075457, "lat": 40.3580965, "lon": 49.9516447}, {"type": "node", "id": 9772075458, "lat": 40.3581297, "lon": 49.9516221}, {"type": "node", "id": 9772075460, "lat": 40.357798, "lon": 49.9516893}, {"type": "node", "id": 9772075461, "lat": 40.3579355, "lon": 49.952022}, {"type": "node", "id": 9772075462, "lat": 40.3579975, "lon": 49.9519832}, {"type": "node", "id": 9772075463, "lat": 40.3581458, "lon": 49.9517985}, {"type": "node", "id": 9772075467, "lat": 40.3580558, "lon": 49.9520059}, {"type": "node", "id": 11020868684, "lat": 40.3588513, "lon": 49.9569757}, {"type": "node", "id": 11020868685, "lat": 40.3574737, "lon": 49.9570911}, {"type": "node", "id": 11020868686, "lat": 40.3574666, "lon": 49.9569422}, {"type": "node", "id": 11020868687, "lat": 40.3571784, "lon": 49.9569717}, {"type": "node", "id": 11020868688, "lat": 40.3565632, "lon": 49.9564084}, {"type": "node", "id": 11020868689, "lat": 40.3567532, "lon": 49.9559525}, {"type": "node", "id": 11020868690, "lat": 40.3572346, "lon": 49.9550794}, {"type": "node", "id": 11020868691, "lat": 40.3571804, "lon": 49.9550217}, {"type": "node", "id": 11020868692, "lat": 40.3575493, "lon": 49.9543995}, {"type": "node", "id": 11020868693, "lat": 40.3577435, "lon": 49.9545658}, {"type": "node", "id": 11020868694, "lat": 40.3582381, "lon": 49.9550459}, {"type": "node", "id": 11020868695, "lat": 40.3585508, "lon": 49.955062}, {"type": "node", "id": 11020868696, "lat": 40.3585631, "lon": 49.9548984}, {"type": "node", "id": 11020868697, "lat": 40.35879, "lon": 49.954893}, {"type": "node", "id": 11014390252, "lat": 40.3542678, "lon": 49.9643397}, {"type": "node", "id": 11014390253, "lat": 40.3541789, "lon": 49.9644175}, {"type": "node", "id": 11014390254, "lat": 40.3541308, "lon": 49.9645154}, {"type": "node", "id": 11014390264, "lat": 40.3540368, "lon": 49.9645033}, {"type": "node", "id": 11014390265, "lat": 40.3540593, "lon": 49.9643652}, {"type": "node", "id": 11014390266, "lat": 40.3541165, "lon": 49.96427}, {"type": "node", "id": 11014390267, "lat": 40.354604, "lon": 49.9639307}, {"type": "node", "id": 11014390268, "lat": 40.3547134, "lon": 49.9640205}, {"type": "node", "id": 11014390296, "lat": 40.3545401, "lon": 49.9622456}, {"type": "node", "id": 11014390299, "lat": 40.3545202, "lon": 49.9620987}, {"type": "node", "id": 9772075472, "lat": 40.3607645, "lon": 49.949699}, {"type": "node", "id": 9772075473, "lat": 40.3607537, "lon": 49.9496583}, {"type": "node", "id": 9772075474, "lat": 40.3607402, "lon": 49.9496247}, {"type": "node", "id": 9772075475, "lat": 40.3607173, "lon": 49.9495981}, {"type": "node", "id": 9772075476, "lat": 40.3606876, "lon": 49.9495733}, {"type": "node", "id": 9772075477, "lat": 40.3606404, "lon": 49.9495627}, {"type": "node", "id": 9772075478, "lat": 40.360604, "lon": 49.9495663}, {"type": "node", "id": 9772075479, "lat": 40.3605824, "lon": 49.9495787}, {"type": "node", "id": 9772075480, "lat": 40.3605582, "lon": 49.9496087}, {"type": "node", "id": 9772075481, "lat": 40.360542, "lon": 49.9496388}, {"type": "node", "id": 9772075482, "lat": 40.3605231, "lon": 49.9496831}, {"type": "node", "id": 9772075483, "lat": 40.3605204, "lon": 49.949745}, {"type": "node", "id": 9772075484, "lat": 40.3605272, "lon": 49.9497981}, {"type": "node", "id": 9772075485, "lat": 40.3605474, "lon": 49.9498388}, {"type": "node", "id": 9772075486, "lat": 40.3605663, "lon": 49.9498689}, {"type": "node", "id": 9772075487, "lat": 40.3605892, "lon": 49.9498866}, {"type": "node", "id": 9772075488, "lat": 40.3605865, "lon": 49.9499167}, {"type": "node", "id": 9772075489, "lat": 40.3605636, "lon": 49.9499237}, {"type": "node", "id": 9772075490, "lat": 40.3605406, "lon": 49.9499467}, {"type": "node", "id": 9772075491, "lat": 40.3605177, "lon": 49.9499857}, {"type": "node", "id": 9772075492, "lat": 40.360515, "lon": 49.9500476}, {"type": "node", "id": 9772075493, "lat": 40.3605272, "lon": 49.9500883}, {"type": "node", "id": 9772075494, "lat": 40.360542, "lon": 49.9501202}, {"type": "node", "id": 9772075495, "lat": 40.360573, "lon": 49.9501467}, {"type": "node", "id": 9772075496, "lat": 40.3605905, "lon": 49.9501467}, {"type": "node", "id": 9772075497, "lat": 40.3606242, "lon": 49.9501485}, {"type": "node", "id": 9772075498, "lat": 40.3606458, "lon": 49.9501272}, {"type": "node", "id": 9772075499, "lat": 40.3606728, "lon": 49.9501042}, {"type": "node", "id": 9772075500, "lat": 40.3606849, "lon": 49.9500635}, {"type": "node", "id": 9772075501, "lat": 40.3606863, "lon": 49.9500264}, {"type": "node", "id": 9772075502, "lat": 40.3606755, "lon": 49.9499804}, {"type": "node", "id": 9772075503, "lat": 40.3606634, "lon": 49.9499574}, {"type": "node", "id": 9772075504, "lat": 40.3606364, "lon": 49.9499343}, {"type": "node", "id": 9772075505, "lat": 40.360635, "lon": 49.9499007}, {"type": "node", "id": 9772075506, "lat": 40.360662, "lon": 49.949899}, {"type": "node", "id": 9772075507, "lat": 40.3606836, "lon": 49.9498919}, {"type": "node", "id": 9772075508, "lat": 40.3607092, "lon": 49.9498689}, {"type": "node", "id": 9772075509, "lat": 40.3607294, "lon": 49.9498512}, {"type": "node", "id": 9772075510, "lat": 40.3607443, "lon": 49.9498299}, {"type": "node", "id": 9772075511, "lat": 40.360755, "lon": 49.9498016}, {"type": "node", "id": 9772075512, "lat": 40.3607645, "lon": 49.9497645}, {"type": "node", "id": 9772075513, "lat": 40.3607685, "lon": 49.9497344}, {"type": "node", "id": 9772075514, "lat": 40.360871, "lon": 49.9501449}, {"type": "node", "id": 9772075515, "lat": 40.3608386, "lon": 49.9501414}, {"type": "node", "id": 9772075516, "lat": 40.3608198, "lon": 49.9501308}, {"type": "node", "id": 9772075517, "lat": 40.3608171, "lon": 49.9501007}, {"type": "node", "id": 9772075518, "lat": 40.36084, "lon": 49.9500865}, {"type": "node", "id": 9772075519, "lat": 40.3608454, "lon": 49.9500359}, {"type": "node", "id": 9772075520, "lat": 40.3607591, "lon": 49.9499981}, {"type": "node", "id": 9772075521, "lat": 40.3607254, "lon": 49.9500104}, {"type": "node", "id": 9772075522, "lat": 40.3607146, "lon": 49.9500299}, {"type": "node", "id": 9772075523, "lat": 40.3607011, "lon": 49.9500688}, {"type": "node", "id": 9772075524, "lat": 40.3607065, "lon": 49.9501166}, {"type": "node", "id": 9772075525, "lat": 40.3607173, "lon": 49.9501573}, {"type": "node", "id": 9772075526, "lat": 40.3607416, "lon": 49.9501821}, {"type": "node", "id": 9772075527, "lat": 40.3607672, "lon": 49.9501962}, {"type": "node", "id": 9772075528, "lat": 40.3607928, "lon": 49.950198}, {"type": "node", "id": 9772075529, "lat": 40.3608157, "lon": 49.9501892}, {"type": "node", "id": 9772075530, "lat": 40.3608346, "lon": 49.950175}, {"type": "node", "id": 9772075531, "lat": 40.3608467, "lon": 49.950175}, {"type": "node", "id": 9772075532, "lat": 40.3608656, "lon": 49.9501786}, {"type": "node", "id": 9772075533, "lat": 40.3608103, "lon": 49.9500065}, {"type": "node", "id": 9772075534, "lat": 40.3606756, "lon": 49.9500949}, {"type": "node", "id": 9772075536, "lat": 40.3608687, "lon": 49.9501595}, {"type": "node", "id": 2774989430, "lat": 40.3637437, "lon": 49.9566761}, {"type": "node", "id": 3691553023, "lat": 40.3632795, "lon": 49.9574522}, {"type": "node", "id": 3691553853, "lat": 40.3639158, "lon": 49.9574679}, {"type": "node", "id": 3691761176, "lat": 40.3635877, "lon": 49.9569441}, {"type": "node", "id": 3691761177, "lat": 40.3637948, "lon": 49.9562307}, {"type": "node", "id": 3691761180, "lat": 40.3641029, "lon": 49.956241}, {"type": "node", "id": 3691761181, "lat": 40.3641465, "lon": 49.9552202}, {"type": "node", "id": 3691761182, "lat": 40.364296, "lon": 49.9571096}, {"type": "node", "id": 3691761183, "lat": 40.36434, "lon": 49.9563945}, {"type": "node", "id": 3691761184, "lat": 40.3644312, "lon": 49.9563852}, {"type": "node", "id": 3691761185, "lat": 40.3644643, "lon": 49.9552377}, {"type": "node", "id": 5622832464, "lat": 40.3634401, "lon": 49.9557467}, {"type": "node", "id": 5622832465, "lat": 40.3634257, "lon": 49.9560957}, {"type": "node", "id": 5622832466, "lat": 40.3629083, "lon": 49.9560577}, {"type": "node", "id": 5622832467, "lat": 40.3626048, "lon": 49.9556708}, {"type": "node", "id": 11026147557, "lat": 40.3667528, "lon": 49.9538673}, {"type": "node", "id": 11026147560, "lat": 40.3663932, "lon": 49.9537683}, {"type": "node", "id": 11026147561, "lat": 40.3663417, "lon": 49.9551963}, {"type": "node", "id": 11026147562, "lat": 40.3669097, "lon": 49.9552283}, {"type": "node", "id": 11026147563, "lat": 40.3660984, "lon": 49.9551827}, {"type": "node", "id": 11026147564, "lat": 40.366172, "lon": 49.9537504}, {"type": "node", "id": 11026150799, "lat": 40.3639619, "lon": 49.9562363}, {"type": "node", "id": 11026150801, "lat": 40.3639031, "lon": 49.9570178}, {"type": "node", "id": 11026150802, "lat": 40.3641365, "lon": 49.9570723}, {"type": "node", "id": 11026150803, "lat": 40.3642569, "lon": 49.9552263}, {"type": "node", "id": 11026181116, "lat": 40.3643321, "lon": 49.9542628}, {"type": "node", "id": 11026181118, "lat": 40.3645105, "lon": 49.953683}, {"type": "node", "id": 11026181119, "lat": 40.365005, "lon": 49.9551344}, {"type": "node", "id": 11026181120, "lat": 40.3642836, "lon": 49.9550727}, {"type": "node", "id": 11026181121, "lat": 40.3643674, "lon": 49.9536726}, {"type": "node", "id": 11026181122, "lat": 40.3650704, "lon": 49.9537235}, {"type": "node", "id": 11026181124, "lat": 40.3640179, "lon": 49.9547146}, {"type": "node", "id": 11026181125, "lat": 40.363459, "lon": 49.9546462}, {"type": "node", "id": 11026181126, "lat": 40.3635009, "lon": 49.9539381}, {"type": "node", "id": 11026181127, "lat": 40.3640496, "lon": 49.953981}, {"type": "node", "id": 2774989429, "lat": 40.3624058, "lon": 49.958913}, {"type": "node", "id": 2774989436, "lat": 40.3639855, "lon": 49.9599925}, {"type": "node", "id": 2774989438, "lat": 40.3638587, "lon": 49.9599864}, {"type": "node", "id": 2774989439, "lat": 40.3637014, "lon": 49.9599463}, {"type": "node", "id": 2774989440, "lat": 40.3635089, "lon": 49.95986}, {"type": "node", "id": 2774989441, "lat": 40.3633422, "lon": 49.9597892}, {"type": "node", "id": 2774989442, "lat": 40.3632389, "lon": 49.9597275}, {"type": "node", "id": 2774989443, "lat": 40.3631943, "lon": 49.9596967}, {"type": "node", "id": 2774989445, "lat": 40.363981, "lon": 49.9598332}, {"type": "node", "id": 3208589582, "lat": 40.3634986, "lon": 49.9585397}, {"type": "node", "id": 3208589592, "lat": 40.3638132, "lon": 49.9591037}, {"type": "node", "id": 3208589593, "lat": 40.363829, "lon": 49.9587381}, {"type": "node", "id": 3208589594, "lat": 40.3636822, "lon": 49.9587272}, {"type": "node", "id": 3589546721, "lat": 40.3655932, "lon": 49.9627283}, {"type": "node", "id": 3589546722, "lat": 40.3658941, "lon": 49.9628769}, {"type": "node", "id": 3589546723, "lat": 40.3663826, "lon": 49.9626933}, {"type": "node", "id": 3691552999, "lat": 40.3629563, "lon": 49.9591359}, {"type": "node", "id": 3691553002, "lat": 40.3629734, "lon": 49.9589372}, {"type": "node", "id": 3691553004, "lat": 40.3629758, "lon": 49.9593089}, {"type": "node", "id": 3691553006, "lat": 40.3630222, "lon": 49.9588091}, {"type": "node", "id": 3691553008, "lat": 40.3630419, "lon": 49.959549}, {"type": "node", "id": 3691553010, "lat": 40.3631109, "lon": 49.9591499}, {"type": "node", "id": 3691553011, "lat": 40.3631126, "lon": 49.9590615}, {"type": "node", "id": 3691553013, "lat": 40.3631174, "lon": 49.9586937}, {"type": "node", "id": 3691553014, "lat": 40.3631316, "lon": 49.9593243}, {"type": "node", "id": 3691553016, "lat": 40.3631523, "lon": 49.9589981}, {"type": "node", "id": 3691553017, "lat": 40.3631724, "lon": 49.9596759}, {"type": "node", "id": 3691553019, "lat": 40.3632061, "lon": 49.9594759}, {"type": "node", "id": 3691553022, "lat": 40.3632317, "lon": 49.9595282}, {"type": "node", "id": 3691553024, "lat": 40.3632507, "lon": 49.9589142}, {"type": "node", "id": 3691553825, "lat": 40.3632566, "lon": 49.9586136}, {"type": "node", "id": 3691553828, "lat": 40.3633008, "lon": 49.9589142}, {"type": "node", "id": 3691553839, "lat": 40.3633884, "lon": 49.9583829}, {"type": "node", "id": 3691553840, "lat": 40.3634484, "lon": 49.9590703}, {"type": "node", "id": 3691553848, "lat": 40.363558, "lon": 49.9591861}, {"type": "node", "id": 3691553850, "lat": 40.3636271, "lon": 49.9593039}, {"type": "node", "id": 3691553856, "lat": 40.3639604, "lon": 49.9590975}, {"type": "node", "id": 3691553857, "lat": 40.3639664, "lon": 49.9593104}, {"type": "node", "id": 9799572222, "lat": 40.3627836, "lon": 49.959595}, {"type": "node", "id": 9799572223, "lat": 40.3628316, "lon": 49.959658}, {"type": "node", "id": 9799572224, "lat": 40.3628582, "lon": 49.9597398}, {"type": "node", "id": 9799572225, "lat": 40.3628664, "lon": 49.9598726}, {"type": "node", "id": 9799572226, "lat": 40.362664, "lon": 49.9598551}, {"type": "node", "id": 9799572227, "lat": 40.362663, "lon": 49.959485}, {"type": "node", "id": 11014526548, "lat": 40.3627079, "lon": 49.9634707}, {"type": "node", "id": 11014526549, "lat": 40.3628224, "lon": 49.96346}, {"type": "node", "id": 11014526550, "lat": 40.3628489, "lon": 49.9646026}, {"type": "node", "id": 11014526551, "lat": 40.3626957, "lon": 49.9646321}, {"type": "node", "id": 11014526552, "lat": 40.362524, "lon": 49.9643826}, {"type": "node", "id": 11014526553, "lat": 40.3624627, "lon": 49.964388}, {"type": "node", "id": 11014526554, "lat": 40.3622665, "lon": 49.9642351}, {"type": "node", "id": 11014526555, "lat": 40.361682, "lon": 49.9643263}, {"type": "node", "id": 11014526556, "lat": 40.3609258, "lon": 49.9645624}, {"type": "node", "id": 11014526558, "lat": 40.3603882, "lon": 49.9642539}, {"type": "node", "id": 11014526559, "lat": 40.3604802, "lon": 49.9639454}, {"type": "node", "id": 11014526560, "lat": 40.3606335, "lon": 49.9639454}, {"type": "node", "id": 11014526561, "lat": 40.3618659, "lon": 49.9633983}, {"type": "node", "id": 11014526562, "lat": 40.362569, "lon": 49.9633795}, {"type": "node", "id": 3208568492, "lat": 40.3717219, "lon": 49.9548786}, {"type": "node", "id": 3208568493, "lat": 40.3717315, "lon": 49.9546519}, {"type": "node", "id": 3208568494, "lat": 40.3720286, "lon": 49.9546753}, {"type": "node", "id": 3693577043, "lat": 40.3715459, "lon": 49.954907}, {"type": "node", "id": 3693577049, "lat": 40.3715559, "lon": 49.9543944}, {"type": "node", "id": 3693577053, "lat": 40.3716908, "lon": 49.9557577}, {"type": "node", "id": 3693577055, "lat": 40.3717326, "lon": 49.9559037}, {"type": "node", "id": 3693577058, "lat": 40.3718486, "lon": 49.9560587}, {"type": "node", "id": 3693577068, "lat": 40.3720218, "lon": 49.9548053}, {"type": "node", "id": 3693577069, "lat": 40.3720207, "lon": 49.9561112}, {"type": "node", "id": 3693577072, "lat": 40.3720533, "lon": 49.9557769}, {"type": "node", "id": 3693577074, "lat": 40.3720567, "lon": 49.9558486}, {"type": "node", "id": 3693577079, "lat": 40.3723142, "lon": 49.9552981}, {"type": "node", "id": 3693577086, "lat": 40.3723672, "lon": 49.9548136}, {"type": "node", "id": 3693577087, "lat": 40.3722477, "lon": 49.954427}, {"type": "node", "id": 3693577090, "lat": 40.3723362, "lon": 49.9546519}, {"type": "node", "id": 3693577093, "lat": 40.3723068, "lon": 49.9561191}, {"type": "node", "id": 3693577098, "lat": 40.372357, "lon": 49.9547341}, {"type": "node", "id": 3693577106, "lat": 40.3725609, "lon": 49.9560823}, {"type": "node", "id": 3693577111, "lat": 40.3725121, "lon": 49.9553051}, {"type": "node", "id": 3693577114, "lat": 40.3725164, "lon": 49.9550962}, {"type": "node", "id": 3693577117, "lat": 40.3727379, "lon": 49.9555033}, {"type": "node", "id": 3693577119, "lat": 40.3727415, "lon": 49.9553276}, {"type": "node", "id": 3693577121, "lat": 40.372912, "lon": 49.9553336}, {"type": "node", "id": 3693577227, "lat": 40.3729165, "lon": 49.9551104}, {"type": "node", "id": 3693577230, "lat": 40.3730224, "lon": 49.9559259}, {"type": "node", "id": 3693577242, "lat": 40.3729895, "lon": 49.9558046}, {"type": "node", "id": 3693577243, "lat": 40.3731844, "lon": 49.9548712}, {"type": "node", "id": 3693577249, "lat": 40.3730104, "lon": 49.9561233}, {"type": "node", "id": 3693577255, "lat": 40.3732787, "lon": 49.9558192}, {"type": "node", "id": 3693577256, "lat": 40.3733064, "lon": 49.9548774}, {"type": "node", "id": 9891913800, "lat": 40.3725221, "lon": 49.9579178}, {"type": "node", "id": 9891913801, "lat": 40.3728041, "lon": 49.9579302}, {"type": "node", "id": 9891913802, "lat": 40.3726189, "lon": 49.9576618}, {"type": "node", "id": 9891913803, "lat": 40.3726155, "lon": 49.9577976}, {"type": "node", "id": 9891913804, "lat": 40.3723875, "lon": 49.9577876}, {"type": "node", "id": 9891913809, "lat": 40.3728107, "lon": 49.9576702}, {"type": "node", "id": 9891913936, "lat": 40.3729927, "lon": 49.9556961}, {"type": "node", "id": 9891913937, "lat": 40.3731599, "lon": 49.9557045}, {"type": "node", "id": 9891914042, "lat": 40.3723103, "lon": 49.9554882}, {"type": "node", "id": 11026147548, "lat": 40.3686202, "lon": 49.9553999}, {"type": "node", "id": 11026147549, "lat": 40.3680173, "lon": 49.9553409}, {"type": "node", "id": 11026147550, "lat": 40.3680684, "lon": 49.9539649}, {"type": "node", "id": 11026147551, "lat": 40.368657, "lon": 49.9540159}, {"type": "node", "id": 11026147565, "lat": 40.3669669, "lon": 49.9538147}, {"type": "node", "id": 11026157839, "lat": 40.3696716, "lon": 49.9556812}, {"type": "node", "id": 11026157840, "lat": 40.3696665, "lon": 49.9558385}, {"type": "node", "id": 11026157841, "lat": 40.3691055, "lon": 49.9558076}, {"type": "node", "id": 11026157842, "lat": 40.3691014, "lon": 49.9556896}, {"type": "node", "id": 11026157843, "lat": 40.3688654, "lon": 49.9556695}, {"type": "node", "id": 11026157844, "lat": 40.3688644, "lon": 49.9555394}, {"type": "node", "id": 11026157845, "lat": 40.3694117, "lon": 49.9555679}, {"type": "node", "id": 11026181308, "lat": 40.369408, "lon": 49.9556655}, {"type": "node", "id": 3210747470, "lat": 40.3702226, "lon": 49.9602006}, {"type": "node", "id": 3210747471, "lat": 40.370404, "lon": 49.9601518}, {"type": "node", "id": 3210747472, "lat": 40.3703988, "lon": 49.9601114}, {"type": "node", "id": 3210747473, "lat": 40.3704062, "lon": 49.9601035}, {"type": "node", "id": 3210747474, "lat": 40.3704083, "lon": 49.9600927}, {"type": "node", "id": 3210747475, "lat": 40.3704077, "lon": 49.960082}, {"type": "node", "id": 3210747476, "lat": 40.3704006, "lon": 49.9600713}, {"type": "node", "id": 3210747477, "lat": 40.3703924, "lon": 49.9600646}, {"type": "node", "id": 3210747478, "lat": 40.3703862, "lon": 49.9600248}, {"type": "node", "id": 3589507036, "lat": 40.3728199, "lon": 49.9595075}, {"type": "node", "id": 3589507043, "lat": 40.3728468, "lon": 49.9596433}, {"type": "node", "id": 3589507056, "lat": 40.3732077, "lon": 49.9595384}, {"type": "node", "id": 3589507058, "lat": 40.3732037, "lon": 49.9593332}, {"type": "node", "id": 3693577104, "lat": 40.3725431, "lon": 49.9581473}, {"type": "node", "id": 3693577112, "lat": 40.372609, "lon": 49.9581501}, {"type": "node", "id": 4611515191, "lat": 40.3702028, "lon": 49.960074}, {"type": "node", "id": 9891913798, "lat": 40.3727996, "lon": 49.9581064}, {"type": "node", "id": 9891913799, "lat": 40.3725176, "lon": 49.9580941}, {"type": "node", "id": 9891913805, "lat": 40.3723712, "lon": 49.958426}, {"type": "node", "id": 9891913806, "lat": 40.3724701, "lon": 49.9584303}, {"type": "node", "id": 9891913807, "lat": 40.3724774, "lon": 49.9581444}, {"type": "node", "id": 9891913808, "lat": 40.3727983, "lon": 49.9581584}, {"type": "node", "id": 1671872962, "lat": 40.3792193, "lon": 49.9549284}, {"type": "node", "id": 1671872964, "lat": 40.3786338, "lon": 49.9549125}, {"type": "node", "id": 1671872965, "lat": 40.3776156, "lon": 49.9555593}, {"type": "node", "id": 1671872976, "lat": 40.378707, "lon": 49.9575856}, {"type": "node", "id": 1671872980, "lat": 40.3783337, "lon": 49.954846}, {"type": "node", "id": 1671872982, "lat": 40.3793663, "lon": 49.9549101}, {"type": "node", "id": 1671872984, "lat": 40.3782259, "lon": 49.9574118}, {"type": "node", "id": 1671872987, "lat": 40.3786881, "lon": 49.9574544}, {"type": "node", "id": 1671872990, "lat": 40.378302, "lon": 49.9573659}, {"type": "node", "id": 3029568533, "lat": 40.3784018, "lon": 49.9547989}, {"type": "node", "id": 3029577782, "lat": 40.3771125, "lon": 49.9560683}, {"type": "node", "id": 3029577814, "lat": 40.3787423, "lon": 49.9549175}, {"type": "node", "id": 3693577356, "lat": 40.3746699, "lon": 49.9568058}, {"type": "node", "id": 3693577358, "lat": 40.3746963, "lon": 49.9559846}, {"type": "node", "id": 3693577365, "lat": 40.3749064, "lon": 49.9568189}, {"type": "node", "id": 3693577366, "lat": 40.3749327, "lon": 49.9559977}, {"type": "node", "id": 4471556839, "lat": 40.3793238, "lon": 49.9567627}, {"type": "node", "id": 4471556840, "lat": 40.3792783, "lon": 49.9568842}, {"type": "node", "id": 4471556842, "lat": 40.3791798, "lon": 49.9568207}, {"type": "node", "id": 4471556843, "lat": 40.3790543, "lon": 49.9568244}, {"type": "node", "id": 4471556844, "lat": 40.3791074, "lon": 49.9566829}, {"type": "node", "id": 8764737234, "lat": 40.3784641, "lon": 49.9566588}, {"type": "node", "id": 8764737235, "lat": 40.3784393, "lon": 49.9567447}, {"type": "node", "id": 9846999919, "lat": 40.3791591, "lon": 49.9575599}, {"type": "node", "id": 9891914228, "lat": 40.3792086, "lon": 49.9567483}, {"type": "node", "id": 9891914229, "lat": 40.3791542, "lon": 49.9568889}, {"type": "node", "id": 9891914230, "lat": 40.3792267, "lon": 49.9567}, {"type": "node", "id": 9891914232, "lat": 40.3784195, "lon": 49.9566067}, {"type": "node", "id": 9891914233, "lat": 40.3783447, "lon": 49.9565694}, {"type": "node", "id": 9891914234, "lat": 40.378412, "lon": 49.9566329}, {"type": "node", "id": 9891914235, "lat": 40.3783372, "lon": 49.9565956}, {"type": "node", "id": 9891914236, "lat": 40.3782832, "lon": 49.9565688}, {"type": "node", "id": 9891914237, "lat": 40.3782584, "lon": 49.9566547}, {"type": "node", "id": 9891914258, "lat": 40.3785496, "lon": 49.9548655}, {"type": "node", "id": 10005202666, "lat": 40.3790446, "lon": 49.9549641}, {"type": "node", "id": 11026518715, "lat": 40.3773538, "lon": 49.9567625}, {"type": "node", "id": 11026518776, "lat": 40.3764057, "lon": 49.9568}, {"type": "node", "id": 11026518777, "lat": 40.3765324, "lon": 49.9569824}, {"type": "node", "id": 11026518778, "lat": 40.3768327, "lon": 49.9566579}, {"type": "node", "id": 11026518779, "lat": 40.3776092, "lon": 49.9575202}, {"type": "node", "id": 11026518780, "lat": 40.3770289, "lon": 49.956969}, {"type": "node", "id": 1671872972, "lat": 40.3793089, "lon": 49.9582876}, {"type": "node", "id": 2907078332, "lat": 40.3789404, "lon": 49.961575}, {"type": "node", "id": 2907078333, "lat": 40.3789681, "lon": 49.9618545}, {"type": "node", "id": 2907078334, "lat": 40.3791102, "lon": 49.961546}, {"type": "node", "id": 2907078335, "lat": 40.3791379, "lon": 49.9618255}, {"type": "node", "id": 3589425225, "lat": 40.378236, "lon": 49.9620993}, {"type": "node", "id": 3589425226, "lat": 40.3782412, "lon": 49.962657}, {"type": "node", "id": 3589425249, "lat": 40.3784276, "lon": 49.9627485}, {"type": "node", "id": 3589425267, "lat": 40.3786627, "lon": 49.9621976}, {"type": "node", "id": 3589425268, "lat": 40.3786627, "lon": 49.9626228}, {"type": "node", "id": 11012971470, "lat": 40.3743644, "lon": 49.964624}, {"type": "node", "id": 11026508843, "lat": 40.3766999, "lon": 49.9585354}, {"type": "node", "id": 11026508844, "lat": 40.3759664, "lon": 49.9589217}, {"type": "node", "id": 11026518763, "lat": 40.377599, "lon": 49.9582109}, {"type": "node", "id": 11026518764, "lat": 40.3769697, "lon": 49.958809}, {"type": "node", "id": 11026518765, "lat": 40.3763873, "lon": 49.9587232}, {"type": "node", "id": 11026518766, "lat": 40.3754341, "lon": 49.9592435}, {"type": "node", "id": 11026518767, "lat": 40.3751736, "lon": 49.9590933}, {"type": "node", "id": 11026518768, "lat": 40.374818, "lon": 49.9592864}, {"type": "node", "id": 11026518769, "lat": 40.3739761, "lon": 49.9597532}, {"type": "node", "id": 11026518770, "lat": 40.3738699, "lon": 49.9594474}, {"type": "node", "id": 11026518771, "lat": 40.3744339, "lon": 49.959147}, {"type": "node", "id": 11026518772, "lat": 40.3748425, "lon": 49.958809}, {"type": "node", "id": 11026518773, "lat": 40.3751245, "lon": 49.9584818}, {"type": "node", "id": 11026518774, "lat": 40.3752103, "lon": 49.9592704}, {"type": "node", "id": 11026518775, "lat": 40.3749856, "lon": 49.9581948}, {"type": "node", "id": 1671872974, "lat": 40.3806782, "lon": 49.9568456}, {"type": "node", "id": 1671872986, "lat": 40.3800224, "lon": 49.9558478}, {"type": "node", "id": 3210988072, "lat": 40.3808567, "lon": 49.9524331}, {"type": "node", "id": 3210988073, "lat": 40.3808563, "lon": 49.9528833}, {"type": "node", "id": 3210988074, "lat": 40.3810621, "lon": 49.9528837}, {"type": "node", "id": 3210988075, "lat": 40.3810626, "lon": 49.9524335}, {"type": "node", "id": 3602259117, "lat": 40.3824179, "lon": 49.9537982}, {"type": "node", "id": 3602259118, "lat": 40.3824328, "lon": 49.9536985}, {"type": "node", "id": 3602259119, "lat": 40.3826015, "lon": 49.9535973}, {"type": "node", "id": 3602259120, "lat": 40.3828309, "lon": 49.9534678}, {"type": "node", "id": 3602259122, "lat": 40.3830925, "lon": 49.9534175}, {"type": "node", "id": 3602259123, "lat": 40.3851257, "lon": 49.9534264}, {"type": "node", "id": 3602259124, "lat": 40.3851219, "lon": 49.9537702}, {"type": "node", "id": 3602259125, "lat": 40.386561, "lon": 49.9533771}, {"type": "node", "id": 3602259126, "lat": 40.3865667, "lon": 49.9536265}, {"type": "node", "id": 3602259129, "lat": 40.3862511, "lon": 49.9537901}, {"type": "node", "id": 3602259130, "lat": 40.3862534, "lon": 49.9536438}, {"type": "node", "id": 6587330054, "lat": 40.3805749, "lon": 49.9573112}, {"type": "node", "id": 6587330055, "lat": 40.3806047, "lon": 49.957372}, {"type": "node", "id": 6587330056, "lat": 40.3806528, "lon": 49.9573315}, {"type": "node", "id": 6587330057, "lat": 40.380623, "lon": 49.9572707}, {"type": "node", "id": 9993745645, "lat": 40.3825159, "lon": 49.9536486}, {"type": "node", "id": 9993745646, "lat": 40.3851238, "lon": 49.9535976}, {"type": "node", "id": 9993745648, "lat": 40.3865364, "lon": 49.9536282}, {"type": "node", "id": 9993745662, "lat": 40.3829501, "lon": 49.9534339}, {"type": "node", "id": 1652825396, "lat": 40.3845744, "lon": 49.9633526}, {"type": "node", "id": 1652825398, "lat": 40.3852711, "lon": 49.9628538}, {"type": "node", "id": 1652825400, "lat": 40.3847033, "lon": 49.9628509}, {"type": "node", "id": 1652825402, "lat": 40.385265, "lon": 49.9633097}, {"type": "node", "id": 1652825403, "lat": 40.3845605, "lon": 49.9625537}, {"type": "node", "id": 1671844262, "lat": 40.382215, "lon": 49.9637935}, {"type": "node", "id": 1671844264, "lat": 40.3823185, "lon": 49.9637198}, {"type": "node", "id": 1671844266, "lat": 40.3822827, "lon": 49.9637229}, {"type": "node", "id": 1671844269, "lat": 40.3822346, "lon": 49.9646426}, {"type": "node", "id": 1671844272, "lat": 40.3822052, "lon": 49.9638396}, {"type": "node", "id": 1671844273, "lat": 40.3829191, "lon": 49.9644718}, {"type": "node", "id": 1671844279, "lat": 40.3823526, "lon": 49.9637323}, {"type": "node", "id": 1671844283, "lat": 40.3827402, "lon": 49.9643067}, {"type": "node", "id": 1671844288, "lat": 40.3829423, "lon": 49.9645025}, {"type": "node", "id": 1671844295, "lat": 40.3824102, "lon": 49.9638054}, {"type": "node", "id": 1671844301, "lat": 40.3829561, "lon": 49.9645595}, {"type": "node", "id": 1671844303, "lat": 40.3823798, "lon": 49.9637574}, {"type": "node", "id": 1671844308, "lat": 40.3829322, "lon": 49.9646299}, {"type": "node", "id": 1671844325, "lat": 40.3822322, "lon": 49.9637599}, {"type": "node", "id": 2907068281, "lat": 40.381701, "lon": 49.9643772}, {"type": "node", "id": 2907068282, "lat": 40.381705, "lon": 49.9646019}, {"type": "node", "id": 2907068284, "lat": 40.3818799, "lon": 49.9643716}, {"type": "node", "id": 2907068286, "lat": 40.3820332, "lon": 49.9643669}, {"type": "node", "id": 2907068287, "lat": 40.3820373, "lon": 49.9645915}, {"type": "node", "id": 3589582708, "lat": 40.3820358, "lon": 49.9604095}, {"type": "node", "id": 3589582710, "lat": 40.3822432, "lon": 49.961828}, {"type": "node", "id": 3589582713, "lat": 40.3823203, "lon": 49.9618222}, {"type": "node", "id": 3589582714, "lat": 40.382321, "lon": 49.9634062}, {"type": "node", "id": 3589582716, "lat": 40.382398, "lon": 49.9633889}, {"type": "node", "id": 3604316706, "lat": 40.3852105, "lon": 49.9609198}, {"type": "node", "id": 3604316707, "lat": 40.3852278, "lon": 49.9612936}, {"type": "node", "id": 3604316708, "lat": 40.3853615, "lon": 49.9605518}, {"type": "node", "id": 3604316709, "lat": 40.385368, "lon": 49.9608802}, {"type": "node", "id": 3604316710, "lat": 40.3855275, "lon": 49.9612879}, {"type": "node", "id": 3604316711, "lat": 40.3855362, "lon": 49.9614606}, {"type": "node", "id": 3604316712, "lat": 40.3858424, "lon": 49.9605518}, {"type": "node", "id": 3604316713, "lat": 40.3858424, "lon": 49.961455}, {"type": "node", "id": 4078761064, "lat": 40.3816985, "lon": 49.962523}, {"type": "node", "id": 4078761065, "lat": 40.381827, "lon": 49.9625743}, {"type": "node", "id": 4078761070, "lat": 40.3817701, "lon": 49.9628197}, {"type": "node", "id": 4078761073, "lat": 40.3816416, "lon": 49.9627684}, {"type": "node", "id": 4099955612, "lat": 40.3822568, "lon": 49.9637397}, {"type": "node", "id": 4099955628, "lat": 40.3827809, "lon": 49.9595582}, {"type": "node", "id": 4099955629, "lat": 40.382787, "lon": 49.9600786}, {"type": "node", "id": 4099955634, "lat": 40.3829137, "lon": 49.9595529}, {"type": "node", "id": 4099955635, "lat": 40.3829219, "lon": 49.959687}, {"type": "node", "id": 4099955636, "lat": 40.3829402, "lon": 49.9601966}, {"type": "node", "id": 4099955637, "lat": 40.3831037, "lon": 49.960261}, {"type": "node", "id": 4099955640, "lat": 40.3831956, "lon": 49.9597084}, {"type": "node", "id": 4099955641, "lat": 40.3831977, "lon": 49.9598372}, {"type": "node", "id": 4099955642, "lat": 40.3831977, "lon": 49.9602744}, {"type": "node", "id": 4099955643, "lat": 40.3832038, "lon": 49.9600893}, {"type": "node", "id": 4099955646, "lat": 40.3832794, "lon": 49.9600893}, {"type": "node", "id": 4099955647, "lat": 40.3833101, "lon": 49.9599445}, {"type": "node", "id": 4099955649, "lat": 40.383357, "lon": 49.9599257}, {"type": "node", "id": 4099955651, "lat": 40.3833591, "lon": 49.9598372}, {"type": "node", "id": 9892249571, "lat": 40.3822717, "lon": 49.9614941}, {"type": "node", "id": 9892249572, "lat": 40.3821933, "lon": 49.9615166}, {"type": "node", "id": 9892249573, "lat": 40.3821871, "lon": 49.9614651}, {"type": "node", "id": 9892249574, "lat": 40.3822596, "lon": 49.9614445}, {"type": "node", "id": 9892249650, "lat": 40.3823961, "lon": 49.9634073}, {"type": "node", "id": 9892249651, "lat": 40.3823894, "lon": 49.9634236}, {"type": "node", "id": 9892249652, "lat": 40.3823788, "lon": 49.9634358}, {"type": "node", "id": 9892249653, "lat": 40.3823513, "lon": 49.9634421}, {"type": "node", "id": 9892249654, "lat": 40.382338, "lon": 49.9634353}, {"type": "node", "id": 9892249655, "lat": 40.3823275, "lon": 49.9634228}, {"type": "node", "id": 9892249656, "lat": 40.3823655, "lon": 49.9634422}, {"type": "node", "id": 9892249657, "lat": 40.3820424, "lon": 49.960392}, {"type": "node", "id": 9892249658, "lat": 40.3820534, "lon": 49.9603789}, {"type": "node", "id": 9892249659, "lat": 40.3820811, "lon": 49.9603718}, {"type": "node", "id": 9892249660, "lat": 40.3820942, "lon": 49.9603779}, {"type": "node", "id": 9892249661, "lat": 40.3820673, "lon": 49.9603719}, {"type": "node", "id": 9892249669, "lat": 40.3821049, "lon": 49.9603895}, {"type": "node", "id": 9893627934, "lat": 40.3825995, "lon": 49.9641229}, {"type": "node", "id": 11012971351, "lat": 40.3844886, "lon": 49.9630228}, {"type": "node", "id": 11012971352, "lat": 40.38389, "lon": 49.9630389}, {"type": "node", "id": 11012971353, "lat": 40.3838981, "lon": 49.9623522}, {"type": "node", "id": 11012971354, "lat": 40.3844865, "lon": 49.9623334}, {"type": "node", "id": 11012971367, "lat": 40.3829513, "lon": 49.9645952}, {"type": "node", "id": 11012971368, "lat": 40.3829534, "lon": 49.9645302}, {"type": "node", "id": 11012971529, "lat": 40.3829358, "lon": 49.9634372}, {"type": "node", "id": 11012971530, "lat": 40.3825058, "lon": 49.9634412}, {"type": "node", "id": 11012971531, "lat": 40.3824925, "lon": 49.9631649}, {"type": "node", "id": 11012971532, "lat": 40.3829409, "lon": 49.9631609}, {"type": "node", "id": 11012971538, "lat": 40.3829998, "lon": 49.9641708}, {"type": "node", "id": 11012971548, "lat": 40.3833545, "lon": 49.9641493}, {"type": "node", "id": 11012971549, "lat": 40.3833281, "lon": 49.9641506}, {"type": "node", "id": 11012971550, "lat": 40.3831841, "lon": 49.9641158}, {"type": "node", "id": 11012971551, "lat": 40.3831667, "lon": 49.9642043}, {"type": "node", "id": 11012971552, "lat": 40.382946, "lon": 49.96416}, {"type": "node", "id": 11012971553, "lat": 40.382989, "lon": 49.9637496}, {"type": "node", "id": 11012971554, "lat": 40.3829001, "lon": 49.9637403}, {"type": "node", "id": 11012971555, "lat": 40.3829134, "lon": 49.9634989}, {"type": "node", "id": 11012971558, "lat": 40.3833485, "lon": 49.9635056}, {"type": "node", "id": 11012971570, "lat": 40.3847031, "lon": 49.9625507}, {"type": "node", "id": 11012971586, "lat": 40.3861424, "lon": 49.9630871}, {"type": "node", "id": 11012971587, "lat": 40.3857277, "lon": 49.9630992}, {"type": "node", "id": 11012971588, "lat": 40.3857257, "lon": 49.9627894}, {"type": "node", "id": 11012971589, "lat": 40.3858135, "lon": 49.9626794}, {"type": "node", "id": 11012971590, "lat": 40.3861414, "lon": 49.9626821}, {"type": "node", "id": 12523207831, "lat": 40.3826668, "lon": 49.9642187}, {"type": "node", "id": 11014390255, "lat": 40.3540113, "lon": 49.9651927}, {"type": "node", "id": 11014390256, "lat": 40.354001, "lon": 49.9653375}, {"type": "node", "id": 11014390257, "lat": 40.3540021, "lon": 49.9654274}, {"type": "node", "id": 11014390258, "lat": 40.3540358, "lon": 49.9654971}, {"type": "node", "id": 11014390259, "lat": 40.3541697, "lon": 49.9656433}, {"type": "node", "id": 11014390260, "lat": 40.3540797, "lon": 49.9657157}, {"type": "node", "id": 11014390261, "lat": 40.3539346, "lon": 49.9654904}, {"type": "node", "id": 11014390262, "lat": 40.3539142, "lon": 49.9654032}, {"type": "node", "id": 11014390263, "lat": 40.3539091, "lon": 49.9653147}, {"type": "node", "id": 11014409842, "lat": 40.3573041, "lon": 49.9710681}, {"type": "node", "id": 11014409843, "lat": 40.3571804, "lon": 49.9710801}, {"type": "node", "id": 11014409844, "lat": 40.3571763, "lon": 49.9708173}, {"type": "node", "id": 11014409845, "lat": 40.3568176, "lon": 49.9707998}, {"type": "node", "id": 11014409846, "lat": 40.3567931, "lon": 49.9704029}, {"type": "node", "id": 11014409847, "lat": 40.3572857, "lon": 49.9703613}, {"type": "node", "id": 11020868638, "lat": 40.3551733, "lon": 49.9700126}, {"type": "node", "id": 11020868639, "lat": 40.3550792, "lon": 49.9701132}, {"type": "node", "id": 11020868640, "lat": 40.355391, "lon": 49.9706644}, {"type": "node", "id": 11020868641, "lat": 40.3553072, "lon": 49.9707288}, {"type": "node", "id": 11020868642, "lat": 40.3552458, "lon": 49.9707609}, {"type": "node", "id": 11020868643, "lat": 40.355209, "lon": 49.9707583}, {"type": "node", "id": 11020868644, "lat": 40.355162, "lon": 49.9707288}, {"type": "node", "id": 11020868645, "lat": 40.3550578, "lon": 49.9705437}, {"type": "node", "id": 11020868646, "lat": 40.3550292, "lon": 49.9703667}, {"type": "node", "id": 11020868647, "lat": 40.3549454, "lon": 49.9701682}, {"type": "node", "id": 11020868648, "lat": 40.3548738, "lon": 49.9700904}, {"type": "node", "id": 11020868649, "lat": 40.3545161, "lon": 49.9692321}, {"type": "node", "id": 11020868650, "lat": 40.3546429, "lon": 49.9691355}, {"type": "node", "id": 11369038115, "lat": 40.3553478, "lon": 49.9706996}, {"type": "node", "id": 2378707923, "lat": 40.3586502, "lon": 49.9714768}, {"type": "node", "id": 2378707924, "lat": 40.3590519, "lon": 49.9713828}, {"type": "node", "id": 2378707925, "lat": 40.3591364, "lon": 49.9714625}, {"type": "node", "id": 2378707926, "lat": 40.3591364, "lon": 49.9712854}, {"type": "node", "id": 2378707927, "lat": 40.358646, "lon": 49.971301}, {"type": "node", "id": 2378707928, "lat": 40.3590507, "lon": 49.9712903}, {"type": "node", "id": 2378707929, "lat": 40.3587364, "lon": 49.9713948}, {"type": "node", "id": 2378707930, "lat": 40.3587338, "lon": 49.9713003}, {"type": "node", "id": 8899291255, "lat": 40.3597524, "lon": 49.9792026}, {"type": "node", "id": 8899291256, "lat": 40.3597233, "lon": 49.9792429}, {"type": "node", "id": 8899291257, "lat": 40.3596858, "lon": 49.9792684}, {"type": "node", "id": 8899291258, "lat": 40.359644, "lon": 49.9792762}, {"type": "node", "id": 8899291259, "lat": 40.3596025, "lon": 49.9792656}, {"type": "node", "id": 8899291260, "lat": 40.359566, "lon": 49.9792377}, {"type": "node", "id": 8899291261, "lat": 40.3595385, "lon": 49.9791955}, {"type": "node", "id": 8899291262, "lat": 40.3595232, "lon": 49.9791439}, {"type": "node", "id": 8899291263, "lat": 40.3595564, "lon": 49.9789941}, {"type": "node", "id": 8899291264, "lat": 40.3595895, "lon": 49.9789621}, {"type": "node", "id": 8899291265, "lat": 40.3596286, "lon": 49.9789456}, {"type": "node", "id": 8899291266, "lat": 40.3596697, "lon": 49.9789465}, {"type": "node", "id": 8899291267, "lat": 40.3597084, "lon": 49.9789646}, {"type": "node", "id": 8899291268, "lat": 40.3597407, "lon": 49.9789979}, {"type": "node", "id": 8899291269, "lat": 40.3597631, "lon": 49.9790431}, {"type": "node", "id": 9202760866, "lat": 40.3595329, "lon": 49.9790383}, {"type": "node", "id": 9202760867, "lat": 40.3595214, "lon": 49.97909}, {"type": "node", "id": 9202760868, "lat": 40.3597697, "lon": 49.9791521}, {"type": "node", "id": 9202760869, "lat": 40.3597734, "lon": 49.9790969}, {"type": "node", "id": 11012835547, "lat": 40.3616758, "lon": 49.9692581}, {"type": "node", "id": 11012835553, "lat": 40.3621027, "lon": 49.970178}, {"type": "node", "id": 11012835555, "lat": 40.3620523, "lon": 49.9693949}, {"type": "node", "id": 11012835571, "lat": 40.3616595, "lon": 49.9696867}, {"type": "node", "id": 11012835576, "lat": 40.3624641, "lon": 49.9700195}, {"type": "node", "id": 11012835577, "lat": 40.3617208, "lon": 49.9702473}, {"type": "node", "id": 11012835578, "lat": 40.3616288, "lon": 49.9694064}, {"type": "node", "id": 11012835579, "lat": 40.3616871, "lon": 49.9692227}, {"type": "node", "id": 11012835580, "lat": 40.3624095, "lon": 49.9695633}, {"type": "node", "id": 11012835581, "lat": 40.3624749, "lon": 49.9701105}, {"type": "node", "id": 11014459384, "lat": 40.3646494, "lon": 49.9659169}, {"type": "node", "id": 11014459385, "lat": 40.3640179, "lon": 49.9659222}, {"type": "node", "id": 11014459386, "lat": 40.3640169, "lon": 49.9660429}, {"type": "node", "id": 11014459387, "lat": 40.3638371, "lon": 49.9660362}, {"type": "node", "id": 11014459388, "lat": 40.3638371, "lon": 49.9658927}, {"type": "node", "id": 11014459389, "lat": 40.363928, "lon": 49.9658941}, {"type": "node", "id": 11014459390, "lat": 40.363927, "lon": 49.9658042}, {"type": "node", "id": 11014459391, "lat": 40.3644185, "lon": 49.9656513}, {"type": "node", "id": 11014459392, "lat": 40.3644338, "lon": 49.9657921}, {"type": "node", "id": 11014459393, "lat": 40.3646494, "lon": 49.9658015}, {"type": "node", "id": 11014479358, "lat": 40.3626814, "lon": 49.9690255}, {"type": "node", "id": 11014479359, "lat": 40.3621786, "lon": 49.9687976}, {"type": "node", "id": 11014479360, "lat": 40.3622358, "lon": 49.9686018}, {"type": "node", "id": 11014479361, "lat": 40.3622992, "lon": 49.9686339}, {"type": "node", "id": 11014479362, "lat": 40.3623298, "lon": 49.9685052}, {"type": "node", "id": 11014479363, "lat": 40.3627733, "lon": 49.9686983}, {"type": "node", "id": 11014526557, "lat": 40.3604312, "lon": 49.9646482}, {"type": "node", "id": 2769147104, "lat": 40.3718458, "lon": 49.9689266}, {"type": "node", "id": 2769147105, "lat": 40.3718319, "lon": 49.9688902}, {"type": "node", "id": 2769147106, "lat": 40.3718093, "lon": 49.9688622}, {"type": "node", "id": 2769147107, "lat": 40.3717809, "lon": 49.968846}, {"type": "node", "id": 2769147108, "lat": 40.3717499, "lon": 49.9688434}, {"type": "node", "id": 2769147109, "lat": 40.3716864, "lon": 49.9690292}, {"type": "node", "id": 2769147110, "lat": 40.371706, "lon": 49.9690555}, {"type": "node", "id": 2769147111, "lat": 40.3717309, "lon": 49.9690727}, {"type": "node", "id": 2769147112, "lat": 40.3717585, "lon": 49.9690789}, {"type": "node", "id": 2769147113, "lat": 40.3717863, "lon": 49.9690737}, {"type": "node", "id": 2769147114, "lat": 40.3717202, "lon": 49.9688548}, {"type": "node", "id": 2769147115, "lat": 40.3716951, "lon": 49.9688788}, {"type": "node", "id": 2769147116, "lat": 40.3716777, "lon": 49.9689125}, {"type": "node", "id": 2769147117, "lat": 40.3716701, "lon": 49.9689519}, {"type": "node", "id": 2769147118, "lat": 40.3716731, "lon": 49.9689924}, {"type": "node", "id": 2769147119, "lat": 40.3718115, "lon": 49.9690575}, {"type": "node", "id": 2769147120, "lat": 40.3718317, "lon": 49.9690318}, {"type": "node", "id": 2769147121, "lat": 40.3718448, "lon": 49.9689993}, {"type": "node", "id": 2769147122, "lat": 40.3718497, "lon": 49.968963}, {"type": "node", "id": 11012835349, "lat": 40.3733795, "lon": 49.9692804}, {"type": "node", "id": 11012835350, "lat": 40.37312, "lon": 49.9692897}, {"type": "node", "id": 11012835351, "lat": 40.3731138, "lon": 49.9690524}, {"type": "node", "id": 11012835352, "lat": 40.3731618, "lon": 49.9690041}, {"type": "node", "id": 11012835353, "lat": 40.3733733, "lon": 49.9690068}, {"type": "node", "id": 11012835369, "lat": 40.3717171, "lon": 49.9696894}, {"type": "node", "id": 11012835370, "lat": 40.3716466, "lon": 49.9692884}, {"type": "node", "id": 11012835386, "lat": 40.3719899, "lon": 49.9695969}, {"type": "node", "id": 11012835387, "lat": 40.3719123, "lon": 49.9691677}, {"type": "node", "id": 11012971442, "lat": 40.3732478, "lon": 49.9652324}, {"type": "node", "id": 11012971443, "lat": 40.3734193, "lon": 49.9652863}, {"type": "node", "id": 11012971458, "lat": 40.3733805, "lon": 49.9652866}, {"type": "node", "id": 11012971459, "lat": 40.3732691, "lon": 49.9652731}, {"type": "node", "id": 11012971460, "lat": 40.3731588, "lon": 49.9650626}, {"type": "node", "id": 3587639510, "lat": 40.3674561, "lon": 49.9753993}, {"type": "node", "id": 3587639513, "lat": 40.3674557, "lon": 49.9752957}, {"type": "node", "id": 3587639514, "lat": 40.3675793, "lon": 49.9754004}, {"type": "node", "id": 3587639515, "lat": 40.3675656, "lon": 49.9752914}, {"type": "node", "id": 3587639517, "lat": 40.3675985, "lon": 49.9752222}, {"type": "node", "id": 3587639522, "lat": 40.3676661, "lon": 49.9751785}, {"type": "node", "id": 3587639526, "lat": 40.3677239, "lon": 49.9751611}, {"type": "node", "id": 3587639542, "lat": 40.3678182, "lon": 49.9751802}, {"type": "node", "id": 3587639553, "lat": 40.3680757, "lon": 49.9753611}, {"type": "node", "id": 3587639561, "lat": 40.3681129, "lon": 49.9753752}, {"type": "node", "id": 3587639562, "lat": 40.3681227, "lon": 49.9753984}, {"type": "node", "id": 3587639566, "lat": 40.3681466, "lon": 49.9753343}, {"type": "node", "id": 11010780382, "lat": 40.3707935, "lon": 49.9749626}, {"type": "node", "id": 11010780383, "lat": 40.3705258, "lon": 49.9747547}, {"type": "node", "id": 11010780384, "lat": 40.3705329, "lon": 49.9745938}, {"type": "node", "id": 11010780385, "lat": 40.3706014, "lon": 49.9746005}, {"type": "node", "id": 11010780386, "lat": 40.3706075, "lon": 49.9745348}, {"type": "node", "id": 11010780387, "lat": 40.370675, "lon": 49.9745455}, {"type": "node", "id": 11010780388, "lat": 40.3706811, "lon": 49.9744195}, {"type": "node", "id": 11010780389, "lat": 40.3708303, "lon": 49.9744141}, {"type": "node", "id": 3585501703, "lat": 40.3653543, "lon": 49.9834442}, {"type": "node", "id": 3585501704, "lat": 40.3653614, "lon": 49.9835095}, {"type": "node", "id": 3585501706, "lat": 40.365613, "lon": 49.9839031}, {"type": "node", "id": 3585501708, "lat": 40.3656251, "lon": 49.9829215}, {"type": "node", "id": 3585501709, "lat": 40.3656357, "lon": 49.9838756}, {"type": "node", "id": 3585501710, "lat": 40.3656643, "lon": 49.9828943}, {"type": "node", "id": 3585501711, "lat": 40.365715, "lon": 49.9828913}, {"type": "node", "id": 3585501712, "lat": 40.3657381, "lon": 49.9836377}, {"type": "node", "id": 3585501713, "lat": 40.3659202, "lon": 49.9841774}, {"type": "node", "id": 3585501714, "lat": 40.3659421, "lon": 49.9841028}, {"type": "node", "id": 3585501715, "lat": 40.3660355, "lon": 49.9832695}, {"type": "node", "id": 3585501716, "lat": 40.3660445, "lon": 49.9838649}, {"type": "node", "id": 3585501717, "lat": 40.3660816, "lon": 49.983781}, {"type": "node", "id": 3585501718, "lat": 40.3660978, "lon": 49.9831485}, {"type": "node", "id": 3585501719, "lat": 40.3662107, "lon": 49.9834269}, {"type": "node", "id": 3585501721, "lat": 40.3662914, "lon": 49.9833028}, {"type": "node", "id": 3585501727, "lat": 40.3666189, "lon": 49.9840715}, {"type": "node", "id": 3585501732, "lat": 40.3667318, "lon": 49.9837174}, {"type": "node", "id": 3585510300, "lat": 40.3653283, "lon": 49.9837136}, {"type": "node", "id": 3585510301, "lat": 40.3653439, "lon": 49.9836826}, {"type": "node", "id": 3585501723, "lat": 40.3665036, "lon": 49.985046}, {"type": "node", "id": 3585501728, "lat": 40.3666235, "lon": 49.9850308}, {"type": "node", "id": 3585501735, "lat": 40.3667572, "lon": 49.9846344}, {"type": "node", "id": 3585510303, "lat": 40.3657005, "lon": 49.9845248}, {"type": "node", "id": 3585510304, "lat": 40.3658504, "lon": 49.9843644}, {"type": "node", "id": 3587664607, "lat": 40.3730984, "lon": 49.9794622}, {"type": "node", "id": 3587664608, "lat": 40.3731291, "lon": 49.97893}, {"type": "node", "id": 3587664616, "lat": 40.3733712, "lon": 49.9789109}, {"type": "node", "id": 3587664617, "lat": 40.3733712, "lon": 49.9791061}, {"type": "node", "id": 11012772982, "lat": 40.3745871, "lon": 49.9690282}, {"type": "node", "id": 11012772983, "lat": 40.3746198, "lon": 49.9690296}, {"type": "node", "id": 11012772984, "lat": 40.3746208, "lon": 49.9692468}, {"type": "node", "id": 11012772985, "lat": 40.3742408, "lon": 49.9692428}, {"type": "node", "id": 11012772986, "lat": 40.3742408, "lon": 49.9689572}, {"type": "node", "id": 11012772987, "lat": 40.374583, "lon": 49.9689531}, {"type": "node", "id": 11012835401, "lat": 40.3797978, "lon": 49.9690182}, {"type": "node", "id": 11012835404, "lat": 40.3797669, "lon": 49.969106}, {"type": "node", "id": 11012835405, "lat": 40.3798353, "lon": 49.9689116}, {"type": "node", "id": 11012971272, "lat": 40.3791723, "lon": 49.9653737}, {"type": "node", "id": 11012971273, "lat": 40.3789455, "lon": 49.9654247}, {"type": "node", "id": 11012971274, "lat": 40.3788822, "lon": 49.9653523}, {"type": "node", "id": 11012971275, "lat": 40.3788852, "lon": 49.9651404}, {"type": "node", "id": 11012971276, "lat": 40.3791682, "lon": 49.9651283}, {"type": "node", "id": 11012971441, "lat": 40.3739311, "lon": 49.9646974}, {"type": "node", "id": 11012971450, "lat": 40.3754709, "lon": 49.964926}, {"type": "node", "id": 11012971451, "lat": 40.3754555, "lon": 49.9649794}, {"type": "node", "id": 11012971452, "lat": 40.3741233, "lon": 49.9650438}, {"type": "node", "id": 11012971453, "lat": 40.3741294, "lon": 49.9652597}, {"type": "node", "id": 11012971454, "lat": 40.3739414, "lon": 49.9652678}, {"type": "node", "id": 11012971455, "lat": 40.3739414, "lon": 49.9651095}, {"type": "node", "id": 11012971456, "lat": 40.3735552, "lon": 49.9651659}, {"type": "node", "id": 11012971457, "lat": 40.3735562, "lon": 49.9652852}, {"type": "node", "id": 11012971461, "lat": 40.3735419, "lon": 49.9648842}, {"type": "node", "id": 11012971462, "lat": 40.3735715, "lon": 49.9649942}, {"type": "node", "id": 11012971463, "lat": 40.3737371, "lon": 49.9649271}, {"type": "node", "id": 11012971464, "lat": 40.3737228, "lon": 49.9648681}, {"type": "node", "id": 11012971465, "lat": 40.3739138, "lon": 49.964793}, {"type": "node", "id": 11012971466, "lat": 40.3738934, "lon": 49.9647139}, {"type": "node", "id": 11012971467, "lat": 40.3739823, "lon": 49.964675}, {"type": "node", "id": 11012971468, "lat": 40.3739986, "lon": 49.9647635}, {"type": "node", "id": 11012971469, "lat": 40.3743644, "lon": 49.9647313}, {"type": "node", "id": 11012971471, "lat": 40.3755005, "lon": 49.9648225}, {"type": "node", "id": 11012971476, "lat": 40.3737967, "lon": 49.9651351}, {"type": "node", "id": 11012971477, "lat": 40.3736184, "lon": 49.9651577}, {"type": "node", "id": 3471462983, "lat": 40.3794301, "lon": 49.9747946}, {"type": "node", "id": 3471471696, "lat": 40.3793303, "lon": 49.9777227}, {"type": "node", "id": 3589092362, "lat": 40.3759441, "lon": 49.9744214}, {"type": "node", "id": 3589092367, "lat": 40.3762515, "lon": 49.9745586}, {"type": "node", "id": 3589092368, "lat": 40.3763068, "lon": 49.9744402}, {"type": "node", "id": 3589092376, "lat": 40.37685, "lon": 49.9746393}, {"type": "node", "id": 3589092377, "lat": 40.3769381, "lon": 49.974755}, {"type": "node", "id": 3589092378, "lat": 40.3770412, "lon": 49.9759905}, {"type": "node", "id": 3589092383, "lat": 40.3776166, "lon": 49.9762202}, {"type": "node", "id": 3589108094, "lat": 40.3783011, "lon": 49.9747308}, {"type": "node", "id": 3589108097, "lat": 40.3783641, "lon": 49.9759614}, {"type": "node", "id": 3589108098, "lat": 40.3784184, "lon": 49.9764907}, {"type": "node", "id": 3589108103, "lat": 40.3784519, "lon": 49.9760184}, {"type": "node", "id": 3589108105, "lat": 40.3785213, "lon": 49.9761639}, {"type": "node", "id": 3589108106, "lat": 40.3785415, "lon": 49.9764943}, {"type": "node", "id": 3589108107, "lat": 40.3785425, "lon": 49.976407}, {"type": "node", "id": 3589108108, "lat": 40.3785808, "lon": 49.974595}, {"type": "node", "id": 3589108111, "lat": 40.3786312, "lon": 49.9761703}, {"type": "node", "id": 3589108112, "lat": 40.3786322, "lon": 49.9760614}, {"type": "node", "id": 3589108113, "lat": 40.3786301, "lon": 49.9746987}, {"type": "node", "id": 3589108117, "lat": 40.3791312, "lon": 49.9749487}, {"type": "node", "id": 3589108118, "lat": 40.3791336, "lon": 49.9763867}, {"type": "node", "id": 3589108119, "lat": 40.3791384, "lon": 49.9760652}, {"type": "node", "id": 3589108127, "lat": 40.3793226, "lon": 49.9743296}, {"type": "node", "id": 3589108128, "lat": 40.3793228, "lon": 49.974733}, {"type": "node", "id": 3589151699, "lat": 40.3782854, "lon": 49.9753744}, {"type": "node", "id": 3589151700, "lat": 40.3783674, "lon": 49.9758426}, {"type": "node", "id": 3589151701, "lat": 40.3783694, "lon": 49.9757887}, {"type": "node", "id": 3589151702, "lat": 40.3784248, "lon": 49.9757134}, {"type": "node", "id": 3589151703, "lat": 40.3784555, "lon": 49.9759179}, {"type": "node", "id": 3589151704, "lat": 40.3784842, "lon": 49.9755278}, {"type": "node", "id": 3589151705, "lat": 40.3784924, "lon": 49.9756596}, {"type": "node", "id": 3589151706, "lat": 40.378517, "lon": 49.9756031}, {"type": "node", "id": 3589151707, "lat": 40.378517, "lon": 49.9759313}, {"type": "node", "id": 3589151708, "lat": 40.3785252, "lon": 49.9757699}, {"type": "node", "id": 3589151709, "lat": 40.3791278, "lon": 49.9757699}, {"type": "node", "id": 3589151710, "lat": 40.3791298, "lon": 49.9753932}, {"type": "node", "id": 9786780760, "lat": 40.3759644, "lon": 49.9743674}, {"type": "node", "id": 9786780761, "lat": 40.3791378, "lon": 49.9743389}, {"type": "node", "id": 11010780525, "lat": 40.3784219, "lon": 49.9760938}, {"type": "node", "id": 11011067324, "lat": 40.3776235, "lon": 49.976069}, {"type": "node", "id": 1671844260, "lat": 40.3828641, "lon": 49.9646737}, {"type": "node", "id": 1671844277, "lat": 40.3822841, "lon": 49.9647483}, {"type": "node", "id": 1671844285, "lat": 40.3823192, "lon": 49.964758}, {"type": "node", "id": 1671844292, "lat": 40.3823547, "lon": 49.9647604}, {"type": "node", "id": 1671844298, "lat": 40.3829047, "lon": 49.9646553}, {"type": "node", "id": 1671844307, "lat": 40.3822421, "lon": 49.9646894}, {"type": "node", "id": 1671844327, "lat": 40.3822596, "lon": 49.964726}, {"type": "node", "id": 2907068907, "lat": 40.3807791, "lon": 49.9650822}, {"type": "node", "id": 2907068908, "lat": 40.3807806, "lon": 49.965278}, {"type": "node", "id": 2907068909, "lat": 40.3809276, "lon": 49.9650803}, {"type": "node", "id": 2907068910, "lat": 40.3809291, "lon": 49.9652761}, {"type": "node", "id": 6210015054, "lat": 40.3854936, "lon": 49.9648553}, {"type": "node", "id": 6210015056, "lat": 40.3854507, "lon": 49.9650248}, {"type": "node", "id": 6210015057, "lat": 40.3845357, "lon": 49.9649521}, {"type": "node", "id": 6210015058, "lat": 40.3845337, "lon": 49.964732}, {"type": "node", "id": 11012835400, "lat": 40.3805029, "lon": 49.9695039}, {"type": "node", "id": 11012835402, "lat": 40.3805372, "lon": 49.9694078}, {"type": "node", "id": 11012835403, "lat": 40.3804697, "lon": 49.9695969}, {"type": "node", "id": 3471462975, "lat": 40.3817933, "lon": 49.9747734}, {"type": "node", "id": 3471462978, "lat": 40.3828014, "lon": 49.9747505}, {"type": "node", "id": 3471462986, "lat": 40.3804382, "lon": 49.9747717}, {"type": "node", "id": 3471471697, "lat": 40.3803384, "lon": 49.9776998}, {"type": "node", "id": 3565460120, "lat": 40.3846956, "lon": 49.9744397}, {"type": "node", "id": 3565460121, "lat": 40.3847212, "lon": 49.9742777}, {"type": "node", "id": 3565460127, "lat": 40.3851238, "lon": 49.9739807}, {"type": "node", "id": 3565460130, "lat": 40.3852662, "lon": 49.9740548}, {"type": "node", "id": 3565460131, "lat": 40.3853011, "lon": 49.9744317}, {"type": "node", "id": 3565460132, "lat": 40.3853406, "lon": 49.9742752}, {"type": "node", "id": 3565460134, "lat": 40.3855589, "lon": 49.9746403}, {"type": "node", "id": 3565460135, "lat": 40.3855663, "lon": 49.9745374}, {"type": "node", "id": 3589108162, "lat": 40.3803869, "lon": 49.9777061}, {"type": "node", "id": 3589108183, "lat": 40.3808795, "lon": 49.9746375}, {"type": "node", "id": 3589108184, "lat": 40.380879, "lon": 49.9746866}, {"type": "node", "id": 3589108185, "lat": 40.3810037, "lon": 49.9742986}, {"type": "node", "id": 3589108186, "lat": 40.381033, "lon": 49.9743769}, {"type": "node", "id": 3589108187, "lat": 40.38121, "lon": 49.9746264}, {"type": "node", "id": 3589108188, "lat": 40.381484, "lon": 49.974292}, {"type": "node", "id": 3589108295, "lat": 40.3826402, "lon": 49.9743447}, {"type": "node", "id": 3589151726, "lat": 40.3811015, "lon": 49.9743359}, {"type": "node", "id": 3589151727, "lat": 40.3814417, "lon": 49.9746264}, {"type": "node", "id": 3589151728, "lat": 40.3815196, "lon": 49.9744838}, {"type": "node", "id": 3589151729, "lat": 40.3816385, "lon": 49.974769}, {"type": "node", "id": 3589151732, "lat": 40.3817, "lon": 49.974648}, {"type": "node", "id": 3589151770, "lat": 40.3828019, "lon": 49.9747881}, {"type": "node", "id": 3589151773, "lat": 40.3829067, "lon": 49.9769261}, {"type": "node", "id": 3589151774, "lat": 40.3829088, "lon": 49.9769947}, {"type": "node", "id": 3589151775, "lat": 40.3829133, "lon": 49.9747852}, {"type": "node", "id": 3589151779, "lat": 40.3832248, "lon": 49.9745107}, {"type": "node", "id": 3589151780, "lat": 40.3832269, "lon": 49.9744069}, {"type": "node", "id": 3589151786, "lat": 40.3834269, "lon": 49.9764623}, {"type": "node", "id": 3589151788, "lat": 40.3834212, "lon": 49.9768602}, {"type": "node", "id": 3589151794, "lat": 40.3836471, "lon": 49.9762067}, {"type": "node", "id": 3589151796, "lat": 40.3836785, "lon": 49.9769013}, {"type": "node", "id": 9786780728, "lat": 40.3856133, "lon": 49.9745589}, {"type": "node", "id": 9786780729, "lat": 40.3856061, "lon": 49.9746126}, {"type": "node", "id": 9786780763, "lat": 40.3811052, "lon": 49.9743055}, {"type": "node", "id": 11011067234, "lat": 40.3850862, "lon": 49.9744825}, {"type": "node", "id": 11011067235, "lat": 40.3849738, "lon": 49.9740614}, {"type": "node", "id": 11011067236, "lat": 40.3849197, "lon": 49.9742398}, {"type": "node", "id": 11011067237, "lat": 40.3849299, "lon": 49.9743041}, {"type": "node", "id": 11011067238, "lat": 40.3846847, "lon": 49.9743806}, {"type": "node", "id": 11011067318, "lat": 40.3806884, "lon": 49.9745724}, {"type": "node", "id": 11011067319, "lat": 40.3807497, "lon": 49.9746864}, {"type": "node", "id": 11011067320, "lat": 40.3805106, "lon": 49.9745147}, {"type": "node", "id": 11011067321, "lat": 40.380437, "lon": 49.9745952}, {"type": "node", "id": 11011067322, "lat": 40.3812196, "lon": 49.9745522}, {"type": "node", "id": 1498382688, "lat": 40.3796276, "lon": 49.9842688}, {"type": "node", "id": 3587664626, "lat": 40.3742157, "lon": 49.9794469}, {"type": "node", "id": 3587664633, "lat": 40.3745919, "lon": 49.9791023}, {"type": "node", "id": 3587664634, "lat": 40.3745963, "lon": 49.9791444}, {"type": "node", "id": 3589108125, "lat": 40.3792022, "lon": 49.9778094}, {"type": "node", "id": 3589108126, "lat": 40.3792142, "lon": 49.9779445}, {"type": "node", "id": 3589108133, "lat": 40.3797059, "lon": 49.9797396}, {"type": "node", "id": 3589108137, "lat": 40.3798011, "lon": 49.9797902}, {"type": "node", "id": 3589108139, "lat": 40.3797265, "lon": 49.9796811}, {"type": "node", "id": 3589108142, "lat": 40.3798031, "lon": 49.978221}, {"type": "node", "id": 3589108145, "lat": 40.3798332, "lon": 49.9797216}, {"type": "node", "id": 3589108147, "lat": 40.3799252, "lon": 49.9791753}, {"type": "node", "id": 3589108148, "lat": 40.3799493, "lon": 49.9782208}, {"type": "node", "id": 3589151697, "lat": 40.3781854, "lon": 49.9784504}, {"type": "node", "id": 3589151698, "lat": 40.3781766, "lon": 49.9782524}, {"type": "node", "id": 3589151712, "lat": 40.3795154, "lon": 49.9784493}, {"type": "node", "id": 3589151713, "lat": 40.3795254, "lon": 49.978241}, {"type": "node", "id": 3593915065, "lat": 40.378478, "lon": 49.9841745}, {"type": "node", "id": 3593915066, "lat": 40.3785934, "lon": 49.9842718}, {"type": "node", "id": 3593915068, "lat": 40.3787022, "lon": 49.9842999}, {"type": "node", "id": 5088260867, "lat": 40.3797696, "lon": 49.9793835}, {"type": "node", "id": 11011121796, "lat": 40.3798762, "lon": 49.9795532}, {"type": "node", "id": 11012545797, "lat": 40.3794308, "lon": 49.9804384}, {"type": "node", "id": 11012545798, "lat": 40.3793654, "lon": 49.980382}, {"type": "node", "id": 11012545799, "lat": 40.3792836, "lon": 49.9805121}, {"type": "node", "id": 11012545800, "lat": 40.3793419, "lon": 49.9805738}, {"type": "node", "id": 11012545801, "lat": 40.37916, "lon": 49.9808554}, {"type": "node", "id": 11012545802, "lat": 40.3790763, "lon": 49.9807535}, {"type": "node", "id": 11012545803, "lat": 40.3795299, "lon": 49.980087}, {"type": "node", "id": 11012545804, "lat": 40.3796095, "lon": 49.9801594}, {"type": "node", "id": 11012545869, "lat": 40.3785941, "lon": 49.9784294}, {"type": "node", "id": 11012545870, "lat": 40.3784337, "lon": 49.9784307}, {"type": "node", "id": 11012545871, "lat": 40.3784316, "lon": 49.978251}, {"type": "node", "id": 11012545872, "lat": 40.3785971, "lon": 49.978247}, {"type": "node", "id": 11012545877, "lat": 40.3798037, "lon": 49.9786144}, {"type": "node", "id": 11012545918, "lat": 40.3799548, "lon": 49.9788022}, {"type": "node", "id": 1498382690, "lat": 40.3796589, "lon": 49.9844677}, {"type": "node", "id": 3593915064, "lat": 40.3783986, "lon": 49.9843398}, {"type": "node", "id": 3593915069, "lat": 40.3787859, "lon": 49.9844813}, {"type": "node", "id": 3593915081, "lat": 40.3792792, "lon": 49.9843107}, {"type": "node", "id": 3593915082, "lat": 40.3793009, "lon": 49.9844893}, {"type": "node", "id": 10075671766, "lat": 40.3785471, "lon": 49.9844268}, {"type": "node", "id": 10075671767, "lat": 40.3786672, "lon": 49.9844693}, {"type": "node", "id": 1430884872, "lat": 40.3819064, "lon": 49.9781111}, {"type": "node", "id": 1430884875, "lat": 40.3819301, "lon": 49.9782641}, {"type": "node", "id": 1430884877, "lat": 40.3819924, "lon": 49.9785535}, {"type": "node", "id": 1430884884, "lat": 40.3821082, "lon": 49.9788062}, {"type": "node", "id": 1430884894, "lat": 40.3822138, "lon": 49.9788022}, {"type": "node", "id": 1430884915, "lat": 40.3843058, "lon": 49.9780765}, {"type": "node", "id": 1430884919, "lat": 40.3844071, "lon": 49.9780962}, {"type": "node", "id": 1430884925, "lat": 40.3845718, "lon": 49.9787285}, {"type": "node", "id": 1430884927, "lat": 40.3845138, "lon": 49.9781564}, {"type": "node", "id": 1487683960, "lat": 40.3802193, "lon": 49.9836328}, {"type": "node", "id": 1487683962, "lat": 40.3802308, "lon": 49.983933}, {"type": "node", "id": 1487683981, "lat": 40.381265, "lon": 49.9835925}, {"type": "node", "id": 1487683983, "lat": 40.3812592, "lon": 49.9838777}, {"type": "node", "id": 1498382692, "lat": 40.3814194, "lon": 49.9842471}, {"type": "node", "id": 3589108163, "lat": 40.3803848, "lon": 49.9779526}, {"type": "node", "id": 3589152762, "lat": 40.3845616, "lon": 49.9782814}, {"type": "node", "id": 3593868837, "lat": 40.3838483, "lon": 49.9800118}, {"type": "node", "id": 3593868841, "lat": 40.3839432, "lon": 49.980156}, {"type": "node", "id": 3593868842, "lat": 40.38395, "lon": 49.9798659}, {"type": "node", "id": 3593868844, "lat": 40.3840625, "lon": 49.9797556}, {"type": "node", "id": 3593868846, "lat": 40.3840801, "lon": 49.980188}, {"type": "node", "id": 3593868848, "lat": 40.3841275, "lon": 49.9798641}, {"type": "node", "id": 3593868854, "lat": 40.3842997, "lon": 49.9798944}, {"type": "node", "id": 3593868856, "lat": 40.3843282, "lon": 49.9800706}, {"type": "node", "id": 3593868861, "lat": 40.3844488, "lon": 49.980083}, {"type": "node", "id": 3593868862, "lat": 40.3844786, "lon": 49.9801862}, {"type": "node", "id": 3593868864, "lat": 40.3845003, "lon": 49.9802468}, {"type": "node", "id": 3593868866, "lat": 40.3845464, "lon": 49.9800901}, {"type": "node", "id": 3593868869, "lat": 40.3845789, "lon": 49.9799852}, {"type": "node", "id": 3593868871, "lat": 40.3846386, "lon": 49.9800065}, {"type": "node", "id": 3593868878, "lat": 40.3847009, "lon": 49.9802485}, {"type": "node", "id": 3593868881, "lat": 40.3847186, "lon": 49.9803215}, {"type": "node", "id": 3593870353, "lat": 40.3801352, "lon": 49.9797646}, {"type": "node", "id": 3593870358, "lat": 40.3802114, "lon": 49.9802226}, {"type": "node", "id": 3593870362, "lat": 40.3802631, "lon": 49.9800238}, {"type": "node", "id": 3593870363, "lat": 40.3802785, "lon": 49.9802201}, {"type": "node", "id": 3593870387, "lat": 40.3808935, "lon": 49.9797661}, {"type": "node", "id": 3593870388, "lat": 40.3809015, "lon": 49.9800339}, {"type": "node", "id": 3593870851, "lat": 40.3830777, "lon": 49.9812837}, {"type": "node", "id": 3593870852, "lat": 40.383079, "lon": 49.9812161}, {"type": "node", "id": 3593870854, "lat": 40.3831129, "lon": 49.9813086}, {"type": "node", "id": 3593870855, "lat": 40.3831306, "lon": 49.9811841}, {"type": "node", "id": 3593870870, "lat": 40.3834383, "lon": 49.9811592}, {"type": "node", "id": 3593870878, "lat": 40.3835711, "lon": 49.9811147}, {"type": "node", "id": 3593870884, "lat": 40.3836877, "lon": 49.9812909}, {"type": "node", "id": 3593870887, "lat": 40.383727, "lon": 49.9812517}, {"type": "node", "id": 3593885394, "lat": 40.3848283, "lon": 49.9799691}, {"type": "node", "id": 3593885418, "lat": 40.3851184, "lon": 49.9803055}, {"type": "node", "id": 3593895662, "lat": 40.3837923, "lon": 49.9825339}, {"type": "node", "id": 3593895663, "lat": 40.3838004, "lon": 49.9826976}, {"type": "node", "id": 3593895664, "lat": 40.3838235, "lon": 49.9828008}, {"type": "node", "id": 3593895665, "lat": 40.3838303, "lon": 49.9824485}, {"type": "node", "id": 3593895666, "lat": 40.3838913, "lon": 49.9829343}, {"type": "node", "id": 3593895667, "lat": 40.3839916, "lon": 49.9824342}, {"type": "node", "id": 3593895668, "lat": 40.3840038, "lon": 49.9829325}, {"type": "node", "id": 6208359373, "lat": 40.3847522, "lon": 49.9822381}, {"type": "node", "id": 6208359374, "lat": 40.3844999, "lon": 49.9822441}, {"type": "node", "id": 6208359375, "lat": 40.3843577, "lon": 49.9823886}, {"type": "node", "id": 6208359376, "lat": 40.38436, "lon": 49.9825783}, {"type": "node", "id": 6208359377, "lat": 40.385095, "lon": 49.9825913}, {"type": "node", "id": 6208359378, "lat": 40.3851371, "lon": 49.9825379}, {"type": "node", "id": 6208359379, "lat": 40.3848044, "lon": 49.9823404}, {"type": "node", "id": 9786780806, "lat": 40.3807988, "lon": 49.9794494}, {"type": "node", "id": 9786780810, "lat": 40.3806434, "lon": 49.9782939}, {"type": "node", "id": 9786780811, "lat": 40.3806824, "lon": 49.9794475}, {"type": "node", "id": 9786780812, "lat": 40.3810684, "lon": 49.9794615}, {"type": "node", "id": 9786780813, "lat": 40.3810868, "lon": 49.9782738}, {"type": "node", "id": 9786780814, "lat": 40.3809805, "lon": 49.9794602}, {"type": "node", "id": 11010972224, "lat": 40.38337, "lon": 49.98199}, {"type": "node", "id": 11010972225, "lat": 40.382942, "lon": 49.9819927}, {"type": "node", "id": 11010972226, "lat": 40.3829113, "lon": 49.9818492}, {"type": "node", "id": 11010972227, "lat": 40.3830155, "lon": 49.9813972}, {"type": "node", "id": 11010972228, "lat": 40.3830952, "lon": 49.9814147}, {"type": "node", "id": 11010972229, "lat": 40.3831739, "lon": 49.9816976}, {"type": "node", "id": 11010972230, "lat": 40.383371, "lon": 49.9817365}, {"type": "node", "id": 11011092241, "lat": 40.3848523, "lon": 49.9824259}, {"type": "node", "id": 1498382693, "lat": 40.3814201, "lon": 49.9844675}, {"type": "node", "id": 5059720841, "lat": 40.366599, "lon": 49.998627}, {"type": "node", "id": 5059720842, "lat": 40.3666425, "lon": 49.9981913}, {"type": "node", "id": 5059720843, "lat": 40.366211, "lon": 49.9981172}, {"type": "node", "id": 5059720845, "lat": 40.3661682, "lon": 49.9985463}, {"type": "node", "id": 9925519740, "lat": 40.3665071, "lon": 50.0012979}, {"type": "node", "id": 9925519741, "lat": 40.3663968, "lon": 50.0012684}, {"type": "node", "id": 9925519742, "lat": 40.3664009, "lon": 50.0016627}, {"type": "node", "id": 9925519743, "lat": 40.3661597, "lon": 50.0016063}, {"type": "node", "id": 9925519744, "lat": 40.3659696, "lon": 50.0016975}, {"type": "node", "id": 9925519745, "lat": 40.3652769, "lon": 50.0014964}, {"type": "node", "id": 9925519746, "lat": 40.3653586, "lon": 50.0011611}, {"type": "node", "id": 9925519747, "lat": 40.3651931, "lon": 50.0011075}, {"type": "node", "id": 9925519748, "lat": 40.3652973, "lon": 50.0006542}, {"type": "node", "id": 9925519749, "lat": 40.3649642, "lon": 50.0005227}, {"type": "node", "id": 9925519750, "lat": 40.3652217, "lon": 49.9996564}, {"type": "node", "id": 9925519751, "lat": 40.366642, "lon": 50.0006595}, {"type": "node", "id": 9925519803, "lat": 40.3665247, "lon": 49.9984966}, {"type": "node", "id": 9925519804, "lat": 40.366545, "lon": 49.9982935}, {"type": "node", "id": 9925519805, "lat": 40.3662936, "lon": 49.9982503}, {"type": "node", "id": 9925519806, "lat": 40.3662762, "lon": 49.9984249}, {"type": "node", "id": 9925519807, "lat": 40.3663261, "lon": 49.9984335}, {"type": "node", "id": 9925519808, "lat": 40.3664672, "lon": 49.9984867}, {"type": "node", "id": 9925519809, "lat": 40.3663124, "lon": 49.9985711}, {"type": "node", "id": 9925519810, "lat": 40.3664557, "lon": 49.9986024}, {"type": "node", "id": 1754706329, "lat": 40.3959393, "lon": 49.9422866}, {"type": "node", "id": 1754706331, "lat": 40.3964742, "lon": 49.9418933}, {"type": "node", "id": 1754706328, "lat": 40.3994142, "lon": 49.9504389}, {"type": "node", "id": 3303727245, "lat": 40.3992643, "lon": 49.9500967}, {"type": "node", "id": 3602259182, "lat": 40.3872205, "lon": 49.9533966}, {"type": "node", "id": 3602259191, "lat": 40.3873223, "lon": 49.9534411}, {"type": "node", "id": 3602261598, "lat": 40.3874262, "lon": 49.9535477}, {"type": "node", "id": 3602261599, "lat": 40.3874825, "lon": 49.953699}, {"type": "node", "id": 3602261600, "lat": 40.3874962, "lon": 49.9537722}, {"type": "node", "id": 9993745647, "lat": 40.387464, "lon": 49.9536494}, {"type": "node", "id": 9993745664, "lat": 40.3869198, "lon": 49.953576}, {"type": "node", "id": 9993745665, "lat": 40.3872201, "lon": 49.953576}, {"type": "node", "id": 9993745666, "lat": 40.3869239, "lon": 49.9533775}, {"type": "node", "id": 3029548399, "lat": 40.3873629, "lon": 49.9618801}, {"type": "node", "id": 3029548400, "lat": 40.3873697, "lon": 49.9622542}, {"type": "node", "id": 3029548404, "lat": 40.3885141, "lon": 49.9618801}, {"type": "node", "id": 3029548405, "lat": 40.3885163, "lon": 49.9622424}, {"type": "node", "id": 3029551633, "lat": 40.3898404, "lon": 49.959366}, {"type": "node", "id": 3029551634, "lat": 40.389848, "lon": 49.9600308}, {"type": "node", "id": 3029551679, "lat": 40.3908884, "lon": 49.9593392}, {"type": "node", "id": 3029551680, "lat": 40.3908858, "lon": 49.9600201}, {"type": "node", "id": 3604352092, "lat": 40.3908051, "lon": 49.9605579}, {"type": "node", "id": 3604352095, "lat": 40.3908129, "lon": 49.961146}, {"type": "node", "id": 3604352097, "lat": 40.3908676, "lon": 49.9605545}, {"type": "node", "id": 3604352099, "lat": 40.3909562, "lon": 49.9606536}, {"type": "node", "id": 3604352100, "lat": 40.3909666, "lon": 49.9607562}, {"type": "node", "id": 3604352125, "lat": 40.3913025, "lon": 49.9611494}, {"type": "node", "id": 3604352126, "lat": 40.3913052, "lon": 49.9607733}, {"type": "node", "id": 11014577042, "lat": 40.3880169, "lon": 49.9629101}, {"type": "node", "id": 11014577043, "lat": 40.3878861, "lon": 49.9629235}, {"type": "node", "id": 11014577044, "lat": 40.387882, "lon": 49.9631515}, {"type": "node", "id": 11014577045, "lat": 40.387688, "lon": 49.9631622}, {"type": "node", "id": 11014577046, "lat": 40.3876839, "lon": 49.9633124}, {"type": "node", "id": 11014577047, "lat": 40.3879944, "lon": 49.9633071}, {"type": "node", "id": 11014577048, "lat": 40.3880005, "lon": 49.9634841}, {"type": "node", "id": 11014577049, "lat": 40.3869893, "lon": 49.9635109}, {"type": "node", "id": 11014577050, "lat": 40.3869709, "lon": 49.9626821}, {"type": "node", "id": 11014577051, "lat": 40.3880108, "lon": 49.9626473}, {"type": "node", "id": 2902439448, "lat": 40.3955905, "lon": 49.9550367}, {"type": "node", "id": 2902439449, "lat": 40.3956307, "lon": 49.9550349}, {"type": "node", "id": 2902439451, "lat": 40.3956403, "lon": 49.9556011}, {"type": "node", "id": 2902439452, "lat": 40.3956654, "lon": 49.956654}, {"type": "node", "id": 2902439453, "lat": 40.3956746, "lon": 49.9572046}, {"type": "node", "id": 2902439454, "lat": 40.3956837, "lon": 49.9555998}, {"type": "node", "id": 2902439455, "lat": 40.3957014, "lon": 49.956653}, {"type": "node", "id": 3601988885, "lat": 40.3956702, "lon": 49.9575784}, {"type": "node", "id": 3602006017, "lat": 40.3953949, "lon": 49.9550061}, {"type": "node", "id": 3602006027, "lat": 40.3955902, "lon": 49.9549884}, {"type": "node", "id": 6203492865, "lat": 40.3982288, "lon": 49.951659}, {"type": "node", "id": 6203492866, "lat": 40.39827, "lon": 49.9517695}, {"type": "node", "id": 6203492867, "lat": 40.3968512, "lon": 49.9528453}, {"type": "node", "id": 6203492868, "lat": 40.3968014, "lon": 49.9527303}, {"type": "node", "id": 2902344733, "lat": 40.3947187, "lon": 49.9590991}, {"type": "node", "id": 2902344734, "lat": 40.3947216, "lon": 49.9593561}, {"type": "node", "id": 2902344738, "lat": 40.3947244, "lon": 49.9596159}, {"type": "node", "id": 2902344739, "lat": 40.3947697, "lon": 49.9593552}, {"type": "node", "id": 2902344741, "lat": 40.3947962, "lon": 49.9590976}, {"type": "node", "id": 2902344742, "lat": 40.3947967, "lon": 49.9591428}, {"type": "node", "id": 2902344745, "lat": 40.3948149, "lon": 49.9592935}, {"type": "node", "id": 2902344746, "lat": 40.3948156, "lon": 49.9593544}, {"type": "node", "id": 2902344747, "lat": 40.394817, "lon": 49.9591425}, {"type": "node", "id": 2902344748, "lat": 40.3948178, "lon": 49.9592176}, {"type": "node", "id": 2902344751, "lat": 40.3948429, "lon": 49.9592172}, {"type": "node", "id": 2902344752, "lat": 40.3948437, "lon": 49.959293}, {"type": "node", "id": 2902344754, "lat": 40.3948593, "lon": 49.9593536}, {"type": "node", "id": 2902344755, "lat": 40.3948621, "lon": 49.9596133}, {"type": "node", "id": 3071965425, "lat": 40.3956397, "lon": 49.9602306}, {"type": "node", "id": 3601988886, "lat": 40.3956931, "lon": 49.9586174}, {"type": "node", "id": 3602006018, "lat": 40.3954462, "lon": 49.9598123}, {"type": "node", "id": 3602006022, "lat": 40.3955212, "lon": 49.9593643}, {"type": "node", "id": 3602006023, "lat": 40.39551, "lon": 49.9586227}, {"type": "node", "id": 3602006026, "lat": 40.3955696, "lon": 49.9601925}, {"type": "node", "id": 3602006030, "lat": 40.3956385, "lon": 49.9593624}, {"type": "node", "id": 1754706330, "lat": 40.3999669, "lon": 49.950051}, {"type": "node", "id": 6285501357, "lat": 40.3900978, "lon": 49.9662167}, {"type": "node", "id": 6285501358, "lat": 40.3901, "lon": 49.9663238}, {"type": "node", "id": 6285501359, "lat": 40.3898059, "lon": 49.9663344}, {"type": "node", "id": 6285501360, "lat": 40.3898037, "lon": 49.9662273}, {"type": "node", "id": 2015439228, "lat": 40.3930689, "lon": 49.9759402}, {"type": "node", "id": 2015439231, "lat": 40.3929525, "lon": 49.9726816}, {"type": "node", "id": 2015439239, "lat": 40.3925053, "lon": 49.9748887}, {"type": "node", "id": 2015439243, "lat": 40.392522, "lon": 49.9742793}, {"type": "node", "id": 2015439248, "lat": 40.3929463, "lon": 49.9729444}, {"type": "node", "id": 2015439250, "lat": 40.3925012, "lon": 49.9746983}, {"type": "node", "id": 2015439251, "lat": 40.3931015, "lon": 49.9733725}, {"type": "node", "id": 2015439253, "lat": 40.3926522, "lon": 49.9753259}, {"type": "node", "id": 2015439260, "lat": 40.392597, "lon": 49.9746393}, {"type": "node", "id": 2015439262, "lat": 40.3925441, "lon": 49.9729229}, {"type": "node", "id": 2015439263, "lat": 40.3926134, "lon": 49.9743818}, {"type": "node", "id": 2015439264, "lat": 40.3929463, "lon": 49.9757336}, {"type": "node", "id": 2015439265, "lat": 40.3930853, "lon": 49.9726869}, {"type": "node", "id": 2015461078, "lat": 40.3922847, "lon": 49.9717321}, {"type": "node", "id": 2015461082, "lat": 40.3922423, "lon": 49.972374}, {"type": "node", "id": 2015461083, "lat": 40.39292, "lon": 49.9717294}, {"type": "node", "id": 2015461084, "lat": 40.3930038, "lon": 49.9724107}, {"type": "node", "id": 2784929982, "lat": 40.3891877, "lon": 49.9759178}, {"type": "node", "id": 2784929984, "lat": 40.3890918, "lon": 49.9758359}, {"type": "node", "id": 2784929987, "lat": 40.3890739, "lon": 49.975854}, {"type": "node", "id": 2784929989, "lat": 40.389186, "lon": 49.9758919}, {"type": "node", "id": 2784929991, "lat": 40.3891785, "lon": 49.9758679}, {"type": "node", "id": 2784929993, "lat": 40.3891659, "lon": 49.9758479}, {"type": "node", "id": 2784929995, "lat": 40.3891493, "lon": 49.9758337}, {"type": "node", "id": 2784929997, "lat": 40.3891303, "lon": 49.9758267}, {"type": "node", "id": 2784929999, "lat": 40.3891105, "lon": 49.9758274}, {"type": "node", "id": 2784930001, "lat": 40.3890617, "lon": 49.9758791}, {"type": "node", "id": 2784930003, "lat": 40.3890568, "lon": 49.9759081}, {"type": "node", "id": 2784930005, "lat": 40.3890597, "lon": 49.9759376}, {"type": "node", "id": 2784930007, "lat": 40.38907, "lon": 49.975964}, {"type": "node", "id": 2784930009, "lat": 40.3890865, "lon": 49.9759843}, {"type": "node", "id": 2784930011, "lat": 40.3891073, "lon": 49.9759959}, {"type": "node", "id": 2784930013, "lat": 40.3891299, "lon": 49.9759976}, {"type": "node", "id": 2784930015, "lat": 40.3891516, "lon": 49.9759891}, {"type": "node", "id": 2784930018, "lat": 40.3891698, "lon": 49.9759714}, {"type": "node", "id": 2784930020, "lat": 40.3891823, "lon": 49.9759467}, {"type": "node", "id": 9786696154, "lat": 40.3878055, "lon": 49.9757321}, {"type": "node", "id": 9786696163, "lat": 40.3877884, "lon": 49.9755397}, {"type": "node", "id": 9786758791, "lat": 40.3924059, "lon": 49.9723816}, {"type": "node", "id": 9786780841, "lat": 40.3887421, "lon": 49.9758477}, {"type": "node", "id": 9786780842, "lat": 40.3887666, "lon": 49.9758531}, {"type": "node", "id": 9786780843, "lat": 40.3887901, "lon": 49.9758397}, {"type": "node", "id": 9786780844, "lat": 40.3888004, "lon": 49.9758169}, {"type": "node", "id": 9786780845, "lat": 40.3887953, "lon": 49.9757794}, {"type": "node", "id": 9786780846, "lat": 40.3887718, "lon": 49.9757592}, {"type": "node", "id": 10075349441, "lat": 40.392542, "lon": 49.9723882}, {"type": "node", "id": 10075349442, "lat": 40.3923397, "lon": 49.9717078}, {"type": "node", "id": 10075498291, "lat": 40.3925828, "lon": 49.9751946}, {"type": "node", "id": 10075498292, "lat": 40.3925419, "lon": 49.9750605}, {"type": "node", "id": 10075685912, "lat": 40.3905767, "lon": 49.9728759}, {"type": "node", "id": 10087721533, "lat": 40.3913182, "lon": 49.9730194}, {"type": "node", "id": 10087721534, "lat": 40.3907994, "lon": 49.9730033}, {"type": "node", "id": 10087721535, "lat": 40.3907891, "lon": 49.9733734}, {"type": "node", "id": 10087721536, "lat": 40.3905753, "lon": 49.9733707}, {"type": "node", "id": 10087721537, "lat": 40.3904148, "lon": 49.9728677}, {"type": "node", "id": 10087721538, "lat": 40.39045, "lon": 49.9725178}, {"type": "node", "id": 10087721539, "lat": 40.3916962, "lon": 49.9725728}, {"type": "node", "id": 10087721547, "lat": 40.3913257, "lon": 49.9729627}, {"type": "node", "id": 10087721548, "lat": 40.3913292, "lon": 49.9727769}, {"type": "node", "id": 10087721549, "lat": 40.3914881, "lon": 49.9727819}, {"type": "node", "id": 10087721550, "lat": 40.3914895, "lon": 49.9727064}, {"type": "node", "id": 10087721551, "lat": 40.3916886, "lon": 49.9727127}, {"type": "node", "id": 2015670024, "lat": 40.3982799, "lon": 49.9708685}, {"type": "node", "id": 2015670029, "lat": 40.3972831, "lon": 49.9709435}, {"type": "node", "id": 2015670036, "lat": 40.3974512, "lon": 49.9708376}, {"type": "node", "id": 2015670048, "lat": 40.3974547, "lon": 49.9709114}, {"type": "node", "id": 4099956065, "lat": 40.394608, "lon": 49.9659292}, {"type": "node", "id": 4099956067, "lat": 40.3946632, "lon": 49.9663422}, {"type": "node", "id": 4099956070, "lat": 40.394896, "lon": 49.9659171}, {"type": "node", "id": 4099956072, "lat": 40.3949215, "lon": 49.9662872}, {"type": "node", "id": 9786623953, "lat": 40.3948717, "lon": 49.9658726}, {"type": "node", "id": 11289661000, "lat": 40.3995842, "lon": 49.9665619}, {"type": "node", "id": 11289661001, "lat": 40.3996189, "lon": 49.9662602}, {"type": "node", "id": 1103964640, "lat": 40.3940196, "lon": 49.9747887}, {"type": "node", "id": 1103964641, "lat": 40.3949211, "lon": 49.9748043}, {"type": "node", "id": 1103964642, "lat": 40.3939702, "lon": 49.9755955}, {"type": "node", "id": 1103964643, "lat": 40.394961, "lon": 49.9727206}, {"type": "node", "id": 1103964644, "lat": 40.3933488, "lon": 49.9757223}, {"type": "node", "id": 1103964646, "lat": 40.3932123, "lon": 49.972677}, {"type": "node", "id": 2015439235, "lat": 40.3931874, "lon": 49.9760662}, {"type": "node", "id": 2015439237, "lat": 40.3933166, "lon": 49.9758785}, {"type": "node", "id": 2015439241, "lat": 40.3933324, "lon": 49.9760609}, {"type": "node", "id": 2015670021, "lat": 40.3983289, "lon": 49.9716838}, {"type": "node", "id": 2015670022, "lat": 40.3983003, "lon": 49.9712225}, {"type": "node", "id": 2015670023, "lat": 40.3972443, "lon": 49.9726869}, {"type": "node", "id": 2015670032, "lat": 40.3992169, "lon": 49.9770092}, {"type": "node", "id": 2015670035, "lat": 40.3983146, "lon": 49.9727135}, {"type": "node", "id": 2015670045, "lat": 40.3983371, "lon": 49.9725582}, {"type": "node", "id": 2015670053, "lat": 40.3992248, "lon": 49.9766968}, {"type": "node", "id": 3600152916, "lat": 40.3932421, "lon": 49.9736782}, {"type": "node", "id": 3600152936, "lat": 40.3937524, "lon": 49.9757552}, {"type": "node", "id": 3600152940, "lat": 40.3937694, "lon": 49.9755764}, {"type": "node", "id": 3600152994, "lat": 40.3942977, "lon": 49.9747935}, {"type": "node", "id": 3600153001, "lat": 40.3943235, "lon": 49.9727082}, {"type": "node", "id": 3600153057, "lat": 40.394941, "lon": 49.973766}, {"type": "node", "id": 10073814118, "lat": 40.3992209, "lon": 49.976852}, {"type": "node", "id": 10075349443, "lat": 40.3931793, "lon": 49.9734136}, {"type": "node", "id": 10075349444, "lat": 40.393216, "lon": 49.9743712}, {"type": "node", "id": 10075349445, "lat": 40.3932651, "lon": 49.9743444}, {"type": "node", "id": 10075498290, "lat": 40.3931302, "lon": 49.9760315}, {"type": "node", "id": 10075538459, "lat": 40.3949279, "lon": 49.9744518}, {"type": "node", "id": 10075685860, "lat": 40.393645, "lon": 49.9724159}, {"type": "node", "id": 10075685861, "lat": 40.3936552, "lon": 49.9717936}, {"type": "node", "id": 10075685862, "lat": 40.3940556, "lon": 49.971815}, {"type": "node", "id": 10075685863, "lat": 40.3940475, "lon": 49.9724252}, {"type": "node", "id": 10087686881, "lat": 40.3924868, "lon": 49.9811062}, {"type": "node", "id": 10087686882, "lat": 40.3922641, "lon": 49.9810687}, {"type": "node", "id": 10087686883, "lat": 40.3922968, "lon": 49.9801943}, {"type": "node", "id": 10087686884, "lat": 40.3925746, "lon": 49.9802533}, {"type": "node", "id": 10087686885, "lat": 40.3926073, "lon": 49.9800119}, {"type": "node", "id": 10087686886, "lat": 40.3923785, "lon": 49.9799421}, {"type": "node", "id": 10087686887, "lat": 40.3925337, "lon": 49.9784803}, {"type": "node", "id": 10087686888, "lat": 40.3926972, "lon": 49.9783999}, {"type": "node", "id": 10087686889, "lat": 40.3927993, "lon": 49.9784374}, {"type": "node", "id": 11012609660, "lat": 40.3871925, "lon": 49.9825895}, {"type": "node", "id": 11012609661, "lat": 40.3870546, "lon": 49.9824876}, {"type": "node", "id": 11012609662, "lat": 40.3868422, "lon": 49.9822408}, {"type": "node", "id": 11012609663, "lat": 40.38693, "lon": 49.9820276}, {"type": "node", "id": 11012609664, "lat": 40.3872038, "lon": 49.9821416}, {"type": "node", "id": 11012609665, "lat": 40.3872079, "lon": 49.9820329}, {"type": "node", "id": 11012609666, "lat": 40.3869576, "lon": 49.9819417}, {"type": "node", "id": 11012609667, "lat": 40.3869974, "lon": 49.9817285}, {"type": "node", "id": 11012609668, "lat": 40.387023, "lon": 49.9815032}, {"type": "node", "id": 11012609669, "lat": 40.387024, "lon": 49.9813436}, {"type": "node", "id": 11012609670, "lat": 40.3871149, "lon": 49.9813396}, {"type": "node", "id": 11012609671, "lat": 40.3871159, "lon": 49.9814656}, {"type": "node", "id": 11012609672, "lat": 40.3871976, "lon": 49.981463}, {"type": "node", "id": 3600030872, "lat": 40.3969, "lon": 49.9820717}, {"type": "node", "id": 3600030873, "lat": 40.3968968, "lon": 49.9823751}, {"type": "node", "id": 3600043819, "lat": 40.3974781, "lon": 49.9820822}, {"type": "node", "id": 10073802589, "lat": 40.3974426, "lon": 49.982385}, {"type": "node", "id": 10073802590, "lat": 40.3974364, "lon": 49.9825895}, {"type": "node", "id": 10073802591, "lat": 40.3972403, "lon": 49.9826002}, {"type": "node", "id": 10073802592, "lat": 40.3968051, "lon": 49.9826985}, {"type": "node", "id": 10073802593, "lat": 40.3968031, "lon": 49.9825251}, {"type": "node", "id": 10073802594, "lat": 40.396703, "lon": 49.9824983}, {"type": "node", "id": 10073802595, "lat": 40.396703, "lon": 49.9822569}, {"type": "node", "id": 10073802596, "lat": 40.3965825, "lon": 49.9822354}, {"type": "node", "id": 10073802597, "lat": 40.3966152, "lon": 49.981648}, {"type": "node", "id": 10073802598, "lat": 40.3968521, "lon": 49.9816748}, {"type": "node", "id": 10073802599, "lat": 40.3968542, "lon": 49.9818358}, {"type": "node", "id": 10073802600, "lat": 40.3970605, "lon": 49.9818626}, {"type": "node", "id": 10073802601, "lat": 40.3970605, "lon": 49.9816507}, {"type": "node", "id": 10073802602, "lat": 40.3973277, "lon": 49.9816404}, {"type": "node", "id": 10073802603, "lat": 40.3976691, "lon": 49.9818515}, {"type": "node", "id": 10073802604, "lat": 40.3976692, "lon": 49.9820021}, {"type": "node", "id": 10073802609, "lat": 40.397226, "lon": 49.9827075}, {"type": "node", "id": 10073813825, "lat": 40.397322, "lon": 49.9818224}, {"type": "node", "id": 10073813860, "lat": 40.3994749, "lon": 49.9827799}, {"type": "node", "id": 10073813861, "lat": 40.3995546, "lon": 49.9827719}, {"type": "node", "id": 10073813862, "lat": 40.399575, "lon": 49.9825439}, {"type": "node", "id": 10073813866, "lat": 40.3994627, "lon": 49.9829033}, {"type": "node", "id": 10073813867, "lat": 40.3992931, "lon": 49.9830374}, {"type": "node", "id": 10073813868, "lat": 40.3991992, "lon": 49.9830294}, {"type": "node", "id": 10073813869, "lat": 40.3991951, "lon": 49.9829274}, {"type": "node", "id": 10073813870, "lat": 40.3988764, "lon": 49.9829221}, {"type": "node", "id": 10073813871, "lat": 40.3988642, "lon": 49.9830106}, {"type": "node", "id": 10073813872, "lat": 40.3984087, "lon": 49.9830052}, {"type": "node", "id": 10073813873, "lat": 40.3983923, "lon": 49.9831286}, {"type": "node", "id": 10073813874, "lat": 40.3980737, "lon": 49.9831286}, {"type": "node", "id": 10073813875, "lat": 40.3980737, "lon": 49.9828309}, {"type": "node", "id": 10073813876, "lat": 40.3981349, "lon": 49.9828309}, {"type": "node", "id": 10073813877, "lat": 40.3982391, "lon": 49.9827933}, {"type": "node", "id": 10073813878, "lat": 40.398327, "lon": 49.9825868}, {"type": "node", "id": 10073813879, "lat": 40.3983576, "lon": 49.9826029}, {"type": "node", "id": 10073813880, "lat": 40.3983556, "lon": 49.9826914}, {"type": "node", "id": 10073813881, "lat": 40.398378, "lon": 49.982729}, {"type": "node", "id": 10073813882, "lat": 40.3992747, "lon": 49.9827531}, {"type": "node", "id": 10073813883, "lat": 40.3992727, "lon": 49.9828362}, {"type": "node", "id": 10073813884, "lat": 40.3994647, "lon": 49.9828255}, {"type": "node", "id": 10073813904, "lat": 40.3991563, "lon": 49.9836221}, {"type": "node", "id": 10073813905, "lat": 40.3991644, "lon": 49.98348}, {"type": "node", "id": 10073813906, "lat": 40.3993707, "lon": 49.983488}, {"type": "node", "id": 10073813907, "lat": 40.3993748, "lon": 49.9833137}, {"type": "node", "id": 11289660999, "lat": 40.3999948, "lon": 49.9666625}, {"type": "node", "id": 11289661002, "lat": 40.4000591, "lon": 49.9663943}, {"type": "node", "id": 2015670034, "lat": 40.4002511, "lon": 49.9770543}, {"type": "node", "id": 2015670047, "lat": 40.400259, "lon": 49.976742}, {"type": "node", "id": 10073814119, "lat": 40.4002552, "lon": 49.9768902}, {"type": "node", "id": 10073813863, "lat": 40.3997691, "lon": 49.9825546}, {"type": "node", "id": 10073813864, "lat": 40.3997425, "lon": 49.9826887}, {"type": "node", "id": 10073813865, "lat": 40.3996935, "lon": 49.9827665}, {"type": "node", "id": 10073813903, "lat": 40.3998038, "lon": 49.9836114}, {"type": "node", "id": 10073813908, "lat": 40.3998099, "lon": 49.9833378}, {"type": "node", "id": 10073813909, "lat": 40.4002021, "lon": 49.9834585}, {"type": "node", "id": 10073813910, "lat": 40.4001306, "lon": 49.9834585}, {"type": "node", "id": 10073813911, "lat": 40.4001286, "lon": 49.9836087}, {"type": "node", "id": 10073813912, "lat": 40.3999161, "lon": 49.9836034}, {"type": "node", "id": 10073813913, "lat": 40.3998896, "lon": 49.9832815}, {"type": "node", "id": 10073813914, "lat": 40.3996996, "lon": 49.9832278}, {"type": "node", "id": 10073813915, "lat": 40.3997098, "lon": 49.9829328}, {"type": "node", "id": 10073813916, "lat": 40.4002021, "lon": 49.9829489}]}