{"version": 0.6, "generator": "Overpass API 0.7.62.8 e802775f", "osm3s": {"timestamp_osm_base": "2025-11-23T07:58:40Z", "copyright": "The data included in this document is from www.openstreetmap.org. The data is made available under ODbL."}, "elements": [{"type": "node", "id": 1808672471, "lat": 40.4219255, "lon": 49.7985365, "tags": {"addr:street": "R\u0259\u015fid \u0130smay\u0131lov k\u00fc\u00e7.", "amenity": "restaurant", "name": "Tural Bileceri", "name:en": "Turan restoran"}}, {"type": "node", "id": 1826412956, "lat": 40.415961, "lon": 49.7993435, "tags": {"name": "Komfort \u0130nn Otel \\ Avtova\u011fzal Bak\u0131", "stars": "4", "tourism": "hotel"}}, {"type": "node", "id": 1877218732, "lat": 40.4317727, "lon": 49.7589406, "tags": {"name": "Yuxar\u0131 Sulut\u0259p\u0259", "tourism": "attraction"}}, {"type": "node", "id": 1877218774, "lat": 40.4322093, "lon": 49.7703672, "tags": {"name": "A\u015fa\u011f\u0131 Sulut\u0259p\u0259", "tourism": "attraction"}}, {"type": "node", "id": 1889378111, "lat": 40.4476593, "lon": 49.7746467, "tags": {"amenity": "cafe"}}, {"type": "node", "id": 2895876518, "lat": 40.4366879, "lon": 49.7814285, "tags": {"amenity": "restaurant", "name": "Karvan kafe \\ Bil\u0259c\u0259ri"}}, {"type": "node", "id": 3253631669, "lat": 40.4461048, "lon": 49.7519069, "tags": {"addr:street": "Heyd\u0259r \u018fliev pr.", "amenity": "cafe", "name": "\u00dclvi Kafe \\ X\u0131rdalan"}}, {"type": "node", "id": 3326770910, "lat": 40.4489833, "lon": 49.7568925, "tags": {"historic": "memorial", "name": "Mir\u0259s\u0259dulla Mirqas\u0131mov heyk\u0259li \\ X\u0131rdalan"}}, {"type": "node", "id": 3339531272, "lat": 40.4403811, "lon": 49.7632586, "tags": {"amenity": "restaurant", "name": "Amazonka Restoran \\ X\u0131rdalan"}}, {"type": "node", "id": 4143008389, "lat": 40.4303328, "lon": 49.7855442, "tags": {"addr:street": "Xoc\u0259s\u0259n yolu", "amenity": "restaurant", "internet_access": "wlan", "name": "Murad Palace \u015eadl\u0131q Saray\u0131 \\ Xoc\u0259s\u0259n Dair\u0259si", "opening_hours": "24/7", "operator": "\u018ffsan\u0259 Xan\u0131m", "phone": "00994123463701"}}, {"type": "node", "id": 4352437090, "lat": 40.4497321, "lon": 49.7739722, "tags": {"tourism": "guest_house"}}, {"type": "node", "id": 4429728408, "lat": 40.4200728, "lon": 49.7998364, "tags": {"addr:street": "R. Ismayilov", "amenity": "cafe", "cuisine": "arab;asian;balkan;breakfast;burger;chicken;cake;coffee_shop;diner;grill;international;italian_pizza;kebab;pasta;pizza;russian;sandwich;tea;turkish", "name:en": "Tez-Bazar Fast Food", "opening_hours": "Mo-Su 10:00-22:00", "operator": "Tez-Bazar", "phone": "+994554181304"}}, {"type": "node", "id": 4668388795, "lat": 40.4008041, "lon": 49.7964818, "tags": {"name:tr": "evimiz", "tourism": "guest_house"}}, {"type": "node", "id": 4786674131, "lat": 40.4000054, "lon": 49.7941408, "tags": {"addr:street": "M\u0259h\u0259mm\u0259d Xiyabani", "amenity": "cafe", "internet_access": "wlan", "name:en": "Q\u0259dim Q\u0259b\u0259l\u0259"}}, {"type": "node", "id": 5302348022, "lat": 40.4386532, "lon": 49.7792215, "tags": {"name:en": "T\u0130R park", "tourism": "caravan_site"}}, {"type": "node", "id": 5493233221, "lat": 40.4294182, "lon": 49.7539524, "tags": {"historic": "memorial", "name": "Pasha Baba Qebr"}}, {"type": "node", "id": 5896090567, "lat": 40.4202029, "lon": 49.7974565, "tags": {"amenity": "restaurant", "name": "Qo\u015fa \u00c7inar Restoran \\ Avtova\u011fzal Bil\u0259c\u0259ri"}}, {"type": "node", "id": 6280220485, "lat": 40.4211267, "lon": 49.7992288, "tags": {"name": "Kristal Hotel \\ Bil\u0259c\u0259ri Dair\u0259si", "tourism": "hotel"}}, {"type": "node", "id": 6427881385, "lat": 40.4352441, "lon": 49.775605, "tags": {"name": "Sulut\u0259p\u0259 Dair\u0259si", "tourism": "attraction"}}, {"type": "node", "id": 6447291287, "lat": 40.4428209, "lon": 49.7857594, "tags": {"name:az": "Qap\u0131 darvaza \u00e7exi, sifari\u015fl\u0259", "name:ru": "\u0414\u0432\u0435\u0440\u0438, \u0432\u043e\u0440\u043e\u0442\u0430, \u043e\u043a\u043d\u0430... \u041f\u043e\u0434 \u0437\u0430\u043a\u0430\u0437", "tourism": "artwork"}}, {"type": "node", "id": 6537583387, "lat": 40.440912, "lon": 49.760705, "tags": {"addr:street": "Heyd\u0259r \u018fliyev pr.", "amenity": "cafe", "name": "\u00c7inar kafe \\ X\u0131rdalan"}}, {"type": "node", "id": 6635204693, "lat": 40.4315248, "lon": 49.7982939, "tags": {"addr:street": "Y. Huseynov", "amenity": "cafe", "internet_access": "wlan", "name:en": "VOLQA \u00c7AY EV\u0130"}}, {"type": "node", "id": 8506149273, "lat": 40.4413947, "lon": 49.763984, "tags": {"addr:city": "Xirdalan", "addr:postcode": "AZ0100", "addr:street": "Heyd\u0259r \u018fliev pr.", "amenity": "restaurant", "description": "mostly for weddings (ie. assembly hall)", "name": "Xirdalan \u015eadl\u0131q Saraty\u0131"}}, {"type": "node", "id": 9967288046, "lat": 40.4002508, "lon": 49.7941318, "tags": {"amenity": "restaurant", "contact:facebook": "https://www.facebook.com/palmerarestoran/", "name": "Palmera Restaurant"}}, {"type": "node", "id": 10299316011, "lat": 40.4422348, "lon": 49.7859715, "tags": {"addr:city": "Bil\u0259c\u0259ri", "amenity": "cafe", "name": "D\u00f6rdyol Kafe"}}, {"type": "node", "id": 10299316031, "lat": 40.4465521, "lon": 49.7974768, "tags": {"addr:city": "Bil\u0259c\u0259ri - Dair\u0259vi yol", "amenity": "cafe", "name": "Orxan Kafe"}}, {"type": "node", "id": 10299316032, "lat": 40.447094, "lon": 49.7989936, "tags": {"addr:city": "Bil\u0259c\u0259ri - Dair\u0259vi yol", "amenity": "cafe", "name": "Qaraba\u011f Kafe"}}, {"type": "node", "id": 10299316033, "lat": 40.4475135, "lon": 49.7992699, "tags": {"addr:city": "Bil\u0259c\u0259ri - Dair\u0259vi yol", "amenity": "cafe", "name": "Zirv\u0259 \u00c7ay Evi"}}, {"type": "node", "id": 10299359572, "lat": 40.4375223, "lon": 49.7950105, "tags": {"addr:city": "Bil\u0259c\u0259ri", "amenity": "cafe", "name": "Manqal Kafe"}}, {"type": "node", "id": 10301195189, "lat": 40.4352909, "lon": 49.7763598, "tags": {"amenity": "cafe", "name": "Q\u0131z\u0131l G\u00fcl Kafe \\ Sulut\u0259p\u0259 Dair\u0259si"}}, {"type": "node", "id": 10309432237, "lat": 40.4457346, "lon": 49.7721863, "tags": {"building": "yes", "name": "Yataqxanalar \\ Masaz\u0131r", "tourism": "hostel"}}, {"type": "node", "id": 10537564147, "lat": 40.4467144, "lon": 49.7759441, "tags": {"addr:street": "X\u0131rdalan - Bin\u0259q\u0259di yolu", "amenity": "restaurant", "name": "D\u0259fn\u0259 Restoran \\ Bil\u0259c\u0259ri"}}, {"type": "node", "id": 10537564148, "lat": 40.4471961, "lon": 49.7764188, "tags": {"addr:street": "X\u0131rdalan - Bin\u0259q\u0259di yolu", "amenity": "cafe", "name": "Qala"}}, {"type": "node", "id": 10537564260, "lat": 40.4490244, "lon": 49.7770719, "tags": {"amenity": "restaurant", "name": "\u00c7\u0131ra\u011fan \u015eadl\u0131q Saray\u0131 \\ Bil\u0259c\u0259ri"}}, {"type": "node", "id": 10537626919, "lat": 40.4440077, "lon": 49.7714017, "tags": {"amenity": "restaurant", "name": "K\u00fcr Ail\u0259vi Restoran"}}, {"type": "node", "id": 10537626934, "lat": 40.4436923, "lon": 49.7724411, "tags": {"addr:city": "Bil\u0259c\u0259ri", "amenity": "restaurant", "name": "032 Xal Restoran"}}, {"type": "node", "id": 10537626935, "lat": 40.4436995, "lon": 49.7728743, "tags": {"addr:street": "X\u0131rdalan - Bin\u0259q\u0259di yolu", "amenity": "restaurant", "name": "M\u0259rasim Zal\u0131 \\ Bi\u0131\u0259c\u0259ri"}}, {"type": "node", "id": 10537626940, "lat": 40.4444078, "lon": 49.7733678, "tags": {"addr:street": "X\u0131rdalan - Bin\u0259q\u0259di yolu", "amenity": "cafe", "name": "A\u011fdam"}}, {"type": "node", "id": 10537626941, "lat": 40.4442139, "lon": 49.7731867, "tags": {"addr:street": "X\u0131rdalan - Bin\u0259q\u0259di yolu", "amenity": "cafe", "name": "Tik Tok \u00c7ay Evi"}}, {"type": "node", "id": 10963971950, "lat": 40.4410437, "lon": 49.7598481, "tags": {"amenity": "restaurant", "name": "\u015eah Restoran \\ X\u0131rdalan"}}, {"type": "node", "id": 10984470703, "lat": 40.444913, "lon": 49.7580014, "tags": {"historic": "ruins", "name": "M\u0259\u015f\u0259di \u0130mam Bax\u0131\u015f Hamam \\ X\u0131rdalan"}}, {"type": "node", "id": 10984699070, "lat": 40.4452508, "lon": 49.7538802, "tags": {"addr:street": "Heyd\u0259r \u018fliev pr.", "amenity": "cafe", "name": "MM Club Lounge \\ X\u0131rdalan"}}, {"type": "node", "id": 10984906133, "lat": 40.440811, "lon": 49.7640645, "tags": {"addr:street": "Heyd\u0259r \u018fliev pr.", "amenity": "cafe", "name": "Qala Kafe \\ X\u0131rdalan"}}, {"type": "node", "id": 10984906146, "lat": 40.4411999, "lon": 49.7641973, "tags": {"amenity": "cafe", "name": "Bal\u0131q\u00e7\u0131 Kafe \\ X\u0131rdalan"}}, {"type": "node", "id": 10984906162, "lat": 40.4410223, "lon": 49.7710021, "tags": {"addr:street": "Heyd\u0259r \u018fliev pr.", "amenity": "cafe", "name": "Kibrit Klub Kafe \\ X\u0131rdalan"}}, {"type": "node", "id": 10984906217, "lat": 40.4438036, "lon": 49.7615768, "tags": {"addr:street": "X\u0259tai k\u00fc\u00e7.", "amenity": "cafe", "name": "\u00c7\u0259ll\u0259k Piv\u0259si \\ X\u0131rdalan"}}, {"type": "node", "id": 10989984071, "lat": 40.4418041, "lon": 49.7716807, "tags": {"amenity": "cafe", "name": "Lal\u0259 Kafe \\ X\u0131rdalan Dair\u0259si"}}, {"type": "node", "id": 10989984074, "lat": 40.4416265, "lon": 49.7717048, "tags": {"amenity": "cafe", "name": "\u00c7inar Kafe \\ X\u0131rdalan Dair\u0259si"}}, {"type": "node", "id": 10989984075, "lat": 40.4415663, "lon": 49.7716391, "tags": {"amenity": "cafe", "name": "Mars Kafe \\ X\u0131rdalan Dair\u0259si"}}, {"type": "node", "id": 10989984079, "lat": 40.4372855, "lon": 49.7767648, "tags": {"amenity": "restaurant", "name": "\u015eaml\u0131q Restoran \\ X\u0131rdalan Ekologiya Postu"}}, {"type": "node", "id": 10990059749, "lat": 40.4405426, "lon": 49.7729735, "tags": {"amenity": "restaurant", "name": "Ab\u015feron Restoran \\ X\u0131rdalan Dair\u0259si"}}, {"type": "node", "id": 10990059760, "lat": 40.4414642, "lon": 49.7734013, "tags": {"amenity": "cafe", "name": "Dilan Kafe \\ X\u0131rdalan Dair\u0259si"}}, {"type": "node", "id": 10990059763, "lat": 40.4427452, "lon": 49.7730272, "tags": {"amenity": "cafe", "name": "Avto\u015f D\u00f6n\u0259r \\ X\u0131rdalan Dair\u0259si"}}, {"type": "node", "id": 10990059768, "lat": 40.4427513, "lon": 49.7725953, "tags": {"amenity": "cafe", "name": "H\u0259k\u0259ri Kafe \\ X\u0131rdalan Dair\u0259si"}}, {"type": "node", "id": 10990172653, "lat": 40.4493036, "lon": 49.7505395, "tags": {"addr:street": "R\u0259sulzad\u0259 k\u00fc\u00e7.", "amenity": "cafe", "name": "X\u0131z\u0131 Kafe"}}, {"type": "node", "id": 10990172656, "lat": 40.4496985, "lon": 49.7509271, "tags": {"amenity": "community_centre", "information": "office", "name": "\u0130K Travel \\ X\u0131rdalan", "tourism": "information"}}, {"type": "node", "id": 10990172659, "lat": 40.4498985, "lon": 49.751135, "tags": {"addr:street": "R\u0259sulzad\u0259 k\u00fc\u00e7.", "amenity": "cafe", "name": "L\u0259ziz Manqal"}}, {"type": "node", "id": 10992411940, "lat": 40.4371477, "lon": 49.7792137, "tags": {"amenity": "cafe", "name": "555 Kafe \\ Bil\u0259c\u0259ri"}}, {"type": "node", "id": 10992411957, "lat": 40.4338435, "lon": 49.7839223, "tags": {"addr:street": "Bak\u0131 - Sumqay\u0131t yolu", "amenity": "cafe", "name": "Cofee Line \\ Bil\u0259c\u0259ri"}}, {"type": "node", "id": 11165772903, "lat": 40.4028763, "lon": 49.7702035, "tags": {"name": "MDU - MQU \\ Xoc\u0259s\u0259n", "tourism": "attraction"}}, {"type": "node", "id": 11167593574, "lat": 40.4241432, "lon": 49.7687289, "tags": {"amenity": "restaurant", "name": "Pal\u0131d Restoran \\ Sulut\u0259p\u0259"}}, {"type": "node", "id": 11170224668, "lat": 40.4299347, "lon": 49.7656149, "tags": {"amenity": "restaurant", "name": "H\u0259k\u0259ri Restoran \\ Sulut\u0259p\u0259"}}, {"type": "node", "id": 11170224678, "lat": 40.4309933, "lon": 49.7687303, "tags": {"amenity": "cafe", "name": "Q\u0131z\u0131lqaya Kafe \\ Sulut\u0259p\u0259"}}, {"type": "node", "id": 11170224679, "lat": 40.4311077, "lon": 49.7689234, "tags": {"amenity": "restaurant", "name": "733 Restoran \\ Sulut\u0259p\u0259"}}, {"type": "node", "id": 11170224688, "lat": 40.4325593, "lon": 49.7707003, "tags": {"addr:street": "Ruslan Allahverdiyev k\u00fc\u00e7.", "amenity": "cafe", "name": "OMT Kafe \\ Sulut\u0259p\u0259"}}, {"type": "node", "id": 11170224701, "lat": 40.4317508, "lon": 49.7701773, "tags": {"addr:street": "Ruslan Allahverdiyev k\u00fc\u00e7.", "amenity": "cafe", "name": "Ozan Kafe \\ Sulut\u0259p\u0259"}}, {"type": "node", "id": 11170224702, "lat": 40.4322224, "lon": 49.7706078, "tags": {"addr:street": "Ruslan Allahverdiyev k\u00fc\u00e7.", "amenity": "cafe", "name": "777 Kafe \\ Sulut\u0259p\u0259"}}, {"type": "node", "id": 11170224703, "lat": 40.432054, "lon": 49.7703154, "tags": {"addr:street": "Ruslan Allahverdiyev k\u00fc\u00e7.", "amenity": "cafe", "name": "M\u0259kan Pub \\ Sulut\u0259p\u0259"}}, {"type": "node", "id": 11170224706, "lat": 40.434951, "lon": 49.7748108, "tags": {"amenity": "cafe", "name": "L\u0259ziz D\u00f6n\u0259r \\ Sulut\u0259p\u0259 Dair\u0259si"}}, {"type": "node", "id": 11170224707, "lat": 40.4350633, "lon": 49.7744179, "tags": {"amenity": "cafe", "name": "S\u0259rvan Kafe \\ Sulut\u0259p\u0259 Dair\u0259si"}}, {"type": "node", "id": 11170224757, "lat": 40.4315813, "lon": 49.7698943, "tags": {"amenity": "restaurant", "name": "Firavan \u015eadl\u0131q Saray\u0131 \\ Sulut\u0259p\u0259"}}, {"type": "node", "id": 11170224775, "lat": 40.4318018, "lon": 49.7562942, "tags": {"name": "A\u011f Motel \\ Sulut\u0259p\u0259", "tourism": "motel"}}, {"type": "node", "id": 11170224792, "lat": 40.4126812, "lon": 49.7724049, "tags": {"historic": "monument", "name": "1941-1945 Xocas\u0259n"}}, {"type": "node", "id": 11172537514, "lat": 40.4185013, "lon": 49.7752185, "tags": {"amenity": "cafe", "name": "Cavid Kafe \\ Xoc\u0259s\u0259n"}}, {"type": "node", "id": 11172557240, "lat": 40.4177416, "lon": 49.7745654, "tags": {"addr:street": "Aprel Z\u0259f\u0259ri k\u00fc\u00e7.", "amenity": "restaurant", "name": "Angel \u015eadl\u0131q Saray\u0131 \\ Xoc\u0259s\u0259n"}}, {"type": "node", "id": 11172557245, "lat": 40.4175232, "lon": 49.7744742, "tags": {"amenity": "cafe", "name": "Dostlar\u0131n Kafesi \\ Xoc\u0259s\u0259n"}}, {"type": "node", "id": 11172557289, "lat": 40.4047998, "lon": 49.7704643, "tags": {"addr:street": "Aprel Z\u0259f\u0259ri k\u00fc\u00e7.", "amenity": "cafe", "name": "Xoc\u0259s\u0259n Kafe \\ Xoc\u0259s\u0259n"}}, {"type": "node", "id": 11172557298, "lat": 40.4053247, "lon": 49.7708049, "tags": {"amenity": "restaurant", "name": "M\u0259st \u015eadl\u0131q Saray\u0131 \\ Xoc\u0259s\u0259n"}}, {"type": "node", "id": 11172587737, "lat": 40.4116029, "lon": 49.7726583, "tags": {"amenity": "cafe", "name": "Kafe 5-0 \\ Xoc\u0259s\u0259n"}}, {"type": "node", "id": 11172587787, "lat": 40.4320203, "lon": 49.7729735, "tags": {"addr:street": "Ruslan Allahverdiyev k\u00fc\u00e7.", "name": "\u015e\u0259hid Bula\u011f\u0131 \\ Sulut\u0259p\u0259", "natural": "spring", "tourism": "attraction"}}, {"type": "node", "id": 11172695786, "lat": 40.4287924, "lon": 49.7835696, "tags": {"addr:street": "Aprel Z\u0259f\u0259ri k\u00fc\u00e7.", "amenity": "cafe", "name": "Q\u0259b\u0259l\u0259 Kafe \\ Sulut\u0259p\u0259"}}, {"type": "node", "id": 11172695839, "lat": 40.4227894, "lon": 49.7784331, "tags": {"addr:street": "Aprel Z\u0259f\u0259ri k\u00fc\u00e7.", "name": "Xostel \\ Xoc\u0259s\u0259n", "tourism": "hostel"}}, {"type": "node", "id": 11172695840, "lat": 40.4227047, "lon": 49.778358, "tags": {"addr:street": "Aprel Z\u0259f\u0259ri k\u00fc\u00e7.", "amenity": "cafe", "name": "X\u0259ms\u0259 \u00c7ay Evi \\ Xoc\u0259s\u0259n"}}, {"type": "node", "id": 11172695879, "lat": 40.4244321, "lon": 49.7793142, "tags": {"amenity": "restaurant", "name": "D\u0259r\u0259l\u0259y\u0259s Restoran \\ Sulut\u0259p\u0259"}}, {"type": "node", "id": 11172695897, "lat": 40.4230049, "lon": 49.7786263, "tags": {"amenity": "cafe", "name": "Old \u015e\u0259ki Kafe \\ Sulut\u0259p\u0259"}}, {"type": "node", "id": 11172695922, "lat": 40.4197408, "lon": 49.7761291, "tags": {"addr:street": "Aprel Z\u0259f\u0259ri k\u00fc\u00e7.", "amenity": "cafe", "name": "G\u00f6z\u0259l Kafe \\ Xoc\u0259s\u0259n"}}, {"type": "node", "id": 11177444413, "lat": 40.4213325, "lon": 49.7959614, "tags": {"amenity": "cafe", "name": "\u015e\u0259ki Kafesi \\ Avtova\u011fzal Bak\u0131"}}, {"type": "node", "id": 11177444421, "lat": 40.4190026, "lon": 49.7955886, "tags": {"amenity": "cafe", "name": "Nax\u00e7\u0131van Yem\u0259kl\u0259ri \\ Avtova\u011fzal Bak\u0131"}}, {"type": "node", "id": 11177444423, "lat": 40.4190874, "lon": 49.7949046, "tags": {"name": "Motodrom Qo\u015fa Arka", "tourism": "attraction"}}, {"type": "node", "id": 11177489340, "lat": 40.419701, "lon": 49.7938263, "tags": {"amenity": "restaurant", "name": "\u015e\u0259ms Restoran\u0131 \\ Motodrom"}}, {"type": "node", "id": 11306536917, "lat": 40.432159, "lon": 49.7595206, "tags": {"amenity": "marketplace", "name": "R\u00f6v\u015f\u0259n Market Sulut\u0259p\u0259"}}, {"type": "node", "id": 11378037950, "lat": 40.4379796, "lon": 49.7804569, "tags": {"amenity": "cafe", "name": "Kafe \\ 1 May Bil\u0259c\u0259ri"}}, {"type": "node", "id": 11378042569, "lat": 40.4408314, "lon": 49.7843367, "tags": {"amenity": "cafe", "name": "\u015eamax\u0131 Kafe \\ 1 May Bil\u0259c\u0259ri"}}, {"type": "node", "id": 11663636869, "lat": 40.4435916, "lon": 49.7718421, "tags": {"amenity": "cafe", "name": "Seferin kafesi", "name:en": "Seferin kafesi", "name:ru": "Seferin kafesi"}}, {"type": "node", "id": 12304985589, "lat": 40.4184543, "lon": 49.7956435, "tags": {"amenity": "cafe", "name": "Kafe"}}, {"type": "node", "id": 12305008109, "lat": 40.419239, "lon": 49.7981782, "tags": {"information": "office", "name": "Kart \u00d6d\u0259m\u0259 \\ Avtova\u011fzal Bak\u0131", "tourism": "information"}}, {"type": "node", "id": 12609568104, "lat": 40.4091346, "lon": 49.7588086, "tags": {"addr:city": "Xoc\u0259s\u0259n", "addr:housenumber": "33", "addr:postcode": "Az 1146", "addr:street": "Aprel Z\u0259f\u0259ri k\u00fc\u00e7.", "amenity": "cafe", "cuisine": "regional;kebab;bira;\u00e7ay", "name": "Stop kafe"}}, {"type": "way", "id": 178594708, "nodes": [1889377988, 1889378035, 10537564119, 1889378008, 1889378007, 1889377967, 1889377969, 1889377988], "tags": {"leisure": "park"}}, {"type": "way", "id": 178594709, "nodes": [1889377954, 10537564209, 1889377938, 10537564199, 1889378048, 10537564210, 1889378067, 1889377959, 1889377957, 10537564208, 1889377954], "tags": {"leisure": "park"}}, {"type": "way", "id": 273453956, "nodes": [2783036004, 2782056279, 2782056284, 2782056287, 2783036009, 10537564243, 10537564242, 2996133389, 2996133375, 2996133369, 1889378101, 10537510700, 2996133330, 1889377975, 10537564251, 2783036002, 2783036004], "tags": {"leisure": "park"}}, {"type": "way", "id": 283457730, "nodes": [2873175775, 10307418860, 2873175777, 2873175776, 2873175774, 2873175772, 2873175770, 10307418858, 2873175768, 2873175766, 2873175764, 2873175763, 2873175765, 2873175767, 2873175769, 2873175771, 10307418859, 2873175773, 2873175775], "tags": {"landuse": "grass", "name": "X\u0131rdalan Dair\u0259si", "tourism": "attraction"}}, {"type": "way", "id": 295851891, "nodes": [2996132911, 10989979762, 2996132909, 2996132905, 2996133237, 1889388986, 2996133293, 2996133309, 1889377925, 1889377933, 2996133317, 2996133239, 10307253301, 10307253300, 2996132931, 2996132911], "tags": {"leisure": "park"}}, {"type": "way", "id": 301786015, "nodes": [3059196020, 3059196001, 3059195999, 11172664834, 3059196002, 11172664830, 11172664831, 11172664832, 3059196005, 3059196013, 3059196018, 3059196020], "tags": {"leisure": "park", "name": "\u00c7inarl\u0131 Otel \\ Xoc\u0259s\u0259n Dair\u0259si", "tourism": "hotel"}}, {"type": "way", "id": 378449054, "nodes": [3818555712, 3818562561, 3818562558, 3818555681, 3818555674, 2885712441, 2885712438, 3818555742, 3818555712], "tags": {"addr:city": "Bak\u0131", "addr:street": "Bil\u0259c\u0259ri dair\u0259si", "amenity": "restaurant", "leisure": "park", "name": "Q\u0259dim Q\u0259b\u0259l\u0259 Restoran\u0131 \\ Bil\u0259c\u0259ri Dair\u0259si"}}, {"type": "way", "id": 378449066, "nodes": [3818555773, 3818555776, 3818555779, 3818555778, 3818555775, 3818555771, 3818555766, 3818555761, 3818555756, 3818555748, 3818555745, 3818555747, 3818555751, 3818555758, 3818555763, 3818555769, 3818555773], "tags": {"landuse": "grass", "name": "Bil\u0259c\u0259ri Dair\u0259si", "tourism": "attraction"}}, {"type": "way", "id": 378455685, "nodes": [3818649052, 3818649047, 3818649041, 3818649036, 3818649032, 3818649029, 3818649028, 3818649031, 3818649035, 3818649039, 3818649046, 3818649051, 3818649055, 3818649056, 3818649052], "tags": {"landuse": "grass", "name": "Xoc\u0259s\u0259n Dair\u0259si", "tourism": "attraction"}}, {"type": "way", "id": 817336259, "nodes": [7633361101, 7633361100, 11378042619, 11378042592, 7633361099, 7633361098, 7633361097, 7633361096, 7633361095, 11378042593, 7633361094, 11378042590, 7633361101], "tags": {"leisure": "park"}}, {"type": "way", "id": 817336260, "nodes": [7633361105, 7633361104, 7633361103, 7633361102, 7633361105], "tags": {"leisure": "park"}}, {"type": "way", "id": 817336261, "nodes": [7633361109, 7633361108, 7633361107, 7633361106, 7633361109], "tags": {"leisure": "park"}}, {"type": "way", "id": 1059680910, "nodes": [9735878076, 9735839355, 9735878075, 9735878074, 9735878073, 9735878072, 9735878071, 9735878070, 9735878076], "tags": {"leisure": "park"}}, {"type": "way", "id": 1060126450, "nodes": [9740014454, 9740014453, 9740014452, 9740014451, 9740014450, 9740014449, 9740014448, 11175363837, 11175336435, 9740014447, 11177444418, 11177444417, 11177444416, 9740014454], "tags": {"leisure": "park"}}, {"type": "way", "id": 1125031793, "nodes": [3761837231, 10288041215, 10288041214, 10288041213, 10288041212, 10288041211, 10288041210, 3761837234, 3761837231], "tags": {"leisure": "park"}}, {"type": "way", "id": 1126357036, "nodes": [10299289008, 10299289007, 10299289006, 10299289005, 10299289008], "tags": {"amenity": "restaurant", "name": "K\u0259ndimiz Ail\u0259vi Restoran\u0131 \\ Bil\u0259c\u0259ri"}}, {"type": "way", "id": 1126551577, "nodes": [10301195469, 10301195468, 10301195467, 10301195466, 10301195465, 10301195464, 10301195463, 10301195462, 10301195461, 10301195460, 10301195459, 10301195458, 10301195457, 10301195456, 10301195455, 10301195454, 10301195453, 10301195452, 10301195469], "tags": {"leisure": "park"}}, {"type": "way", "id": 1126553614, "nodes": [10301133432, 10301133431, 10301133430, 10301133429, 3059196012, 10301133428, 10301133432], "tags": {"leisure": "park"}}, {"type": "way", "id": 1130701086, "nodes": [10537564178, 10537564177, 10537564176, 10537564175, 10537564174, 10537564173, 10537564172, 10537564171, 10537564178], "tags": {"addr:street": "X\u0131rdalan - Bin\u0259q\u0259di yolu", "name": "Vulkan Motel \\ Bil\u0259c\u0259ri", "tourism": "motel"}}, {"type": "way", "id": 1130703154, "nodes": [10537583566, 10537583558, 10537583565, 10537583564, 10537583563, 10537583560, 10537583562, 10537583561, 10537583566], "tags": {"leisure": "park"}}, {"type": "way", "id": 1176356392, "nodes": [10929790114, 10929790111, 10929790110, 10929790109, 10929790112, 10929790113, 10929790114], "tags": {"leisure": "park"}}, {"type": "way", "id": 1176386611, "nodes": [3339529698, 10929978322, 10929978321, 10929978320, 3339529084, 3339529698], "tags": {"leisure": "park"}}, {"type": "way", "id": 1204756169, "nodes": [11165772891, 11165772890, 11165772889, 11165772888, 11165772887, 11165772886, 11165772885, 11165772884, 11165772891], "tags": {"leisure": "park"}}, {"type": "way", "id": 1205284539, "nodes": [11170224796, 11170224795, 11170224794, 11170224793, 11170224796], "tags": {"leisure": "park"}}, {"type": "way", "id": 1205284558, "nodes": [11170224882, 11170224876, 11170224881, 11170224880, 11170224879, 11170224882], "tags": {"leisure": "park"}}, {"type": "way", "id": 1205284559, "nodes": [11170224886, 11170224885, 11170224884, 11170224883, 11170224886], "tags": {"leisure": "park"}}, {"type": "way", "id": 1205570307, "nodes": [11172587748, 11172587747, 11172587746, 11172587745, 11172587744, 11172587743, 11172587742, 11172587748], "tags": {"leisure": "park"}}, {"type": "way", "id": 1206225990, "nodes": [11177489339, 11177489338, 11177489337, 11177444436, 11177489339], "tags": {"leisure": "park"}}, {"type": "node", "id": 11165772884, "lat": 40.4032966, "lon": 49.7614038}, {"type": "node", "id": 11165772885, "lat": 40.4032455, "lon": 49.7612241}, {"type": "node", "id": 11165772886, "lat": 40.4034416, "lon": 49.7611302}, {"type": "node", "id": 11165772887, "lat": 40.4033578, "lon": 49.7608298}, {"type": "node", "id": 11165772888, "lat": 40.4031577, "lon": 49.760913}, {"type": "node", "id": 11165772889, "lat": 40.4031086, "lon": 49.7606796}, {"type": "node", "id": 11165772890, "lat": 40.4033823, "lon": 49.7607091}, {"type": "node", "id": 11165772891, "lat": 40.4037765, "lon": 49.7610283}, {"type": "node", "id": 11170224793, "lat": 40.4127527, "lon": 49.7725175}, {"type": "node", "id": 11170224794, "lat": 40.4126026, "lon": 49.7725028}, {"type": "node", "id": 11170224795, "lat": 40.4126199, "lon": 49.7723083}, {"type": "node", "id": 11170224796, "lat": 40.4127741, "lon": 49.7723177}, {"type": "node", "id": 11172587742, "lat": 40.4115804, "lon": 49.7689837}, {"type": "node", "id": 11172587743, "lat": 40.4113987, "lon": 49.7689515}, {"type": "node", "id": 11172587744, "lat": 40.4113129, "lon": 49.7688389}, {"type": "node", "id": 11172587745, "lat": 40.411366, "lon": 49.7682434}, {"type": "node", "id": 11172587746, "lat": 40.41127, "lon": 49.7682273}, {"type": "node", "id": 11172587747, "lat": 40.4112802, "lon": 49.7681066}, {"type": "node", "id": 11172587748, "lat": 40.4116438, "lon": 49.7681442}, {"type": "node", "id": 9735839355, "lat": 40.4053401, "lon": 49.7993697}, {"type": "node", "id": 9735878070, "lat": 40.4055809, "lon": 49.8000812}, {"type": "node", "id": 9735878071, "lat": 40.4051374, "lon": 49.7998921}, {"type": "node", "id": 9735878072, "lat": 40.4049613, "lon": 49.8005286}, {"type": "node", "id": 9735878073, "lat": 40.4045955, "lon": 49.8003725}, {"type": "node", "id": 9735878074, "lat": 40.404847, "lon": 49.7994236}, {"type": "node", "id": 9735878075, "lat": 40.405286, "lon": 49.7996158}, {"type": "node", "id": 9735878076, "lat": 40.4057181, "lon": 49.7995468}, {"type": "node", "id": 11170224876, "lat": 40.4183951, "lon": 49.7608794}, {"type": "node", "id": 11170224879, "lat": 40.4187341, "lon": 49.7611637}, {"type": "node", "id": 11170224880, "lat": 40.4184288, "lon": 49.7611128}, {"type": "node", "id": 11170224881, "lat": 40.4183634, "lon": 49.7608821}, {"type": "node", "id": 11170224882, "lat": 40.4187392, "lon": 49.7610497}, {"type": "node", "id": 11170224884, "lat": 40.4187688, "lon": 49.7611664}, {"type": "node", "id": 11170224885, "lat": 40.4187719, "lon": 49.7610524}, {"type": "node", "id": 11170224886, "lat": 40.4193232, "lon": 49.7609062}, {"type": "node", "id": 11170224883, "lat": 40.4193783, "lon": 49.7612911}, {"type": "node", "id": 7633361098, "lat": 40.4324858, "lon": 49.7806674}, {"type": "node", "id": 7633361099, "lat": 40.4325736, "lon": 49.7807157}, {"type": "node", "id": 7633361100, "lat": 40.43318, "lon": 49.7791855}, {"type": "node", "id": 7633361101, "lat": 40.4333751, "lon": 49.7793311}, {"type": "node", "id": 7633361102, "lat": 40.4334217, "lon": 49.7792332}, {"type": "node", "id": 7633361103, "lat": 40.4332198, "lon": 49.7790808}, {"type": "node", "id": 7633361104, "lat": 40.4336709, "lon": 49.7779879}, {"type": "node", "id": 7633361105, "lat": 40.4338522, "lon": 49.7781367}, {"type": "node", "id": 7633361106, "lat": 40.4338969, "lon": 49.7779991}, {"type": "node", "id": 7633361107, "lat": 40.4337108, "lon": 49.777894}, {"type": "node", "id": 7633361108, "lat": 40.4344171, "lon": 49.776333}, {"type": "node", "id": 7633361109, "lat": 40.4345386, "lon": 49.7764531}, {"type": "node", "id": 10301195452, "lat": 40.4380847, "lon": 49.776734}, {"type": "node", "id": 10301195453, "lat": 40.4381102, "lon": 49.7768024}, {"type": "node", "id": 10301195454, "lat": 40.4380051, "lon": 49.7769566}, {"type": "node", "id": 10301195455, "lat": 40.4375835, "lon": 49.7775534}, {"type": "node", "id": 10301195456, "lat": 40.4374233, "lon": 49.777603}, {"type": "node", "id": 10301195457, "lat": 40.4372681, "lon": 49.7773978}, {"type": "node", "id": 10301195458, "lat": 40.4371426, "lon": 49.7774515}, {"type": "node", "id": 10301195459, "lat": 40.4370446, "lon": 49.7771591}, {"type": "node", "id": 10301195460, "lat": 40.4372579, "lon": 49.7768721}, {"type": "node", "id": 10301195461, "lat": 40.4374028, "lon": 49.7770666}, {"type": "node", "id": 10301195462, "lat": 40.4376203, "lon": 49.7768064}, {"type": "node", "id": 10301195463, "lat": 40.4375713, "lon": 49.7767273}, {"type": "node", "id": 10301195464, "lat": 40.4378489, "lon": 49.7763799}, {"type": "node", "id": 10301195465, "lat": 40.4379898, "lon": 49.7765851}, {"type": "node", "id": 10301195466, "lat": 40.4380479, "lon": 49.7765167}, {"type": "node", "id": 10301195467, "lat": 40.4379938, "lon": 49.7763424}, {"type": "node", "id": 10301195468, "lat": 40.4380306, "lon": 49.7762941}, {"type": "node", "id": 10301195469, "lat": 40.4382123, "lon": 49.7765341}, {"type": "node", "id": 11378042590, "lat": 40.43286, "lon": 49.7806161}, {"type": "node", "id": 11378042592, "lat": 40.4326673, "lon": 49.7804792}, {"type": "node", "id": 11378042619, "lat": 40.433159, "lon": 49.7792385}, {"type": "node", "id": 11177489338, "lat": 40.4194743, "lon": 49.7936252}, {"type": "node", "id": 11177489339, "lat": 40.4197959, "lon": 49.7935005}, {"type": "node", "id": 2885712438, "lat": 40.4203777, "lon": 49.8007538}, {"type": "node", "id": 2885712441, "lat": 40.4203213, "lon": 49.8006792}, {"type": "node", "id": 3818555674, "lat": 40.4200791, "lon": 49.8003118}, {"type": "node", "id": 3818555681, "lat": 40.4201924, "lon": 49.8001907}, {"type": "node", "id": 3818555712, "lat": 40.4204972, "lon": 49.7998294}, {"type": "node", "id": 3818555742, "lat": 40.4207274, "lon": 49.8002966}, {"type": "node", "id": 3818555745, "lat": 40.4207442, "lon": 49.7998964}, {"type": "node", "id": 3818555747, "lat": 40.4207485, "lon": 49.7998514}, {"type": "node", "id": 3818555748, "lat": 40.4207533, "lon": 49.7999401}, {"type": "node", "id": 3818555751, "lat": 40.4207655, "lon": 49.7998121}, {"type": "node", "id": 3818555756, "lat": 40.4207744, "lon": 49.7999758}, {"type": "node", "id": 3818555758, "lat": 40.4207928, "lon": 49.7997843}, {"type": "node", "id": 3818555761, "lat": 40.4208044, "lon": 49.7999982}, {"type": "node", "id": 3818555763, "lat": 40.4208261, "lon": 49.7997724}, {"type": "node", "id": 3818555766, "lat": 40.4208386, "lon": 49.8000039}, {"type": "node", "id": 3818555769, "lat": 40.4208602, "lon": 49.799778}, {"type": "node", "id": 3818555771, "lat": 40.4208718, "lon": 49.799992}, {"type": "node", "id": 3818555773, "lat": 40.4208902, "lon": 49.7998004}, {"type": "node", "id": 3818555775, "lat": 40.420899, "lon": 49.7999642}, {"type": "node", "id": 3818555776, "lat": 40.4209113, "lon": 49.7998362}, {"type": "node", "id": 3818555778, "lat": 40.4209161, "lon": 49.7999249}, {"type": "node", "id": 3818555779, "lat": 40.4209205, "lon": 49.7998799}, {"type": "node", "id": 3818562558, "lat": 40.4202409, "lon": 49.8001351}, {"type": "node", "id": 3818562561, "lat": 40.4203009, "lon": 49.8000604}, {"type": "node", "id": 9740014447, "lat": 40.4220165, "lon": 49.7951741}, {"type": "node", "id": 9740014448, "lat": 40.4206342, "lon": 49.7958782}, {"type": "node", "id": 9740014449, "lat": 40.4204872, "lon": 49.7954786}, {"type": "node", "id": 9740014450, "lat": 40.4203922, "lon": 49.7955363}, {"type": "node", "id": 9740014451, "lat": 40.4203146, "lon": 49.795315}, {"type": "node", "id": 9740014452, "lat": 40.4215969, "lon": 49.7945612}, {"type": "node", "id": 9740014453, "lat": 40.4217715, "lon": 49.7945975}, {"type": "node", "id": 9740014454, "lat": 40.4222014, "lon": 49.7943721}, {"type": "node", "id": 11175336435, "lat": 40.4217021, "lon": 49.7952989}, {"type": "node", "id": 11175363837, "lat": 40.4213601, "lon": 49.7954625}, {"type": "node", "id": 11177444416, "lat": 40.4222228, "lon": 49.7944848}, {"type": "node", "id": 11177444417, "lat": 40.4221534, "lon": 49.7946055}, {"type": "node", "id": 11177444418, "lat": 40.4221197, "lon": 49.7946833}, {"type": "node", "id": 11177444436, "lat": 40.4200379, "lon": 49.7944204}, {"type": "node", "id": 11177489337, "lat": 40.4197142, "lon": 49.7945707}, {"type": "node", "id": 3059195999, "lat": 40.4292825, "lon": 49.7865213}, {"type": "node", "id": 3059196001, "lat": 40.4293002, "lon": 49.7863508}, {"type": "node", "id": 3059196002, "lat": 40.4295014, "lon": 49.7868933}, {"type": "node", "id": 3059196005, "lat": 40.4301518, "lon": 49.7874466}, {"type": "node", "id": 3059196012, "lat": 40.4300106, "lon": 49.7858848}, {"type": "node", "id": 3059196013, "lat": 40.4301642, "lon": 49.7870515}, {"type": "node", "id": 3059196018, "lat": 40.4302618, "lon": 49.7870586}, {"type": "node", "id": 3059196020, "lat": 40.4303437, "lon": 49.7864361}, {"type": "node", "id": 3818649028, "lat": 40.4309724, "lon": 49.7855739}, {"type": "node", "id": 3818649029, "lat": 40.4309745, "lon": 49.7855206}, {"type": "node", "id": 3818649031, "lat": 40.4309881, "lon": 49.7856231}, {"type": "node", "id": 3818649032, "lat": 40.4309939, "lon": 49.7854738}, {"type": "node", "id": 3818649035, "lat": 40.4310185, "lon": 49.7856584}, {"type": "node", "id": 3818649036, "lat": 40.4310269, "lon": 49.7854427}, {"type": "node", "id": 3818649039, "lat": 40.4310575, "lon": 49.7856728}, {"type": "node", "id": 3818649041, "lat": 40.4310669, "lon": 49.7854335}, {"type": "node", "id": 3818649046, "lat": 40.4310976, "lon": 49.7856637}, {"type": "node", "id": 3818649047, "lat": 40.431106, "lon": 49.785448}, {"type": "node", "id": 3818649051, "lat": 40.4311306, "lon": 49.7856326}, {"type": "node", "id": 3818649052, "lat": 40.4311363, "lon": 49.7854834}, {"type": "node", "id": 3818649055, "lat": 40.43115, "lon": 49.7855858}, {"type": "node", "id": 3818649056, "lat": 40.4311521, "lon": 49.7855325}, {"type": "node", "id": 7633361094, "lat": 40.4322585, "lon": 49.7821168}, {"type": "node", "id": 7633361095, "lat": 40.432057, "lon": 49.7819576}, {"type": "node", "id": 7633361096, "lat": 40.4323, "lon": 49.7813246}, {"type": "node", "id": 7633361097, "lat": 40.4322469, "lon": 49.7812897}, {"type": "node", "id": 10301133428, "lat": 40.4304652, "lon": 49.7860418}, {"type": "node", "id": 10301133429, "lat": 40.4301706, "lon": 49.785203}, {"type": "node", "id": 10301133430, "lat": 40.4305013, "lon": 49.7854015}, {"type": "node", "id": 10301133431, "lat": 40.4306136, "lon": 49.7854739}, {"type": "node", "id": 10301133432, "lat": 40.4307198, "lon": 49.7856295}, {"type": "node", "id": 11172664830, "lat": 40.4294294, "lon": 49.7870645}, {"type": "node", "id": 11172664831, "lat": 40.4294294, "lon": 49.7876224}, {"type": "node", "id": 11172664832, "lat": 40.4300276, "lon": 49.7876063}, {"type": "node", "id": 11172664834, "lat": 40.4293784, "lon": 49.7865441}, {"type": "node", "id": 11378042593, "lat": 40.4320801, "lon": 49.7819758}, {"type": "node", "id": 3761837231, "lat": 40.4374204, "lon": 49.7928585}, {"type": "node", "id": 10288041211, "lat": 40.4372895, "lon": 49.7933596}, {"type": "node", "id": 10288041212, "lat": 40.4372906, "lon": 49.7931638}, {"type": "node", "id": 10288041213, "lat": 40.43731, "lon": 49.7929908}, {"type": "node", "id": 10288041214, "lat": 40.437359, "lon": 49.7927615}, {"type": "node", "id": 10288041215, "lat": 40.4374192, "lon": 49.7927789}, {"type": "node", "id": 3761837234, "lat": 40.4374686, "lon": 49.7948292}, {"type": "node", "id": 10288041210, "lat": 40.4373671, "lon": 49.7948402}, {"type": "node", "id": 3339529084, "lat": 40.4400944, "lon": 49.7629843}, {"type": "node", "id": 3339529698, "lat": 40.4407819, "lon": 49.7630417}, {"type": "node", "id": 10929978320, "lat": 40.4400394, "lon": 49.763622}, {"type": "node", "id": 10929978321, "lat": 40.4408906, "lon": 49.7635643}, {"type": "node", "id": 10929978322, "lat": 40.4408998, "lon": 49.7632277}, {"type": "node", "id": 10929790109, "lat": 40.4475093, "lon": 49.7634105}, {"type": "node", "id": 10929790110, "lat": 40.447325, "lon": 49.7633456}, {"type": "node", "id": 10929790111, "lat": 40.4474095, "lon": 49.7629313}, {"type": "node", "id": 10929790112, "lat": 40.4475739, "lon": 49.7630938}, {"type": "node", "id": 10929790113, "lat": 40.4474916, "lon": 49.7630648}, {"type": "node", "id": 10929790114, "lat": 40.4475115, "lon": 49.7629672}, {"type": "node", "id": 1889377938, "lat": 40.4455377, "lon": 49.7745273}, {"type": "node", "id": 2873175763, "lat": 40.4418349, "lon": 49.772373}, {"type": "node", "id": 2873175764, "lat": 40.4418351, "lon": 49.7723197}, {"type": "node", "id": 2873175765, "lat": 40.4418511, "lon": 49.772407}, {"type": "node", "id": 2873175766, "lat": 40.4418509, "lon": 49.7722715}, {"type": "node", "id": 2873175767, "lat": 40.441909, "lon": 49.7724981}, {"type": "node", "id": 2873175768, "lat": 40.4418712, "lon": 49.7722481}, {"type": "node", "id": 2873175769, "lat": 40.44194, "lon": 49.7725283}, {"type": "node", "id": 2873175770, "lat": 40.4419141, "lon": 49.772241}, {"type": "node", "id": 2873175771, "lat": 40.4419745, "lon": 49.7725362}, {"type": "node", "id": 2873175772, "lat": 40.4419404, "lon": 49.7722532}, {"type": "node", "id": 2873175773, "lat": 40.4420169, "lon": 49.7725167}, {"type": "node", "id": 2873175774, "lat": 40.4419738, "lon": 49.7722911}, {"type": "node", "id": 2873175775, "lat": 40.442034, "lon": 49.772475}, {"type": "node", "id": 2873175776, "lat": 40.4420079, "lon": 49.7723479}, {"type": "node", "id": 2873175777, "lat": 40.4420303, "lon": 49.7723901}, {"type": "node", "id": 2996132905, "lat": 40.4428582, "lon": 49.7736294}, {"type": "node", "id": 2996132909, "lat": 40.443045, "lon": 49.7733094}, {"type": "node", "id": 2996132911, "lat": 40.4432388, "lon": 49.7730535}, {"type": "node", "id": 2996132931, "lat": 40.4434814, "lon": 49.7730906}, {"type": "node", "id": 2996133239, "lat": 40.4438435, "lon": 49.7732848}, {"type": "node", "id": 10307253300, "lat": 40.4436178, "lon": 49.7731224}, {"type": "node", "id": 10307253301, "lat": 40.4437331, "lon": 49.7731961}, {"type": "node", "id": 10307418858, "lat": 40.4418939, "lon": 49.7722386}, {"type": "node", "id": 10307418859, "lat": 40.4419985, "lon": 49.7725316}, {"type": "node", "id": 10307418860, "lat": 40.4420378, "lon": 49.7724344}, {"type": "node", "id": 10989979762, "lat": 40.4431442, "lon": 49.7732645}, {"type": "node", "id": 1889377925, "lat": 40.4450084, "lon": 49.7758239}, {"type": "node", "id": 1889377933, "lat": 40.4455317, "lon": 49.7747667}, {"type": "node", "id": 1889388986, "lat": 40.4441948, "lon": 49.775606}, {"type": "node", "id": 2996133237, "lat": 40.4438158, "lon": 49.7754965}, {"type": "node", "id": 2996133293, "lat": 40.4448553, "lon": 49.7765655}, {"type": "node", "id": 2996133309, "lat": 40.4452243, "lon": 49.7761239}, {"type": "node", "id": 2996133317, "lat": 40.4454807, "lon": 49.7747199}, {"type": "node", "id": 1889377954, "lat": 40.4456731, "lon": 49.7743244}, {"type": "node", "id": 1889377957, "lat": 40.445776, "lon": 49.7743125}, {"type": "node", "id": 1889377959, "lat": 40.445839, "lon": 49.7743408}, {"type": "node", "id": 1889377967, "lat": 40.445958, "lon": 49.7743016}, {"type": "node", "id": 1889377969, "lat": 40.4459335, "lon": 49.7742232}, {"type": "node", "id": 1889377975, "lat": 40.4461079, "lon": 49.7734322}, {"type": "node", "id": 1889377988, "lat": 40.4461234, "lon": 49.7739413}, {"type": "node", "id": 1889378035, "lat": 40.4465717, "lon": 49.7743545}, {"type": "node", "id": 2782056279, "lat": 40.4466283, "lon": 49.7727884}, {"type": "node", "id": 2782056284, "lat": 40.4473877, "lon": 49.7734777}, {"type": "node", "id": 2782056287, "lat": 40.447662, "lon": 49.7729559}, {"type": "node", "id": 2783036002, "lat": 40.4458347, "lon": 49.7729584}, {"type": "node", "id": 2783036004, "lat": 40.4462589, "lon": 49.772506}, {"type": "node", "id": 2783036009, "lat": 40.4478486, "lon": 49.7731085}, {"type": "node", "id": 2996133330, "lat": 40.4461429, "lon": 49.7734647}, {"type": "node", "id": 2996133369, "lat": 40.4475088, "lon": 49.7744977}, {"type": "node", "id": 2996133375, "lat": 40.4476097, "lon": 49.7742946}, {"type": "node", "id": 2996133389, "lat": 40.4478884, "lon": 49.7736231}, {"type": "node", "id": 10537510700, "lat": 40.4463869, "lon": 49.7736803}, {"type": "node", "id": 10537564119, "lat": 40.446599, "lon": 49.7745426}, {"type": "node", "id": 10537564208, "lat": 40.4457234, "lon": 49.7743079}, {"type": "node", "id": 10537564209, "lat": 40.4456376, "lon": 49.7743441}, {"type": "node", "id": 10537564242, "lat": 40.4478697, "lon": 49.7734711}, {"type": "node", "id": 10537564243, "lat": 40.4477462, "lon": 49.7734}, {"type": "node", "id": 10537564251, "lat": 40.4461632, "lon": 49.7732699}, {"type": "node", "id": 1889378007, "lat": 40.4464564, "lon": 49.7747475}, {"type": "node", "id": 1889378008, "lat": 40.4464952, "lon": 49.7747383}, {"type": "node", "id": 1889378048, "lat": 40.446845, "lon": 49.7757117}, {"type": "node", "id": 1889378067, "lat": 40.4470586, "lon": 49.7754211}, {"type": "node", "id": 1889378101, "lat": 40.4474508, "lon": 49.7746207}, {"type": "node", "id": 10537564171, "lat": 40.4487892, "lon": 49.7772516}, {"type": "node", "id": 10537564172, "lat": 40.4487259, "lon": 49.7772114}, {"type": "node", "id": 10537564173, "lat": 40.4486647, "lon": 49.7773348}, {"type": "node", "id": 10537564174, "lat": 40.4482524, "lon": 49.776962}, {"type": "node", "id": 10537564175, "lat": 40.4483942, "lon": 49.7767031}, {"type": "node", "id": 10537564176, "lat": 40.448432, "lon": 49.7767353}, {"type": "node", "id": 10537564177, "lat": 40.4485412, "lon": 49.7764872}, {"type": "node", "id": 10537564178, "lat": 40.4489382, "lon": 49.77686}, {"type": "node", "id": 10537564199, "lat": 40.4468195, "lon": 49.7756885}, {"type": "node", "id": 10537564210, "lat": 40.4469154, "lon": 49.7757161}, {"type": "node", "id": 10537583558, "lat": 40.4477845, "lon": 49.7761188}, {"type": "node", "id": 10537583560, "lat": 40.4481438, "lon": 49.7767171}, {"type": "node", "id": 10537583561, "lat": 40.4478452, "lon": 49.7762659}, {"type": "node", "id": 10537583562, "lat": 40.4482003, "lon": 49.7766092}, {"type": "node", "id": 10537583563, "lat": 40.4480922, "lon": 49.7768158}, {"type": "node", "id": 10537583564, "lat": 40.4470777, "lon": 49.7758824}, {"type": "node", "id": 10537583565, "lat": 40.4472308, "lon": 49.7756115}, {"type": "node", "id": 10537583566, "lat": 40.4478778, "lon": 49.7762042}, {"type": "node", "id": 10299289005, "lat": 40.4424002, "lon": 49.7855477}, {"type": "node", "id": 10299289006, "lat": 40.4420848, "lon": 49.7859742}, {"type": "node", "id": 10299289007, "lat": 40.4419725, "lon": 49.7858535}, {"type": "node", "id": 10299289008, "lat": 40.4422359, "lon": 49.7853559}]}