{"version": 0.6, "generator": "Overpass API 0.7.62.8 e802775f", "osm3s": {"timestamp_osm_base": "2025-11-23T07:57:29Z", "copyright": "The data included in this document is from www.openstreetmap.org. The data is made available under ODbL."}, "elements": [{"type": "node", "id": 2048638423, "lat": 40.3200886, "lon": 49.7719448, "tags": {"name": "\u015eah Otel \\ S\u0259d\u0259r\u0259k Bazar\u0131", "tourism": "hotel"}}, {"type": "node", "id": 2048651083, "lat": 40.3293285, "lon": 49.7819173, "tags": {"amenity": "cafe", "cuisine": "regional", "name": "Arpa\u00e7ay \\ S\u0259d\u0259r\u0259k Bazar\u0131"}}, {"type": "node", "id": 2048668890, "lat": 40.3280699, "lon": 49.7785726, "tags": {"amenity": "cafe", "name": "S\u0259ma Kafesi \\ S\u0259d\u0259r\u0259k TM"}}, {"type": "node", "id": 2071884592, "lat": 40.3247107, "lon": 49.7802773, "tags": {"amenity": "cafe", "name": "Pitti Coffee \\ S\u0259d\u0259r\u0259k Bazar\u0131"}}, {"type": "node", "id": 2947583524, "lat": 40.3059221, "lon": 49.796232, "tags": {"amenity": "restaurant", "name": "1001 Gec\u0259 Otel \\ \u015e\u0131xov", "tourism": "hotel"}}, {"type": "node", "id": 2947584200, "lat": 40.3059316, "lon": 49.7946319, "tags": {"addr:street": "Salyan Highway", "amenity": "restaurant", "name": "Akva Park \\ \u015e\u0131xov", "name:en": "Aqua Park Shikhov", "tourism": "motel"}}, {"type": "node", "id": 2947587443, "lat": 40.3064355, "lon": 49.7925574, "tags": {"name": "Panorama Villa Luks \\ \u015e\u0131xov", "tourism": "motel"}}, {"type": "node", "id": 2947594479, "lat": 40.3056962, "lon": 49.7870168, "tags": {"name": "Qrand Park \\ \u015e\u0131xov", "tourism": "hotel"}}, {"type": "node", "id": 2947705967, "lat": 40.3049809, "lon": 49.7908489, "tags": {"name": "Delfin Otel \\ \u015e\u0131xov", "tourism": "motel"}}, {"type": "node", "id": 2947705969, "lat": 40.3033809, "lon": 49.7830823, "tags": {"amenity": "restaurant", "name": "Mavi Dal\u011fa \\ \u015e\u0131xov"}}, {"type": "node", "id": 2947705972, "lat": 40.3059304, "lon": 49.7773779, "tags": {"name": "SOCAR \u015e\u0131x", "tourism": "motel"}}, {"type": "node", "id": 2947709382, "lat": 40.30522, "lon": 49.7924546, "tags": {"amenity": "restaurant", "name": "Eldorado Otel \\ \u015e\u0131xov", "tourism": "hotel"}}, {"type": "node", "id": 2947722821, "lat": 40.3047853, "lon": 49.7773371, "tags": {"amenity": "restaurant", "name": "Damla Resrtoran\u0131 \\ \u015e\u0131xov"}}, {"type": "node", "id": 2947722822, "lat": 40.303684, "lon": 49.7695717, "tags": {"amenity": "restaurant", "name": "Kristal \u015e\u0131x", "name:en": "Gomruk"}}, {"type": "node", "id": 2947722824, "lat": 40.3049909, "lon": 49.7767907, "tags": {"amenity": "restaurant", "name": "Qrin Siti Restoran \\ \u015e\u0131xov"}}, {"type": "node", "id": 2947723488, "lat": 40.3021728, "lon": 49.7660152, "tags": {"amenity": "restaurant", "name": "24 Saat Restoran \\ \u015e\u0131xov"}}, {"type": "node", "id": 4782346921, "lat": 40.3061363, "lon": 49.7758292, "tags": {"name": "Green City \\ \u015e\u0131xov", "tourism": "hotel"}}, {"type": "node", "id": 4838470421, "lat": 40.3377483, "lon": 49.7780739, "tags": {"addr:street": "Xoc\u0259s\u0259n yolu", "amenity": "marketplace", "name": "Meyv\u0259li Ticar\u0259t Bazar\u0131 \\ Bak\u0131"}}, {"type": "node", "id": 4912551121, "lat": 40.3051677, "lon": 49.7516335, "tags": {"information": "office", "name": "Good Travel \\ Bin\u0259 Bazar\u0131", "tourism": "information"}}, {"type": "node", "id": 5132717424, "lat": 40.3379841, "lon": 49.7994855, "tags": {"amenity": "restaurant", "name:en": "Wooden house"}}, {"type": "node", "id": 5498394721, "lat": 40.3066016, "lon": 49.7934503, "tags": {"tourism": "apartment"}}, {"type": "node", "id": 6114609091, "lat": 40.3236259, "lon": 49.7783729, "tags": {"amenity": "cafe", "name:en": "1 manat"}}, {"type": "node", "id": 6997703285, "lat": 40.3017848, "lon": 49.7630443, "tags": {"addr:street": "Salyan Highway", "amenity": "cafe", "cuisine": "turkish;local", "name": "\u0130stanbul Kafe \\ L\u00f6kbatan Dair\u0259si", "opening_hours": "24/7"}}, {"type": "node", "id": 7121720385, "lat": 40.3002204, "lon": 49.7787357, "tags": {"amenity": "restaurant", "name:en": "Ada"}}, {"type": "node", "id": 8039761886, "lat": 40.3450827, "lon": 49.7878992, "tags": {"name:en": "Rafael Sederek Anbar", "tourism": "artwork"}}, {"type": "node", "id": 11189031320, "lat": 40.3081426, "lon": 49.7506267, "tags": {"addr:city": "L\u00f6kbatan", "addr:street": "L\u00f6kbatan yolu", "amenity": "marketplace", "name": "Bravo Depo Ambar \\ L\u00f6kbatan", "phone": "+994124041316", "website": "https://bravosupermarket.az/"}}, {"type": "node", "id": 11191671840, "lat": 40.3213822, "lon": 49.7563358, "tags": {"amenity": "restaurant", "name": "Ulduz Restoran\u0131 \\ L\u00f6kbatan"}}, {"type": "node", "id": 11196152690, "lat": 40.329005, "lon": 49.7803116, "tags": {"information": "guidepost", "name": "10-cu s\u0131ra", "tourism": "information"}}, {"type": "node", "id": 11196152698, "lat": 40.3287591, "lon": 49.779683, "tags": {"information": "guidepost", "name": "12-ci s\u0131ra", "tourism": "information"}}, {"type": "node", "id": 11196152703, "lat": 40.3288816, "lon": 49.779997, "tags": {"information": "guidepost", "name": "11-ci s\u0131ra", "tourism": "information"}}, {"type": "node", "id": 11196152728, "lat": 40.3282678, "lon": 49.7784154, "tags": {"information": "guidepost", "name": "16-c\u0131 s\u0131ra", "tourism": "information"}}, {"type": "node", "id": 11196152730, "lat": 40.3293751, "lon": 49.7812552, "tags": {"information": "guidepost", "name": "7-ci s\u0131ra", "tourism": "information"}}, {"type": "node", "id": 11196152735, "lat": 40.3294993, "lon": 49.7815719, "tags": {"information": "board", "name": "6-c\u0131 s\u0131ra", "tourism": "information"}}, {"type": "node", "id": 11196162358, "lat": 40.3283934, "lon": 49.7787394, "tags": {"information": "guidepost", "name": "15-ci s\u0131ra", "tourism": "information"}}, {"type": "node", "id": 11196162363, "lat": 40.3285142, "lon": 49.7790511, "tags": {"information": "guidepost", "name": "14-c\u00fc s\u0131ra", "tourism": "information"}}, {"type": "node", "id": 11196162366, "lat": 40.3286381, "lon": 49.7793708, "tags": {"information": "guidepost", "name": "13-c\u00fc s\u0131ra", "tourism": "information"}}, {"type": "node", "id": 11196162373, "lat": 40.3291274, "lon": 49.7806237, "tags": {"information": "guidepost", "name": "9-cu s\u0131ra", "tourism": "information"}}, {"type": "node", "id": 11196162376, "lat": 40.3292527, "lon": 49.7809432, "tags": {"information": "guidepost", "name": "8-ci s\u0131ra", "tourism": "information"}}, {"type": "node", "id": 11196162407, "lat": 40.3281481, "lon": 49.7781049, "tags": {"information": "guidepost", "name": "17-ci s\u0131ra", "tourism": "information"}}, {"type": "node", "id": 11196162410, "lat": 40.3280302, "lon": 49.7777981, "tags": {"information": "guidepost", "name": "18-ci s\u0131ra", "tourism": "information"}}, {"type": "node", "id": 11196162413, "lat": 40.3279095, "lon": 49.7774843, "tags": {"information": "guidepost", "name": "19-cu s\u0131ra", "tourism": "information"}}, {"type": "node", "id": 11196162415, "lat": 40.3277876, "lon": 49.7771672, "tags": {"information": "guidepost", "name": "20-ci s\u0131ra", "tourism": "information"}}, {"type": "node", "id": 11196162420, "lat": 40.3296168, "lon": 49.7818715, "tags": {"information": "guidepost", "name": "5-ci s\u0131ra", "tourism": "information"}}, {"type": "node", "id": 11196162421, "lat": 40.3297416, "lon": 49.7821951, "tags": {"information": "guidepost", "name": "4-c\u00fc s\u0131ra", "tourism": "information"}}, {"type": "node", "id": 11196162422, "lat": 40.3298657, "lon": 49.7825085, "tags": {"information": "guidepost", "name": "3-c\u00fc s\u0131ra", "tourism": "information"}}, {"type": "node", "id": 11196162423, "lat": 40.3299905, "lon": 49.7828212, "tags": {"information": "guidepost", "name": "2-ci s\u0131ra", "tourism": "information"}}, {"type": "node", "id": 11196162436, "lat": 40.3301157, "lon": 49.7831391, "tags": {"information": "guidepost", "name": "1-ci s\u0131ra", "tourism": "information"}}, {"type": "node", "id": 11196207100, "lat": 40.3189046, "lon": 49.7762176, "tags": {"name": "Murad Otel \\ S\u0259d\u0259r\u0259k Bazar\u0131", "tourism": "hotel"}}, {"type": "node", "id": 11196207101, "lat": 40.3198208, "lon": 49.7736776, "tags": {"name": "Globus Otel \\ S\u0259d\u0259r\u0259k Bazar\u0131", "tourism": "motel"}}, {"type": "node", "id": 11196207110, "lat": 40.3242175, "lon": 49.7730607, "tags": {"name": "Qlobus Motel \\ S\u0259d\u0259r\u0259k Bazar\u0131", "tourism": "motel"}}, {"type": "node", "id": 11196207115, "lat": 40.3255405, "lon": 49.7737353, "tags": {"name": "Otel Elit \\ S\u0259d\u0259r\u0259k Bazar\u0131", "tourism": "hotel"}}, {"type": "node", "id": 11196537401, "lat": 40.3406115, "lon": 49.7826362, "tags": {"amenity": "marketplace", "name": "Oba Marketl\u0259r Depo \\ Meyv\u0259li TM"}}, {"type": "node", "id": 11196537411, "lat": 40.3411451, "lon": 49.7808096, "tags": {"name": "Black Mount Qarada\u011f Otel \\ Meyv\u0259li TM", "tourism": "hotel"}}, {"type": "node", "id": 11198404842, "lat": 40.303121, "lon": 49.7575468, "tags": {"amenity": "cafe", "name": "T\u00fcrk Kafesi \\ Bin\u0259 Bazar\u0131"}}, {"type": "node", "id": 11198404844, "lat": 40.3028817, "lon": 49.7603443, "tags": {"amenity": "restaurant", "name": "N\u0259v\u0259l\u0259rim Restoran\u0131 \\ Bin\u0259 Bazar\u0131"}}, {"type": "node", "id": 11198457341, "lat": 40.3082388, "lon": 49.776628, "tags": {"name": "Hostel \\ \u015e\u0131xov", "tourism": "hostel"}}, {"type": "node", "id": 11208491093, "lat": 40.3048638, "lon": 49.7735783, "tags": {"name": "Homebridge Hotel \\ Houmbric \u015e\u0131xov", "tourism": "hotel"}}, {"type": "node", "id": 11208561664, "lat": 40.3018681, "lon": 49.7633216, "tags": {"amenity": "cafe", "name": "Yol\u00e7u Kafe \\ \u015e\u0131xov"}}, {"type": "node", "id": 11208561715, "lat": 40.3041213, "lon": 49.7790259, "tags": {"amenity": "restaurant", "name": "Nu\u015f \u018ft Steyk \\ \u015e\u0131xov"}}, {"type": "node", "id": 11208561716, "lat": 40.3041663, "lon": 49.7795087, "tags": {"amenity": "restaurant", "name": "Ada Restoran \\ \u015e\u0131xov"}}, {"type": "node", "id": 11208646370, "lat": 40.3066035, "lon": 49.7963101, "tags": {"amenity": "cafe", "name": "Turist Kafe \\ \u015e\u0131xov"}}, {"type": "node", "id": 11208646371, "lat": 40.3055409, "lon": 49.793534, "tags": {"amenity": "restaurant", "name": "Aysberq Otel \\ \u015e\u0131xov", "tourism": "hotel"}}, {"type": "node", "id": 11208646388, "lat": 40.3061177, "lon": 49.791981, "tags": {"amenity": "restaurant", "name": "Panorama Bal\u0131q Evi \\ \u015e\u0131xov"}}, {"type": "node", "id": 12842119001, "lat": 40.3027168, "lon": 49.7612248, "tags": {"historic": "monument", "name:tr": "Sjnsbsb"}}, {"type": "node", "id": 12842134201, "lat": 40.3030976, "lon": 49.7597823, "tags": {"historic": "monument"}}, {"type": "way", "id": 291321066, "nodes": [2947723473, 2947723465, 2947723468, 2947723461, 2947723458, 11189017077, 2947723467, 2947723471, 2947723472, 2947723475, 2947723473], "tags": {"leisure": "park"}}, {"type": "way", "id": 291321067, "nodes": [2947723476, 2947723439, 11198491670, 11198491669, 11198491668, 11198491671, 2947723477, 2948213671, 2947723479, 2947723476], "tags": {"leisure": "park"}}, {"type": "way", "id": 291359440, "nodes": [2948211513, 2948211497, 2948211501, 2948211522, 2948211513], "tags": {"leisure": "park"}}, {"type": "way", "id": 291742764, "nodes": [2952320896, 2952320906, 2952320919, 2952320904, 2952320896], "tags": {"name": "Delfin \u00e7im\u0259rlik \\ \u015e\u0131xov", "natural": "beach"}}, {"type": "way", "id": 291742770, "nodes": [2952320932, 2952321154, 2952321151, 2952321135, 2952320932], "tags": {"natural": "beach"}}, {"type": "way", "id": 291742771, "nodes": [2952320918, 2947582990, 2947583004, 2952320925, 2952320918], "tags": {"natural": "beach"}}, {"type": "way", "id": 291742774, "nodes": [2952320921, 2947582994, 2947582985, 2952320916, 36810600, 2952320908, 2952320921], "tags": {"natural": "beach"}}, {"type": "way", "id": 291742776, "nodes": [2952320926, 2952321147, 2947583270, 2947583278, 2952321155, 2952320931, 2952320926], "tags": {"name": "1001 \u043d\u043e\u0447\u044c", "natural": "beach"}}, {"type": "way", "id": 291742777, "nodes": [2952321136, 2952321145, 2952321146, 2952321150, 2952321157, 2952321144, 2952321141, 2952321138, 2952321136], "tags": {"natural": "beach"}}, {"type": "way", "id": 318922836, "nodes": [3253251870, 3253251871, 3253251872, 3253251873, 3253251874, 3253251875, 3253251876, 3253251877, 3253251878, 3253251879, 3253251861, 3253251864, 3253251865, 3253251866, 3253251867, 3253251868, 3253251869, 3253251862, 3253251863, 3253251870], "tags": {"landuse": "grass", "name": "Meyv\u0259li Dair\u0259si \\ Bak\u0131", "tourism": "attraction"}}, {"type": "way", "id": 420321232, "nodes": [4202598487, 4202598488, 4202598689, 4202598690, 4202598487], "tags": {"amenity": "restaurant", "building": "retail", "building:levels": "1", "name": "Dan Ulduzu"}}, {"type": "way", "id": 520578535, "nodes": [5073646162, 11208491053, 11208491062, 5073646163, 5073646164, 5073646165, 5073646162], "tags": {"addr:city": "Bak\u0131", "addr:street": "Salyan Highway", "alt_name": "Sibey Restoran\u0131 \\ \u015e\u0131xov", "amenity": "restaurant", "contact:facebook": "https://www.facebook.com/seabaybaku", "contact:phone": "+994502530060", "cuisine": "seafood;chicken;diner;fish_and_chips;sausage;sandwich;coffee_shop;local;tea;fine_dining;pizza;turkish;fish;breakfast;international", "diet:vegetarian": "yes", "int_name": "SeaBay Restaurant", "internet_access": "wlan", "leisure": "park", "name": "Seabay Restoran\u0131 \\ \u015e\u0131xov", "name:az": "Seabay Restoran\u0131 \\ \u015e\u0131xov", "name:en": "SeaBay Restaurant", "name:tr": "SeaBay Restoran\u0131", "opening_hours": "Mo-Su 11:00-12:45", "outdoor_seating": "yes"}}, {"type": "way", "id": 696440598, "nodes": [6540190382, 6540190383, 6540190384, 6540195485, 6540195486, 6540195487, 6540195488, 6540195489, 6540195490, 6540195491, 6540190382], "tags": {"leisure": "park"}}, {"type": "way", "id": 809283978, "nodes": [7567079055, 11181977781, 7567079056, 11181977771, 11181977774, 11181977777, 7567079057, 11181977764, 11181977780, 11181977767, 7567079058, 11181977779, 11181977776, 11181977773, 7567079055], "tags": {"leisure": "park"}}, {"type": "way", "id": 809283994, "nodes": [7567079117, 11181901984, 11181901981, 11181901980, 7567079118, 11181901974, 7567079119, 11181901979, 11181901982, 11181901983, 7567079120, 11181901978, 7567079117], "tags": {"leisure": "park"}}, {"type": "way", "id": 809699367, "nodes": [7570661202, 7570661201, 7570661200, 7570661199, 11208565304, 11208565303, 7570661198, 7570661197, 11208565300, 11208565301, 11208565302, 7570661196, 7570661195, 7570661194, 11208565310, 7570661192, 7570661191, 11208565321, 11208565322, 11208565320, 11208565319, 7570661202], "tags": {"leisure": "park", "name": "14-c\u00fc km. \\ \u015e\u0131xov"}}, {"type": "way", "id": 809710213, "nodes": [7570732687, 7570732686, 7570732685, 7570701684, 7570701683, 7570701682, 7570701681, 7570701680, 7570701679, 7570701678, 7570701677, 7570701676, 7570701675, 7570701674, 7570701673, 7570701672, 7570732687], "tags": {"landuse": "grass", "name": "L\u00f6kbatan Dair\u0259si \\ Bin\u0259 Bazar\u0131", "tourism": "attraction"}}, {"type": "way", "id": 1207265246, "nodes": [11186532242, 11186532241, 11186532240, 11186532239, 11186532238, 11186532237, 11186531236, 11186531235, 11186531234, 11186531233, 11186532242], "tags": {"leisure": "park"}}, {"type": "way", "id": 1207265255, "nodes": [11186532301, 11186532300, 11186532299, 11186532298, 11186532301], "tags": {"leisure": "park"}}, {"type": "way", "id": 1207876100, "nodes": [11191574845, 11191671865, 11191671864, 11191671848, 11191671863, 11191671862, 11191641838, 11191574841, 11191574842, 11191574843, 11191574844, 11191574845], "tags": {"leisure": "park"}}, {"type": "way", "id": 1208135971, "nodes": [11194661727, 11194671574, 11194661726, 11194661725, 11194661724, 11194661723, 11194671562, 11194661722, 11194661721, 11194661720, 11194661719, 11194661718, 11194671570, 11194661717, 11194661716, 11194661715, 11194661714, 11194661713, 11194661712, 11194661711, 11194661727], "tags": {"leisure": "park"}}, {"type": "way", "id": 1208587843, "nodes": [11198292123, 11198292122, 11198292121, 11198292120, 11198292119, 11198292118, 11198292117, 11198292116, 11198292115, 11198292114, 11198292113, 11198292112, 11198292111, 11198292110, 11198292109, 11198292123], "tags": {"landuse": "grass", "name": "Bin\u0259 Bazar\u0131 \\ L\u00f6kbatan", "tourism": "attraction"}}, {"type": "way", "id": 1208612048, "nodes": [11198491643, 11198491642, 8754811201, 8754811195, 8754811192, 8754811200, 8754811194, 8754811193, 11198491641, 8931315007, 8931315008, 11198491640, 11198491643], "tags": {"name": "\u0130ctimai \u00c7im\u0259tlik \\ \u015e\u0131xov", "natural": "beach"}}, {"type": "way", "id": 1209837546, "nodes": [11208491118, 11208491117, 11208491116, 11208491115, 11208491118], "tags": {"leisure": "park"}}, {"type": "way", "id": 1209837547, "nodes": [11208491124, 11208491123, 11208491122, 11208491121, 11208491120, 11208491119, 11208491124], "tags": {"leisure": "park"}}, {"type": "way", "id": 1209837558, "nodes": [11208491228, 11208491227, 11208491091, 11208491090, 11208491226, 11208491225, 11208491224, 11208491223, 11208491222, 11208491221, 11208491220, 11208491219, 11208491218, 11208491217, 11208491216, 11208491215, 11208491214, 11208491213, 11208491212, 11208491211, 11208491210, 11208491209, 11208491208, 11208491207, 11208491206, 11208491205, 11208491204, 11208491203, 11208491202, 11208491201, 11208491200, 11208491228], "tags": {"leisure": "park"}}, {"type": "way", "id": 1209837567, "nodes": [11208491315, 11208491314, 11208491313, 11208491296, 11208491312, 11208491311, 11208491310, 11208491309, 11208491308, 11208491307, 11208491306, 11208491305, 11208491304, 11208491303, 11208491302, 11208491292, 11208491301, 11208491300, 11208491299, 11208491298, 11208491297, 11208491315], "tags": {"leisure": "park"}}, {"type": "way", "id": 1209846696, "nodes": [11208565327, 6269870100, 11208674417, 798772957, 11208565324, 11208565327], "tags": {"name": "\u015e\u0131xov \u00e7im\u0259rliyi", "natural": "beach"}}, {"type": "way", "id": 1218688900, "nodes": [11292509091, 11292509098, 11292509097, 11292509094, 11292509093, 11292509096, 11292509095, 11292509092, 11292509091], "tags": {"amenity": "cafe", "building": "yes", "name": "1001 \u043d\u043e\u0447\u044c"}}, {"type": "node", "id": 2948211513, "lat": 40.3011802, "lon": 49.7676863}, {"type": "node", "id": 11198292109, "lat": 40.3026849, "lon": 49.7595212}, {"type": "node", "id": 11198292110, "lat": 40.3026795, "lon": 49.7595408}, {"type": "node", "id": 11198292111, "lat": 40.3026685, "lon": 49.7595559}, {"type": "node", "id": 11198292112, "lat": 40.3026538, "lon": 49.7595638}, {"type": "node", "id": 11198292113, "lat": 40.3026379, "lon": 49.7595631}, {"type": "node", "id": 11198292114, "lat": 40.3026236, "lon": 49.7595541}, {"type": "node", "id": 11198292115, "lat": 40.3026133, "lon": 49.7595382}, {"type": "node", "id": 11198292116, "lat": 40.3026089, "lon": 49.7595182}, {"type": "node", "id": 11198292117, "lat": 40.302611, "lon": 49.7594975}, {"type": "node", "id": 11198292118, "lat": 40.3026194, "lon": 49.7594798}, {"type": "node", "id": 11198292119, "lat": 40.3026325, "lon": 49.7594681}, {"type": "node", "id": 11198292120, "lat": 40.3026481, "lon": 49.7594643}, {"type": "node", "id": 11198292121, "lat": 40.3026636, "lon": 49.7594693}, {"type": "node", "id": 11198292122, "lat": 40.3026762, "lon": 49.7594821}, {"type": "node", "id": 11198292123, "lat": 40.3026837, "lon": 49.7595004}, {"type": "node", "id": 2947723439, "lat": 40.3014697, "lon": 49.7672499}, {"type": "node", "id": 2947723458, "lat": 40.3020927, "lon": 49.7661277}, {"type": "node", "id": 2947723461, "lat": 40.3021438, "lon": 49.7660961}, {"type": "node", "id": 2947723465, "lat": 40.3022831, "lon": 49.7658865}, {"type": "node", "id": 2947723467, "lat": 40.3023179, "lon": 49.7664036}, {"type": "node", "id": 2947723468, "lat": 40.3023192, "lon": 49.7660003}, {"type": "node", "id": 2947723471, "lat": 40.3024077, "lon": 49.7663694}, {"type": "node", "id": 2947723472, "lat": 40.3025186, "lon": 49.7665827}, {"type": "node", "id": 2947723473, "lat": 40.3024857, "lon": 49.7657857}, {"type": "node", "id": 2947723475, "lat": 40.3025945, "lon": 49.7665232}, {"type": "node", "id": 2947723476, "lat": 40.3026015, "lon": 49.7666591}, {"type": "node", "id": 7570701672, "lat": 40.3028234, "lon": 49.7628682}, {"type": "node", "id": 7570701673, "lat": 40.3027771, "lon": 49.7630594}, {"type": "node", "id": 7570701674, "lat": 40.3026785, "lon": 49.7632128}, {"type": "node", "id": 7570701675, "lat": 40.3025427, "lon": 49.7633051}, {"type": "node", "id": 7570701676, "lat": 40.3023903, "lon": 49.7633221}, {"type": "node", "id": 7570701677, "lat": 40.3022445, "lon": 49.7632615}, {"type": "node", "id": 7570701678, "lat": 40.3021275, "lon": 49.7631322}, {"type": "node", "id": 7570701679, "lat": 40.3020571, "lon": 49.7629541}, {"type": "node", "id": 7570701680, "lat": 40.302044, "lon": 49.7627542}, {"type": "node", "id": 7570701681, "lat": 40.3020903, "lon": 49.762563}, {"type": "node", "id": 7570701682, "lat": 40.3021889, "lon": 49.7624096}, {"type": "node", "id": 7570701683, "lat": 40.3023247, "lon": 49.7623173}, {"type": "node", "id": 7570701684, "lat": 40.3024772, "lon": 49.7623003}, {"type": "node", "id": 7570732685, "lat": 40.302623, "lon": 49.7623609}, {"type": "node", "id": 7570732686, "lat": 40.30274, "lon": 49.7624902}, {"type": "node", "id": 7570732687, "lat": 40.3028103, "lon": 49.7626683}, {"type": "node", "id": 11189017077, "lat": 40.3021228, "lon": 49.7661889}, {"type": "node", "id": 11198491669, "lat": 40.3018221, "lon": 49.7679282}, {"type": "node", "id": 11198491670, "lat": 40.3016994, "lon": 49.7679967}, {"type": "node", "id": 11208491314, "lat": 40.3033378, "lon": 49.7673757}, {"type": "node", "id": 11208491315, "lat": 40.3036109, "lon": 49.767314}, {"type": "node", "id": 2948211497, "lat": 40.3003665, "lon": 49.7681391}, {"type": "node", "id": 2948211501, "lat": 40.3005063, "lon": 49.7685892}, {"type": "node", "id": 2948211522, "lat": 40.3013222, "lon": 49.7681502}, {"type": "node", "id": 8754811192, "lat": 40.2998115, "lon": 49.7739971}, {"type": "node", "id": 8754811195, "lat": 40.2992654, "lon": 49.7731832}, {"type": "node", "id": 8754811200, "lat": 40.3001265, "lon": 49.7745795}, {"type": "node", "id": 8754811201, "lat": 40.2982209, "lon": 49.772208}, {"type": "node", "id": 8931315007, "lat": 40.3008062, "lon": 49.7737663}, {"type": "node", "id": 8931315008, "lat": 40.3000269, "lon": 49.7724651}, {"type": "node", "id": 11198491640, "lat": 40.2994083, "lon": 49.7714889}, {"type": "node", "id": 11198491642, "lat": 40.2982013, "lon": 49.7711724}, {"type": "node", "id": 11198491643, "lat": 40.2991587, "lon": 49.7706842}, {"type": "node", "id": 7570661194, "lat": 40.3011532, "lon": 49.7776741}, {"type": "node", "id": 7570661195, "lat": 40.3011593, "lon": 49.7779986}, {"type": "node", "id": 7570661196, "lat": 40.3013168, "lon": 49.7787202}, {"type": "node", "id": 7570661197, "lat": 40.3013086, "lon": 49.7792218}, {"type": "node", "id": 8754811193, "lat": 40.3008737, "lon": 49.7761387}, {"type": "node", "id": 8754811194, "lat": 40.3005611, "lon": 49.7754018}, {"type": "node", "id": 11208565300, "lat": 40.3011266, "lon": 49.7791439}, {"type": "node", "id": 11208565301, "lat": 40.3010877, "lon": 49.7789857}, {"type": "node", "id": 11208565302, "lat": 40.3011491, "lon": 49.7788301}, {"type": "node", "id": 11208565310, "lat": 40.3012616, "lon": 49.7773039}, {"type": "node", "id": 2947723477, "lat": 40.3023941, "lon": 49.7700364}, {"type": "node", "id": 2947723479, "lat": 40.3031554, "lon": 49.7707698}, {"type": "node", "id": 2948213671, "lat": 40.3026673, "lon": 49.7709716}, {"type": "node", "id": 11198491668, "lat": 40.3020103, "lon": 49.7684097}, {"type": "node", "id": 11198491671, "lat": 40.3019326, "lon": 49.7686028}, {"type": "node", "id": 11208491090, "lat": 40.3038359, "lon": 49.7722439}, {"type": "node", "id": 11208491091, "lat": 40.3038717, "lon": 49.77248}, {"type": "node", "id": 11208491117, "lat": 40.3041847, "lon": 49.7744286}, {"type": "node", "id": 11208491118, "lat": 40.304422, "lon": 49.774332}, {"type": "node", "id": 11208491200, "lat": 40.3038155, "lon": 49.7720924}, {"type": "node", "id": 11208491201, "lat": 40.3039597, "lon": 49.7720911}, {"type": "node", "id": 11208491202, "lat": 40.3040855, "lon": 49.772079}, {"type": "node", "id": 11208491203, "lat": 40.3041959, "lon": 49.7720495}, {"type": "node", "id": 11208491204, "lat": 40.3043637, "lon": 49.7719663}, {"type": "node", "id": 11208491205, "lat": 40.3044005, "lon": 49.7721232}, {"type": "node", "id": 11208491206, "lat": 40.304559, "lon": 49.7720642}, {"type": "node", "id": 11208491207, "lat": 40.3046552, "lon": 49.7725685}, {"type": "node", "id": 11208491208, "lat": 40.304557, "lon": 49.7727013}, {"type": "node", "id": 11208491209, "lat": 40.3047779, "lon": 49.7737218}, {"type": "node", "id": 11208491210, "lat": 40.3048474, "lon": 49.7738117}, {"type": "node", "id": 11208491211, "lat": 40.3049896, "lon": 49.773636}, {"type": "node", "id": 11208491212, "lat": 40.3049722, "lon": 49.773577}, {"type": "node", "id": 11208491213, "lat": 40.3050827, "lon": 49.7734389}, {"type": "node", "id": 11208491214, "lat": 40.3051287, "lon": 49.7734201}, {"type": "node", "id": 11208491215, "lat": 40.3051941, "lon": 49.7737487}, {"type": "node", "id": 11208491216, "lat": 40.3041786, "lon": 49.7742529}, {"type": "node", "id": 11208491217, "lat": 40.3040272, "lon": 49.7742127}, {"type": "node", "id": 11208491218, "lat": 40.303792, "lon": 49.7726087}, {"type": "node", "id": 11208491219, "lat": 40.3038727, "lon": 49.7725806}, {"type": "node", "id": 11208491220, "lat": 40.3039801, "lon": 49.7733383}, {"type": "node", "id": 11208491221, "lat": 40.3040548, "lon": 49.7734067}, {"type": "node", "id": 11208491222, "lat": 40.3044915, "lon": 49.7728622}, {"type": "node", "id": 11208491223, "lat": 40.3042634, "lon": 49.7725537}, {"type": "node", "id": 11208491224, "lat": 40.3041847, "lon": 49.7726329}, {"type": "node", "id": 11208491225, "lat": 40.3040661, "lon": 49.7726637}, {"type": "node", "id": 11208491226, "lat": 40.3039914, "lon": 49.772197}, {"type": "node", "id": 11208491227, "lat": 40.3037776, "lon": 49.7725095}, {"type": "node", "id": 11208491228, "lat": 40.3037112, "lon": 49.7721219}, {"type": "node", "id": 11208491292, "lat": 40.3034684, "lon": 49.7692159}, {"type": "node", "id": 11208491296, "lat": 40.303269, "lon": 49.7688576}, {"type": "node", "id": 11208491297, "lat": 40.3038073, "lon": 49.7687531}, {"type": "node", "id": 11208491298, "lat": 40.3036529, "lon": 49.7687946}, {"type": "node", "id": 11208491299, "lat": 40.3036743, "lon": 49.7689395}, {"type": "node", "id": 11208491300, "lat": 40.303569, "lon": 49.7690065}, {"type": "node", "id": 11208491301, "lat": 40.3034974, "lon": 49.7691259}, {"type": "node", "id": 11208491302, "lat": 40.3034503, "lon": 49.7692721}, {"type": "node", "id": 11208491303, "lat": 40.303435, "lon": 49.7694786}, {"type": "node", "id": 11208491304, "lat": 40.3034452, "lon": 49.769614}, {"type": "node", "id": 11208491305, "lat": 40.3035086, "lon": 49.7698742}, {"type": "node", "id": 11208491306, "lat": 40.3035608, "lon": 49.7700459}, {"type": "node", "id": 11208491307, "lat": 40.3037183, "lon": 49.7702645}, {"type": "node", "id": 11208491308, "lat": 40.3034994, "lon": 49.7705542}, {"type": "node", "id": 11208491309, "lat": 40.3034565, "lon": 49.7705783}, {"type": "node", "id": 11208491310, "lat": 40.3034146, "lon": 49.7705662}, {"type": "node", "id": 11208491311, "lat": 40.3033921, "lon": 49.7705126}, {"type": "node", "id": 11208491312, "lat": 40.3031599, "lon": 49.7688898}, {"type": "node", "id": 11208491313, "lat": 40.3035414, "lon": 49.7687772}, {"type": "node", "id": 5073646162, "lat": 40.3064522, "lon": 49.7783718}, {"type": "node", "id": 5073646163, "lat": 40.3067279, "lon": 49.7788051}, {"type": "node", "id": 5073646164, "lat": 40.3059894, "lon": 49.7788752}, {"type": "node", "id": 5073646165, "lat": 40.3059633, "lon": 49.7784217}, {"type": "node", "id": 6269870100, "lat": 40.3018002, "lon": 49.7804531}, {"type": "node", "id": 7570661191, "lat": 40.3027815, "lon": 49.7787309}, {"type": "node", "id": 7570661192, "lat": 40.3022537, "lon": 49.7769687}, {"type": "node", "id": 7570661198, "lat": 40.3015132, "lon": 49.7800747}, {"type": "node", "id": 7570661199, "lat": 40.3016789, "lon": 49.7802248}, {"type": "node", "id": 7570661200, "lat": 40.3019203, "lon": 49.7802383}, {"type": "node", "id": 7570661201, "lat": 40.3043299, "lon": 49.7796563}, {"type": "node", "id": 7570661202, "lat": 40.3041438, "lon": 49.7784009}, {"type": "node", "id": 11198491641, "lat": 40.3014252, "lon": 49.7747505}, {"type": "node", "id": 11208491053, "lat": 40.3064756, "lon": 49.7784358}, {"type": "node", "id": 11208491062, "lat": 40.3067016, "lon": 49.7784224}, {"type": "node", "id": 11208491115, "lat": 40.3048945, "lon": 49.7769204}, {"type": "node", "id": 11208491116, "lat": 40.3045815, "lon": 49.776974}, {"type": "node", "id": 11208491119, "lat": 40.3057986, "lon": 49.7784653}, {"type": "node", "id": 11208491120, "lat": 40.3053465, "lon": 49.7785243}, {"type": "node", "id": 11208491121, "lat": 40.3053261, "lon": 49.7783634}, {"type": "node", "id": 11208491122, "lat": 40.3050213, "lon": 49.778417}, {"type": "node", "id": 11208491123, "lat": 40.304919, "lon": 49.777033}, {"type": "node", "id": 11208491124, "lat": 40.3056452, "lon": 49.7769123}, {"type": "node", "id": 11208565303, "lat": 40.3014232, "lon": 49.7801417}, {"type": "node", "id": 11208565304, "lat": 40.3015112, "lon": 49.7803429}, {"type": "node", "id": 11208565319, "lat": 40.3038942, "lon": 49.7784546}, {"type": "node", "id": 11208565320, "lat": 40.303751, "lon": 49.7786182}, {"type": "node", "id": 11208565321, "lat": 40.3028428, "lon": 49.778806}, {"type": "node", "id": 11208565322, "lat": 40.3029042, "lon": 49.7788167}, {"type": "node", "id": 11208565327, "lat": 40.3033726, "lon": 49.7800451}, {"type": "node", "id": 798772957, "lat": 40.3031686, "lon": 49.7852893}, {"type": "node", "id": 11208565324, "lat": 40.3042563, "lon": 49.7849214}, {"type": "node", "id": 11208674417, "lat": 40.3028817, "lon": 49.7841489}, {"type": "node", "id": 36810600, "lat": 40.3043163, "lon": 49.7938164}, {"type": "node", "id": 2952320896, "lat": 40.3039885, "lon": 49.7908212}, {"type": "node", "id": 2952320904, "lat": 40.3041485, "lon": 49.7923502}, {"type": "node", "id": 2952320906, "lat": 40.3046939, "lon": 49.790553}, {"type": "node", "id": 2952320908, "lat": 40.3042229, "lon": 49.792912}, {"type": "node", "id": 2952320919, "lat": 40.304912, "lon": 49.7920985}, {"type": "node", "id": 2952320921, "lat": 40.3048519, "lon": 49.7927552}, {"type": "node", "id": 2947582985, "lat": 40.3049674, "lon": 49.7943804}, {"type": "node", "id": 2947582990, "lat": 40.3051368, "lon": 49.794656}, {"type": "node", "id": 2947582994, "lat": 40.3051574, "lon": 49.7943141}, {"type": "node", "id": 2947583004, "lat": 40.3052427, "lon": 49.7957552}, {"type": "node", "id": 2947583270, "lat": 40.3055158, "lon": 49.797014}, {"type": "node", "id": 2947583278, "lat": 40.305552, "lon": 49.7974303}, {"type": "node", "id": 2952320916, "lat": 40.3043922, "lon": 49.7946163}, {"type": "node", "id": 2952320918, "lat": 40.3044019, "lon": 49.7947985}, {"type": "node", "id": 2952320925, "lat": 40.3044547, "lon": 49.7957927}, {"type": "node", "id": 2952320926, "lat": 40.3045072, "lon": 49.7961594}, {"type": "node", "id": 2952320931, "lat": 40.3046007, "lon": 49.7976287}, {"type": "node", "id": 2952320932, "lat": 40.3045951, "lon": 49.7977758}, {"type": "node", "id": 2952321135, "lat": 40.3046324, "lon": 49.799423}, {"type": "node", "id": 2952321136, "lat": 40.3046509, "lon": 49.7996008}, {"type": "node", "id": 2952321145, "lat": 40.3054294, "lon": 49.7995933}, {"type": "node", "id": 2952321146, "lat": 40.3054326, "lon": 49.7997272}, {"type": "node", "id": 2952321147, "lat": 40.3054331, "lon": 49.7960707}, {"type": "node", "id": 2952321150, "lat": 40.3055233, "lon": 49.7997378}, {"type": "node", "id": 2952321151, "lat": 40.3055245, "lon": 49.7994135}, {"type": "node", "id": 2952321154, "lat": 40.3055726, "lon": 49.7978328}, {"type": "node", "id": 2952321155, "lat": 40.3055729, "lon": 49.7976965}, {"type": "node", "id": 11292509091, "lat": 40.3059703, "lon": 49.796333}, {"type": "node", "id": 11292509092, "lat": 40.3059689, "lon": 49.7961213}, {"type": "node", "id": 11292509093, "lat": 40.3056407, "lon": 49.796125}, {"type": "node", "id": 11292509094, "lat": 40.3056421, "lon": 49.7963368}, {"type": "node", "id": 11292509095, "lat": 40.3058837, "lon": 49.7960125}, {"type": "node", "id": 11292509096, "lat": 40.3057222, "lon": 49.7960151}, {"type": "node", "id": 11292509097, "lat": 40.3057263, "lon": 49.7964455}, {"type": "node", "id": 11292509098, "lat": 40.3058879, "lon": 49.7964428}, {"type": "node", "id": 2952321138, "lat": 40.3046727, "lon": 49.8015524}, {"type": "node", "id": 2952321141, "lat": 40.3053921, "lon": 49.8016672}, {"type": "node", "id": 2952321144, "lat": 40.3054261, "lon": 49.8010425}, {"type": "node", "id": 2952321157, "lat": 40.3055801, "lon": 49.801017}, {"type": "node", "id": 11194661711, "lat": 40.3191582, "lon": 49.7773281}, {"type": "node", "id": 11194661712, "lat": 40.319103, "lon": 49.7775185}, {"type": "node", "id": 11194661713, "lat": 40.3190396, "lon": 49.7776446}, {"type": "node", "id": 11194661714, "lat": 40.318966, "lon": 49.7777277}, {"type": "node", "id": 11194661715, "lat": 40.3189067, "lon": 49.777768}, {"type": "node", "id": 11194661716, "lat": 40.3188085, "lon": 49.7777706}, {"type": "node", "id": 11194661717, "lat": 40.3182931, "lon": 49.7774488}, {"type": "node", "id": 11194661718, "lat": 40.3186715, "lon": 49.776274}, {"type": "node", "id": 11194661719, "lat": 40.3187553, "lon": 49.7763249}, {"type": "node", "id": 11194661720, "lat": 40.3187308, "lon": 49.7764054}, {"type": "node", "id": 11194661721, "lat": 40.3187185, "lon": 49.7764859}, {"type": "node", "id": 11194661722, "lat": 40.3187369, "lon": 49.7765449}, {"type": "node", "id": 11194661723, "lat": 40.3187635, "lon": 49.7765744}, {"type": "node", "id": 11194661724, "lat": 40.3188044, "lon": 49.7765851}, {"type": "node", "id": 11194661725, "lat": 40.3188555, "lon": 49.7765744}, {"type": "node", "id": 11194661726, "lat": 40.3188883, "lon": 49.7765368}, {"type": "node", "id": 11194661727, "lat": 40.3193136, "lon": 49.7767836}, {"type": "node", "id": 11194671562, "lat": 40.3187507, "lon": 49.7765602}, {"type": "node", "id": 11194671570, "lat": 40.318441, "lon": 49.7769895}, {"type": "node", "id": 11194671574, "lat": 40.3191147, "lon": 49.7766682}, {"type": "node", "id": 6540190382, "lat": 40.3266495, "lon": 49.7600314}, {"type": "node", "id": 6540190383, "lat": 40.3261485, "lon": 49.7607717}, {"type": "node", "id": 6540190384, "lat": 40.326267, "lon": 49.7608066}, {"type": "node", "id": 6540195485, "lat": 40.326402, "lon": 49.7607986}, {"type": "node", "id": 6540195486, "lat": 40.3264961, "lon": 49.7607341}, {"type": "node", "id": 6540195487, "lat": 40.3265963, "lon": 49.7606188}, {"type": "node", "id": 6540195488, "lat": 40.326676, "lon": 49.7605008}, {"type": "node", "id": 6540195489, "lat": 40.3267087, "lon": 49.7604257}, {"type": "node", "id": 6540195490, "lat": 40.3267128, "lon": 49.7603426}, {"type": "node", "id": 6540195491, "lat": 40.3266965, "lon": 49.7601977}, {"type": "node", "id": 11191574841, "lat": 40.3216153, "lon": 49.7566013}, {"type": "node", "id": 11191574842, "lat": 40.3215611, "lon": 49.7561225}, {"type": "node", "id": 11191574843, "lat": 40.3214834, "lon": 49.7561225}, {"type": "node", "id": 11191574844, "lat": 40.3214118, "lon": 49.7555137}, {"type": "node", "id": 11191574845, "lat": 40.3213525, "lon": 49.7555284}, {"type": "node", "id": 11191641838, "lat": 40.3214425, "lon": 49.7566107}, {"type": "node", "id": 11191671848, "lat": 40.3212429, "lon": 49.7558745}, {"type": "node", "id": 11191671862, "lat": 40.3214524, "lon": 49.756663}, {"type": "node", "id": 11191671863, "lat": 40.3213934, "lon": 49.7566831}, {"type": "node", "id": 11191671864, "lat": 40.321191, "lon": 49.7555915}, {"type": "node", "id": 11191671865, "lat": 40.3212666, "lon": 49.7555432}, {"type": "node", "id": 4202598487, "lat": 40.3230079, "lon": 49.7771862}, {"type": "node", "id": 4202598488, "lat": 40.3229146, "lon": 49.7774637}, {"type": "node", "id": 4202598689, "lat": 40.3232093, "lon": 49.777634}, {"type": "node", "id": 4202598690, "lat": 40.3233025, "lon": 49.7773564}, {"type": "node", "id": 7567079058, "lat": 40.3471028, "lon": 49.7518708}, {"type": "node", "id": 7567079117, "lat": 40.3443113, "lon": 49.752146}, {"type": "node", "id": 7567079118, "lat": 40.3444717, "lon": 49.752724}, {"type": "node", "id": 7567079119, "lat": 40.3432186, "lon": 49.7533228}, {"type": "node", "id": 7567079120, "lat": 40.3430581, "lon": 49.7527448}, {"type": "node", "id": 11181901974, "lat": 40.3439028, "lon": 49.7529959}, {"type": "node", "id": 11181901978, "lat": 40.3437311, "lon": 49.7524233}, {"type": "node", "id": 11181901979, "lat": 40.3432055, "lon": 49.7532759}, {"type": "node", "id": 11181901980, "lat": 40.344457, "lon": 49.752671}, {"type": "node", "id": 11181901981, "lat": 40.3443937, "lon": 49.7524429}, {"type": "node", "id": 11181901982, "lat": 40.343148, "lon": 49.7530685}, {"type": "node", "id": 11181901983, "lat": 40.343075, "lon": 49.7528056}, {"type": "node", "id": 11181901984, "lat": 40.3443238, "lon": 49.7521912}, {"type": "node", "id": 11181977767, "lat": 40.3471364, "lon": 49.7519635}, {"type": "node", "id": 11181977780, "lat": 40.3472194, "lon": 49.7521927}, {"type": "node", "id": 7567079055, "lat": 40.3482211, "lon": 49.7511737}, {"type": "node", "id": 7567079056, "lat": 40.3484476, "lon": 49.7517991}, {"type": "node", "id": 7567079057, "lat": 40.3473293, "lon": 49.7524962}, {"type": "node", "id": 11181977764, "lat": 40.3472946, "lon": 49.7524003}, {"type": "node", "id": 11181977771, "lat": 40.3482408, "lon": 49.751928}, {"type": "node", "id": 11181977773, "lat": 40.3480099, "lon": 49.7513054}, {"type": "node", "id": 11181977774, "lat": 40.3479271, "lon": 49.7521235}, {"type": "node", "id": 11181977776, "lat": 40.3477002, "lon": 49.7514985}, {"type": "node", "id": 11181977777, "lat": 40.3476338, "lon": 49.7523064}, {"type": "node", "id": 11181977779, "lat": 40.3474069, "lon": 49.7516813}, {"type": "node", "id": 11181977781, "lat": 40.3483364, "lon": 49.7514921}, {"type": "node", "id": 3253251861, "lat": 40.3375786, "lon": 49.7772678}, {"type": "node", "id": 3253251862, "lat": 40.3374752, "lon": 49.7767491}, {"type": "node", "id": 3253251863, "lat": 40.3374017, "lon": 49.7767499}, {"type": "node", "id": 3253251864, "lat": 40.3376279, "lon": 49.7771964}, {"type": "node", "id": 3253251865, "lat": 40.3376569, "lon": 49.7771078}, {"type": "node", "id": 3253251866, "lat": 40.3376624, "lon": 49.7770117}, {"type": "node", "id": 3253251867, "lat": 40.3376438, "lon": 49.7769185}, {"type": "node", "id": 3253251868, "lat": 40.3376031, "lon": 49.7768382}, {"type": "node", "id": 3253251869, "lat": 40.3375448, "lon": 49.7767797}, {"type": "node", "id": 3253251870, "lat": 40.3373324, "lon": 49.7767819}, {"type": "node", "id": 3253251871, "lat": 40.3372748, "lon": 49.7768416}, {"type": "node", "id": 3253251872, "lat": 40.3372351, "lon": 49.7769227}, {"type": "node", "id": 3253251873, "lat": 40.3372177, "lon": 49.7770163}, {"type": "node", "id": 3253251874, "lat": 40.3372243, "lon": 49.7771123}, {"type": "node", "id": 3253251875, "lat": 40.3372543, "lon": 49.7772002}, {"type": "node", "id": 3253251876, "lat": 40.3373045, "lon": 49.7772706}, {"type": "node", "id": 3253251877, "lat": 40.3373694, "lon": 49.7773158}, {"type": "node", "id": 3253251878, "lat": 40.3374419, "lon": 49.7773309}, {"type": "node", "id": 3253251879, "lat": 40.3375143, "lon": 49.7773143}, {"type": "node", "id": 11186532241, "lat": 40.3403795, "lon": 49.781059}, {"type": "node", "id": 11186532298, "lat": 40.3396558, "lon": 49.7798869}, {"type": "node", "id": 11186532299, "lat": 40.3389126, "lon": 49.7793008}, {"type": "node", "id": 11186532300, "lat": 40.33916, "lon": 49.7787698}, {"type": "node", "id": 11186532301, "lat": 40.339898, "lon": 49.7793639}, {"type": "node", "id": 11186531233, "lat": 40.3409289, "lon": 49.7802235}, {"type": "node", "id": 11186531234, "lat": 40.3409994, "lon": 49.7802705}, {"type": "node", "id": 11186531235, "lat": 40.3414099, "lon": 49.7804958}, {"type": "node", "id": 11186531236, "lat": 40.3414477, "lon": 49.7805856}, {"type": "node", "id": 11186532237, "lat": 40.341555, "lon": 49.7806372}, {"type": "node", "id": 11186532238, "lat": 40.3414732, "lon": 49.7809122}, {"type": "node", "id": 11186532239, "lat": 40.3415576, "lon": 49.7810282}, {"type": "node", "id": 11186532242, "lat": 40.3408211, "lon": 49.7801471}, {"type": "node", "id": 11186532240, "lat": 40.3411809, "lon": 49.7817457}]}