{"version": 0.6, "generator": "Overpass API 0.7.62.8 e802775f", "osm3s": {"timestamp_osm_base": "2025-11-23T07:57:29Z", "copyright": "The data included in this document is from www.openstreetmap.org. The data is made available under ODbL."}, "elements": [{"type": "node", "id": 2133695430, "lat": 40.3475243, "lon": 49.8354009, "tags": {"name": "East Legend Panorama \\ Bay\u0131l", "tourism": "motel"}}, {"type": "node", "id": 2947466961, "lat": 40.303953, "lon": 49.8266892, "tags": {"amenity": "restaurant", "name": "D\u0259rya Bal\u0131q Evi", "name:az": "D\u0259rya Bal\u0131q Evi"}}, {"type": "node", "id": 2947466962, "lat": 40.3049653, "lon": 49.8244382, "tags": {"amenity": "restaurant", "name": "Nar \u015e\u0259rab Restoran"}}, {"type": "node", "id": 2947466963, "lat": 40.3052221, "lon": 49.8250588, "tags": {"amenity": "hospital", "name": "\u015e\u0131xovo Sanatoriyas\u0131", "tourism": "guest_house"}}, {"type": "node", "id": 2947508593, "lat": 40.3080643, "lon": 49.8108892, "tags": {"name": "X\u04d9zri Hotel \\ \u015e\u0131xov", "tourism": "hotel"}}, {"type": "node", "id": 2947527212, "lat": 40.3062125, "lon": 49.8026173, "tags": {"brand": "Ramada", "brand:wikidata": "Q1502859", "name": "Ramada Hotel \\ \u015e\u0131xov", "tourism": "hotel"}}, {"type": "node", "id": 2947541633, "lat": 40.3058087, "lon": 49.8013163, "tags": {"name": "Crescent Beach \\ Kresent Bi\u00e7 \u015e\u0131xov", "tourism": "hotel"}}, {"type": "node", "id": 2947705968, "lat": 40.306375, "lon": 49.8023834, "tags": {"amenity": "restaurant", "name": "Manqal Restoran \\ \u015e\u0131xov"}}, {"type": "node", "id": 2947705971, "lat": 40.3063048, "lon": 49.8025363, "tags": {"amenity": "restaurant", "name": "Ornament Restoran \\ \u015e\u0131xov"}}, {"type": "node", "id": 2947705973, "lat": 40.3057888, "lon": 49.801556, "tags": {"amenity": "restaurant", "name": "Terras Restoran \\ \u015e\u0131xov"}}, {"type": "node", "id": 2947705974, "lat": 40.3063811, "lon": 49.8012189, "tags": {"amenity": "restaurant", "name": "Wild West \\ \u015e\u0131xov"}}, {"type": "node", "id": 3330676593, "lat": 40.341163, "lon": 49.8311603, "tags": {"addr:street": "G\u00fclbala \u018fliyev", "amenity": "restaurant", "capacity": "300", "cuisine": "regional", "name": "Bak\u0131 Gec\u0259l\u0259ri \\ Bay\u0131l"}}, {"type": "node", "id": 3409596053, "lat": 40.3466894, "lon": 49.8385383, "tags": {"name": "Golden Coast Hotel - Qolden Koust \\ Bay\u0131l", "tourism": "hotel"}}, {"type": "node", "id": 3409596054, "lat": 40.3476286, "lon": 49.8367952, "tags": {"addr:street": "Qurban Abbasov k\u00fc\u00e7.", "name": "Crown Hotel - Kroun Otel \\ Bay\u0131l", "phone": "+994124910227", "tourism": "hotel", "website": "https://www.crownhotelbaku.com/"}}, {"type": "node", "id": 3409596055, "lat": 40.3481893, "lon": 49.833325, "tags": {"name": "Nur 1 \\ Bay\u0131l", "tourism": "motel"}}, {"type": "node", "id": 3409596056, "lat": 40.344106, "lon": 49.8401484, "tags": {"historic": "memorial", "name": "Qafar M\u0259mm\u0259dovun heyk\u0259li \\ Bay\u0131l"}}, {"type": "node", "id": 3409596057, "lat": 40.3445857, "lon": 49.8363216, "tags": {"internet_access": "wlan", "name": "Red Rut \\ Bay\u0131l", "tourism": "motel"}}, {"type": "node", "id": 3636557823, "lat": 40.3382535, "lon": 49.8036357, "tags": {"historic": "memorial", "name": "Heyd\u0259r \u018fliyev"}}, {"type": "node", "id": 3678139460, "lat": 40.3452618, "lon": 49.8410776, "tags": {"amenity": "cafe", "name": "\u00c7empion Kafesi \\ Bay\u0131l"}}, {"type": "node", "id": 4219814709, "lat": 40.3431321, "lon": 49.8414163, "tags": {"addr:housenumber": "3", "addr:street": "Aydin Nasirov", "amenity": "restaurant", "cuisine": "steak_house", "name": "Mangal Steak House \\ Bay\u0131l", "opening_hours": "Mo-Su 10:00-03:00", "phone": "+994125051011", "website": "https://www.facebook.com/Mangal.Steak.House1"}}, {"type": "node", "id": 4365342992, "lat": 40.3376231, "lon": 49.8059332, "tags": {"addr:postcode": "1010", "addr:street": "Seymur Mammadov 1", "amenity": "restaurant", "internet_access": "wlan", "name:en": "KARAT", "opening_hours": "Mo-Su 10:00-01:00"}}, {"type": "node", "id": 4370535798, "lat": 40.3393701, "lon": 49.8375124, "tags": {"addr:city": "Bak\u0131", "addr:postcode": "AZ1003", "amenity": "arts_centre", "internet_access": "wlan", "name": "YARAT Contemporary Art Center", "opening_hours": "Tu-Su 12:00-20:00", "phone": "+994502461414", "tourism": "artwork", "website": "https://yarat.az", "wikidata": "Q107648928", "wikipedia": "az:YARAT M\u00fcasir \u0130nc\u0259s\u0259n\u0259t M\u0259kan\u0131"}}, {"type": "node", "id": 4396755397, "lat": 40.3395882, "lon": 49.8382892, "tags": {"addr:street": "Salyan Highway", "name": "R\u0259ngkarl\u0131q Muzeyi \\ Bay\u0131l", "tourism": "museum"}}, {"type": "node", "id": 4396774991, "lat": 40.3394523, "lon": 49.8377818, "tags": {"addr:street": "Salyan Highway", "amenity": "restaurant", "cuisine": "mexican", "name": "Maya Marco Ferreyra \\ Bay\u0131l", "operator": "Marco Ferreyra", "phone": "+994124048216"}}, {"type": "node", "id": 4427912219, "lat": 40.3496153, "lon": 49.8351925, "tags": {"amenity": "restaurant", "name": "Moon Crown - Mun Koun \\ Bay\u0131l"}}, {"type": "node", "id": 4427912225, "lat": 40.3461085, "lon": 49.8381574, "tags": {"amenity": "restaurant", "cuisine": "georgian", "name": "G\u00fcrc\u00fc X\u00f6r\u04d9kl\u04d9ri \\ Bay\u0131l"}}, {"type": "node", "id": 4427992201, "lat": 40.3494265, "lon": 49.8353506, "tags": {"amenity": "cafe", "internet_access": "wlan", "name": "Brooklyn Cafe \\ Bay\u0131l"}}, {"type": "node", "id": 4428002490, "lat": 40.349509, "lon": 49.8352819, "tags": {"amenity": "restaurant", "internet_access": "wlan", "name": "Grace Terrace - Qreys Teras \\ Bay\u0131l", "phone": "0124913871"}}, {"type": "node", "id": 4483787093, "lat": 40.3401068, "lon": 49.8073842, "tags": {"addr:city": "Bak\u0131", "addr:street": "\u018fziz N\u0259z\u0259rov k\u00fc\u00e7\u0259si", "amenity": "restaurant", "name": "AEF Restoran", "name:en": "AEF Restoran", "outdoor_seating": "no", "takeaway": "yes"}}, {"type": "node", "id": 4484232190, "lat": 40.3415062, "lon": 49.8106444, "tags": {"amenity": "cafe", "name": "Monroe kafe"}}, {"type": "node", "id": 4485084391, "lat": 40.3474292, "lon": 49.8288825, "tags": {"description": "\u0425\u043e\u0440\u043e\u0448\u0438\u0439 \u0432\u0438\u0434 \u043d\u0430 \u0433\u043e\u0440\u043e\u0434 \u043e\u0442 \u043d\u0430\u0447\u0430\u043b\u0430 \u0431\u0443\u043b\u044c\u0432\u0430\u0440\u0430 \u0434\u043e \u043f\u043b\u043e\u0449\u0430\u0434\u0438 \u0444\u043b\u0430\u0433\u0430", "tourism": "viewpoint"}}, {"type": "node", "id": 4485089689, "lat": 40.3450708, "lon": 49.8317759, "tags": {"name": "M\u0259nz\u0259r\u0259 n\u00f6qt\u0259si / Bay\u0131l", "tourism": "viewpoint"}}, {"type": "node", "id": 4485168107, "lat": 40.3420469, "lon": 49.8396399, "tags": {"amenity": "cafe", "name": "Kafe \\ Bay\u0131l"}}, {"type": "node", "id": 4485201310, "lat": 40.3329899, "lon": 49.8424839, "tags": {"name:en": "Oil Pump", "opening_hours": "24/7", "tourism": "attraction"}}, {"type": "node", "id": 4485218889, "lat": 40.3358957, "lon": 49.8391393, "tags": {"amenity": "cafe", "name:en": "Barrel Kafe"}}, {"type": "node", "id": 4485300890, "lat": 40.3078719, "lon": 49.8224183, "tags": {"amenity": "cafe"}}, {"type": "node", "id": 4485306592, "lat": 40.3046109, "lon": 49.8251738, "tags": {"amenity": "restaurant", "name": "X\u0259z\u0259r Bal\u0131q Evi"}}, {"type": "node", "id": 4485306891, "lat": 40.3041846, "lon": 49.8263287, "tags": {"amenity": "restaurant", "name": "Bulbul Bal\u0131q Evi"}}, {"type": "node", "id": 4485306895, "lat": 40.3051139, "lon": 49.8239152, "tags": {"name:en": "Sapphire Marine Hotel", "tourism": "hotel"}}, {"type": "node", "id": 4485306896, "lat": 40.3052898, "lon": 49.8238604, "tags": {"amenity": "restaurant", "name:en": "Loja Lounge"}}, {"type": "node", "id": 4512306333, "lat": 40.3424372, "lon": 49.8102003, "tags": {"addr:city": "Bak\u0131", "addr:street": "Badamdar \u015fossesi", "amenity": "restaurant", "internet_access": "wlan", "name": "Hollywood Cinema Restoran\u0131 \\ Badamdar", "phone": "055 849 49 49"}}, {"type": "node", "id": 4512641392, "lat": 40.3404089, "lon": 49.810194, "tags": {"addr:street": "Badamdar \u015fossesi", "amenity": "restaurant", "name": "Gold Saray \u015eadl\u0131q Evi \\ Badamdar"}}, {"type": "node", "id": 4533865890, "lat": 40.3299861, "lon": 49.8201122, "tags": {"amenity": "restaurant", "name:en": "Xengel xana"}}, {"type": "node", "id": 4615933690, "lat": 40.325757, "lon": 49.8047379, "tags": {"addr:street": "3-c\u00fc massiv, Badamdar", "amenity": "restaurant", "name": "Halal s\u00fcfr\u04d9"}}, {"type": "node", "id": 4621858292, "lat": 40.3369127, "lon": 49.8221377, "tags": {"tourism": "camp_site"}}, {"type": "node", "id": 4621865589, "lat": 40.3388415, "lon": 49.8051574, "tags": {"amenity": "cafe", "name:en": "\u015e\u0259ki kafesi"}}, {"type": "node", "id": 4629625691, "lat": 40.3394271, "lon": 49.804072, "tags": {"amenity": "restaurant", "name": "Tiflis", "name:en": "Tiflis"}}, {"type": "node", "id": 4683024671, "lat": 40.3480048, "lon": 49.8353356, "tags": {"name": "Kalipso Hostel \\ Bay\u0131l", "tourism": "hostel"}}, {"type": "node", "id": 4686319401, "lat": 40.3480648, "lon": 49.8119614, "tags": {"name": "921 Davud badamdar", "tourism": "artwork"}}, {"type": "node", "id": 4718575490, "lat": 40.3447862, "lon": 49.8358823, "tags": {"addr:street": "Ayd\u0131n M\u0259mm\u0259dov", "name": "RBA Metin's home \\ Bay\u0131l", "tourism": "guest_house"}}, {"type": "node", "id": 4737495721, "lat": 40.3445078, "lon": 49.8356381, "tags": {"addr:postcode": "AZ1003", "internet_access": "wlan", "name:en": "Ali Nazmi Apartment 89", "name:ru": "\u0410\u043f\u043f\u0430\u0440\u0442\u0430\u043c\u0435\u043d\u0442\u044b \u0410\u043b\u0438 \u041d\u0430\u0437\u043c\u0438 89", "tourism": "guest_house"}}, {"type": "node", "id": 4770731722, "lat": 40.3370911, "lon": 49.8249668, "tags": {"amenity": "cafe", "name:en": "Faiq Kafe"}}, {"type": "node", "id": 4786122089, "lat": 40.3198906, "lon": 49.8308885, "tags": {"name": "Oil Pump Field", "name:az": "Neft Buruqlar\u0131", "tourism": "attraction"}}, {"type": "node", "id": 4845317424, "lat": 40.3350802, "lon": 49.8100403, "tags": {"amenity": "restaurant", "name": "Badamdar Merasim Evi", "phone": "0504361000", "website": "https://www.cadirxidmeti.az/"}}, {"type": "node", "id": 4979411421, "lat": 40.3463754, "lon": 49.8456639, "tags": {"amenity": "restaurant", "name:en": "Panoramica", "name:ru": "\u041f\u0430\u043d\u043e\u0440\u0430\u043c\u0438\u043a\u0430"}}, {"type": "node", "id": 4986989822, "lat": 40.3364194, "lon": 49.836081, "tags": {"amenity": "cafe", "name:en": "Relax Cafe"}}, {"type": "node", "id": 4997036121, "lat": 40.3395606, "lon": 49.8417618, "tags": {"historic": "memorial", "name": "Qatar Abid\u0259si \\ Bay\u0131l"}}, {"type": "node", "id": 4999671224, "lat": 40.3344513, "lon": 49.8325569, "tags": {"name:en": "Derrick - oil well wood monument", "name:ru": "\u0414\u0435\u0440\u0435\u0432\u044f\u043d\u043d\u0430\u044f \u043d\u0435\u0444\u0442\u044f\u043d\u0430\u044f \u0432\u044b\u0448\u043a\u0430", "opening_hours": "24/7", "tourism": "attraction"}}, {"type": "node", "id": 5091526821, "lat": 40.345595, "lon": 49.810287, "tags": {"amenity": "cafe", "name": "Servis kafe"}}, {"type": "node", "id": 5442661331, "lat": 40.3459454, "lon": 49.8099837, "tags": {"addr:housenumber": "0125057394", "email": "isultan854@gmail.com", "internet_access": "wlan", "name": "S\u0259bail \u0130nn Hotel \\ Badamdar", "opening_hours": "24/7", "phone": "+994505111281", "tourism": "hotel"}}, {"type": "node", "id": 5469300921, "lat": 40.3452235, "lon": 49.8409261, "tags": {"amenity": "restaurant", "name": "Beer Hall \\ Bay\u0131l"}}, {"type": "node", "id": 5610995716, "lat": 40.3423188, "lon": 49.8041163, "tags": {"amenity": "marketplace", "name": "Nurlan market"}}, {"type": "node", "id": 5659268727, "lat": 40.3445806, "lon": 49.804265, "tags": {"historic": "monument"}}, {"type": "node", "id": 5839410885, "lat": 40.3395831, "lon": 49.8377139, "tags": {"amenity": "cafe", "name": "\u0130l Patio \\ Bay\u0131l"}}, {"type": "node", "id": 5850778076, "lat": 40.3385494, "lon": 49.8067891, "tags": {"addr:city": "Bak\u0131", "addr:postcode": "AZ1021", "addr:street": "G\u00f6y\u00fc\u015f Qarayev k\u00fc\u00e7\u0259si", "amenity": "restaurant", "name": "Badam kafesi", "outdoor_seating": "yes", "takeaway": "yes"}}, {"type": "node", "id": 5850783549, "lat": 40.3400838, "lon": 49.8077508, "tags": {"addr:city": "Bak\u0131", "addr:postcode": "AZ1021", "addr:street": "\u018fziz N\u0259z\u0259rov k\u00fc\u00e7\u0259si", "amenity": "restaurant", "name": "Tava kafesi", "outdoor_seating": "yes", "smoking": "no", "takeaway": "yes"}}, {"type": "node", "id": 6071348209, "lat": 40.3036492, "lon": 49.8290284, "tags": {"addr:city": "Bak\u0131", "addr:housenumber": "17", "addr:street": "Namiq Quliyev", "amenity": "restaurant", "contact:phone": "+994 50 588 40 04", "cuisine": "fish", "name": "\u015e\u0259fa restoran\u0131 Fish Garden / Bay\u0131l", "name:en": "Shefa Restaurant (Fish Garden)", "name:ru": "\u0440\u0435\u0441\u0442\u043e\u0440\u0430\u043d \u0428\u0435\u0444\u0430 (Fish Garden)", "opening_hours": "Mo-Su 09:00-21:00", "outdoor_seating": "yes", "takeaway": "yes"}}, {"type": "node", "id": 6462842285, "lat": 40.3398399, "lon": 49.8350568, "tags": {"addr:housenumber": "11", "addr:street": "G\u00fclbala \u018fliyev", "amenity": "restaurant", "cuisine": "regional", "internet_access": "wlan", "name": "\u0130nam Restoran \\ Bay\u0131l", "opening_hours": "Mo-Su 09:00-23:55", "phone": "+994505222305"}}, {"type": "node", "id": 6683295785, "lat": 40.3459045, "lon": 49.8087416, "tags": {"name:ru": "\u0414\u043e\u043c", "tourism": "hotel"}}, {"type": "node", "id": 7133140185, "lat": 40.3133756, "lon": 49.8093889, "tags": {"name": "Fluidforce Engineering \\ \u015e\u0131xov", "office": "government", "tourism": "apartment"}}, {"type": "node", "id": 7301464985, "lat": 40.3384451, "lon": 49.8070565, "tags": {"name:en": "Munasib senaye", "tourism": "artwork"}}, {"type": "node", "id": 8931310062, "lat": 40.3373731, "lon": 49.8420034, "tags": {"fee": "yes", "name": "\"SURAXANI\" Ship Museum", "name:en": "G\u04d9mi\u00e7ilik Muzeyi", "name:tr": "G\u04d9mi\u00e7ilik Muzeyi", "opening_hours": "We-Su 10:00-18:00", "tourism": "museum", "website": "https://surakhanishipmuseum.az/"}}, {"type": "node", "id": 8933063750, "lat": 40.3382278, "lon": 49.8080712, "tags": {"name": "Hillmond Hotel Badamdar", "tourism": "hotel"}}, {"type": "node", "id": 9697412821, "lat": 40.3364091, "lon": 49.8314945, "tags": {"addr:city": "Bak\u0131", "addr:housenumber": "2", "addr:street": "Salyan \u015eosesi", "amenity": "restaurant", "name": "Arada Meyhane restoran", "phone": "+994708756959", "website": "https://www.instagram.com/arada_bulvar/?hl=en"}}, {"type": "node", "id": 9885980783, "lat": 40.3055828, "lon": 49.8238201, "tags": {"amenity": "cafe", "name": "Bal\u0131q Yem\u0259kl\u0259ri"}}, {"type": "node", "id": 9885980803, "lat": 40.3053486, "lon": 49.8237115, "tags": {"name": "Sapfir Marine Hotel", "tourism": "hotel"}}, {"type": "node", "id": 9885980807, "lat": 40.3039259, "lon": 49.827252, "tags": {"amenity": "restaurant", "name": "D\u0259niz Bal\u0131q Evi", "name:az": "D\u0259niz Bal\u0131q Evi"}}, {"type": "node", "id": 9885982833, "lat": 40.3044005, "lon": 49.8272561, "tags": {"amenity": "restaurant", "name": "Yar\u0131mada Restoran"}}, {"type": "node", "id": 9885982838, "lat": 40.305232, "lon": 49.8255193, "tags": {"name": "\u015e\u0131x Oteli", "tourism": "guest_house"}}, {"type": "node", "id": 9895709165, "lat": 40.3299021, "lon": 49.8187977, "tags": {"name": "20-ci Sah\u0259 dair\u0259si", "tourism": "attraction"}}, {"type": "node", "id": 9895886513, "lat": 40.3305605, "lon": 49.8184074, "tags": {"amenity": "restaurant", "name": "Elay \u015eadl\u0131q Saray\u0131"}}, {"type": "node", "id": 9895970207, "lat": 40.3358101, "lon": 49.8309159, "tags": {"name": "Carisma Hotel - Karizma / Bay\u0131l", "tourism": "hotel"}}, {"type": "node", "id": 9895970208, "lat": 40.3359481, "lon": 49.8304023, "tags": {"name": "Renessans Hotel / Bay\u0131l", "tourism": "hotel"}}, {"type": "node", "id": 9895991304, "lat": 40.3383831, "lon": 49.8341668, "tags": {"name": "Bay\u0131l Dair\u0259si / Bulvar", "tourism": "attraction"}}, {"type": "node", "id": 9896126921, "lat": 40.3384168, "lon": 49.8334292, "tags": {"amenity": "restaurant", "name": "Restart Lounge"}}, {"type": "node", "id": 9896126922, "lat": 40.3383258, "lon": 49.8325843, "tags": {"name": "Naberejnaya Hotel / Bay\u0131l", "tourism": "hotel"}}, {"type": "node", "id": 9896126923, "lat": 40.3384015, "lon": 49.8332427, "tags": {"name": "Restart Hotel / Bay\u0131l", "tourism": "hotel"}}, {"type": "node", "id": 9900576811, "lat": 40.341787, "lon": 49.8318762, "tags": {"name": "East Coziness Qonaq Evi", "tourism": "guest_house"}}, {"type": "node", "id": 9900576812, "lat": 40.3415642, "lon": 49.8320881, "tags": {"name": "Pink Palas Qonaq Evi", "tourism": "guest_house"}}, {"type": "node", "id": 9900590824, "lat": 40.3468094, "lon": 49.8208436, "tags": {"amenity": "cafe", "name": "Sahib Kafe \\ Bay\u0131l"}}, {"type": "node", "id": 9900590922, "lat": 40.3409856, "lon": 49.8313746, "tags": {"amenity": "restaurant", "name": "Oazis Restoran \\ Bay\u0131l"}}, {"type": "node", "id": 9900653230, "lat": 40.347786, "lon": 49.8366532, "tags": {"amenity": "restaurant", "name": "Lamiraj Restoran \\ Bay\u0131l"}}, {"type": "node", "id": 9900653231, "lat": 40.3477175, "lon": 49.8370783, "tags": {"amenity": "restaurant", "name": "Panoramik Restoran \\ Bay\u0131l"}}, {"type": "node", "id": 9902608748, "lat": 40.3394002, "lon": 49.809005, "tags": {"amenity": "cafe", "name": "Q\u0259dim G\u0259nc\u0259 Badamdar"}}, {"type": "node", "id": 9902608760, "lat": 40.3383105, "lon": 49.8080809, "tags": {"amenity": "restaurant", "name": "Saint Severin Restoran"}}, {"type": "node", "id": 9902608762, "lat": 40.3429646, "lon": 49.8102012, "tags": {"amenity": "cafe", "name": "Dinamit Fast Food"}}, {"type": "node", "id": 9902643316, "lat": 40.3411645, "lon": 49.8101167, "tags": {"name": "Rest Aurant Hotel", "tourism": "hotel"}}, {"type": "node", "id": 9902680718, "lat": 40.3414589, "lon": 49.8101476, "tags": {"amenity": "restaurant", "name": "\u00dcmr\u0259 M\u0259rasim Zal\u0131 \\ Badamdar"}}, {"type": "node", "id": 9902680721, "lat": 40.341462, "lon": 49.8094931, "tags": {"name": "Neft Qaz \u00c7\u0131xarma Yataqxanas\u0131", "tourism": "guest_house"}}, {"type": "node", "id": 9903716413, "lat": 40.3430958, "lon": 49.8106213, "tags": {"amenity": "restaurant", "name": "L\u0259nk\u0259ran S\u00fcfr\u0259si"}}, {"type": "node", "id": 9903716414, "lat": 40.3429765, "lon": 49.8106225, "tags": {"amenity": "restaurant", "name": "Q\u0131z\u0131l Bal\u0131q"}}, {"type": "node", "id": 9904901634, "lat": 40.3352345, "lon": 49.8096313, "tags": {"name": "Continent Hotel \\ Badamdar", "tourism": "hotel"}}, {"type": "node", "id": 9904901635, "lat": 40.3343921, "lon": 49.8103273, "tags": {"name": "Sea Pearl Hotel / Si Perl", "tourism": "hotel"}}, {"type": "node", "id": 9904901660, "lat": 40.3344024, "lon": 49.8097077, "tags": {"amenity": "restaurant", "name": "B\u0259yo\u011flu \u015eadl\u0131q Saray\u0131 \\ Badamdar"}}, {"type": "node", "id": 9913353972, "lat": 40.3485658, "lon": 49.8349553, "tags": {"name": "Home Suites Baku Hotel", "tourism": "hotel"}}, {"type": "node", "id": 9913353978, "lat": 40.347186, "lon": 49.8370877, "tags": {"amenity": "restaurant", "name": "Mayak Restoran \\ Bay\u0131l"}}, {"type": "node", "id": 9919926208, "lat": 40.3417329, "lon": 49.8388834, "tags": {"name": "Sea Park Hotel", "tourism": "motel"}}, {"type": "node", "id": 9919926209, "lat": 40.3419322, "lon": 49.8390443, "tags": {"amenity": "restaurant", "name": "Ziyaf\u0259t Restoran\u0131 \\ Bay\u0131l"}}, {"type": "node", "id": 9920053642, "lat": 40.3497606, "lon": 49.834718, "tags": {"name": "Zamzam Otel / Bay\u0131l", "tourism": "motel"}}, {"type": "node", "id": 9920053643, "lat": 40.3498158, "lon": 49.8350734, "tags": {"amenity": "restaurant", "name": "K\u00fcr\u0259m Restoran \\ Bay\u0131l"}}, {"type": "node", "id": 9947888217, "lat": 40.3056882, "lon": 49.8036478, "tags": {"addr:housenumber": "1023", "addr:street": "Salyan Highway", "amenity": "restaurant", "cuisine": "asian", "internet_access": "wlan", "name": "Marmaris Baku Restaurant \\ \u015e\u0131xov", "opening_hours": "24/7", "phone": "+994 55 225 34 33", "website": "https://www.instagram.com/marmarisbaku/"}}, {"type": "node", "id": 10087219824, "lat": 40.3391755, "lon": 49.8349284, "tags": {"amenity": "cafe", "name": "Kafe Meh \\ Bay\u0131l"}}, {"type": "node", "id": 10181909169, "lat": 40.3426089, "lon": 49.8401079, "tags": {"email": "info.bayil@sapphire.az", "internet_access": "wlan", "internet_access:fee": "no", "name": "Sapphire Bayil Hotel \\ Bay\u0131l", "phone": "+994 51 207 63 42", "smoking": "dedicated", "stars": "4", "tourism": "hotel", "website": "https://www.sapphire.az/en/hotels/bayil"}}, {"type": "node", "id": 10558959109, "lat": 40.3493204, "lon": 49.8104468, "tags": {"name": "Reqsl \u0130nn Otel \\ Badamdar", "name:en": "Regal \u0130nn Hotel \\ Badamdar", "tourism": "hotel"}}, {"type": "node", "id": 10998007502, "lat": 40.3459401, "lon": 49.8102508, "tags": {"addr:city": "Badamdar", "addr:postcode": "AZ1003", "addr:street": "Badamdar \u015eossesi", "facebook": "https://www.facebook.com/Badamdar-Hostel-1446988208739286/", "name": "Badamdar Hostel", "tourism": "guest_house"}}, {"type": "node", "id": 11004303806, "lat": 40.349083, "lon": 49.8359987, "tags": {"name": "Bay\u0131l Plaza \\ Bay\u0131l", "tourism": "hotel"}}, {"type": "node", "id": 11004303807, "lat": 40.3420794, "lon": 49.8389679, "tags": {"name": "16 m\u0259rt\u0259b\u0259 \\ Bay\u0131l", "tourism": "attraction"}}, {"type": "node", "id": 11690049369, "lat": 40.3499462, "lon": 49.8345428, "tags": {"name:en": "Tour Hotel Baku", "tourism": "hotel"}}, {"type": "node", "id": 12919495501, "lat": 40.3109586, "lon": 49.8176468, "tags": {"tourism": "viewpoint"}}, {"type": "node", "id": 12919495601, "lat": 40.3097732, "lon": 49.8177117, "tags": {"tourism": "viewpoint"}}, {"type": "node", "id": 12919495701, "lat": 40.3077707, "lon": 49.8170513, "tags": {"tourism": "viewpoint"}}, {"type": "way", "id": 152301644, "nodes": [1651297808, 2558766588, 2558766586, 2558766613, 1651297844, 2558766617, 3385716655, 2558766587, 3385716654, 1651297843, 3385716653, 1651297797, 3385716652, 2558766622, 3385716651, 1651297804, 1651297809, 1651297805, 2558766603, 2558766611, 1651297813, 2558766601, 2558766612, 1651297824, 2841146472, 1651297861, 1651297811, 1651297832, 1651297851, 3636138395, 1651297800, 2558766605, 1651297823, 2558766618, 1651297840, 2558766585, 2558766593, 2558766581, 2558766602, 2558766607, 2558766597, 2558766583, 2558766598, 1651297825, 1651297858, 2558766623, 2558766584, 1651297795, 1651297807, 1651297836, 2558766590, 2558766596, 2558766604, 1651297834, 2558766595, 2558766614, 2558766615, 3385716656, 2558766580, 1651297838, 3385716657, 1651297828, 3385716658, 2558766579, 3385716659, 2558766599, 2558766606, 3385716660, 1651297853, 2558766620, 1651297803, 2558766616, 1651297862, 2558766600, 2558766624, 2558766609, 2558766625, 1651297860, 1651297856, 2558766608, 1651297796, 1651297806, 2558766621, 3636138401, 1651297808], "tags": {"building": "public", "historic": "monument", "name": "D\u00f6vl\u0259t Bayra\u011f\u0131 Meydan\u0131", "name:az": "D\u00f6vl\u0259t Bayra\u011f\u0131 Meydan\u0131", "name:en": "National Flag Square", "name:fa": "\u0645\u06cc\u062f\u0627\u0646 \u067e\u0631\u0686\u0645 \u0645\u0644\u06cc", "wikidata": "Q621107", "wikimedia_commons": "Category:Square of State Flag in Baku", "wikipedia": "az:D\u00f6vl\u0259t Bayra\u011f\u0131 Meydan\u0131"}}, {"type": "way", "id": 153789415, "nodes": [1664291499, 1664291505, 9895709198, 1664291502, 1664291504, 1664291499], "tags": {"leisure": "park"}}, {"type": "way", "id": 249204940, "nodes": [2558516984, 2558517007, 2558517027, 2558517051, 2558516984], "tags": {"leisure": "park", "name": "Qafur M\u0259mm\u0259dov Park\u0131 \\ Bay\u0131l", "name:en": "Qafur Mammadov Park \\ Bayil"}}, {"type": "way", "id": 265910124, "nodes": [11203388715, 11203388711, 11203388727, 11203388712, 11203388713, 11203388714, 11203388716, 7570545125, 11203427815, 11203427814, 2947419379, 3638917695, 3638917707, 3638917708, 3638917761, 3638917780, 3638917794, 3638917806, 3638917826, 11203388805, 2715171739, 11203388802, 11203388804, 11203388801, 11203388800, 2715171740, 11203388799, 11203388798, 11203388797, 11203388796, 11203388795, 11203388794, 11203388793, 3638917884, 11203388790, 11203388791, 11203388792, 3638917889, 3638917909, 2715171741, 11203388789, 3638917921, 2715171742, 11203388786, 11203388788, 11203388787, 3638917916, 11203388783, 11203388784, 11203388785, 2948842217, 2715171743, 2947419385, 9906251668, 9906251669, 2947419375, 3638915979, 3638915969, 9906251670, 2947419373, 3638915968, 11203388809, 2947419372, 11203388810, 2947419374, 11203388811, 2715171744, 3638915987, 11203388715], "tags": {"leisure": "park", "name": "Velopark \\ \u015e\u0131xov"}}, {"type": "way", "id": 272020238, "nodes": [2558512322, 2558512331, 2558512326, 2769470628, 2769470629, 2769470631, 2769470632, 2769470633, 2845414971, 2845414972, 2769470634, 2845414973, 2845414974, 2845414975, 2845414976, 2845414977, 2845414985, 2845414978, 2845414979, 2845414984, 2845414980, 2845414981, 2845414983, 2845414982, 2845414968, 2845414970, 2845414969, 2845414967, 2769470635, 2558512322], "tags": {"leisure": "park"}}, {"type": "way", "id": 272020241, "nodes": [2769470636, 2769470637, 2769470638, 2769470640, 2769470641, 2769470642, 2769470643, 2769470644, 2769470645, 2769470646, 2558512351, 2558512300, 2769470648, 2769470636], "tags": {"leisure": "park"}}, {"type": "way", "id": 272020243, "nodes": [2769470649, 2769470650, 2769470652, 2769470653, 2769470654, 2769470656, 2769470655, 13019686563, 2769470649], "tags": {"leisure": "park"}}, {"type": "way", "id": 272020245, "nodes": [2769470657, 2769470658, 2769470659, 2769470660, 2769470661, 2769470662, 2769470664, 2769470665, 3636138403, 2769470667, 13019686656, 2769470668, 2769470657], "tags": {"leisure": "park"}}, {"type": "way", "id": 272020248, "nodes": [2769470670, 2769470671, 2769470672, 2769470673, 2769470674, 2769470675, 2769470677, 2769470678, 2769470679, 13019686484, 2769470670], "tags": {"leisure": "park"}}, {"type": "way", "id": 272020253, "nodes": [2769470721, 2769470723, 2769470725, 2769470727, 2769470730, 2769470732, 2769470734, 2769470736, 13019686446, 2769470739, 2769470741, 2769470743, 2769470745, 2769470721], "tags": {"leisure": "park"}}, {"type": "way", "id": 272020256, "nodes": [2769470746, 2769470748, 2769470750, 2769470752, 2769470754, 2769470757, 2769470760, 13019686359, 2769470762, 2769470746], "tags": {"leisure": "park"}}, {"type": "way", "id": 272020258, "nodes": [2769470765, 2769470770, 2769470771, 2769470772, 2769470773, 2769470775, 2769470777, 2769470778, 2769470779, 2769470780, 2769470765], "tags": {"leisure": "park"}}, {"type": "way", "id": 272663611, "nodes": [2775985841, 2775985842, 2775985843, 2775985844, 2775985841], "tags": {"addr:city": "Baku", "addr:postcode": "az1021", "addr:street": "Baglar street", "amenity": "restaurant", "building": "yes", "building:levels": "5", "capacity": "50", "cuisine": "regional", "name": "AEF Hotel", "smoking": "yes"}}, {"type": "way", "id": 291301007, "nodes": [2947466987, 2947466985, 2947466981, 2947466977, 2947466979, 2947466978, 2947466969, 2947466970, 2947466973, 2947466974, 2947466980, 2947466984, 2947466988, 2947466987], "tags": {"leisure": "park"}}, {"type": "way", "id": 291306562, "nodes": [2947528964, 2947528968, 2947528946, 2947528930, 2947528933, 2947528908, 2947528920, 2947528903, 2947528911, 2947528925, 2947528942, 2947528953, 2947528964], "tags": {"leisure": "park"}}, {"type": "way", "id": 291306564, "nodes": [2947528973, 2947528969, 2947528955, 2947528958, 798734957, 798734960, 2947528951, 2947528963, 2947528972, 2947528971, 2947528962, 2947528944, 2947528966, 2947528954, 2947528947, 2947528926, 2947528924, 2947528978, 1657097339, 2947528980, 2947528973], "tags": {"leisure": "park"}}, {"type": "way", "id": 291742772, "nodes": [2952321137, 2952321164, 2952321162, 11208646363, 11208646362, 258029067, 2952321134, 2952321137], "tags": {"natural": "beach"}}, {"type": "way", "id": 291742777, "nodes": [2952321136, 2952321145, 2952321146, 2952321150, 2952321157, 2952321144, 2952321141, 2952321138, 2952321136], "tags": {"natural": "beach"}}, {"type": "way", "id": 358729429, "nodes": [3636135096, 13018134781, 13018134780, 13019444616, 3636135148, 3636135155, 3636135166, 3636135167, 3636135184, 3636135185, 3636135203, 3636135210, 13018134715, 13018134704, 13018134703, 3636135243, 3636135261, 3636135282, 3636135300, 3636135307, 3636135314, 3636135313, 13018134784, 3636135316, 3636135317, 3636135318, 13018086291, 13018086292, 3636135312, 3636135305, 3636135299, 13019444706, 3636135291, 13019444662, 3636135273, 13019445265, 3636135259, 13019445264, 3636135250, 3636135244, 3636135239, 3636135236, 3636135230, 3636135227, 3636135217, 3636135209, 3636135208, 3636135204, 2558774059, 13019445071, 13019445072, 3636135172, 13019445083, 2558774030, 3636135163, 13019445078, 3636135153, 13019445405, 13019445406, 13019445429, 13019445401, 13019445402, 13019445432, 2558774078, 3636135096], "tags": {"leisure": "park"}}, {"type": "way", "id": 358729430, "nodes": [3636135040, 3636135035, 3636135036, 3636135030, 3636135029, 3636135022, 3636135017, 3636135026, 3636135025, 3636135015, 3636135011, 3636135024, 3636135023, 3636135027, 3636135032, 3636135038, 6485432285, 3636135040], "tags": {"building": "yes", "leisure": "sports_centre", "name": "Avropa Oyunlar\u0131 Park\u0131", "tourism": "attraction", "wikidata": "Q25542778", "wikipedia": "az:Avropa Oyunlar\u0131 Park\u0131"}}, {"type": "way", "id": 358732509, "nodes": [3636151812, 3743884971, 3743884946, 3636151587, 3636151574, 3743884940, 3743884939, 3743884938, 3743884937, 3636151555, 3636151550, 3636151562, 3636151565, 3636151581, 3636151797, 11903264725, 3636151588, 3636151794, 9890386778, 9890386779, 9890386780, 3636152814, 3636151799, 3636151809, 3743903061, 3743903062, 7527787564, 7527787565, 3636152815, 3636152816, 3636151812], "tags": {"leisure": "park"}}, {"type": "way", "id": 358732510, "nodes": [3636151821, 3636151813, 3636151796, 3636151583, 3636151585, 3636151584, 3636151582, 3636151579, 3636151586, 3636151591, 3636151798, 3636151800, 3636151802, 3636151804, 3636151805, 3636151803, 3636151801, 3743903056, 3636151807, 3636151808, 3636151811, 5622906725, 3743903070, 9890386758, 3743903074, 3636151816, 3636152818, 3636151820, 9896126953, 3636151818, 3636151817, 3636151819, 3636151822, 3636151821], "tags": {"leisure": "park"}}, {"type": "way", "id": 358732512, "nodes": [3636151793, 3636151578, 3636151575, 3636151573, 3636151570, 3636151567, 3636151559, 3636151542, 3636151541, 3636151793], "tags": {"leisure": "park"}}, {"type": "way", "id": 358805090, "nodes": [3636557880, 3636557863, 3636557859, 3636557866, 3636557880], "tags": {"leisure": "park"}}, {"type": "way", "id": 358805092, "nodes": [3636557836, 3636557868, 3636557860, 3636557845, 3636557825, 3636557836], "tags": {"leisure": "park", "name": "Heyd\u0259r \u018fliyev Park\u0131"}}, {"type": "way", "id": 358848488, "nodes": [3636847629, 9885967385, 9885967383, 9885967384, 3636847614, 3636847587, 3636847556, 3636847528, 3636847544, 3636847547, 9885915678, 3636847549, 3636847592, 9885915519, 3636847620, 3636847629], "tags": {"leisure": "park"}}, {"type": "way", "id": 358848491, "nodes": [3636844679, 3636844677, 3636844672, 3636844676, 3636844679], "tags": {"leisure": "park"}}, {"type": "way", "id": 359021290, "nodes": [3638340743, 3638340744, 3638340745, 3638340746, 3638340717, 3638340714, 3638340743], "tags": {"leisure": "park"}}, {"type": "way", "id": 370569908, "nodes": [3742666724, 3742666717, 3742666716, 3742666715, 3742666714, 3742666713, 3742666721, 3742666718, 3742666926, 3742666724], "tags": {"leisure": "park", "name": "F\u0259hl\u0259 \u018fll\u0259ri Park\u0131"}}, {"type": "way", "id": 370696244, "nodes": [3743884990, 3743884981, 3743884978, 3743884970, 3743884991, 3743884995, 3743884990], "tags": {"leisure": "park"}}, {"type": "way", "id": 370707115, "nodes": [3743991181, 3743991178, 3743991176, 3743991174, 3743991167, 3743991165, 3743991166, 3743991168, 3743991169, 3743991170, 3743991171, 3743991179, 3743991182, 3743991183, 3743991181], "tags": {"leisure": "park"}}, {"type": "way", "id": 370709063, "nodes": [3744020219, 9900653252, 3744020221, 3744020223, 3744020222, 9900653269, 3744020220, 3744020218, 3744020217, 3744020214, 3744020212, 3744020211, 3744020213, 3744020215, 3744020219], "tags": {"leisure": "park"}}, {"type": "way", "id": 370709064, "nodes": [3744020451, 3744020450, 3744020453, 3744020455, 3744020451], "tags": {"leisure": "park", "name": "Qurban Abbasov park\u0131"}}, {"type": "way", "id": 505553655, "nodes": [4954590398, 4954590399, 4954590400, 4954590401, 4954590398], "tags": {"amenity": "restaurant", "building": "yes", "cuisine": "spanish", "name": "El Portalon", "opening_hours": "Mo-Su 19:00-00:00", "website": "www.elportalon.az"}}, {"type": "way", "id": 1017225660, "nodes": [9382637149, 9382637148, 9382637147, 9382637146, 9900590923, 9382637145, 9382637144, 9382637143, 9382637149], "tags": {"amenity": "restaurant"}}, {"type": "way", "id": 1017225661, "nodes": [9382637153, 9900590926, 9382637152, 9382637151, 9900590927, 9382637150, 9382637153], "tags": {"leisure": "park"}}, {"type": "way", "id": 1017225663, "nodes": [9382637160, 9382637159, 9382637158, 9382637157, 9900590925, 9382637156, 9382637160], "tags": {"leisure": "park"}}, {"type": "way", "id": 1078311690, "nodes": [9885912087, 9885912088, 9885912086, 9885912085, 9885915772, 303604666, 9885915773, 303604665, 9885912087], "tags": {"natural": "beach"}}, {"type": "way", "id": 1078311695, "nodes": [9885912114, 9885912113, 9885912112, 9885912111, 9885912110, 9885912109, 9885912114], "tags": {"leisure": "park"}}, {"type": "way", "id": 1078311700, "nodes": [9885915544, 9885915543, 9885915542, 9885915541, 9885915540, 9885915539, 9885915538, 9885915537, 9885915536, 9885915535, 9885915544], "tags": {"leisure": "park"}}, {"type": "way", "id": 1078311710, "nodes": [2558822417, 9885915600, 9885915599, 9885915598, 9885915597, 9885915596, 9885915595, 9885915594, 9885915593, 2558822450, 9885915592, 9885915628, 9885915591, 9885915590, 9885915577, 9885915611, 9885915612, 9885915613, 9885915610, 9885915589, 2558822417], "tags": {"leisure": "park"}}, {"type": "way", "id": 1078311711, "nodes": [2558822419, 9885980778, 9885915603, 9885915607, 9885915602, 9885915601, 2558822401, 2558822441, 2558822453, 2558822393, 2558822419], "tags": {"leisure": "park"}}, {"type": "way", "id": 1078311716, "nodes": [9885915629, 3636844689, 2558822409, 303604662, 9885919419, 9885915628, 9885915592, 2558822450, 2558822399, 9885915627, 9885915629], "tags": {"natural": "beach"}}, {"type": "way", "id": 1078311722, "nodes": [3636844677, 9885915687, 9885915686, 3636844672, 3636844677], "tags": {"natural": "beach"}}, {"type": "way", "id": 1078311723, "nodes": [9885915695, 9885915691, 9885915690, 9885915689, 9885915688, 9885912077, 9885915694, 9885915695], "tags": {"natural": "beach"}}, {"type": "way", "id": 1078311724, "nodes": [2947466976, 9885915696, 9885915695, 9885915694, 3636844681, 9885915693, 2947466968, 2947466971, 9885915692, 2947466972, 2947466976], "tags": {"leisure": "park"}}, {"type": "way", "id": 1078311730, "nodes": [9885915727, 9885915724, 9885915723, 9885915726, 9885915727], "tags": {"natural": "beach"}}, {"type": "way", "id": 1078311731, "nodes": [9885915728, 9885915727, 9885915726, 9885915725, 9885915728], "tags": {"leisure": "park"}}, {"type": "way", "id": 1078312000, "nodes": [9885919418, 9885894214, 9885894213, 9885919417, 9885894216, 2558822415, 9885894215, 9885919420, 9885919418], "tags": {"natural": "beach"}}, {"type": "way", "id": 1078315844, "nodes": [9885957491, 9885957490, 9885957489, 9885957488, 9885957491], "tags": {"historic": "monument", "name": "Qaraba\u011f Bizimdir / Bibi Heyb\u0259t"}}, {"type": "way", "id": 1078319986, "nodes": [9885980790, 9885980789, 9885980788, 9885980787, 9885980790], "tags": {"name": "Ay Hotel", "tourism": "hotel"}}, {"type": "way", "id": 1078885901, "nodes": [9890386625, 9890386624, 9890386623, 9890386622, 9890386621, 9890386620, 9890386619, 9890386618, 9890386617, 9890385516, 9890385515, 9890385514, 9890385513, 9890385512, 9890385511, 9890385510, 9890385509, 9890386625], "tags": {"leisure": "park"}}, {"type": "way", "id": 1078885910, "nodes": [9890386671, 9890386670, 9890386669, 9890386634, 9890386668, 9890386667, 9890386645, 9890386666, 9890386665, 9890386664, 9890386671], "tags": {"leisure": "park"}}, {"type": "way", "id": 1079565463, "nodes": [9895886339, 9895886338, 9895886337, 9895886336, 9895886339], "tags": {"leisure": "park"}}, {"type": "way", "id": 1079587360, "nodes": [3745025476, 9896015558, 3745025471, 9896015560, 3745025476], "tags": {"leisure": "park"}}, {"type": "way", "id": 1079608208, "nodes": [9896126877, 9896126833, 9896126824, 9896126876, 9896126830, 9896126875, 9896126874, 9896126873, 9896126872, 9896126871, 9896126870, 9896126869, 9896126877], "tags": {"leisure": "park"}}, {"type": "way", "id": 1080375157, "nodes": [9902680787, 9902680786, 9902680785, 9902680784, 9902680787], "tags": {"addr:housenumber": "7", "addr:street": "Badamdar \u015fossesi", "amenity": "restaurant", "building": "retail"}}, {"type": "way", "id": 1080649450, "nodes": [9905004451, 9905004450, 3638366222, 9905004449, 9905004448, 9905004447, 9905004446, 9905004445, 9905004461, 9905004456, 9905004457, 9905004458, 9905004444, 9905004443, 9905004442, 9905004441, 3638366216, 9905004440, 9905004480, 9905004439, 11206066219, 9905004438, 9905004437, 9905004451], "tags": {"leisure": "park"}}, {"type": "way", "id": 1081622939, "nodes": [9913354006, 9913353995, 9913353996, 9913353997, 9913353998, 9913353999, 9913354005, 9913354004, 9913354003, 9913354002, 9913354001, 3533145000, 3533144999, 3533144998, 3533144997, 3533144996, 9913354006], "tags": {"leisure": "park"}}, {"type": "way", "id": 1209522781, "nodes": [11206066242, 11206066241, 11206066240, 11206066239, 11206066238, 11206066237, 11206066236, 11206066235, 11206066234, 11206066233, 11206066232, 11206066231, 11206066230, 11206066229, 11206066228, 11206066227, 11206066242], "tags": {"leisure": "park"}}, {"type": "way", "id": 1209852521, "nodes": [11208646356, 11208646355, 11208646354, 11208646353, 11208646356], "tags": {"leisure": "park"}}, {"type": "way", "id": 1363849042, "nodes": [12628511470, 12628511469, 12628511468, 12628511467, 12628511466, 12628511465, 12628511464, 12628511463, 12628511462, 12628511461, 12628511460, 12628511470], "tags": {"leisure": "park"}}, {"type": "way", "id": 1377852181, "nodes": [12757920545, 12757920554, 12757920572, 12757920552, 12757920545], "tags": {"addr:city": "Bak\u0131", "addr:housenumber": "69", "addr:place": "Bay\u0131l", "addr:street": "\u018flib\u0259yov Qarda\u015flari", "building": "hotel", "building:levels": "2", "building:levels:underground": "2", "name": "Nur Hotel & Terrace Cafe", "tourism": "hotel"}}, {"type": "node", "id": 2952321136, "lat": 40.3046509, "lon": 49.7996008}, {"type": "node", "id": 2952321145, "lat": 40.3054294, "lon": 49.7995933}, {"type": "node", "id": 2952321146, "lat": 40.3054326, "lon": 49.7997272}, {"type": "node", "id": 2952321150, "lat": 40.3055233, "lon": 49.7997378}, {"type": "node", "id": 258029067, "lat": 40.3044223, "lon": 49.8044215}, {"type": "node", "id": 798734957, "lat": 40.3064286, "lon": 49.8015183}, {"type": "node", "id": 798734960, "lat": 40.3064076, "lon": 49.8018293}, {"type": "node", "id": 1657097339, "lat": 40.3069228, "lon": 49.8023976}, {"type": "node", "id": 2947419379, "lat": 40.3073061, "lon": 49.802952}, {"type": "node", "id": 2947528903, "lat": 40.306218, "lon": 49.8050802}, {"type": "node", "id": 2947528908, "lat": 40.3062541, "lon": 49.8058545}, {"type": "node", "id": 2947528911, "lat": 40.3062833, "lon": 49.8049879}, {"type": "node", "id": 2947528920, "lat": 40.3063571, "lon": 49.8051094}, {"type": "node", "id": 2947528924, "lat": 40.3063851, "lon": 49.8035438}, {"type": "node", "id": 2947528925, "lat": 40.3063897, "lon": 49.8049519}, {"type": "node", "id": 2947528926, "lat": 40.3063988, "lon": 49.8033862}, {"type": "node", "id": 2947528930, "lat": 40.3064343, "lon": 49.8059874}, {"type": "node", "id": 2947528933, "lat": 40.3064446, "lon": 49.8058928}, {"type": "node", "id": 2947528942, "lat": 40.3064961, "lon": 49.8049676}, {"type": "node", "id": 2947528944, "lat": 40.3065207, "lon": 49.8025939}, {"type": "node", "id": 2947528946, "lat": 40.306539, "lon": 49.8059964}, {"type": "node", "id": 2947528947, "lat": 40.306543, "lon": 49.8034155}, {"type": "node", "id": 2947528951, "lat": 40.3065619, "lon": 49.8019478}, {"type": "node", "id": 2947528953, "lat": 40.3065785, "lon": 49.8050329}, {"type": "node", "id": 2947528954, "lat": 40.3065808, "lon": 49.8033592}, {"type": "node", "id": 2947528955, "lat": 40.3065819, "lon": 49.8017652}, {"type": "node", "id": 2947528958, "lat": 40.3065982, "lon": 49.801535}, {"type": "node", "id": 2947528962, "lat": 40.3066254, "lon": 49.8025218}, {"type": "node", "id": 2947528963, "lat": 40.306634, "lon": 49.8020378}, {"type": "node", "id": 2947528964, "lat": 40.3066369, "lon": 49.8050307}, {"type": "node", "id": 2947528966, "lat": 40.3066529, "lon": 49.8026524}, {"type": "node", "id": 2947528968, "lat": 40.3066644, "lon": 49.8050712}, {"type": "node", "id": 2947528969, "lat": 40.306675, "lon": 49.8017765}, {"type": "node", "id": 2947528971, "lat": 40.3066769, "lon": 49.8023845}, {"type": "node", "id": 2947528972, "lat": 40.3066786, "lon": 49.8021999}, {"type": "node", "id": 2947528973, "lat": 40.3066913, "lon": 49.8015463}, {"type": "node", "id": 2947528978, "lat": 40.3068419, "lon": 49.803624}, {"type": "node", "id": 2947528980, "lat": 40.3069481, "lon": 49.8015811}, {"type": "node", "id": 2952321134, "lat": 40.3046176, "lon": 49.8030322}, {"type": "node", "id": 2952321137, "lat": 40.3046789, "lon": 49.801828}, {"type": "node", "id": 2952321138, "lat": 40.3046727, "lon": 49.8015524}, {"type": "node", "id": 2952321141, "lat": 40.3053921, "lon": 49.8016672}, {"type": "node", "id": 2952321144, "lat": 40.3054261, "lon": 49.8010425}, {"type": "node", "id": 2952321157, "lat": 40.3055801, "lon": 49.801017}, {"type": "node", "id": 2952321162, "lat": 40.3054652, "lon": 49.8031747}, {"type": "node", "id": 2952321164, "lat": 40.305502, "lon": 49.8019225}, {"type": "node", "id": 3638915987, "lat": 40.3070666, "lon": 49.8045017}, {"type": "node", "id": 3638917695, "lat": 40.3073095, "lon": 49.8028943}, {"type": "node", "id": 3638917707, "lat": 40.3076181, "lon": 49.8028774}, {"type": "node", "id": 3638917708, "lat": 40.3076594, "lon": 49.8022879}, {"type": "node", "id": 7570545125, "lat": 40.3071731, "lon": 49.8033133}, {"type": "node", "id": 11203388711, "lat": 40.3074235, "lon": 49.804605}, {"type": "node", "id": 11203388712, "lat": 40.3075164, "lon": 49.8040841}, {"type": "node", "id": 11203388713, "lat": 40.3074779, "lon": 49.8040724}, {"type": "node", "id": 11203388714, "lat": 40.3075249, "lon": 49.8036566}, {"type": "node", "id": 11203388715, "lat": 40.3073817, "lon": 49.80459}, {"type": "node", "id": 11203388716, "lat": 40.3075454, "lon": 49.8033777}, {"type": "node", "id": 11203388727, "lat": 40.3074656, "lon": 49.8044077}, {"type": "node", "id": 11203427814, "lat": 40.307302, "lon": 49.8029982}, {"type": "node", "id": 11203427815, "lat": 40.3072467, "lon": 49.8029995}, {"type": "node", "id": 11208646353, "lat": 40.3057209, "lon": 49.8046437}, {"type": "node", "id": 11208646354, "lat": 40.3051481, "lon": 49.8045766}, {"type": "node", "id": 11208646355, "lat": 40.3052156, "lon": 49.8037612}, {"type": "node", "id": 11208646356, "lat": 40.3057597, "lon": 49.8038283}, {"type": "node", "id": 11208646362, "lat": 40.3050622, "lon": 49.8044962}, {"type": "node", "id": 11208646363, "lat": 40.3052054, "lon": 49.803139}, {"type": "node", "id": 2715171739, "lat": 40.3101797, "lon": 49.8022118}, {"type": "node", "id": 2715171740, "lat": 40.3109179, "lon": 49.8020853}, {"type": "node", "id": 2715171741, "lat": 40.311954, "lon": 49.8064679}, {"type": "node", "id": 2715171742, "lat": 40.3122988, "lon": 49.8072411}, {"type": "node", "id": 3638917761, "lat": 40.308881, "lon": 49.8021652}, {"type": "node", "id": 3638917780, "lat": 40.3090696, "lon": 49.802077}, {"type": "node", "id": 3638917794, "lat": 40.3092358, "lon": 49.8020667}, {"type": "node", "id": 3638917806, "lat": 40.3094314, "lon": 49.8021071}, {"type": "node", "id": 3638917826, "lat": 40.3097913, "lon": 49.8021985}, {"type": "node", "id": 3638917884, "lat": 40.3114546, "lon": 49.804387}, {"type": "node", "id": 3638917889, "lat": 40.3119078, "lon": 49.8051116}, {"type": "node", "id": 3638917909, "lat": 40.3119353, "lon": 49.8054509}, {"type": "node", "id": 3638917921, "lat": 40.3120291, "lon": 49.8066741}, {"type": "node", "id": 11203388786, "lat": 40.3123294, "lon": 49.8073098}, {"type": "node", "id": 11203388789, "lat": 40.3119735, "lon": 49.8065534}, {"type": "node", "id": 11203388790, "lat": 40.3115174, "lon": 49.8044774}, {"type": "node", "id": 11203388791, "lat": 40.3118079, "lon": 49.8048583}, {"type": "node", "id": 11203388792, "lat": 40.3118774, "lon": 49.804987}, {"type": "node", "id": 11203388793, "lat": 40.3113538, "lon": 49.8039678}, {"type": "node", "id": 11203388794, "lat": 40.3112127, "lon": 49.8034662}, {"type": "node", "id": 11203388795, "lat": 40.3110654, "lon": 49.8030585}, {"type": "node", "id": 11203388796, "lat": 40.3110429, "lon": 49.8028976}, {"type": "node", "id": 11203388797, "lat": 40.3110798, "lon": 49.8026508}, {"type": "node", "id": 11203388798, "lat": 40.3110675, "lon": 49.8024765}, {"type": "node", "id": 11203388799, "lat": 40.3109959, "lon": 49.8022619}, {"type": "node", "id": 11203388800, "lat": 40.3108507, "lon": 49.8020285}, {"type": "node", "id": 11203388801, "lat": 40.3107689, "lon": 49.8020178}, {"type": "node", "id": 11203388802, "lat": 40.3103598, "lon": 49.8021787}, {"type": "node", "id": 11203388804, "lat": 40.3105889, "lon": 49.8020983}, {"type": "node", "id": 11203388805, "lat": 40.3099651, "lon": 49.8022297}, {"type": "node", "id": 3636557825, "lat": 40.337787, "lon": 49.8040308}, {"type": "node", "id": 3636557836, "lat": 40.3382691, "lon": 49.8032986}, {"type": "node", "id": 3636557845, "lat": 40.3384764, "lon": 49.804812}, {"type": "node", "id": 3636557859, "lat": 40.3387723, "lon": 49.8030952}, {"type": "node", "id": 3636557860, "lat": 40.3388059, "lon": 49.8043117}, {"type": "node", "id": 3636557863, "lat": 40.3389192, "lon": 49.8028766}, {"type": "node", "id": 3636557866, "lat": 40.3389521, "lon": 49.8033032}, {"type": "node", "id": 3636557868, "lat": 40.3389585, "lon": 49.8040798}, {"type": "node", "id": 3636557880, "lat": 40.339099, "lon": 49.8030847}, {"type": "node", "id": 2715171744, "lat": 40.3065159, "lon": 49.808476}, {"type": "node", "id": 2947419372, "lat": 40.3060014, "lon": 49.8110461}, {"type": "node", "id": 2947419373, "lat": 40.3061688, "lon": 49.8112998}, {"type": "node", "id": 2947419374, "lat": 40.306241, "lon": 49.810207}, {"type": "node", "id": 2947419375, "lat": 40.3070283, "lon": 49.8111507}, {"type": "node", "id": 2947419385, "lat": 40.3078927, "lon": 49.8102475}, {"type": "node", "id": 3638915968, "lat": 40.3060591, "lon": 49.8112176}, {"type": "node", "id": 3638915969, "lat": 40.306465, "lon": 49.8113174}, {"type": "node", "id": 3638915979, "lat": 40.3068355, "lon": 49.8112442}, {"type": "node", "id": 9906251668, "lat": 40.3077519, "lon": 49.8103393}, {"type": "node", "id": 9906251669, "lat": 40.3075147, "lon": 49.810621}, {"type": "node", "id": 9906251670, "lat": 40.3062905, "lon": 49.8113237}, {"type": "node", "id": 11203388809, "lat": 40.3060113, "lon": 49.8111373}, {"type": "node", "id": 11203388810, "lat": 40.3061115, "lon": 49.8107001}, {"type": "node", "id": 11203388811, "lat": 40.3063468, "lon": 49.809579}, {"type": "node", "id": 9885957488, "lat": 40.3060993, "lon": 49.8164052}, {"type": "node", "id": 9885957489, "lat": 40.3059244, "lon": 49.8162925}, {"type": "node", "id": 9885957490, "lat": 40.3059479, "lon": 49.8161906}, {"type": "node", "id": 9885957491, "lat": 40.3061494, "lon": 49.816322}, {"type": "node", "id": 303604662, "lat": 40.3035025, "lon": 49.8251303}, {"type": "node", "id": 303604665, "lat": 40.3035645, "lon": 49.8263568}, {"type": "node", "id": 303604666, "lat": 40.3034772, "lon": 49.8265932}, {"type": "node", "id": 2558822393, "lat": 40.3050971, "lon": 49.8237006}, {"type": "node", "id": 2558822399, "lat": 40.3036885, "lon": 49.8237289}, {"type": "node", "id": 2558822401, "lat": 40.3050218, "lon": 49.8240175}, {"type": "node", "id": 2558822409, "lat": 40.3030189, "lon": 49.8230859}, {"type": "node", "id": 2558822415, "lat": 40.3035824, "lon": 49.8256564}, {"type": "node", "id": 2558822417, "lat": 40.3048574, "lon": 49.8242388}, {"type": "node", "id": 2558822419, "lat": 40.3050397, "lon": 49.823475}, {"type": "node", "id": 2558822441, "lat": 40.3049969, "lon": 49.8240024}, {"type": "node", "id": 2558822450, "lat": 40.3037226, "lon": 49.8238475}, {"type": "node", "id": 2558822453, "lat": 40.3050796, "lon": 49.8238117}, {"type": "node", "id": 2947466984, "lat": 40.3039287, "lon": 49.8268559}, {"type": "node", "id": 2947466988, "lat": 40.3040715, "lon": 49.8269369}, {"type": "node", "id": 3636844689, "lat": 40.3032685, "lon": 49.8229566}, {"type": "node", "id": 3636847528, "lat": 40.3045526, "lon": 49.8262865}, {"type": "node", "id": 3636847544, "lat": 40.3047403, "lon": 49.8263861}, {"type": "node", "id": 3636847547, "lat": 40.3047709, "lon": 49.8262168}, {"type": "node", "id": 3636847549, "lat": 40.3048331, "lon": 49.8259014}, {"type": "node", "id": 3636847556, "lat": 40.3049231, "lon": 49.8252597}, {"type": "node", "id": 3636847587, "lat": 40.3052601, "lon": 49.8242723}, {"type": "node", "id": 3636847592, "lat": 40.3053478, "lon": 49.8244083}, {"type": "node", "id": 3636847614, "lat": 40.3055761, "lon": 49.8236996}, {"type": "node", "id": 3636847620, "lat": 40.3056946, "lon": 49.8239971}, {"type": "node", "id": 3636847629, "lat": 40.3057645, "lon": 49.8238756}, {"type": "node", "id": 9885894213, "lat": 40.3041704, "lon": 49.8253597}, {"type": "node", "id": 9885894214, "lat": 40.3040558, "lon": 49.8253101}, {"type": "node", "id": 9885894215, "lat": 40.3035076, "lon": 49.8251637}, {"type": "node", "id": 9885894216, "lat": 40.3039198, "lon": 49.8255998}, {"type": "node", "id": 9885912085, "lat": 40.3036958, "lon": 49.8267049}, {"type": "node", "id": 9885912086, "lat": 40.3037543, "lon": 49.8265232}, {"type": "node", "id": 9885912087, "lat": 40.303643, "lon": 49.8264028}, {"type": "node", "id": 9885912088, "lat": 40.3036265, "lon": 49.8264593}, {"type": "node", "id": 9885912109, "lat": 40.3057566, "lon": 49.8251666}, {"type": "node", "id": 9885912110, "lat": 40.3058057, "lon": 49.825227}, {"type": "node", "id": 9885912111, "lat": 40.3056493, "lon": 49.8255086}, {"type": "node", "id": 9885912112, "lat": 40.305457, "lon": 49.8253302}, {"type": "node", "id": 9885912113, "lat": 40.3055838, "lon": 49.8248367}, {"type": "node", "id": 9885912114, "lat": 40.3058436, "lon": 49.8249869}, {"type": "node", "id": 9885915519, "lat": 40.3055735, "lon": 49.8241413}, {"type": "node", "id": 9885915535, "lat": 40.3056636, "lon": 49.8243271}, {"type": "node", "id": 9885915536, "lat": 40.305636, "lon": 49.8244545}, {"type": "node", "id": 9885915537, "lat": 40.3055541, "lon": 49.8247066}, {"type": "node", "id": 9885915538, "lat": 40.3054335, "lon": 49.8246382}, {"type": "node", "id": 9885915539, "lat": 40.3053711, "lon": 49.8247683}, {"type": "node", "id": 9885915540, "lat": 40.3053005, "lon": 49.8247254}, {"type": "node", "id": 9885915541, "lat": 40.3053936, "lon": 49.8244974}, {"type": "node", "id": 9885915542, "lat": 40.3055807, "lon": 49.8242573}, {"type": "node", "id": 9885915543, "lat": 40.3056288, "lon": 49.8242386}, {"type": "node", "id": 9885915544, "lat": 40.3056636, "lon": 49.8242587}, {"type": "node", "id": 9885915577, "lat": 40.3044516, "lon": 49.8246825}, {"type": "node", "id": 9885915589, "lat": 40.3047556, "lon": 49.8245104}, {"type": "node", "id": 9885915590, "lat": 40.304335, "lon": 49.8247844}, {"type": "node", "id": 9885915591, "lat": 40.3042859, "lon": 49.8246798}, {"type": "node", "id": 9885915592, "lat": 40.3038717, "lon": 49.8242708}, {"type": "node", "id": 9885915593, "lat": 40.3042049, "lon": 49.8236092}, {"type": "node", "id": 9885915594, "lat": 40.304242, "lon": 49.823678}, {"type": "node", "id": 9885915595, "lat": 40.3042941, "lon": 49.823745}, {"type": "node", "id": 9885915596, "lat": 40.3043463, "lon": 49.8237893}, {"type": "node", "id": 9885915597, "lat": 40.3044179, "lon": 49.8238242}, {"type": "node", "id": 9885915598, "lat": 40.3045171, "lon": 49.8238349}, {"type": "node", "id": 9885915599, "lat": 40.3045733, "lon": 49.8238282}, {"type": "node", "id": 9885915600, "lat": 40.3046378, "lon": 49.8240656}, {"type": "node", "id": 9885915601, "lat": 40.3049488, "lon": 49.8241972}, {"type": "node", "id": 9885915602, "lat": 40.3046695, "lon": 49.8239905}, {"type": "node", "id": 9885915603, "lat": 40.3046168, "lon": 49.8236357}, {"type": "node", "id": 9885915607, "lat": 40.3046306, "lon": 49.8236954}, {"type": "node", "id": 9885915610, "lat": 40.3047135, "lon": 49.8244786}, {"type": "node", "id": 9885915611, "lat": 40.3046142, "lon": 49.8245403}, {"type": "node", "id": 9885915612, "lat": 40.3046991, "lon": 49.8241366}, {"type": "node", "id": 9885915613, "lat": 40.304781, "lon": 49.8242185}, {"type": "node", "id": 9885915627, "lat": 40.3035973, "lon": 49.8234116}, {"type": "node", "id": 9885915628, "lat": 40.304064, "lon": 49.8248166}, {"type": "node", "id": 9885915629, "lat": 40.3034493, "lon": 49.8228894}, {"type": "node", "id": 9885915678, "lat": 40.3047973, "lon": 49.826037}, {"type": "node", "id": 9885915691, "lat": 40.3035107, "lon": 49.826733}, {"type": "node", "id": 9885915695, "lat": 40.3036999, "lon": 49.8268752}, {"type": "node", "id": 9885915696, "lat": 40.3038288, "lon": 49.8269489}, {"type": "node", "id": 9885915772, "lat": 40.3035138, "lon": 49.826611}, {"type": "node", "id": 9885915773, "lat": 40.3034994, "lon": 49.826332}, {"type": "node", "id": 9885919417, "lat": 40.3041417, "lon": 49.8256963}, {"type": "node", "id": 9885919418, "lat": 40.3040246, "lon": 49.825015}, {"type": "node", "id": 9885919419, "lat": 40.3038169, "lon": 49.8249546}, {"type": "node", "id": 9885919420, "lat": 40.3038554, "lon": 49.8250727}, {"type": "node", "id": 9885967383, "lat": 40.3060266, "lon": 49.8232502}, {"type": "node", "id": 9885967384, "lat": 40.3056728, "lon": 49.8237611}, {"type": "node", "id": 9885967385, "lat": 40.3060757, "lon": 49.8232622}, {"type": "node", "id": 9885980778, "lat": 40.305034, "lon": 49.8234772}, {"type": "node", "id": 9885980787, "lat": 40.305773, "lon": 49.8231831}, {"type": "node", "id": 9885980788, "lat": 40.3055357, "lon": 49.8235653}, {"type": "node", "id": 9885980789, "lat": 40.305302, "lon": 49.823332}, {"type": "node", "id": 9885980790, "lat": 40.3055276, "lon": 49.8229404}, {"type": "node", "id": 2947466968, "lat": 40.3036593, "lon": 49.827991}, {"type": "node", "id": 2947466969, "lat": 40.303696, "lon": 49.8281509}, {"type": "node", "id": 2947466970, "lat": 40.3037015, "lon": 49.8280006}, {"type": "node", "id": 2947466971, "lat": 40.303729, "lon": 49.8274646}, {"type": "node", "id": 2947466972, "lat": 40.3037075, "lon": 49.8273948}, {"type": "node", "id": 2947466973, "lat": 40.3037712, "lon": 49.8274742}, {"type": "node", "id": 2947466974, "lat": 40.3037729, "lon": 49.8274264}, {"type": "node", "id": 2947466976, "lat": 40.3038061, "lon": 49.8270443}, {"type": "node", "id": 2947466977, "lat": 40.3038182, "lon": 49.827913}, {"type": "node", "id": 2947466978, "lat": 40.3038321, "lon": 49.8281248}, {"type": "node", "id": 2947466979, "lat": 40.3038575, "lon": 49.8279236}, {"type": "node", "id": 2947466980, "lat": 40.3038715, "lon": 49.8270759}, {"type": "node", "id": 2947466981, "lat": 40.3038896, "lon": 49.827461}, {"type": "node", "id": 2947466985, "lat": 40.3039751, "lon": 49.8274842}, {"type": "node", "id": 2947466987, "lat": 40.3040334, "lon": 49.8271335}, {"type": "node", "id": 3636844672, "lat": 40.3031548, "lon": 49.8296982}, {"type": "node", "id": 3636844676, "lat": 40.3033502, "lon": 49.8296976}, {"type": "node", "id": 3636844677, "lat": 40.3033363, "lon": 49.8286647}, {"type": "node", "id": 3636844679, "lat": 40.3034059, "lon": 49.8286797}, {"type": "node", "id": 3636844681, "lat": 40.3035173, "lon": 49.8281983}, {"type": "node", "id": 9885912077, "lat": 40.3034522, "lon": 49.8281868}, {"type": "node", "id": 9885915686, "lat": 40.3029789, "lon": 49.8296915}, {"type": "node", "id": 9885915687, "lat": 40.3031855, "lon": 49.8286414}, {"type": "node", "id": 9885915688, "lat": 40.3033652, "lon": 49.8286104}, {"type": "node", "id": 9885915689, "lat": 40.3031936, "lon": 49.8285811}, {"type": "node", "id": 9885915690, "lat": 40.3033869, "lon": 49.8275752}, {"type": "node", "id": 9885915692, "lat": 40.3037312, "lon": 49.8274063}, {"type": "node", "id": 9885915693, "lat": 40.3036591, "lon": 49.8281607}, {"type": "node", "id": 9885915694, "lat": 40.3034657, "lon": 49.8281144}, {"type": "node", "id": 9885915723, "lat": 40.3027344, "lon": 49.830928}, {"type": "node", "id": 9885915724, "lat": 40.3029584, "lon": 49.829772}, {"type": "node", "id": 9885915725, "lat": 40.3030709, "lon": 49.8310527}, {"type": "node", "id": 9885915726, "lat": 40.3028029, "lon": 49.8309575}, {"type": "node", "id": 9885915727, "lat": 40.3030515, "lon": 49.8297706}, {"type": "node", "id": 9885915728, "lat": 40.3031987, "lon": 49.8297679}, {"type": "node", "id": 2715171743, "lat": 40.3109867, "lon": 49.8089344}, {"type": "node", "id": 2948842217, "lat": 40.3113251, "lon": 49.8087761}, {"type": "node", "id": 3638917916, "lat": 40.3120341, "lon": 49.8087239}, {"type": "node", "id": 11203388783, "lat": 40.3119112, "lon": 49.8086844}, {"type": "node", "id": 11203388784, "lat": 40.311767, "lon": 49.808667}, {"type": "node", "id": 11203388785, "lat": 40.3115583, "lon": 49.8086885}, {"type": "node", "id": 11203388787, "lat": 40.312354, "lon": 49.8075458}, {"type": "node", "id": 11203388788, "lat": 40.312356, "lon": 49.8074144}, {"type": "node", "id": 3638366216, "lat": 40.317906, "lon": 49.8095268}, {"type": "node", "id": 3638366222, "lat": 40.3183742, "lon": 49.808522}, {"type": "node", "id": 9905004437, "lat": 40.3166468, "lon": 49.8076853}, {"type": "node", "id": 9905004438, "lat": 40.316201, "lon": 49.8092692}, {"type": "node", "id": 9905004439, "lat": 40.3177676, "lon": 49.8099437}, {"type": "node", "id": 9905004440, "lat": 40.3178647, "lon": 49.8095562}, {"type": "node", "id": 9905004441, "lat": 40.3179301, "lon": 49.8095052}, {"type": "node", "id": 9905004442, "lat": 40.3179598, "lon": 49.8095387}, {"type": "node", "id": 9905004443, "lat": 40.3179884, "lon": 49.8094985}, {"type": "node", "id": 9905004444, "lat": 40.3181071, "lon": 49.8091442}, {"type": "node", "id": 9905004445, "lat": 40.3182625, "lon": 49.8089513}, {"type": "node", "id": 9905004446, "lat": 40.3183392, "lon": 49.8086657}, {"type": "node", "id": 9905004447, "lat": 40.3183806, "lon": 49.8086147}, {"type": "node", "id": 9905004448, "lat": 40.3183944, "lon": 49.8085624}, {"type": "node", "id": 9905004449, "lat": 40.3183719, "lon": 49.8085564}, {"type": "node", "id": 9905004450, "lat": 40.3183877, "lon": 49.8084565}, {"type": "node", "id": 9905004451, "lat": 40.3184199, "lon": 49.8083425}, {"type": "node", "id": 9905004456, "lat": 40.3182101, "lon": 49.8091059}, {"type": "node", "id": 9905004457, "lat": 40.3181612, "lon": 49.809089}, {"type": "node", "id": 9905004458, "lat": 40.3181473, "lon": 49.8091581}, {"type": "node", "id": 9905004461, "lat": 40.3182425, "lon": 49.8089443}, {"type": "node", "id": 9905004480, "lat": 40.3177881, "lon": 49.809874}, {"type": "node", "id": 11206066219, "lat": 40.3173708, "lon": 49.8096997}, {"type": "node", "id": 11206066227, "lat": 40.3161509, "lon": 49.8093885}, {"type": "node", "id": 11206066228, "lat": 40.3161396, "lon": 49.8096165}, {"type": "node", "id": 11206066229, "lat": 40.3161683, "lon": 49.8097895}, {"type": "node", "id": 11206066230, "lat": 40.3162572, "lon": 49.8099665}, {"type": "node", "id": 11206066231, "lat": 40.3162102, "lon": 49.81011}, {"type": "node", "id": 11206066232, "lat": 40.316158, "lon": 49.8100738}, {"type": "node", "id": 11206066233, "lat": 40.3160998, "lon": 49.8100027}, {"type": "node", "id": 11206066234, "lat": 40.315975, "lon": 49.8097171}, {"type": "node", "id": 11206066235, "lat": 40.3158738, "lon": 49.8095065}, {"type": "node", "id": 11206066236, "lat": 40.3158451, "lon": 49.8093711}, {"type": "node", "id": 11206066237, "lat": 40.3158318, "lon": 49.8092557}, {"type": "node", "id": 11206066238, "lat": 40.315838, "lon": 49.8091444}, {"type": "node", "id": 11206066239, "lat": 40.3159576, "lon": 49.8086818}, {"type": "node", "id": 11206066240, "lat": 40.3159811, "lon": 49.8085409}, {"type": "node", "id": 11206066241, "lat": 40.3160762, "lon": 49.8075029}, {"type": "node", "id": 11206066242, "lat": 40.3166213, "lon": 49.8076424}, {"type": "node", "id": 1664291499, "lat": 40.3289513, "lon": 49.8177972}, {"type": "node", "id": 1664291502, "lat": 40.3289841, "lon": 49.8183565}, {"type": "node", "id": 1664291504, "lat": 40.3286528, "lon": 49.8182291}, {"type": "node", "id": 1664291505, "lat": 40.3291599, "lon": 49.8179179}, {"type": "node", "id": 9895709198, "lat": 40.3291299, "lon": 49.8179927}, {"type": "node", "id": 9895886336, "lat": 40.3287183, "lon": 49.8259411}, {"type": "node", "id": 9895886337, "lat": 40.3283235, "lon": 49.8256271}, {"type": "node", "id": 9895886338, "lat": 40.3284778, "lon": 49.8252934}, {"type": "node", "id": 9895886339, "lat": 40.3288726, "lon": 49.8256073}, {"type": "node", "id": 3636151550, "lat": 40.3335636, "lon": 49.8330066}, {"type": "node", "id": 3636151555, "lat": 40.3339297, "lon": 49.8310247}, {"type": "node", "id": 3743884937, "lat": 40.33398, "lon": 49.8309227}, {"type": "node", "id": 3743884938, "lat": 40.33404, "lon": 49.8308574}, {"type": "node", "id": 3743884939, "lat": 40.3341304, "lon": 49.8308041}, {"type": "node", "id": 9890386620, "lat": 40.3340435, "lon": 49.8302105}, {"type": "node", "id": 9890386621, "lat": 40.3340783, "lon": 49.8303084}, {"type": "node", "id": 9890386668, "lat": 40.3340916, "lon": 49.8287594}, {"type": "node", "id": 3636135015, "lat": 40.3328934, "lon": 49.8397097}, {"type": "node", "id": 3636135017, "lat": 40.3329261, "lon": 49.8393713}, {"type": "node", "id": 3636135022, "lat": 40.3331001, "lon": 49.83851}, {"type": "node", "id": 3636135025, "lat": 40.3334015, "lon": 49.8398863}, {"type": "node", "id": 3636135026, "lat": 40.3334675, "lon": 49.8395595}, {"type": "node", "id": 3636135029, "lat": 40.3336598, "lon": 49.8387045}, {"type": "node", "id": 3636135030, "lat": 40.3338071, "lon": 49.837975}, {"type": "node", "id": 3636135032, "lat": 40.3339371, "lon": 49.839748}, {"type": "node", "id": 12628511465, "lat": 40.3327605, "lon": 49.8363098}, {"type": "node", "id": 12628511466, "lat": 40.3327851, "lon": 49.8361838}, {"type": "node", "id": 12628511467, "lat": 40.3328464, "lon": 49.8360845}, {"type": "node", "id": 12628511468, "lat": 40.3329241, "lon": 49.8360229}, {"type": "node", "id": 12628511469, "lat": 40.3330018, "lon": 49.8360068}, {"type": "node", "id": 3636135011, "lat": 40.3327907, "lon": 49.840218}, {"type": "node", "id": 3636135023, "lat": 40.3331651, "lon": 49.8410015}, {"type": "node", "id": 3636135024, "lat": 40.3332885, "lon": 49.8403911}, {"type": "node", "id": 3636135027, "lat": 40.3336499, "lon": 49.84117}, {"type": "node", "id": 3636151541, "lat": 40.3314424, "lon": 49.8425515}, {"type": "node", "id": 3636151542, "lat": 40.3316045, "lon": 49.8417312}, {"type": "node", "id": 12628511461, "lat": 40.3317423, "lon": 49.8414382}, {"type": "node", "id": 12628511462, "lat": 40.3316912, "lon": 49.841406}, {"type": "node", "id": 12628511463, "lat": 40.3316585, "lon": 49.8413309}, {"type": "node", "id": 12628511464, "lat": 40.3316646, "lon": 49.8412317}, {"type": "node", "id": 2775985841, "lat": 40.339458, "lon": 49.8105797}, {"type": "node", "id": 2775985842, "lat": 40.3393037, "lon": 49.8105796}, {"type": "node", "id": 2775985843, "lat": 40.3393047, "lon": 49.8107592}, {"type": "node", "id": 2775985844, "lat": 40.3394578, "lon": 49.8107553}, {"type": "node", "id": 3638340714, "lat": 40.336911, "lon": 49.80776}, {"type": "node", "id": 3638340717, "lat": 40.3369467, "lon": 49.8080836}, {"type": "node", "id": 3638340743, "lat": 40.3378084, "lon": 49.8075885}, {"type": "node", "id": 3638340744, "lat": 40.3378248, "lon": 49.8077327}, {"type": "node", "id": 3638340745, "lat": 40.3379406, "lon": 49.8077152}, {"type": "node", "id": 3638340746, "lat": 40.3379436, "lon": 49.8078536}, {"type": "node", "id": 9902680784, "lat": 40.3431991, "lon": 49.8108427}, {"type": "node", "id": 9902680785, "lat": 40.3429243, "lon": 49.810861}, {"type": "node", "id": 9902680786, "lat": 40.3429137, "lon": 49.8105862}, {"type": "node", "id": 9902680787, "lat": 40.3431885, "lon": 49.8105679}, {"type": "node", "id": 3742666713, "lat": 40.3353273, "lon": 49.8213242}, {"type": "node", "id": 3742666714, "lat": 40.3353464, "lon": 49.8212658}, {"type": "node", "id": 3742666715, "lat": 40.3354694, "lon": 49.8212429}, {"type": "node", "id": 3742666716, "lat": 40.3354865, "lon": 49.8209694}, {"type": "node", "id": 3742666717, "lat": 40.3355827, "lon": 49.8209123}, {"type": "node", "id": 3742666718, "lat": 40.3356514, "lon": 49.8213538}, {"type": "node", "id": 3742666721, "lat": 40.3357095, "lon": 49.8216972}, {"type": "node", "id": 3742666724, "lat": 40.3357924, "lon": 49.8210103}, {"type": "node", "id": 3742666926, "lat": 40.3358488, "lon": 49.8212896}, {"type": "node", "id": 3636151562, "lat": 40.3346116, "lon": 49.8334147}, {"type": "node", "id": 3636151565, "lat": 40.3348464, "lon": 49.8331299}, {"type": "node", "id": 3636151574, "lat": 40.3353338, "lon": 49.8312839}, {"type": "node", "id": 3636151581, "lat": 40.335691, "lon": 49.8334522}, {"type": "node", "id": 3636151587, "lat": 40.3356901, "lon": 49.8314965}, {"type": "node", "id": 3636151812, "lat": 40.3374753, "lon": 49.8334859}, {"type": "node", "id": 3743884940, "lat": 40.3342374, "lon": 49.8308102}, {"type": "node", "id": 3743884946, "lat": 40.3361032, "lon": 49.831842}, {"type": "node", "id": 3743884970, "lat": 40.3367595, "lon": 49.8321897}, {"type": "node", "id": 3743884971, "lat": 40.3367856, "lon": 49.8326139}, {"type": "node", "id": 3743884978, "lat": 40.3370344, "lon": 49.8319513}, {"type": "node", "id": 3743884981, "lat": 40.3372549, "lon": 49.8323688}, {"type": "node", "id": 3743884990, "lat": 40.3373924, "lon": 49.8323422}, {"type": "node", "id": 3743884991, "lat": 40.3374145, "lon": 49.8329934}, {"type": "node", "id": 3743884995, "lat": 40.3375566, "lon": 49.8328106}, {"type": "node", "id": 9890385509, "lat": 40.3357007, "lon": 49.8304036}, {"type": "node", "id": 9890385510, "lat": 40.3357416, "lon": 49.8302051}, {"type": "node", "id": 9890385511, "lat": 40.3355596, "lon": 49.8301327}, {"type": "node", "id": 9890385512, "lat": 40.3354615, "lon": 49.8305538}, {"type": "node", "id": 9890385513, "lat": 40.3350444, "lon": 49.8304009}, {"type": "node", "id": 9890385514, "lat": 40.3350853, "lon": 49.8302239}, {"type": "node", "id": 9890385515, "lat": 40.3348849, "lon": 49.8301381}, {"type": "node", "id": 9890385516, "lat": 40.3349237, "lon": 49.8299611}, {"type": "node", "id": 9890386617, "lat": 40.3346988, "lon": 49.8298725}, {"type": "node", "id": 9890386618, "lat": 40.3347602, "lon": 49.8296365}, {"type": "node", "id": 9890386619, "lat": 40.3341846, "lon": 49.8296446}, {"type": "node", "id": 9890386622, "lat": 40.3341488, "lon": 49.8303741}, {"type": "node", "id": 9890386623, "lat": 40.3346395, "lon": 49.8306048}, {"type": "node", "id": 9890386624, "lat": 40.3356454, "lon": 49.8310795}, {"type": "node", "id": 9890386625, "lat": 40.335809, "lon": 49.8304573}, {"type": "node", "id": 9890386634, "lat": 40.3344777, "lon": 49.828138}, {"type": "node", "id": 9890386645, "lat": 40.3343192, "lon": 49.8288268}, {"type": "node", "id": 9890386664, "lat": 40.3348564, "lon": 49.8281948}, {"type": "node", "id": 9890386665, "lat": 40.3346743, "lon": 49.8283839}, {"type": "node", "id": 9890386666, "lat": 40.3344453, "lon": 49.8286468}, {"type": "node", "id": 9890386667, "lat": 40.3342593, "lon": 49.8289123}, {"type": "node", "id": 9890386669, "lat": 40.3346232, "lon": 49.8279038}, {"type": "node", "id": 9890386670, "lat": 40.335255, "lon": 49.8275551}, {"type": "node", "id": 9890386671, "lat": 40.3353613, "lon": 49.8276705}, {"type": "node", "id": 9896126824, "lat": 40.3366668, "lon": 49.8311866}, {"type": "node", "id": 9896126830, "lat": 40.3365681, "lon": 49.8308329}, {"type": "node", "id": 9896126833, "lat": 40.3368583, "lon": 49.8313022}, {"type": "node", "id": 9896126869, "lat": 40.3370439, "lon": 49.831337}, {"type": "node", "id": 9896126870, "lat": 40.3370593, "lon": 49.8312955}, {"type": "node", "id": 9896126871, "lat": 40.3370582, "lon": 49.8312485}, {"type": "node", "id": 9896126872, "lat": 40.3367536, "lon": 49.8303822}, {"type": "node", "id": 9896126873, "lat": 40.3367301, "lon": 49.8303674}, {"type": "node", "id": 9896126874, "lat": 40.3367107, "lon": 49.8303688}, {"type": "node", "id": 9896126875, "lat": 40.3366892, "lon": 49.8304117}, {"type": "node", "id": 9896126876, "lat": 40.336496, "lon": 49.8310836}, {"type": "node", "id": 9896126877, "lat": 40.3369826, "lon": 49.8313773}, {"type": "node", "id": 9382637143, "lat": 40.3416358, "lon": 49.8313343}, {"type": "node", "id": 9382637144, "lat": 40.34128, "lon": 49.8318171}, {"type": "node", "id": 9382637145, "lat": 40.3407975, "lon": 49.8316092}, {"type": "node", "id": 9382637146, "lat": 40.3409775, "lon": 49.830881}, {"type": "node", "id": 9382637147, "lat": 40.3411206, "lon": 49.8309414}, {"type": "node", "id": 9382637148, "lat": 40.3411522, "lon": 49.8308127}, {"type": "node", "id": 9382637149, "lat": 40.341691, "lon": 49.8310339}, {"type": "node", "id": 9382637150, "lat": 40.3411717, "lon": 49.8303527}, {"type": "node", "id": 9382637151, "lat": 40.3410654, "lon": 49.8303017}, {"type": "node", "id": 9382637152, "lat": 40.3411584, "lon": 49.8298685}, {"type": "node", "id": 9382637153, "lat": 40.3412913, "lon": 49.8298001}, {"type": "node", "id": 9382637156, "lat": 40.3411983, "lon": 49.8306879}, {"type": "node", "id": 9382637157, "lat": 40.3411326, "lon": 49.8307436}, {"type": "node", "id": 9382637158, "lat": 40.3409834, "lon": 49.8306648}, {"type": "node", "id": 9382637159, "lat": 40.3410429, "lon": 49.8303929}, {"type": "node", "id": 9382637160, "lat": 40.3412443, "lon": 49.8304948}, {"type": "node", "id": 9900590923, "lat": 40.3409008, "lon": 49.8311855}, {"type": "node", "id": 9900590925, "lat": 40.3411708, "lon": 49.8307129}, {"type": "node", "id": 9900590926, "lat": 40.3412285, "lon": 49.8298324}, {"type": "node", "id": 9900590927, "lat": 40.3411173, "lon": 49.8303266}, {"type": "node", "id": 3636135035, "lat": 40.3342261, "lon": 49.8383129}, {"type": "node", "id": 3636135036, "lat": 40.3342624, "lon": 49.8381333}, {"type": "node", "id": 3636135038, "lat": 40.3344146, "lon": 49.839914}, {"type": "node", "id": 3636135040, "lat": 40.3347015, "lon": 49.8384696}, {"type": "node", "id": 3636151588, "lat": 40.3358569, "lon": 49.836726}, {"type": "node", "id": 3636151591, "lat": 40.336371, "lon": 49.8393913}, {"type": "node", "id": 3636151794, "lat": 40.3364954, "lon": 49.8369736}, {"type": "node", "id": 3636151797, "lat": 40.336424, "lon": 49.8344382}, {"type": "node", "id": 3636151798, "lat": 40.3367483, "lon": 49.8376092}, {"type": "node", "id": 3636151799, "lat": 40.3371216, "lon": 49.8352986}, {"type": "node", "id": 3636151800, "lat": 40.3368834, "lon": 49.8375687}, {"type": "node", "id": 3636151801, "lat": 40.3369181, "lon": 49.8369129}, {"type": "node", "id": 3636151802, "lat": 40.3369529, "lon": 49.8374776}, {"type": "node", "id": 3636151803, "lat": 40.3369837, "lon": 49.8370776}, {"type": "node", "id": 3636151804, "lat": 40.337003, "lon": 49.8373423}, {"type": "node", "id": 3636151805, "lat": 40.3370069, "lon": 49.8372497}, {"type": "node", "id": 3636151807, "lat": 40.3372423, "lon": 49.8357105}, {"type": "node", "id": 3636151808, "lat": 40.3374126, "lon": 49.835359}, {"type": "node", "id": 3636151809, "lat": 40.3374888, "lon": 49.8348291}, {"type": "node", "id": 3636151811, "lat": 40.337839, "lon": 49.8349074}, {"type": "node", "id": 3636151813, "lat": 40.3379302, "lon": 49.8371311}, {"type": "node", "id": 3636151816, "lat": 40.338473, "lon": 49.8350784}, {"type": "node", "id": 3636151817, "lat": 40.3390465, "lon": 49.8365258}, {"type": "node", "id": 3636151818, "lat": 40.3390248, "lon": 49.8362936}, {"type": "node", "id": 3636151819, "lat": 40.3391437, "lon": 49.836723}, {"type": "node", "id": 3636151820, "lat": 40.3390164, "lon": 49.8360184}, {"type": "node", "id": 3636151821, "lat": 40.3392019, "lon": 49.8373746}, {"type": "node", "id": 3636151822, "lat": 40.339513, "lon": 49.8372064}, {"type": "node", "id": 3636152814, "lat": 40.3369585, "lon": 49.8357352}, {"type": "node", "id": 3636152815, "lat": 40.3379137, "lon": 49.8341609}, {"type": "node", "id": 3636152816, "lat": 40.3378747, "lon": 49.8340607}, {"type": "node", "id": 3636152818, "lat": 40.3386005, "lon": 49.8352856}, {"type": "node", "id": 3743903056, "lat": 40.3370507, "lon": 49.8363148}, {"type": "node", "id": 3743903061, "lat": 40.3377343, "lon": 49.8346033}, {"type": "node", "id": 3743903062, "lat": 40.3378655, "lon": 49.8344538}, {"type": "node", "id": 3743903070, "lat": 40.3381118, "lon": 49.8347448}, {"type": "node", "id": 3743903074, "lat": 40.3383212, "lon": 49.8348577}, {"type": "node", "id": 3744020211, "lat": 40.3397496, "lon": 49.8363744}, {"type": "node", "id": 3744020212, "lat": 40.3397666, "lon": 49.836293}, {"type": "node", "id": 3744020213, "lat": 40.339762, "lon": 49.8364477}, {"type": "node", "id": 3744020214, "lat": 40.3398516, "lon": 49.8361927}, {"type": "node", "id": 3744020215, "lat": 40.3402959, "lon": 49.8374006}, {"type": "node", "id": 4954590398, "lat": 40.339689, "lon": 49.8399052}, {"type": "node", "id": 4954590399, "lat": 40.3396076, "lon": 49.8401129}, {"type": "node", "id": 4954590400, "lat": 40.3392049, "lon": 49.8398517}, {"type": "node", "id": 4954590401, "lat": 40.3392863, "lon": 49.8396321}, {"type": "node", "id": 5622906725, "lat": 40.3379439, "lon": 49.8347631}, {"type": "node", "id": 6485432285, "lat": 40.3346385, "lon": 49.8388057}, {"type": "node", "id": 7527787564, "lat": 40.3379067, "lon": 49.834384}, {"type": "node", "id": 7527787565, "lat": 40.3379231, "lon": 49.8342955}, {"type": "node", "id": 9890386758, "lat": 40.3382205, "lon": 49.8347783}, {"type": "node", "id": 9890386778, "lat": 40.3366033, "lon": 49.8369469}, {"type": "node", "id": 9890386779, "lat": 40.3366872, "lon": 49.8368691}, {"type": "node", "id": 9890386780, "lat": 40.3367148, "lon": 49.8368007}, {"type": "node", "id": 9896126953, "lat": 40.3390271, "lon": 49.8361033}, {"type": "node", "id": 11903264725, "lat": 40.3358735, "lon": 49.836659}, {"type": "node", "id": 12628511470, "lat": 40.335809, "lon": 49.8370327}, {"type": "node", "id": 2558774030, "lat": 40.3402277, "lon": 49.8424508}, {"type": "node", "id": 2558774078, "lat": 40.3393205, "lon": 49.8421389}, {"type": "node", "id": 3636135096, "lat": 40.3391775, "lon": 49.84193}, {"type": "node", "id": 3636135148, "lat": 40.339857, "lon": 49.8411481}, {"type": "node", "id": 3636135153, "lat": 40.3399352, "lon": 49.8423614}, {"type": "node", "id": 3636135155, "lat": 40.3400122, "lon": 49.8410095}, {"type": "node", "id": 3636135163, "lat": 40.3401496, "lon": 49.8424326}, {"type": "node", "id": 3636135166, "lat": 40.3402488, "lon": 49.8408173}, {"type": "node", "id": 3636135167, "lat": 40.3403226, "lon": 49.8407627}, {"type": "node", "id": 3636135172, "lat": 40.3405, "lon": 49.8424356}, {"type": "node", "id": 3636135184, "lat": 40.3406932, "lon": 49.8404427}, {"type": "node", "id": 3636151559, "lat": 40.3344768, "lon": 49.8427512}, {"type": "node", "id": 3636151567, "lat": 40.3352404, "lon": 49.8430224}, {"type": "node", "id": 3636151570, "lat": 40.3353215, "lon": 49.8431945}, {"type": "node", "id": 3636151573, "lat": 40.3354064, "lon": 49.8432806}, {"type": "node", "id": 3636151575, "lat": 40.3355144, "lon": 49.843311}, {"type": "node", "id": 3636151578, "lat": 40.3356727, "lon": 49.8432604}, {"type": "node", "id": 3636151579, "lat": 40.3356869, "lon": 49.842622}, {"type": "node", "id": 3636151582, "lat": 40.3357487, "lon": 49.8427232}, {"type": "node", "id": 3636151583, "lat": 40.3357797, "lon": 49.8431317}, {"type": "node", "id": 3636151584, "lat": 40.3357911, "lon": 49.8428397}, {"type": "node", "id": 3636151585, "lat": 40.3358066, "lon": 49.8430017}, {"type": "node", "id": 3636151586, "lat": 40.3358569, "lon": 49.8418265}, {"type": "node", "id": 3636151793, "lat": 40.3364446, "lon": 49.8442426}, {"type": "node", "id": 3636151796, "lat": 40.3365875, "lon": 49.8440984}, {"type": "node", "id": 12628511460, "lat": 40.3346845, "lon": 49.8424548}, {"type": "node", "id": 13018134780, "lat": 40.3396343, "lon": 49.841398}, {"type": "node", "id": 13018134781, "lat": 40.3393971, "lon": 49.8416166}, {"type": "node", "id": 13019444616, "lat": 40.3396752, "lon": 49.8413522}, {"type": "node", "id": 13019445072, "lat": 40.3405301, "lon": 49.8424348}, {"type": "node", "id": 13019445078, "lat": 40.3399493, "lon": 49.8423661}, {"type": "node", "id": 13019445083, "lat": 40.3404518, "lon": 49.8424386}, {"type": "node", "id": 13019445401, "lat": 40.3395947, "lon": 49.8422389}, {"type": "node", "id": 13019445402, "lat": 40.3393757, "lon": 49.8421613}, {"type": "node", "id": 13019445405, "lat": 40.3399161, "lon": 49.8423545}, {"type": "node", "id": 13019445406, "lat": 40.3396503, "lon": 49.8422587}, {"type": "node", "id": 13019445429, "lat": 40.3396221, "lon": 49.8422486}, {"type": "node", "id": 13019445432, "lat": 40.3393449, "lon": 49.8421504}, {"type": "node", "id": 2558517007, "lat": 40.3441589, "lon": 49.8396194}, {"type": "node", "id": 3533144996, "lat": 40.3461557, "lon": 49.8395431}, {"type": "node", "id": 3533144997, "lat": 40.3456802, "lon": 49.8397658}, {"type": "node", "id": 3533144998, "lat": 40.3456294, "lon": 49.8395791}, {"type": "node", "id": 3533144999, "lat": 40.3460244, "lon": 49.8393941}, {"type": "node", "id": 3533145000, "lat": 40.3459147, "lon": 49.8389912}, {"type": "node", "id": 3636135203, "lat": 40.3409484, "lon": 49.8400184}, {"type": "node", "id": 3636135210, "lat": 40.3410778, "lon": 49.8399108}, {"type": "node", "id": 3743991165, "lat": 40.3453687, "lon": 49.8353817}, {"type": "node", "id": 3743991166, "lat": 40.345373, "lon": 49.8354231}, {"type": "node", "id": 3743991167, "lat": 40.345394, "lon": 49.8353416}, {"type": "node", "id": 3743991168, "lat": 40.3453951, "lon": 49.8354618}, {"type": "node", "id": 3743991169, "lat": 40.3454193, "lon": 49.835484}, {"type": "node", "id": 3743991170, "lat": 40.3454551, "lon": 49.8354715}, {"type": "node", "id": 3743991171, "lat": 40.3454973, "lon": 49.8354411}, {"type": "node", "id": 3743991174, "lat": 40.3459093, "lon": 49.8349476}, {"type": "node", "id": 3743991176, "lat": 40.3459345, "lon": 49.8349434}, {"type": "node", "id": 3743991178, "lat": 40.3459577, "lon": 49.8349545}, {"type": "node", "id": 3743991179, "lat": 40.3459683, "lon": 49.8350789}, {"type": "node", "id": 3743991181, "lat": 40.3459841, "lon": 49.8350043}, {"type": "node", "id": 3743991182, "lat": 40.3459841, "lon": 49.8350485}, {"type": "node", "id": 3743991183, "lat": 40.3459872, "lon": 49.8350278}, {"type": "node", "id": 3744020217, "lat": 40.3408528, "lon": 49.8374342}, {"type": "node", "id": 3744020218, "lat": 40.3410565, "lon": 49.8377384}, {"type": "node", "id": 3744020219, "lat": 40.3412767, "lon": 49.8394436}, {"type": "node", "id": 3744020220, "lat": 40.3411929, "lon": 49.83804}, {"type": "node", "id": 3744020221, "lat": 40.3413309, "lon": 49.8391087}, {"type": "node", "id": 3744020222, "lat": 40.3412841, "lon": 49.8383254}, {"type": "node", "id": 3744020223, "lat": 40.341302, "lon": 49.8384238}, {"type": "node", "id": 3744020450, "lat": 40.3461556, "lon": 49.8378394}, {"type": "node", "id": 3744020451, "lat": 40.346264, "lon": 49.8377716}, {"type": "node", "id": 3744020453, "lat": 40.346351, "lon": 49.8383392}, {"type": "node", "id": 3744020455, "lat": 40.3464678, "lon": 49.8382593}, {"type": "node", "id": 9900653252, "lat": 40.3414037, "lon": 49.8393689}, {"type": "node", "id": 9900653269, "lat": 40.3412473, "lon": 49.8381928}, {"type": "node", "id": 9913353995, "lat": 40.3462293, "lon": 49.8399013}, {"type": "node", "id": 9913353996, "lat": 40.346123, "lon": 49.840014}, {"type": "node", "id": 9913353999, "lat": 40.3458613, "lon": 49.8398396}, {"type": "node", "id": 9913354001, "lat": 40.3458797, "lon": 49.8389277}, {"type": "node", "id": 9913354002, "lat": 40.3455465, "lon": 49.8390993}, {"type": "node", "id": 9913354003, "lat": 40.3456017, "lon": 49.8393139}, {"type": "node", "id": 9913354004, "lat": 40.3453114, "lon": 49.839448}, {"type": "node", "id": 9913354005, "lat": 40.345477, "lon": 49.8400354}, {"type": "node", "id": 9913354006, "lat": 40.3461946, "lon": 49.8396546}, {"type": "node", "id": 1651297795, "lat": 40.3438634, "lon": 49.8465331}, {"type": "node", "id": 1651297796, "lat": 40.3456802, "lon": 49.8451032}, {"type": "node", "id": 1651297797, "lat": 40.3457447, "lon": 49.8441169}, {"type": "node", "id": 1651297800, "lat": 40.3431291, "lon": 49.8447899}, {"type": "node", "id": 1651297803, "lat": 40.344921, "lon": 49.8461422}, {"type": "node", "id": 1651297804, "lat": 40.3456217, "lon": 49.8440693}, {"type": "node", "id": 1651297805, "lat": 40.345504, "lon": 49.844066}, {"type": "node", "id": 1651297806, "lat": 40.3456677, "lon": 49.8449633}, {"type": "node", "id": 1651297807, "lat": 40.3439649, "lon": 49.8465137}, {"type": "node", "id": 1651297808, "lat": 40.3456141, "lon": 49.8446211}, {"type": "node", "id": 1651297809, "lat": 40.3455463, "lon": 49.844106}, {"type": "node", "id": 1651297811, "lat": 40.3448795, "lon": 49.8435791}, {"type": "node", "id": 1651297813, "lat": 40.3453377, "lon": 49.8440854}, {"type": "node", "id": 1651297823, "lat": 40.3430579, "lon": 49.8450888}, {"type": "node", "id": 1651297824, "lat": 40.3450786, "lon": 49.8436408}, {"type": "node", "id": 1651297825, "lat": 40.3435094, "lon": 49.8463312}, {"type": "node", "id": 1651297828, "lat": 40.3448319, "lon": 49.8464885}, {"type": "node", "id": 1651297832, "lat": 40.3448014, "lon": 49.8435939}, {"type": "node", "id": 1651297834, "lat": 40.3445627, "lon": 49.8463758}, {"type": "node", "id": 1651297836, "lat": 40.3440604, "lon": 49.8464648}, {"type": "node", "id": 1651297838, "lat": 40.3447784, "lon": 49.8464999}, {"type": "node", "id": 1651297840, "lat": 40.3430904, "lon": 49.8453011}, {"type": "node", "id": 1651297843, "lat": 40.3457848, "lon": 49.8441969}, {"type": "node", "id": 1651297844, "lat": 40.345732, "lon": 49.8444153}, {"type": "node", "id": 1651297851, "lat": 40.3440645, "lon": 49.8441151}, {"type": "node", "id": 1651297853, "lat": 40.3449232, "lon": 49.8462586}, {"type": "node", "id": 1651297856, "lat": 40.3456361, "lon": 49.8453175}, {"type": "node", "id": 1651297858, "lat": 40.3436055, "lon": 49.8464397}, {"type": "node", "id": 1651297860, "lat": 40.3455735, "lon": 49.8454279}, {"type": "node", "id": 1651297861, "lat": 40.34497, "lon": 49.8435893}, {"type": "node", "id": 1651297862, "lat": 40.3449371, "lon": 49.8460208}, {"type": "node", "id": 2558512300, "lat": 40.346588, "lon": 49.8439284}, {"type": "node", "id": 2558512322, "lat": 40.3464382, "lon": 49.8433604}, {"type": "node", "id": 2558512326, "lat": 40.3463722, "lon": 49.8435981}, {"type": "node", "id": 2558512331, "lat": 40.3463839, "lon": 49.8434868}, {"type": "node", "id": 2558512351, "lat": 40.3465049, "lon": 49.8438887}, {"type": "node", "id": 2558516984, "lat": 40.3430093, "lon": 49.8401768}, {"type": "node", "id": 2558517027, "lat": 40.3444035, "lon": 49.8404878}, {"type": "node", "id": 2558517051, "lat": 40.3432539, "lon": 49.8410451}, {"type": "node", "id": 2558766579, "lat": 40.3448778, "lon": 49.8464532}, {"type": "node", "id": 2558766580, "lat": 40.3447318, "lon": 49.8464882}, {"type": "node", "id": 2558766581, "lat": 40.343167, "lon": 49.8456397}, {"type": "node", "id": 2558766583, "lat": 40.3432764, "lon": 49.8458295}, {"type": "node", "id": 2558766584, "lat": 40.3437745, "lon": 49.8465252}, {"type": "node", "id": 2558766585, "lat": 40.3432098, "lon": 49.8455735}, {"type": "node", "id": 2558766586, "lat": 40.3456622, "lon": 49.8445283}, {"type": "node", "id": 2558766587, "lat": 40.3457912, "lon": 49.8442868}, {"type": "node", "id": 2558766588, "lat": 40.3456418, "lon": 49.844579}, {"type": "node", "id": 2558766590, "lat": 40.344078, "lon": 49.8464519}, {"type": "node", "id": 2558766593, "lat": 40.3431815, "lon": 49.845604}, {"type": "node", "id": 2558766595, "lat": 40.3445973, "lon": 49.8463795}, {"type": "node", "id": 2558766596, "lat": 40.3444813, "lon": 49.8462028}, {"type": "node", "id": 2558766597, "lat": 40.3432487, "lon": 49.8458363}, {"type": "node", "id": 2558766598, "lat": 40.3432988, "lon": 49.8458161}, {"type": "node", "id": 2558766599, "lat": 40.3449134, "lon": 49.8463923}, {"type": "node", "id": 2558766600, "lat": 40.3449042, "lon": 49.8459018}, {"type": "node", "id": 2558766601, "lat": 40.3451959, "lon": 49.843772}, {"type": "node", "id": 2558766602, "lat": 40.3431547, "lon": 49.8456966}, {"type": "node", "id": 2558766603, "lat": 40.3454662, "lon": 49.8440422}, {"type": "node", "id": 2558766604, "lat": 40.34453, "lon": 49.8463408}, {"type": "node", "id": 2558766605, "lat": 40.3430701, "lon": 49.8449701}, {"type": "node", "id": 2558766606, "lat": 40.3449273, "lon": 49.8463301}, {"type": "node", "id": 2558766607, "lat": 40.3432095, "lon": 49.8458237}, {"type": "node", "id": 2558766608, "lat": 40.3456684, "lon": 49.8452104}, {"type": "node", "id": 2558766609, "lat": 40.345303, "lon": 49.8456461}, {"type": "node", "id": 2558766611, "lat": 40.3454191, "lon": 49.8440431}, {"type": "node", "id": 2558766612, "lat": 40.3451399, "lon": 49.8436959}, {"type": "node", "id": 2558766613, "lat": 40.3456546, "lon": 49.8444737}, {"type": "node", "id": 2558766614, "lat": 40.3446335, "lon": 49.8463702}, {"type": "node", "id": 2558766615, "lat": 40.3446808, "lon": 49.8464463}, {"type": "node", "id": 2558766616, "lat": 40.3449385, "lon": 49.8460914}, {"type": "node", "id": 2558766617, "lat": 40.3457673, "lon": 49.8443676}, {"type": "node", "id": 2558766618, "lat": 40.3430639, "lon": 49.8451862}, {"type": "node", "id": 2558766620, "lat": 40.344893, "lon": 49.8461719}, {"type": "node", "id": 2558766621, "lat": 40.3455608, "lon": 49.8446636}, {"type": "node", "id": 2558766622, "lat": 40.3456794, "lon": 49.8440717}, {"type": "node", "id": 2558766623, "lat": 40.3436857, "lon": 49.8464932}, {"type": "node", "id": 2558766624, "lat": 40.3450161, "lon": 49.8458298}, {"type": "node", "id": 2558766625, "lat": 40.3454956, "lon": 49.8455059}, {"type": "node", "id": 2558774059, "lat": 40.3408524, "lon": 49.8424252}, {"type": "node", "id": 2769470628, "lat": 40.3459692, "lon": 49.8438697}, {"type": "node", "id": 2769470629, "lat": 40.3459422, "lon": 49.84376}, {"type": "node", "id": 2769470631, "lat": 40.3459099, "lon": 49.8436786}, {"type": "node", "id": 2769470632, "lat": 40.3458667, "lon": 49.8436078}, {"type": "node", "id": 2769470633, "lat": 40.3458309, "lon": 49.8435607}, {"type": "node", "id": 2769470634, "lat": 40.345683, "lon": 49.8434837}, {"type": "node", "id": 2769470635, "lat": 40.3465448, "lon": 49.8432618}, {"type": "node", "id": 2769470636, "lat": 40.3469645, "lon": 49.8448076}, {"type": "node", "id": 2769470637, "lat": 40.3462201, "lon": 49.8448112}, {"type": "node", "id": 2769470638, "lat": 40.3462174, "lon": 49.844705}, {"type": "node", "id": 2769470640, "lat": 40.346201, "lon": 49.8446006}, {"type": "node", "id": 2769470641, "lat": 40.3461772, "lon": 49.8445071}, {"type": "node", "id": 2769470642, "lat": 40.3461392, "lon": 49.8443864}, {"type": "node", "id": 2769470643, "lat": 40.3461095, "lon": 49.8443015}, {"type": "node", "id": 2769470644, "lat": 40.3460771, "lon": 49.8442024}, {"type": "node", "id": 2769470645, "lat": 40.3460582, "lon": 49.8441493}, {"type": "node", "id": 2769470646, "lat": 40.3464796, "lon": 49.843861}, {"type": "node", "id": 2769470648, "lat": 40.3466438, "lon": 49.8439304}, {"type": "node", "id": 2769470649, "lat": 40.3462205, "lon": 49.8449128}, {"type": "node", "id": 2769470650, "lat": 40.3463985, "lon": 49.8449057}, {"type": "node", "id": 2769470652, "lat": 40.3470027, "lon": 49.8449093}, {"type": "node", "id": 2769470655, "lat": 40.3460991, "lon": 49.8454402}, {"type": "node", "id": 2769470656, "lat": 40.346973, "lon": 49.8457516}, {"type": "node", "id": 2769470657, "lat": 40.3460748, "lon": 49.8455357}, {"type": "node", "id": 2769470658, "lat": 40.3472266, "lon": 49.8459498}, {"type": "node", "id": 2769470661, "lat": 40.3462528, "lon": 49.8466612}, {"type": "node", "id": 2769470662, "lat": 40.3456864, "lon": 49.8461162}, {"type": "node", "id": 2769470664, "lat": 40.3457457, "lon": 49.8460631}, {"type": "node", "id": 2769470665, "lat": 40.3458671, "lon": 49.8459533}, {"type": "node", "id": 2769470667, "lat": 40.3459345, "lon": 49.8458578}, {"type": "node", "id": 2769470668, "lat": 40.3460101, "lon": 49.8457162}, {"type": "node", "id": 2769470670, "lat": 40.3456243, "lon": 49.8461834}, {"type": "node", "id": 2841146472, "lat": 40.3450004, "lon": 49.8435986}, {"type": "node", "id": 2845414967, "lat": 40.3466059, "lon": 49.8420017}, {"type": "node", "id": 2845414968, "lat": 40.3458286, "lon": 49.8417953}, {"type": "node", "id": 2845414969, "lat": 40.3465871, "lon": 49.8419678}, {"type": "node", "id": 2845414970, "lat": 40.3465472, "lon": 49.8419462}, {"type": "node", "id": 2845414971, "lat": 40.3457887, "lon": 49.8435052}, {"type": "node", "id": 2845414972, "lat": 40.3457417, "lon": 49.8434837}, {"type": "node", "id": 2845414973, "lat": 40.3459178, "lon": 49.8423591}, {"type": "node", "id": 2845414974, "lat": 40.3459061, "lon": 49.842242}, {"type": "node", "id": 2845414975, "lat": 40.3458803, "lon": 49.8421496}, {"type": "node", "id": 2845414976, "lat": 40.345845, "lon": 49.8420941}, {"type": "node", "id": 2845414977, "lat": 40.3458028, "lon": 49.8420787}, {"type": "node", "id": 2845414978, "lat": 40.3457469, "lon": 49.8420662}, {"type": "node", "id": 2845414979, "lat": 40.3457316, "lon": 49.8420408}, {"type": "node", "id": 2845414980, "lat": 40.3457394, "lon": 49.8419247}, {"type": "node", "id": 2845414981, "lat": 40.3457511, "lon": 49.8418507}, {"type": "node", "id": 2845414982, "lat": 40.3457929, "lon": 49.8418007}, {"type": "node", "id": 2845414983, "lat": 40.3457674, "lon": 49.8418208}, {"type": "node", "id": 2845414984, "lat": 40.3457316, "lon": 49.8420019}, {"type": "node", "id": 2845414985, "lat": 40.3457735, "lon": 49.8420743}, {"type": "node", "id": 3385716651, "lat": 40.3456506, "lon": 49.8440667}, {"type": "node", "id": 3385716652, "lat": 40.3457143, "lon": 49.8440888}, {"type": "node", "id": 3385716653, "lat": 40.3457686, "lon": 49.8441536}, {"type": "node", "id": 3385716654, "lat": 40.3457921, "lon": 49.8442414}, {"type": "node", "id": 3385716655, "lat": 40.3457828, "lon": 49.844329}, {"type": "node", "id": 3385716656, "lat": 40.3447046, "lon": 49.8464707}, {"type": "node", "id": 3385716657, "lat": 40.3448056, "lon": 49.8464975}, {"type": "node", "id": 3385716658, "lat": 40.3448561, "lon": 49.8464736}, {"type": "node", "id": 3385716659, "lat": 40.344898, "lon": 49.8464251}, {"type": "node", "id": 3385716660, "lat": 40.3449278, "lon": 49.8462941}, {"type": "node", "id": 3636135185, "lat": 40.3407291, "lon": 49.8402095}, {"type": "node", "id": 3636135204, "lat": 40.3409533, "lon": 49.8424179}, {"type": "node", "id": 3636135208, "lat": 40.340993, "lon": 49.8424224}, {"type": "node", "id": 3636135209, "lat": 40.3410442, "lon": 49.842526}, {"type": "node", "id": 3636135217, "lat": 40.3412408, "lon": 49.842924}, {"type": "node", "id": 3636135227, "lat": 40.3414521, "lon": 49.8433518}, {"type": "node", "id": 3636135230, "lat": 40.3414904, "lon": 49.8434293}, {"type": "node", "id": 3636135236, "lat": 40.3415327, "lon": 49.8434938}, {"type": "node", "id": 3636135239, "lat": 40.3415894, "lon": 49.8435802}, {"type": "node", "id": 3636135243, "lat": 40.3417142, "lon": 49.84139}, {"type": "node", "id": 3636135244, "lat": 40.3417036, "lon": 49.843703}, {"type": "node", "id": 3636135250, "lat": 40.3417445, "lon": 49.8437269}, {"type": "node", "id": 3636135259, "lat": 40.3418988, "lon": 49.8437042}, {"type": "node", "id": 3636135261, "lat": 40.3419691, "lon": 49.8419839}, {"type": "node", "id": 3636135273, "lat": 40.3420899, "lon": 49.8437387}, {"type": "node", "id": 3636135282, "lat": 40.3422057, "lon": 49.8423272}, {"type": "node", "id": 3636135291, "lat": 40.3423129, "lon": 49.8439273}, {"type": "node", "id": 3636135299, "lat": 40.3424161, "lon": 49.8440167}, {"type": "node", "id": 3636135300, "lat": 40.342434, "lon": 49.8425585}, {"type": "node", "id": 3636135305, "lat": 40.3426157, "lon": 49.8441223}, {"type": "node", "id": 3636135307, "lat": 40.3426837, "lon": 49.8427707}, {"type": "node", "id": 3636135312, "lat": 40.3428272, "lon": 49.8441603}, {"type": "node", "id": 3636135313, "lat": 40.3429424, "lon": 49.843051}, {"type": "node", "id": 3636135314, "lat": 40.3429287, "lon": 49.842901}, {"type": "node", "id": 3636135316, "lat": 40.3430809, "lon": 49.8438767}, {"type": "node", "id": 3636135317, "lat": 40.3430941, "lon": 49.8439307}, {"type": "node", "id": 3636135318, "lat": 40.3431311, "lon": 49.8440692}, {"type": "node", "id": 3636138395, "lat": 40.3432209, "lon": 49.8446454}, {"type": "node", "id": 3636138401, "lat": 40.345609, "lon": 49.8446252}, {"type": "node", "id": 3636138403, "lat": 40.3458778, "lon": 49.8459381}, {"type": "node", "id": 3745025471, "lat": 40.3427388, "lon": 49.8409346}, {"type": "node", "id": 3745025476, "lat": 40.3424849, "lon": 49.8413738}, {"type": "node", "id": 9896015558, "lat": 40.3428174, "lon": 49.8411995}, {"type": "node", "id": 9896015560, "lat": 40.3424062, "lon": 49.8410978}, {"type": "node", "id": 9913353997, "lat": 40.3462416, "lon": 49.8402286}, {"type": "node", "id": 9913353998, "lat": 40.3460188, "lon": 49.8404726}, {"type": "node", "id": 13018086291, "lat": 40.3430667, "lon": 49.8441046}, {"type": "node", "id": 13018086292, "lat": 40.3429482, "lon": 49.8441514}, {"type": "node", "id": 13018134703, "lat": 40.3414599, "lon": 49.8407556}, {"type": "node", "id": 13018134704, "lat": 40.3413767, "lon": 49.8406138}, {"type": "node", "id": 13018134715, "lat": 40.3413156, "lon": 49.8404792}, {"type": "node", "id": 13018134784, "lat": 40.3429328, "lon": 49.8431242}, {"type": "node", "id": 13019444662, "lat": 40.342169, "lon": 49.8437906}, {"type": "node", "id": 13019444706, "lat": 40.3423884, "lon": 49.8439925}, {"type": "node", "id": 13019445071, "lat": 40.3408291, "lon": 49.8424259}, {"type": "node", "id": 13019445264, "lat": 40.3418189, "lon": 49.8437129}, {"type": "node", "id": 13019445265, "lat": 40.3419933, "lon": 49.8437097}, {"type": "node", "id": 13019686484, "lat": 40.345394, "lon": 49.8463935}, {"type": "node", "id": 13019686563, "lat": 40.346167, "lon": 49.8451452}, {"type": "node", "id": 13019686656, "lat": 40.3459808, "lon": 49.845771}, {"type": "node", "id": 2769470671, "lat": 40.3461746, "lon": 49.8467178}, {"type": "node", "id": 2769470672, "lat": 40.3453789, "lon": 49.8472239}, {"type": "node", "id": 2769470673, "lat": 40.3453519, "lon": 49.8471779}, {"type": "node", "id": 2769470674, "lat": 40.3453087, "lon": 49.8471496}, {"type": "node", "id": 2769470675, "lat": 40.3452683, "lon": 49.8471248}, {"type": "node", "id": 2769470677, "lat": 40.3452278, "lon": 49.8471142}, {"type": "node", "id": 2769470678, "lat": 40.3451574, "lon": 49.8471148}, {"type": "node", "id": 2769470679, "lat": 40.3450309, "lon": 49.8467249}, {"type": "node", "id": 2769470721, "lat": 40.344833, "lon": 49.8468824}, {"type": "node", "id": 2769470723, "lat": 40.3449517, "lon": 49.8472257}, {"type": "node", "id": 2769470725, "lat": 40.3449032, "lon": 49.8472929}, {"type": "node", "id": 2769470727, "lat": 40.3448627, "lon": 49.8473885}, {"type": "node", "id": 2769470730, "lat": 40.3448465, "lon": 49.8475053}, {"type": "node", "id": 2769470732, "lat": 40.3448519, "lon": 49.8475619}, {"type": "node", "id": 2769470734, "lat": 40.3439348, "lon": 49.8481424}, {"type": "node", "id": 2769470736, "lat": 40.344067, "lon": 49.8470204}, {"type": "node", "id": 2769470739, "lat": 40.3444311, "lon": 49.8469426}, {"type": "node", "id": 2769470741, "lat": 40.3444581, "lon": 49.8469815}, {"type": "node", "id": 2769470743, "lat": 40.3445174, "lon": 49.8469957}, {"type": "node", "id": 2769470745, "lat": 40.3445795, "lon": 49.846978}, {"type": "node", "id": 2769470746, "lat": 40.3439833, "lon": 49.8470523}, {"type": "node", "id": 2769470748, "lat": 40.3438512, "lon": 49.8481954}, {"type": "node", "id": 2769470750, "lat": 40.3431013, "lon": 49.8486768}, {"type": "node", "id": 2769470752, "lat": 40.3430608, "lon": 49.8486485}, {"type": "node", "id": 2769470754, "lat": 40.3435976, "lon": 49.8469921}, {"type": "node", "id": 2769470757, "lat": 40.3436731, "lon": 49.8470346}, {"type": "node", "id": 2769470760, "lat": 40.3437649, "lon": 49.8470523}, {"type": "node", "id": 2769470762, "lat": 40.3439078, "lon": 49.8470558}, {"type": "node", "id": 2769470765, "lat": 40.343416, "lon": 49.8468697}, {"type": "node", "id": 2769470770, "lat": 40.3435263, "lon": 49.8469491}, {"type": "node", "id": 2769470771, "lat": 40.342996, "lon": 49.8486}, {"type": "node", "id": 2769470772, "lat": 40.3429515, "lon": 49.8485953}, {"type": "node", "id": 2769470773, "lat": 40.3427397, "lon": 49.847673}, {"type": "node", "id": 2769470775, "lat": 40.3427753, "lon": 49.8476193}, {"type": "node", "id": 2769470777, "lat": 40.3428037, "lon": 49.8475656}, {"type": "node", "id": 2769470778, "lat": 40.3428215, "lon": 49.8475002}, {"type": "node", "id": 2769470779, "lat": 40.3428322, "lon": 49.8474441}, {"type": "node", "id": 2769470780, "lat": 40.3428304, "lon": 49.8473671}, {"type": "node", "id": 13019686359, "lat": 40.3438253, "lon": 49.8470538}, {"type": "node", "id": 13019686446, "lat": 40.344193, "lon": 49.8469935}, {"type": "node", "id": 12757920545, "lat": 40.3475041, "lon": 49.8350438}, {"type": "node", "id": 12757920552, "lat": 40.3474302, "lon": 49.8348805}, {"type": "node", "id": 12757920554, "lat": 40.3475912, "lon": 49.834976}, {"type": "node", "id": 12757920572, "lat": 40.3475173, "lon": 49.8348127}, {"type": "node", "id": 2769470653, "lat": 40.3473291, "lon": 49.8457728}, {"type": "node", "id": 2769470654, "lat": 40.3472886, "lon": 49.8458755}, {"type": "node", "id": 2769470659, "lat": 40.3472616, "lon": 49.845971}, {"type": "node", "id": 2769470660, "lat": 40.3472643, "lon": 49.8460206}]}