{"version": 0.6, "generator": "Overpass API 0.7.62.8 e802775f", "osm3s": {"timestamp_osm_base": "2025-11-23T07:58:40Z", "copyright": "The data included in this document is from www.openstreetmap.org. The data is made available under ODbL."}, "elements": [{"type": "node", "id": 1213339354, "lat": 40.4185335, "lon": 49.8111934, "tags": {"amenity": "restaurant", "name": "\u00c7inar restorant"}}, {"type": "node", "id": 1360861885, "lat": 40.4009749, "lon": 49.834873, "tags": {"amenity": "restaurant", "cuisine": "korean", "name": "Koreana(\ud55c\uad6d\uad00)", "takeaway": "yes"}}, {"type": "node", "id": 1808672464, "lat": 40.4192107, "lon": 49.8037287, "tags": {"amenity": "restaurant", "name": "Bulaq"}}, {"type": "node", "id": 1809807641, "lat": 40.4326242, "lon": 49.8052862, "tags": {"amenity": "cafe", "cuisine": "regional", "name": "Bashnya Kafe \\ Bil\u0259c\u0259ri"}}, {"type": "node", "id": 1812285477, "lat": 40.4052688, "lon": 49.8063282, "tags": {"amenity": "restaurant", "name": "Badi S\u0259ba \u015eadl\u0131q Saray\u0131", "phone": "(+99412) 431-07-43"}}, {"type": "node", "id": 1857136404, "lat": 40.4002339, "lon": 49.8316156, "tags": {"name": "Ambassador", "tourism": "hotel"}}, {"type": "node", "id": 1930089757, "lat": 40.4037901, "lon": 49.8070254, "tags": {"historic": "monument", "name": "20 Yanvar \u015e\u0259hidl\u0259ri abid\u0259si"}}, {"type": "node", "id": 2002311106, "lat": 40.4075419, "lon": 49.8359983, "tags": {"height": "4.5", "historic": "memorial", "material": "bronze", "memorial": "sculpture", "name": "\u018fli\u015fir N\u0259vainin heyk\u0259li", "name:en": "Alishir Navai Monument", "name:ru": "\u041f\u0430\u043c\u044f\u0442\u043d\u0438\u043a \u0410\u043b\u0438\u0448\u0435\u0440\u0443 \u041d\u0430\u0432\u043e\u0438"}}, {"type": "node", "id": 2027518063, "lat": 40.4222435, "lon": 49.8201149, "tags": {"historic": "monument", "name": "Z\u0259rif\u0259 \u018fliyevan\u0131n heyk\u0259li"}}, {"type": "node", "id": 2034721616, "lat": 40.4020113, "lon": 49.8345738, "tags": {"amenity": "restaurant", "cuisine": "azerbaijanian", "name": "\u015e\u0259ki m\u0259tb\u0259xi"}}, {"type": "node", "id": 2048518872, "lat": 40.4196713, "lon": 49.8128398, "tags": {"addr:street": "Mir C\u0259lal", "amenity": "restaurant", "name:en": "Bu-bu", "name:ru": "Assorti"}}, {"type": "node", "id": 2048521446, "lat": 40.4174516, "lon": 49.8128244, "tags": {"amenity": "cafe"}}, {"type": "node", "id": 2048521640, "lat": 40.4176088, "lon": 49.8131463, "tags": {"amenity": "cafe"}}, {"type": "node", "id": 2726729512, "lat": 40.419895, "lon": 49.8021557, "tags": {"amenity": "cafe", "name": "Qaraba\u011f"}}, {"type": "node", "id": 2788064668, "lat": 40.4319391, "lon": 49.8039933, "tags": {"amenity": "cafe", "cuisine": "regional", "internet_access": "no", "name": "\u00c7ay evi \\ Stansiya Bil\u0259c\u0259ri", "smoking": "yes"}}, {"type": "node", "id": 2895893387, "lat": 40.4136518, "lon": 49.8107569, "tags": {"amenity": "restaurant", "name": "\u015e\u04d9ki Restoran\u0131 / Green Forest / 4-c\u00fc mkr."}}, {"type": "node", "id": 2895893388, "lat": 40.4144344, "lon": 49.8122727, "tags": {"addr:housenumber": "23b", "addr:street": "20 Yanvar", "amenity": "restaurant", "name": "Simurq"}}, {"type": "node", "id": 2990822322, "lat": 40.4114883, "lon": 49.8041208, "tags": {"amenity": "restaurant", "name": "Anar"}}, {"type": "node", "id": 2990822324, "lat": 40.4116557, "lon": 49.803483, "tags": {"amenity": "restaurant", "name": "G\u00f6y\u0259z\u0259n"}}, {"type": "node", "id": 3037852552, "lat": 40.4272928, "lon": 49.8498308, "tags": {"name": "Yataqxana", "tourism": "motel"}}, {"type": "node", "id": 3037852553, "lat": 40.4277382, "lon": 49.8497786, "tags": {"name": "Yataqxana", "tourism": "motel"}}, {"type": "node", "id": 3042832089, "lat": 40.4280671, "lon": 49.8482135, "tags": {"amenity": "cafe", "name": "M\u0259xm\u0259ri"}}, {"type": "node", "id": 3042832090, "lat": 40.4268895, "lon": 49.847187, "tags": {"amenity": "cafe", "name": "Qara Qaya Kafesi"}}, {"type": "node", "id": 3042880043, "lat": 40.4250976, "lon": 49.8417867, "tags": {"amenity": "cafe", "name": "Tez Bazar kafesi"}}, {"type": "node", "id": 3042880045, "lat": 40.4189061, "lon": 49.8390378, "tags": {"addr:city": "Mikrorayon 8", "amenity": "restaurant", "check_date:opening_hours": "2025-06-20", "name": "Fish Home", "opening_hours:signed": "no"}}, {"type": "node", "id": 3042960116, "lat": 40.4228493, "lon": 49.8395507, "tags": {"amenity": "restaurant", "name": "Aqora restoran\u0131"}}, {"type": "node", "id": 3042960117, "lat": 40.4245127, "lon": 49.844185, "tags": {"amenity": "cafe", "name": "Aristokrat Topaz kafesi"}}, {"type": "node", "id": 3042960120, "lat": 40.4209386, "lon": 49.8458932, "tags": {"amenity": "restaurant", "name": "Az\u0259ri restoran\u0131 \\ 8 mkr"}}, {"type": "node", "id": 3042960122, "lat": 40.4215276, "lon": 49.8464812, "tags": {"amenity": "restaurant", "name": "C\u0259nn\u0259t M\u0259kan"}}, {"type": "node", "id": 3042960123, "lat": 40.4188213, "lon": 49.8431659, "tags": {"amenity": "cafe", "name": "D\u0259yirman kafesi"}}, {"type": "node", "id": 3042960126, "lat": 40.4204062, "lon": 49.8458438, "tags": {"name": "M\u0259d\u0259ni-Maarif Texnikumunun yataqxanas\u0131", "tourism": "motel"}}, {"type": "node", "id": 3042961333, "lat": 40.4226611, "lon": 49.8473237, "tags": {"amenity": "restaurant", "name": "Retro \u015eam"}}, {"type": "node", "id": 3042961334, "lat": 40.4211904, "lon": 49.8458831, "tags": {"amenity": "restaurant", "name": "R\u00f6ya \u015fadl\u0131q saray\u0131 \\ 8 mkr"}}, {"type": "node", "id": 3042961335, "lat": 40.4250694, "lon": 49.8452899, "tags": {"amenity": "cafe", "name": "San Siro \u00c7ay evi"}}, {"type": "node", "id": 3042961337, "lat": 40.4250732, "lon": 49.8435082, "tags": {"amenity": "restaurant", "name": "Z\u00fcmr\u00fcd restoran\u0131", "name:en": "Z\u00fcmr\u00fcd Restoran\u0131"}}, {"type": "node", "id": 3043053784, "lat": 40.424979, "lon": 49.8475205, "tags": {"amenity": "cafe", "name": "Xudaf\u0259rin kafesi \\ 8 mkr"}}, {"type": "node", "id": 3120160599, "lat": 40.4135435, "lon": 49.8461641, "tags": {"historic": "memorial", "name": "Ayna Sultanova heyk\u0259li", "name:ru": "\u0410\u0439\u043d\u0430 \u0421\u0443\u043b\u0442\u0430\u043d\u043e\u0432\u0430"}}, {"type": "node", "id": 3120339012, "lat": 40.4124272, "lon": 49.8416951, "tags": {"amenity": "cafe", "name": "Liman"}}, {"type": "node", "id": 3174368021, "lat": 40.419287, "lon": 49.8124748, "tags": {"addr:city": "Bak\u0131", "addr:postcode": "AZ1102", "addr:street": "Mir C\u0259lal", "amenity": "restaurant", "capacity": "40", "cuisine": "kebab", "smoking": "yes"}}, {"type": "node", "id": 3174396478, "lat": 40.4191466, "lon": 49.8114254, "tags": {"addr:city": "Bak\u0131", "addr:postcode": "AZ1102", "addr:street": "Mir C\u0259lal", "amenity": "restaurant", "capacity": "15", "cuisine": "pizza", "name": "PitShop"}}, {"type": "node", "id": 3175253161, "lat": 40.4190825, "lon": 49.8121915, "tags": {"amenity": "restaurant", "internet_access": "wlan", "name": "Goranboy Kafesi", "smoking": "yes"}}, {"type": "node", "id": 3175307313, "lat": 40.4180442, "lon": 49.8114685, "tags": {"name": "U\u015faq \u018fyl\u0259nc\u0259 M\u0259rk\u0259zi", "tourism": "theme_park"}}, {"type": "node", "id": 3409580836, "lat": 40.4070575, "lon": 49.8046823, "tags": {"historic": "memorial", "name": "C\u0259f\u0259r Cabbarl\u0131 heyk\u0259li"}}, {"type": "node", "id": 3550463612, "lat": 40.4064032, "lon": 49.8429567, "tags": {"name": "Admiral", "tourism": "hotel"}}, {"type": "node", "id": 3565750934, "lat": 40.4129134, "lon": 49.800695, "tags": {"name": "Main LTD Kompleksi \\ Bak\u0131", "tourism": "attraction"}}, {"type": "node", "id": 3585811993, "lat": 40.4017349, "lon": 49.8476676, "tags": {"amenity": "casino", "name": "Alp Inn Hotel", "tourism": "hotel"}}, {"type": "node", "id": 3585829731, "lat": 40.4082391, "lon": 49.8438268, "tags": {"addr:street": "Kral H\u00fcseyn k\u00fc\u00e7\u0259si", "name": "Ambiance Hotel", "tourism": "hotel"}}, {"type": "node", "id": 3585836493, "lat": 40.4041239, "lon": 49.8449112, "tags": {"name": "Anatoliya Anadolu Otel", "tourism": "hotel"}}, {"type": "node", "id": 3626554872, "lat": 40.412023, "lon": 49.8039887, "tags": {"amenity": "restaurant", "name": "\u0130mperial \u015eadl\u0131q Saray\u0131 \\ \u015eamaxinka"}}, {"type": "node", "id": 3667751272, "lat": 40.4360291, "lon": 49.8072206, "tags": {"amenity": "marketplace", "name": "Bil\u0259c\u0259ri Kolxoz Bazar\u0131"}}, {"type": "node", "id": 3676814406, "lat": 40.427112, "lon": 49.8046673, "tags": {"amenity": "cafe", "cuisine": "regional", "internet_access": "no", "name": "\u00dc\u00e7 Qarda\u015f Kafe", "smoking": "yes"}}, {"type": "node", "id": 3909308974, "lat": 40.4155594, "lon": 49.846359, "tags": {"amenity": "restaurant", "name": "F\u0259rid Palace \u015eadl\u0131q Saray\u0131", "name:az": "F\u0259rid Palace \u015eadl\u0131q Saray\u0131", "name:en": "Farid Palace Wedding Palace"}}, {"type": "node", "id": 4084801877, "lat": 40.4032991, "lon": 49.84095, "tags": {"name": "Otel \u015eafran", "tourism": "hotel"}}, {"type": "node", "id": 4106980989, "lat": 40.4051015, "lon": 49.842641, "tags": {"internet_access": "wlan", "name": "PREMIER HOTEL", "tourism": "hotel"}}, {"type": "node", "id": 4133688689, "lat": 40.4146478, "lon": 49.834693, "tags": {"amenity": "restaurant", "name": "Yem\u0259kxana \\ D\u0259rn\u0259g\u00fcl", "name:en": "Kafe"}}, {"type": "node", "id": 4159586791, "lat": 40.4105188, "lon": 49.8144269, "tags": {"amenity": "cafe", "internet_access": "wlan", "name": "Ba\u015fkent Kafe", "opening_hours": "Mo-Su 10:00-22:00"}}, {"type": "node", "id": 4167982033, "lat": 40.4294934, "lon": 49.8083075, "tags": {"amenity": "cafe"}}, {"type": "node", "id": 4167982034, "lat": 40.4317315, "lon": 49.8057789, "tags": {"addr:street": "Y. Huseynov", "amenity": "cafe", "internet_access": "wlan", "name:en": "VAD\u0130"}}, {"type": "node", "id": 4173027789, "lat": 40.422124, "lon": 49.8464812, "tags": {"addr:housenumber": "8", "addr:street": "\u015e\u00f6vk\u0259t M\u0259mm\u0259dova k\u00fc\u00e7.", "amenity": "cafe", "name": "Fito Club"}}, {"type": "node", "id": 4207694809, "lat": 40.4057822, "lon": 49.8144536, "tags": {"amenity": "restaurant", "name": "Gold Baku \u015eadl\u0131q Saray\u0131"}}, {"type": "node", "id": 4217624527, "lat": 40.4222534, "lon": 49.8153502, "tags": {"amenity": "cafe", "internet_access": "yes", "name": "\u00c7ay Evi"}}, {"type": "node", "id": 4271007489, "lat": 40.4174811, "lon": 49.8374872, "tags": {"historic": "memorial", "memorial": "memorial", "name": "Corce Enesku", "name:az": "Corce Enesku", "name:en": "George Enescu", "name:ro": "George Enescu", "wikidata": "Q77177", "wikimedia_commons": "Category:George Enescu", "wikipedia": "en:George Enescu"}}, {"type": "node", "id": 4316109190, "lat": 40.40115, "lon": 49.8498064, "tags": {"amenity": "restaurant", "cuisine": "burger;chicken;sandwich;fish;fish_and_chips;kebab", "name": "Shwarmma"}}, {"type": "node", "id": 4316198790, "lat": 40.4063433, "lon": 49.8428708, "tags": {"addr:street": "M\u0259mm\u0259d Araz", "internet_access": "wlan", "name": "Admiral Hotel", "opening_hours": "24/7", "tourism": "hotel"}}, {"type": "node", "id": 4325951994, "lat": 40.4133414, "lon": 49.824956, "tags": {"amenity": "cafe", "name": "The Green Room"}}, {"type": "node", "id": 4327228691, "lat": 40.401618, "lon": 49.8391269, "tags": {"amenity": "cafe", "name": "Wood house"}}, {"type": "node", "id": 4327978982, "lat": 40.4022739, "lon": 49.8390268, "tags": {"amenity": "restaurant", "name": "Wood House"}}, {"type": "node", "id": 4328295891, "lat": 40.4015457, "lon": 49.8462949, "tags": {"amenity": "restaurant", "name": "Tongal Resturant"}}, {"type": "node", "id": 4344772810, "lat": 40.4073023, "lon": 49.8063904, "tags": {"amenity": "restaurant", "name": "Restoran HUQQA"}}, {"type": "node", "id": 4353714090, "lat": 40.4247421, "lon": 49.8221606, "tags": {"amenity": "restaurant", "name": "Zeytun Ba\u011f\u0131"}}, {"type": "node", "id": 4358612489, "lat": 40.4072798, "lon": 49.8063521, "tags": {"amenity": "restaurant", "name:tr": "Huqqa"}}, {"type": "node", "id": 4359931265, "lat": 40.4090474, "lon": 49.837682, "tags": {"addr:housenumber": "65G", "addr:street": "N\u0259c\u0259f N\u0259rimanov", "amenity": "cafe", "level": "0", "name": "Ali Lahmacun", "phone": "+994702683868", "source": "Mapillary", "wheelchair": "no"}}, {"type": "node", "id": 4359931266, "lat": 40.409127, "lon": 49.8382654, "tags": {"amenity": "cafe", "cuisine": "regional", "name": "Kafe \"T\u0259briz\""}}, {"type": "node", "id": 4370204854, "lat": 40.4184879, "lon": 49.8172799, "tags": {"amenity": "restaurant", "name": "Limon"}}, {"type": "node", "id": 4375497993, "lat": 40.4022764, "lon": 49.8401451, "tags": {"addr:housenumber": "50", "addr:street": "M\u0259sud \u018flizad\u0259", "amenity": "cafe", "cuisine": "cake;international", "name:ru": "\u043e\u0442 \u0416\u0430\u043d\u043d\u044b", "opening_hours": "Mo-Su 10:00-23:00", "website": "https://www.tort.az/"}}, {"type": "node", "id": 4380442292, "lat": 40.4133076, "lon": 49.8073896, "tags": {"addr:street": "20 Yanvar", "tourism": "guest_house"}}, {"type": "node", "id": 4381854489, "lat": 40.4155412, "lon": 49.8151737, "tags": {"amenity": "restaurant", "name": "Ya\u015f\u0131l Ba\u011f Restoran"}}, {"type": "node", "id": 4385807595, "lat": 40.413391, "lon": 49.8176171, "tags": {"addr:housenumber": "1241", "addr:postcode": "AZ1111", "addr:street": "h\u00fcseynbala \u0259liyev", "email": "info@moongroup.az", "name": "Moon group i\u015f sexi", "opening_hours": "24/7", "operator": "Ruslan", "phone": "+994124402211", "tourism": "guest_house", "website": "https://www.moongroup.az/"}}, {"type": "node", "id": 4395887293, "lat": 40.4355161, "lon": 49.8435638, "tags": {"amenity": "cafe", "name": "Ucuz Kafe \\ R\u0259sulzad\u0259"}}, {"type": "node", "id": 4426101691, "lat": 40.4271082, "lon": 49.8382712, "tags": {"addr:city": "R\u0259sulzad\u0259 Q\u0259s\u0259b\u0259si", "amenity": "restaurant", "name": "M\u0259l\u0259k \u015eadl\u0131q Saray\u0131 \\ Azadl\u0131q pr."}}, {"type": "node", "id": 4427683689, "lat": 40.4222666, "lon": 49.8165928, "tags": {"amenity": "restaurant", "name:en": "Sonalar Sonasi", "name:tr": "Sonalar Sonas\u0131"}}, {"type": "node", "id": 4433325689, "lat": 40.4298745, "lon": 49.8396368, "tags": {"tourism": "hotel"}}, {"type": "node", "id": 4473972889, "lat": 40.4233734, "lon": 49.8343457, "tags": {"name": "Iron motel", "tourism": "hotel"}}, {"type": "node", "id": 4487100089, "lat": 40.4287621, "lon": 49.8383751, "tags": {"amenity": "cafe", "name": "Park \u00c7inar kafe"}}, {"type": "node", "id": 4512306332, "lat": 40.4082876, "lon": 49.8475634, "tags": {"amenity": "restaurant", "name:en": "Noharm Karaoke", "phone": "0558268689"}}, {"type": "node", "id": 4512354011, "lat": 40.4212051, "lon": 49.8463444, "tags": {"amenity": "restaurant", "name": "T\u0259ndir Restoran \\ 8 mkr"}}, {"type": "node", "id": 4512393989, "lat": 40.4283394, "lon": 49.8456477, "tags": {"amenity": "cafe", "internet_access": "wlan", "name": "\u0130nferno kafe", "operator": "Asif", "phone": "070 288 23 24"}}, {"type": "node", "id": 4532179891, "lat": 40.4050112, "lon": 49.8246438, "tags": {"name:en": "Seymur's Home", "tourism": "hotel"}}, {"type": "node", "id": 4546991193, "lat": 40.4272821, "lon": 49.8398714, "tags": {"addr:city": "R\u0259sulzad\u0259 Q\u0259s\u0259b\u0259si", "addr:street": "Azadl\u0131q pr.", "amenity": "restaurant", "name": "Hollywood \u015eadl\u0131q Saray\u0131", "name:en": "Hollywood \u015fadl\u0131q evi", "name:ru": "Hollywood \u0414\u043e\u043c \u0422\u043e\u0440\u0436\u0435\u0441\u0442\u0432", "website": "http://shadliq.az/restaurant/hollywood-sadliq-sarayi/"}}, {"type": "node", "id": 4571033489, "lat": 40.4393356, "lon": 49.8448977, "tags": {"amenity": "restaurant", "name:en": "Royal \u015eadl\u0131q Saray\u0131"}}, {"type": "node", "id": 4599698063, "lat": 40.4100894, "lon": 49.819167, "tags": {"addr:city": "Baku", "addr:street": "H\u00fcseynbala \u018fliyev", "amenity": "cafe", "cuisine": "regional", "internet_access": "wlan", "internet_access:fee": "no", "level": "2", "name": "\u015e\u018fRQ | cafe- sports bar-gaming club", "website": "https://www.instagram.com/sherqcaffe/"}}, {"type": "node", "id": 4603589394, "lat": 40.4003265, "lon": 49.8318227, "tags": {"addr:street": "S\u0259m\u0259d Vur\u011fun", "name:ar": "\u0639\u0627\u0645\u0631 \u062d\u0645\u0648\u062f \u0643\u0627\u0646 \u0647\u0646\u0627", "name:en": "\u0639\u0627\u0645\u0631 \u062d\u0645\u0648\u062f \u0643\u0627\u0646 \u0647\u0646\u0627", "tourism": "hotel"}}, {"type": "node", "id": 4607510289, "lat": 40.4042817, "lon": 49.8476994, "tags": {"tourism": "guest_house"}}, {"type": "node", "id": 4607600893, "lat": 40.404172, "lon": 49.8171143, "tags": {"amenity": "restaurant", "name:en": "Niel \u015eadl\u0131q Saray\u0131"}}, {"type": "node", "id": 4610621395, "lat": 40.42704, "lon": 49.8211084, "tags": {"addr:postcode": "AZ1107", "addr:street": "H\u0259mz\u0259 Baba\u015fov", "amenity": "restaurant", "cuisine": "cake;coffee_shop;ice_cream;kebab;local;oriental", "internet_access": "wlan", "name:en": "\"Shahdag\" restaurant", "name:ru": "\u0420\u0435\u0441\u0442\u043e\u0440\u0430\u043d \"\u0428\u0430\u0445\u0434\u0430\u0433\"", "name:tr": "\"\u015eah Da\u011f\" restoran\u0131"}}, {"type": "node", "id": 4641542189, "lat": 40.411544, "lon": 49.8222507, "tags": {"addr:housenumber": "27", "addr:postcode": "AZ1111", "addr:street": "H\u00fcseyn Seyidzad\u0259", "amenity": "cafe", "internet_access": "wlan", "name:en": "Titanik", "opening_hours": "Mo-Su 08:00-00:00", "phone": "+994707275527"}}, {"type": "node", "id": 4665431290, "lat": 40.413548, "lon": 49.8117316, "tags": {"amenity": "cafe", "name": "Saracl\u0131 / G\u00fcrc\u00fc m\u0259tb\u0259xti"}}, {"type": "node", "id": 4665888989, "lat": 40.4060198, "lon": 49.8117116, "tags": {"name:tr": "kohne mehlemiz :)", "tourism": "guest_house"}}, {"type": "node", "id": 4680855102, "lat": 40.4110457, "lon": 49.8139037, "tags": {"amenity": "cafe", "name:en": "Kafe", "name:ru": "\u041a\u0430\u0444\u0435"}}, {"type": "node", "id": 4682032292, "lat": 40.4044652, "lon": 49.8155464, "tags": {"amenity": "restaurant", "name": "\u018frzurum Restoran\u0131 \\ Alatava"}}, {"type": "node", "id": 4686322395, "lat": 40.4175454, "lon": 49.8448191, "tags": {"name": "Tml evi", "tourism": "artwork"}}, {"type": "node", "id": 4686324292, "lat": 40.4038597, "lon": 49.8188271, "tags": {"name": "Bak\u0131 Su Kanal \u0130dar\u04d9si \\ Alatava", "name:en": "Baki su kanali idaresi", "tourism": "artwork"}}, {"type": "node", "id": 4709412191, "lat": 40.4314986, "lon": 49.8205515, "tags": {"tourism": "guest_house"}}, {"type": "node", "id": 4712948092, "lat": 40.4265011, "lon": 49.8479071, "tags": {"amenity": "restaurant", "name": "Taksim K\u0259bab"}}, {"type": "node", "id": 4718425189, "lat": 40.4260755, "lon": 49.8440543, "tags": {"amenity": "restaurant", "name": "\u015eah\u0259n\u015fah \u015eadl\u0131q Saray\u0131 \\ 8 mkr"}}, {"type": "node", "id": 4728030191, "lat": 40.401076, "lon": 49.8427095, "tags": {"addr:street": "H\u0259s\u0259n \u018fliyev", "amenity": "restaurant", "name:en": "K\u00f6\u015fk"}}, {"type": "node", "id": 4756765527, "lat": 40.4056947, "lon": 49.8142789, "tags": {"amenity": "restaurant", "name:tr": "\u015eampiyon d\u00f6n\u0259r"}}, {"type": "node", "id": 4779391821, "lat": 40.4076924, "lon": 49.8114676, "tags": {"amenity": "restaurant", "name:tr": "Seheng"}}, {"type": "node", "id": 4781409721, "lat": 40.4232565, "lon": 49.8191644, "tags": {"amenity": "restaurant", "internet_access": "wlan", "name:en": "Qala Qap\u0131s\u0131 Restoran", "opening_hours": "Mo-Su 10:00-01:00"}}, {"type": "node", "id": 4802042227, "lat": 40.4160889, "lon": 49.8483019, "tags": {"tourism": "artwork"}}, {"type": "node", "id": 4803486121, "lat": 40.4132731, "lon": 49.8485985, "tags": {"amenity": "cafe", "name": "Kafe Dolma"}}, {"type": "node", "id": 4808004523, "lat": 40.4203881, "lon": 49.8422677, "tags": {"addr:street": "\u0130brahimpa\u015fa Dada\u015fov", "amenity": "cafe", "name:en": "\"Pomidor\" \u00c7ayxana", "name:ru": "\"\u041f\u043e\u043c\u0438\u0434\u043e\u0440\" \u0427\u0430\u0439\u0445\u0430\u043d\u0430"}}, {"type": "node", "id": 4808013523, "lat": 40.4274392, "lon": 49.8454136, "tags": {"name": "Amir's home", "tourism": "guest_house"}}, {"type": "node", "id": 4836451926, "lat": 40.4120364, "lon": 49.8426698, "tags": {"amenity": "restaurant", "name:en": "Lyak-lyak"}}, {"type": "node", "id": 4841690935, "lat": 40.4205008, "lon": 49.8122969, "tags": {"addr:housenumber": "63a", "addr:street": "Mir C\u0259lal", "amenity": "cafe", "name:en": "\u00dcm\u00fcd cayxana"}}, {"type": "node", "id": 4868995421, "lat": 40.4077894, "lon": 49.8369265, "tags": {"amenity": "cafe", "name:en": "Murad kafe"}}, {"type": "node", "id": 4869651721, "lat": 40.411765, "lon": 49.8470059, "tags": {"amenity": "cafe", "name:en": "\u0130sa Bula\u011f\u0131"}}, {"type": "node", "id": 4881269522, "lat": 40.409096, "lon": 49.8377344, "tags": {"amenity": "restaurant", "cuisine": "international;crepe;cake;georgian;asian;coffee_shop;pasta;greek;russian;pancake;chicken;arab;italian_pizza;breakfast;french;tea;local;chinese;italian;german", "internet_access": "wlan", "name:en": "\"SHANTI\" karaoke, lounge, cinema", "opening_hours": "24/7", "phone": "+994518812233"}}, {"type": "node", "id": 4891552325, "lat": 40.4068456, "lon": 49.8446869, "tags": {"name:en": "Sun Rise hotel", "tourism": "hotel"}}, {"type": "node", "id": 4920456723, "lat": 40.4089616, "lon": 49.8478151, "tags": {"amenity": "restaurant", "name": "Garden Restutant", "name:az": "Qarden Restoran"}}, {"type": "node", "id": 4941227057, "lat": 40.4366139, "lon": 49.8448031, "tags": {"addr:city": "Baku", "addr:country": "AZ", "amenity": "restaurant", "name": "Royal \u015eadl\u0131q Saray\u0131 \\ Azadl\u0131q pr.", "name:en": "Banu \u00c7i\u00e7\u0259k Restoran\u0131"}}, {"type": "node", "id": 4945255342, "lat": 40.4153312, "lon": 49.8466816, "tags": {"amenity": "marketplace", "name": "Oba Market"}}, {"type": "node", "id": 4966708522, "lat": 40.4024399, "lon": 49.806002, "tags": {"amenity": "restaurant", "name": "Atlantis Restoran"}}, {"type": "node", "id": 4973453023, "lat": 40.4091414, "lon": 49.8323403, "tags": {"name:en": "City motion hotel", "tourism": "hotel"}}, {"type": "node", "id": 4983711623, "lat": 40.4185708, "lon": 49.8448863, "tags": {"amenity": "cafe", "name": "Kure Pizza"}}, {"type": "node", "id": 5031497522, "lat": 40.4255597, "lon": 49.8461994, "tags": {"addr:housenumber": "84", "addr:street": "S\u00fcleyman Sani Axundov k\u00fc\u00e7\u0259si", "amenity": "restaurant", "internet_access": "wlan", "name": "O\u011fuzxan Restoran\u0131", "phone": "+994125617464"}}, {"type": "node", "id": 5060518021, "lat": 40.4071708, "lon": 49.8461271, "tags": {"addr:street": "M\u0259mm\u0259d Araz", "amenity": "restaurant", "cuisine": "international", "internet_access": "wlan", "name:en": "Abu Dhabi", "opening_hours": "24/7", "phone": "+994502105607"}}, {"type": "node", "id": 5064421585, "lat": 40.4176858, "lon": 49.8217729, "tags": {"addr:floor": "1", "amenity": "restaurant", "check_date": "2024-10-09", "internet_access": "wlan", "internet_access:fee": "customers", "level": "1", "name": "Bu\u011fda Restoran\u0131", "payment:cash": "yes", "payment:credit_cards": "yes", "payment:debit_cards": "yes", "wheelchair": "no"}}, {"type": "node", "id": 5064720525, "lat": 40.4413916, "lon": 49.8461041, "tags": {"addr:city": "Bak\u0131", "addr:street": "Bin\u0259q\u0259di \u015fossesi", "amenity": "restaurant", "name": "\u0130stanbul Restoran\u0131 \\ Bin\u0259q\u0259di \u015fossesi"}}, {"type": "node", "id": 5083645256, "lat": 40.4400958, "lon": 49.8450915, "tags": {"addr:city": "Bin\u0259q\u0259di", "addr:street": "Bin\u0259q\u0259di yolu", "amenity": "restaurant", "delivery": "no", "name": "Eyla \u015eadl\u0131q Saray\u0131 \\ Bin\u0259q\u0259di \u015fossesi"}}, {"type": "node", "id": 5095275321, "lat": 40.406069, "lon": 49.8429844, "tags": {"name:en": "Ramada Hotel and Suite Baku", "tourism": "hotel"}}, {"type": "node", "id": 5126078722, "lat": 40.4214651, "lon": 49.8368285, "tags": {"addr:housenumber": "1Q", "addr:street": "M\u0259sud Davudo\u011flu", "amenity": "restaurant", "contact:instagram": "_qafqaz_restoran", "cuisine": "beef_bowl;chicken;kebab;local", "name": "Qafqaz Restoran\u0131 \\ Vorovski", "name:en": "Qafqaz Restoran \\ Vorovski", "opening_hours": "Mo-Su 10:00-00:00", "phone": "+994516528997"}}, {"type": "node", "id": 5126394721, "lat": 40.422571, "lon": 49.8125451, "tags": {"amenity": "restaurant", "name:en": "Q\u0259dim Q\u0259b\u0259l\u0259"}}, {"type": "node", "id": 5126913522, "lat": 40.403222, "lon": 49.8388307, "tags": {"name:ar": "\u0645\u0648\u062f\u0631\u0646 \u0647\u0648\u062a\u064a\u0644", "tourism": "hotel"}}, {"type": "node", "id": 5136899721, "lat": 40.4099126, "lon": 49.8468869, "tags": {"addr:street": "Atat\u00fcrk prospekti", "amenity": "restaurant", "name:en": "The Rooms By Emiland"}}, {"type": "node", "id": 5145158322, "lat": 40.4264894, "lon": 49.8476859, "tags": {"amenity": "cafe", "name": "Faxral\u0131 hing\u0259l kafe"}}, {"type": "node", "id": 5162104021, "lat": 40.4152186, "lon": 49.8488616, "tags": {"name": "Yataqxana - Pedaqoji Universitet", "tourism": "guest_house"}}, {"type": "node", "id": 5197200424, "lat": 40.4085388, "lon": 49.8470012, "tags": {"addr:housenumber": "556451797", "addr:postcode": "1100", "addr:street": "Atat\u00fcrk prospekti", "email": "grbnzdh@gmail.com", "internet_access": "wlan", "name:en": "17-ci ev", "name:ru": "\u0414\u043e\u043c 17", "opening_hours": "24/7", "operator": "Gurban", "phone": "+994556451797", "tourism": "apartment", "website": "https://fb.com/grbnzdh"}}, {"type": "node", "id": 5292159921, "lat": 40.4459476, "lon": 49.843487, "tags": {"amenity": "restaurant", "internet_access": "wlan", "name": "A\u011f Saray - White Palace \\ Bin\u0259q\u0259di \u015fossesi"}}, {"type": "node", "id": 5306703121, "lat": 40.4191686, "lon": 49.8183859, "tags": {"addr:city": "Bak\u0131", "addr:housenumber": "154b", "addr:street": "Cavad Xan k\u00fc\u00e7.", "amenity": "restaurant", "cuisine": "georgian", "name": "Sara\u00e7l\u0131", "name:en": "Saracli", "opening_hours": "Mo-Su 08:00-00:00"}}, {"type": "node", "id": 5364087921, "lat": 40.4161504, "lon": 49.8332977, "tags": {"addr:street": "C\u0259f\u0259r X\u0259ndan", "amenity": "cafe", "name": "Room"}}, {"type": "node", "id": 5387100022, "lat": 40.4179264, "lon": 49.8431221, "tags": {"name": "S\u0259lt\u0259n\u0259t xala ev", "tourism": "apartment"}}, {"type": "node", "id": 5396187923, "lat": 40.4116475, "lon": 49.843283, "tags": {"addr:housenumber": "57", "addr:street": "\u0130brahimpa\u015fa Dada\u015fov k\u00fc\u00e7\u0259si", "amenity": "cafe", "cuisine": "tea;coffee_shop", "internet_access": "wlan", "name:en": "Az Plus", "opening_hours": "Mo-Su 09:00-12:00"}}, {"type": "node", "id": 5667821721, "lat": 40.4152646, "lon": 49.8142546, "tags": {"amenity": "cafe", "name:en": "Basdirma Doner"}}, {"type": "node", "id": 5679199122, "lat": 40.4015503, "lon": 49.8325049, "tags": {"amenity": "restaurant", "cuisine": "american", "internet_access": "wlan", "name": "Manhattan Lounge & Rooms", "opening_hours": "24/7", "phone": "+994504009400"}}, {"type": "node", "id": 5714062322, "lat": 40.4001792, "lon": 49.8316672, "tags": {"name:en": "\u0641\u0646\u062f\u0642 \u0627\u0645\u0628\u0633\u062f\u0648\u0631", "tourism": "hotel"}}, {"type": "node", "id": 5717838921, "lat": 40.4051826, "lon": 49.8378165, "tags": {"addr:housenumber": "31", "addr:postcode": "AZ1069", "addr:street": "M\u0259mm\u0259d Araz k\u00fc\u00e7\u0259si", "amenity": "restaurant", "internet_access": "wlan", "name": "Monte Napoleone", "name:en": "Monte Napoleone"}}, {"type": "node", "id": 5730385121, "lat": 40.4262085, "lon": 49.848392, "tags": {"addr:street": "S\u00fcleyman Sani Axundov k\u00fc\u00e7.", "amenity": "restaurant", "cuisine": "barbecue;buschenschank;chicken;deli;grill;kebab", "diet:vegetarian": "yes", "internet_access": "wlan", "name": "K\u04d9nd Q\u04d9b\u04d9l\u04d9 Restoran \\ 8 mkr"}}, {"type": "node", "id": 5787166479, "lat": 40.4047065, "lon": 49.8461032, "tags": {"addr:street": "Yusif V\u0259zir \u00c7\u0259m\u0259nz\u0259minli", "amenity": "restaurant", "name": "Mona Liza Kafe"}}, {"type": "node", "id": 5846627585, "lat": 40.4042583, "lon": 49.8092061, "tags": {"amenity": "cafe", "name:en": "SOFRAM"}}, {"type": "node", "id": 5888843970, "lat": 40.4011887, "lon": 49.8450324, "tags": {"addr:city": "Bak\u0131", "addr:country": "AZ", "addr:housenumber": "82 F", "addr:street": "H\u0259s\u0259n \u018fliyev", "amenity": "restaurant", "name": "Kehriz Restoran"}}, {"type": "node", "id": 5890220512, "lat": 40.4359632, "lon": 49.8063215, "tags": {"addr:city": "Bil\u0259c\u0259ri", "amenity": "cafe", "name": "Va\u011fzal Kafe"}}, {"type": "node", "id": 5907518385, "lat": 40.4200089, "lon": 49.8380943, "tags": {"addr:housenumber": "22/182", "addr:postcode": "1000", "addr:street": "Azadl\u0131q", "email": "fm2484747@mail.ru", "internet_access": "wlan", "name": "Kiray\u0259", "name:ru": "dom", "phone": "+994503444747", "tourism": "guest_house"}}, {"type": "node", "id": 6003307185, "lat": 40.4224723, "lon": 49.809701, "tags": {"addr:street": "Adil M\u0259mm\u0259dov", "amenity": "restaurant", "cuisine": "breakfast;chicken;coffee_shop;fish;fish_and_chips;kebab", "internet_access": "wlan", "name": "K\u00fcr Restoran\u0131", "name:en": "Restaurant K\u00dcR", "name:ru": "\u0420\u0435\u0441\u0442\u043e\u0440\u0430\u043d \u041a\u042e\u0420", "opening_hours": "Mo-Su 09:00-00:00", "phone": "+994773434443"}}, {"type": "node", "id": 6024742787, "lat": 40.4149338, "lon": 49.8450742, "tags": {"addr:street": "Atat\u00fcrk prospekti", "amenity": "restaurant", "cuisine": "turkish", "internet_access": "wlan", "name": "\u00d6z Karde\u015fler Lahmacun 1", "opening_hours": "24/7", "phone": "0125610052"}}, {"type": "node", "id": 6024782789, "lat": 40.4152438, "lon": 49.8449833, "tags": {"addr:street": "Atat\u00fcrk prospekti", "amenity": "restaurant", "cuisine": "turkish", "internet_access": "wlan", "name": "\u00d6z Karde\u015fler Lahmacun 2", "phone": "0775342330"}}, {"type": "node", "id": 6025093022, "lat": 40.4095158, "lon": 49.844354, "tags": {"name:en": "2 \u0431 1", "tourism": "apartment"}}, {"type": "node", "id": 6025218740, "lat": 40.4094017, "lon": 49.8195304, "tags": {"phone": "0553653030", "tourism": "apartment"}}, {"type": "node", "id": 6025218741, "lat": 40.4099229, "lon": 49.8053266, "tags": {"phone": "0552222554", "tourism": "apartment"}}, {"type": "node", "id": 6025219257, "lat": 40.4245328, "lon": 49.8456075, "tags": {"phone": "0706019656", "tourism": "apartment"}}, {"type": "node", "id": 6025219268, "lat": 40.4007307, "lon": 49.8398892, "tags": {"name:en": "2 \u0431 1", "tourism": "apartment"}}, {"type": "node", "id": 6032006485, "lat": 40.4017962, "lon": 49.8329016, "tags": {"amenity": "restaurant", "name:en": "ZOOLAND", "name:ru": "\u0417\u041e\u041e\u041b\u0410\u041d\u0414"}}, {"type": "node", "id": 6128987295, "lat": 40.4207013, "lon": 49.8470612, "tags": {"addr:housenumber": "23C", "addr:street": "C\u0259f\u0259r X\u0259ndan k\u00fc\u00e7\u0259si", "amenity": "restaurant", "name": "Ba\u011f\u00e7al\u0131 Saray Reatoran"}}, {"type": "node", "id": 6129057414, "lat": 40.404799, "lon": 49.8495093, "tags": {"amenity": "cafe", "cuisine": "local"}}, {"type": "node", "id": 6129057415, "lat": 40.4084806, "lon": 49.8479816, "tags": {"amenity": "cafe", "cuisine": "local", "name": "B\u00fcllur Kafe"}}, {"type": "node", "id": 6147161485, "lat": 40.421086, "lon": 49.8140969, "tags": {"addr:street": "Mir C\u0259lal", "amenity": "cafe", "cuisine": "pizza", "name:en": "Manqalda", "name:ru": "\u041c\u0430\u043d\u0433\u0430\u043b\u0434\u0430", "opening_hours": "Mo-Su 09:00-23:00"}}, {"type": "node", "id": 6173577386, "lat": 40.4286229, "lon": 49.832473, "tags": {"historic": "castle", "name:en": "Koshkin Dom", "name:ru": "\u041a\u043e\u0448\u043a\u0438\u043d \u0434\u043e\u043c"}}, {"type": "node", "id": 6189662485, "lat": 40.4442722, "lon": 49.8040162, "tags": {"addr:housenumber": "25d", "addr:postcode": "AZ1117", "name:en": "Aziz\u2019S house", "tourism": "apartment"}}, {"type": "node", "id": 6204769687, "lat": 40.4029391, "lon": 49.8090036, "tags": {"addr:street": "Moskva prospekti", "amenity": "restaurant", "cuisine": "turkish", "internet_access": "wlan", "name:en": "Lokma Restoran", "opening_hours": "Mo-Su 09:00-12:55", "phone": "050-665-69-48"}}, {"type": "node", "id": 6355867785, "lat": 40.4117269, "lon": 49.8462148, "tags": {"addr:housenumber": "47", "addr:street": "Atat\u00fcrk prospekti", "amenity": "cafe", "cuisine": "cake", "name:en": "Bal Sheker", "opening_hours": "Mo-Su 08:00-22:00", "phone": "+994703317585"}}, {"type": "node", "id": 6438048488, "lat": 40.4058855, "lon": 49.814461, "tags": {"addr:street": "Baki seheri, Nesimi rayonu, 3-cu mikrorayon dairesi", "amenity": "cafe", "name:en": "Golden Baku"}}, {"type": "node", "id": 6462928242, "lat": 40.401828, "lon": 49.8345329, "tags": {"amenity": "restaurant", "name": "Qedim Berde"}}, {"type": "node", "id": 6488374546, "lat": 40.4208985, "lon": 49.8421557, "tags": {"addr:city": "Mikrorayon 8", "amenity": "restaurant", "name": "Q\u0259b\u0259l\u0259 Restoran\u0131"}}, {"type": "node", "id": 6533691989, "lat": 40.4186804, "lon": 49.822459, "tags": {"amenity": "restaurant", "name:en": "Pitomnik restoran", "name:ru": "\u041f\u0438\u0442\u043e\u043c\u043d\u0438\u043a \u0440\u0435\u0441\u0442\u043e\u0440\u0430\u043d"}}, {"type": "node", "id": 6547172890, "lat": 40.4113552, "lon": 49.8396856, "tags": {"addr:street": "Ziya B\u00fcnyatov", "information": "office", "name": "Qafqaz Travel", "office": "travel_agent", "tourism": "information"}}, {"type": "node", "id": 6565162485, "lat": 40.4047112, "lon": 49.8440515, "tags": {"name:ar": "\u0643\u0627\u0628\u064a\u062a\u0627\u0644", "name:en": "CAPITAL", "tourism": "hotel"}}, {"type": "node", "id": 6631946585, "lat": 40.4001852, "lon": 49.8007577, "tags": {"addr:street": "M\u0259h\u0259mm\u0259d Xiyabani", "amenity": "restaurant", "cuisine": "kebab", "name:en": "Kabob House"}}, {"type": "node", "id": 6688521786, "lat": 40.4073443, "lon": 49.8468684, "tags": {"addr:housenumber": "107b", "addr:street": "M\u0259mm\u0259d Araz", "amenity": "restaurant", "name:en": "Nakhish", "opening_hours": "Mo-Su 12:00-02:00"}}, {"type": "node", "id": 6781070040, "lat": 40.4116268, "lon": 49.8483447, "tags": {"name": "Nepalese House", "tourism": "hostel"}}, {"type": "node", "id": 6924036580, "lat": 40.4156846, "lon": 49.8469211, "tags": {"addr:city": "Bak\u0131", "addr:housenumber": "29", "addr:postcode": "AZ1108", "addr:street": "S\u0259ttar B\u0259hlulzad\u0259 k\u00fc\u00e7\u0259si", "amenity": "restaurant", "cuisine": "regional;Etno;Az\u0259rbaycan;milli;Avropa", "delivery": "yes", "email": "info@ordubadrestoran.az", "name": "Ordubad", "name:az": "Ordubad", "name:en": "Ordubad", "name:ru": "\u041e\u0440\u0434\u0443\u0431\u0430\u0434", "opening_hours": "Mo-Su 10:00-23:30", "phone": "+994125619969;+994515619969", "reservation": "yes", "website": "https://ordubadrestoran.az/"}}, {"type": "node", "id": 7048495485, "lat": 40.4171609, "lon": 49.8429372, "tags": {"addr:city": "D\u0259rn\u0259g\u00fcl", "amenity": "restaurant", "name": "Hayat \u015eadl\u0131q Saray\u0131 \\ D\u0259rn\u0259g\u00fcl"}}, {"type": "node", "id": 7077395089, "lat": 40.4136591, "lon": 49.8272231, "tags": {"amenity": "restaurant", "name:en": "1001 gec\u0259", "opening_hours": "24/7", "phone": "0702071561"}}, {"type": "node", "id": 7134438089, "lat": 40.4102417, "lon": 49.8058213, "tags": {"amenity": "cafe", "name:en": "Borcali (Gurcu Kafesi)"}}, {"type": "node", "id": 7204256885, "lat": 40.4082085, "lon": 49.8006508, "tags": {"name:en": "Davali Showroom", "tourism": "artwork"}}, {"type": "node", "id": 7204262485, "lat": 40.4077786, "lon": 49.8092008, "tags": {"amenity": "restaurant", "name": "Dal\u011fa \u015eadl\u0131q Saray\u0131 \\ 1 mkr.", "name:en": "Dal\u011fa Restoran\u0131 (\u015eadl\u0131q Saray\u0131)"}}, {"type": "node", "id": 7204264685, "lat": 40.4109859, "lon": 49.8059562, "tags": {"amenity": "restaurant", "name": "\u018flibaba Kafe"}}, {"type": "node", "id": 7233901085, "lat": 40.4018784, "lon": 49.8203422, "tags": {"amenity": "cafe", "name:en": "Restoran 200"}}, {"type": "node", "id": 7508490424, "lat": 40.4255891, "lon": 49.8451246, "tags": {"amenity": "restaurant", "name": "Cratos Hall Restoran"}}, {"type": "node", "id": 7653481788, "lat": 40.4022177, "lon": 49.8359556, "tags": {"addr:housenumber": "68", "addr:street": "Yusif V\u0259zir \u00c7\u0259m\u0259nz\u0259minli", "name:en": "Kronos MTK", "tourism": "apartment"}}, {"type": "node", "id": 7899839385, "lat": 40.4117761, "lon": 49.8149827, "tags": {"amenity": "restaurant", "cuisine": "international", "name:en": "D\u00f6ng\u0259l D\u00f6n\u0259r", "name:tr": "D\u00f6ng\u0259l D\u00f6n\u0259r", "operator": "\u018fkr\u0259m \u018fs\u0259dov", "phone": "0707904353"}}, {"type": "node", "id": 8126959855, "lat": 40.407497, "lon": 49.8469104, "tags": {"addr:city": "Bak\u0131", "addr:street": "M\u0259mm\u0259d Araz", "amenity": "cafe", "cuisine": "pizza;burger;coffee_shop;sandwich;kebab;international", "internet_access": "yes", "internet_access:fee": "customers", "name": "Sael Anticafe"}}, {"type": "node", "id": 8513574217, "lat": 40.4001535, "lon": 49.8387967, "tags": {"addr:housenumber": "82", "addr:postcode": "1000", "addr:street": "H\u0259s\u0259n \u018fliyev k\u00fc\u00e7\u0259si", "amenity": "restaurant", "internet_access": "wlan", "name:en": "Fisincan", "opening_hours": "Mo-Su 09:00-00:00"}}, {"type": "node", "id": 8527649067, "lat": 40.4201359, "lon": 49.8018449, "tags": {"addr:street": "R\u0259\u015fid \u0130smay\u0131lov k\u00fc\u00e7.", "amenity": "marketplace", "currency:AZN": "yes", "name": "Market", "note": "next to bus stop\nname 'Market' on red board", "payment:cash": "yes"}}, {"type": "node", "id": 8530642917, "lat": 40.4092621, "lon": 49.8025678, "tags": {"name": "Me\u015f\u0259-park", "tourism": "picnic_site"}}, {"type": "node", "id": 8820502217, "lat": 40.4173368, "lon": 49.8090501, "tags": {"amenity": "cafe"}}, {"type": "node", "id": 8831289796, "lat": 40.4065314, "lon": 49.8133923, "tags": {"addr:city": "Bak\u0131", "addr:street": "Cavadxan k\u00fc\u00e7\u0259si", "amenity": "restaurant", "contact:facebook": "bashkent.az", "cuisine": "turkish", "facebook": "https://www.facebook.com/bashkent.az/", "name": "Ba\u015fkent Restoran", "name:en": "Ba\u015fkent", "url": "https://bashkent.az/indexbf88.html", "website": "https://bashkent.az/"}}, {"type": "node", "id": 9367785817, "lat": 40.4044548, "lon": 49.8336945, "tags": {"addr:street": "Xan \u015eu\u015finski k\u00fc\u00e7\u0259si", "amenity": "restaurant", "name:en": "\u015eam restoran"}}, {"type": "node", "id": 9382639972, "lat": 40.4415969, "lon": 49.8368396, "tags": {"amenity": "restaurant", "name": "Sevgi \u015eadl\u0131q Saray\u0131 \\ Bil\u0259c\u0259ri"}}, {"type": "node", "id": 9382639974, "lat": 40.4412427, "lon": 49.8339575, "tags": {"amenity": "cafe", "name": "X\u0259z\u0259r Kafe"}}, {"type": "node", "id": 9556641942, "lat": 40.4070649, "lon": 49.8117978, "tags": {"amenity": "restaurant", "name": "Kaman Restoran Pub"}}, {"type": "node", "id": 9725161875, "lat": 40.4088356, "lon": 49.8238564, "tags": {"amenity": "restaurant", "name": "Paradis Restoran Xutor"}}, {"type": "node", "id": 9725161876, "lat": 40.408615, "lon": 49.8239744, "tags": {"name": "Lion Otel Xutor", "tourism": "motel"}}, {"type": "node", "id": 9727776852, "lat": 40.404954, "lon": 49.813035, "tags": {"amenity": "cafe", "name": "Zirv\u0259 Kafe 3 dair\u0259si"}}, {"type": "node", "id": 9727776911, "lat": 40.4054269, "lon": 49.8132214, "tags": {"amenity": "cafe", "name": "S\u0259buhi Kafe"}}, {"type": "node", "id": 9727882742, "lat": 40.4103745, "lon": 49.8143359, "tags": {"amenity": "cafe", "name": "\u015e\u0259ki Xan Kafe \u018fc\u0259mi Dair\u0259si"}}, {"type": "node", "id": 9733532284, "lat": 40.411219, "lon": 49.8042413, "tags": {"name": "\u015eamaxinka Bak\u0131", "name:az": "\u015eamaxinka Bak\u0131", "name:en": "Shamakhinka Baku", "tourism": "attraction"}}, {"type": "node", "id": 9733565257, "lat": 40.4042279, "lon": 49.8076813, "tags": {"name": "20 Yanvar Dair\u0259si", "name:az": "20 Yanvar Dair\u0259si", "name:en": "20 January Circle", "tourism": "attraction"}}, {"type": "node", "id": 9735798934, "lat": 40.4022651, "lon": 49.8061658, "tags": {"amenity": "cafe", "name": "Tava \u0130rs Kafe"}}, {"type": "node", "id": 9735878062, "lat": 40.404097, "lon": 49.8018017, "tags": {"amenity": "marketplace", "name": "Yarmarka"}}, {"type": "node", "id": 9740293951, "lat": 40.4214836, "lon": 49.8372459, "tags": {"name": "Vorovski dair\u0259si", "tourism": "attraction"}}, {"type": "node", "id": 9744984662, "lat": 40.4134287, "lon": 49.8367202, "tags": {"amenity": "restaurant", "name": "Prins Saray"}}, {"type": "node", "id": 9744984663, "lat": 40.4119358, "lon": 49.8355883, "tags": {"amenity": "cafe", "name": "Kotanl\u0131 Kafe"}}, {"type": "node", "id": 9747227826, "lat": 40.4162897, "lon": 49.8421034, "tags": {"amenity": "restaurant", "name": "Vida M\u0259rasim Zal\u0131"}}, {"type": "node", "id": 9747227835, "lat": 40.4196305, "lon": 49.8491389, "tags": {"amenity": "cafe", "name": "\u0130lisu Kafe"}}, {"type": "node", "id": 9747227840, "lat": 40.418391, "lon": 49.8485032, "tags": {"amenity": "restaurant", "name": "\u015eabal\u0131d Restoran"}}, {"type": "node", "id": 9747227842, "lat": 40.4183287, "lon": 49.8455112, "tags": {"amenity": "restaurant", "name": "Lido Restoran"}}, {"type": "node", "id": 9747227843, "lat": 40.4179652, "lon": 49.8455635, "tags": {"amenity": "restaurant", "name": "Mulin Ruj Restoran"}}, {"type": "node", "id": 9747227848, "lat": 40.4172771, "lon": 49.846293, "tags": {"amenity": "cafe", "name": "Ki\u015fmi\u015f Kafe"}}, {"type": "node", "id": 9899530017, "lat": 40.4326802, "lon": 49.8157679, "tags": {"addr:street": "Y\u0259hya H\u00fcseynov 83", "name:en": "Aid\u0259 bibi q\u0131z\u0131", "tourism": "apartment"}}, {"type": "node", "id": 9913888619, "lat": 40.4125749, "lon": 49.8093408, "tags": {"amenity": "restaurant", "name": "Sofiya \u015eadl\u0131q Saray\u0131"}}, {"type": "node", "id": 9913918617, "lat": 40.413566, "lon": 49.8108091, "tags": {"amenity": "cafe", "name": "Pioner Klub"}}, {"type": "node", "id": 9913919917, "lat": 40.4141092, "lon": 49.811625, "tags": {"amenity": "restaurant", "name:en": "Manqal Restoran / 4-c\u00fc mkr."}}, {"type": "node", "id": 9915434727, "lat": 40.4130243, "lon": 49.8086026, "tags": {"amenity": "restaurant", "name": "Az\u0259ri M\u0259rasim Zal\u0131 / 4-c\u00fc mkr."}}, {"type": "node", "id": 9915846148, "lat": 40.4163173, "lon": 49.8082674, "tags": {"amenity": "cafe", "name": "Fontan Kafe"}}, {"type": "node", "id": 9915925964, "lat": 40.4159198, "lon": 49.8157269, "tags": {"tourism": "attraction"}}, {"type": "node", "id": 10032558517, "lat": 40.4039999, "lon": 49.8053326, "tags": {"amenity": "restaurant", "name:en": "Ads\u0131z Restoran"}}, {"type": "node", "id": 10087219822, "lat": 40.4239483, "lon": 49.803043, "tags": {"name": "Yusif", "name:en": "Yusif ev", "name:ru": "Yusif ev", "tourism": "apartment"}}, {"type": "node", "id": 10276228792, "lat": 40.4409243, "lon": 49.845023, "tags": {"addr:city": "Bin\u0259q\u0259di", "addr:street": "Bin\u0259q\u0259di yolu", "amenity": "restaurant", "name": "Zirv\u0259 Restoran \\ Bin\u0259q\u0259di \u015fossesi"}}, {"type": "node", "id": 10276526930, "lat": 40.4388758, "lon": 49.8443592, "tags": {"amenity": "cafe", "name": "\u015eahda\u011f Kafe \\ Azadl\u0131q pr."}}, {"type": "node", "id": 10278860878, "lat": 40.4356482, "lon": 49.8446622, "tags": {"amenity": "cafe", "name": "Line Lahmacun \\ Azadl\u0131q pr."}}, {"type": "node", "id": 10278860886, "lat": 40.4349357, "lon": 49.8443981, "tags": {"amenity": "cafe", "name": "Bahar Kafe \\ Azadl\u0131q pr."}}, {"type": "node", "id": 10278922351, "lat": 40.4314691, "lon": 49.8423958, "tags": {"addr:city": "R\u0259sulzad\u0259 Q\u0259s\u0259b\u0259si", "amenity": "cafe", "name": "Aristoktat \u00c7ay Evi"}}, {"type": "node", "id": 10288192670, "lat": 40.437215, "lon": 49.8058547, "tags": {"historic": "monument", "name": "20 Yanvar Abid\u0259si \\ Bil\u0259c\u0259ri"}}, {"type": "node", "id": 10292075809, "lat": 40.4363015, "lon": 49.8145759, "tags": {"addr:city": "Bil\u0259c\u0259ri", "addr:street": "F\u00fczuli k\u00fc\u00e7.", "historic": "monument", "name": "1941-1945"}}, {"type": "node", "id": 10295636056, "lat": 40.4402619, "lon": 49.831793, "tags": {"amenity": "cafe", "name": "C\u0259nub Kafe \\ Bil\u0259c\u0259ri"}}, {"type": "node", "id": 10295636061, "lat": 40.4406579, "lon": 49.832029, "tags": {"addr:city": "Bil\u0259c\u0259ri", "amenity": "cafe", "name": "Sultan Kafe"}}, {"type": "node", "id": 10295636106, "lat": 40.4406783, "lon": 49.841103, "tags": {"addr:city": "Bil\u0259c\u0259ri", "amenity": "cafe", "name": "Qartal Kafe"}}, {"type": "node", "id": 10295645614, "lat": 40.4408294, "lon": 49.8396197, "tags": {"amenity": "restaurant", "landuse": "industrial", "name": "Vedi Restoran"}}, {"type": "node", "id": 10295645632, "lat": 40.4409712, "lon": 49.836562, "tags": {"name": "Kristal Otel \\ Bil\u0259c\u0259ri", "tourism": "hotel"}}, {"type": "node", "id": 10295645657, "lat": 40.4440363, "lon": 49.8283933, "tags": {"addr:city": "Bil\u0259c\u0259ri", "amenity": "cafe", "name": "Dost Qap\u0131s\u0131 Kafe"}}, {"type": "node", "id": 10295645663, "lat": 40.4436729, "lon": 49.8093952, "tags": {"addr:city": "Bil\u0259c\u0259ri", "addr:street": "Xudadat M\u0259likaslanov k\u00fc\u00e7.", "amenity": "cafe", "name": "Sevda Kafe"}}, {"type": "node", "id": 10295645717, "lat": 40.4476452, "lon": 49.8094797, "tags": {"addr:city": "Bil\u0259c\u0259ri", "addr:street": "Xudadat M\u0259likaslanov k\u00fc\u00e7.", "amenity": "cafe", "name": "Aura Kafe"}}, {"type": "node", "id": 10295652170, "lat": 40.4369752, "lon": 49.809296, "tags": {"addr:city": "Bil\u0259c\u0259ri", "amenity": "restaurant", "name": "A\u011f Saray \u015eadl\u0131q Saray\u0131 \\ Bil\u0259c\u0259ri"}}, {"type": "node", "id": 10295711445, "lat": 40.4360473, "lon": 49.8154959, "tags": {"addr:city": "Bil\u0259c\u0259ri", "amenity": "cafe", "name": "S\u0259rin M\u0259kan Kafe"}}, {"type": "node", "id": 10295737325, "lat": 40.4368139, "lon": 49.8142245, "tags": {"addr:city": "Bil\u0259c\u0259ri", "addr:street": "F\u00fczuli k\u00fc\u00e7.", "amenity": "cafe", "name": "Abid\u0259 \u00c7ay Evi"}}, {"type": "node", "id": 10295737331, "lat": 40.4357952, "lon": 49.8151593, "tags": {"amenity": "restaurant", "name": "V\u00fcsal \u015eadl\u0131q Saray\u0131 \\ Bil\u0259c\u0259ri"}}, {"type": "node", "id": 10295778039, "lat": 40.4387614, "lon": 49.8116657, "tags": {"amenity": "cafe", "name": "Xan \u00c7ay Evi \\ Bil\u0259c\u0259ri"}}, {"type": "node", "id": 10295778094, "lat": 40.4363076, "lon": 49.8100457, "tags": {"addr:city": "Bil\u0259c\u0259ri", "amenity": "cafe", "name": "Red Black \u00c7ay Evi"}}, {"type": "node", "id": 10299316034, "lat": 40.4473951, "lon": 49.8000061, "tags": {"addr:city": "Bil\u0259c\u0259ri - Dair\u0259vi yol", "amenity": "cafe", "name": "A\u011fsu Kafe"}}, {"type": "node", "id": 10299316037, "lat": 40.4479799, "lon": 49.8005506, "tags": {"addr:city": "Bil\u0259c\u0259ri", "amenity": "cafe", "name": "Kafe"}}, {"type": "node", "id": 10299316038, "lat": 40.4483953, "lon": 49.8023705, "tags": {"amenity": "cafe", "name": "\u015eamax\u0131 \u00c7ay Evi"}}, {"type": "node", "id": 10299316043, "lat": 40.4491709, "lon": 49.8039369, "tags": {"addr:city": "Bil\u0259c\u0259ri", "amenity": "cafe", "name": "F\u0259rid Kafe"}}, {"type": "node", "id": 10299316051, "lat": 40.4498465, "lon": 49.8043782, "tags": {"addr:city": "Bil\u0259c\u0259ri", "amenity": "cafe", "name": "Nurlan Kafe"}}, {"type": "node", "id": 10299354418, "lat": 40.4412887, "lon": 49.8082781, "tags": {"addr:city": "Bil\u0259c\u0259ri", "amenity": "cafe", "name": "\u00c7inar Kafe"}}, {"type": "node", "id": 10299354421, "lat": 40.4397209, "lon": 49.8093523, "tags": {"addr:city": "Bil\u0259c\u0259ri", "amenity": "cafe", "name": "Region 56 \u00c7ay"}}, {"type": "node", "id": 10299354454, "lat": 40.4377274, "lon": 49.8051667, "tags": {"addr:city": "Bil\u0259c\u0259ri", "amenity": "cafe", "name": "Sakit M\u0259kan Kafe"}}, {"type": "node", "id": 10299354466, "lat": 40.4377652, "lon": 49.8028278, "tags": {"addr:city": "Bil\u0259c\u0259ri", "amenity": "cafe", "name": "Ya\u011fmur Kafe"}}, {"type": "node", "id": 10299354473, "lat": 40.4370895, "lon": 49.802337, "tags": {"addr:city": "Bil\u0259c\u0259ri", "amenity": "cafe", "name": "Bizim Kafe"}}, {"type": "node", "id": 10299354475, "lat": 40.4363158, "lon": 49.8016128, "tags": {"addr:city": "Bil\u0259c\u0259ri", "amenity": "restaurant", "name": "Avto Retro Klub Restoran"}}, {"type": "node", "id": 10299359598, "lat": 40.4390391, "lon": 49.8006552, "tags": {"addr:city": "Bil\u0259c\u0259ri", "amenity": "cafe", "name": "Kafe"}}, {"type": "node", "id": 10300930241, "lat": 40.4425482, "lon": 49.8132375, "tags": {"addr:city": "Bil\u0259c\u0259ri", "amenity": "cafe", "name": "C\u0259nn\u0259t M\u0259kan Kafe"}}, {"type": "node", "id": 10300930256, "lat": 40.4397362, "lon": 49.8104238, "tags": {"addr:city": "Bil\u0259c\u0259ri", "amenity": "cafe", "name": "Saatl\u0131 Kafe"}}, {"type": "node", "id": 10300930261, "lat": 40.4398066, "lon": 49.8112111, "tags": {"addr:city": "Bil\u0259c\u0259ri", "amenity": "cafe", "name": "Nihad Kafe"}}, {"type": "node", "id": 10300969069, "lat": 40.4323204, "lon": 49.8136117, "tags": {"addr:city": "Bil\u0259c\u0259ri", "addr:street": "Y\u0259hya H\u00fcseynov k\u00fc\u00e7.", "amenity": "cafe", "name": "\u015eamax\u0131 \u00c7ay Evi"}}, {"type": "node", "id": 10300969072, "lat": 40.4326757, "lon": 49.8150775, "tags": {"addr:city": "Bil\u0259c\u0259ri", "amenity": "cafe", "name": "Ail\u0259vi \u00c7ay Evi"}}, {"type": "node", "id": 10300969073, "lat": 40.432348, "lon": 49.8144217, "tags": {"addr:city": "Bil\u0259c\u0259ri", "amenity": "cafe", "name": "Faxral\u0131 Kafe"}}, {"type": "node", "id": 10300969074, "lat": 40.432399, "lon": 49.8146161, "tags": {"amenity": "restaurant", "name": "\u015eans \u015eadl\u0131q Saray\u0131 \\ Bil\u0259c\u0259ri"}}, {"type": "node", "id": 10302993916, "lat": 40.4411968, "lon": 49.8074841, "tags": {"amenity": "cafe", "name": "\u015e\u0259lal\u0259nin M\u0259tb\u0259xi \\ Bil\u0259c\u0259ri"}}, {"type": "node", "id": 10302993972, "lat": 40.4361443, "lon": 49.8116791, "tags": {"leisure": "park", "name": "Nihad Mebel", "shop": "furniture"}}, {"type": "node", "id": 10302993973, "lat": 40.4361749, "lon": 49.8115229, "tags": {"amenity": "bar", "leisure": "park", "name": "Aristoktat Pub"}}, {"type": "node", "id": 10302993974, "lat": 40.4371854, "lon": 49.8053183, "tags": {"amenity": "restaurant", "name": "\u00c7\u0259tir Restoran \\ Bil\u0259c\u0259ri"}}, {"type": "node", "id": 10302993981, "lat": 40.4359616, "lon": 49.8045619, "tags": {"amenity": "cafe", "leisure": "park", "name": "K\u00f6rp\u00fc Kafe"}}, {"type": "node", "id": 10303020310, "lat": 40.4422726, "lon": 49.809528, "tags": {"addr:city": "Bil\u0259c\u0259ri", "addr:street": "Xudadat M\u0259likaslanov k\u00fc\u00e7.", "amenity": "cafe", "name": "D\u0259niz Kafe"}}, {"type": "node", "id": 10998030605, "lat": 40.4336534, "lon": 49.8150283, "tags": {"amenity": "cafe", "name:en": "TUNEL KAFE", "name:ru": "\u0422\u0423\u041d\u0415\u041b\u042c \u041a\u0410\u0424\u0415"}}, {"type": "node", "id": 11144725205, "lat": 40.4099933, "lon": 49.8216259, "tags": {"name:en": "Elnurun evi", "tourism": "guest_house"}}, {"type": "node", "id": 11296413184, "lat": 40.4126148, "lon": 49.8128338, "tags": {"information": "office", "name": "Narm", "tourism": "information"}}, {"type": "node", "id": 11365965871, "lat": 40.4058636, "lon": 49.8404484, "tags": {"name:en": "english yard", "tourism": "apartment"}}, {"type": "node", "id": 11482982070, "lat": 40.4228541, "lon": 49.8449071, "tags": {"addr:housenumber": "9C", "addr:street": "\u015e\u00f6vk\u0259t M\u0259mm\u0259dova k\u00fc\u00e7\u0259si", "name:en": "Z.Ali ev", "name:ru": "Z.Ali ev", "tourism": "apartment"}}, {"type": "node", "id": 11749183224, "lat": 40.4199216, "lon": 49.8182898, "tags": {"addr:city": "Bak\u0131", "addr:housenumber": "4a", "addr:street": "Cavadxan k\u00fc\u00e7.", "amenity": "restaurant", "cuisine": "turkish", "name": "Komagene", "opening_hours": "Mo-Su 11:00-23:30", "phone": "+994552994049", "website": "https://www.komagene.com.tr"}}, {"type": "node", "id": 11749193429, "lat": 40.4201687, "lon": 49.8184528, "tags": {"addr:city": "Bak\u0131", "addr:housenumber": "32/45", "addr:street": "Cavadxan k\u00fc\u00e7.", "amenity": "restaurant", "cuisine": "turkish", "name": "Adana Lahmacun"}}, {"type": "node", "id": 11751465839, "lat": 40.4239089, "lon": 49.822679, "tags": {"addr:city": "Bak\u0131", "amenity": "restaurant", "contact:instagram": "donercisadikustaofficial", "cuisine": "turkish", "name": "Donerci Sadik Usta (DSU)"}}, {"type": "node", "id": 11758459553, "lat": 40.4172701, "lon": 49.8236423, "tags": {"addr:city": "Bak\u0131", "amenity": "restaurant", "cuisine": "sushi", "level": "0", "name": "Sumo Sushi Bar"}}, {"type": "node", "id": 11758459554, "lat": 40.4171605, "lon": 49.822995, "tags": {"addr:city": "Bak\u0131", "addr:street": "Mirmahmud Kaz\u0131movski k\u00fc\u00e7\u0259si", "amenity": "restaurant", "name": "Golden Rose Lounge"}}, {"type": "node", "id": 11813392676, "lat": 40.4188041, "lon": 49.8199235, "tags": {"addr:housenumber": "136", "addr:street": "Mirmahmud Kaz\u0131movski k\u00fc\u00e7.", "amenity": "restaurant", "name:en": "Qaxac"}}, {"type": "node", "id": 11813392678, "lat": 40.4189235, "lon": 49.8182553, "tags": {"addr:housenumber": "152", "addr:street": "Cavadxan k\u00fc\u00e7.", "amenity": "restaurant", "name:en": "Maxara"}}, {"type": "node", "id": 11861916169, "lat": 40.4113031, "lon": 49.8467741, "tags": {"addr:housenumber": "65a", "addr:street": "Atat\u00fcrk prospekti", "amenity": "cafe", "contact:instagram": "coffeeleabaku", "cuisine": "coffee_shop", "internet_access": "wlan", "name:en": "CoffeeLea Ataturk", "opening_hours": "Mo-Su 08:00-23:30", "shop": "coffee", "toilets": "yes"}}, {"type": "node", "id": 11888516369, "lat": 40.4015345, "lon": 49.8380209, "tags": {"addr:housenumber": "116", "addr:street": "Azadl\u0131q prospekti", "amenity": "cafe", "contact:instagram": "ocup.coffee", "cuisine": "coffee_shop", "internet_access": "wlan", "name:en": "O'Cup Coffee Room", "opening_hours": "Mo-fr 08:00-23:00, Sa-Su 10:00-19:00", "phone": "+994702404066"}}, {"type": "node", "id": 11888516370, "lat": 40.4145374, "lon": 49.8423283, "tags": {"addr:housenumber": "109", "addr:street": "S\u0259ttar B\u0259hlulzad\u0259 k\u00fc\u00e7\u0259si", "amenity": "cafe", "brand": "Coffee Lab", "brand:wikidata": "Q109568497", "contact:instagram": "coffeelab.az", "cuisine": "coffee_shop", "name": "Coffee Lab", "name:en": "Coffee Lab", "opening_hours": "Mo-Su 07:30-23:00", "phone": "+994502272236", "takeaway": "yes"}}, {"type": "node", "id": 11888516469, "lat": 40.4151913, "lon": 49.8366441, "tags": {"addr:city": "Bak\u0131", "addr:floor": "G", "addr:street": "\u018fc\u0259mi Nax\u00e7ivani", "air_conditioning": "yes", "amenity": "cafe", "check_date": "2024-10-07", "contact:instagram": "waftcoffee.az", "cuisine": "coffee_shop", "internet_access": "wlan", "level": "0", "name": "Waft Coffee", "opening_hours": "Mo-Fr 08:00-23:00; Sa, Su 09:00-22:00", "outdoor_seating": "no", "payment:cash": "yes", "payment:credit_cards": "yes", "payment:debit_cards": "yes", "phone": "+994123100799", "smoking": "no", "takeaway": "yes", "toilets": "yes", "toilets:menstrual_products": "no"}}, {"type": "node", "id": 11920552969, "lat": 40.4354152, "lon": 49.8398291, "tags": {"addr:housenumber": "35A", "addr:street": "Zahid Q\u0259mb\u0259rov", "amenity": "restaurant", "cuisine": "local", "name": "Restoran Dede", "name:ru": "Restoran Dede"}}, {"type": "node", "id": 12015597369, "lat": 40.4054364, "lon": 49.8358087, "tags": {"addr:housenumber": "149", "addr:street": "Azadl\u0131q prospekti", "amenity": "restaurant", "cuisine": "local", "name": "Beyaz Restoran", "name:en": "Beyaz Restoran", "opening_hours": "Mo-Su 09:00-00:00", "phone": "+994509945740"}}, {"type": "node", "id": 12119089301, "lat": 40.4236017, "lon": 49.8290956, "tags": {"addr:city": "Bak\u0131", "addr:housenumber": "135E", "addr:street": "Mirza Mahammad Khan", "air_conditioning": "yes", "amenity": "cafe", "contact:instagram": "maerscoffee", "cuisine": "coffee_shop", "internet_access": "wlan", "internet_access:fee": "customers", "level": "0", "name": "MAER's Coffee", "opening_hours": "Mo-Su 08:00-02:00", "outdoor_seating": "no", "phone": "+994554162226", "smoking": "no", "toilets": "yes", "website": "https://www.instagram.com/maerscoffee"}}, {"type": "node", "id": 12186275574, "lat": 40.4127129, "lon": 49.8466074, "tags": {"addr:city": "Bak\u0131", "addr:housenumber": "140", "addr:street": "Atat\u00fcrk pr.", "air_conditioning": "yes", "amenity": "cafe", "brand": "Gloria Jean's", "brand:wikidata": "Q2666365", "cuisine": "coffee_shop", "internet_access": "wlan", "internet_access:fee": "customers", "level": "0", "name": "Gloria Jean's", "official_name": "Gloria Jean's Coffees", "opening_hours": "Mo-Su 08:30-23:00", "outdoor_seating": "yes", "takeaway": "yes", "toilets": "yes"}}, {"type": "node", "id": 12211191921, "lat": 40.4104944, "lon": 49.8479302, "tags": {"addr:city": "Bak\u0131", "addr:housenumber": "120", "addr:street": "Atat\u00fcrk prospekti", "air_conditioning": "yes", "amenity": "cafe", "contact:instagram": "coffeehub.baku", "cuisine": "coffee_shop", "internet_access": "wlan", "internet_access:fee": "customers", "level": "0", "name": "Coffee Hub", "opening_hours": "Mo-Su 08:00-01:00", "outdoor_seating": "yes", "pets_allowed": "yes", "toilets": "yes", "website:menu": "https://coffeehubbaku.com/menu/"}}, {"type": "node", "id": 12211216244, "lat": 40.4099874, "lon": 49.8481144, "tags": {"addr:city": "Bak\u0131", "addr:housenumber": "36", "addr:street": "Atat\u00fcrk prospekti", "air_conditioning": "yes", "amenity": "cafe", "contact:instagram": "cuppacoffeebaku", "cuisine": "coffee_shop", "internet_access": "wlan", "internet_access:fee": "customers", "name": "Cuppa Coffee", "opening_hours": "Mo-Su 09:00-23:00", "outdoor_seating": "no", "toilets": "yes"}}, {"type": "node", "id": 12211216245, "lat": 40.411826, "lon": 49.8461785, "tags": {"addr:city": "Bak\u0131", "addr:housenumber": "47", "addr:street": "Atat\u00fcrk prospekti", "air_conditioning": "yes", "amenity": "cafe", "contact:instagram": "coffeegobaku", "cuisine": "coffee_shop", "internet_access": "wlan", "internet_access:fee": "customers", "name": "Coffee Go", "opening_hours": "Mo-Su 08:00-00:30", "outdoor_seating": "no", "toilets": "yes"}}, {"type": "node", "id": 12288996929, "lat": 40.4206225, "lon": 49.8267217, "tags": {"historic": "memorial", "material": "stone", "memorial": "war_memorial", "name": "\u015e\u0259hid Teymur Zeynalov bula\u011f\u0131"}}, {"type": "node", "id": 12492174501, "lat": 40.4000704, "lon": 49.8132102, "tags": {"name": "El\u00e7in Abbasov \u0130nteraktiv Elm Muzeyi", "tourism": "museum"}}, {"type": "node", "id": 12950186425, "lat": 40.4480904, "lon": 49.8397777, "tags": {"addr:city": "Bil\u0259c\u0259ri", "addr:housenumber": "Yufis's House", "leisure": "park", "name": "Yufis Doma"}}, {"type": "node", "id": 13171757901, "lat": 40.425488, "lon": 49.843958, "tags": {"addr:housenumber": "66A", "addr:street": "S\u00fcleyman Sani Axundov k\u00fc\u00e7.", "amenity": "restaurant", "cuisine": "chicken;fish;kebab;local;oriental", "level": "1", "name": "Odun Restoran \\ Bineqedi", "name:en": "Odun Restoran \\ Bineqedi", "opening_hours": "Mo-Su 10:30-00:00", "outdoor_seating": "yes", "phone": "+994502057541"}}, {"type": "node", "id": 13226883154, "lat": 40.4226763, "lon": 49.8349541, "tags": {"addr:city": "Baku", "addr:housenumber": "17", "addr:postcode": "AZ1130", "addr:street": "M\u0259sud Davudo\u011flu k\u00fc\u00e7\u0259si", "amenity": "restaurant", "cuisine": "regional", "name": "Liora Luxury Hall", "opening_hours": "Mo-Su 09:00-21:00"}}, {"type": "way", "id": 42797170, "nodes": [535157158, 535157159, 3908914287, 3115616510, 3032797923, 3032797926, 3032797925, 3032797922, 3908914283, 3032797920, 3115616504, 3908914274, 3908914269, 3908914272, 3032797918, 3032797915, 535157164, 3115616482, 3115616479, 3908914201, 535157166, 3115616473, 3908914150, 3115616466, 8909709721, 535157167, 3908914148, 3115616475, 535157168, 3908914162, 3908914177, 1979028348, 3908914233, 3908914220, 1979028350, 1979028352, 535157158], "tags": {"leisure": "park", "name": "Heyd\u0259r \u018fliyev Park\u0131", "name:ru": "\u041f\u0430\u0440\u043a \u0438\u043c\u0435\u043d\u0438 \u0413\u0435\u0439\u0434\u0430\u0440\u0430 \u0410\u043b\u0438\u0435\u0432\u0430"}}, {"type": "way", "id": 42799731, "nodes": [535217956, 2295438355, 2295438354, 535217960, 6942905676, 535217965, 535217974, 535217978, 2295438356, 535217956], "tags": {"leisure": "park"}}, {"type": "way", "id": 75077564, "nodes": [886108453, 9727882831, 9727882832, 886108454, 9727882785, 9727882805, 9727882855, 886108455, 9727882847, 886108456, 886108458, 5227151584, 886108459, 886108460, 2060739696, 2060739697, 2060739693, 9727882756, 2060739699, 2060739695, 2060739698, 2060739694, 886108453], "tags": {"leisure": "park", "name": "Cavadxan park\u0131"}}, {"type": "way", "id": 75086139, "nodes": [886179720, 2045804923, 886179722, 9915317443, 9915317444, 886179725, 9915317442, 9915317441, 9915317440, 9915317439, 886179728, 3115365918, 3115365917, 886179729, 3115365916, 886179730, 3115365919, 2037336895, 2045804922, 886179733, 9915317447, 9915317446, 9915310058, 9915317445, 886179740, 3115365920, 2045804925, 886179741, 3115365921, 9915317417, 2045804924, 886179720], "tags": {"addr:city": "Bak\u0131", "landuse": "grass", "name": "4-c\u00fc mkr. Dair\u0259si", "tourism": "attraction"}}, {"type": "way", "id": 128545644, "nodes": [1420345181, 1420345183, 1420345184, 1420345182, 1420345181], "tags": {"name": "Prins", "tourism": "guest_house"}}, {"type": "way", "id": 148330160, "nodes": [1614387832, 1614387830, 1614387829, 1614387833, 1614387832], "tags": {"addr:postcode": "AZ1022", "addr:street": "S\u0259m\u0259d Vur\u011fun k\u00fc\u00e7\u0259si", "amenity": "restaurant", "building": "retail", "name": "Niaqara \u015eadl\u0131q Saray\u0131", "name:az": "Niaqara \u015eadl\u0131q Saray\u0131", "name:en": "Niagara Wedding Palace"}}, {"type": "way", "id": 169736766, "nodes": [1808971941, 3676548743, 3676548742, 1808971947, 4168001329, 2788058619, 1808971951, 1808971949, 1808971945, 3844481696, 4168001325, 4168001326, 1808971943, 3820493800, 1808971921, 1808971939, 1808971950, 1808971936, 4168001328, 4168012656, 4168001332, 1808971919, 1808971922, 1808971917, 1808971916, 3820493830, 3820493828, 3820493827, 3820493826, 3820493829, 1808971941], "tags": {"barrier": "fence", "leisure": "park", "name": "D\u0259miryol\u00e7ular Park\u0131 \\ Bil\u0259c\u0259ri"}}, {"type": "way", "id": 169828446, "nodes": [1809866765, 1809866766, 1809866772, 1809866769, 1809866771, 1809866773, 1809866767, 1809866774, 1809866765], "tags": {"leisure": "park", "name": "1941-1945"}}, {"type": "way", "id": 170083578, "nodes": [1812340299, 1812340298, 1812340300, 1812340301, 10288192672, 1812340299], "tags": {"leisure": "park", "name": "20 Yanvar Park\u0131 \\ Bil\u0259c\u0259ri"}}, {"type": "way", "id": 187148931, "nodes": [1979028634, 1979028645, 11002048960, 1979028772, 1979028762, 11002048958, 1979028594, 1979028634], "tags": {"leisure": "park", "name": "Ramiz Aboyev ad\u0131na m\u0259d\u0259niyy\u0259t v\u0259 istirah\u0259t park\u0131"}}, {"type": "way", "id": 188589454, "nodes": [1992132795, 1992132797, 1992132799, 1992132802, 1992132801, 1992132795], "tags": {"leisure": "park"}}, {"type": "way", "id": 188589455, "nodes": [1992132726, 1992132727, 9727776895, 9727776894, 9727776893, 1992132725, 1992132721, 9727776892, 9727776891, 1992132726], "tags": {"amenity": "marketplace", "building": "yes", "building:levels": "2", "name": "Park 20 Velotrek Ticar\u0259t", "name:az": "Park 20 Velotrek Ticar\u0259t", "name:en": "Park 20 Shopping", "shop": "mall"}}, {"type": "way", "id": 189640923, "nodes": [2002311107, 4084814267, 4084814264, 4084814265, 2002311105, 12287840406, 2002311109, 12287840405, 2002311107], "tags": {"leisure": "park", "name": "\u018fli\u015fir N\u0259vai park\u0131", "name:en": "Alishir Navai Park", "name:ru": "\u041f\u0430\u0440\u043a \u0410\u043b\u0438\u0448\u0435\u0440\u0430 \u041d\u0430\u0432\u043e\u0438"}}, {"type": "way", "id": 189678529, "nodes": [2002675511, 2002675514, 2002675504, 2002675503, 2002675506, 2002675500, 2002675497, 2002675494, 2002675511], "tags": {"addr:housenumber": "153", "addr:street": "Azadl\u0131q pr.", "building": "yes", "name": "Siti Men\u015fn Otel", "name:en": "City Mansion", "tourism": "hotel"}}, {"type": "way", "id": 193388925, "nodes": [2038929228, 2038929225, 2038929231, 2038929222, 2038929228], "tags": {"addr:city": "Bak\u0131", "addr:housename": "\"Lux\" Market", "addr:housenumber": "35", "addr:postcode": "AZ1102", "addr:street": "H\u00fcseyn Seyidzad\u0259", "amenity": "restaurant", "building": "yes", "capacity": "1", "cuisine": "barbecue;beef_bowl;breakfast;burger;cake;chicken;coffee_shop", "internet_access": "wlan", "name": "Altun", "name:tr": "T\u00fcrkel Restoran", "opening_hours": "Mo-Su 09:00-22:00"}}, {"type": "way", "id": 194209668, "nodes": [2047234366, 2047234286, 2047234232, 3908937668, 3908937666, 3908937662, 886185415, 886185418, 886185420, 886185434, 886185436, 886185447, 886185450, 2047233679, 2038879595, 2038879597, 2038879596, 2038879598, 2038879594, 886185455, 2047233112, 2047233260, 2047233475, 12356861158, 2047233561, 2047233637, 2047233774, 2047233854, 2047234181, 2908998561, 2047234366], "tags": {"addr:city": "Bak\u0131", "addr:housenumber": "3", "addr:street": "Cavadxan k\u00fc\u00e7.", "leisure": "park", "name": "Z\u0259rif\u0259 \u018fliyeva park\u0131"}}, {"type": "way", "id": 194284061, "nodes": [3043042511, 3043042510, 2048078248, 3043032756, 3043032760, 9742058083, 2048078264, 3042961341, 2048078277, 2048078285, 2048078280, 3043032785, 3043032786, 3043042511], "tags": {"addr:city": "Bak\u0131", "addr:street": "C\u0259f\u0259r X\u0259ndan k\u00fc\u00e7\u0259si", "leisure": "park", "name": "Corce Enesku Park\u0131", "name:az": "Corce Enesku Park\u0131", "name:en": "George Enescu Park", "name:ro": "Parcul George Enescu", "opening_hours": "24/7"}}, {"type": "way", "id": 194285541, "nodes": [2048094553, 2048094557, 2048094554, 2048094549, 2048094553], "tags": {"addr:housenumber": "31", "addr:postcode": "10108", "addr:street": "A\u011fasad\u0131q G\u0259rayb\u0259yli k\u00fc\u00e7\u0259si", "building": "yes", "building:levels": "5", "tourism": "motel"}}, {"type": "way", "id": 194306377, "nodes": [2048333505, 2048333481, 2048333472, 2048333484, 2048333475, 9915434726, 2048333508, 2048333526, 2048333512, 2048333531, 2048333535, 2048333515, 2048333479, 2048333523, 9915434724, 2048333519, 9915434725, 2048333537, 2048333502, 2048333505], "tags": {"amenity": "restaurant", "building": "yes", "building:levels": "3", "name": "Q\u0131z\u0131l Tac \u015eadl\u0131q Evi"}}, {"type": "way", "id": 194825456, "nodes": [2053310581, 2053310579, 2053310580, 2053310567, 2053310572, 2053310574, 2053310575, 2053310582, 2053310581], "tags": {"amenity": "restaurant", "building": "yes", "building:levels": "3", "name": "Leyla \u015eadl\u0131q Saray\u0131 \\ \u015eamaxinka"}}, {"type": "way", "id": 194830515, "nodes": [2053363316, 2053363318, 2053363319, 9727882883, 2053363315, 2053363317, 2053363313, 2053363324, 9727882882, 9727882743, 2053363321, 9727882744, 2053363314, 2053363322, 11298238890, 2053363316], "tags": {"leisure": "park"}}, {"type": "way", "id": 196536503, "nodes": [2068574078, 2068574088, 2068574084, 2068574081, 2068574078], "tags": {"addr:housenumber": "318", "addr:street": "Mir C\u0259lal", "amenity": "restaurant", "building": "yes", "name:en": "Sonalar Sonas\u0131"}}, {"type": "way", "id": 196536800, "nodes": [2068575825, 2068575823, 2068575819, 2068575821, 2068575825], "tags": {"addr:housenumber": "318", "addr:street": "Mir C\u0259lal", "amenity": "restaurant", "building": "yes", "name": "Millenium \u015eadl\u0131q Saray\u0131", "name:az": "Millenium \u015eadl\u0131q Saray\u0131", "name:ru": "\u041c\u0438\u043b\u043b\u0435\u043d\u0438\u0443\u043c \u0420\u0435\u0441\u0442\u043e\u0440\u0430\u043d"}}, {"type": "way", "id": 212737975, "nodes": [2225533558, 7508663388, 3117106637, 7508663455, 7508663453, 7508663454, 7508663393, 3117106618, 2225533565, 7508490419, 7508663394, 7508663550, 7508609267, 2225533566, 7508609253, 7508609268, 7508663392, 7508609266, 3117106584, 7508663389, 7508663391, 7508663459, 7508663458, 2225533567, 2225533576, 2225533574, 7508663461, 12779830100, 2225533558], "tags": {"leisure": "park"}}, {"type": "way", "id": 221384949, "nodes": [2304098374, 3039451983, 3039451982, 3039451988, 2304098369, 2304098373, 2304098372, 2304098374], "tags": {"amenity": "restaurant", "building": "yes", "building:min_level": "2", "name": "Zirv\u0259 Restoran\u0131 \\ 8 mkr"}}, {"type": "way", "id": 271381932, "nodes": [2763390251, 2763390238, 2763390235, 2763390230, 2763390251], "tags": {"addr:city": "Bak\u0131", "addr:country": "AZ", "addr:housenumber": "82", "addr:street": "H\u0259s\u0259n \u018fliyev", "amenity": "restaurant", "building": "yes", "building:levels": "4", "name": "Kral \u015eadl\u0131q Saray\u0131"}}, {"type": "way", "id": 274647428, "nodes": [2793302861, 2793302838, 2793302829, 9556641918, 9556641919, 2793302861], "tags": {"leisure": "park"}}, {"type": "way", "id": 278952382, "nodes": [2832391658, 2832391655, 2832391651, 2832391653, 2832391658], "tags": {"leisure": "park"}}, {"type": "way", "id": 278952383, "nodes": [2832391662, 2832391656, 2832391657, 2832391663, 2832391664, 2832391660, 2832391654, 2832391659, 2832391661, 2832391662], "tags": {"leisure": "park"}}, {"type": "way", "id": 278962566, "nodes": [2832450924, 2832450921, 2832450920, 2832450918, 2832450919, 2832450927, 2832450925, 9689707112, 2832450931, 2832450929, 2832450928, 2832450923, 2832450922, 2832450926, 2832450924], "tags": {"leisure": "park"}}, {"type": "way", "id": 278973528, "nodes": [2832492216, 2832492217, 2832492213, 2832492209, 2832492216], "tags": {"leisure": "park"}}, {"type": "way", "id": 278973530, "nodes": [2832492222, 2832492223, 2832492219, 2832492218, 2832492220, 2832492221, 2832492222], "tags": {"leisure": "park"}}, {"type": "way", "id": 278973532, "nodes": [2832492227, 2832492226, 2832492229, 2832492228, 3820583289, 2832492224, 2832492225, 2832492230, 2832492231, 3796882870, 2832492227], "tags": {"leisure": "park"}}, {"type": "way", "id": 278973534, "nodes": [2832492206, 2832492203, 3796879910, 2832489799, 2832489798, 2832489796, 2832489794, 2832489793, 2832489795, 3796879897, 3796879908, 3796879935, 2832492206], "tags": {"leisure": "park"}}, {"type": "way", "id": 285947764, "nodes": [2895876655, 2895876651, 2895876648, 2895876649, 2895876650, 2895876652, 2895876654, 2895876653, 2895876655], "tags": {"amenity": "restaurant", "building": "yes", "height": "6"}}, {"type": "way", "id": 286322438, "nodes": [2899722549, 2899722548, 2899722546, 2899722547, 2899722549], "tags": {"addr:city": "Bak\u0131", "addr:street": "Mir C\u0259lal", "amenity": "restaurant", "building": "yes", "height": "4", "name": "T\u0259rlan \u015eadl\u0131q Saray\u0131"}}, {"type": "way", "id": 287043382, "nodes": [2907051097, 2907051098, 2907051096, 2907051095, 2907051097], "tags": {"addr:street": "As\u0259f Zeynall\u0131", "amenity": "restaurant", "building": "yes", "building:levels": "3", "name": "A\u011f Saray \u015eadl\u0131q Evi", "name:en": "A\u011f Saray Bileceri", "name:ru": "\u0414\u0432\u043e\u0440\u0435\u0446 \u0442\u043e\u0440\u0436\u0435\u0441\u0442\u0432 \"\u0411\u0435\u043b\u044b\u0439 \u0414\u0432\u043e\u0440\u0435\u0446\"", "phone": "(+99412) 401-33-00"}}, {"type": "way", "id": 287043386, "nodes": [2907052208, 2907052205, 2907052203, 2907052201, 2907051100, 2907052202, 2907052204, 2907052206, 2907052209, 2907052211, 2907052212, 2907052210, 2907052208], "tags": {"landuse": "grass", "name": "A\u011f Saray Dair\u0259si \\ Bil\u0259c\u0259ri", "tourism": "attraction"}}, {"type": "way", "id": 287048577, "nodes": [2907083853, 3727199319, 9723406072, 3727199322, 3727200137, 3727200143, 3727200156, 3727199321, 3727199320, 9723406068, 2907083854, 3727199318, 9723406069, 2907083852, 3727199317, 3727199314, 3727199307, 3727199306, 3727199304, 3727199301, 3727199309, 2907083851, 9723406070, 9723406071, 9723400482, 2907083853], "tags": {"addr:city": "Bak\u0131", "addr:postcode": "1052", "addr:street": "Atat\u00fcrk prospekti", "leisure": "park", "name": "Atat\u00fcrk Park\u0131", "name:en": "Ataturk Park", "opening_hours": "24/7"}}, {"type": "way", "id": 287276592, "nodes": [2908987340, 2908987331, 2908987330, 2908987338, 2908987340], "tags": {"amenity": "restaurant", "building": "yes", "building:levels": "3", "height": "8", "name": "C\u0131d\u0131r D\u00fcz\u00fc"}}, {"type": "way", "id": 299663211, "nodes": [3036980544, 3037003953, 3036980570, 3036980585, 3036980672, 3036980648, 3037003997, 3036980558, 3036980556, 3036980544], "tags": {"barrier": "fence", "leisure": "park", "name": "President's Residence"}}, {"type": "way", "id": 300179868, "nodes": [3042832288, 4372486717, 3042832284, 3042832283, 3042832287, 3042832288], "tags": {"addr:city": "Bak\u0131", "addr:postcode": "AZ1130", "addr:street": "Nizami Narimanov", "amenity": "cafe", "building": "yes", "building:levels": "1", "name": "Avatar kafesi", "wheelchair": "no"}}, {"type": "way", "id": 300179949, "nodes": [3042832286, 3042832318, 3042832363, 3042832385, 3042832384, 3042832378, 8910270077, 3042832392, 3042832387, 538808434, 3042832297, 3042832286], "tags": {"leisure": "park"}}, {"type": "way", "id": 300179955, "nodes": [3042832112, 3042832126, 3042832122, 538808414, 538808415, 3042832124, 3042832105, 9741912327, 3042832119, 3042832129, 3042832131, 3042832263, 3042961346, 3042961347, 3042832271, 12779830061, 3042832274, 3042832285, 538808409, 538808411, 3042832270, 3042832289, 3042832290, 9741781524, 8909752904, 3042832112], "tags": {"leisure": "park"}}, {"type": "way", "id": 300189860, "nodes": [3042961345, 4372677696, 3042832263, 3042961346, 3042961347, 3042832271, 3042961345], "tags": {"amenity": "restaurant", "building:levels": "1", "name": "Pink Haus Restoran"}}, {"type": "way", "id": 300203692, "nodes": [3039451958, 3043032790, 3043032789, 3043032788, 3039451942, 3043032787, 3039451947, 3039451958], "tags": {"leisure": "park"}}, {"type": "way", "id": 300207082, "nodes": [3043042801, 3043042772, 3043042769, 3043042776, 3043042796, 3043042797, 3043042791, 3043042778, 3043042779, 3043042789, 3043042786, 3043042799, 3043042801], "tags": {"leisure": "park"}}, {"type": "way", "id": 300207083, "nodes": [3043042757, 3043042741, 3043042738, 3043042760, 3043042761, 3043042766, 3043042768, 3043042763, 3043042757], "tags": {"leisure": "park"}}, {"type": "way", "id": 300208144, "nodes": [3043043155, 3043043146, 3043043143, 3043043150, 3043043149, 3043043152, 3043043155], "tags": {"addr:city": "Bak\u0131", "addr:street": "\u015e\u00f6vk\u0259t M\u0259mm\u0259dova k\u00fc\u00e7\u0259si", "amenity": "restaurant", "building": "yes", "building:levels": "2", "cuisine": "regional", "name": "K\u0259mal\u0259 N\u0259rmin \u015fadl\u0131q evi", "name:en": "K\u0259mal\u0259 N\u0259rmin \u015eadl\u0131q Saray\u0131"}}, {"type": "way", "id": 306563454, "nodes": [3115244470, 3115244466, 3115244462, 3115244471, 3115244470], "tags": {"leisure": "park"}}, {"type": "way", "id": 306563455, "nodes": [3115244463, 3115244457, 3115244446, 3115244455, 3115244460, 3115244463], "tags": {"leisure": "park"}}, {"type": "way", "id": 306598024, "nodes": [3115638617, 3115638616, 10276527072, 3115638614, 3115638610, 3115638611, 3115638612, 3115638615, 3115638617], "tags": {"leisure": "park", "name": "Park \\ Azadl\u0131q pr."}}, {"type": "way", "id": 306978410, "nodes": [9747039725, 3120161045, 3120161050, 9747039722, 3120161063, 7293438359, 3120161069, 3120161071, 3120161072, 3120161073, 3120161070, 3120161064, 9747039723, 3120161052, 4041558508, 9747039724, 9747039725], "tags": {"leisure": "park", "name": "Ayna Sultanova park\u0131"}}, {"type": "way", "id": 307497238, "nodes": [3126711241, 3126710614, 9747039721, 3126710621, 3126710624, 3126710625, 3126710628, 3126710627, 3126710623, 3126711255, 3126711251, 3126711247, 3126711241], "tags": {"leisure": "park"}}, {"type": "way", "id": 311616564, "nodes": [3173142788, 3173142789, 3173142790, 3173142791, 3173142788], "tags": {"addr:city": "Bak\u0131", "addr:postcode": "AZ1102", "addr:street": "Mir C\u0259lal", "amenity": "restaurant", "building": "yes", "name": "\u00c7inar Restoran\u0131"}}, {"type": "way", "id": 311618494, "nodes": [3173148933, 3173163238, 3173148934, 3173148935, 3173148936, 3173163239, 3173148933], "tags": {"addr:city": "Bak\u0131", "addr:housenumber": "32", "addr:street": "H\u00fcseyn Seyidzad\u0259 k\u00fc\u00e7\u0259si", "amenity": "restaurant", "building": "yes", "cuisine": "pizza;kebab", "name": "Konak Lahmacun"}}, {"type": "way", "id": 311713285, "nodes": [3174362121, 3174362122, 3174362123, 3174362124, 3174362121], "tags": {"addr:city": "Bak\u0131", "addr:postcode": "AZ1102", "addr:street": "Mir C\u0259lal", "amenity": "cafe", "building": "yes", "internet_access": "wlan", "name": "Ya\u015f\u0131l \u00c7ay Evi", "smoking": "yes"}}, {"type": "way", "id": 315851226, "nodes": [3219840124, 9915437688, 3219840125, 3219840126, 9915437687, 3219840127, 3219840128, 3219840129, 3219840130, 3219840131, 3219840132, 3909068737, 3909068738, 3219840124], "tags": {"leisure": "park", "name": "Z\u0259f\u0259r Ba\u011f\u0131 / 4-c\u00fc mkr."}}, {"type": "way", "id": 316169826, "nodes": [3222840477, 3222840478, 3222840479, 3222840480, 3222840477], "tags": {"addr:city": "Bak\u0131", "addr:housenumber": "322", "addr:street": "Mir C\u0259lal", "amenity": "restaurant", "building": "yes", "building:levels": "2", "cuisine": "regional", "name": "\u00dczeyir \u015eadl\u0131q Saray\u0131"}}, {"type": "way", "id": 316170014, "nodes": [3222841432, 3222841433, 3222841434, 3222841435, 3222841432], "tags": {"amenity": "cafe", "building": "yes", "building:levels": "1", "name:en": "Tea house"}}, {"type": "way", "id": 368882863, "nodes": [3727200199, 3727200165, 9749787639, 3727200162, 9749787640, 3727200158, 3727200197, 3727200195, 3727200188, 3727200198, 3727200199], "tags": {"leisure": "park"}}, {"type": "way", "id": 376244802, "nodes": [3796882967, 3796882951, 9735552252, 3796882938, 3796882963, 3796882967], "tags": {"amenity": "restaurant", "name": "L\u0259v\u0259ngi Restoran\u0131 - 20 Yanvar"}}, {"type": "way", "id": 376244807, "nodes": [2832389440, 3796882944, 3796882950, 3796882965, 2832389443, 2832389440], "tags": {"leisure": "park"}}, {"type": "way", "id": 376244808, "nodes": [3796883055, 3796883027, 3796883030, 3796883017, 3796883019, 3796883062, 3796883055], "tags": {"leisure": "park"}}, {"type": "way", "id": 376247134, "nodes": [3796904206, 3796904204, 3796904209, 3796904207, 3796904211, 3796904201, 3796882756, 3796882860, 3796904206], "tags": {"amenity": "restaurant", "name": "Atlantis \u015eadl\u0131q Saray\u0131"}}, {"type": "way", "id": 378440453, "nodes": [1904100009, 3818483547, 3818483539, 3818483529, 1904100007, 1904100009], "tags": {"leisure": "park"}}, {"type": "way", "id": 378449054, "nodes": [3818555712, 3818562561, 3818562558, 3818555681, 3818555674, 2885712441, 2885712438, 3818555742, 3818555712], "tags": {"addr:city": "Bak\u0131", "addr:street": "Bil\u0259c\u0259ri dair\u0259si", "amenity": "restaurant", "leisure": "park", "name": "Q\u0259dim Q\u0259b\u0259l\u0259 Restoran\u0131 \\ Bil\u0259c\u0259ri Dair\u0259si"}}, {"type": "way", "id": 378449066, "nodes": [3818555773, 3818555776, 3818555779, 3818555778, 3818555775, 3818555771, 3818555766, 3818555761, 3818555756, 3818555748, 3818555745, 3818555747, 3818555751, 3818555758, 3818555763, 3818555769, 3818555773], "tags": {"landuse": "grass", "name": "Bil\u0259c\u0259ri Dair\u0259si", "tourism": "attraction"}}, {"type": "way", "id": 378621811, "nodes": [3820322302, 3722905828, 3820322301, 3820322298, 3820368171, 3820322257, 3820322260, 3820321356, 3820322264, 3820322278, 3820322284, 3667709853, 3820368292, 3820322304, 3820322305, 3820322302], "tags": {"leisure": "park"}}, {"type": "way", "id": 379875386, "nodes": [3832233515, 3832233511, 3832233509, 3832233512, 3832233513, 3832233522, 3832233516, 3832233514, 3835444722, 3832233515], "tags": {"addr:city": "Bak\u0131", "addr:postcode": "AZ1130", "addr:street": "C\u0259f\u0259r X\u0259ndan k\u00fc\u00e7.", "amenity": "restaurant", "building": "yes", "building:levels": "q", "name": "Monte Kristo", "name:ru": "\u041c\u043e\u043d\u0442\u0435 \u041a\u0440\u0438\u0441\u0442\u043e", "smoking": "dedicated"}}, {"type": "way", "id": 379879184, "nodes": [3832275974, 3832275938, 3832275945, 3832275975, 3832275974], "tags": {"amenity": "restaurant", "name": "Q\u0259b\u0259l\u0259 T\u0259ndir Restoran"}}, {"type": "way", "id": 379882798, "nodes": [3832314472, 3832314444, 3832314452, 3832314473, 3832314472], "tags": {"leisure": "park"}}, {"type": "way", "id": 379882800, "nodes": [3832314442, 3832314429, 3832314432, 3832314401, 3832314408, 3832314456, 3832314442], "tags": {"leisure": "park"}}, {"type": "way", "id": 380201791, "nodes": [3835426137, 3835426135, 3835426136, 3835426138, 3835426137], "tags": {"leisure": "park"}}, {"type": "way", "id": 387112738, "nodes": [2060745177, 3904456344, 3904456660, 2060745179, 2060745177], "tags": {"leisure": "park"}}, {"type": "way", "id": 387115019, "nodes": [3904456742, 3904459398, 3904459399, 2060737395, 3904456870, 9727882881, 3904456750, 3904456742], "tags": {"leisure": "park"}}, {"type": "way", "id": 387573229, "nodes": [3908378430, 3908378401, 3908378403, 3908378431, 3908378430], "tags": {"leisure": "park"}}, {"type": "way", "id": 387636287, "nodes": [3908378450, 3908901541, 3908901540, 3908901507, 3908901504, 3908378446, 3908378444, 3908378449, 3908378450], "tags": {"leisure": "park"}}, {"type": "way", "id": 387637605, "nodes": [3908914390, 3908914381, 3908914363, 3908914345, 3908914336, 3908914358, 3908914390], "tags": {"leisure": "park"}}, {"type": "way", "id": 387641411, "nodes": [3908960344, 3908960343, 3908961263, 3909001566, 3908961264, 3908961261, 3908960356, 3908960351, 3908960344], "tags": {"leisure": "park"}}, {"type": "way", "id": 387649590, "nodes": [3909001557, 3909001551, 3909001560, 3909001553, 3909001573, 3909001582, 2027518394, 2027518380, 3909001570, 3909001557], "tags": {"leisure": "park"}}, {"type": "way", "id": 387650876, "nodes": [3908999506, 3908999503, 3908999518, 3908999528, 3908999506], "tags": {"leisure": "park"}}, {"type": "way", "id": 387656066, "nodes": [3909053074, 3909053063, 3909053081, 3909053083, 3909053074], "tags": {"leisure": "park"}}, {"type": "way", "id": 387656070, "nodes": [3909053100, 3909053098, 3909053110, 3909001551, 3909001557, 3909053100], "tags": {"leisure": "park"}}, {"type": "way", "id": 387656072, "nodes": [3909052833, 3909052814, 3909052794, 3909052791, 3909052813, 3909052819, 3909052824, 3909052833], "tags": {"leisure": "park"}}, {"type": "way", "id": 387660507, "nodes": [3909082497, 3909082495, 3909082501, 3909082502, 3909082527, 3909082537, 3909082503, 3909082500, 3909082498, 3909082499, 3909082497], "tags": {"landuse": "forest", "leisure": "park"}}, {"type": "way", "id": 401747769, "nodes": [4041558505, 4041558506, 3120160608, 3120160606, 3120160604, 3120160603, 11291713431, 3120160600, 3120160602, 3120160605, 3120160607, 4041558505], "tags": {"leisure": "park", "name": "Atat\u00fcrk park\u0131"}}, {"type": "way", "id": 406411133, "nodes": [4084791572, 4084791559, 4084791565, 4084791574, 4084791572], "tags": {"leisure": "park"}}, {"type": "way", "id": 406413996, "nodes": [4084805598, 4084805595, 4084805597, 4084805601, 4084805602, 4084706113, 4084805600, 4084805598], "tags": {"leisure": "park"}}, {"type": "way", "id": 415853910, "nodes": [4168001337, 4168001338, 4168001339, 4168001340, 4168001337], "tags": {"amenity": "restaurant", "building": "yes"}}, {"type": "way", "id": 415853911, "nodes": [4168001341, 4168001342, 4168001343, 4168001344, 4168001341], "tags": {"amenity": "restaurant", "building": "yes"}}, {"type": "way", "id": 415853912, "nodes": [4168001346, 4168001347, 4168001348, 4168001349, 4168001346], "tags": {"amenity": "cafe", "building": "yes", "name:en": "V\u0130P"}}, {"type": "way", "id": 430458638, "nodes": [4297322819, 4297322820, 4297322821, 4297322822, 4297322823, 4297322824, 13226883155, 4297322819], "tags": {"addr:street": "M\u0259sud Davudo\u011flu", "amenity": "restaurant", "building": "yes", "name": "Liora Luxury Hall", "name:az": "Liora Luxury Hall"}}, {"type": "way", "id": 439460945, "nodes": [4370810588, 4370810589, 4370810590, 4370810591, 4370810592, 4370810588], "tags": {"leisure": "park"}}, {"type": "way", "id": 439600426, "nodes": [4370810588, 538808366, 538808368, 4372629598, 4370810592, 4370810588], "tags": {"leisure": "park"}}, {"type": "way", "id": 519348168, "nodes": [5064303858, 5064303859, 5064303860, 5064303861, 5064303858], "tags": {"addr:city": "Bak\u0131", "addr:street": "Mirmahmud Kaz\u0131movski", "amenity": "restaurant", "building": "yes", "name": "Q\u0259dim Q\u0259b\u0259l\u0259 Restoran\u0131, 9 mkr.", "name:az": "Q\u0259dim Q\u0259b\u0259l\u0259 Restoran\u0131, 9 mkr."}}, {"type": "way", "id": 587866939, "nodes": [5615107353, 5615107354, 5615107355, 5615107356, 5615107357, 5615107358, 5615107359, 5615107360, 5615107361, 5615107362, 5615107363, 5615107353], "tags": {"leisure": "park"}}, {"type": "way", "id": 594133205, "nodes": [5666142592, 9725503455, 5666142593, 5666142594, 5666142595, 5666142596, 5666142597, 5666142598, 5666142599, 5666142592], "tags": {"leisure": "park"}}, {"type": "way", "id": 702044776, "nodes": [6592863577, 6592863578, 6592863579, 6592863580, 6592863581, 6592863582, 6592863577], "tags": {"leisure": "park"}}, {"type": "way", "id": 702044809, "nodes": [6592847650, 6592847651, 6592847652, 6592847653, 6592847654, 6592847655, 6592847650], "tags": {"leisure": "park"}}, {"type": "way", "id": 802686252, "nodes": [7508495610, 7508495611, 7508495612, 7508495613, 7508495610], "tags": {"leisure": "park"}}, {"type": "way", "id": 932972021, "nodes": [8648302509, 8648302508, 8648302507, 8648302506, 8648302509], "tags": {"leisure": "park"}}, {"type": "way", "id": 1054398000, "nodes": [9689694540, 9689694541, 9689694542, 9689694543, 9689694540], "tags": {"amenity": "restaurant", "building": "yes"}}, {"type": "way", "id": 1057000834, "nodes": [9712379319, 9712379318, 3626679697, 3626679704, 9712379317, 3122220039, 9712379319], "tags": {"leisure": "park"}}, {"type": "way", "id": 1058183296, "nodes": [9723476552, 9723476551, 9723476550, 9723476549, 9723476552], "tags": {"leisure": "park"}}, {"type": "way", "id": 1058382351, "nodes": [9725362015, 9725362014, 9725362013, 9725362012, 9725362011, 9725362015], "tags": {"leisure": "park"}}, {"type": "way", "id": 1058653677, "nodes": [9727706727, 9727706726, 9727706725, 9727706724, 9727706723, 9727706722, 9727706721, 9727706720, 9727706719, 9727706718, 9727706717, 9727682516, 9727706727], "tags": {"leisure": "park"}}, {"type": "way", "id": 1058655448, "nodes": [9727712501, 9727712500, 9727712499, 9727712498, 9727712497, 9727712496, 9727712495, 9727712494, 9727712493, 9727712492, 9727712501], "tags": {"leisure": "park"}}, {"type": "way", "id": 1058662722, "nodes": [9727776827, 9727776826, 9727776825, 9727776824, 9727776823, 9727776822, 9727776821, 9727776820, 9727776819, 9727776818, 9727776817, 9727718516, 9727718515, 9727718514, 9727718513, 9727718512, 9727718511, 9727718510, 9727718509, 9727718508, 9727718507, 9727718506, 9727718505, 9727718504, 9727718503, 9727776827], "tags": {"landuse": "grass", "name": "3-c\u00fc Mikrorayon dair\u0259si", "tourism": "attraction"}}, {"type": "way", "id": 1058673772, "nodes": [9727882875, 9727882874, 9727882873, 9727882872, 9727882871, 9727882870, 9727882869, 9727882868, 9727882867, 9727882866, 9727882865, 9727882864, 9727882863, 9727882862, 9727882861, 9727882860, 9727882859, 9727882858, 9727882857, 9727882875], "tags": {"landuse": "grass", "name": "\u018fc\u0259mi dair\u0259si", "tourism": "attraction"}}, {"type": "way", "id": 1059680910, "nodes": [9735878076, 9735839355, 9735878075, 9735878074, 9735878073, 9735878072, 9735878071, 9735878070, 9735878076], "tags": {"leisure": "park"}}, {"type": "way", "id": 1060316238, "nodes": [9741781570, 9741781569, 9741781568, 9741781567, 9741781566, 9741781565, 9741781564, 9741781563, 9741781562, 9741781561, 9741781560, 9741781570], "tags": {"leisure": "park"}}, {"type": "way", "id": 1060316239, "nodes": [9741781579, 9741781578, 9741781577, 9741781576, 9741781575, 9741781520, 9741781519, 9741781574, 9741781573, 9741781572, 9741781571, 9741781557, 9741781579], "tags": {"leisure": "park"}}, {"type": "way", "id": 1060326408, "nodes": [9741912322, 9741912321, 9741912320, 9741912319, 9741912318, 9741912317, 9741883216, 9741883215, 9741912322], "tags": {"leisure": "park"}}, {"type": "way", "id": 1060669984, "nodes": [9746040304, 9746040303, 9746040302, 9746040306, 9746040304], "tags": {"leisure": "park"}}, {"type": "way", "id": 1060669985, "nodes": [9746040311, 9746040310, 9746040309, 9746040308, 9746040307, 9746040306, 9746040304, 9746040311], "tags": {"addr:housenumber": "23C", "addr:postcode": "AZ1124", "addr:street": "C\u0259f\u0259r X\u0259ndan k\u00fc\u00e7\u0259si", "amenity": "restaurant", "name": "Ba\u011f\u00e7asaray \u015eadl\u0131q Saray\u0131", "name:az": "Ba\u011f\u00e7asaray \u015eadl\u0131q Saray\u0131", "name:az-Cyrl": "\u0411\u0430\u0493\u0447\u0430\u0441\u0430\u0440\u0430\u0458 \u0428\u0430\u0434\u043b\u044b\u0433 \u0421\u0430\u0440\u0430\u0458\u044b", "name:en": "Bagchasaray Wedding Palace"}}, {"type": "way", "id": 1060857960, "nodes": [9747227830, 9747227825, 9747227824, 9747227823, 9747227822, 9747227821, 9747227820, 9747227819, 9747227829, 9747227828, 9747227827, 9747227830], "tags": {"leisure": "park"}}, {"type": "way", "id": 1081879109, "nodes": [9915434735, 9915434734, 9915434733, 9915434732, 9915434735], "tags": {"leisure": "park"}}, {"type": "way", "id": 1081879129, "nodes": [9915435383, 9915435362, 9915435382, 9915435381, 9915435361, 9915435380, 9915435383], "tags": {"leisure": "park"}}, {"type": "way", "id": 1081881440, "nodes": [2048345391, 9915458377, 9915458376, 2048345388, 2048345391], "tags": {"leisure": "park"}}, {"type": "way", "id": 1123688742, "nodes": [10276204607, 10276204606, 10276204605, 10276204604, 10276204603, 10276204602, 10276204601, 10276252713, 10276204600, 10276204599, 10276204598, 10276204597, 10276204607], "tags": {"amenity": "marketplace", "name": "Bin\u0259q\u0259di Bazar\u0131 \\ Bin\u0259q\u0259di \u015fossesi"}}, {"type": "way", "id": 1123997979, "nodes": [10278922310, 10278922309, 10278860908, 10278860907, 10278922310], "tags": {"leisure": "park"}}, {"type": "way", "id": 1124856166, "nodes": [10286460599, 10286460598, 10286460597, 10286460596, 10286460595, 10286460594, 10286460593, 10286460592, 10286460599], "tags": {"landuse": "residential", "tourism": "motel"}}, {"type": "way", "id": 1125046556, "nodes": [10288192570, 10288192569, 10288192568, 10288192567, 10288192566, 10288192570], "tags": {"amenity": "marketplace", "name": "Bazar"}}, {"type": "way", "id": 1125049501, "nodes": [10288214785, 10288214784, 10288214783, 10288214782, 10288214785], "tags": {"leisure": "park", "name": "Park"}}, {"type": "way", "id": 1125486203, "nodes": [10292075817, 10292075816, 10292075815, 10292075814, 10295711450, 10292075813, 10292075812, 10292075811, 10292075810, 10292075817], "tags": {"leisure": "park"}}, {"type": "way", "id": 1125493024, "nodes": [10292150188, 10292150187, 10292150186, 10292150185, 10292150188], "tags": {"addr:city": "Bil\u0259c\u0259ri", "name": "Salt Otel \\ Bil\u0259c\u0259ri", "tourism": "motel"}}, {"type": "way", "id": 1125890151, "nodes": [10295517552, 10295517551, 10295517550, 10295517549, 10295517548, 10295517547, 10295517552], "tags": {"amenity": "restaurant", "name": "\u00c7\u0131raq Restoran \\ Bin\u0259q\u0259di \u015fossesi"}}, {"type": "way", "id": 1125905481, "nodes": [10295636060, 10295636059, 10295636058, 10302993963, 10295636057, 10295636060], "tags": {"leisure": "park"}}, {"type": "way", "id": 1125905496, "nodes": [10295645656, 10295645655, 10295645654, 10295645653, 10295645656], "tags": {"amenity": "cafe"}}, {"type": "way", "id": 1125909902, "nodes": [10295652174, 10295652173, 10295652172, 10295652171, 10295652174], "tags": {"leisure": "park"}}, {"type": "way", "id": 1126364559, "nodes": [10299354479, 10299354478, 10299354477, 10299354476, 10299354479], "tags": {"leisure": "park"}}, {"type": "way", "id": 1126746766, "nodes": [10302993940, 10302993939, 10302993938, 10302993937, 10302993940], "tags": {"amenity": "cafe"}}, {"type": "way", "id": 1126746775, "nodes": [10302993990, 10302993989, 10302993988, 10302993987, 10302993990], "tags": {"leisure": "park"}}, {"type": "way", "id": 1155814534, "nodes": [10748654626, 10748654627, 10748654628, 10748654629, 10748654626], "tags": {"leisure": "park", "name": "Mini Park", "operator": "Asif M\u0259h\u0259rr\u0259mov", "operator:type": "public"}}, {"type": "way", "id": 1219102240, "nodes": [11296396687, 11296396686, 11296396685, 11296396684, 11296396683, 11296396687], "tags": {"leisure": "park"}}, {"type": "way", "id": 1219339703, "nodes": [11298182624, 11298182623, 11298182622, 11298182621, 11385502858, 11385502850, 11298182620, 11298182619, 11298182618, 11298182614, 11298182624], "tags": {"leisure": "park"}}, {"type": "way", "id": 1219339712, "nodes": [1328594209, 11298182687, 11298182686, 11298182685, 11298182684, 11298182683, 11298182682, 11298182681, 11298182680, 11298182679, 11298182678, 1328594236, 1328594148, 1328594209], "tags": {"leisure": "park"}}, {"type": "way", "id": 1283669068, "nodes": [11910189554, 11910189558, 11910189555, 11910189556, 11910189559, 11910189557, 11910189554], "tags": {"addr:city": "Bak\u0131", "addr:street": "Mirz\u0259 M\u0259h\u0259mm\u0259d Xan", "amenity": "cafe", "building": "retail", "building:levels": "1", "name": "NAZ Tea House"}}, {"type": "way", "id": 1283669070, "nodes": [11910189558, 11910189554, 11910189557, 11910189559, 11910189558], "tags": {"addr:city": "Bak\u0131", "addr:housenumber": "32", "addr:street": "Mirz\u0259 M\u0259h\u0259mm\u0259d Xan k\u00fc\u00e7\u0259si", "amenity": "cafe", "building": "yes", "building:levels": "1", "level": "0", "name": "NAZ Tea House", "opening_hours": "Mo-Su 08:00-22:00", "outdoor_seating": "no", "roof:colour": "darkgreen"}}, {"type": "way", "id": 1312076333, "nodes": [12144737640, 12144737642, 12144737643, 12144737641, 12144737640], "tags": {"addr:city": "Bak\u0131", "addr:housenumber": "2a", "addr:street": "Mirmahmud Kaz\u0131movski k\u00fc\u00e7.", "amenity": "cafe", "building": "yes", "building:levels": "1", "check_date": "2024-10-04", "height": "3", "name": "Kafe", "opening_hours": "Mo-Sa 09:00-22:00", "outdoor_seating": "yes"}}, {"type": "way", "id": 1341470896, "nodes": [12408787660, 12408787661, 12408787662, 12408787663, 12408787660], "tags": {"amenity": "cafe", "building": "yes"}}, {"type": "way", "id": 1375545443, "nodes": [12736234733, 12736234734, 12736234735, 12736234736, 12736234737, 12736234738, 12736234739, 12736234740, 12736234733], "tags": {"leisure": "park"}}, {"type": "way", "id": 1436018116, "nodes": [13198749956, 13198749957, 13198749958, 13198749959, 13198749956], "tags": {"addr:city": "Bak\u0131", "addr:street": "Mir C\u0259lal k\u00fc\u00e7.", "amenity": "cafe", "building": "terrace", "internet_access": "yes", "internet_access:fee": "no", "name": "Qaya Kafe", "name:en": "Qaya Kafe", "opening_hours": "Mo-Su 10:00-23:00", "outdoor_seating": "yes"}}, {"type": "node", "id": 9735839355, "lat": 40.4053401, "lon": 49.7993697}, {"type": "node", "id": 9735878070, "lat": 40.4055809, "lon": 49.8000812}, {"type": "node", "id": 9735878071, "lat": 40.4051374, "lon": 49.7998921}, {"type": "node", "id": 9735878072, "lat": 40.4049613, "lon": 49.8005286}, {"type": "node", "id": 9735878073, "lat": 40.4045955, "lon": 49.8003725}, {"type": "node", "id": 9735878074, "lat": 40.404847, "lon": 49.7994236}, {"type": "node", "id": 9735878075, "lat": 40.405286, "lon": 49.7996158}, {"type": "node", "id": 9735878076, "lat": 40.4057181, "lon": 49.7995468}, {"type": "node", "id": 1904100007, "lat": 40.4026136, "lon": 49.8017568}, {"type": "node", "id": 1904100009, "lat": 40.4026883, "lon": 49.8017829}, {"type": "node", "id": 2832389440, "lat": 40.4052289, "lon": 49.8055106}, {"type": "node", "id": 2832389443, "lat": 40.4055262, "lon": 49.8056326}, {"type": "node", "id": 2832492226, "lat": 40.4030558, "lon": 49.8073463}, {"type": "node", "id": 2832492227, "lat": 40.4030719, "lon": 49.80725}, {"type": "node", "id": 3796882756, "lat": 40.402201, "lon": 49.8061572}, {"type": "node", "id": 3796882860, "lat": 40.4024297, "lon": 49.8055436}, {"type": "node", "id": 3796882870, "lat": 40.4032022, "lon": 49.8073416}, {"type": "node", "id": 3796882938, "lat": 40.4049893, "lon": 49.8042786}, {"type": "node", "id": 3796882944, "lat": 40.4050711, "lon": 49.8059409}, {"type": "node", "id": 3796882950, "lat": 40.4051276, "lon": 49.8061008}, {"type": "node", "id": 3796882951, "lat": 40.4051476, "lon": 49.8036637}, {"type": "node", "id": 3796882963, "lat": 40.4054231, "lon": 49.8044845}, {"type": "node", "id": 3796882965, "lat": 40.4055745, "lon": 49.8058272}, {"type": "node", "id": 3796882967, "lat": 40.4055749, "lon": 49.8038627}, {"type": "node", "id": 3796904201, "lat": 40.4028113, "lon": 49.8065889}, {"type": "node", "id": 3796904204, "lat": 40.4028294, "lon": 49.8057629}, {"type": "node", "id": 3796904206, "lat": 40.4028479, "lon": 49.8056918}, {"type": "node", "id": 3796904207, "lat": 40.402849, "lon": 49.8058738}, {"type": "node", "id": 3796904209, "lat": 40.4028746, "lon": 49.8057906}, {"type": "node", "id": 3796904211, "lat": 40.403032, "lon": 49.8059901}, {"type": "node", "id": 3818483529, "lat": 40.4024931, "lon": 49.8021537}, {"type": "node", "id": 3818483539, "lat": 40.4026128, "lon": 49.8022136}, {"type": "node", "id": 3818483547, "lat": 40.4027199, "lon": 49.8017939}, {"type": "node", "id": 9735552252, "lat": 40.4051304, "lon": 49.8037307}, {"type": "node", "id": 2793302829, "lat": 40.4100183, "lon": 49.8052834}, {"type": "node", "id": 2793302838, "lat": 40.4104174, "lon": 49.8050213}, {"type": "node", "id": 2793302861, "lat": 40.4107181, "lon": 49.8056326}, {"type": "node", "id": 2832391651, "lat": 40.4071661, "lon": 49.8048295}, {"type": "node", "id": 2832391653, "lat": 40.4072942, "lon": 49.8052501}, {"type": "node", "id": 2832391654, "lat": 40.4076401, "lon": 49.8033984}, {"type": "node", "id": 2832391655, "lat": 40.4077491, "lon": 49.8045147}, {"type": "node", "id": 2832391656, "lat": 40.4077977, "lon": 49.8037111}, {"type": "node", "id": 2832391657, "lat": 40.4078716, "lon": 49.8039225}, {"type": "node", "id": 2832391658, "lat": 40.4078969, "lon": 49.8049137}, {"type": "node", "id": 2832391659, "lat": 40.4078979, "lon": 49.8032323}, {"type": "node", "id": 2832391660, "lat": 40.4079554, "lon": 49.8043042}, {"type": "node", "id": 2832391661, "lat": 40.4080145, "lon": 49.8033445}, {"type": "node", "id": 2832391662, "lat": 40.4080753, "lon": 49.8035429}, {"type": "node", "id": 2832391663, "lat": 40.4081525, "lon": 49.8037629}, {"type": "node", "id": 2832391664, "lat": 40.4082707, "lon": 49.8041079}, {"type": "node", "id": 2832450918, "lat": 40.4080437, "lon": 49.801666}, {"type": "node", "id": 2832450919, "lat": 40.4088025, "lon": 49.8039763}, {"type": "node", "id": 2832450920, "lat": 40.4087997, "lon": 49.8012053}, {"type": "node", "id": 2832450921, "lat": 40.4093577, "lon": 49.8009081}, {"type": "node", "id": 2832450922, "lat": 40.4098958, "lon": 49.8013414}, {"type": "node", "id": 2832450923, "lat": 40.4099843, "lon": 49.8014523}, {"type": "node", "id": 2832450924, "lat": 40.4097369, "lon": 49.8011525}, {"type": "node", "id": 2832450925, "lat": 40.4097297, "lon": 49.8031914}, {"type": "node", "id": 2832450926, "lat": 40.4098517, "lon": 49.8012365}, {"type": "node", "id": 2832450927, "lat": 40.4098007, "lon": 49.8033986}, {"type": "node", "id": 2832450928, "lat": 40.4100678, "lon": 49.8015773}, {"type": "node", "id": 2832450929, "lat": 40.4101474, "lon": 49.8018255}, {"type": "node", "id": 2832450931, "lat": 40.4104819, "lon": 49.8027179}, {"type": "node", "id": 3796883017, "lat": 40.4063626, "lon": 49.803809}, {"type": "node", "id": 3796883019, "lat": 40.4064035, "lon": 49.803959}, {"type": "node", "id": 3796883027, "lat": 40.406591, "lon": 49.8034397}, {"type": "node", "id": 3796883030, "lat": 40.4066592, "lon": 49.8036523}, {"type": "node", "id": 3796883055, "lat": 40.4070137, "lon": 49.8032203}, {"type": "node", "id": 3796883062, "lat": 40.4071313, "lon": 49.8035538}, {"type": "node", "id": 9556641918, "lat": 40.4103163, "lon": 49.8059996}, {"type": "node", "id": 9556641919, "lat": 40.4104705, "lon": 49.8059846}, {"type": "node", "id": 9689694540, "lat": 40.409649, "lon": 49.8019569}, {"type": "node", "id": 9689694541, "lat": 40.4095993, "lon": 49.8021921}, {"type": "node", "id": 9689694542, "lat": 40.4094872, "lon": 49.8021541}, {"type": "node", "id": 9689694543, "lat": 40.4095358, "lon": 49.8019205}, {"type": "node", "id": 9689707112, "lat": 40.409928, "lon": 49.8030721}, {"type": "node", "id": 2053310567, "lat": 40.4139604, "lon": 49.804149}, {"type": "node", "id": 2053310572, "lat": 40.413968, "lon": 49.804219}, {"type": "node", "id": 2053310574, "lat": 40.4140313, "lon": 49.8043125}, {"type": "node", "id": 2053310575, "lat": 40.4140807, "lon": 49.8043307}, {"type": "node", "id": 2053310579, "lat": 40.4140906, "lon": 49.8039074}, {"type": "node", "id": 2053310580, "lat": 40.4141222, "lon": 49.8039567}, {"type": "node", "id": 2053310581, "lat": 40.414146, "lon": 49.8038399}, {"type": "node", "id": 2053310582, "lat": 40.4143022, "lon": 49.8040528}, {"type": "node", "id": 2895876648, "lat": 40.4189711, "lon": 49.8039303}, {"type": "node", "id": 2895876649, "lat": 40.4190993, "lon": 49.8040644}, {"type": "node", "id": 2895876650, "lat": 40.4192568, "lon": 49.8038046}, {"type": "node", "id": 2895876651, "lat": 40.4192786, "lon": 49.803423}, {"type": "node", "id": 2895876652, "lat": 40.4192946, "lon": 49.8038442}, {"type": "node", "id": 2895876653, "lat": 40.4193056, "lon": 49.8037233}, {"type": "node", "id": 6592863577, "lat": 40.4138372, "lon": 49.8047394}, {"type": "node", "id": 6592863578, "lat": 40.415118, "lon": 49.8064917}, {"type": "node", "id": 6592863579, "lat": 40.4143925, "lon": 49.8068854}, {"type": "node", "id": 6592863580, "lat": 40.4141342, "lon": 49.8060864}, {"type": "node", "id": 6592863581, "lat": 40.4141993, "lon": 49.8060444}, {"type": "node", "id": 6592863582, "lat": 40.4137607, "lon": 49.8047823}, {"type": "node", "id": 2885712438, "lat": 40.4203777, "lon": 49.8007538}, {"type": "node", "id": 2885712441, "lat": 40.4203213, "lon": 49.8006792}, {"type": "node", "id": 3818555674, "lat": 40.4200791, "lon": 49.8003118}, {"type": "node", "id": 3818555681, "lat": 40.4201924, "lon": 49.8001907}, {"type": "node", "id": 3818555712, "lat": 40.4204972, "lon": 49.7998294}, {"type": "node", "id": 3818555742, "lat": 40.4207274, "lon": 49.8002966}, {"type": "node", "id": 3818555745, "lat": 40.4207442, "lon": 49.7998964}, {"type": "node", "id": 3818555747, "lat": 40.4207485, "lon": 49.7998514}, {"type": "node", "id": 3818555748, "lat": 40.4207533, "lon": 49.7999401}, {"type": "node", "id": 3818555751, "lat": 40.4207655, "lon": 49.7998121}, {"type": "node", "id": 3818555756, "lat": 40.4207744, "lon": 49.7999758}, {"type": "node", "id": 3818555758, "lat": 40.4207928, "lon": 49.7997843}, {"type": "node", "id": 3818555761, "lat": 40.4208044, "lon": 49.7999982}, {"type": "node", "id": 3818555763, "lat": 40.4208261, "lon": 49.7997724}, {"type": "node", "id": 3818555766, "lat": 40.4208386, "lon": 49.8000039}, {"type": "node", "id": 3818555769, "lat": 40.4208602, "lon": 49.799778}, {"type": "node", "id": 3818555771, "lat": 40.4208718, "lon": 49.799992}, {"type": "node", "id": 3818555773, "lat": 40.4208902, "lon": 49.7998004}, {"type": "node", "id": 3818555775, "lat": 40.420899, "lon": 49.7999642}, {"type": "node", "id": 3818555776, "lat": 40.4209113, "lon": 49.7998362}, {"type": "node", "id": 3818555778, "lat": 40.4209161, "lon": 49.7999249}, {"type": "node", "id": 3818555779, "lat": 40.4209205, "lon": 49.7998799}, {"type": "node", "id": 3818562558, "lat": 40.4202409, "lon": 49.8001351}, {"type": "node", "id": 3818562561, "lat": 40.4203009, "lon": 49.8000604}, {"type": "node", "id": 2895876654, "lat": 40.4193437, "lon": 49.8037632}, {"type": "node", "id": 2895876655, "lat": 40.4194066, "lon": 49.8035568}, {"type": "node", "id": 3667709853, "lat": 40.42308, "lon": 49.8032291}, {"type": "node", "id": 3722905828, "lat": 40.4236975, "lon": 49.8020682}, {"type": "node", "id": 3820321356, "lat": 40.4221707, "lon": 49.80308}, {"type": "node", "id": 3820322257, "lat": 40.4221972, "lon": 49.802884}, {"type": "node", "id": 3820322260, "lat": 40.4222614, "lon": 49.8029758}, {"type": "node", "id": 3820322264, "lat": 40.4223578, "lon": 49.8033332}, {"type": "node", "id": 3820322278, "lat": 40.4229624, "lon": 49.803224}, {"type": "node", "id": 3820322284, "lat": 40.4230174, "lon": 49.8031419}, {"type": "node", "id": 3820322298, "lat": 40.4232931, "lon": 49.8015933}, {"type": "node", "id": 3820322301, "lat": 40.4236634, "lon": 49.8021096}, {"type": "node", "id": 3820322302, "lat": 40.4237239, "lon": 49.8020401}, {"type": "node", "id": 3820322304, "lat": 40.4238871, "lon": 49.8025135}, {"type": "node", "id": 3820322305, "lat": 40.4238924, "lon": 49.8023099}, {"type": "node", "id": 3820368171, "lat": 40.4222268, "lon": 49.8028485}, {"type": "node", "id": 3820368292, "lat": 40.4231942, "lon": 49.8033697}, {"type": "node", "id": 1808971916, "lat": 40.4318248, "lon": 49.8067307}, {"type": "node", "id": 1808971917, "lat": 40.4313507, "lon": 49.8068649}, {"type": "node", "id": 1808971919, "lat": 40.4306517, "lon": 49.8071147}, {"type": "node", "id": 1808971922, "lat": 40.4313705, "lon": 49.8070151}, {"type": "node", "id": 1808971941, "lat": 40.4317931, "lon": 49.8054351}, {"type": "node", "id": 1808971947, "lat": 40.4291068, "lon": 49.8069584}, {"type": "node", "id": 1809866766, "lat": 40.4324163, "lon": 49.8031606}, {"type": "node", "id": 1809866769, "lat": 40.4323428, "lon": 49.804142}, {"type": "node", "id": 1809866771, "lat": 40.4323459, "lon": 49.8044089}, {"type": "node", "id": 1809866772, "lat": 40.4324368, "lon": 49.8041259}, {"type": "node", "id": 3676548742, "lat": 40.4290904, "lon": 49.8057877}, {"type": "node", "id": 3676548743, "lat": 40.4296276, "lon": 49.8057143}, {"type": "node", "id": 3820493826, "lat": 40.4317588, "lon": 49.8059485}, {"type": "node", "id": 3820493827, "lat": 40.431769, "lon": 49.8061195}, {"type": "node", "id": 3820493828, "lat": 40.4317758, "lon": 49.8062925}, {"type": "node", "id": 3820493829, "lat": 40.431816, "lon": 49.8058813}, {"type": "node", "id": 3820493830, "lat": 40.4318236, "lon": 49.8063222}, {"type": "node", "id": 4168001329, "lat": 40.4285381, "lon": 49.8073515}, {"type": "node", "id": 4168001332, "lat": 40.4306542, "lon": 49.8071793}, {"type": "node", "id": 4168001346, "lat": 40.4292634, "lon": 49.807296}, {"type": "node", "id": 4168001349, "lat": 40.4294199, "lon": 49.8072772}, {"type": "node", "id": 4168012656, "lat": 40.4306608, "lon": 49.8073465}, {"type": "node", "id": 10299354478, "lat": 40.4361851, "lon": 49.8005882}, {"type": "node", "id": 10299354479, "lat": 40.4365505, "lon": 49.8005694}, {"type": "node", "id": 1809866765, "lat": 40.4327838, "lon": 49.8031391}, {"type": "node", "id": 1809866767, "lat": 40.4326899, "lon": 49.8042975}, {"type": "node", "id": 1809866773, "lat": 40.4326113, "lon": 49.8043874}, {"type": "node", "id": 1809866774, "lat": 40.43284, "lon": 49.8042533}, {"type": "node", "id": 1812340298, "lat": 40.4370931, "lon": 49.805493}, {"type": "node", "id": 1812340299, "lat": 40.4375313, "lon": 49.8054494}, {"type": "node", "id": 1812340300, "lat": 40.4371309, "lon": 49.8062699}, {"type": "node", "id": 1812340301, "lat": 40.4375393, "lon": 49.806226}, {"type": "node", "id": 10288192568, "lat": 40.4359044, "lon": 49.8070563}, {"type": "node", "id": 10288192569, "lat": 40.4358636, "lon": 49.8066151}, {"type": "node", "id": 10288192570, "lat": 40.4362902, "lon": 49.8065682}, {"type": "node", "id": 10288192672, "lat": 40.4375352, "lon": 49.8058238}, {"type": "node", "id": 10292150185, "lat": 40.4363454, "lon": 49.8014921}, {"type": "node", "id": 10292150186, "lat": 40.4360381, "lon": 49.8016879}, {"type": "node", "id": 10292150187, "lat": 40.4359033, "lon": 49.8012748}, {"type": "node", "id": 10292150188, "lat": 40.4362116, "lon": 49.8011072}, {"type": "node", "id": 10299354476, "lat": 40.4366016, "lon": 49.8014036}, {"type": "node", "id": 10299354477, "lat": 40.4364525, "lon": 49.801425}, {"type": "node", "id": 10302993987, "lat": 40.4362688, "lon": 49.8043406}, {"type": "node", "id": 10302993988, "lat": 40.4362443, "lon": 49.8037773}, {"type": "node", "id": 10302993989, "lat": 40.436526, "lon": 49.8037398}, {"type": "node", "id": 10302993990, "lat": 40.4365485, "lon": 49.8043084}, {"type": "node", "id": 2832489793, "lat": 40.399433, "lon": 49.8085845}, {"type": "node", "id": 2832489794, "lat": 40.3994968, "lon": 49.8087092}, {"type": "node", "id": 2832489795, "lat": 40.3995722, "lon": 49.808432}, {"type": "node", "id": 2832489796, "lat": 40.3995899, "lon": 49.8086199}, {"type": "node", "id": 5615107355, "lat": 40.3994706, "lon": 49.8237246}, {"type": "node", "id": 5615107356, "lat": 40.3994105, "lon": 49.8236281}, {"type": "node", "id": 5615107357, "lat": 40.3993704, "lon": 49.8234928}, {"type": "node", "id": 5615107358, "lat": 40.3993291, "lon": 49.8234188}, {"type": "node", "id": 5615107359, "lat": 40.3990223, "lon": 49.8230621}, {"type": "node", "id": 5615107360, "lat": 40.3994875, "lon": 49.8220543}, {"type": "node", "id": 1992132721, "lat": 40.4030769, "lon": 49.8093822}, {"type": "node", "id": 1992132725, "lat": 40.4038281, "lon": 49.8097589}, {"type": "node", "id": 1992132726, "lat": 40.4033744, "lon": 49.808564}, {"type": "node", "id": 1992132727, "lat": 40.4040608, "lon": 49.8088598}, {"type": "node", "id": 2832489798, "lat": 40.3997509, "lon": 49.80893}, {"type": "node", "id": 2832489799, "lat": 40.3998546, "lon": 49.8088219}, {"type": "node", "id": 2832492203, "lat": 40.4002088, "lon": 49.8091978}, {"type": "node", "id": 2832492206, "lat": 40.400451, "lon": 49.8089452}, {"type": "node", "id": 2832492209, "lat": 40.4008162, "lon": 49.8092913}, {"type": "node", "id": 2832492213, "lat": 40.4009857, "lon": 49.8096102}, {"type": "node", "id": 2832492216, "lat": 40.4014436, "lon": 49.80871}, {"type": "node", "id": 2832492217, "lat": 40.4015979, "lon": 49.8090721}, {"type": "node", "id": 2832492218, "lat": 40.4017067, "lon": 49.8087731}, {"type": "node", "id": 2832492219, "lat": 40.4017699, "lon": 49.8089392}, {"type": "node", "id": 2832492220, "lat": 40.4021772, "lon": 49.8084675}, {"type": "node", "id": 2832492221, "lat": 40.4022152, "lon": 49.8085505}, {"type": "node", "id": 2832492222, "lat": 40.4028147, "lon": 49.8081452}, {"type": "node", "id": 2832492223, "lat": 40.4028552, "lon": 49.8082449}, {"type": "node", "id": 2832492224, "lat": 40.4028644, "lon": 49.8080769}, {"type": "node", "id": 2832492225, "lat": 40.4029139, "lon": 49.808209}, {"type": "node", "id": 2832492228, "lat": 40.4031095, "lon": 49.8079218}, {"type": "node", "id": 2832492229, "lat": 40.4032311, "lon": 49.8074802}, {"type": "node", "id": 2832492230, "lat": 40.4033109, "lon": 49.8079357}, {"type": "node", "id": 2832492231, "lat": 40.4033942, "lon": 49.8074668}, {"type": "node", "id": 3796879897, "lat": 40.3999813, "lon": 49.8086614}, {"type": "node", "id": 3796879908, "lat": 40.4000687, "lon": 49.8088029}, {"type": "node", "id": 3796879910, "lat": 40.4000775, "lon": 49.8090585}, {"type": "node", "id": 3796879935, "lat": 40.4003831, "lon": 49.8088818}, {"type": "node", "id": 3820583289, "lat": 40.402946, "lon": 49.8080252}, {"type": "node", "id": 9727718503, "lat": 40.4060495, "lon": 49.8134295}, {"type": "node", "id": 9727718504, "lat": 40.4060842, "lon": 49.8134793}, {"type": "node", "id": 9727718505, "lat": 40.4061083, "lon": 49.8135388}, {"type": "node", "id": 9727718506, "lat": 40.4061205, "lon": 49.8136044}, {"type": "node", "id": 9727718507, "lat": 40.4061198, "lon": 49.8136718}, {"type": "node", "id": 9727718508, "lat": 40.4061064, "lon": 49.8137369}, {"type": "node", "id": 9727718509, "lat": 40.4060811, "lon": 49.8137956}, {"type": "node", "id": 9727718510, "lat": 40.4060455, "lon": 49.8138442}, {"type": "node", "id": 9727718511, "lat": 40.4060017, "lon": 49.8138796}, {"type": "node", "id": 9727718512, "lat": 40.4059527, "lon": 49.8138996}, {"type": "node", "id": 9727718513, "lat": 40.4059014, "lon": 49.813903}, {"type": "node", "id": 9727718514, "lat": 40.4058511, "lon": 49.8138895}, {"type": "node", "id": 9727718515, "lat": 40.4058049, "lon": 49.81386}, {"type": "node", "id": 9727718516, "lat": 40.4057657, "lon": 49.8138163}, {"type": "node", "id": 9727776817, "lat": 40.4057361, "lon": 49.8137612}, {"type": "node", "id": 9727776818, "lat": 40.4057178, "lon": 49.8136982}, {"type": "node", "id": 9727776819, "lat": 40.405712, "lon": 49.8136312}, {"type": "node", "id": 9727776820, "lat": 40.4057191, "lon": 49.8135644}, {"type": "node", "id": 9727776821, "lat": 40.4057386, "lon": 49.813502}, {"type": "node", "id": 9727776822, "lat": 40.4057693, "lon": 49.8134479}, {"type": "node", "id": 9727776823, "lat": 40.4058093, "lon": 49.8134056}, {"type": "node", "id": 9727776824, "lat": 40.4058561, "lon": 49.8133777}, {"type": "node", "id": 9727776825, "lat": 40.4059066, "lon": 49.8133659}, {"type": "node", "id": 9727776826, "lat": 40.4059579, "lon": 49.813371}, {"type": "node", "id": 9727776827, "lat": 40.4060065, "lon": 49.8133927}, {"type": "node", "id": 9727776891, "lat": 40.4031944, "lon": 49.8086885}, {"type": "node", "id": 9727776892, "lat": 40.4032373, "lon": 49.8088521}, {"type": "node", "id": 9727776893, "lat": 40.4039828, "lon": 49.8099223}, {"type": "node", "id": 9727776894, "lat": 40.4040747, "lon": 49.8102441}, {"type": "node", "id": 9727776895, "lat": 40.4044539, "lon": 49.8100752}, {"type": "node", "id": 12736234733, "lat": 40.4049951, "lon": 49.8114784}, {"type": "node", "id": 12736234734, "lat": 40.4052217, "lon": 49.8122132}, {"type": "node", "id": 12736234735, "lat": 40.4050848, "lon": 49.8125322}, {"type": "node", "id": 12736234736, "lat": 40.4050153, "lon": 49.8129311}, {"type": "node", "id": 12736234737, "lat": 40.4048512, "lon": 49.8130291}, {"type": "node", "id": 12736234738, "lat": 40.4046799, "lon": 49.8126409}, {"type": "node", "id": 12736234739, "lat": 40.4046075, "lon": 49.8125133}, {"type": "node", "id": 12736234740, "lat": 40.4047989, "lon": 49.8116508}, {"type": "node", "id": 2060745177, "lat": 40.4058235, "lon": 49.8148537}, {"type": "node", "id": 2060745179, "lat": 40.4059352, "lon": 49.8153736}, {"type": "node", "id": 3904456344, "lat": 40.4055808, "lon": 49.8152232}, {"type": "node", "id": 3904456660, "lat": 40.4057524, "lon": 49.8153973}, {"type": "node", "id": 886108453, "lat": 40.4099683, "lon": 49.8138316}, {"type": "node", "id": 886108456, "lat": 40.4073402, "lon": 49.8136746}, {"type": "node", "id": 886108458, "lat": 40.4075026, "lon": 49.8136585}, {"type": "node", "id": 886108459, "lat": 40.4080979, "lon": 49.813751}, {"type": "node", "id": 886108460, "lat": 40.4081429, "lon": 49.8135495}, {"type": "node", "id": 2048333479, "lat": 40.4127629, "lon": 49.8087609}, {"type": "node", "id": 2048333502, "lat": 40.4126629, "lon": 49.8084162}, {"type": "node", "id": 2048333512, "lat": 40.4127854, "lon": 49.8088789}, {"type": "node", "id": 2048333515, "lat": 40.4127486, "lon": 49.8087984}, {"type": "node", "id": 2048333519, "lat": 40.4126511, "lon": 49.8084716}, {"type": "node", "id": 2048333523, "lat": 40.4126722, "lon": 49.8084873}, {"type": "node", "id": 2048333531, "lat": 40.412767, "lon": 49.8088709}, {"type": "node", "id": 2048333535, "lat": 40.4127506, "lon": 49.808844}, {"type": "node", "id": 2048333537, "lat": 40.4126491, "lon": 49.8084336}, {"type": "node", "id": 2060737395, "lat": 40.4066851, "lon": 49.813401}, {"type": "node", "id": 2060739693, "lat": 40.4083445, "lon": 49.8134915}, {"type": "node", "id": 2060739694, "lat": 40.4096049, "lon": 49.8137152}, {"type": "node", "id": 2060739695, "lat": 40.4090041, "lon": 49.8135586}, {"type": "node", "id": 2060739696, "lat": 40.4081702, "lon": 49.8134684}, {"type": "node", "id": 2060739697, "lat": 40.4083206, "lon": 49.8135215}, {"type": "node", "id": 2060739698, "lat": 40.4095182, "lon": 49.8137369}, {"type": "node", "id": 2060739699, "lat": 40.4087675, "lon": 49.8136024}, {"type": "node", "id": 3904456742, "lat": 40.4063823, "lon": 49.8132534}, {"type": "node", "id": 3904456750, "lat": 40.4064516, "lon": 49.8134483}, {"type": "node", "id": 3904456870, "lat": 40.4066599, "lon": 49.8135174}, {"type": "node", "id": 3904459398, "lat": 40.4064759, "lon": 49.8131078}, {"type": "node", "id": 3904459399, "lat": 40.4065773, "lon": 49.8133336}, {"type": "node", "id": 5227151584, "lat": 40.4077491, "lon": 49.8137083}, {"type": "node", "id": 9727882756, "lat": 40.4085307, "lon": 49.8135403}, {"type": "node", "id": 9727882847, "lat": 40.4073191, "lon": 49.813723}, {"type": "node", "id": 9727882881, "lat": 40.4065306, "lon": 49.8134745}, {"type": "node", "id": 9915434724, "lat": 40.4126595, "lon": 49.8084823}, {"type": "node", "id": 9915434725, "lat": 40.4126475, "lon": 49.8084575}, {"type": "node", "id": 9915435382, "lat": 40.4125577, "lon": 49.8103528}, {"type": "node", "id": 10748654626, "lat": 40.4097413, "lon": 49.8087912}, {"type": "node", "id": 10748654627, "lat": 40.4096714, "lon": 49.8089316}, {"type": "node", "id": 10748654628, "lat": 40.4093488, "lon": 49.8086356}, {"type": "node", "id": 10748654629, "lat": 40.4094324, "lon": 49.8084927}, {"type": "node", "id": 11296396684, "lat": 40.4107247, "lon": 49.8138919}, {"type": "node", "id": 11296396685, "lat": 40.4107983, "lon": 49.8135218}, {"type": "node", "id": 11296396686, "lat": 40.4107513, "lon": 49.8126528}, {"type": "node", "id": 11296396687, "lat": 40.4111087, "lon": 49.8127708}, {"type": "node", "id": 11298182614, "lat": 40.4107678, "lon": 49.8120423}, {"type": "node", "id": 11298182618, "lat": 40.4107017, "lon": 49.8121479}, {"type": "node", "id": 11298182619, "lat": 40.4104739, "lon": 49.8121641}, {"type": "node", "id": 11298182620, "lat": 40.4104797, "lon": 49.8124142}, {"type": "node", "id": 11298182621, "lat": 40.4100668, "lon": 49.8122097}, {"type": "node", "id": 11298182622, "lat": 40.4101988, "lon": 49.8114444}, {"type": "node", "id": 11298182623, "lat": 40.4106468, "lon": 49.8113322}, {"type": "node", "id": 11298182624, "lat": 40.4106826, "lon": 49.811733}, {"type": "node", "id": 11385502850, "lat": 40.4103772, "lon": 49.8124226}, {"type": "node", "id": 11385502858, "lat": 40.4100932, "lon": 49.8123354}, {"type": "node", "id": 886108454, "lat": 40.4096205, "lon": 49.8146428}, {"type": "node", "id": 886108455, "lat": 40.4073014, "lon": 49.813936}, {"type": "node", "id": 2053363313, "lat": 40.4106285, "lon": 49.8146881}, {"type": "node", "id": 2053363314, "lat": 40.410543, "lon": 49.8142701}, {"type": "node", "id": 2053363315, "lat": 40.410426, "lon": 49.8148963}, {"type": "node", "id": 2053363316, "lat": 40.410104, "lon": 49.8141118}, {"type": "node", "id": 2053363317, "lat": 40.4104909, "lon": 49.8148451}, {"type": "node", "id": 2053363318, "lat": 40.4099947, "lon": 49.8147716}, {"type": "node", "id": 2053363319, "lat": 40.4103336, "lon": 49.8148908}, {"type": "node", "id": 2053363321, "lat": 40.4106553, "lon": 49.8144309}, {"type": "node", "id": 2053363322, "lat": 40.4104633, "lon": 49.814219}, {"type": "node", "id": 2053363324, "lat": 40.4106497, "lon": 49.8146606}, {"type": "node", "id": 8648302506, "lat": 40.4085803, "lon": 49.8155281}, {"type": "node", "id": 8648302507, "lat": 40.4083567, "lon": 49.8156139}, {"type": "node", "id": 8648302508, "lat": 40.4083914, "lon": 49.8154463}, {"type": "node", "id": 8648302509, "lat": 40.4085752, "lon": 49.8155026}, {"type": "node", "id": 9727882743, "lat": 40.4106767, "lon": 49.8145102}, {"type": "node", "id": 9727882744, "lat": 40.4106287, "lon": 49.8143627}, {"type": "node", "id": 9727882785, "lat": 40.4094058, "lon": 49.8145774}, {"type": "node", "id": 9727882805, "lat": 40.4089501, "lon": 49.8144386}, {"type": "node", "id": 9727882831, "lat": 40.4099109, "lon": 49.8141333}, {"type": "node", "id": 9727882832, "lat": 40.4097424, "lon": 49.8140837}, {"type": "node", "id": 9727882855, "lat": 40.4083806, "lon": 49.8142651}, {"type": "node", "id": 9727882857, "lat": 40.4106878, "lon": 49.815047}, {"type": "node", "id": 9727882858, "lat": 40.4106864, "lon": 49.8150681}, {"type": "node", "id": 9727882859, "lat": 40.4106799, "lon": 49.8150874}, {"type": "node", "id": 9727882860, "lat": 40.410669, "lon": 49.815103}, {"type": "node", "id": 9727882861, "lat": 40.4106548, "lon": 49.815113}, {"type": "node", "id": 9727882862, "lat": 40.4106389, "lon": 49.8151164}, {"type": "node", "id": 9727882863, "lat": 40.410623, "lon": 49.8151128}, {"type": "node", "id": 9727882864, "lat": 40.4106089, "lon": 49.8151027}, {"type": "node", "id": 9727882865, "lat": 40.410598, "lon": 49.8150871}, {"type": "node", "id": 9727882866, "lat": 40.4105916, "lon": 49.8150677}, {"type": "node", "id": 9727882867, "lat": 40.4105903, "lon": 49.8150466}, {"type": "node", "id": 9727882868, "lat": 40.4105943, "lon": 49.8150261}, {"type": "node", "id": 9727882869, "lat": 40.4106032, "lon": 49.8150085}, {"type": "node", "id": 9727882870, "lat": 40.4106159, "lon": 49.8149955}, {"type": "node", "id": 9727882871, "lat": 40.4106311, "lon": 49.8149887}, {"type": "node", "id": 9727882872, "lat": 40.4106473, "lon": 49.8149888}, {"type": "node", "id": 9727882873, "lat": 40.4106625, "lon": 49.8149957}, {"type": "node", "id": 9727882874, "lat": 40.4106751, "lon": 49.8150088}, {"type": "node", "id": 9727882875, "lat": 40.4106839, "lon": 49.8150265}, {"type": "node", "id": 9727882882, "lat": 40.4106757, "lon": 49.8145773}, {"type": "node", "id": 9727882883, "lat": 40.4103837, "lon": 49.8148964}, {"type": "node", "id": 11296396683, "lat": 40.4108963, "lon": 49.8139536}, {"type": "node", "id": 11298238890, "lat": 40.4103965, "lon": 49.814204}, {"type": "node", "id": 5615107353, "lat": 40.400411, "lon": 49.8231151}, {"type": "node", "id": 5615107354, "lat": 40.3998409, "lon": 49.8240827}, {"type": "node", "id": 5615107361, "lat": 40.4000274, "lon": 49.82251}, {"type": "node", "id": 5615107362, "lat": 40.400064, "lon": 49.8225454}, {"type": "node", "id": 5615107363, "lat": 40.3999772, "lon": 49.8227176}, {"type": "node", "id": 5666142592, "lat": 40.4003538, "lon": 49.8243447}, {"type": "node", "id": 5666142593, "lat": 40.4000618, "lon": 49.8247095}, {"type": "node", "id": 5666142594, "lat": 40.4001272, "lon": 49.824723}, {"type": "node", "id": 5666142595, "lat": 40.4001782, "lon": 49.8250529}, {"type": "node", "id": 5666142596, "lat": 40.4009197, "lon": 49.8251682}, {"type": "node", "id": 5666142597, "lat": 40.4012096, "lon": 49.8249134}, {"type": "node", "id": 5666142598, "lat": 40.4011321, "lon": 49.8247149}, {"type": "node", "id": 5666142599, "lat": 40.4009319, "lon": 49.8248812}, {"type": "node", "id": 9725362011, "lat": 40.401783, "lon": 49.8225475}, {"type": "node", "id": 9725362012, "lat": 40.4016329, "lon": 49.8225354}, {"type": "node", "id": 9725362013, "lat": 40.4013745, "lon": 49.8222899}, {"type": "node", "id": 9725362014, "lat": 40.4014808, "lon": 49.82207}, {"type": "node", "id": 9725362015, "lat": 40.4017289, "lon": 49.8222927}, {"type": "node", "id": 9725503455, "lat": 40.4001531, "lon": 49.8245403}, {"type": "node", "id": 9727682516, "lat": 40.4022385, "lon": 49.8219922}, {"type": "node", "id": 9727706717, "lat": 40.4021466, "lon": 49.8218983}, {"type": "node", "id": 9727706718, "lat": 40.402067, "lon": 49.822019}, {"type": "node", "id": 9727706719, "lat": 40.4018504, "lon": 49.8218071}, {"type": "node", "id": 9727706720, "lat": 40.4017381, "lon": 49.8220298}, {"type": "node", "id": 9727706721, "lat": 40.4022794, "lon": 49.8225501}, {"type": "node", "id": 9727706722, "lat": 40.4021078, "lon": 49.8227996}, {"type": "node", "id": 9727706723, "lat": 40.4018096, "lon": 49.8225287}, {"type": "node", "id": 9727706724, "lat": 40.4017647, "lon": 49.8222604}, {"type": "node", "id": 9727706725, "lat": 40.4015727, "lon": 49.82207}, {"type": "node", "id": 9727706726, "lat": 40.4018933, "lon": 49.8215121}, {"type": "node", "id": 9727706727, "lat": 40.4022835, "lon": 49.8219064}, {"type": "node", "id": 9727712492, "lat": 40.4010784, "lon": 49.8245296}, {"type": "node", "id": 9727712493, "lat": 40.4005595, "lon": 49.8240414}, {"type": "node", "id": 9727712494, "lat": 40.4006719, "lon": 49.8238268}, {"type": "node", "id": 9727712495, "lat": 40.4007413, "lon": 49.8238912}, {"type": "node", "id": 9727712496, "lat": 40.4008312, "lon": 49.8237196}, {"type": "node", "id": 9727712497, "lat": 40.4008966, "lon": 49.8237866}, {"type": "node", "id": 9727712498, "lat": 40.4007985, "lon": 49.8239985}, {"type": "node", "id": 9727712499, "lat": 40.4010069, "lon": 49.8241541}, {"type": "node", "id": 9727712500, "lat": 40.4011539, "lon": 49.8238859}, {"type": "node", "id": 9727712501, "lat": 40.4013664, "lon": 49.8239851}, {"type": "node", "id": 1614387829, "lat": 40.4004723, "lon": 49.8317615}, {"type": "node", "id": 1614387830, "lat": 40.4010613, "lon": 49.8315366}, {"type": "node", "id": 1614387832, "lat": 40.4009659, "lon": 49.8311034}, {"type": "node", "id": 1614387833, "lat": 40.4003758, "lon": 49.8313143}, {"type": "node", "id": 1992132795, "lat": 40.4118224, "lon": 49.8207378}, {"type": "node", "id": 1992132797, "lat": 40.4121098, "lon": 49.822152}, {"type": "node", "id": 1992132799, "lat": 40.4121969, "lon": 49.8221972}, {"type": "node", "id": 2002675494, "lat": 40.4040673, "lon": 49.8350081}, {"type": "node", "id": 2002675497, "lat": 40.4040838, "lon": 49.8350827}, {"type": "node", "id": 2002675500, "lat": 40.4041297, "lon": 49.8350652}, {"type": "node", "id": 2002675503, "lat": 40.4041763, "lon": 49.8354832}, {"type": "node", "id": 2002675504, "lat": 40.4041935, "lon": 49.8355608}, {"type": "node", "id": 2002675506, "lat": 40.4042185, "lon": 49.8354671}, {"type": "node", "id": 2002675511, "lat": 40.4042549, "lon": 49.8349366}, {"type": "node", "id": 2002675514, "lat": 40.4043774, "lon": 49.8354907}, {"type": "node", "id": 4084791572, "lat": 40.4018019, "lon": 49.8400766}, {"type": "node", "id": 4084805595, "lat": 40.4055806, "lon": 49.8394882}, {"type": "node", "id": 4084805597, "lat": 40.4056898, "lon": 49.8399657}, {"type": "node", "id": 4084805598, "lat": 40.4058165, "lon": 49.8393608}, {"type": "node", "id": 4084805600, "lat": 40.4059084, "lon": 49.8394936}, {"type": "node", "id": 4084805601, "lat": 40.4061136, "lon": 49.8397926}, {"type": "node", "id": 2763390230, "lat": 40.400606, "lon": 49.8444484}, {"type": "node", "id": 2763390235, "lat": 40.4007103, "lon": 49.8449169}, {"type": "node", "id": 2763390238, "lat": 40.4011551, "lon": 49.8447462}, {"type": "node", "id": 2763390251, "lat": 40.4010508, "lon": 49.8442776}, {"type": "node", "id": 4084791559, "lat": 40.401659, "lon": 49.8401356}, {"type": "node", "id": 4084791565, "lat": 40.4017105, "lon": 49.840363}, {"type": "node", "id": 4084791574, "lat": 40.4018545, "lon": 49.8403033}, {"type": "node", "id": 1420345181, "lat": 40.4119031, "lon": 49.8372322}, {"type": "node", "id": 1420345182, "lat": 40.4119523, "lon": 49.8374764}, {"type": "node", "id": 1420345183, "lat": 40.4117285, "lon": 49.8372928}, {"type": "node", "id": 1420345184, "lat": 40.4117777, "lon": 49.837537}, {"type": "node", "id": 2002311105, "lat": 40.4072422, "lon": 49.8359599}, {"type": "node", "id": 2002311107, "lat": 40.4076297, "lon": 49.8357005}, {"type": "node", "id": 2002311109, "lat": 40.4078282, "lon": 49.8365362}, {"type": "node", "id": 4084706113, "lat": 40.406268, "lon": 49.8398779}, {"type": "node", "id": 4084805602, "lat": 40.4062376, "lon": 49.8399315}, {"type": "node", "id": 4084814264, "lat": 40.4072267, "lon": 49.8358679}, {"type": "node", "id": 4084814265, "lat": 40.4072438, "lon": 49.8359412}, {"type": "node", "id": 4084814267, "lat": 40.4072594, "lon": 49.8358424}, {"type": "node", "id": 12287840405, "lat": 40.4077154, "lon": 49.8360615}, {"type": "node", "id": 12287840406, "lat": 40.4075603, "lon": 49.8362727}, {"type": "node", "id": 4041558505, "lat": 40.4127416, "lon": 49.8462125}, {"type": "node", "id": 2907083851, "lat": 40.4026538, "lon": 49.8498786}, {"type": "node", "id": 2907083852, "lat": 40.4027923, "lon": 49.850778}, {"type": "node", "id": 2907083853, "lat": 40.4041674, "lon": 49.8493937}, {"type": "node", "id": 2907083854, "lat": 40.4043563, "lon": 49.850204}, {"type": "node", "id": 3036980544, "lat": 40.4053201, "lon": 49.8505539}, {"type": "node", "id": 3036980556, "lat": 40.4056771, "lon": 49.850421}, {"type": "node", "id": 3036980558, "lat": 40.4057288, "lon": 49.8504018}, {"type": "node", "id": 3037003953, "lat": 40.4054208, "lon": 49.8510077}, {"type": "node", "id": 3037003997, "lat": 40.4060005, "lon": 49.8503006}, {"type": "node", "id": 3122220039, "lat": 40.401159, "lon": 49.8499571}, {"type": "node", "id": 3626679697, "lat": 40.4005033, "lon": 49.8496336}, {"type": "node", "id": 3626679704, "lat": 40.4008641, "lon": 49.8500285}, {"type": "node", "id": 3727199301, "lat": 40.4011785, "lon": 49.8504259}, {"type": "node", "id": 3727199304, "lat": 40.4012785, "lon": 49.8508742}, {"type": "node", "id": 3727199306, "lat": 40.4013122, "lon": 49.8510146}, {"type": "node", "id": 3727199307, "lat": 40.4013427, "lon": 49.8511206}, {"type": "node", "id": 3727199309, "lat": 40.4014042, "lon": 49.8503708}, {"type": "node", "id": 3727199314, "lat": 40.4014673, "lon": 49.8511466}, {"type": "node", "id": 3727199317, "lat": 40.4017068, "lon": 49.8511561}, {"type": "node", "id": 3727199318, "lat": 40.4041248, "lon": 49.8502973}, {"type": "node", "id": 3727199319, "lat": 40.4050292, "lon": 49.849148}, {"type": "node", "id": 3727199320, "lat": 40.4050824, "lon": 49.8498031}, {"type": "node", "id": 3727199321, "lat": 40.405603, "lon": 49.8495239}, {"type": "node", "id": 3727199322, "lat": 40.4057714, "lon": 49.8488749}, {"type": "node", "id": 9712379317, "lat": 40.4009732, "lon": 49.8500508}, {"type": "node", "id": 9712379318, "lat": 40.4004043, "lon": 49.8491576}, {"type": "node", "id": 9712379319, "lat": 40.4009427, "lon": 49.8489256}, {"type": "node", "id": 9723400482, "lat": 40.403897, "lon": 49.8494419}, {"type": "node", "id": 9723406068, "lat": 40.4047304, "lon": 49.8500079}, {"type": "node", "id": 9723406069, "lat": 40.4034865, "lon": 49.8505524}, {"type": "node", "id": 9723406070, "lat": 40.4032639, "lon": 49.8496458}, {"type": "node", "id": 9723406071, "lat": 40.4036969, "lon": 49.849501}, {"type": "node", "id": 9723406072, "lat": 40.4054534, "lon": 49.848994}, {"type": "node", "id": 3036980570, "lat": 40.4060938, "lon": 49.8540384}, {"type": "node", "id": 3036980648, "lat": 40.4076367, "lon": 49.8496916}, {"type": "node", "id": 3120160600, "lat": 40.4094685, "lon": 49.8476714}, {"type": "node", "id": 3120160602, "lat": 40.4094863, "lon": 49.8475544}, {"type": "node", "id": 3120160603, "lat": 40.4094928, "lon": 49.8478067}, {"type": "node", "id": 3120160604, "lat": 40.4095369, "lon": 49.8478851}, {"type": "node", "id": 3120160605, "lat": 40.4095435, "lon": 49.8474637}, {"type": "node", "id": 3120160606, "lat": 40.4096154, "lon": 49.8479366}, {"type": "node", "id": 3120160607, "lat": 40.4096192, "lon": 49.8473966}, {"type": "node", "id": 3120160608, "lat": 40.4097281, "lon": 49.8479461}, {"type": "node", "id": 3727200137, "lat": 40.4074842, "lon": 49.8482215}, {"type": "node", "id": 3727200143, "lat": 40.4075505, "lon": 49.8484828}, {"type": "node", "id": 3727200156, "lat": 40.4076159, "lon": 49.8487407}, {"type": "node", "id": 3727200158, "lat": 40.4076962, "lon": 49.8481446}, {"type": "node", "id": 3727200162, "lat": 40.4076817, "lon": 49.8484442}, {"type": "node", "id": 3727200165, "lat": 40.4078238, "lon": 49.8486999}, {"type": "node", "id": 3727200188, "lat": 40.4093348, "lon": 49.8477959}, {"type": "node", "id": 3727200195, "lat": 40.4093278, "lon": 49.847672}, {"type": "node", "id": 3727200197, "lat": 40.4093614, "lon": 49.8475168}, {"type": "node", "id": 3727200198, "lat": 40.4093804, "lon": 49.8479276}, {"type": "node", "id": 3727200199, "lat": 40.4094632, "lon": 49.848049}, {"type": "node", "id": 9723476549, "lat": 40.4084026, "lon": 49.8520571}, {"type": "node", "id": 9723476550, "lat": 40.4082066, "lon": 49.8521295}, {"type": "node", "id": 9723476551, "lat": 40.4076122, "lon": 49.8494849}, {"type": "node", "id": 9723476552, "lat": 40.4078042, "lon": 49.8494151}, {"type": "node", "id": 9749787639, "lat": 40.407745, "lon": 49.8486829}, {"type": "node", "id": 9749787640, "lat": 40.4076449, "lon": 49.8482591}, {"type": "node", "id": 11291713431, "lat": 40.4094774, "lon": 49.8477539}, {"type": "node", "id": 3036980585, "lat": 40.4062697, "lon": 49.8548309}, {"type": "node", "id": 3036980672, "lat": 40.4085711, "lon": 49.8539047}, {"type": "node", "id": 1328594148, "lat": 40.4133895, "lon": 49.8121523}, {"type": "node", "id": 1328594209, "lat": 40.4134527, "lon": 49.8120428}, {"type": "node", "id": 1328594236, "lat": 40.413995, "lon": 49.8127545}, {"type": "node", "id": 2038929222, "lat": 40.417702, "lon": 49.8119171}, {"type": "node", "id": 2038929225, "lat": 40.4177541, "lon": 49.8121534}, {"type": "node", "id": 2038929228, "lat": 40.4178171, "lon": 49.8119984}, {"type": "node", "id": 2038929231, "lat": 40.4176366, "lon": 49.8120692}, {"type": "node", "id": 2048333472, "lat": 40.4128671, "lon": 49.8088494}, {"type": "node", "id": 2048333475, "lat": 40.4128527, "lon": 49.808893}, {"type": "node", "id": 2048333481, "lat": 40.4129548, "lon": 49.8087984}, {"type": "node", "id": 2048333484, "lat": 40.4128665, "lon": 49.8088729}, {"type": "node", "id": 2048333505, "lat": 40.4128089, "lon": 49.8083371}, {"type": "node", "id": 2048333508, "lat": 40.412818, "lon": 49.8088923}, {"type": "node", "id": 2048333526, "lat": 40.4128086, "lon": 49.8088739}, {"type": "node", "id": 2048345388, "lat": 40.4132085, "lon": 49.8096882}, {"type": "node", "id": 2048345391, "lat": 40.4130031, "lon": 49.809057}, {"type": "node", "id": 2899722546, "lat": 40.4184509, "lon": 49.8104473}, {"type": "node", "id": 2899722547, "lat": 40.4185168, "lon": 49.8105306}, {"type": "node", "id": 2899722548, "lat": 40.4187909, "lon": 49.8099839}, {"type": "node", "id": 2899722549, "lat": 40.4188568, "lon": 49.8100672}, {"type": "node", "id": 3173142788, "lat": 40.4184248, "lon": 49.8112474}, {"type": "node", "id": 3173142789, "lat": 40.4186025, "lon": 49.8114751}, {"type": "node", "id": 3173142790, "lat": 40.4186701, "lon": 49.8113841}, {"type": "node", "id": 3173142791, "lat": 40.4184923, "lon": 49.8111564}, {"type": "node", "id": 3173148933, "lat": 40.4181902, "lon": 49.8117398}, {"type": "node", "id": 3173148934, "lat": 40.4182788, "lon": 49.8115271}, {"type": "node", "id": 3173148935, "lat": 40.4184362, "lon": 49.8116413}, {"type": "node", "id": 3173148936, "lat": 40.4183465, "lon": 49.8118544}, {"type": "node", "id": 3173163238, "lat": 40.4182358, "lon": 49.8116292}, {"type": "node", "id": 3173163239, "lat": 40.418242, "lon": 49.8117767}, {"type": "node", "id": 3174362121, "lat": 40.4192483, "lon": 49.8124779}, {"type": "node", "id": 3174362122, "lat": 40.4193359, "lon": 49.812563}, {"type": "node", "id": 3174362124, "lat": 40.4193223, "lon": 49.8123463}, {"type": "node", "id": 3219840124, "lat": 40.4148235, "lon": 49.8095738}, {"type": "node", "id": 3219840125, "lat": 40.4146334, "lon": 49.809033}, {"type": "node", "id": 3219840126, "lat": 40.4138684, "lon": 49.8094731}, {"type": "node", "id": 3219840127, "lat": 40.4139504, "lon": 49.8097084}, {"type": "node", "id": 3219840128, "lat": 40.4143347, "lon": 49.8094905}, {"type": "node", "id": 3219840129, "lat": 40.4143732, "lon": 49.8096057}, {"type": "node", "id": 3219840130, "lat": 40.4145275, "lon": 49.8095181}, {"type": "node", "id": 3219840131, "lat": 40.4145484, "lon": 49.8095709}, {"type": "node", "id": 3219840132, "lat": 40.4146241, "lon": 49.809524}, {"type": "node", "id": 3909068737, "lat": 40.4146735, "lon": 49.8095167}, {"type": "node", "id": 3909068738, "lat": 40.4147278, "lon": 49.8095262}, {"type": "node", "id": 6592847650, "lat": 40.416553, "lon": 49.8084106}, {"type": "node", "id": 6592847651, "lat": 40.4164699, "lon": 49.8084745}, {"type": "node", "id": 6592847652, "lat": 40.4168863, "lon": 49.8097247}, {"type": "node", "id": 6592847653, "lat": 40.416699, "lon": 49.8098405}, {"type": "node", "id": 6592847654, "lat": 40.4169497, "lon": 49.8105378}, {"type": "node", "id": 6592847655, "lat": 40.4177375, "lon": 49.8100389}, {"type": "node", "id": 9915434726, "lat": 40.4128357, "lon": 49.8088973}, {"type": "node", "id": 9915434732, "lat": 40.4138647, "lon": 49.8096836}, {"type": "node", "id": 9915434733, "lat": 40.4134062, "lon": 49.8099478}, {"type": "node", "id": 9915434734, "lat": 40.413347, "lon": 49.809768}, {"type": "node", "id": 9915434735, "lat": 40.4138065, "lon": 49.8095146}, {"type": "node", "id": 9915435361, "lat": 40.4132937, "lon": 49.8108814}, {"type": "node", "id": 9915435362, "lat": 40.4129293, "lon": 49.8101153}, {"type": "node", "id": 9915435380, "lat": 40.4133245, "lon": 49.8108543}, {"type": "node", "id": 9915435381, "lat": 40.413155, "lon": 49.8110032}, {"type": "node", "id": 9915435383, "lat": 40.4129712, "lon": 49.8100886}, {"type": "node", "id": 9915437687, "lat": 40.4138833, "lon": 49.8095159}, {"type": "node", "id": 9915437688, "lat": 40.4146475, "lon": 49.809073}, {"type": "node", "id": 9915458376, "lat": 40.4129946, "lon": 49.8098083}, {"type": "node", "id": 9915458377, "lat": 40.4127892, "lon": 49.8091771}, {"type": "node", "id": 11298182678, "lat": 40.4140321, "lon": 49.8126902}, {"type": "node", "id": 11298182679, "lat": 40.4140801, "lon": 49.8127332}, {"type": "node", "id": 11298182680, "lat": 40.4140229, "lon": 49.8128338}, {"type": "node", "id": 11298182681, "lat": 40.4139535, "lon": 49.8128539}, {"type": "node", "id": 11298182682, "lat": 40.4137115, "lon": 49.8127896}, {"type": "node", "id": 11298182683, "lat": 40.4136155, "lon": 49.8127292}, {"type": "node", "id": 11298182684, "lat": 40.4134634, "lon": 49.812575}, {"type": "node", "id": 11298182685, "lat": 40.4133184, "lon": 49.8123282}, {"type": "node", "id": 11298182686, "lat": 40.4133296, "lon": 49.8122223}, {"type": "node", "id": 11298182687, "lat": 40.4134276, "lon": 49.8120144}, {"type": "node", "id": 12408787660, "lat": 40.4190015, "lon": 49.8119756}, {"type": "node", "id": 12408787661, "lat": 40.4190544, "lon": 49.8120268}, {"type": "node", "id": 12408787662, "lat": 40.4191128, "lon": 49.8119195}, {"type": "node", "id": 12408787663, "lat": 40.4190599, "lon": 49.8118646}, {"type": "node", "id": 886179720, "lat": 40.4160923, "lon": 49.8158873}, {"type": "node", "id": 886179722, "lat": 40.4160463, "lon": 49.8159106}, {"type": "node", "id": 886179725, "lat": 40.4159361, "lon": 49.8158498}, {"type": "node", "id": 886179728, "lat": 40.4156931, "lon": 49.8157389}, {"type": "node", "id": 886179729, "lat": 40.4156472, "lon": 49.8156359}, {"type": "node", "id": 886179730, "lat": 40.415667, "lon": 49.8155266}, {"type": "node", "id": 886179733, "lat": 40.4158108, "lon": 49.8154562}, {"type": "node", "id": 886179740, "lat": 40.41599, "lon": 49.8156514}, {"type": "node", "id": 886179741, "lat": 40.4161119, "lon": 49.8157733}, {"type": "node", "id": 2037336895, "lat": 40.415727, "lon": 49.8154548}, {"type": "node", "id": 2045804922, "lat": 40.4157695, "lon": 49.8154464}, {"type": "node", "id": 2045804923, "lat": 40.4160687, "lon": 49.8159051}, {"type": "node", "id": 2045804924, "lat": 40.4161059, "lon": 49.8158608}, {"type": "node", "id": 2045804925, "lat": 40.4160972, "lon": 49.8157421}, {"type": "node", "id": 3115365916, "lat": 40.4156519, "lon": 49.8155791}, {"type": "node", "id": 3115365917, "lat": 40.4156556, "lon": 49.8156794}, {"type": "node", "id": 3115365918, "lat": 40.415666, "lon": 49.8157067}, {"type": "node", "id": 3115365919, "lat": 40.4156908, "lon": 49.8154814}, {"type": "node", "id": 3115365920, "lat": 40.4160727, "lon": 49.8157143}, {"type": "node", "id": 3115365921, "lat": 40.4161159, "lon": 49.8158038}, {"type": "node", "id": 3909082495, "lat": 40.417747, "lon": 49.8175974}, {"type": "node", "id": 3909082497, "lat": 40.4178718, "lon": 49.8172957}, {"type": "node", "id": 3909082498, "lat": 40.418164, "lon": 49.8176812}, {"type": "node", "id": 3909082499, "lat": 40.4181952, "lon": 49.8175155}, {"type": "node", "id": 3909082500, "lat": 40.4182604, "lon": 49.8177427}, {"type": "node", "id": 3909082501, "lat": 40.4182618, "lon": 49.8179644}, {"type": "node", "id": 3909082502, "lat": 40.4183086, "lon": 49.8178917}, {"type": "node", "id": 3909082503, "lat": 40.4183171, "lon": 49.8175844}, {"type": "node", "id": 3909082527, "lat": 40.4189496, "lon": 49.8183537}, {"type": "node", "id": 3909082537, "lat": 40.4190573, "lon": 49.8180743}, {"type": "node", "id": 9915310058, "lat": 40.4159145, "lon": 49.8155697}, {"type": "node", "id": 9915317417, "lat": 40.4161146, "lon": 49.8158325}, {"type": "node", "id": 9915317439, "lat": 40.4157215, "lon": 49.8157574}, {"type": "node", "id": 9915317440, "lat": 40.4157552, "lon": 49.8157702}, {"type": "node", "id": 9915317441, "lat": 40.415819, "lon": 49.8157869}, {"type": "node", "id": 9915317442, "lat": 40.415868, "lon": 49.8158104}, {"type": "node", "id": 9915317443, "lat": 40.4160227, "lon": 49.8159076}, {"type": "node", "id": 9915317444, "lat": 40.4159962, "lon": 49.8158935}, {"type": "node", "id": 9915317445, "lat": 40.4159477, "lon": 49.8156099}, {"type": "node", "id": 9915317446, "lat": 40.4158736, "lon": 49.8155107}, {"type": "node", "id": 9915317447, "lat": 40.4158435, "lon": 49.8154771}, {"type": "node", "id": 3115244446, "lat": 40.4216932, "lon": 49.8091868}, {"type": "node", "id": 3115244455, "lat": 40.4220102, "lon": 49.8099411}, {"type": "node", "id": 3115244457, "lat": 40.4221376, "lon": 49.8095588}, {"type": "node", "id": 3115244460, "lat": 40.4223454, "lon": 49.8101698}, {"type": "node", "id": 3115244462, "lat": 40.4224209, "lon": 49.8101946}, {"type": "node", "id": 3115244463, "lat": 40.4224676, "lon": 49.809924}, {"type": "node", "id": 3115244466, "lat": 40.4225248, "lon": 49.8099693}, {"type": "node", "id": 3115244470, "lat": 40.4228886, "lon": 49.810355}, {"type": "node", "id": 3115244471, "lat": 40.4229042, "lon": 49.8106793}, {"type": "node", "id": 3174362123, "lat": 40.41941, "lon": 49.8124315}, {"type": "node", "id": 3908999503, "lat": 40.4251351, "lon": 49.8134456}, {"type": "node", "id": 3908999506, "lat": 40.4252156, "lon": 49.8133316}, {"type": "node", "id": 3908999528, "lat": 40.4255877, "lon": 49.8138095}, {"type": "node", "id": 3909052791, "lat": 40.4204534, "lon": 49.8089005}, {"type": "node", "id": 3909052794, "lat": 40.4204703, "lon": 49.8087811}, {"type": "node", "id": 3909052813, "lat": 40.420786, "lon": 49.8091209}, {"type": "node", "id": 3909052814, "lat": 40.4208029, "lon": 49.8088196}, {"type": "node", "id": 3909052819, "lat": 40.4208337, "lon": 49.8090076}, {"type": "node", "id": 3909052824, "lat": 40.4209599, "lon": 49.8090865}, {"type": "node", "id": 3909052833, "lat": 40.4210631, "lon": 49.8088762}, {"type": "node", "id": 3909053063, "lat": 40.4235497, "lon": 49.8116035}, {"type": "node", "id": 3909053074, "lat": 40.4236664, "lon": 49.8114625}, {"type": "node", "id": 3909053081, "lat": 40.4237518, "lon": 49.8117494}, {"type": "node", "id": 3909053083, "lat": 40.4237869, "lon": 49.8116422}, {"type": "node", "id": 5064303858, "lat": 40.4222581, "lon": 49.813037}, {"type": "node", "id": 5064303859, "lat": 40.4223836, "lon": 49.813151}, {"type": "node", "id": 5064303860, "lat": 40.422303, "lon": 49.8132932}, {"type": "node", "id": 5064303861, "lat": 40.4221886, "lon": 49.8131577}, {"type": "node", "id": 886185420, "lat": 40.4232668, "lon": 49.8203645}, {"type": "node", "id": 886185434, "lat": 40.4232716, "lon": 49.8202897}, {"type": "node", "id": 886185436, "lat": 40.4228749, "lon": 49.8199285}, {"type": "node", "id": 886185447, "lat": 40.4227489, "lon": 49.8198541}, {"type": "node", "id": 886185450, "lat": 40.4226017, "lon": 49.8198282}, {"type": "node", "id": 886185455, "lat": 40.4207893, "lon": 49.8190934}, {"type": "node", "id": 2038879594, "lat": 40.4216948, "lon": 49.8196577}, {"type": "node", "id": 2038879595, "lat": 40.4220754, "lon": 49.8198122}, {"type": "node", "id": 2038879596, "lat": 40.4219651, "lon": 49.819677}, {"type": "node", "id": 2038879597, "lat": 40.421998, "lon": 49.8198157}, {"type": "node", "id": 2038879598, "lat": 40.4218034, "lon": 49.8195593}, {"type": "node", "id": 2047233112, "lat": 40.4207451, "lon": 49.8192207}, {"type": "node", "id": 2047233260, "lat": 40.4218654, "lon": 49.8201486}, {"type": "node", "id": 2047233475, "lat": 40.4220054, "lon": 49.8202207}, {"type": "node", "id": 2047233561, "lat": 40.4222359, "lon": 49.8203686}, {"type": "node", "id": 2047233679, "lat": 40.4225035, "lon": 49.8199685}, {"type": "node", "id": 2068574078, "lat": 40.4220321, "lon": 49.8165083}, {"type": "node", "id": 2068574081, "lat": 40.4223018, "lon": 49.816885}, {"type": "node", "id": 2068574084, "lat": 40.4224753, "lon": 49.8166706}, {"type": "node", "id": 2068574088, "lat": 40.4222055, "lon": 49.816294}, {"type": "node", "id": 2068575819, "lat": 40.4226651, "lon": 49.8169554}, {"type": "node", "id": 2068575821, "lat": 40.4224997, "lon": 49.8171626}, {"type": "node", "id": 2068575823, "lat": 40.4224791, "lon": 49.8166992}, {"type": "node", "id": 2068575825, "lat": 40.4223137, "lon": 49.8169063}, {"type": "node", "id": 3222840477, "lat": 40.4225742, "lon": 49.8171254}, {"type": "node", "id": 3222840478, "lat": 40.4227948, "lon": 49.8174257}, {"type": "node", "id": 3222840479, "lat": 40.422915, "lon": 49.8172732}, {"type": "node", "id": 3222840480, "lat": 40.4226945, "lon": 49.816973}, {"type": "node", "id": 3222841432, "lat": 40.421182, "lon": 49.8140334}, {"type": "node", "id": 3222841433, "lat": 40.4210921, "lon": 49.8141394}, {"type": "node", "id": 3222841434, "lat": 40.4210264, "lon": 49.8140432}, {"type": "node", "id": 3222841435, "lat": 40.4211163, "lon": 49.8139372}, {"type": "node", "id": 3908960343, "lat": 40.4254348, "lon": 49.8155241}, {"type": "node", "id": 3908960344, "lat": 40.425473, "lon": 49.8154185}, {"type": "node", "id": 3908960351, "lat": 40.4258872, "lon": 49.8157228}, {"type": "node", "id": 3908999518, "lat": 40.4254716, "lon": 49.813966}, {"type": "node", "id": 3909001551, "lat": 40.4258755, "lon": 49.8174036}, {"type": "node", "id": 3909001553, "lat": 40.4258823, "lon": 49.8175987}, {"type": "node", "id": 3909053098, "lat": 40.4255892, "lon": 49.8170671}, {"type": "node", "id": 3909053100, "lat": 40.4256922, "lon": 49.8169482}, {"type": "node", "id": 3909053110, "lat": 40.4258537, "lon": 49.817432}, {"type": "node", "id": 12356861158, "lat": 40.4221584, "lon": 49.8203189}, {"type": "node", "id": 13198749956, "lat": 40.425034, "lon": 49.8151927}, {"type": "node", "id": 13198749957, "lat": 40.4251454, "lon": 49.8153507}, {"type": "node", "id": 13198749958, "lat": 40.4251863, "lon": 49.8153012}, {"type": "node", "id": 13198749959, "lat": 40.425074, "lon": 49.8151453}, {"type": "node", "id": 1992132801, "lat": 40.4130247, "lon": 49.821522}, {"type": "node", "id": 1992132802, "lat": 40.4130672, "lon": 49.8218649}, {"type": "node", "id": 11910189554, "lat": 40.4182637, "lon": 49.8264585}, {"type": "node", "id": 11910189555, "lat": 40.418022, "lon": 49.8263067}, {"type": "node", "id": 11910189556, "lat": 40.417964, "lon": 49.8264662}, {"type": "node", "id": 11910189557, "lat": 40.4182057, "lon": 49.8266179}, {"type": "node", "id": 11910189558, "lat": 40.4181375, "lon": 49.8263793}, {"type": "node", "id": 11910189559, "lat": 40.4180813, "lon": 49.8265398}, {"type": "node", "id": 12144737640, "lat": 40.4166357, "lon": 49.8249473}, {"type": "node", "id": 12144737641, "lat": 40.4166679, "lon": 49.8249692}, {"type": "node", "id": 12144737642, "lat": 40.416615, "lon": 49.8250018}, {"type": "node", "id": 12144737643, "lat": 40.4166461, "lon": 49.8250225}, {"type": "node", "id": 886185415, "lat": 40.4240063, "lon": 49.8210044}, {"type": "node", "id": 886185418, "lat": 40.4236414, "lon": 49.8206873}, {"type": "node", "id": 2047233637, "lat": 40.4223993, "lon": 49.8205146}, {"type": "node", "id": 2047233774, "lat": 40.4224967, "lon": 49.8206498}, {"type": "node", "id": 2047233854, "lat": 40.4225818, "lon": 49.8208336}, {"type": "node", "id": 2047234181, "lat": 40.4239929, "lon": 49.8222697}, {"type": "node", "id": 2047234232, "lat": 40.4242902, "lon": 49.8219013}, {"type": "node", "id": 2047234286, "lat": 40.424318, "lon": 49.8220613}, {"type": "node", "id": 2047234366, "lat": 40.4243137, "lon": 49.8222311}, {"type": "node", "id": 2908998561, "lat": 40.4241479, "lon": 49.8222496}, {"type": "node", "id": 3908937662, "lat": 40.4240323, "lon": 49.8211151}, {"type": "node", "id": 3908937666, "lat": 40.4241258, "lon": 49.821355}, {"type": "node", "id": 3908937668, "lat": 40.4242408, "lon": 49.8216649}, {"type": "node", "id": 3908378401, "lat": 40.4258089, "lon": 49.8278324}, {"type": "node", "id": 3908378403, "lat": 40.4258536, "lon": 49.8282006}, {"type": "node", "id": 1808971921, "lat": 40.4307837, "lon": 49.8099763}, {"type": "node", "id": 1808971936, "lat": 40.4307217, "lon": 49.8088896}, {"type": "node", "id": 1808971939, "lat": 40.43088, "lon": 49.8099699}, {"type": "node", "id": 1808971943, "lat": 40.4304393, "lon": 49.8097587}, {"type": "node", "id": 1808971945, "lat": 40.4292541, "lon": 49.8082983}, {"type": "node", "id": 1808971949, "lat": 40.4291931, "lon": 49.808377}, {"type": "node", "id": 1808971950, "lat": 40.430837, "lon": 49.8088773}, {"type": "node", "id": 1808971951, "lat": 40.4285167, "lon": 49.8076236}, {"type": "node", "id": 2788058619, "lat": 40.4284044, "lon": 49.8074842}, {"type": "node", "id": 3820493800, "lat": 40.4306844, "lon": 49.8099358}, {"type": "node", "id": 3844481696, "lat": 40.4293891, "lon": 49.8084712}, {"type": "node", "id": 4168001325, "lat": 40.4295698, "lon": 49.8086893}, {"type": "node", "id": 4168001326, "lat": 40.4296074, "lon": 49.8088187}, {"type": "node", "id": 4168001328, "lat": 40.430689, "lon": 49.80806}, {"type": "node", "id": 4168001337, "lat": 40.4303866, "lon": 49.8074061}, {"type": "node", "id": 4168001338, "lat": 40.4303962, "lon": 49.8077038}, {"type": "node", "id": 4168001339, "lat": 40.4306204, "lon": 49.8076785}, {"type": "node", "id": 4168001340, "lat": 40.4306095, "lon": 49.8073861}, {"type": "node", "id": 4168001341, "lat": 40.4302789, "lon": 49.8077198}, {"type": "node", "id": 4168001342, "lat": 40.4302831, "lon": 49.8078411}, {"type": "node", "id": 4168001343, "lat": 40.4300785, "lon": 49.807848}, {"type": "node", "id": 4168001344, "lat": 40.4300743, "lon": 49.807728}, {"type": "node", "id": 4168001347, "lat": 40.4292701, "lon": 49.8074136}, {"type": "node", "id": 4168001348, "lat": 40.4294244, "lon": 49.8074008}, {"type": "node", "id": 2027518380, "lat": 40.4261297, "lon": 49.817564}, {"type": "node", "id": 2027518394, "lat": 40.4262193, "lon": 49.8174573}, {"type": "node", "id": 3908960356, "lat": 40.4259336, "lon": 49.8157568}, {"type": "node", "id": 3908961261, "lat": 40.4259649, "lon": 49.8158212}, {"type": "node", "id": 3908961263, "lat": 40.4259748, "lon": 49.8162709}, {"type": "node", "id": 3908961264, "lat": 40.4260671, "lon": 49.8161685}, {"type": "node", "id": 3909001557, "lat": 40.42593, "lon": 49.8173409}, {"type": "node", "id": 3909001560, "lat": 40.425945, "lon": 49.8175182}, {"type": "node", "id": 3909001566, "lat": 40.4260478, "lon": 49.8161892}, {"type": "node", "id": 3909001570, "lat": 40.4261058, "lon": 49.8175933}, {"type": "node", "id": 3909001573, "lat": 40.4261739, "lon": 49.8179907}, {"type": "node", "id": 3909001582, "lat": 40.4263334, "lon": 49.8176506}, {"type": "node", "id": 2907051095, "lat": 40.4367779, "lon": 49.809297}, {"type": "node", "id": 2907051096, "lat": 40.4368607, "lon": 49.8094683}, {"type": "node", "id": 2907051097, "lat": 40.4370431, "lon": 49.8090757}, {"type": "node", "id": 2907051098, "lat": 40.4371259, "lon": 49.809247}, {"type": "node", "id": 2907051100, "lat": 40.4375318, "lon": 49.8090062}, {"type": "node", "id": 2907052201, "lat": 40.4375353, "lon": 49.8089834}, {"type": "node", "id": 2907052202, "lat": 40.4375375, "lon": 49.8090281}, {"type": "node", "id": 2907052203, "lat": 40.4375469, "lon": 49.8089659}, {"type": "node", "id": 2907052204, "lat": 40.4375508, "lon": 49.8090434}, {"type": "node", "id": 2907052205, "lat": 40.4375636, "lon": 49.8089584}, {"type": "node", "id": 2907052206, "lat": 40.4375681, "lon": 49.809048}, {"type": "node", "id": 2907052208, "lat": 40.437581, "lon": 49.8089629}, {"type": "node", "id": 2907052209, "lat": 40.4375849, "lon": 49.8090405}, {"type": "node", "id": 2907052210, "lat": 40.4375943, "lon": 49.8089782}, {"type": "node", "id": 2907052211, "lat": 40.4375965, "lon": 49.809023}, {"type": "node", "id": 2907052212, "lat": 40.4376, "lon": 49.8090002}, {"type": "node", "id": 10288192566, "lat": 40.4363413, "lon": 49.807409}, {"type": "node", "id": 10288192567, "lat": 40.436033, "lon": 49.8074627}, {"type": "node", "id": 10295652171, "lat": 40.4367271, "lon": 49.8097385}, {"type": "node", "id": 10295652172, "lat": 40.4365577, "lon": 49.8093657}, {"type": "node", "id": 10295652173, "lat": 40.4371589, "lon": 49.8089392}, {"type": "node", "id": 10295652174, "lat": 40.4372385, "lon": 49.8091458}, {"type": "node", "id": 10292075810, "lat": 40.4365097, "lon": 49.8147422}, {"type": "node", "id": 10292075811, "lat": 40.4363362, "lon": 49.8147865}, {"type": "node", "id": 10292075812, "lat": 40.4361096, "lon": 49.8148093}, {"type": "node", "id": 10292075813, "lat": 40.4361126, "lon": 49.8147033}, {"type": "node", "id": 10292075814, "lat": 40.4361586, "lon": 49.814541}, {"type": "node", "id": 10292075815, "lat": 40.4361973, "lon": 49.8144042}, {"type": "node", "id": 10292075816, "lat": 40.4362617, "lon": 49.8143506}, {"type": "node", "id": 10292075817, "lat": 40.4364842, "lon": 49.8143037}, {"type": "node", "id": 10295711450, "lat": 40.4361355, "lon": 49.8146224}, {"type": "node", "id": 3908378430, "lat": 40.4264238, "lon": 49.8277055}, {"type": "node", "id": 3908378431, "lat": 40.4264733, "lon": 49.82808}, {"type": "node", "id": 3908378444, "lat": 40.4266856, "lon": 49.8286605}, {"type": "node", "id": 3908378446, "lat": 40.4267019, "lon": 49.8284458}, {"type": "node", "id": 3908378449, "lat": 40.4268269, "lon": 49.828679}, {"type": "node", "id": 3908378450, "lat": 40.4268433, "lon": 49.8284643}, {"type": "node", "id": 3908901504, "lat": 40.4266109, "lon": 49.8284352}, {"type": "node", "id": 3908901507, "lat": 40.4266817, "lon": 49.8287843}, {"type": "node", "id": 3908901540, "lat": 40.4269742, "lon": 49.8288153}, {"type": "node", "id": 3908901541, "lat": 40.4270088, "lon": 49.8285054}, {"type": "node", "id": 538808366, "lat": 40.4183302, "lon": 49.8389209}, {"type": "node", "id": 538808368, "lat": 40.4184772, "lon": 49.8396873}, {"type": "node", "id": 538808409, "lat": 40.4188958, "lon": 49.8373485}, {"type": "node", "id": 538808411, "lat": 40.4189497, "lon": 49.837166}, {"type": "node", "id": 2048078248, "lat": 40.4171058, "lon": 49.8366825}, {"type": "node", "id": 2048078264, "lat": 40.4174542, "lon": 49.8382341}, {"type": "node", "id": 2048078277, "lat": 40.4176606, "lon": 49.8381577}, {"type": "node", "id": 2048078280, "lat": 40.4176984, "lon": 49.8373199}, {"type": "node", "id": 2048078285, "lat": 40.4179292, "lon": 49.8374579}, {"type": "node", "id": 3042832105, "lat": 40.4179578, "lon": 49.8387188}, {"type": "node", "id": 3042832112, "lat": 40.4171656, "lon": 49.8364586}, {"type": "node", "id": 3042832119, "lat": 40.418362, "lon": 49.8383405}, {"type": "node", "id": 3042832122, "lat": 40.4185029, "lon": 49.8371816}, {"type": "node", "id": 3042832124, "lat": 40.4184944, "lon": 49.8374009}, {"type": "node", "id": 3042832126, "lat": 40.4186094, "lon": 49.8368091}, {"type": "node", "id": 3042832129, "lat": 40.4187256, "lon": 49.8383006}, {"type": "node", "id": 3042832131, "lat": 40.4187431, "lon": 49.8385297}, {"type": "node", "id": 3042832263, "lat": 40.4191738, "lon": 49.8384803}, {"type": "node", "id": 3042832270, "lat": 40.4190843, "lon": 49.8369509}, {"type": "node", "id": 3042832271, "lat": 40.4193177, "lon": 49.8388355}, {"type": "node", "id": 3042961341, "lat": 40.4175455, "lon": 49.8381974}, {"type": "node", "id": 3042961345, "lat": 40.4190926, "lon": 49.8386622}, {"type": "node", "id": 3042961346, "lat": 40.4192384, "lon": 49.8383358}, {"type": "node", "id": 3043032756, "lat": 40.4171273, "lon": 49.8368854}, {"type": "node", "id": 3043032760, "lat": 40.4172611, "lon": 49.837489}, {"type": "node", "id": 3043032785, "lat": 40.4177959, "lon": 49.8370463}, {"type": "node", "id": 3043032786, "lat": 40.417911, "lon": 49.8367694}, {"type": "node", "id": 3043042510, "lat": 40.4171309, "lon": 49.8366025}, {"type": "node", "id": 3043042511, "lat": 40.4174551, "lon": 49.8366523}, {"type": "node", "id": 3832233511, "lat": 40.4172582, "lon": 49.8401127}, {"type": "node", "id": 3835426135, "lat": 40.4158743, "lon": 49.8381131}, {"type": "node", "id": 3835426136, "lat": 40.4159109, "lon": 49.8382807}, {"type": "node", "id": 3835426137, "lat": 40.4160337, "lon": 49.8380531}, {"type": "node", "id": 3835426138, "lat": 40.4160702, "lon": 49.8382207}, {"type": "node", "id": 4370810588, "lat": 40.4185278, "lon": 49.8388935}, {"type": "node", "id": 4370810589, "lat": 40.4190863, "lon": 49.8388211}, {"type": "node", "id": 4370810590, "lat": 40.4192276, "lon": 49.8389486}, {"type": "node", "id": 4370810591, "lat": 40.4192158, "lon": 49.8397287}, {"type": "node", "id": 4370810592, "lat": 40.4186911, "lon": 49.8397146}, {"type": "node", "id": 4372629598, "lat": 40.4185985, "lon": 49.8397077}, {"type": "node", "id": 4372677696, "lat": 40.4191428, "lon": 49.8385497}, {"type": "node", "id": 8909752904, "lat": 40.417225, "lon": 49.8363903}, {"type": "node", "id": 9741781524, "lat": 40.4186167, "lon": 49.8367149}, {"type": "node", "id": 9741912318, "lat": 40.4187872, "lon": 49.8365808}, {"type": "node", "id": 9741912319, "lat": 40.4188586, "lon": 49.836114}, {"type": "node", "id": 9741912327, "lat": 40.418342, "lon": 49.83863}, {"type": "node", "id": 9742058083, "lat": 40.4174353, "lon": 49.8382343}, {"type": "node", "id": 2304098369, "lat": 40.4186255, "lon": 49.8435545}, {"type": "node", "id": 2304098372, "lat": 40.418857, "lon": 49.8431121}, {"type": "node", "id": 2304098373, "lat": 40.4188477, "lon": 49.8435625}, {"type": "node", "id": 2304098374, "lat": 40.4186343, "lon": 49.8431042}, {"type": "node", "id": 3039451942, "lat": 40.4183024, "lon": 49.8457576}, {"type": "node", "id": 3039451947, "lat": 40.4182874, "lon": 49.8452668}, {"type": "node", "id": 3039451958, "lat": 40.4183819, "lon": 49.8452327}, {"type": "node", "id": 3039451982, "lat": 40.4185681, "lon": 49.8432826}, {"type": "node", "id": 3039451983, "lat": 40.4185718, "lon": 49.8431019}, {"type": "node", "id": 3039451988, "lat": 40.418631, "lon": 49.8432849}, {"type": "node", "id": 3043032787, "lat": 40.4182036, "lon": 49.8452883}, {"type": "node", "id": 3043032788, "lat": 40.4182445, "lon": 49.8457777}, {"type": "node", "id": 3043032789, "lat": 40.4182868, "lon": 49.8459113}, {"type": "node", "id": 3043032790, "lat": 40.4185387, "lon": 49.8459698}, {"type": "node", "id": 3120161045, "lat": 40.4142583, "lon": 49.8456007}, {"type": "node", "id": 3120161050, "lat": 40.4143509, "lon": 49.8455762}, {"type": "node", "id": 3120161052, "lat": 40.4143611, "lon": 49.8461153}, {"type": "node", "id": 3120161063, "lat": 40.4144473, "lon": 49.8456125}, {"type": "node", "id": 3120161064, "lat": 40.4144962, "lon": 49.8460279}, {"type": "node", "id": 3120161069, "lat": 40.4145141, "lon": 49.8456942}, {"type": "node", "id": 3120161070, "lat": 40.414529, "lon": 49.8459644}, {"type": "node", "id": 3120161071, "lat": 40.4145366, "lon": 49.8457511}, {"type": "node", "id": 3120161072, "lat": 40.4145475, "lon": 49.8458053}, {"type": "node", "id": 3120161073, "lat": 40.4145488, "lon": 49.8458717}, {"type": "node", "id": 3126710614, "lat": 40.4145447, "lon": 49.8454777}, {"type": "node", "id": 3126710621, "lat": 40.4146279, "lon": 49.8455647}, {"type": "node", "id": 3126710623, "lat": 40.4146792, "lon": 49.8460023}, {"type": "node", "id": 3126710624, "lat": 40.4146644, "lon": 49.8456317}, {"type": "node", "id": 3126710625, "lat": 40.4146905, "lon": 49.8457079}, {"type": "node", "id": 3126710627, "lat": 40.4147032, "lon": 49.8458708}, {"type": "node", "id": 3126710628, "lat": 40.4147057, "lon": 49.8457905}, {"type": "node", "id": 3126711241, "lat": 40.4150612, "lon": 49.8452789}, {"type": "node", "id": 3126711247, "lat": 40.4151103, "lon": 49.8453242}, {"type": "node", "id": 3126711251, "lat": 40.4152086, "lon": 49.8457397}, {"type": "node", "id": 3126711255, "lat": 40.4151842, "lon": 49.8457983}, {"type": "node", "id": 3832233509, "lat": 40.4172105, "lon": 49.840314}, {"type": "node", "id": 3832233512, "lat": 40.4172733, "lon": 49.8406373}, {"type": "node", "id": 3832233513, "lat": 40.4174014, "lon": 49.8407758}, {"type": "node", "id": 3832233514, "lat": 40.4174089, "lon": 49.8403173}, {"type": "node", "id": 3832233515, "lat": 40.4174441, "lon": 49.8401721}, {"type": "node", "id": 3832233516, "lat": 40.4174441, "lon": 49.8404987}, {"type": "node", "id": 3832233522, "lat": 40.4175295, "lon": 49.840601}, {"type": "node", "id": 3832275938, "lat": 40.4163501, "lon": 49.8460232}, {"type": "node", "id": 3832275945, "lat": 40.4164008, "lon": 49.8462837}, {"type": "node", "id": 3832275974, "lat": 40.4166736, "lon": 49.8460446}, {"type": "node", "id": 3832275975, "lat": 40.4166994, "lon": 49.8461782}, {"type": "node", "id": 3832314401, "lat": 40.4133632, "lon": 49.8438219}, {"type": "node", "id": 3832314408, "lat": 40.413466, "lon": 49.844262}, {"type": "node", "id": 3832314429, "lat": 40.4136008, "lon": 49.8435957}, {"type": "node", "id": 3832314432, "lat": 40.4136248, "lon": 49.8437079}, {"type": "node", "id": 3832314442, "lat": 40.4137782, "lon": 49.8435296}, {"type": "node", "id": 3832314444, "lat": 40.4137997, "lon": 49.8423602}, {"type": "node", "id": 3832314452, "lat": 40.4138377, "lon": 49.8425807}, {"type": "node", "id": 3832314456, "lat": 40.4139, "lon": 49.844078}, {"type": "node", "id": 3832314472, "lat": 40.4144183, "lon": 49.8421342}, {"type": "node", "id": 3832314473, "lat": 40.4144637, "lon": 49.8423447}, {"type": "node", "id": 3835444722, "lat": 40.4174218, "lon": 49.8402644}, {"type": "node", "id": 4041558508, "lat": 40.413323, "lon": 49.8465577}, {"type": "node", "id": 7293438359, "lat": 40.4144803, "lon": 49.8456437}, {"type": "node", "id": 9747039721, "lat": 40.4145927, "lon": 49.8455165}, {"type": "node", "id": 9747039722, "lat": 40.4143956, "lon": 49.8455849}, {"type": "node", "id": 9747039723, "lat": 40.4144449, "lon": 49.8460815}, {"type": "node", "id": 9747039724, "lat": 40.4132599, "lon": 49.8462819}, {"type": "node", "id": 9747039725, "lat": 40.413203, "lon": 49.8460336}, {"type": "node", "id": 9747227819, "lat": 40.4160559, "lon": 49.8420525}, {"type": "node", "id": 9747227820, "lat": 40.416111, "lon": 49.842314}, {"type": "node", "id": 9747227821, "lat": 40.4161304, "lon": 49.8423529}, {"type": "node", "id": 9747227822, "lat": 40.4161835, "lon": 49.8423663}, {"type": "node", "id": 9747227823, "lat": 40.4162601, "lon": 49.8423462}, {"type": "node", "id": 9747227824, "lat": 40.4165103, "lon": 49.8422509}, {"type": "node", "id": 9747227825, "lat": 40.4164378, "lon": 49.8419116}, {"type": "node", "id": 9747227827, "lat": 40.4163982, "lon": 49.8421536}, {"type": "node", "id": 9747227828, "lat": 40.416162, "lon": 49.8422378}, {"type": "node", "id": 9747227829, "lat": 40.4161189, "lon": 49.8420291}, {"type": "node", "id": 9747227830, "lat": 40.4163551, "lon": 49.8419449}, {"type": "node", "id": 538808414, "lat": 40.4196425, "lon": 49.8379335}, {"type": "node", "id": 538808415, "lat": 40.4195738, "lon": 49.8381131}, {"type": "node", "id": 538808434, "lat": 40.4214131, "lon": 49.8387957}, {"type": "node", "id": 2225533567, "lat": 40.4255077, "lon": 49.8391569}, {"type": "node", "id": 2225533574, "lat": 40.4256216, "lon": 49.8389788}, {"type": "node", "id": 2225533576, "lat": 40.4255608, "lon": 49.8390443}, {"type": "node", "id": 3042832274, "lat": 40.4195085, "lon": 49.8389675}, {"type": "node", "id": 3042832283, "lat": 40.419869, "lon": 49.8390805}, {"type": "node", "id": 3042832284, "lat": 40.4198726, "lon": 49.8389804}, {"type": "node", "id": 3042832285, "lat": 40.4198766, "lon": 49.8380054}, {"type": "node", "id": 3042832286, "lat": 40.4202861, "lon": 49.83912}, {"type": "node", "id": 3042832287, "lat": 40.4199919, "lon": 49.8390882}, {"type": "node", "id": 3042832288, "lat": 40.4199958, "lon": 49.8389878}, {"type": "node", "id": 3042832289, "lat": 40.4200366, "lon": 49.8371925}, {"type": "node", "id": 3042832290, "lat": 40.420051, "lon": 49.8370947}, {"type": "node", "id": 3042832297, "lat": 40.4202907, "lon": 49.8380456}, {"type": "node", "id": 3042832318, "lat": 40.4208271, "lon": 49.8391302}, {"type": "node", "id": 3042832363, "lat": 40.4208317, "lon": 49.8386365}, {"type": "node", "id": 3042832378, "lat": 40.4211206, "lon": 49.8392754}, {"type": "node", "id": 3042832384, "lat": 40.4212349, "lon": 49.8389713}, {"type": "node", "id": 3042832385, "lat": 40.4212636, "lon": 49.8389063}, {"type": "node", "id": 3042832387, "lat": 40.4215661, "lon": 49.8384211}, {"type": "node", "id": 3042832392, "lat": 40.4216486, "lon": 49.8384786}, {"type": "node", "id": 3042961347, "lat": 40.4194634, "lon": 49.8385092}, {"type": "node", "id": 4297322819, "lat": 40.4227681, "lon": 49.8349576}, {"type": "node", "id": 4297322820, "lat": 40.4225894, "lon": 49.83522}, {"type": "node", "id": 4297322821, "lat": 40.4225168, "lon": 49.8351346}, {"type": "node", "id": 4297322822, "lat": 40.422476, "lon": 49.8351944}, {"type": "node", "id": 4297322823, "lat": 40.4223758, "lon": 49.8350767}, {"type": "node", "id": 4297322824, "lat": 40.4225952, "lon": 49.8347545}, {"type": "node", "id": 4372486717, "lat": 40.4199432, "lon": 49.8389843}, {"type": "node", "id": 7508663458, "lat": 40.4255117, "lon": 49.8396879}, {"type": "node", "id": 7508663459, "lat": 40.4257303, "lon": 49.8396656}, {"type": "node", "id": 7508663461, "lat": 40.425785, "lon": 49.8389422}, {"type": "node", "id": 8910270077, "lat": 40.4212647, "lon": 49.8393831}, {"type": "node", "id": 9741781519, "lat": 40.4201553, "lon": 49.8367202}, {"type": "node", "id": 9741781520, "lat": 40.4203187, "lon": 49.8367591}, {"type": "node", "id": 9741781557, "lat": 40.42155, "lon": 49.8369187}, {"type": "node", "id": 9741781560, "lat": 40.4223422, "lon": 49.837431}, {"type": "node", "id": 9741781561, "lat": 40.4218736, "lon": 49.8373022}, {"type": "node", "id": 9741781562, "lat": 40.421796, "lon": 49.8372687}, {"type": "node", "id": 9741781563, "lat": 40.4217266, "lon": 49.8371842}, {"type": "node", "id": 9741781564, "lat": 40.4216909, "lon": 49.8370957}, {"type": "node", "id": 9741781565, "lat": 40.4216848, "lon": 49.8369683}, {"type": "node", "id": 9741781566, "lat": 40.421743, "lon": 49.8368382}, {"type": "node", "id": 9741781567, "lat": 40.4217562, "lon": 49.8369858}, {"type": "node", "id": 9741781568, "lat": 40.4217787, "lon": 49.8370461}, {"type": "node", "id": 9741781569, "lat": 40.4218205, "lon": 49.8370971}, {"type": "node", "id": 9741781570, "lat": 40.4224199, "lon": 49.8372433}, {"type": "node", "id": 9741781571, "lat": 40.4214316, "lon": 49.837026}, {"type": "node", "id": 9741781572, "lat": 40.42126, "lon": 49.8371038}, {"type": "node", "id": 9741781573, "lat": 40.4211089, "lon": 49.8371279}, {"type": "node", "id": 9741781574, "lat": 40.4201329, "lon": 49.8368946}, {"type": "node", "id": 9741781575, "lat": 40.4203534, "lon": 49.8365325}, {"type": "node", "id": 9741781576, "lat": 40.4211702, "lon": 49.8368114}, {"type": "node", "id": 9741781577, "lat": 40.4212253, "lon": 49.8365808}, {"type": "node", "id": 9741781578, "lat": 40.4214071, "lon": 49.8365727}, {"type": "node", "id": 9741781579, "lat": 40.4216521, "lon": 49.8367685}, {"type": "node", "id": 9741883215, "lat": 40.4200553, "lon": 49.8362642}, {"type": "node", "id": 9741883216, "lat": 40.4201022, "lon": 49.836283}, {"type": "node", "id": 9741912317, "lat": 40.4200308, "lon": 49.8368892}, {"type": "node", "id": 9741912320, "lat": 40.4198082, "lon": 49.8363367}, {"type": "node", "id": 9741912321, "lat": 40.4199042, "lon": 49.8357305}, {"type": "node", "id": 9741912322, "lat": 40.4201063, "lon": 49.8357975}, {"type": "node", "id": 12779830061, "lat": 40.4194213, "lon": 49.8389072}, {"type": "node", "id": 13226883155, "lat": 40.4227418, "lon": 49.8349267}, {"type": "node", "id": 2225533565, "lat": 40.4257076, "lon": 49.8435822}, {"type": "node", "id": 2225533566, "lat": 40.4254333, "lon": 49.8422377}, {"type": "node", "id": 3043043143, "lat": 40.4253745, "lon": 49.846668}, {"type": "node", "id": 3043043146, "lat": 40.4254308, "lon": 49.8465431}, {"type": "node", "id": 3117106584, "lat": 40.4256153, "lon": 49.8408359}, {"type": "node", "id": 3117106618, "lat": 40.4257062, "lon": 49.8436365}, {"type": "node", "id": 7508490419, "lat": 40.4257172, "lon": 49.8431946}, {"type": "node", "id": 7508609253, "lat": 40.4254344, "lon": 49.8422026}, {"type": "node", "id": 7508609266, "lat": 40.425618, "lon": 49.8412192}, {"type": "node", "id": 7508609267, "lat": 40.4257192, "lon": 49.842245}, {"type": "node", "id": 7508609268, "lat": 40.4254348, "lon": 49.8421681}, {"type": "node", "id": 7508663389, "lat": 40.4256197, "lon": 49.8401554}, {"type": "node", "id": 7508663391, "lat": 40.4257335, "lon": 49.8401534}, {"type": "node", "id": 7508663392, "lat": 40.4256246, "lon": 49.8421572}, {"type": "node", "id": 7508663394, "lat": 40.4257205, "lon": 49.8430658}, {"type": "node", "id": 7508663550, "lat": 40.42572, "lon": 49.8427692}, {"type": "node", "id": 2048094549, "lat": 40.4150487, "lon": 49.8484066}, {"type": "node", "id": 2048094553, "lat": 40.4151834, "lon": 49.8483555}, {"type": "node", "id": 2048094554, "lat": 40.4151854, "lon": 49.8490285}, {"type": "node", "id": 2048094557, "lat": 40.41532, "lon": 49.8489775}, {"type": "node", "id": 4041558506, "lat": 40.4128434, "lon": 49.8467}, {"type": "node", "id": 535217956, "lat": 40.4253214, "lon": 49.8480668}, {"type": "node", "id": 535217960, "lat": 40.4252951, "lon": 49.8509742}, {"type": "node", "id": 535217978, "lat": 40.4255619, "lon": 49.8485604}, {"type": "node", "id": 2295438354, "lat": 40.4253513, "lon": 49.8491055}, {"type": "node", "id": 2295438355, "lat": 40.4252951, "lon": 49.8490886}, {"type": "node", "id": 2295438356, "lat": 40.4255694, "lon": 49.8480766}, {"type": "node", "id": 2908987330, "lat": 40.4255055, "lon": 49.8501351}, {"type": "node", "id": 2908987331, "lat": 40.4255176, "lon": 49.8494891}, {"type": "node", "id": 2908987338, "lat": 40.425718, "lon": 49.8501419}, {"type": "node", "id": 2908987340, "lat": 40.4257302, "lon": 49.849496}, {"type": "node", "id": 3043042738, "lat": 40.424101, "lon": 49.8487992}, {"type": "node", "id": 3043042741, "lat": 40.4241367, "lon": 49.8487728}, {"type": "node", "id": 3043042757, "lat": 40.4243298, "lon": 49.8486174}, {"type": "node", "id": 3043042760, "lat": 40.4243353, "lon": 49.8492905}, {"type": "node", "id": 3043042761, "lat": 40.424351, "lon": 49.8492037}, {"type": "node", "id": 3043042763, "lat": 40.4243564, "lon": 49.8486691}, {"type": "node", "id": 3043042766, "lat": 40.4244021, "lon": 49.8488653}, {"type": "node", "id": 3043042768, "lat": 40.4244098, "lon": 49.8487941}, {"type": "node", "id": 3043042769, "lat": 40.4244196, "lon": 49.8494133}, {"type": "node", "id": 3043042772, "lat": 40.4244991, "lon": 49.848833}, {"type": "node", "id": 3043042776, "lat": 40.4245785, "lon": 49.8498358}, {"type": "node", "id": 3043042778, "lat": 40.4246404, "lon": 49.8493944}, {"type": "node", "id": 3043042779, "lat": 40.4247089, "lon": 49.8487999}, {"type": "node", "id": 3043042786, "lat": 40.4248492, "lon": 49.8491387}, {"type": "node", "id": 3043042789, "lat": 40.4248842, "lon": 49.8488348}, {"type": "node", "id": 3043042791, "lat": 40.4248914, "lon": 49.8494443}, {"type": "node", "id": 3043042796, "lat": 40.4249234, "lon": 49.8495508}, {"type": "node", "id": 3043042797, "lat": 40.4249331, "lon": 49.849454}, {"type": "node", "id": 3043042799, "lat": 40.424937, "lon": 49.8491588}, {"type": "node", "id": 3043042801, "lat": 40.424968, "lon": 49.8484563}, {"type": "node", "id": 3043043149, "lat": 40.4256388, "lon": 49.8469885}, {"type": "node", "id": 3043043150, "lat": 40.4256772, "lon": 49.8469035}, {"type": "node", "id": 6942905676, "lat": 40.4255869, "lon": 49.8507442}, {"type": "node", "id": 9746040302, "lat": 40.4214316, "lon": 49.8477522}, {"type": "node", "id": 9746040303, "lat": 40.4210742, "lon": 49.8468885}, {"type": "node", "id": 9746040304, "lat": 40.4205555, "lon": 49.8472683}, {"type": "node", "id": 9746040306, "lat": 40.4209435, "lon": 49.8481652}, {"type": "node", "id": 9746040307, "lat": 40.4199123, "lon": 49.848986}, {"type": "node", "id": 9746040308, "lat": 40.4196367, "lon": 49.8483369}, {"type": "node", "id": 9746040309, "lat": 40.4195274, "lon": 49.8479399}, {"type": "node", "id": 9746040310, "lat": 40.4194447, "lon": 49.8474652}, {"type": "node", "id": 9746040311, "lat": 40.4203575, "lon": 49.8468107}, {"type": "node", "id": 535157158, "lat": 40.4287038, "lon": 49.8387895}, {"type": "node", "id": 535157159, "lat": 40.4300802, "lon": 49.8387205}, {"type": "node", "id": 535157164, "lat": 40.4291073, "lon": 49.8375753}, {"type": "node", "id": 535157166, "lat": 40.4281318, "lon": 49.8375593}, {"type": "node", "id": 535157167, "lat": 40.4275146, "lon": 49.8382837}, {"type": "node", "id": 535157168, "lat": 40.4278048, "lon": 49.8388863}, {"type": "node", "id": 1979028348, "lat": 40.4287953, "lon": 49.8398412}, {"type": "node", "id": 1979028350, "lat": 40.4286714, "lon": 49.8391761}, {"type": "node", "id": 1979028352, "lat": 40.4285655, "lon": 49.8387389}, {"type": "node", "id": 2225533558, "lat": 40.4260442, "lon": 49.838953}, {"type": "node", "id": 3032797915, "lat": 40.4294638, "lon": 49.8373568}, {"type": "node", "id": 3032797918, "lat": 40.4295442, "lon": 49.8373525}, {"type": "node", "id": 3032797920, "lat": 40.4300665, "lon": 49.8378968}, {"type": "node", "id": 3032797922, "lat": 40.4305918, "lon": 49.8381032}, {"type": "node", "id": 3032797923, "lat": 40.4307813, "lon": 49.8384245}, {"type": "node", "id": 3032797925, "lat": 40.431128, "lon": 49.8376128}, {"type": "node", "id": 3032797926, "lat": 40.4312883, "lon": 49.8379424}, {"type": "node", "id": 3115616466, "lat": 40.4275779, "lon": 49.8380156}, {"type": "node", "id": 3115616473, "lat": 40.4278707, "lon": 49.8376376}, {"type": "node", "id": 3115616475, "lat": 40.4276355, "lon": 49.8386491}, {"type": "node", "id": 3115616479, "lat": 40.4284888, "lon": 49.8375867}, {"type": "node", "id": 3115616482, "lat": 40.4288356, "lon": 49.8376174}, {"type": "node", "id": 3115616504, "lat": 40.4300837, "lon": 49.8376849}, {"type": "node", "id": 3115616510, "lat": 40.4303856, "lon": 49.8386626}, {"type": "node", "id": 3908914148, "lat": 40.4275532, "lon": 49.8384228}, {"type": "node", "id": 3908914150, "lat": 40.4277036, "lon": 49.8377899}, {"type": "node", "id": 3908914162, "lat": 40.4280277, "lon": 49.8391069}, {"type": "node", "id": 3908914177, "lat": 40.4281403, "lon": 49.8392188}, {"type": "node", "id": 3908914201, "lat": 40.4284006, "lon": 49.8375799}, {"type": "node", "id": 3908914220, "lat": 40.4287065, "lon": 49.8393271}, {"type": "node", "id": 3908914233, "lat": 40.4288532, "lon": 49.8393741}, {"type": "node", "id": 3908914269, "lat": 40.4299924, "lon": 49.8376734}, {"type": "node", "id": 3908914272, "lat": 40.4300196, "lon": 49.8373798}, {"type": "node", "id": 3908914274, "lat": 40.4300271, "lon": 49.8376777}, {"type": "node", "id": 3908914283, "lat": 40.4301083, "lon": 49.8380028}, {"type": "node", "id": 3908914287, "lat": 40.4303131, "lon": 49.8386763}, {"type": "node", "id": 3908914336, "lat": 40.4316194, "lon": 49.8348525}, {"type": "node", "id": 3908914345, "lat": 40.4317029, "lon": 49.8347091}, {"type": "node", "id": 3908914358, "lat": 40.4317635, "lon": 49.8350575}, {"type": "node", "id": 3908914363, "lat": 40.4317899, "lon": 49.8346676}, {"type": "node", "id": 3908914381, "lat": 40.4318948, "lon": 49.8346867}, {"type": "node", "id": 3908914390, "lat": 40.4320108, "lon": 49.8347987}, {"type": "node", "id": 7508663388, "lat": 40.4259949, "lon": 49.8399045}, {"type": "node", "id": 8909709721, "lat": 40.4275092, "lon": 49.8381834}, {"type": "node", "id": 12779830100, "lat": 40.4259422, "lon": 49.8389488}, {"type": "node", "id": 3117106637, "lat": 40.4259687, "lon": 49.8410415}, {"type": "node", "id": 7508495610, "lat": 40.4279331, "lon": 49.8450767}, {"type": "node", "id": 7508495611, "lat": 40.427846, "lon": 49.8451917}, {"type": "node", "id": 7508495612, "lat": 40.4279773, "lon": 49.8453899}, {"type": "node", "id": 7508495613, "lat": 40.4279941, "lon": 49.8451316}, {"type": "node", "id": 7508663393, "lat": 40.4260153, "lon": 49.8435893}, {"type": "node", "id": 7508663453, "lat": 40.4259313, "lon": 49.8425791}, {"type": "node", "id": 7508663454, "lat": 40.426035, "lon": 49.842586}, {"type": "node", "id": 7508663455, "lat": 40.4259553, "lon": 49.8416741}, {"type": "node", "id": 1979028634, "lat": 40.4353078, "lon": 49.8384104}, {"type": "node", "id": 1979028645, "lat": 40.4355933, "lon": 49.8386962}, {"type": "node", "id": 1979028594, "lat": 40.4350078, "lon": 49.8417388}, {"type": "node", "id": 1979028762, "lat": 40.4377156, "lon": 49.8421757}, {"type": "node", "id": 1979028772, "lat": 40.4378358, "lon": 49.8409486}, {"type": "node", "id": 3115638610, "lat": 40.4348178, "lon": 49.8438167}, {"type": "node", "id": 3115638611, "lat": 40.4350368, "lon": 49.8430301}, {"type": "node", "id": 3115638612, "lat": 40.4351201, "lon": 49.8430027}, {"type": "node", "id": 3115638614, "lat": 40.435638, "lon": 49.8442483}, {"type": "node", "id": 3115638615, "lat": 40.4356808, "lon": 49.843696}, {"type": "node", "id": 3115638616, "lat": 40.4357968, "lon": 49.8441483}, {"type": "node", "id": 3115638617, "lat": 40.4358477, "lon": 49.843864}, {"type": "node", "id": 10276527072, "lat": 40.4356584, "lon": 49.8441003}, {"type": "node", "id": 10278860907, "lat": 40.4335413, "lon": 49.8435518}, {"type": "node", "id": 10278860908, "lat": 40.4326379, "lon": 49.8431186}, {"type": "node", "id": 10278922309, "lat": 40.4326716, "lon": 49.8429805}, {"type": "node", "id": 10278922310, "lat": 40.433576, "lon": 49.8434284}, {"type": "node", "id": 11002048958, "lat": 40.4363844, "lon": 49.8419609}, {"type": "node", "id": 11002048960, "lat": 40.4376157, "lon": 49.8407276}, {"type": "node", "id": 535217965, "lat": 40.4262533, "lon": 49.850219}, {"type": "node", "id": 535217974, "lat": 40.4262834, "lon": 49.8486098}, {"type": "node", "id": 3043043152, "lat": 40.4260876, "lon": 49.8473377}, {"type": "node", "id": 3043043155, "lat": 40.4261822, "lon": 49.8471279}, {"type": "node", "id": 10288214782, "lat": 40.4400004, "lon": 49.8102961}, {"type": "node", "id": 10288214783, "lat": 40.4400077, "lon": 49.8106062}, {"type": "node", "id": 10288214784, "lat": 40.4403782, "lon": 49.8105969}, {"type": "node", "id": 10288214785, "lat": 40.440372, "lon": 49.8102813}, {"type": "node", "id": 10295636057, "lat": 40.4405762, "lon": 49.8320612}, {"type": "node", "id": 10295636058, "lat": 40.4401618, "lon": 49.8318574}, {"type": "node", "id": 10295636059, "lat": 40.4402659, "lon": 49.8314711}, {"type": "node", "id": 10295636060, "lat": 40.4406252, "lon": 49.8318788}, {"type": "node", "id": 10295645653, "lat": 40.4442006, "lon": 49.8284402}, {"type": "node", "id": 10295645654, "lat": 40.4439801, "lon": 49.8284496}, {"type": "node", "id": 10295645655, "lat": 40.4439791, "lon": 49.828341}, {"type": "node", "id": 10295645656, "lat": 40.4441955, "lon": 49.828333}, {"type": "node", "id": 10302993963, "lat": 40.4403129, "lon": 49.8319317}, {"type": "node", "id": 10286460592, "lat": 40.4409692, "lon": 49.8358525}, {"type": "node", "id": 10286460593, "lat": 40.4409978, "lon": 49.8363474}, {"type": "node", "id": 10286460594, "lat": 40.4410335, "lon": 49.8368879}, {"type": "node", "id": 10286460595, "lat": 40.4409988, "lon": 49.8369187}, {"type": "node", "id": 10286460596, "lat": 40.4406211, "lon": 49.8363501}, {"type": "node", "id": 10286460597, "lat": 40.4404946, "lon": 49.8360041}, {"type": "node", "id": 10286460598, "lat": 40.4403099, "lon": 49.8351766}, {"type": "node", "id": 10286460599, "lat": 40.4409671, "lon": 49.8349232}, {"type": "node", "id": 10276204597, "lat": 40.4414704, "lon": 49.8450901}, {"type": "node", "id": 10276204598, "lat": 40.4412754, "lon": 49.8455742}, {"type": "node", "id": 10276204599, "lat": 40.4413081, "lon": 49.8456064}, {"type": "node", "id": 10276204600, "lat": 40.4408559, "lon": 49.8465854}, {"type": "node", "id": 10276204601, "lat": 40.4407834, "lon": 49.8465867}, {"type": "node", "id": 10276204602, "lat": 40.4407681, "lon": 49.8453918}, {"type": "node", "id": 10276204603, "lat": 40.44096, "lon": 49.8453851}, {"type": "node", "id": 10276204604, "lat": 40.44096, "lon": 49.8452725}, {"type": "node", "id": 10276204605, "lat": 40.4410039, "lon": 49.8452711}, {"type": "node", "id": 10276204606, "lat": 40.4410059, "lon": 49.8450485}, {"type": "node", "id": 10276204607, "lat": 40.4414622, "lon": 49.8449948}, {"type": "node", "id": 10276252713, "lat": 40.4408151, "lon": 49.8465894}, {"type": "node", "id": 10295517547, "lat": 40.4442894, "lon": 49.844158}, {"type": "node", "id": 10295517548, "lat": 40.4440036, "lon": 49.8441982}, {"type": "node", "id": 10295517549, "lat": 40.4439812, "lon": 49.843187}, {"type": "node", "id": 10295517550, "lat": 40.4442057, "lon": 49.8431763}, {"type": "node", "id": 10295517551, "lat": 40.4442077, "lon": 49.8432755}, {"type": "node", "id": 10295517552, "lat": 40.4442812, "lon": 49.8432729}, {"type": "node", "id": 10302993937, "lat": 40.4403966, "lon": 49.8443913}, {"type": "node", "id": 10302993938, "lat": 40.4401486, "lon": 49.8443511}, {"type": "node", "id": 10302993939, "lat": 40.4401853, "lon": 49.8440802}, {"type": "node", "id": 10302993940, "lat": 40.4404282, "lon": 49.8441379}]}