{"version": 0.6, "generator": "Overpass API 0.7.62.8 e802775f", "osm3s": {"timestamp_osm_base": "2025-11-23T07:58:40Z", "copyright": "The data included in this document is from www.openstreetmap.org. The data is made available under ODbL."}, "elements": [{"type": "node", "id": 2099674520, "lat": 40.4203357, "lon": 49.8784033, "tags": {"tourism": "hotel"}}, {"type": "node", "id": 2896540654, "lat": 40.4073676, "lon": 49.8687026, "tags": {"amenity": "restaurant", "name": "151 Restoran-Bar"}}, {"type": "node", "id": 2943380003, "lat": 40.4000448, "lon": 49.8544567, "tags": {"amenity": "restaurant", "name": "Alsu Restoran\u0131"}}, {"type": "node", "id": 3037003781, "lat": 40.4050346, "lon": 49.8504731, "tags": {"amenity": "restaurant", "name": "Lal\u0259nd\u0259"}}, {"type": "node", "id": 3037852536, "lat": 40.4322492, "lon": 49.8536537, "tags": {"amenity": "cafe", "name": "Burjua"}}, {"type": "node", "id": 3037852540, "lat": 40.430063, "lon": 49.8540101, "tags": {"amenity": "cafe", "name": "G\u0259nclik"}}, {"type": "node", "id": 3037852542, "lat": 40.4263987, "lon": 49.853016, "tags": {"amenity": "cafe", "name": "H\u0259zz Klub"}}, {"type": "node", "id": 3037852544, "lat": 40.4284461, "lon": 49.8522137, "tags": {"amenity": "cafe", "name": "Korona"}}, {"type": "node", "id": 3037852547, "lat": 40.4266269, "lon": 49.8516299, "tags": {"amenity": "cafe", "name": "L\u0259zz\u0259t"}}, {"type": "node", "id": 3037852550, "lat": 40.4263568, "lon": 49.8543832, "tags": {"amenity": "cafe", "name": "Play Off"}}, {"type": "node", "id": 3037852618, "lat": 40.4289391, "lon": 49.8521296, "tags": {"amenity": "cafe"}}, {"type": "node", "id": 3118961806, "lat": 40.428673, "lon": 49.8769882, "tags": {"name": "Titanik Otel", "tourism": "hotel"}}, {"type": "node", "id": 3585864193, "lat": 40.4286996, "lon": 49.8970697, "tags": {"name": "Aristokrat Motel", "tourism": "motel"}}, {"type": "node", "id": 3602675506, "lat": 40.4274417, "lon": 49.8865574, "tags": {"name": "Biznes Palas", "tourism": "guest_house"}}, {"type": "node", "id": 3909305220, "lat": 40.4108697, "lon": 49.8536786, "tags": {"name": "Q\u0259l\u0259b\u0259 Park\u0131 \\ Bak\u0131", "tourism": "theme_park"}}, {"type": "node", "id": 4077032785, "lat": 40.4210583, "lon": 49.8789814, "tags": {"addr:housenumber": "12", "addr:street": "\u018fl\u0259sg\u0259r Qay\u0131bov", "amenity": "cafe", "name:en": "Vernisaj", "name:ru": "\u0412\u0435\u0440\u043d\u0438\u0441\u0430\u0436"}}, {"type": "node", "id": 4231757897, "lat": 40.4065102, "lon": 49.8706482, "tags": {"addr:street": "F\u0259t\u0259li Xan Xoyski k\u00fc\u00e7.", "amenity": "restaurant", "internet_access": "wlan", "name": "\"Qab\u0131r\u011fa\" Restoran\u0131"}}, {"type": "node", "id": 4231813590, "lat": 40.4043309, "lon": 49.874512, "tags": {"addr:street": "T\u0259briz k\u00fc\u00e7.", "amenity": "restaurant", "internet_access": "wlan", "name": "Ocakba\u015f\u0131 Resaurant \\ N\u0259rimanov"}}, {"type": "node", "id": 4267589689, "lat": 40.4029995, "lon": 49.8532408, "tags": {"tourism": "motel"}}, {"type": "node", "id": 4335030797, "lat": 40.4013472, "lon": 49.8703928, "tags": {"addr:housenumber": "13", "addr:street": "Mirz\u0259bala M\u0259mm\u0259dzad\u0259", "amenity": "cafe", "cuisine": "sandwich;international;tea;pasta;pizza;chicken;mexican;turkish", "diet:vegetarian": "yes", "internet_access": "wlan", "name": "Party Pizza", "opening_hours": "Mo-Su 11:00-23:00", "phone": "+994 12 567 07 66"}}, {"type": "node", "id": 4340379889, "lat": 40.4268985, "lon": 49.8519808, "tags": {"amenity": "cafe", "name": "billur cay evi", "name:en": "Billur \u00c7ay Evi"}}, {"type": "node", "id": 4369442007, "lat": 40.4003351, "lon": 49.8809292, "tags": {"amenity": "marketplace", "name": "Kosmos", "name:en": "Cosmos", "name:ru": "\u041a\u043e\u0441\u043c\u043e\u0441", "name:tr": "Kosmos"}}, {"type": "node", "id": 4373221389, "lat": 40.4001415, "lon": 49.8518867, "tags": {"amenity": "cafe", "brand": "Starbucks", "brand:wikidata": "Q37158", "brand:wikipedia": "en:Starbucks", "cuisine": "coffee_shop", "internet_access": "wlan", "name": "Starbucks", "official_name": "Starbucks Coffee", "smoking": "no", "takeaway": "yes", "website": "http://starbucks.com"}}, {"type": "node", "id": 4423321090, "lat": 40.4089673, "lon": 49.8621556, "tags": {"addr:city": "Bak\u0131", "addr:housenumber": "12", "addr:street": "\u018fhm\u0259d R\u0259c\u0259bli k\u00fc\u00e7\u0259si", "brand": "Royal Hotel", "contact:email": "info@royalhotel.az", "contact:phone": "+994 12 4657501", "contact:website": "www.royalhotel.az", "internet_access": "yes", "internet_access:fee": "no", "name": "Royal Hotel", "name:ru": "\u0420\u043e\u044f\u043b \u0425\u043e\u0442\u0435\u043b", "opening_hours": "24/7", "tourism": "hotel"}}, {"type": "node", "id": 4443977489, "lat": 40.4035016, "lon": 49.8693791, "tags": {"addr:street": "\u018fhm\u0259d R\u0259c\u0259bli k\u00fc\u00e7.", "amenity": "cafe", "internet_access": "wlan"}}, {"type": "node", "id": 4446057675, "lat": 40.408355, "lon": 49.8606315, "tags": {"amenity": "cafe", "cuisine": "regional", "name": "Alibaba Nargile", "name:ru": "\u0410\u043b\u0438\u0431\u0430\u0431\u0430"}}, {"type": "node", "id": 4513809090, "lat": 40.4031409, "lon": 49.8510444, "tags": {"amenity": "restaurant", "name:tr": "Siesta"}}, {"type": "node", "id": 4533906094, "lat": 40.4327325, "lon": 49.8545655, "tags": {"addr:street": "Abay Kunanbayev k\u00fc\u00e7.", "amenity": "cafe", "internet_access": "wlan", "name": "313 \u00c7ay Evi"}}, {"type": "node", "id": 4588451389, "lat": 40.4059588, "lon": 49.8735153, "tags": {"name": "Empire Studio \\ Bak\u0131", "tourism": "artwork"}}, {"type": "node", "id": 4602748291, "lat": 40.4059374, "lon": 49.8726377, "tags": {"addr:postcode": "AZ1052", "addr:street": "Faiq Yusifov", "amenity": "restaurant", "internet_access": "wlan", "name": "Qo\u00e7 \u018ft Restoran\u0131"}}, {"type": "node", "id": 4613333493, "lat": 40.4015614, "lon": 49.8504842, "tags": {"addr:street": "F\u0259t\u0259li xan Xoyski k\u00fc\u00e7.", "amenity": "restaurant", "name:en": "Palla Bliss", "name:tr": "\u00d6zS\u00fct"}}, {"type": "node", "id": 4648051290, "lat": 40.4147211, "lon": 49.8580805, "tags": {"name:de": "Designer, Werbung", "name:en": "Reklam Led Monitor (+994 55) 390 2010", "name:ru": "\u0420\u0435\u043a\u043b\u0430\u043c\u043d\u044b\u0439 \u0430\u0433\u0435\u043d\u0442\u0441\u0442\u0432\u043e", "name:tr": "Reklam ajanda", "tourism": "artwork"}}, {"type": "node", "id": 4708340992, "lat": 40.4078192, "lon": 49.8740507, "tags": {"addr:street": "F\u0259t\u0259li Xan Xoyski k\u00fc\u00e7.", "amenity": "cafe", "name": "Muzey Kafe"}}, {"type": "node", "id": 4730308892, "lat": 40.4195378, "lon": 49.8535847, "tags": {"amenity": "restaurant", "internet_access": "wlan", "name": "Yuxa Restoran"}}, {"type": "node", "id": 4772434622, "lat": 40.4105688, "lon": 49.8687257, "tags": {"addr:city": "Baki", "addr:street": "Yusif V\u0259zir \u00c7\u0259m\u0259nz\u0259minli", "amenity": "restaurant", "name": "Pekin restoran"}}, {"type": "node", "id": 4788436321, "lat": 40.4027595, "lon": 49.8781553, "tags": {"amenity": "cafe", "name": "Shirin \u00e7ay"}}, {"type": "node", "id": 4836451923, "lat": 40.4112695, "lon": 49.8712676, "tags": {"amenity": "restaurant", "name": "Kuze restoran"}}, {"type": "node", "id": 4836451924, "lat": 40.4001507, "lon": 49.8709435, "tags": {"amenity": "restaurant", "name": "Dostlar Kafe \\ N\u0259rimanov"}}, {"type": "node", "id": 4836451925, "lat": 40.4003495, "lon": 49.8689052, "tags": {"amenity": "restaurant", "name": "Narimanov pub"}}, {"type": "node", "id": 4836466821, "lat": 40.4154073, "lon": 49.868728, "tags": {"amenity": "restaurant", "name": "S\u0259rin Restoran\u0131"}}, {"type": "node", "id": 4836466921, "lat": 40.4128954, "lon": 49.871078, "tags": {"amenity": "cafe"}}, {"type": "node", "id": 4856886123, "lat": 40.4040216, "lon": 49.8660015, "tags": {"amenity": "cafe", "name:en": "Halil \u0130brahim Sofras\u0131"}}, {"type": "node", "id": 4856886124, "lat": 40.4027362, "lon": 49.8501778, "tags": {"amenity": "cafe", "internet_access": "wlan", "name:en": "\u00d6zs\u00fct Kafe"}}, {"type": "node", "id": 4856886222, "lat": 40.4028094, "lon": 49.8505906, "tags": {"amenity": "cafe", "name:en": "Toro Steak House"}}, {"type": "node", "id": 4857064322, "lat": 40.4053939, "lon": 49.8756589, "tags": {"amenity": "restaurant", "name": "Rubai restoran"}}, {"type": "node", "id": 4857165521, "lat": 40.4048401, "lon": 49.8664462, "tags": {"amenity": "cafe", "name": "\u00c7i\u011f K\u00f6ft\u0259m", "name:en": "Chig Koftem"}}, {"type": "node", "id": 4857310422, "lat": 40.4079354, "lon": 49.8632632, "tags": {"amenity": "restaurant", "name:en": "Kefi den"}}, {"type": "node", "id": 4857311921, "lat": 40.4086891, "lon": 49.8651817, "tags": {"amenity": "cafe", "name:en": "Xal Xal Kafe"}}, {"type": "node", "id": 4869986221, "lat": 40.4035635, "lon": 49.8555966, "tags": {"amenity": "cafe", "name:en": "Q\u0131z\u0131l G\u00fcl"}}, {"type": "node", "id": 4871143821, "lat": 40.4079621, "lon": 49.8655244, "tags": {"amenity": "restaurant", "name:en": "\u015e\u0259ki Restoran\u0131"}}, {"type": "node", "id": 4871143822, "lat": 40.4041935, "lon": 49.8649974, "tags": {"addr:city": "Bak\u0131", "addr:housenumber": "95", "addr:street": "F\u0259t\u0259li Xan Xoyski pr.", "amenity": "cafe", "name": "Lal\u0259 Kafe"}}, {"type": "node", "id": 4915482222, "lat": 40.402653, "lon": 49.871551, "tags": {"amenity": "cafe", "name": "Togrul kafe \\ N\u0259rimanov"}}, {"type": "node", "id": 4915489021, "lat": 40.4082678, "lon": 49.8633307, "tags": {"addr:city": "Bak\u0131", "addr:housenumber": "18a", "addr:street": "\u018fhm\u0259d R\u0259c\u0259bli k\u00fc\u00e7\u0259si", "name": "Deluxe Hotel Bak\u0131, \u018fhm\u0259d R\u0259c\u0259bli k\u00fc\u00e7.", "name:az": "Deluxe Hotel Bak\u0131, \u018fhm\u0259d R\u0259c\u0259bli k\u00fc\u00e7.", "tourism": "hotel"}}, {"type": "node", "id": 4915489022, "lat": 40.4027339, "lon": 49.8684648, "tags": {"amenity": "cafe", "name": "\u015eah \u018ft", "shop": "butcher"}}, {"type": "node", "id": 4931442724, "lat": 40.4040865, "lon": 49.8707567, "tags": {"amenity": "cafe", "name": "City D\u00f6ner \\ N\u0259rimanov"}}, {"type": "node", "id": 4958329722, "lat": 40.4058909, "lon": 49.8756713, "tags": {"amenity": "restaurant", "name": "Avropa M\u0259tb\u0259xi (OV\u00c7ULAR)"}}, {"type": "node", "id": 4973515323, "lat": 40.403374, "lon": 49.8727357, "tags": {"amenity": "cafe", "branch": "6", "brand": "Gloria Jean's", "brand:wikidata": "Q2666365", "cuisine": "coffee_shop", "name": "Gloria Jean's", "official_name": "Gloria Jean's Coffees", "takeaway": "yes"}}, {"type": "node", "id": 4983714321, "lat": 40.4026006, "lon": 49.8626055, "tags": {"amenity": "cafe", "name:en": "Club 45"}}, {"type": "node", "id": 5030612621, "lat": 40.4041087, "lon": 49.8713926, "tags": {"addr:street": "A\u011fa Nem\u0259tulla k\u00fc\u00e7\u0259si", "amenity": "cafe", "cuisine": "turkish", "internet_access": "wlan", "name": "Baytantuni \\ N\u0259rimanov", "opening_hours": "24/7", "phone": "+994506910202;+994125140064"}}, {"type": "node", "id": 5061324425, "lat": 40.4179278, "lon": 49.8550112, "tags": {"addr:street": "S\u0259ttar B\u0259hlulzad\u0259 k\u00fc\u00e7\u0259si", "tourism": "motel"}}, {"type": "node", "id": 5126394621, "lat": 40.4197036, "lon": 49.8562945, "tags": {"amenity": "restaurant", "name": "\u015e\u0131r \u015e\u0131r Restoran"}}, {"type": "node", "id": 5212982922, "lat": 40.4054478, "lon": 49.8677856, "tags": {"amenity": "cafe", "name": "Saray Kafe \\ N\u0259rimanov"}}, {"type": "node", "id": 5213042021, "lat": 40.4053853, "lon": 49.8697209, "tags": {"amenity": "cafe", "name": "Coffeemania"}}, {"type": "node", "id": 5219241321, "lat": 40.4012213, "lon": 49.8627448, "tags": {"amenity": "cafe", "name:en": "Vinni"}}, {"type": "node", "id": 5313354121, "lat": 40.4070695, "lon": 49.8688791, "tags": {"internet_access": "wlan", "name": "Atrobat motel", "tourism": "hotel"}}, {"type": "node", "id": 5351559849, "lat": 40.4099798, "lon": 49.8662075, "tags": {"amenity": "cafe", "cuisine": "georgian", "name:en": "Borjomi", "name:ru": "\u0411\u043e\u0440\u0436\u043e\u043c\u0438"}}, {"type": "node", "id": 5404051221, "lat": 40.4054925, "lon": 49.8678774, "tags": {"addr:street": "F\u0259t\u0259li Xan Xoyski prospekti", "amenity": "cafe", "internet_access": "wlan", "name": "Kafe", "name:en": "Kristal 24saat", "opening_hours": "24/7"}}, {"type": "node", "id": 5453776823, "lat": 40.4074493, "lon": 49.8680312, "tags": {"amenity": "cafe", "name": "AA Lounge Karaoke"}}, {"type": "node", "id": 5542345121, "lat": 40.4149065, "lon": 49.8562396, "tags": {"name": "Stamperia Poliqraf", "name:en": "Stamperia Print", "tourism": "artwork"}}, {"type": "node", "id": 5580185321, "lat": 40.4101099, "lon": 49.8509395, "tags": {"name:en": "avr25471 kamran (fuad t)", "tourism": "apartment"}}, {"type": "node", "id": 5632685921, "lat": 40.4090898, "lon": 49.8616287, "tags": {"name:en": "ROYAL", "tourism": "hotel"}}, {"type": "node", "id": 5673381723, "lat": 40.4116119, "lon": 49.8606479, "tags": {"addr:city": "Baku", "addr:housenumber": "27", "addr:street": "\u018fhm\u0259d R\u0259c\u0259bli k\u00fc\u00e7\u0259si", "email": "info@ammarhotel.com", "internet_access": "wlan", "internet_access:fee": "no", "name": "Ammar Grand Hotel", "name:en": "Ammar Grand Hotel", "name:ru": "\u0410\u043c\u043c\u0430\u0440 \u0413\u0440\u0430\u043d\u0434 \u041e\u0442\u0435\u043b\u044c", "opening_hours": "24/7", "operator": "Mr. Raffael", "phone": "+994124648621", "rooms": "47", "smoking": "outside", "stars": "4", "tourism": "hotel", "website": "http://ammarhotel.com/en/"}}, {"type": "node", "id": 5695687112, "lat": 40.400182, "lon": 49.8619631, "tags": {"addr:housenumber": "3", "addr:street": "A\u015f\u0131q Al\u0131", "name:en": "Home", "tourism": "apartment"}}, {"type": "node", "id": 6018303485, "lat": 40.4089078, "lon": 49.8616671, "tags": {"tourism": "hotel"}}, {"type": "node", "id": 6025093025, "lat": 40.4073849, "lon": 49.8622944, "tags": {"name:en": "2 \u0431 1", "tourism": "apartment"}}, {"type": "node", "id": 6025218748, "lat": 40.4079579, "lon": 49.8722976, "tags": {"phone": "0854505294", "tourism": "apartment"}}, {"type": "node", "id": 6025219272, "lat": 40.4019684, "lon": 49.8751223, "tags": {"name": "2", "tourism": "apartment"}}, {"type": "node", "id": 6132165785, "lat": 40.4017391, "lon": 49.8591312, "tags": {"name:en": "Vostok Protection", "tourism": "apartment"}}, {"type": "node", "id": 6207504785, "lat": 40.4129768, "lon": 49.8577893, "tags": {"addr:street": "A\u015f\u0131q Molla Cum\u0259", "amenity": "cafe", "internet_access": "wlan", "name": "Minera Lounge"}}, {"type": "node", "id": 6352142785, "lat": 40.4098459, "lon": 49.8614637, "tags": {"addr:housenumber": "16", "addr:street": "\u018fhm\u0259d R\u0259c\u0259bli k\u00fc\u00e7\u0259si", "name:en": "Altus Hotel", "phone": "+994124047607", "tourism": "hotel", "website": "http://altushotelbaku.az"}}, {"type": "node", "id": 6406867613, "lat": 40.4054272, "lon": 49.8696792, "tags": {"addr:housenumber": "51", "addr:street": "A\u011fa Nem\u0259tulla k\u00fc\u00e7\u0259si", "amenity": "restaurant", "name": "\u018fjdaha d\u00f6n\u0259r \\ N\u0259rimanov"}}, {"type": "node", "id": 6455522285, "lat": 40.4191996, "lon": 49.8554297, "tags": {"internet_access": "wlan", "name": "Continental", "tourism": "hotel"}}, {"type": "node", "id": 6688531986, "lat": 40.40292, "lon": 49.8565596, "tags": {"addr:housenumber": "3a", "addr:street": "Koro\u011flu R\u0259himov k\u00fc\u00e7\u0259si", "amenity": "restaurant", "name:en": "Novbahar"}}, {"type": "node", "id": 6734213685, "lat": 40.4311082, "lon": 49.8925214, "tags": {"name:en": "Santral motel", "tourism": "hotel"}}, {"type": "node", "id": 6734213785, "lat": 40.4305686, "lon": 49.8925951, "tags": {"name": "Tikinti materiallar\u0131 d\u0259mir", "tourism": "hotel"}}, {"type": "node", "id": 6742069869, "lat": 40.4105007, "lon": 49.8687739, "tags": {"addr:city": "Baki", "addr:housenumber": "106", "addr:postcode": "1106", "addr:street": "Yusif V\u0259zir \u00c7\u0259m\u0259nz\u0259minli", "amenity": "restaurant", "cuisine": "arabic;indian;azerbaijan", "name": "Tendir Restoran", "name:en": "tandir restaurant", "opening_hours": "24/7", "phone": "+994 55 464 07 26"}}, {"type": "node", "id": 7011559885, "lat": 40.4075893, "lon": 49.8736286, "tags": {"amenity": "restaurant", "name": "M\u0259rasim zal\u0131"}}, {"type": "node", "id": 7165859085, "lat": 40.4102338, "lon": 49.8608063, "tags": {"addr:street": "\u018fhm\u0259d R\u0259c\u0259bli k\u00fc\u00e7\u0259si", "name:en": "Paridese Hotel Baku", "opening_hours": "24/7", "phone": "+994502560061", "tourism": "hotel"}}, {"type": "node", "id": 7706473786, "lat": 40.4385219, "lon": 49.8647964, "tags": {"name:en": "Tamet sexi \u015eaiq", "tourism": "caravan_site"}}, {"type": "node", "id": 7747604685, "lat": 40.4029593, "lon": 49.8528258, "tags": {"historic": "memorial"}}, {"type": "node", "id": 7966045451, "lat": 40.4056792, "lon": 49.8615304, "tags": {"historic": "memorial", "material": "bronze", "memorial": "statue", "name": "Albert Aqarunov heyk\u0259li", "name:en": "Statue of National Hero Albert Agarunov", "name:ru": "\u041f\u0430\u043c\u044f\u0442\u043d\u0438\u043a \u041d\u0430\u0446\u0438\u043e\u043d\u0430\u043b\u044c\u043d\u043e\u043c\u0443 \u0433\u0435\u0440\u043e\u044e \u0410\u043b\u044c\u0431\u0435\u0440\u0442\u0443 \u0410\u0433\u0430\u0440\u0443\u043d\u043e\u0432\u0443", "subject:wikidata": "Q4056681"}}, {"type": "node", "id": 7993298085, "lat": 40.41281, "lon": 49.8711479, "tags": {"addr:street": "\u018fliyar \u018fliyev", "amenity": "restaurant", "cuisine": "european", "diet:halal": "yes", "name": "114 Group Tea & Lounge", "opening_hours": "24/7"}}, {"type": "node", "id": 8328363517, "lat": 40.4043631, "lon": 49.8671315, "tags": {"addr:housenumber": "9", "addr:postcode": "AZ 1052", "addr:street": "\u018fhm\u0259d R\u0259c\u0259bli k\u00fc\u00e7\u0259si", "amenity": "restaurant", "name:en": "Confetti Lounge", "name:tr": "Confetti Baku", "opening_hours": "24/7", "phone": "+994552105607", "website": "https://www.instagram.com/confetti.baku"}}, {"type": "node", "id": 8448217184, "lat": 40.4017741, "lon": 49.8708487, "tags": {"addr:city": "Bak\u0131", "amenity": "cafe", "name": "\u0130stanbul", "outdoor_seating": "yes"}}, {"type": "node", "id": 8448217189, "lat": 40.4004223, "lon": 49.8726499, "tags": {"addr:city": "Bak\u0131", "addr:housenumber": "8A", "addr:postcode": "AZ1033", "addr:street": "Mirz\u0259bala M\u0259mm\u0259dzad\u0259", "amenity": "restaurant", "contact:facebook": "https://www.facebook.com/pg/Reverse-Restaurant-Baku-111434457021520/about/", "name": "Reverse", "phone": "+994 50 8904104"}}, {"type": "node", "id": 8843256381, "lat": 40.4032649, "lon": 49.8647051, "tags": {"amenity": "restaurant", "name": "Osmanl\u0131 D\u00f6n\u0259r"}}, {"type": "node", "id": 9395235330, "lat": 40.4141016, "lon": 49.8567644, "tags": {"name": "Lara Otel", "tourism": "hotel"}}, {"type": "node", "id": 9395235331, "lat": 40.4143783, "lon": 49.8560858, "tags": {"name": "Vegas Otel", "tourism": "hotel"}}, {"type": "node", "id": 9395237681, "lat": 40.4149583, "lon": 49.8564532, "tags": {"name": "Sekret Otel \\ Bak\u0131", "tourism": "motel"}}, {"type": "node", "id": 9395237695, "lat": 40.4167533, "lon": 49.8576334, "tags": {"amenity": "restaurant", "name": "Baku Music Hall \\ \u018fhm\u0259d R\u0259c\u0259bli k\u00fc\u00e7."}}, {"type": "node", "id": 9395237696, "lat": 40.4175456, "lon": 49.8569307, "tags": {"name": "Kontinental Otel", "name:en": "Continental Hotel", "tourism": "hotel"}}, {"type": "node", "id": 9395237706, "lat": 40.4160426, "lon": 49.8577622, "tags": {"amenity": "restaurant", "name": "Xan\u0259dan Etno Restoran"}}, {"type": "node", "id": 9400614439, "lat": 40.4262813, "lon": 49.8569314, "tags": {"amenity": "marketplace", "name": "Xudaf\u0259rin market"}}, {"type": "node", "id": 9590032047, "lat": 40.4050109, "lon": 49.8595562, "tags": {"addr:housenumber": "685", "addr:street": "H\u0259s\u0259n \u018fliyev k\u00fc\u00e7\u0259si", "amenity": "restaurant", "cuisine": "pizza", "name": "New York Pizza Baku"}}, {"type": "node", "id": 9712293965, "lat": 40.4022692, "lon": 49.8580237, "tags": {"historic": "memorial", "name": "Koro\u011flu R\u0259himov heyk\u0259li"}}, {"type": "node", "id": 9746943424, "lat": 40.4203126, "lon": 49.8536235, "tags": {"amenity": "restaurant", "name": "Konak Restoran"}}, {"type": "node", "id": 9746943425, "lat": 40.4200532, "lon": 49.8537093, "tags": {"name": "Metropolitan Hotel", "tourism": "hotel"}}, {"type": "node", "id": 9746943443, "lat": 40.4197714, "lon": 49.8538032, "tags": {"name": "Elit Hotel", "tourism": "hotel"}}, {"type": "node", "id": 9746943446, "lat": 40.4204739, "lon": 49.8524299, "tags": {"amenity": "restaurant", "name": "Vivace Restoran"}}, {"type": "node", "id": 9746943447, "lat": 40.4209701, "lon": 49.8520437, "tags": {"name": "Klier Otel", "tourism": "guest_house"}}, {"type": "node", "id": 9746943448, "lat": 40.4211089, "lon": 49.8513114, "tags": {"amenity": "restaurant", "name": "Ball\u0131 \u015eadl\u0131q Saray\u0131"}}, {"type": "node", "id": 9749794412, "lat": 40.4061437, "lon": 49.8559034, "tags": {"name": "\u0130qam\u0259tgah / G\u0259nclik", "tourism": "attraction"}}, {"type": "node", "id": 9752733123, "lat": 40.4200818, "lon": 49.862853, "tags": {"name": "Az\u0259ryol Motel", "tourism": "motel"}}, {"type": "node", "id": 9752733170, "lat": 40.4215408, "lon": 49.869694, "tags": {"name": "Assa Motel", "tourism": "motel"}}, {"type": "node", "id": 9752850861, "lat": 40.4236634, "lon": 49.8768246, "tags": {"amenity": "cafe", "name": "S\u00fcfr\u0259 Kafe"}}, {"type": "node", "id": 9755709425, "lat": 40.427355, "lon": 49.8890018, "tags": {"amenity": "restaurant", "name": "D\u0259rn\u0259g\u00fcl M\u0259rasim Evi"}}, {"type": "node", "id": 9757764341, "lat": 40.4304176, "lon": 49.8709077, "tags": {"amenity": "cafe", "name": "Nar \u00c7i\u00e7\u0259yi Kafe"}}, {"type": "node", "id": 9757954721, "lat": 40.4290619, "lon": 49.8748317, "tags": {"name": "Da\u011flar Motel", "tourism": "motel"}}, {"type": "node", "id": 9757954731, "lat": 40.4283616, "lon": 49.8767898, "tags": {"amenity": "restaurant", "name": "Titanik Restoran"}}, {"type": "node", "id": 9757995210, "lat": 40.431122, "lon": 49.8922983, "tags": {"name": "NRS Motel", "tourism": "motel"}}, {"type": "node", "id": 9758042401, "lat": 40.4276, "lon": 49.8804697, "tags": {"amenity": "cafe", "name": "\u015e\u0259ki Kafesi"}}, {"type": "node", "id": 9758074233, "lat": 40.4254765, "lon": 49.8666188, "tags": {"amenity": "restaurant", "name": "\u015e\u0131xmahmud Restoran"}}, {"type": "node", "id": 9758172124, "lat": 40.4262708, "lon": 49.8929367, "tags": {"amenity": "restaurant", "name": "Qab\u0131r\u011fz Restoran"}}, {"type": "node", "id": 9758172126, "lat": 40.4261911, "lon": 49.892588, "tags": {"amenity": "restaurant", "name": "Dostluq Restoran"}}, {"type": "node", "id": 9758172133, "lat": 40.4273397, "lon": 49.8910765, "tags": {"amenity": "restaurant", "name": "K\u0259hraba Restoran"}}, {"type": "node", "id": 9761553847, "lat": 40.4103561, "lon": 49.8606915, "tags": {"addr:city": "Baku", "addr:housenumber": "2/29", "addr:postcode": "AZ1075", "addr:street": "\u018fhm\u0259d R\u0259c\u0259bli k\u00fc\u00e7\u0259si", "amenity": "cafe", "cuisine": "coffee_shop", "internet_access": "wlan", "internet_access:fee": "customers", "name": "Sensum By Amapola", "opening_hours": "Mo-Su 09:00-21:00", "outdoor_seating": "yes", "phone": "+99455 208 84 51", "website": "www.sensum.az"}}, {"type": "node", "id": 9765268371, "lat": 40.4130774, "lon": 49.8979859, "tags": {"name": "Baku Tower", "office": "government", "tourism": "attraction"}}, {"type": "node", "id": 9765268377, "lat": 40.4115212, "lon": 49.8979738, "tags": {"name": "Avenue Hotel", "tourism": "motel"}}, {"type": "node", "id": 9768026932, "lat": 40.4066421, "lon": 49.886954, "tags": {"information": "office", "name": "Gilan Turizm", "tourism": "information"}}, {"type": "node", "id": 9768026937, "lat": 40.406971, "lon": 49.8866226, "tags": {"name": "Atrium Hotel \\ Bak\u0131", "tourism": "hotel"}}, {"type": "node", "id": 9873078398, "lat": 40.4113558, "lon": 49.8702545, "tags": {"amenity": "cafe", "name": "Kafe"}}, {"type": "node", "id": 10082719672, "lat": 40.4063803, "lon": 49.8757872, "tags": {"addr:city": "Bak\u0131", "addr:housenumber": "26", "addr:postcode": "AZ1052", "addr:street": "\u018fliyar \u018fliyev", "amenity": "restaurant", "internet_access": "wlan", "internet_access:fee": "no", "name": "Aynab\u0259nd Restaurant", "opening_hours": "Mo-Su 09:00-00:00"}}, {"type": "node", "id": 10131092668, "lat": 40.4258976, "lon": 49.8566433, "tags": {"historic": "memorial", "name": "Memorial Kompleksi \\ D\u0259rn\u0259g\u00fcl"}}, {"type": "node", "id": 10594157091, "lat": 40.4023956, "lon": 49.8751024, "tags": {"addr:city": "Bak\u0131", "addr:housenumber": "20", "addr:postcode": "AZ1033", "addr:street": "Nazim Hac\u0131yev", "amenity": "restaurant", "contact:facebook": "https://m.facebook.com/rustaveligeorgianresturant/posts/633520808417888/", "contact:instagram": "https://www.instagram.com/p/CSB6p_rAGL0/", "contact:phone": "+994 50 6000686", "cuisine": "georgian", "name": "Rustaveli Restoran"}}, {"type": "node", "id": 10689843405, "lat": 40.4195231, "lon": 49.8781678, "tags": {"name:en": "Rich Hotel Baku", "tourism": "hotel"}}, {"type": "node", "id": 10692744254, "lat": 40.4101895, "lon": 49.863284, "tags": {"addr:city": "Bak\u0131", "addr:housenumber": "156", "addr:street": "\u018fhm\u0259d R\u0259c\u0259bli k\u00fc\u00e7\u0259si", "amenity": "restaurant", "name": "\u00d6z Urfa Restoran\u0131"}}, {"type": "node", "id": 11002239446, "lat": 40.4055433, "lon": 49.8836911, "tags": {"name": "SOCAR Tower", "tourism": "attraction"}}, {"type": "node", "id": 11291753733, "lat": 40.4166114, "lon": 49.8792839, "tags": {"name": "Caspian Business Hotel \\ Bakmil", "tourism": "hotel"}}, {"type": "node", "id": 11336744271, "lat": 40.4014072, "lon": 49.878501, "tags": {"addr:street": "Heyd\u0259r \u018fliyev pr.", "amenity": "restaurant", "name": "G\u00fcn\u0259\u015f \u015eadl\u0131q Saray\u0131 \\ Bak\u0131"}}, {"type": "node", "id": 11375990369, "lat": 40.4041401, "lon": 49.8635529, "tags": {"name:en": "Fexri ev", "name:ru": "Fexri ev", "tourism": "apartment"}}, {"type": "node", "id": 11536512376, "lat": 40.4014292, "lon": 49.8703456, "tags": {"addr:city": "Bak\u0131", "addr:housenumber": "73", "addr:street": "Mirz\u0259bala M\u0259mm\u0259dzad\u0259", "amenity": "restaurant", "cuisine": "pizza;coffee_shop;sandwich;burger;pasta", "diet:halal": "yes", "diet:vegetarian": "yes", "internet_access": "yes", "internet_access:fee": "customers", "name": "Dodo Pizza", "opening_hours": "Mo-Su 10:00-22:00", "website": "https://dodopizza.az/"}}, {"type": "node", "id": 11751568669, "lat": 40.4055485, "lon": 49.8673048, "tags": {"addr:housenumber": "16a", "addr:postcode": "1052", "addr:street": "\u018fhm\u0259d R\u0259c\u0259bli k\u00fc\u00e7\u0259si", "amenity": "restaurant", "name": "Salam Baku Restoran", "opening_hours": "Mo-Su 09:30-02:00", "phone": "+994506001166"}}, {"type": "node", "id": 11758588328, "lat": 40.4005431, "lon": 49.8535579, "tags": {"addr:city": "Bak\u0131", "addr:housenumber": "14", "addr:street": "F\u0259t\u0259li Xan Xoyski pr.", "amenity": "cafe", "branch": "G\u0259nclik Mall", "branch:en": "Ganjlik Mall", "brand": "Costa", "brand:wikidata": "Q608845", "contact:instagram": "costacoffee_azerbaijan", "cuisine": "coffee_shop", "internet_access": "wlan", "internet_access:fee": "customers", "level": "1", "name": "Costa", "opening_hours": "Mo-Su 08:00-23:00", "outdoor_seating": "no", "takeaway": "yes"}}, {"type": "node", "id": 11867372169, "lat": 40.4000059, "lon": 49.8521829, "tags": {"information": "yes", "level": "1", "name:en": "Info Center", "tourism": "information"}}, {"type": "node", "id": 11881991963, "lat": 40.421123, "lon": 49.8516108, "tags": {"addr:city": "Bak\u00fc", "addr:housenumber": "C\u0259f\u0259r X\u0259ndan 3097", "addr:street": "C\u0259f\u0259r X\u0259ndan k\u00fc\u00e7\u0259si", "amenity": "restaurant", "cuisine": "turkish", "name": "Mey Hanem Baku", "phone": "+994 51 397 73 75"}}, {"type": "node", "id": 12025224841, "lat": 40.408672, "lon": 49.8601917, "tags": {"amenity": "cafe", "name": "Nax\u00e7\u0131van S\u00fcfr\u0259si"}}, {"type": "node", "id": 12025227137, "lat": 40.4080105, "lon": 49.8633452, "tags": {"amenity": "cafe", "name": "Ba\u015fkent Restoran", "website": "https://bashkent.az/"}}, {"type": "node", "id": 12405393304, "lat": 40.408028, "lon": 49.8608597, "tags": {"addr:city": "Bak\u0131", "addr:street": "Damc\u0131l\u0131 k\u00fc\u00e7.", "amenity": "restaurant", "name": "Bihter Baku", "opening_hours": "Mo-Su 19:00-01:00"}}, {"type": "node", "id": 12492425401, "lat": 40.4092948, "lon": 49.861527, "tags": {"amenity": "restaurant", "name": "Bombay Masala (West Shine Hotel)"}}, {"type": "node", "id": 12492425501, "lat": 40.4197568, "lon": 49.8562509, "tags": {"name": "Family Hotel", "tourism": "hotel"}}, {"type": "way", "id": 42799731, "nodes": [535217956, 2295438355, 2295438354, 535217960, 6942905676, 535217965, 535217974, 535217978, 2295438356, 535217956], "tags": {"leisure": "park"}}, {"type": "way", "id": 115500695, "nodes": [2977470853, 3648697126, 2977470854, 2977470856, 2977470858, 2977470860, 2977470863, 5913531689, 2977470864, 3648695983, 2977470862, 3648695982, 1304761812, 3648696206, 1304761775, 3274984685, 2977470853], "tags": {"leisure": "park", "name": "N\u0259rimanov park\u0131", "wikidata": "Q131277443", "wikimedia_commons": "Category:Narimanov Park (Baku)"}}, {"type": "way", "id": 135542787, "nodes": [1488575268, 1488575274, 1488575253, 1488575245, 1488575268], "tags": {"leisure": "park"}}, {"type": "way", "id": 148313077, "nodes": [1614211217, 1614211223, 1614211220, 1614211214, 1614211217], "tags": {"addr:city": "Bak\u0131", "addr:housenumber": "179", "addr:street": "T\u0259briz k\u00fc\u00e7.", "amenity": "restaurant", "building": "yes", "building:levels": "2", "height": "7", "name": "Mado Kafe"}}, {"type": "way", "id": 149593007, "nodes": [1625491340, 1625491343, 1625491353, 1625491361, 1625491356, 4446117062, 1625491340], "tags": {"addr:city": "Bak\u0131", "addr:housenumber": "18a", "addr:street": "\u018fhm\u0259d R\u0259c\u0259bli k\u00fc\u00e7\u0259si", "building": "yes", "name": "Deluxe Hotel Bak\u0131, \u018fhm\u0259d R\u0259c\u0259bli k\u00fc\u00e7.", "name:az": "Deluxe Hotel Bak\u0131, \u018fhm\u0259d R\u0259c\u0259bli k\u00fc\u00e7.", "tourism": "hotel"}}, {"type": "way", "id": 183412247, "nodes": [1937814658, 1937814670, 1937814654, 1937814661, 1937814660, 1937814656, 1937814651, 1937814657, 1937814667, 1937814649, 1937814658], "tags": {"addr:city": "Baki", "addr:street": "Yusif V\u0259zir \u00c7\u0259m\u0259nz\u0259minli", "amenity": "restaurant", "building": "yes", "building:levels": "2"}}, {"type": "way", "id": 189640922, "nodes": [2002311064, 4097577956, 2002311096, 4097578119, 2002311093, 4097577941, 2002311056, 2002311064], "tags": {"leisure": "park"}}, {"type": "way", "id": 248964286, "nodes": [2556695298, 9873086594, 2556695271, 2556695363, 2556695372, 2556695302, 2556695298], "tags": {"amenity": "marketplace", "building": "yes", "building:levels": "2", "name": "Ke\u015fl\u0259 Bazar\u0131"}}, {"type": "way", "id": 248970106, "nodes": [2556762488, 2556762570, 2556762507, 2556762529, 2556762488], "tags": {"leisure": "park"}}, {"type": "way", "id": 273317787, "nodes": [2781843328, 2781843331, 2781843334, 2781843337, 2781843341, 2781843344, 2781843346, 2781843350, 2781843353, 2781843356, 2781843358, 2781843302, 2781843312, 2781843316, 2781843319, 2781843321, 2781843324, 2781843307, 2781843309, 2781843328], "tags": {"landuse": "grass", "name": "\u015e\u0259ki Dair\u0259si", "tourism": "attraction"}}, {"type": "way", "id": 287048577, "nodes": [2907083853, 3727199319, 9723406072, 3727199322, 3727200137, 3727200143, 3727200156, 3727199321, 3727199320, 9723406068, 2907083854, 3727199318, 9723406069, 2907083852, 3727199317, 3727199314, 3727199307, 3727199306, 3727199304, 3727199301, 3727199309, 2907083851, 9723406070, 9723406071, 9723400482, 2907083853], "tags": {"addr:city": "Bak\u0131", "addr:postcode": "1052", "addr:street": "Atat\u00fcrk prospekti", "leisure": "park", "name": "Atat\u00fcrk Park\u0131", "name:en": "Ataturk Park", "opening_hours": "24/7"}}, {"type": "way", "id": 287276589, "nodes": [2908987326, 3043042773, 3043042775, 2908987327, 2908987325, 2908987324, 2908987326], "tags": {"addr:city": "Bak\u0131", "addr:country": "AZ", "addr:housenumber": "14j", "addr:street": "S\u00fcleyman Sani Axundov", "amenity": "restaurant", "building": "yes", "height": "8", "name:en": "Yetim Eyvaz", "phone": "(+99412) 511-11-11"}}, {"type": "way", "id": 287276592, "nodes": [2908987340, 2908987331, 2908987330, 2908987338, 2908987340], "tags": {"amenity": "restaurant", "building": "yes", "building:levels": "3", "height": "8", "name": "C\u0131d\u0131r D\u00fcz\u00fc"}}, {"type": "way", "id": 287276602, "nodes": [2908987349, 2908987335, 2908987336, 2908987337, 2908987343, 2908987342, 2908987347, 2908987348, 2908987349], "tags": {"addr:city": "Bak\u0131", "addr:street": "S\u00fcleyman Sani Axundov k\u00fc\u00e7\u0259si", "amenity": "restaurant", "building": "yes", "height": "7", "name": "Yaqut \u015eadl\u0131q Saray\u0131"}}, {"type": "way", "id": 294173140, "nodes": [2977424138, 2977424133, 2977419210, 2977419212, 2977419217, 2977419219, 2977419216, 2977419221, 2977419227, 2977424144, 2977424143, 2977424134, 2977424136, 2977424141, 2977424142, 2977424139, 2977424140, 2977424137, 2977424135, 2977419229, 2977419218, 2977419213, 2977419211, 2977419214, 2977419215, 2977419222, 2977419231, 2977419230, 2977419226, 2977419224, 2977419223, 2977419220, 2977419225, 2977419228, 2977419232, 1641561061, 2977424138], "tags": {"leisure": "park"}}, {"type": "way", "id": 294359641, "nodes": [2979503608, 2979503606, 2979503602, 2979503618, 2979503623, 2979503622, 2979503620, 2979503617, 2979503619, 2979503616, 2979503614, 2979503612, 2979503611, 2979503608], "tags": {"leisure": "park"}}, {"type": "way", "id": 294360229, "nodes": [2979531967, 2979531965, 2979531960, 2979531961, 2979531962, 2979531964, 2979531966, 2979531963, 2979531967], "tags": {"leisure": "park"}}, {"type": "way", "id": 299652174, "nodes": [3036851639, 3036851636, 3036851099, 3036851132, 3036851645, 3036851647, 3036851639], "tags": {"leisure": "park"}}, {"type": "way", "id": 299663211, "nodes": [3036980544, 3037003953, 3036980570, 3036980585, 3036980672, 3036980648, 3037003997, 3036980558, 3036980556, 3036980544], "tags": {"barrier": "fence", "leisure": "park", "name": "President's Residence"}}, {"type": "way", "id": 299664909, "nodes": [3037004036, 3037003996, 3037004001, 3037004007, 3037004008, 3037004009, 4097578186, 4097578204, 3037004010, 3056813256, 3056813299, 3037004037, 3037004036], "tags": {"barrier": "fence", "leisure": "park"}}, {"type": "way", "id": 300192621, "nodes": [3042992534, 3042992554, 3042992559, 3042992561, 3042992560, 3042992542, 3042992534], "tags": {"leisure": "park"}}, {"type": "way", "id": 300192624, "nodes": [3042992582, 3042992599, 3042992593, 3042992578, 3042992581, 3042992582], "tags": {"alt_name": "Clear Palace", "building": "yes", "building:levels": "3", "name": "Clear Palace Hotel", "tourism": "hotel"}}, {"type": "way", "id": 306451020, "nodes": [3113593680, 3113593665, 3113593669, 3113593682, 3113593680], "tags": {"leisure": "park"}}, {"type": "way", "id": 306451022, "nodes": [3113593684, 3113593670, 3113593673, 3113593685, 3113593684], "tags": {"leisure": "park"}}, {"type": "way", "id": 306736980, "nodes": [3117106634, 3117106563, 12944973990, 9755443031, 11364615123, 11364615120, 9755443032, 9755443033, 11364615121, 11364615122, 9755443030, 12945006806, 12944973989, 3117106562, 3117106631, 12945006801, 9755443027, 11364615127, 11364615126, 12944974000, 9755443029, 9755443028, 11364615124, 11364615125, 9755443026, 12944973988, 3117106634], "tags": {"leisure": "park"}}, {"type": "way", "id": 306870237, "nodes": [3118924202, 3118924198, 3118924200, 3118924203, 3118924201, 3118924204, 3118924202], "tags": {"amenity": "cafe", "building": "yes", "building:levels": "2", "name": "H\u0259k\u0259ri Kafe"}}, {"type": "way", "id": 306870238, "nodes": [3118924216, 3118924218, 3118924217, 3118924215, 3118924216], "tags": {"amenity": "cafe", "building": "yes", "building:levels": "2", "name": "Quba Kafe"}}, {"type": "way", "id": 306872266, "nodes": [9757878347, 3118961799, 3118961793, 9757878322, 9757878323, 3118961794, 9757878324, 3118961805, 9757878347], "tags": {"leisure": "park"}}, {"type": "way", "id": 306880764, "nodes": [3119070371, 3119070373, 3119070370, 3119070368, 3119070371], "tags": {"alt_name": "K\u00f6hn\u0259 erm\u0259ni q\u0259birstanl\u0131\u011f\u0131", "leisure": "park", "name": "Q\u0259l\u0259b\u0259 Park\u0131"}}, {"type": "way", "id": 306880766, "nodes": [3119070367, 3119070369, 3119070366, 3119070360, 3119070367], "tags": {"leisure": "park"}}, {"type": "way", "id": 306880767, "nodes": [3119070340, 3119070349, 3119070339, 9715842282, 9715842281, 9715842280, 9715842279, 3119070338, 3119070340], "tags": {"leisure": "park"}}, {"type": "way", "id": 306978573, "nodes": [3120167478, 3120167473, 3120167472, 3120167474, 3120167476, 3120167479, 3120167478], "tags": {"building": "yes", "building:levels": "7", "name": "Avira Hotel", "tourism": "hotel"}}, {"type": "way", "id": 306998380, "nodes": [3120410451, 3120410441, 3120410450, 3120410460, 3120410451], "tags": {"leisure": "park"}}, {"type": "way", "id": 307000993, "nodes": [3120437545, 3120437543, 3120437542, 4446149669, 3120437545], "tags": {"building": "yes", "name": "Bosfor Otel", "tourism": "hotel"}}, {"type": "way", "id": 357399576, "nodes": [3626666803, 3626666806, 3626666812, 3626666813, 3626666810, 3626666803], "tags": {"leisure": "park"}}, {"type": "way", "id": 362593684, "nodes": [3668664230, 3668664231, 3668664232, 3668664233, 3668664230], "tags": {"amenity": "restaurant", "building": "yes", "building:levels": "3", "name": "Versal Palace 7 mkr"}}, {"type": "way", "id": 387693401, "nodes": [3909366991, 3909364452, 3909364449, 3909364453, 3909366966, 3909366968, 3909366995, 3909366991], "tags": {"leisure": "park"}}, {"type": "way", "id": 387693402, "nodes": [3909367006, 3909367008, 3909366999, 3909366998, 3909367006], "tags": {"leisure": "park"}}, {"type": "way", "id": 401557781, "nodes": [4039717666, 9802193536, 4039717661, 4039717671, 4039717676, 4039717672, 4039717677, 4039717666], "tags": {"leisure": "park"}}, {"type": "way", "id": 401747121, "nodes": [4041551864, 4041551859, 4041551850, 4041551847, 4041551812, 4041551815, 4041551864], "tags": {"leisure": "park"}}, {"type": "way", "id": 407723284, "nodes": [4097577700, 4097577762, 13310512626, 4097577898, 4097577895, 4097577741, 4097577695, 4097577700], "tags": {"leisure": "park"}}, {"type": "way", "id": 447093317, "nodes": [4442880747, 4442880748, 4442880749, 4442880750, 4442880747], "tags": {"amenity": "restaurant", "building": "yes", "building:levels": "2", "name": "Mona Liza Restoran \\ Bak\u0131"}}, {"type": "way", "id": 447506145, "nodes": [3120437545, 4446149670, 4446149671, 3120437543, 3120437545], "tags": {"addr:city": "Bak\u0131", "addr:housenumber": "191", "addr:street": "\u018fhm\u0259d R\u0259c\u0259bli k\u00fc\u00e7.", "building": "yes", "name": "Diamond Hotel Baku", "tourism": "hotel"}}, {"type": "way", "id": 450642688, "nodes": [4475622895, 4475622896, 4475622897, 4475622898, 4475622895], "tags": {"addr:housenumber": "143-148", "addr:street": "Arif Heyd\u0259rov k\u00fc\u00e7\u0259si", "amenity": "cafe", "building": "yes", "building:levels": "1", "name": "F\u0259d\u0259k Kafe"}}, {"type": "way", "id": 463815829, "nodes": [4590354364, 4590354365, 4590354366, 4590354367, 4590354364], "tags": {"addr:city": "Baki", "addr:housenumber": "38", "addr:street": "\u018fhm\u0259d R\u0259c\u0259bli k\u00fc\u00e7.", "amenity": "restaurant", "building": "yes", "building:levels": "3", "cuisine": "local;regional", "internet_access": "wlan", "name": "\u015e\u0259ki Qala Restoran\u0131", "name:en": "Sheki Qala Restaurant", "name:ru": "\u0428\u0435\u043a\u0438\u043d\u0441\u043a\u0438\u0439 \u0440\u0435\u0441\u0442\u043e\u0440\u0430\u043d"}}, {"type": "way", "id": 520498219, "nodes": [5073053836, 5073053837, 5073053838, 5073053839, 5073053836], "tags": {"addr:city": "Bak\u0131", "addr:street": "S\u00fcleyman Sani Axundov k\u00fc\u00e7\u0259si", "amenity": "restaurant", "building": "yes", "building:levels": "3", "name": "Amor \u015eadl\u0131q Saray\u0131", "name:az": "Amor \u015eadl\u0131q Saray\u0131"}}, {"type": "way", "id": 520498222, "nodes": [5073053840, 5073053841, 5073053842, 5073053843, 5073053840], "tags": {"addr:city": "Bak\u0131", "addr:housenumber": "20A", "addr:street": "S\u00fcleyman Sani Axundov k\u00fc\u00e7\u0259si", "amenity": "restaurant", "building": "yes", "building:levels": "4", "name": "\u00c7\u0131raq Palace \u015eadl\u0131q Saray\u0131", "name:az": "\u00c7\u0131raq Palace \u015eadl\u0131q Saray\u0131", "phone": "012-561-61-01"}}, {"type": "way", "id": 589147001, "nodes": [5626063042, 5626063043, 5626063044, 5626063045, 5626063046, 5626063047, 9755443022, 5626063048, 5626063042], "tags": {"leisure": "park"}}, {"type": "way", "id": 589147791, "nodes": [5626066181, 5626066182, 5626066183, 5626066184, 5626066181], "tags": {"leisure": "park"}}, {"type": "way", "id": 589147792, "nodes": [5626066185, 5626066186, 5626066187, 5626066188, 5626066189, 5626066190, 5626066185], "tags": {"leisure": "park"}}, {"type": "way", "id": 589150982, "nodes": [5626086623, 5626086624, 5626086625, 5626086626, 5626086623], "tags": {"leisure": "park"}}, {"type": "way", "id": 609424761, "nodes": [5772479954, 5772479956, 5772479958, 5772479959, 5772479954], "tags": {"leisure": "park"}}, {"type": "way", "id": 609424763, "nodes": [5772479965, 5772479966, 5772479967, 5772479968, 5772479965], "tags": {"leisure": "park"}}, {"type": "way", "id": 630141437, "nodes": [5950696449, 5950696450, 5950696451, 5950696452, 5950696449], "tags": {"leisure": "park"}}, {"type": "way", "id": 685787627, "nodes": [6427400667, 6427400668, 6427400669, 6427400670, 6427400671, 6427400672, 6427400667], "tags": {"leisure": "park"}}, {"type": "way", "id": 685787696, "nodes": [6427402573, 9750014625, 6427402574, 6427402575, 9750014624, 6427402576, 6427402573], "tags": {"leisure": "park"}}, {"type": "way", "id": 686051613, "nodes": [6430098926, 6430098927, 6430098928, 6430098929, 6430098930, 6430098931, 6430098926], "tags": {"addr:postcode": "AZ1029", "addr:street": "Ziya B\u00fcnyadov prospekti", "amenity": "restaurant", "building": "yes", "building:levels": "3", "name": "\u00c7ingiz Xan \u015eadl\u0131q Saray\u0131"}}, {"type": "way", "id": 980187152, "nodes": [9067405678, 9067405679, 9067405680, 9067405681, 9067405678], "tags": {"building": "yes", "name": "Xar\u0131 B\u00fclb\u00fcl Motel", "tourism": "guest_house"}}, {"type": "way", "id": 1057000834, "nodes": [9712379319, 9712379318, 3626679697, 3626679704, 9712379317, 3122220039, 9712379319], "tags": {"leisure": "park"}}, {"type": "way", "id": 1057385556, "nodes": [9715842297, 9715842296, 9715842295, 9715842294, 9715842293, 9715842292, 9715842291, 9715842290, 9715842289, 9715842288, 9715842287, 9715842286, 9715842297], "tags": {"leisure": "park"}}, {"type": "way", "id": 1058183290, "nodes": [9723476531, 9723476530, 9723476529, 9723476528, 9723476527, 9723476526, 9723476525, 9723476524, 9723476523, 9723476522, 9723476521, 9723476520, 9723476519, 9723476518, 9723476517, 9723476531], "tags": {"leisure": "park"}}, {"type": "way", "id": 1058183296, "nodes": [9723476552, 9723476551, 9723476550, 9723476549, 9723476552], "tags": {"leisure": "park"}}, {"type": "way", "id": 1061160862, "nodes": [9749862784, 9749862783, 9749862782, 9749862781, 9749862784], "tags": {"leisure": "park"}}, {"type": "way", "id": 1061501158, "nodes": [9752733015, 9752733003, 9752733002, 9752733001, 9752733000, 9752732999, 9752733013, 9752733014, 9752733015], "tags": {"amenity": "restaurant", "name": "Restoran / Azqranata"}}, {"type": "way", "id": 1061504894, "nodes": [9752771420, 9752771419, 9752771418, 9752771417, 9752740116, 9752771420], "tags": {"amenity": "restaurant", "name": "K\u00f6rp\u00fc Restoran\u0131 \u00c7ermet"}}, {"type": "way", "id": 1061845056, "nodes": [2296795155, 9755443020, 9755443019, 9755443018, 9755443017, 2296795154, 2296795155], "tags": {"leisure": "park"}}, {"type": "way", "id": 1062174048, "nodes": [9758074244, 9758074243, 9758074242, 9758074241, 9758074240, 9758074239, 9758074238, 9758074237, 9758074236, 9758074235, 9758074234, 9758074244], "tags": {"leisure": "park"}}, {"type": "way", "id": 1063032862, "nodes": [9765268356, 9765268355, 9765268354, 9765268353, 9765268356], "tags": {"leisure": "park"}}, {"type": "way", "id": 1063366779, "nodes": [9767888024, 12769115034, 12769115054, 9767888023, 12769115058, 9767888022, 12769115055, 12769115044, 12769115048, 12769115100, 9767888021, 9767888020, 12769115025, 12769115024, 9767888019, 9767888018, 9767888017, 9767882416, 9767882415, 9767882414, 9767882413, 9767882412, 9767888024], "tags": {"leisure": "park"}}, {"type": "way", "id": 1063366783, "nodes": [9767888093, 9767888092, 9767888071, 9767888091, 9767888090, 9767888089, 9767888088, 9767888087, 9767888086, 9767888085, 9767888084, 9767888083, 9767888082, 9767888081, 9767888080, 9767888079, 9767888078, 9767888077, 9767888076, 9767888093], "tags": {"leisure": "park"}}, {"type": "way", "id": 1063385686, "nodes": [9768026966, 9768026965, 9768026959, 9768026964, 9768026963, 9768026962, 9768026961, 9768026960, 9768026966], "tags": {"amenity": "restaurant", "name": "Mu\u011fam Restoran"}}, {"type": "way", "id": 1076677637, "nodes": [9873086568, 9873086567, 9873086566, 9873086565, 9873086564, 9873086568], "tags": {"leisure": "park"}}, {"type": "way", "id": 1084321184, "nodes": [9936335349, 9936335348, 9936335347, 9936335346, 9936335345, 9936335344, 9936335349], "tags": {"leisure": "park"}}, {"type": "way", "id": 1149380320, "nodes": [10692744250, 10692744251, 10692744253, 10692744252, 10692744250], "tags": {"addr:city": "Bak\u0131", "addr:housenumber": "156", "addr:street": "\u018fhm\u0259d R\u0259c\u0259bli k\u00fc\u00e7\u0259si", "building": "commercial", "name": "Amara Plaza Bak\u0131", "tourism": "hotel"}}, {"type": "way", "id": 1149384647, "nodes": [10692773803, 10692773804, 10692800205, 10692800206, 10692773803], "tags": {"addr:city": "Bak\u0131", "addr:postcode": "AZ 1052", "addr:street": "Albert Aqarunov", "amenity": "restaurant", "building": "yes", "name": "Diva \u015eadl\u0131q Saray\u0131"}}, {"type": "way", "id": 1254581047, "nodes": [11662752579, 11662752585, 11662752580, 11662752581, 11662752582, 11662752579], "tags": {"amenity": "cafe", "building": "yes", "name": "Posan Kafe"}}, {"type": "way", "id": 1378749307, "nodes": [12766893511, 12766893510, 12766893509, 12766893508, 12766893511], "tags": {"leisure": "park"}}, {"type": "way", "id": 1378749308, "nodes": [12766893515, 12766893514, 12766893513, 12766893512, 12766893515], "tags": {"leisure": "park"}}, {"type": "node", "id": 2907083851, "lat": 40.4026538, "lon": 49.8498786}, {"type": "node", "id": 2907083852, "lat": 40.4027923, "lon": 49.850778}, {"type": "node", "id": 2907083853, "lat": 40.4041674, "lon": 49.8493937}, {"type": "node", "id": 2907083854, "lat": 40.4043563, "lon": 49.850204}, {"type": "node", "id": 3036980544, "lat": 40.4053201, "lon": 49.8505539}, {"type": "node", "id": 3036980556, "lat": 40.4056771, "lon": 49.850421}, {"type": "node", "id": 3036980558, "lat": 40.4057288, "lon": 49.8504018}, {"type": "node", "id": 3037003953, "lat": 40.4054208, "lon": 49.8510077}, {"type": "node", "id": 3037003997, "lat": 40.4060005, "lon": 49.8503006}, {"type": "node", "id": 3122220039, "lat": 40.401159, "lon": 49.8499571}, {"type": "node", "id": 3626679697, "lat": 40.4005033, "lon": 49.8496336}, {"type": "node", "id": 3626679704, "lat": 40.4008641, "lon": 49.8500285}, {"type": "node", "id": 3727199301, "lat": 40.4011785, "lon": 49.8504259}, {"type": "node", "id": 3727199304, "lat": 40.4012785, "lon": 49.8508742}, {"type": "node", "id": 3727199306, "lat": 40.4013122, "lon": 49.8510146}, {"type": "node", "id": 3727199307, "lat": 40.4013427, "lon": 49.8511206}, {"type": "node", "id": 3727199309, "lat": 40.4014042, "lon": 49.8503708}, {"type": "node", "id": 3727199314, "lat": 40.4014673, "lon": 49.8511466}, {"type": "node", "id": 3727199317, "lat": 40.4017068, "lon": 49.8511561}, {"type": "node", "id": 3727199318, "lat": 40.4041248, "lon": 49.8502973}, {"type": "node", "id": 3727199319, "lat": 40.4050292, "lon": 49.849148}, {"type": "node", "id": 3727199320, "lat": 40.4050824, "lon": 49.8498031}, {"type": "node", "id": 3727199321, "lat": 40.405603, "lon": 49.8495239}, {"type": "node", "id": 3727199322, "lat": 40.4057714, "lon": 49.8488749}, {"type": "node", "id": 9712379317, "lat": 40.4009732, "lon": 49.8500508}, {"type": "node", "id": 9712379318, "lat": 40.4004043, "lon": 49.8491576}, {"type": "node", "id": 9712379319, "lat": 40.4009427, "lon": 49.8489256}, {"type": "node", "id": 9723400482, "lat": 40.403897, "lon": 49.8494419}, {"type": "node", "id": 9723406068, "lat": 40.4047304, "lon": 49.8500079}, {"type": "node", "id": 9723406069, "lat": 40.4034865, "lon": 49.8505524}, {"type": "node", "id": 9723406070, "lat": 40.4032639, "lon": 49.8496458}, {"type": "node", "id": 9723406071, "lat": 40.4036969, "lon": 49.849501}, {"type": "node", "id": 9723406072, "lat": 40.4054534, "lon": 49.848994}, {"type": "node", "id": 2002311056, "lat": 40.4040709, "lon": 49.8563166}, {"type": "node", "id": 2002311064, "lat": 40.4041981, "lon": 49.8568555}, {"type": "node", "id": 2002311093, "lat": 40.4055265, "lon": 49.8557544}, {"type": "node", "id": 2002311096, "lat": 40.4056477, "lon": 49.8562961}, {"type": "node", "id": 3036980570, "lat": 40.4060938, "lon": 49.8540384}, {"type": "node", "id": 3037003996, "lat": 40.4059976, "lon": 49.8550094}, {"type": "node", "id": 3037004001, "lat": 40.4061028, "lon": 49.8553688}, {"type": "node", "id": 4039717661, "lat": 40.400693, "lon": 49.8541174}, {"type": "node", "id": 4039717666, "lat": 40.4008452, "lon": 49.8541361}, {"type": "node", "id": 4039717671, "lat": 40.4008605, "lon": 49.8548}, {"type": "node", "id": 4039717672, "lat": 40.4008799, "lon": 49.8545613}, {"type": "node", "id": 4039717676, "lat": 40.4009289, "lon": 49.8547732}, {"type": "node", "id": 4039717677, "lat": 40.4009422, "lon": 49.8545331}, {"type": "node", "id": 4097577695, "lat": 40.4021595, "lon": 49.8570528}, {"type": "node", "id": 4097577700, "lat": 40.4022755, "lon": 49.8575891}, {"type": "node", "id": 4097577741, "lat": 40.4030247, "lon": 49.8567125}, {"type": "node", "id": 4097577762, "lat": 40.4031554, "lon": 49.8572468}, {"type": "node", "id": 4097577895, "lat": 40.4038582, "lon": 49.8563954}, {"type": "node", "id": 4097577898, "lat": 40.4039733, "lon": 49.8569115}, {"type": "node", "id": 4097577941, "lat": 40.4048227, "lon": 49.8560245}, {"type": "node", "id": 4097577956, "lat": 40.4049544, "lon": 49.8565628}, {"type": "node", "id": 4097578119, "lat": 40.4055877, "lon": 49.8560248}, {"type": "node", "id": 9802193536, "lat": 40.4007607, "lon": 49.8540835}, {"type": "node", "id": 13310512626, "lat": 40.4037019, "lon": 49.8570228}, {"type": "node", "id": 3036980648, "lat": 40.4076367, "lon": 49.8496916}, {"type": "node", "id": 3727200137, "lat": 40.4074842, "lon": 49.8482215}, {"type": "node", "id": 3727200143, "lat": 40.4075505, "lon": 49.8484828}, {"type": "node", "id": 3727200156, "lat": 40.4076159, "lon": 49.8487407}, {"type": "node", "id": 9723476517, "lat": 40.4102366, "lon": 49.851408}, {"type": "node", "id": 9723476518, "lat": 40.4101223, "lon": 49.8514724}, {"type": "node", "id": 9723476519, "lat": 40.4102897, "lon": 49.8522127}, {"type": "node", "id": 9723476520, "lat": 40.4107288, "lon": 49.8520464}, {"type": "node", "id": 9723476521, "lat": 40.4107717, "lon": 49.8522717}, {"type": "node", "id": 9723476522, "lat": 40.4103285, "lon": 49.8524755}, {"type": "node", "id": 9723476523, "lat": 40.4102162, "lon": 49.8524702}, {"type": "node", "id": 9723476524, "lat": 40.4099405, "lon": 49.8523092}, {"type": "node", "id": 9723476525, "lat": 40.4097567, "lon": 49.8521027}, {"type": "node", "id": 9723476526, "lat": 40.4095913, "lon": 49.8514375}, {"type": "node", "id": 9723476527, "lat": 40.4096832, "lon": 49.8513973}, {"type": "node", "id": 9723476528, "lat": 40.4095851, "lon": 49.8509359}, {"type": "node", "id": 9723476529, "lat": 40.4097199, "lon": 49.8508742}, {"type": "node", "id": 9723476530, "lat": 40.4097873, "lon": 49.8511586}, {"type": "node", "id": 9723476531, "lat": 40.4101182, "lon": 49.8510244}, {"type": "node", "id": 9723476549, "lat": 40.4084026, "lon": 49.8520571}, {"type": "node", "id": 9723476550, "lat": 40.4082066, "lon": 49.8521295}, {"type": "node", "id": 9723476551, "lat": 40.4076122, "lon": 49.8494849}, {"type": "node", "id": 9723476552, "lat": 40.4078042, "lon": 49.8494151}, {"type": "node", "id": 3036851099, "lat": 40.4103518, "lon": 49.8541567}, {"type": "node", "id": 3036851132, "lat": 40.4107306, "lon": 49.8546055}, {"type": "node", "id": 3036851636, "lat": 40.4108515, "lon": 49.8534409}, {"type": "node", "id": 3036851639, "lat": 40.4109195, "lon": 49.8533436}, {"type": "node", "id": 3036851645, "lat": 40.4112381, "lon": 49.8538774}, {"type": "node", "id": 3036851647, "lat": 40.4113005, "lon": 49.8537879}, {"type": "node", "id": 3036980585, "lat": 40.4062697, "lon": 49.8548309}, {"type": "node", "id": 3036980672, "lat": 40.4085711, "lon": 49.8539047}, {"type": "node", "id": 3037004007, "lat": 40.4063671, "lon": 49.8564497}, {"type": "node", "id": 3037004008, "lat": 40.4064838, "lon": 49.8569517}, {"type": "node", "id": 3037004009, "lat": 40.4067062, "lon": 49.8568651}, {"type": "node", "id": 3037004010, "lat": 40.4070564, "lon": 49.8584394}, {"type": "node", "id": 3037004036, "lat": 40.4085724, "lon": 49.8540032}, {"type": "node", "id": 3037004037, "lat": 40.4089678, "lon": 49.8556262}, {"type": "node", "id": 3056813256, "lat": 40.4071908, "lon": 49.8582416}, {"type": "node", "id": 3056813299, "lat": 40.4085912, "lon": 49.8561805}, {"type": "node", "id": 3119070367, "lat": 40.4068157, "lon": 49.8591646}, {"type": "node", "id": 3119070368, "lat": 40.4069285, "lon": 49.8589924}, {"type": "node", "id": 3119070371, "lat": 40.4089531, "lon": 49.8560794}, {"type": "node", "id": 3119070373, "lat": 40.4099344, "lon": 49.8582827}, {"type": "node", "id": 4097578186, "lat": 40.4067232, "lon": 49.8569415}, {"type": "node", "id": 4097578204, "lat": 40.4070028, "lon": 49.8581985}, {"type": "node", "id": 3120167472, "lat": 40.4141529, "lon": 49.8563837}, {"type": "node", "id": 3120167473, "lat": 40.4142116, "lon": 49.8560725}, {"type": "node", "id": 3120167474, "lat": 40.4142718, "lon": 49.8564177}, {"type": "node", "id": 3120167476, "lat": 40.4143131, "lon": 49.8561989}, {"type": "node", "id": 3120167478, "lat": 40.4144198, "lon": 49.8559635}, {"type": "node", "id": 3120167479, "lat": 40.4144594, "lon": 49.856121}, {"type": "node", "id": 6427402573, "lat": 40.4187055, "lon": 49.8568163}, {"type": "node", "id": 6427402574, "lat": 40.4187829, "lon": 49.8570166}, {"type": "node", "id": 6427402575, "lat": 40.4181214, "lon": 49.8575188}, {"type": "node", "id": 6427402576, "lat": 40.4180323, "lon": 49.8573155}, {"type": "node", "id": 9750014624, "lat": 40.4180753, "lon": 49.8574136}, {"type": "node", "id": 9750014625, "lat": 40.4187395, "lon": 49.8569043}, {"type": "node", "id": 535217956, "lat": 40.4253214, "lon": 49.8480668}, {"type": "node", "id": 535217960, "lat": 40.4252951, "lon": 49.8509742}, {"type": "node", "id": 535217978, "lat": 40.4255619, "lon": 49.8485604}, {"type": "node", "id": 2295438354, "lat": 40.4253513, "lon": 49.8491055}, {"type": "node", "id": 2295438355, "lat": 40.4252951, "lon": 49.8490886}, {"type": "node", "id": 2295438356, "lat": 40.4255694, "lon": 49.8480766}, {"type": "node", "id": 2908987324, "lat": 40.4242331, "lon": 49.8512241}, {"type": "node", "id": 2908987325, "lat": 40.4243696, "lon": 49.8515335}, {"type": "node", "id": 2908987326, "lat": 40.4244553, "lon": 49.8510549}, {"type": "node", "id": 2908987327, "lat": 40.4245918, "lon": 49.8513643}, {"type": "node", "id": 2908987330, "lat": 40.4255055, "lon": 49.8501351}, {"type": "node", "id": 2908987331, "lat": 40.4255176, "lon": 49.8494891}, {"type": "node", "id": 2908987335, "lat": 40.4255861, "lon": 49.8509754}, {"type": "node", "id": 2908987336, "lat": 40.4256396, "lon": 49.8510248}, {"type": "node", "id": 2908987337, "lat": 40.4256749, "lon": 49.8510574}, {"type": "node", "id": 2908987338, "lat": 40.425718, "lon": 49.8501419}, {"type": "node", "id": 2908987340, "lat": 40.4257302, "lon": 49.849496}, {"type": "node", "id": 2908987342, "lat": 40.4258034, "lon": 49.8509556}, {"type": "node", "id": 2908987343, "lat": 40.4258053, "lon": 49.8510201}, {"type": "node", "id": 3042992578, "lat": 40.4205323, "lon": 49.8524653}, {"type": "node", "id": 3042992581, "lat": 40.4205678, "lon": 49.8525623}, {"type": "node", "id": 3042992582, "lat": 40.4206005, "lon": 49.8526518}, {"type": "node", "id": 3042992593, "lat": 40.4208259, "lon": 49.85228}, {"type": "node", "id": 3042992599, "lat": 40.4208941, "lon": 49.8524666}, {"type": "node", "id": 3043042773, "lat": 40.4245212, "lon": 49.8512042}, {"type": "node", "id": 3043042775, "lat": 40.424558, "lon": 49.8512876}, {"type": "node", "id": 5073053836, "lat": 40.425355, "lon": 49.8515111}, {"type": "node", "id": 5073053837, "lat": 40.4253528, "lon": 49.852028}, {"type": "node", "id": 5073053838, "lat": 40.4251389, "lon": 49.8520264}, {"type": "node", "id": 5073053839, "lat": 40.4251411, "lon": 49.8515095}, {"type": "node", "id": 5073053840, "lat": 40.4255645, "lon": 49.8520905}, {"type": "node", "id": 5073053841, "lat": 40.4255595, "lon": 49.8526946}, {"type": "node", "id": 5073053842, "lat": 40.4252303, "lon": 49.8526899}, {"type": "node", "id": 5073053843, "lat": 40.4252353, "lon": 49.8520858}, {"type": "node", "id": 5626063045, "lat": 40.4256098, "lon": 49.8525487}, {"type": "node", "id": 5626063046, "lat": 40.4256051, "lon": 49.8527728}, {"type": "node", "id": 5626063047, "lat": 40.4251268, "lon": 49.8527612}, {"type": "node", "id": 6942905676, "lat": 40.4255869, "lon": 49.8507442}, {"type": "node", "id": 3042992534, "lat": 40.4199101, "lon": 49.8541799}, {"type": "node", "id": 3042992542, "lat": 40.4200128, "lon": 49.8546298}, {"type": "node", "id": 3042992554, "lat": 40.4202782, "lon": 49.8541779}, {"type": "node", "id": 3042992559, "lat": 40.420315, "lon": 49.8542109}, {"type": "node", "id": 3042992560, "lat": 40.4203169, "lon": 49.8543051}, {"type": "node", "id": 3042992561, "lat": 40.4203227, "lon": 49.8542491}, {"type": "node", "id": 3117106562, "lat": 40.425396, "lon": 49.8569336}, {"type": "node", "id": 3117106563, "lat": 40.4253966, "lon": 49.8562245}, {"type": "node", "id": 5626063042, "lat": 40.4251843, "lon": 49.8559956}, {"type": "node", "id": 5626063048, "lat": 40.4252052, "lon": 49.8536129}, {"type": "node", "id": 9755443022, "lat": 40.4251224, "lon": 49.8536146}, {"type": "node", "id": 9755443030, "lat": 40.4253045, "lon": 49.8568634}, {"type": "node", "id": 9755443031, "lat": 40.4253225, "lon": 49.8562403}, {"type": "node", "id": 9755443032, "lat": 40.4252807, "lon": 49.8563488}, {"type": "node", "id": 9755443033, "lat": 40.4252756, "lon": 49.8566967}, {"type": "node", "id": 11364615120, "lat": 40.4252853, "lon": 49.8563099}, {"type": "node", "id": 11364615121, "lat": 40.4252779, "lon": 49.8567562}, {"type": "node", "id": 11364615122, "lat": 40.4252839, "lon": 49.8568086}, {"type": "node", "id": 11364615123, "lat": 40.4252986, "lon": 49.8562698}, {"type": "node", "id": 12944973989, "lat": 40.4253566, "lon": 49.8569224}, {"type": "node", "id": 12944973990, "lat": 40.4253565, "lon": 49.8562275}, {"type": "node", "id": 12945006806, "lat": 40.4253235, "lon": 49.8568946}, {"type": "node", "id": 535217965, "lat": 40.4262533, "lon": 49.850219}, {"type": "node", "id": 535217974, "lat": 40.4262834, "lon": 49.8486098}, {"type": "node", "id": 2296795154, "lat": 40.4265684, "lon": 49.85205}, {"type": "node", "id": 2296795155, "lat": 40.4265837, "lon": 49.8514007}, {"type": "node", "id": 2908987347, "lat": 40.4260616, "lon": 49.8509603}, {"type": "node", "id": 2908987348, "lat": 40.4260637, "lon": 49.8506899}, {"type": "node", "id": 2908987349, "lat": 40.4260666, "lon": 49.8506065}, {"type": "node", "id": 5626063044, "lat": 40.4261638, "lon": 49.8525613}, {"type": "node", "id": 5772479954, "lat": 40.4322091, "lon": 49.8525979}, {"type": "node", "id": 5772479959, "lat": 40.4315814, "lon": 49.8525791}, {"type": "node", "id": 9755443017, "lat": 40.4268507, "lon": 49.8520614}, {"type": "node", "id": 9755443018, "lat": 40.4268425, "lon": 49.8523387}, {"type": "node", "id": 9755443019, "lat": 40.4263749, "lon": 49.852328}, {"type": "node", "id": 9755443020, "lat": 40.4263872, "lon": 49.8513973}, {"type": "node", "id": 3117106631, "lat": 40.4259589, "lon": 49.8569679}, {"type": "node", "id": 3117106634, "lat": 40.4259653, "lon": 49.8562497}, {"type": "node", "id": 3668664230, "lat": 40.4269415, "lon": 49.8562044}, {"type": "node", "id": 3668664231, "lat": 40.4269353, "lon": 49.8564684}, {"type": "node", "id": 3668664232, "lat": 40.426587, "lon": 49.8564543}, {"type": "node", "id": 3668664233, "lat": 40.4265933, "lon": 49.8561902}, {"type": "node", "id": 5626063043, "lat": 40.4261095, "lon": 49.8560149}, {"type": "node", "id": 5772479956, "lat": 40.4321834, "lon": 49.8534129}, {"type": "node", "id": 5772479958, "lat": 40.4315844, "lon": 49.8533856}, {"type": "node", "id": 5772479965, "lat": 40.432148, "lon": 49.8537618}, {"type": "node", "id": 5772479966, "lat": 40.4315412, "lon": 49.853746}, {"type": "node", "id": 5772479967, "lat": 40.4315223, "lon": 49.854573}, {"type": "node", "id": 5772479968, "lat": 40.4321171, "lon": 49.8545766}, {"type": "node", "id": 9755443026, "lat": 40.4260224, "lon": 49.8562757}, {"type": "node", "id": 9755443027, "lat": 40.4260056, "lon": 49.8569603}, {"type": "node", "id": 9755443028, "lat": 40.4260661, "lon": 49.8563784}, {"type": "node", "id": 9755443029, "lat": 40.4260566, "lon": 49.856863}, {"type": "node", "id": 11364615124, "lat": 40.4260576, "lon": 49.8563374}, {"type": "node", "id": 11364615125, "lat": 40.4260447, "lon": 49.8563102}, {"type": "node", "id": 11364615126, "lat": 40.426043, "lon": 49.8569242}, {"type": "node", "id": 11364615127, "lat": 40.4260255, "lon": 49.8569458}, {"type": "node", "id": 12944973988, "lat": 40.4259953, "lon": 49.8562538}, {"type": "node", "id": 12944974000, "lat": 40.4260525, "lon": 49.8568945}, {"type": "node", "id": 12945006801, "lat": 40.4259828, "lon": 49.8569683}, {"type": "node", "id": 11662752579, "lat": 40.4358634, "lon": 49.8550644}, {"type": "node", "id": 11662752580, "lat": 40.4358158, "lon": 49.8550637}, {"type": "node", "id": 11662752581, "lat": 40.4358163, "lon": 49.8550061}, {"type": "node", "id": 11662752582, "lat": 40.4358637, "lon": 49.8550061}, {"type": "node", "id": 11662752585, "lat": 40.4358223, "lon": 49.8550638}, {"type": "node", "id": 2979503602, "lat": 40.3993667, "lon": 49.8624425}, {"type": "node", "id": 2979503606, "lat": 40.3995778, "lon": 49.8621427}, {"type": "node", "id": 2979503608, "lat": 40.3996383, "lon": 49.8622147}, {"type": "node", "id": 1641561061, "lat": 40.4036364, "lon": 49.8615948}, {"type": "node", "id": 2977419210, "lat": 40.4025172, "lon": 49.8607512}, {"type": "node", "id": 2977419211, "lat": 40.4027761, "lon": 49.8606851}, {"type": "node", "id": 2977419212, "lat": 40.4028265, "lon": 49.8620886}, {"type": "node", "id": 2977419213, "lat": 40.4028379, "lon": 49.8609099}, {"type": "node", "id": 2977419214, "lat": 40.4028474, "lon": 49.8606538}, {"type": "node", "id": 2977419215, "lat": 40.4029116, "lon": 49.8608943}, {"type": "node", "id": 2977419216, "lat": 40.402927, "lon": 49.8625011}, {"type": "node", "id": 2977419217, "lat": 40.4030379, "lon": 49.8620115}, {"type": "node", "id": 2977419218, "lat": 40.4031019, "lon": 49.8615406}, {"type": "node", "id": 2977419219, "lat": 40.4031253, "lon": 49.8624222}, {"type": "node", "id": 2977419220, "lat": 40.4031416, "lon": 49.8608392}, {"type": "node", "id": 2977419221, "lat": 40.4031421, "lon": 49.8633716}, {"type": "node", "id": 2977419222, "lat": 40.4031756, "lon": 49.8615281}, {"type": "node", "id": 2977419223, "lat": 40.4032406, "lon": 49.8612596}, {"type": "node", "id": 2977419224, "lat": 40.4033048, "lon": 49.8612335}, {"type": "node", "id": 2977419225, "lat": 40.4033112, "lon": 49.8607703}, {"type": "node", "id": 2977419226, "lat": 40.4033463, "lon": 49.8614095}, {"type": "node", "id": 2977419227, "lat": 40.4033506, "lon": 49.8638132}, {"type": "node", "id": 2977419228, "lat": 40.4034094, "lon": 49.8611874}, {"type": "node", "id": 2977419229, "lat": 40.4034229, "lon": 49.8629926}, {"type": "node", "id": 2977419230, "lat": 40.4034516, "lon": 49.8613667}, {"type": "node", "id": 2977419231, "lat": 40.4034633, "lon": 49.8614251}, {"type": "node", "id": 2977419232, "lat": 40.4035204, "lon": 49.8611378}, {"type": "node", "id": 2977424133, "lat": 40.4035729, "lon": 49.8603038}, {"type": "node", "id": 2977424134, "lat": 40.4036906, "lon": 49.8618364}, {"type": "node", "id": 2977424135, "lat": 40.4037462, "lon": 49.8628739}, {"type": "node", "id": 2977424136, "lat": 40.4037779, "lon": 49.8621793}, {"type": "node", "id": 2977424137, "lat": 40.4038414, "lon": 49.8629801}, {"type": "node", "id": 2977424138, "lat": 40.403874, "lon": 49.8615004}, {"type": "node", "id": 2977424139, "lat": 40.4039698, "lon": 49.8625086}, {"type": "node", "id": 2977424140, "lat": 40.4040411, "lon": 49.8626866}, {"type": "node", "id": 2977424141, "lat": 40.4041409, "lon": 49.8620215}, {"type": "node", "id": 2977424142, "lat": 40.4042075, "lon": 49.8621776}, {"type": "node", "id": 2977424143, "lat": 40.4044515, "lon": 49.8615425}, {"type": "node", "id": 2977424144, "lat": 40.4046385, "lon": 49.8618614}, {"type": "node", "id": 2979503611, "lat": 40.4000944, "lon": 49.8630634}, {"type": "node", "id": 2979503612, "lat": 40.4002232, "lon": 49.8629441}, {"type": "node", "id": 2979503614, "lat": 40.4003201, "lon": 49.8631181}, {"type": "node", "id": 2979503616, "lat": 40.4007763, "lon": 49.8639668}, {"type": "node", "id": 2979503617, "lat": 40.400823, "lon": 49.8635768}, {"type": "node", "id": 2979503618, "lat": 40.4008642, "lon": 49.8642703}, {"type": "node", "id": 2979503619, "lat": 40.4009474, "lon": 49.8638082}, {"type": "node", "id": 2979503620, "lat": 40.4009747, "lon": 49.8633645}, {"type": "node", "id": 2979503622, "lat": 40.4012275, "lon": 49.8636804}, {"type": "node", "id": 2979503623, "lat": 40.401257, "lon": 49.8637255}, {"type": "node", "id": 2979531960, "lat": 40.4049621, "lon": 49.8632172}, {"type": "node", "id": 2979531961, "lat": 40.4051339, "lon": 49.8636427}, {"type": "node", "id": 2979531962, "lat": 40.4055979, "lon": 49.8633042}, {"type": "node", "id": 2979531963, "lat": 40.4056887, "lon": 49.8631462}, {"type": "node", "id": 2979531964, "lat": 40.4057084, "lon": 49.863517}, {"type": "node", "id": 2979531965, "lat": 40.4057624, "lon": 49.8624951}, {"type": "node", "id": 2979531966, "lat": 40.4058286, "lon": 49.863417}, {"type": "node", "id": 2979531967, "lat": 40.4059514, "lon": 49.8628626}, {"type": "node", "id": 3119070338, "lat": 40.4054889, "lon": 49.8609925}, {"type": "node", "id": 3119070339, "lat": 40.4055333, "lon": 49.8611523}, {"type": "node", "id": 3119070340, "lat": 40.4058516, "lon": 49.8604855}, {"type": "node", "id": 3119070349, "lat": 40.4060134, "lon": 49.8607456}, {"type": "node", "id": 3119070360, "lat": 40.4061236, "lon": 49.8601084}, {"type": "node", "id": 9715842279, "lat": 40.405432, "lon": 49.8610733}, {"type": "node", "id": 9715842280, "lat": 40.4054064, "lon": 49.8611404}, {"type": "node", "id": 9715842281, "lat": 40.4054197, "lon": 49.8611806}, {"type": "node", "id": 9715842282, "lat": 40.4054718, "lon": 49.8611873}, {"type": "node", "id": 9715842286, "lat": 40.4057404, "lon": 49.8615012}, {"type": "node", "id": 9715842287, "lat": 40.4057455, "lon": 49.8615307}, {"type": "node", "id": 9715842288, "lat": 40.4058221, "lon": 49.8616031}, {"type": "node", "id": 9715842289, "lat": 40.4057914, "lon": 49.8616648}, {"type": "node", "id": 9715842290, "lat": 40.4057445, "lon": 49.8617104}, {"type": "node", "id": 9715842291, "lat": 40.4056944, "lon": 49.8616809}, {"type": "node", "id": 9715842292, "lat": 40.405626, "lon": 49.8616151}, {"type": "node", "id": 9715842293, "lat": 40.4056035, "lon": 49.8615682}, {"type": "node", "id": 9715842294, "lat": 40.4055984, "lon": 49.8615119}, {"type": "node", "id": 9715842295, "lat": 40.4056158, "lon": 49.8614609}, {"type": "node", "id": 9715842296, "lat": 40.4057393, "lon": 49.8613751}, {"type": "node", "id": 9715842297, "lat": 40.4057434, "lon": 49.8614556}, {"type": "node", "id": 1304761775, "lat": 40.4006938, "lon": 49.8717934}, {"type": "node", "id": 1488575245, "lat": 40.4026479, "lon": 49.8692286}, {"type": "node", "id": 1488575253, "lat": 40.4027506, "lon": 49.8694524}, {"type": "node", "id": 1488575268, "lat": 40.4048066, "lon": 49.8675368}, {"type": "node", "id": 1488575274, "lat": 40.4048943, "lon": 49.8677244}, {"type": "node", "id": 1614211214, "lat": 40.4025038, "lon": 49.8693588}, {"type": "node", "id": 1614211217, "lat": 40.4026485, "lon": 49.8692451}, {"type": "node", "id": 1614211220, "lat": 40.4025887, "lon": 49.8695451}, {"type": "node", "id": 1614211223, "lat": 40.4027334, "lon": 49.8694314}, {"type": "node", "id": 2977470853, "lat": 40.4021057, "lon": 49.870083}, {"type": "node", "id": 2977470854, "lat": 40.4022544, "lon": 49.8701313}, {"type": "node", "id": 2977470856, "lat": 40.4025533, "lon": 49.8707813}, {"type": "node", "id": 2977470858, "lat": 40.4026248, "lon": 49.8709433}, {"type": "node", "id": 2977470860, "lat": 40.4028146, "lon": 49.8714637}, {"type": "node", "id": 2977470862, "lat": 40.4029479, "lon": 49.8719602}, {"type": "node", "id": 2977470863, "lat": 40.4028637, "lon": 49.8715759}, {"type": "node", "id": 2977470864, "lat": 40.4029628, "lon": 49.8717995}, {"type": "node", "id": 3274984685, "lat": 40.4014179, "lon": 49.8706744}, {"type": "node", "id": 3648695982, "lat": 40.402913, "lon": 49.8720167}, {"type": "node", "id": 3648695983, "lat": 40.4029687, "lon": 49.87189}, {"type": "node", "id": 3648696206, "lat": 40.4007435, "lon": 49.8718488}, {"type": "node", "id": 3648697126, "lat": 40.4021819, "lon": 49.8700644}, {"type": "node", "id": 5913531689, "lat": 40.4029488, "lon": 49.8717611}, {"type": "node", "id": 12766893508, "lat": 40.4058988, "lon": 49.8693244}, {"type": "node", "id": 12766893509, "lat": 40.4056106, "lon": 49.8687081}, {"type": "node", "id": 12766893510, "lat": 40.4057127, "lon": 49.8686258}, {"type": "node", "id": 12766893511, "lat": 40.4060008, "lon": 49.8692422}, {"type": "node", "id": 12766893512, "lat": 40.4055186, "lon": 49.8684722}, {"type": "node", "id": 12766893513, "lat": 40.4052305, "lon": 49.8678558}, {"type": "node", "id": 12766893514, "lat": 40.4053325, "lon": 49.8677735}, {"type": "node", "id": 12766893515, "lat": 40.4056207, "lon": 49.8683899}, {"type": "node", "id": 1625491340, "lat": 40.4081351, "lon": 49.8634884}, {"type": "node", "id": 1625491343, "lat": 40.4078573, "lon": 49.8632739}, {"type": "node", "id": 1625491353, "lat": 40.4079717, "lon": 49.863011}, {"type": "node", "id": 1625491356, "lat": 40.4082577, "lon": 49.8630002}, {"type": "node", "id": 1625491361, "lat": 40.4081063, "lon": 49.8631161}, {"type": "node", "id": 2781843302, "lat": 40.4088592, "lon": 49.8642959}, {"type": "node", "id": 2781843307, "lat": 40.408654, "lon": 49.8641541}, {"type": "node", "id": 2781843309, "lat": 40.408621, "lon": 49.8641915}, {"type": "node", "id": 2781843312, "lat": 40.4088489, "lon": 49.8642367}, {"type": "node", "id": 2781843316, "lat": 40.4088239, "lon": 49.8641855}, {"type": "node", "id": 2781843319, "lat": 40.4087873, "lon": 49.8641485}, {"type": "node", "id": 2781843321, "lat": 40.4087433, "lon": 49.8641298}, {"type": "node", "id": 2781843324, "lat": 40.408697, "lon": 49.8641318}, {"type": "node", "id": 2781843328, "lat": 40.4085988, "lon": 49.8642407}, {"type": "node", "id": 2781843331, "lat": 40.4085897, "lon": 49.8642967}, {"type": "node", "id": 2781843334, "lat": 40.4085946, "lon": 49.8643536}, {"type": "node", "id": 2781843337, "lat": 40.4086131, "lon": 49.8644054}, {"type": "node", "id": 2781843341, "lat": 40.4086432, "lon": 49.8644468}, {"type": "node", "id": 2781843344, "lat": 40.4086818, "lon": 49.8644734}, {"type": "node", "id": 2781843346, "lat": 40.4087248, "lon": 49.8644825}, {"type": "node", "id": 2781843350, "lat": 40.4087678, "lon": 49.8644731}, {"type": "node", "id": 2781843353, "lat": 40.4088063, "lon": 49.8644463}, {"type": "node", "id": 2781843356, "lat": 40.4088362, "lon": 49.8644047}, {"type": "node", "id": 2781843358, "lat": 40.4088545, "lon": 49.8643527}, {"type": "node", "id": 3119070366, "lat": 40.4063556, "lon": 49.8605229}, {"type": "node", "id": 3119070369, "lat": 40.4074069, "lon": 49.8599311}, {"type": "node", "id": 3119070370, "lat": 40.4075416, "lon": 49.8598046}, {"type": "node", "id": 3120437542, "lat": 40.4109703, "lon": 49.8615992}, {"type": "node", "id": 3120437543, "lat": 40.4110735, "lon": 49.8615172}, {"type": "node", "id": 3120437545, "lat": 40.4112105, "lon": 49.8618185}, {"type": "node", "id": 4041551812, "lat": 40.4071457, "lon": 49.8656261}, {"type": "node", "id": 4041551815, "lat": 40.4072202, "lon": 49.865783}, {"type": "node", "id": 4041551847, "lat": 40.4082016, "lon": 49.8647825}, {"type": "node", "id": 4041551850, "lat": 40.4083435, "lon": 49.8646618}, {"type": "node", "id": 4041551859, "lat": 40.4084416, "lon": 49.8646229}, {"type": "node", "id": 4041551864, "lat": 40.4085804, "lon": 49.8646524}, {"type": "node", "id": 4442880747, "lat": 40.4097387, "lon": 49.8656834}, {"type": "node", "id": 4442880748, "lat": 40.410129, "lon": 49.8653719}, {"type": "node", "id": 4442880749, "lat": 40.4102476, "lon": 49.865628}, {"type": "node", "id": 4442880750, "lat": 40.4098574, "lon": 49.8659395}, {"type": "node", "id": 4446117062, "lat": 40.4083789, "lon": 49.8632749}, {"type": "node", "id": 4446149669, "lat": 40.4111059, "lon": 49.8619013}, {"type": "node", "id": 4446149670, "lat": 40.4114179, "lon": 49.8616542}, {"type": "node", "id": 4446149671, "lat": 40.4112799, "lon": 49.8613537}, {"type": "node", "id": 4590354364, "lat": 40.4087806, "lon": 49.8649332}, {"type": "node", "id": 4590354365, "lat": 40.4086795, "lon": 49.8647085}, {"type": "node", "id": 4590354366, "lat": 40.4084437, "lon": 49.864896}, {"type": "node", "id": 4590354367, "lat": 40.4085488, "lon": 49.8651172}, {"type": "node", "id": 10692744250, "lat": 40.4102793, "lon": 49.8632679}, {"type": "node", "id": 10692744251, "lat": 40.4104509, "lon": 49.8636542}, {"type": "node", "id": 10692744252, "lat": 40.4101527, "lon": 49.8633699}, {"type": "node", "id": 10692744253, "lat": 40.4103263, "lon": 49.863748}, {"type": "node", "id": 10692773803, "lat": 40.4076386, "lon": 49.8625907}, {"type": "node", "id": 10692773804, "lat": 40.4075181, "lon": 49.8628401}, {"type": "node", "id": 10692800205, "lat": 40.4077203, "lon": 49.8630118}, {"type": "node", "id": 10692800206, "lat": 40.4078469, "lon": 49.8627436}, {"type": "node", "id": 1937814649, "lat": 40.4103712, "lon": 49.868937}, {"type": "node", "id": 1937814651, "lat": 40.4103876, "lon": 49.8686725}, {"type": "node", "id": 1937814654, "lat": 40.4105118, "lon": 49.8685788}, {"type": "node", "id": 1937814656, "lat": 40.4104344, "lon": 49.8686342}, {"type": "node", "id": 1937814657, "lat": 40.4103745, "lon": 49.8686448}, {"type": "node", "id": 1937814658, "lat": 40.4106227, "lon": 49.8687306}, {"type": "node", "id": 1937814660, "lat": 40.4103581, "lon": 49.8684738}, {"type": "node", "id": 1937814661, "lat": 40.4104327, "lon": 49.8684126}, {"type": "node", "id": 1937814667, "lat": 40.4102722, "lon": 49.8687288}, {"type": "node", "id": 1937814670, "lat": 40.4105397, "lon": 49.868556}, {"type": "node", "id": 2556695271, "lat": 40.4125376, "lon": 49.8726902}, {"type": "node", "id": 2556695298, "lat": 40.4126846, "lon": 49.8725681}, {"type": "node", "id": 2556695302, "lat": 40.4122325, "lon": 49.8715305}, {"type": "node", "id": 2556695363, "lat": 40.4123507, "lon": 49.8726996}, {"type": "node", "id": 2556695372, "lat": 40.4119188, "lon": 49.8717715}, {"type": "node", "id": 9873086594, "lat": 40.41267, "lon": 49.8726189}, {"type": "node", "id": 1304761812, "lat": 40.4017763, "lon": 49.8731868}, {"type": "node", "id": 4475622895, "lat": 40.4006348, "lon": 49.8802182}, {"type": "node", "id": 4475622896, "lat": 40.4005675, "lon": 49.8802865}, {"type": "node", "id": 4475622897, "lat": 40.4003557, "lon": 49.8799265}, {"type": "node", "id": 4475622898, "lat": 40.400423, "lon": 49.8798582}, {"type": "node", "id": 9767888022, "lat": 40.405338, "lon": 49.8857778}, {"type": "node", "id": 9767888023, "lat": 40.4053891, "lon": 49.8855123}, {"type": "node", "id": 9767888024, "lat": 40.4058404, "lon": 49.8851529}, {"type": "node", "id": 9767888071, "lat": 40.4050756, "lon": 49.8851931}, {"type": "node", "id": 9767888076, "lat": 40.4050265, "lon": 49.8838118}, {"type": "node", "id": 9767888077, "lat": 40.4051327, "lon": 49.8837179}, {"type": "node", "id": 9767888078, "lat": 40.4056719, "lon": 49.8847452}, {"type": "node", "id": 9767888080, "lat": 40.4060253, "lon": 49.8834094}, {"type": "node", "id": 9767888081, "lat": 40.4059844, "lon": 49.8832914}, {"type": "node", "id": 9767888082, "lat": 40.4059967, "lon": 49.8831359}, {"type": "node", "id": 9767888083, "lat": 40.4061274, "lon": 49.8829535}, {"type": "node", "id": 9767888084, "lat": 40.4057046, "lon": 49.8822239}, {"type": "node", "id": 9767888085, "lat": 40.4056597, "lon": 49.8821837}, {"type": "node", "id": 9767888086, "lat": 40.4056045, "lon": 49.882189}, {"type": "node", "id": 9767888087, "lat": 40.4050919, "lon": 49.882696}, {"type": "node", "id": 9767888088, "lat": 40.4048734, "lon": 49.8828515}, {"type": "node", "id": 9767888089, "lat": 40.4047467, "lon": 49.8829883}, {"type": "node", "id": 9767888090, "lat": 40.4046119, "lon": 49.8831788}, {"type": "node", "id": 9767888091, "lat": 40.404185, "lon": 49.8836589}, {"type": "node", "id": 9767888092, "lat": 40.4051368, "lon": 49.8852172}, {"type": "node", "id": 9767888093, "lat": 40.4055657, "lon": 49.8848444}, {"type": "node", "id": 12769115034, "lat": 40.405653, "lon": 49.8853022}, {"type": "node", "id": 12769115054, "lat": 40.4055662, "lon": 49.8853712}, {"type": "node", "id": 12769115055, "lat": 40.4054745, "lon": 49.8859959}, {"type": "node", "id": 12769115058, "lat": 40.405337, "lon": 49.8856156}, {"type": "node", "id": 9767882412, "lat": 40.4062438, "lon": 49.8858878}, {"type": "node", "id": 9767882413, "lat": 40.4063051, "lon": 49.8859763}, {"type": "node", "id": 9767888017, "lat": 40.4068423, "lon": 49.8857751}, {"type": "node", "id": 9767888018, "lat": 40.4068729, "lon": 49.8858207}, {"type": "node", "id": 9767888079, "lat": 40.4064113, "lon": 49.8841283}, {"type": "node", "id": 2556762529, "lat": 40.4062229, "lon": 49.8870909}, {"type": "node", "id": 9767888020, "lat": 40.4060866, "lon": 49.8868883}, {"type": "node", "id": 9767888021, "lat": 40.4060171, "lon": 49.8868641}, {"type": "node", "id": 12769115044, "lat": 40.4056792, "lon": 49.8863228}, {"type": "node", "id": 12769115048, "lat": 40.4058292, "lon": 49.8865624}, {"type": "node", "id": 12769115100, "lat": 40.4059921, "lon": 49.8868225}, {"type": "node", "id": 2556762488, "lat": 40.4063776, "lon": 49.886923}, {"type": "node", "id": 2556762507, "lat": 40.4064679, "lon": 49.8875047}, {"type": "node", "id": 2556762570, "lat": 40.4066263, "lon": 49.8873432}, {"type": "node", "id": 5950696449, "lat": 40.4083742, "lon": 49.8881203}, {"type": "node", "id": 5950696450, "lat": 40.4078995, "lon": 49.8883678}, {"type": "node", "id": 5950696451, "lat": 40.4080382, "lon": 49.8886971}, {"type": "node", "id": 5950696452, "lat": 40.40852, "lon": 49.8884542}, {"type": "node", "id": 9767882414, "lat": 40.406395, "lon": 49.8860273}, {"type": "node", "id": 9767882415, "lat": 40.406493, "lon": 49.886046}, {"type": "node", "id": 9767882416, "lat": 40.4065849, "lon": 49.8860192}, {"type": "node", "id": 9767888019, "lat": 40.4064236, "lon": 49.8865262}, {"type": "node", "id": 9768026959, "lat": 40.4105532, "lon": 49.8891789}, {"type": "node", "id": 9768026960, "lat": 40.4110209, "lon": 49.8891413}, {"type": "node", "id": 9768026961, "lat": 40.4110127, "lon": 49.8892674}, {"type": "node", "id": 9768026962, "lat": 40.4108473, "lon": 49.8893881}, {"type": "node", "id": 9768026963, "lat": 40.4107533, "lon": 49.8893613}, {"type": "node", "id": 9768026964, "lat": 40.4106002, "lon": 49.8892567}, {"type": "node", "id": 9768026965, "lat": 40.4105001, "lon": 49.8890555}, {"type": "node", "id": 9768026966, "lat": 40.4109228, "lon": 49.8888087}, {"type": "node", "id": 12769115024, "lat": 40.4063294, "lon": 49.8866274}, {"type": "node", "id": 12769115025, "lat": 40.4062427, "lon": 49.8867206}, {"type": "node", "id": 3626666803, "lat": 40.4113614, "lon": 49.8956463}, {"type": "node", "id": 3626666806, "lat": 40.4117049, "lon": 49.8962053}, {"type": "node", "id": 3626666810, "lat": 40.4118375, "lon": 49.8952148}, {"type": "node", "id": 3626666812, "lat": 40.4123116, "lon": 49.896068}, {"type": "node", "id": 3626666813, "lat": 40.4123303, "lon": 49.8959969}, {"type": "node", "id": 9765268353, "lat": 40.4097649, "lon": 49.8951749}, {"type": "node", "id": 9765268354, "lat": 40.4093921, "lon": 49.8955277}, {"type": "node", "id": 9765268355, "lat": 40.4090654, "lon": 49.8949698}, {"type": "node", "id": 9765268356, "lat": 40.4094197, "lon": 49.8945902}, {"type": "node", "id": 3120410441, "lat": 40.4130632, "lon": 49.8616273}, {"type": "node", "id": 3120410450, "lat": 40.4132788, "lon": 49.8621162}, {"type": "node", "id": 3120410451, "lat": 40.4132865, "lon": 49.8614582}, {"type": "node", "id": 3120410460, "lat": 40.4135099, "lon": 49.861941}, {"type": "node", "id": 9873086564, "lat": 40.4137493, "lon": 49.8710149}, {"type": "node", "id": 9873086565, "lat": 40.4156464, "lon": 49.8695183}, {"type": "node", "id": 9873086566, "lat": 40.4157792, "lon": 49.869824}, {"type": "node", "id": 9873086567, "lat": 40.413786, "lon": 49.871377}, {"type": "node", "id": 9873086568, "lat": 40.4136247, "lon": 49.8709989}, {"type": "node", "id": 9749862781, "lat": 40.4255562, "lon": 49.8626035}, {"type": "node", "id": 9749862782, "lat": 40.4254418, "lon": 49.8624641}, {"type": "node", "id": 9749862783, "lat": 40.4254643, "lon": 49.8606831}, {"type": "node", "id": 9749862784, "lat": 40.4255888, "lon": 49.8605329}, {"type": "node", "id": 9752732999, "lat": 40.4204967, "lon": 49.864493}, {"type": "node", "id": 9752733000, "lat": 40.4205253, "lon": 49.8645553}, {"type": "node", "id": 9752733001, "lat": 40.4207669, "lon": 49.8643634}, {"type": "node", "id": 9752733002, "lat": 40.4208358, "lon": 49.8645132}, {"type": "node", "id": 9752733003, "lat": 40.4201817, "lon": 49.8650329}, {"type": "node", "id": 9752733013, "lat": 40.4202789, "lon": 49.8646661}, {"type": "node", "id": 9752733014, "lat": 40.4200984, "lon": 49.8642743}, {"type": "node", "id": 9752733015, "lat": 40.4199036, "lon": 49.8644291}, {"type": "node", "id": 5626086623, "lat": 40.4236081, "lon": 49.869356}, {"type": "node", "id": 5626086624, "lat": 40.4233358, "lon": 49.8695837}, {"type": "node", "id": 5626086625, "lat": 40.424354, "lon": 49.8718238}, {"type": "node", "id": 5626086626, "lat": 40.4246078, "lon": 49.8715636}, {"type": "node", "id": 9752740116, "lat": 40.4216317, "lon": 49.8698013}, {"type": "node", "id": 9752771417, "lat": 40.4214264, "lon": 49.8696993}, {"type": "node", "id": 9752771418, "lat": 40.4213683, "lon": 49.8695947}, {"type": "node", "id": 9752771419, "lat": 40.4215714, "lon": 49.8693332}, {"type": "node", "id": 9752771420, "lat": 40.4218757, "lon": 49.8696135}, {"type": "node", "id": 9758074234, "lat": 40.4255337, "lon": 49.866529}, {"type": "node", "id": 9758074235, "lat": 40.4255572, "lon": 49.8665665}, {"type": "node", "id": 9758074236, "lat": 40.4255664, "lon": 49.8666108}, {"type": "node", "id": 9758074237, "lat": 40.4255674, "lon": 49.866655}, {"type": "node", "id": 9758074238, "lat": 40.425547, "lon": 49.8666993}, {"type": "node", "id": 9758074239, "lat": 40.4255255, "lon": 49.8667301}, {"type": "node", "id": 9758074240, "lat": 40.4253857, "lon": 49.8668535}, {"type": "node", "id": 9758074241, "lat": 40.4252244, "lon": 49.8668092}, {"type": "node", "id": 9758074242, "lat": 40.4251437, "lon": 49.8666148}, {"type": "node", "id": 9758074243, "lat": 40.425208, "lon": 49.8663707}, {"type": "node", "id": 9758074244, "lat": 40.4254847, "lon": 49.8664995}, {"type": "node", "id": 3909366998, "lat": 40.4148231, "lon": 49.879417}, {"type": "node", "id": 3909367006, "lat": 40.4160738, "lon": 49.8789476}, {"type": "node", "id": 6427400667, "lat": 40.418807, "lon": 49.8742393}, {"type": "node", "id": 6427400668, "lat": 40.4188878, "lon": 49.8747065}, {"type": "node", "id": 6427400669, "lat": 40.417753, "lon": 49.8750752}, {"type": "node", "id": 6427400670, "lat": 40.4176934, "lon": 49.874937}, {"type": "node", "id": 6427400671, "lat": 40.4181549, "lon": 49.8746251}, {"type": "node", "id": 6427400672, "lat": 40.4184216, "lon": 49.8744269}, {"type": "node", "id": 3909364449, "lat": 40.4135908, "lon": 49.8810685}, {"type": "node", "id": 3909364452, "lat": 40.4136435, "lon": 49.8810511}, {"type": "node", "id": 3909364453, "lat": 40.413672, "lon": 49.8814519}, {"type": "node", "id": 3909366966, "lat": 40.413841, "lon": 49.8813971}, {"type": "node", "id": 3909366968, "lat": 40.4138586, "lon": 49.8814922}, {"type": "node", "id": 3909366991, "lat": 40.4145126, "lon": 49.880763}, {"type": "node", "id": 3909366995, "lat": 40.4145982, "lon": 49.8812299}, {"type": "node", "id": 3909366999, "lat": 40.4151459, "lon": 49.8810843}, {"type": "node", "id": 3909367008, "lat": 40.4163863, "lon": 49.880686}, {"type": "node", "id": 3113593665, "lat": 40.420652, "lon": 49.8789608}, {"type": "node", "id": 3113593669, "lat": 40.4207061, "lon": 49.8792222}, {"type": "node", "id": 3113593670, "lat": 40.4207679, "lon": 49.8774951}, {"type": "node", "id": 3113593673, "lat": 40.4209214, "lon": 49.8782687}, {"type": "node", "id": 3113593680, "lat": 40.4214391, "lon": 49.8786972}, {"type": "node", "id": 3113593682, "lat": 40.4214845, "lon": 49.8789723}, {"type": "node", "id": 3113593684, "lat": 40.4216852, "lon": 49.877181}, {"type": "node", "id": 3113593685, "lat": 40.4218387, "lon": 49.8779546}, {"type": "node", "id": 3118924198, "lat": 40.4292864, "lon": 49.872082}, {"type": "node", "id": 3118924200, "lat": 40.4294247, "lon": 49.872367}, {"type": "node", "id": 3118924201, "lat": 40.4294724, "lon": 49.8721491}, {"type": "node", "id": 3118924202, "lat": 40.4294725, "lon": 49.8719262}, {"type": "node", "id": 3118924203, "lat": 40.4295338, "lon": 49.8722756}, {"type": "node", "id": 3118924204, "lat": 40.4295494, "lon": 49.8720847}, {"type": "node", "id": 3118924215, "lat": 40.4304926, "lon": 49.8705683}, {"type": "node", "id": 3118924216, "lat": 40.4305899, "lon": 49.870675}, {"type": "node", "id": 3118924217, "lat": 40.4307771, "lon": 49.87012}, {"type": "node", "id": 3118924218, "lat": 40.4308744, "lon": 49.8702267}, {"type": "node", "id": 5626066181, "lat": 40.4294673, "lon": 49.867433}, {"type": "node", "id": 5626066182, "lat": 40.4292949, "lon": 49.8675964}, {"type": "node", "id": 5626066183, "lat": 40.429318, "lon": 49.8679163}, {"type": "node", "id": 5626066184, "lat": 40.4294975, "lon": 49.8680681}, {"type": "node", "id": 5626066185, "lat": 40.4294993, "lon": 49.8681358}, {"type": "node", "id": 5626066186, "lat": 40.4294015, "lon": 49.8682806}, {"type": "node", "id": 5626066187, "lat": 40.4294051, "lon": 49.8691375}, {"type": "node", "id": 5626066188, "lat": 40.429629, "lon": 49.8691188}, {"type": "node", "id": 5626066189, "lat": 40.4296148, "lon": 49.8687803}, {"type": "node", "id": 5626066190, "lat": 40.4295508, "lon": 49.8683623}, {"type": "node", "id": 9067405678, "lat": 40.433026, "lon": 49.8652092}, {"type": "node", "id": 9067405679, "lat": 40.4329301, "lon": 49.8651878}, {"type": "node", "id": 9067405680, "lat": 40.4328831, "lon": 49.8655043}, {"type": "node", "id": 9067405681, "lat": 40.4329893, "lon": 49.8655204}, {"type": "node", "id": 3118961793, "lat": 40.4277083, "lon": 49.8772904}, {"type": "node", "id": 3118961794, "lat": 40.4280546, "lon": 49.877611}, {"type": "node", "id": 3118961799, "lat": 40.4284027, "lon": 49.8759316}, {"type": "node", "id": 3118961805, "lat": 40.4288413, "lon": 49.8759911}, {"type": "node", "id": 9757878322, "lat": 40.4277103, "lon": 49.8774281}, {"type": "node", "id": 9757878323, "lat": 40.4280451, "lon": 49.8774227}, {"type": "node", "id": 9757878324, "lat": 40.4288679, "lon": 49.8776105}, {"type": "node", "id": 9757878347, "lat": 40.4285335, "lon": 49.8760004}, {"type": "node", "id": 6430098926, "lat": 40.4274883, "lon": 49.886655}, {"type": "node", "id": 6430098927, "lat": 40.4272724, "lon": 49.8866519}, {"type": "node", "id": 6430098928, "lat": 40.4272671, "lon": 49.8872906}, {"type": "node", "id": 6430098929, "lat": 40.4274345, "lon": 49.887293}, {"type": "node", "id": 6430098930, "lat": 40.427436, "lon": 49.8871165}, {"type": "node", "id": 6430098931, "lat": 40.4274844, "lon": 49.8871172}, {"type": "node", "id": 9936335344, "lat": 40.4271325, "lon": 49.8876071}, {"type": "node", "id": 9936335345, "lat": 40.4268691, "lon": 49.8876178}, {"type": "node", "id": 9936335346, "lat": 40.426867, "lon": 49.8878592}, {"type": "node", "id": 9936335347, "lat": 40.4263076, "lon": 49.8878673}, {"type": "node", "id": 9936335348, "lat": 40.4263157, "lon": 49.8875266}, {"type": "node", "id": 9936335349, "lat": 40.4271284, "lon": 49.887473}]}