{"version": 0.6, "generator": "Overpass API 0.7.62.8 e802775f", "osm3s": {"timestamp_osm_base": "2025-11-23T13:02:15Z", "copyright": "The data included in this document is from www.openstreetmap.org. The data is made available under ODbL."}, "elements": [{"type": "node", "id": 1207164641, "lat": 42.6566524, "lon": 44.6405205, "tags": {"name": "\u10db\u10d7\u10d8\u10e1 \u10e1\u10d0\u10ee\u10da\u10d8 (Mtis Sakhli)", "name:en": "Mtis Sakhli", "name:ka": "\u10db\u10d7\u10d8\u10e1 \u10e1\u10d0\u10ee\u10da\u10d8", "source": "JumpStart International", "tourism": "hotel"}}, {"type": "node", "id": 1207164643, "lat": 42.6575973, "lon": 44.640392, "tags": {"check_date": "2025-08-24", "name": "\u10e1\u10e2\u10d4\u10e4\u10d0\u10dc\u10ec\u10db\u10d8\u10dc\u10d3\u10d0", "name:en": "Stepantsminda", "name:ka": "\u10e1\u10e2\u10d4\u10e4\u10d0\u10dc\u10ec\u10db\u10d8\u10dc\u10d3\u10d0", "source": "JumpStart International", "tourism": "hotel"}}, {"type": "node", "id": 1207164679, "lat": 42.6509382, "lon": 44.641945, "tags": {"source": "JumpStart International", "tourism": "hotel"}}, {"type": "node", "id": 1207165689, "lat": 42.6590836, "lon": 44.6410776, "tags": {"addr:housenumber": "E117", "addr:street": "\u10e1\u10d0\u10e5\u10d0\u10e0\u10d7\u10d5\u10d4\u10da\u10dd\u10e1 \u10e1\u10d0\u10db\u10ee\u10d4\u10d3\u10e0\u10dd \u10d2\u10d6\u10d0", "amenity": "cafe", "check_date": "2025-06-18", "contact:mobile": "+995 595 90 70 65", "cuisine": "georgian", "email": "m.odishvili78@gmail.com", "internet_access": "wlan", "name": "\u10e7\u10d0\u10d6\u10d1\u10d4\u10d2\u10d8 \u10d2\u10e3\u10d3 \u10e4\u10e3\u10d3", "name:en": "Kazbegi Good Food", "name:ru": "\u041a\u0430\u0437\u0431\u0435\u0433\u0438 \u0433\u0443\u0434 \u0444\u0443\u0434", "opening_hours": "Mo-Su 09:00-22:00", "operator": "MERAB", "source": "JumpStart International"}}, {"type": "node", "id": 1364475212, "lat": 42.6580842, "lon": 44.6414225, "tags": {"amenity": "restaurant", "check_date": "2025-06-18", "cuisine": "regional", "internet_access": "wlan", "internet_access:fee": "no", "name": "\u10ee\u10d4\u10d5\u10d8", "name:en": "Khevi", "name:ru": "\u0425\u044d\u0432\u0438", "operator:type": "private", "outdoor_seating": "yes"}}, {"type": "node", "id": 1784082817, "lat": 42.6630147, "lon": 44.6204416, "tags": {"tourism": "viewpoint"}}, {"type": "node", "id": 2293558137, "lat": 42.6555991, "lon": 44.63986, "tags": {"name:en": "Vasily", "tourism": "guest_house"}}, {"type": "node", "id": 2917445502, "lat": 42.662123, "lon": 44.6466565, "tags": {"name": "Mari Qishashvili", "tourism": "guest_house"}}, {"type": "node", "id": 3011828027, "lat": 42.6574642, "lon": 44.6430562, "tags": {"internet_access": "wlan", "name": "Anano", "tourism": "guest_house"}}, {"type": "node", "id": 3011834082, "lat": 42.6607572, "lon": 44.6264059, "tags": {"historic": "ruins"}}, {"type": "node", "id": 3048617796, "lat": 42.6619393, "lon": 44.6288673, "tags": {"amenity": "cafe", "check_date": "2025-07-16", "name": "Gergeti Summer Caf\u00e9"}}, {"type": "node", "id": 3580639496, "lat": 42.6593088, "lon": 44.6366701, "tags": {"addr:city": "\u10e1\u10e2\u10d4\u10e4\u10d0\u10dc\u10ec\u10db\u10d8\u10dc\u10d3\u10d0", "addr:postcode": "4700", "addr:street": "Gergeti street", "internet_access": "yes", "internet_access:fee": "yes", "name": "Leo Hostel", "operator": "Leo", "smoking": "outside", "tourism": "guest_house"}}, {"type": "node", "id": 4127739289, "lat": 42.6539733, "lon": 44.6419306, "tags": {"internet_access": "wlan", "name": "Ninos", "tourism": "guest_house"}}, {"type": "node", "id": 4215927891, "lat": 42.6595823, "lon": 44.6420503, "tags": {"name": "Soul kazbegi guest house", "tourism": "guest_house"}}, {"type": "node", "id": 4254069690, "lat": 42.6607389, "lon": 44.646269, "tags": {"name": "Emma's Guest House", "tourism": "guest_house"}}, {"type": "node", "id": 4306936789, "lat": 42.6608915, "lon": 44.6412038, "tags": {"addr:city": "\u10e1\u10e2\u10d4\u10e4\u10d0\u10dc\u10ec\u10db\u10d8\u10dc\u10d3\u10d0", "addr:housenumber": "125 km", "addr:postcode": "4700", "addr:street": "\u10db\u10ea\u10ee\u10d4\u10d7\u10d0-\u10e1\u10e2\u10d4\u10e4\u10d0\u10dc\u10ec\u10db\u10d8\u10dc\u10d3\u10d0-\u10da\u10d0\u10e0\u10e1\u10d8", "air_conditioning": "no", "amenity": "restaurant", "bar": "yes", "brewery": "no", "capacity": "40", "check_date": "2025-06-18", "contact:mobile": "+995 593 78 77 45", "cuisine": "georgian", "email": "restaurant@cozy.ge", "highchair": "no", "internet_access": "wlan", "internet_access:fee": "no", "microbrewery": "no", "name": "\u10e5\u10dd\u10e3\u10d6\u10d8 \u10e5\u10dd\u10e0\u10dc\u10d4\u10e0\u10d8", "name:en": "Cozy Corner", "opening_hours": "Mo-Su 10:00-22:00", "outdoor_seating": "yes", "payment:cash": "yes", "payment:credit_cards": "yes", "payment:debit_cards": "yes", "reservation": "yes", "smoking": "separated", "source": "survey", "takeaway": "yes", "toilets": "yes", "toilets:wheelchair": "no", "website": "https://cozy.ge/", "website:menu": "https://cozy.ge/eng/", "wheelchair": "limited"}}, {"type": "node", "id": 4320288491, "lat": 42.6646698, "lon": 44.6138696, "tags": {"ele": "2160", "tourism": "camp_site"}}, {"type": "node", "id": 4320317289, "lat": 42.6590906, "lon": 44.6414367, "tags": {"addr:street": "\u10d0\u10da\u10d4\u10e5\u10e1\u10d0\u10dc\u10d3\u10e0\u10d4 \u10e7\u10d0\u10d6\u10d1\u10d4\u10d2\u10d8\u10e1 \u10e5\u10e3\u10e9\u10d0", "check_date": "2025-06-18", "internet_access": "wlan", "name": "Easy", "tourism": "hotel"}}, {"type": "node", "id": 4341490894, "lat": 42.6599885, "lon": 44.6240086, "tags": {"tourism": "viewpoint"}}, {"type": "node", "id": 4361560589, "lat": 42.6590119, "lon": 44.637086, "tags": {"addr:postcode": "4700", "addr:street": "\u10d0\u10da\u10d4\u10e5\u10e1\u10d0\u10dc\u10d3\u10e0\u10d4 \u10e7\u10d0\u10d6\u10d1\u10d4\u10d2\u10d8\u10e1 \u10e5\u10e3\u10e9\u10d0", "contact:mobile": "+995 557 40 57 75", "internet_access": "wlan", "name": "Guest House Sabauri", "opening_hours": "24/7", "tourism": "guest_house"}}, {"type": "node", "id": 4361638090, "lat": 42.6610209, "lon": 44.6328263, "tags": {"name": "Red stone guest house", "tourism": "hotel"}}, {"type": "node", "id": 4386879269, "lat": 42.6590939, "lon": 44.6456367, "tags": {"internet_access": "yes", "tourism": "guest_house"}}, {"type": "node", "id": 4415920789, "lat": 42.6554103, "lon": 44.6429602, "tags": {"internet_access": "wlan", "name": "Taliko", "name:ko": "\ud0c8\ub9ac\ucf54 \uac8c\uc2a4\ud2b8\ud558\uc6b0\uc2a4", "tourism": "hostel"}}, {"type": "node", "id": 4549725190, "lat": 42.6595349, "lon": 44.6420485, "tags": {"artwork_type": "relief", "name:en": "Soviet relief", "tourism": "artwork", "wikimedia_commons": "File:Fresque sovi\u00e9tique - panoramio.jpg"}}, {"type": "node", "id": 4549725289, "lat": 42.6577156, "lon": 44.6412065, "tags": {"artwork_type": "mural", "tourism": "artwork"}}, {"type": "node", "id": 4750863224, "lat": 42.6574078, "lon": 44.6469, "tags": {"addr:city": "\u10e1\u10e2\u10d4\u10e4\u10d0\u10dc\u10ec\u10db\u10d8\u10dc\u10d3\u10d0", "addr:postcode": "4700", "addr:street": "Pitskhelauri St", "internet_access": "wlan", "internet_access:fee": "no", "internet_access:ssid": "Mariami", "name": "Homestay Lela and Mari", "rooms": "4", "tourism": "guest_house"}}, {"type": "node", "id": 4791832675, "lat": 42.6566434, "lon": 44.640851, "tags": {"addr:housenumber": "44", "addr:street": "\u10d0\u10da\u10d4\u10e5\u10e1\u10d0\u10dc\u10d3\u10e0\u10d4 \u10e7\u10d0\u10d6\u10d1\u10d4\u10d2\u10d8\u10e1 \u10e5\u10e3\u10e9\u10d0", "contact:mobile": "+995 593 58 35 96", "information": "office", "name": "Mountain Freaks Travel agency", "name:de": "Mountain Freaks Reiseb\u00fcro", "opening_hours": "Mo-Su 09:00-19:00", "tourism": "information", "website": "https://www.mountainfreaks.ge/"}}, {"type": "node", "id": 4791839876, "lat": 42.6617364, "lon": 44.6454651, "tags": {"contact:mobile": "+995 599 78 27 72", "description:payment": "15/20 lari sgl/dbl", "name": "Grandmother's Guesthouse", "tourism": "guest_house"}}, {"type": "node", "id": 4793452897, "lat": 42.6572514, "lon": 44.6409078, "tags": {"amenity": "cafe", "check_date": "2025-06-18"}}, {"type": "node", "id": 4793455674, "lat": 42.6578118, "lon": 44.6404862, "tags": {"amenity": "restaurant", "check_date": "2025-08-24", "name": "\u10e1\u10e2\u10d4\u10e4\u10d0\u10dc\u10ec\u10db\u10d8\u10dc\u10d3\u10d0", "name:en": "Stepantsminda", "name:ka": "\u10e1\u10e2\u10d4\u10e4\u10d0\u10dc\u10ec\u10db\u10d8\u10dc\u10d3\u10d0", "name:ru": "\u0421\u0442\u0435\u043f\u0430\u043d\u0446\u043c\u0438\u043d\u0434\u0430"}}, {"type": "node", "id": 4793457141, "lat": 42.6580974, "lon": 44.6404305, "tags": {"amenity": "restaurant", "check_date": "2025-06-18", "cuisine": "georgian", "internet_access": "wlan", "name": "Caf\u00e9 Mari"}}, {"type": "node", "id": 4805531723, "lat": 42.693541, "lon": 44.6411124, "tags": {"description": "Terek valley viewpoint", "name:en": "Cross", "name:ru": "\u041a\u0440\u0435\u0441\u0442", "tourism": "viewpoint"}}, {"type": "node", "id": 4888271423, "lat": 42.6548527, "lon": 44.648997, "tags": {"internet_access": "wlan", "name:en": "Kremenkul_174", "name:ru": "\u041a\u0440\u0435\u043c\u0435\u043d\u043a\u0443\u043b\u044c_174", "tourism": "hotel"}}, {"type": "node", "id": 4941861493, "lat": 42.6656801, "lon": 44.6153685, "tags": {"tourism": "viewpoint"}}, {"type": "node", "id": 4941861494, "lat": 42.6656604, "lon": 44.6152304, "tags": {"denomination": "orthodox", "historic": "wayside_shrine", "religion": "christian"}}, {"type": "node", "id": 4941868355, "lat": 42.6886561, "lon": 44.6352477, "tags": {"denomination": "orthodox", "historic": "wayside_cross", "religion": "christian"}}, {"type": "node", "id": 4952323471, "lat": 42.6620984, "lon": 44.6204719, "tags": {"historic": "wayside_cross"}}, {"type": "node", "id": 4969591421, "lat": 42.6542419, "lon": 44.6440936, "tags": {"contact:mobile": "+995 595 48 28 29", "internet_access": "wlan", "name": "Khvicha", "name:en": "Khvicha", "name:ru": "\u0425\u0432\u0438\u0447\u0430", "opening_hours": "24/7", "operator": "Khvicha Tekturmanidze", "tourism": "guest_house"}}, {"type": "node", "id": 4977644690, "lat": 42.6617212, "lon": 44.6207598, "tags": {"denomination": "orthodox", "historic": "wayside_cross", "religion": "christian"}}, {"type": "node", "id": 4977644693, "lat": 42.6614704, "lon": 44.621467, "tags": {"tourism": "viewpoint"}}, {"type": "node", "id": 4986231521, "lat": 42.6530351, "lon": 44.6417124, "tags": {"addr:housenumber": "76", "addr:street": "\u10d5\u10d0\u10df\u10d0 \u10e4\u10e8\u10d0\u10d5\u10d4\u10da\u10d0\u10e1 \u10e5\u10e3\u10e9\u10d0", "contact:mobile": "+995 595 92 07 01", "name": "Guest House 15", "tourism": "guest_house"}}, {"type": "node", "id": 5030677521, "lat": 42.6598244, "lon": 44.637761, "tags": {"contact:mobile": "+995 599 48 49 28", "name:en": "Achiko", "tourism": "guest_house"}}, {"type": "node", "id": 5070820622, "lat": 42.6582668, "lon": 44.6371502, "tags": {"addr:housenumber": "21", "addr:postcode": "4700", "addr:street": "Khevisberi", "contact:mobile": "+995 599 42 04 14;+372 5753 3256", "designation": "Guest House", "email": "davithet@gmail.com", "internet_access": "wlan", "name": "Guest-House Vano Kazbegi", "name:en": "Guest-House Vano Kazbegi", "name:fa": "\u0648\u0627\u0646\u0648\u06cc \u062e\u0627\u0646\u0647.", "name:he": "\u05d4\u05d1\u05d9\u05ea \u05e9\u05dc \u05d5\u05e0\u05d5", "name:ja": "\uff73\uff9e\uff67\uff89\u306e\u5bb6", "name:ka": "\u10e1\u10d0\u10dd\u10ef\u10d0\u10ee\u10dd \u10e2\u10d8\u10de\u10d8\u10e1 \u10e1\u10d0\u10e1\u10e2\u10e3\u10db\u10e0\u10dd", "name:tr": "Vano'nun otel", "opening_hours": "24/7", "operator": "Vano guesthouse", "source": "Khevisberi 21", "tourism": "guest_house"}}, {"type": "node", "id": 5070820623, "lat": 42.65815, "lon": 44.6376581, "tags": {"addr:postcode": "4700", "name": "Belas's Guest-House", "tourism": "guest_house"}}, {"type": "node", "id": 5086384121, "lat": 42.6559422, "lon": 44.6442883, "tags": {"addr:housenumber": "50", "addr:postcode": "4700", "addr:street": "\u10db\u10d4\u10e0\u10d0\u10d1 \u10d9\u10dd\u10e1\u10e2\u10d0\u10d5\u10d0\u10e1 \u10e5\u10e3\u10e9\u10d0", "internet_access": "wlan", "name:en": "Gocha Toliketi", "tourism": "guest_house"}}, {"type": "node", "id": 5139742046, "lat": 42.6509762, "lon": 44.6435216, "tags": {"addr:city": "\u10e1\u10e2\u10d4\u10e4\u10d0\u10dc\u10ec\u10db\u10d8\u10dc\u10d3\u10d0", "addr:housenumber": "59", "addr:street:en": "Merab Kostava St.", "name:en": "Tower hotel", "tourism": "hotel"}}, {"type": "node", "id": 5140763123, "lat": 42.6512024, "lon": 44.6435283, "tags": {"addr:housenumber": "55", "addr:street": "\u10db\u10d4\u10e0\u10d0\u10d1 \u10d9\u10dd\u10e1\u10e2\u10d0\u10d5\u10d0\u10e1 \u10e5\u10e3\u10e9\u10d0", "contact:mobile": "+995 599 78 27 72", "email": "n.khaikashvili@gmail.com", "internet_access": "wlan", "name": "\u10e7\u10d0\u10d6\u10d1\u10d4\u10d2\u10d8 \u10d9\u10dd\u10e2\u10d4\u10ef\u10d8", "name:en": "kazbegi cottage's", "name:ru": "\u043a\u0430\u0437\u0431\u0435\u0433\u0438 \u043a\u043e\u0442\u0442\u0435\u0434\u0436", "opening_hours": "Mo-Su 09:00-18:00", "tourism": "hotel"}}, {"type": "node", "id": 5351501421, "lat": 42.6611038, "lon": 44.6413208, "tags": {"addr:city": "\u10e1\u10e2\u10d4\u10e4\u10d0\u10dc\u10ec\u10db\u10d8\u10dc\u10d3\u10d0", "addr:housenumber": "125 \u043a\u043c", "addr:postcode": "4700", "addr:street": "\u10db\u10ea\u10ee\u10d4\u10d7\u10d0 \u2014 \u10e1\u10e2\u10d4\u10e4\u10d0\u10dc\u10ec\u10db\u10d8\u10dc\u10d3\u10d0 \u2014 \u10da\u10d0\u10e0\u10e1\u10d8", "check_date": "2025-06-18", "contact:mobile": "+995 593 78 77 45", "email": "hotel@cozy.ge", "name": "\u10e5\u10dd\u10e3\u10d6\u10d8", "name:en": "Cozy", "opening_hours": "Sa 09:00-23:00", "tourism": "hotel", "website": "https://www.cozy.ge/"}}, {"type": "node", "id": 5590796822, "lat": 42.6597654, "lon": 44.6412903, "tags": {"amenity": "restaurant", "name": "Khareba Restaurant"}}, {"type": "node", "id": 5609021185, "lat": 42.6622971, "lon": 44.6206062, "tags": {"tourism": "viewpoint"}}, {"type": "node", "id": 5624252677, "lat": 42.6533093, "lon": 44.6436419, "tags": {"name": "Dachi Inn Apartament", "tourism": "guest_house"}}, {"type": "node", "id": 5754563828, "lat": 42.651911, "lon": 44.6453092, "tags": {"addr:street": "\u10d7\u10d0\u10db\u10d0\u10e0 \u10db\u10d4\u10e4\u10d8\u10e1 \u10e5\u10e3\u10e9\u10d0", "contact:mobile": "+995 595 58 00 57", "internet_access": "wlan", "name": "Gio-Nika", "tourism": "guest_house", "website": "https://www.booking.com/Share-eE18SH"}}, {"type": "node", "id": 5828672613, "lat": 42.6569362, "lon": 44.6422171, "tags": {"addr:housenumber": "50", "addr:postcode": "4700", "addr:street": "\u10d5\u10d0\u10df\u10d0 \u10e4\u10e8\u10d0\u10d5\u10d4\u10da\u10d0\u10e1 \u10e5\u10e3\u10e9\u10d0", "amenity": "cafe", "name": "Beba Bar", "opening_hours": "Mo-Su 07:00-23:00"}}, {"type": "node", "id": 5881121185, "lat": 42.6547379, "lon": 44.6490025, "tags": {"name": "\u10d8\u10da\u10d8\u10d0\u10e3\u10dc\u10d8 \u10e1\u10e2\u10d4\u10e4\u10d0\u10dc\u10ec\u10db\u10d8\u10dc\u10d3\u10d8\u10e1 \u10d0\u10da\u10de\u10e3\u10e0\u10d8 \u10d4\u10d9\u10dd\u10da\u10dd\u10d2\u10d8\u10d8\u10e1 \u10d8\u10dc\u10e1\u10e2\u10d8\u10e2\u10e3\u10e2\u10d8", "name:en": "ILIAUNI Stephantsminda Alpine Ecology Institute", "tourism": "guest_house"}}, {"type": "node", "id": 6162021486, "lat": 42.6553295, "lon": 44.6400413, "tags": {"addr:housenumber": "45", "addr:postcode": "0470", "addr:street": "\u10d0\u10da\u10d4\u10e5\u10e1\u10d0\u10dc\u10d3\u10e0\u10d4 \u10e7\u10d0\u10d6\u10d1\u10d4\u10d2\u10d8\u10e1 \u10e5\u10e3\u10e9\u10d0", "contact:mobile": "+995 595 20 70 68", "internet_access": "wlan", "name": "8000 \u10e6\u10d5\u10d8\u10dc\u10d8\u10e1 \u10d9\u10d4\u10d3\u10d4\u10da\u10d8", "name:en": "8000 Wine Wall", "opening_hours": "24/7", "tourism": "hotel"}}, {"type": "node", "id": 6283587585, "lat": 42.6567731, "lon": 44.642157, "tags": {"addr:city": "\u10e1\u10e2\u10d4\u10e4\u10d0\u10dc\u10ec\u10db\u10d8\u10dc\u10d3\u10d0", "addr:housenumber": "50", "addr:postcode": "4700", "addr:street": "\u10d5\u10d0\u10df\u10d0 \u10e4\u10e8\u10d0\u10d5\u10d4\u10da\u10d0\u10e1 \u10e5\u10e3\u10e9\u10d0", "internet_access": "wlan", "tourism": "guest_house"}}, {"type": "node", "id": 6426136599, "lat": 42.6618506, "lon": 44.6464278, "tags": {"internet_access": "wlan", "internet_access:fee": "no", "name": "Toliketi", "tourism": "hotel"}}, {"type": "node", "id": 6462784851, "lat": 42.6611078, "lon": 44.6447093, "tags": {"addr:housenumber": "1", "addr:street:en": "I. Chavchavadze", "internet_access": "wlan", "name": "Archil & Nino Gigauri", "tourism": "guest_house"}}, {"type": "node", "id": 6572059985, "lat": 42.6516734, "lon": 44.6490595, "tags": {"name": "Kazbegi View", "tourism": "hotel"}}, {"type": "node", "id": 6590569187, "lat": 42.658817, "lon": 44.6410613, "tags": {"amenity": "restaurant", "check_date": "2025-06-18", "cuisine": "georgian;breakfast;international", "internet_access": "wlan", "name": "Kazbegya"}}, {"type": "node", "id": 6594860985, "lat": 42.6599264, "lon": 44.6358274, "tags": {"addr:housenumber": "18", "addr:street": "Gergeti", "internet_access": "wlan", "name": "GULI", "tourism": "guest_house"}}, {"type": "node", "id": 6595794785, "lat": 42.66487, "lon": 44.6112023, "tags": {"name": "Amazing view of the church", "tourism": "viewpoint"}}, {"type": "node", "id": 6615364932, "lat": 42.6579038, "lon": 44.6412748, "tags": {"amenity": "cafe", "check_date": "2025-08-24", "name": "\u10d3\u10e3\u10ea\u10d8", "name:en": "Dootsi", "name:ka": "\u10d3\u10e3\u10ea\u10d8"}}, {"type": "node", "id": 6681747668, "lat": 42.6586303, "lon": 44.6477958, "tags": {"addr:city": "\u10e1\u10e2\u10d4\u10e4\u10d0\u10dc\u10ec\u10db\u10d8\u10dc\u10d3\u10d0", "addr:housenumber": "42", "addr:postcode": "4700", "addr:street": "\u10e2\u10d0\u10d1\u10d8\u10eb\u10d8\u10e1 \u10e5\u10e3\u10e9\u10d0", "name": "\u10d8\u10d5\u10d4\u10e0\u10d8\u10d0", "name:en": "Iveria", "name:ka": "\u10d8\u10d5\u10d4\u10e0\u10d8\u10d0", "name:ru": "\u0418\u0432\u0435\u0440\u0438\u044f", "tourism": "hotel"}}, {"type": "node", "id": 6681747673, "lat": 42.6570377, "lon": 44.6475929, "tags": {"addr:city": "\u10e1\u10e2\u10d4\u10e4\u10d0\u10dc\u10ec\u10db\u10d8\u10dc\u10d3\u10d0", "addr:housenumber": "56", "addr:postcode": "4700", "addr:street": "\u10e2\u10d0\u10d1\u10d8\u10eb\u10d8\u10e1 \u10e5\u10e3\u10e9\u10d0", "name": "Wooden Hotel Kazbegi", "tourism": "hotel"}}, {"type": "node", "id": 6691872885, "lat": 42.6509101, "lon": 44.6435458, "tags": {"addr:street": "\u0423\u043b. \u043a\u043e\u0441\u0442\u0430\u0432\u0430", "contact:mobile": "+995 599 93 19 86", "internet_access": "wlan", "name": "\u10d0\u10e0\u10e2\u10e7\u10d0\u10d6\u10d1\u10d4\u10d2\u10d8", "name:en": "Artkazbegi", "name:ru": "\u0410\u0440\u0442\u043a\u0430\u0437\u0431\u0435\u0433\u0438", "opening_hours": "24/7", "operator": "\u10d5\u10d0\u10df\u10d0 \u10d7\u10d4\u10e5\u10d7\u10e3\u10e0\u10db\u10d0\u10dc\u10d8\u10eb\u10d4", "tourism": "hotel"}}, {"type": "node", "id": 6787912820, "lat": 42.660556, "lon": 44.6380436, "tags": {"amenity": "restaurant", "check_date": "2025-08-23", "name": "Panorama Kazbegi"}}, {"type": "node", "id": 6797069186, "lat": 42.6608074, "lon": 44.6450176, "tags": {"amenity": "restaurant", "name:en": "Lunch at Maia"}}, {"type": "node", "id": 6832907385, "lat": 42.6592503, "lon": 44.6431931, "tags": {"addr:housenumber": "14", "addr:street": "\u10d5\u10d0\u10df\u10d0 \u10e4\u10e8\u10d0\u10d5\u10d4\u10da\u10d0\u10e1 \u10e5\u10e3\u10e9\u10d0", "name:en": "Uptown Boutique Kazbegi", "tourism": "hotel"}}, {"type": "node", "id": 6840641985, "lat": 42.6596428, "lon": 44.6410615, "tags": {"amenity": "restaurant", "check_date": "2025-06-18", "cuisine": "indian", "name:en": "Bollywood Masala"}}, {"type": "node", "id": 6841720201, "lat": 42.662422, "lon": 44.6315004, "tags": {"tourism": "guest_house"}}, {"type": "node", "id": 6847316185, "lat": 42.6539079, "lon": 44.6448556, "tags": {"name:en": "Tamar 3 Guesthouse", "tourism": "guest_house"}}, {"type": "node", "id": 6928876423, "lat": 42.6542328, "lon": 44.647019, "tags": {"contact:facebook": "https://www.facebook.com/VillaKazbegiHotel/", "name": "Villa Kazbegi", "tourism": "hotel"}}, {"type": "node", "id": 6948882432, "lat": 42.6572868, "lon": 44.6410993, "tags": {"amenity": "cafe", "check_date": "2025-06-18", "cuisine": "coffee_shop", "name": "Lunch Time", "takeaway": "only"}}, {"type": "node", "id": 7035824986, "lat": 42.6579446, "lon": 44.6380301, "tags": {"addr:housenumber": "17", "charge": "20 GEL per room", "contact:mobile": "+995 591 40 02 11;+995 593 19 92 00", "description": "very warm in winter, cheap food, 20 GEL per room (2 people), great view", "internet_access": "wlan", "name": "Maia Guesthouse", "name:en": "Maia Guesthouse", "tourism": "guest_house"}}, {"type": "node", "id": 7218793985, "lat": 42.6597819, "lon": 44.6413542, "tags": {"name:en": "Porta Caucasia Hotel", "tourism": "hotel"}}, {"type": "node", "id": 7246205273, "lat": 42.6524944, "lon": 44.6469251, "tags": {"addr:city": "\u10e1\u10e2\u10d4\u10e4\u10d0\u10dc\u10ec\u10db\u10d8\u10dc\u10d3\u10d0", "addr:housenumber": "37", "addr:street": "\u10e2\u10d0\u10d1\u10d8\u10eb\u10d8\u10e1 \u10e5\u10e3\u10e9\u10d0", "addr:street:en": "Tabidze Street", "breakfast": "yes", "description": "Unblocked view up to the Gergeti Trinity Church.", "internet_access": "wlan", "internet_access:fee": "no", "name": "Kazbegi Guide", "tourism": "guest_house", "website": "https://www.booking.com/Share-juLq8W"}}, {"type": "node", "id": 7425304183, "lat": 42.6928879, "lon": 44.6358618, "tags": {"artwork_type": "sculpture", "name": "Ram", "tourism": "artwork"}}, {"type": "node", "id": 7425304184, "lat": 42.6928259, "lon": 44.6357507, "tags": {"tourism": "viewpoint"}}, {"type": "node", "id": 7639882046, "lat": 42.6604918, "lon": 44.6469583, "tags": {"name": "Roza Guest House", "tourism": "guest_house"}}, {"type": "node", "id": 7710132585, "lat": 42.6514936, "lon": 44.6451502, "tags": {"addr:housenumber": "19", "addr:street": "\u0426\u0430\u0440\u0438\u0446\u044b \u0422\u0430\u043c\u0430\u0440\u044b", "contact:mobile": "+995 568 99 74 31", "email": "alibegashvilinino77@gmail.com", "internet_access": "wlan", "name:en": "Guest House Diamond", "name:ru": "\u0413\u043e\u0441\u0442\u0435\u0432\u043e\u0439 \u0434\u043e\u043c \u0414\u0430\u0439\u043c\u043e\u043d\u0434", "opening_hours": "24/7", "tourism": "guest_house"}}, {"type": "node", "id": 8778590119, "lat": 42.6615438, "lon": 44.6390479, "tags": {"addr:street": "\u10db\u10ea\u10ee\u10d4\u10d7\u10d0-\u10e1\u10e2\u10d4\u10e4\u10d0\u10dc\u10ec\u10db\u10d8\u10dc\u10d3\u10d0-\u10da\u10d0\u10e0\u10e1\u10d8", "amenity": "restaurant", "check_date": "2025-08-23", "cuisine": "georgian", "name": "\u10e9\u10d4\u10db\u10d8 \u10dd\u10d1\u10d8\u10d4\u10e5\u10e2\u10d8", "name:en": "My Object", "name:ka": "\u10e9\u10d4\u10db\u10d8 \u10dd\u10d1\u10d8\u10d4\u10e5\u10e2\u10d8", "opening_hours": "Mo-Su 10:00-22:00"}}, {"type": "node", "id": 9105047717, "lat": 42.659248, "lon": 44.6384855, "tags": {"contact:mobile": "+995 555 22 79 97", "internet_access": "wlan", "name:en": "Hill House", "tourism": "guest_house"}}, {"type": "node", "id": 9809275832, "lat": 42.6509463, "lon": 44.6406435, "tags": {"addr:street": "1 Kazbegi St, Stepantsminda, Georgi\u00eb", "amenity": "restaurant", "contact:mobile": "+995 591 40 12 91", "cuisine": "georgian", "internet_access": "wlan", "name:en": "Terravino", "website:menu": "https://terravino.ofoodo.com"}}, {"type": "node", "id": 9872556917, "lat": 42.6605382, "lon": 44.6346806, "tags": {"name:ru": "\u043f\u0430\u0440\u043a\u043e\u0432\u043a\u0430 \u0441 \u0442\u0443\u0430\u043b\u0435\u0442\u043e\u043c \u0438 \u0432\u0438\u0434\u043e\u043c", "tourism": "caravan_site"}}, {"type": "node", "id": 9919044117, "lat": 42.6621323, "lon": 44.6156044, "tags": {"direction": "80", "name:en": "Great view of a Trinity church and a brook down below", "tourism": "viewpoint"}}, {"type": "node", "id": 9952376717, "lat": 42.652256, "lon": 44.6448526, "tags": {"addr:housenumber": "17", "addr:street": "\u10d7\u10d0\u10db\u10d0\u10e0 \u10db\u10d4\u10e4\u10d8\u10e1 \u10e5\u10e3\u10e9\u10d0", "name": "Crystal Kazbegi", "tourism": "guest_house"}}, {"type": "node", "id": 9966389190, "lat": 42.6635985, "lon": 44.6441822, "tags": {"name": "Riverside Kazbegi", "tourism": "guest_house"}}, {"type": "node", "id": 9991388917, "lat": 42.6594386, "lon": 44.6409395, "tags": {"amenity": "cafe", "check_date": "2025-06-18", "name:en": "Shina"}}, {"type": "node", "id": 10001504317, "lat": 42.6559951, "lon": 44.643256, "tags": {"addr:housenumber": "42", "addr:street": "\u10d8\u10da\u10d8\u10d0 \u10ed\u10d0\u10d5\u10ed\u10d0\u10d5\u10d0\u10eb\u10d8\u10e1 \u10e5\u10e3\u10e9\u10d0", "name:en": "Vaso-Levani Guest House", "tourism": "guest_house"}}, {"type": "node", "id": 10052830617, "lat": 42.659022, "lon": 44.6423582, "tags": {"contact:email": "sonchokazbegi@gmail.com", "contact:mobile": "+995 591 33 11 91", "internet_access": "wlan", "name:en": "Soncho Kazbegi", "tourism": "hotel"}}, {"type": "node", "id": 10120738291, "lat": 42.6560252, "lon": 44.647745, "tags": {"addr:city": "\u10e1\u10e2\u10d4\u10e4\u10d0\u10dc\u10ec\u10db\u10d8\u10dc\u10d3\u10d0", "addr:housenumber": "7", "addr:street": "\u10d7\u10d1\u10d8\u10da\u10d8\u10e1\u10d8\u10e1 \u10e5\u10e3\u10e9\u10d0", "contact:mobile": "+995 592 10 04 01", "description:en": "Tbilisi Str, Stepantsminda", "email": "hilltopkazbegi@gmail.com", "internet_access": "wlan", "name": "Hotel Hilltop Kazbegi", "tourism": "hotel"}}, {"type": "node", "id": 10699506806, "lat": 42.6609924, "lon": 44.6459527, "tags": {"addr:housenumber": "4", "addr:street": "\u10db\u10d4\u10e0\u10d0\u10d1 \u10d9\u10dd\u10e1\u10e2\u10d0\u10d5\u10d0\u10e1 \u10e5\u10e3\u10e9\u10d0", "contact:instagram": "graf.kazbegi", "contact:mobile": "+995 551 30 03 00", "internet_access": "wlan", "name:en": "GRAF Kazbegi", "opening_hours": "24/7", "tourism": "hotel"}}, {"type": "node", "id": 10743240655, "lat": 42.6524196, "lon": 44.6457233, "tags": {"check_date": "2023-03-18", "contact:mobile": "+995 597 25 27 26", "email": "vachehotel@gmail.com", "internet_access": "wlan", "internet_access:fee": "customers", "level": "0", "name": "Vache", "name:en": "Vache", "tourism": "hotel"}}, {"type": "node", "id": 10869745289, "lat": 42.6576005, "lon": 44.6409876, "tags": {"artwork_type": "relief", "tourism": "artwork"}}, {"type": "node", "id": 10870831581, "lat": 42.6506043, "lon": 44.6423405, "tags": {"amenity": "restaurant", "contact:email": "hoteldarchi@gmail.com", "contact:mobile": "+995 598 77 61 61", "cuisine": "georgian", "name": "Darchi", "opening_hours": "Mo-Su 09:00-21:30"}}, {"type": "node", "id": 10870936656, "lat": 42.6506062, "lon": 44.6424481, "tags": {"contact:email": "hoteldarchi@gmail.com", "contact:mobile": "+995 598 77 61 61", "name": "Darchi", "tourism": "hotel"}}, {"type": "node", "id": 10943915605, "lat": 42.6586745, "lon": 44.6411282, "tags": {"historic": "memorial", "memorial": "war_memorial", "memorial:conflict": "WW2"}}, {"type": "node", "id": 11033805305, "lat": 42.6547943, "lon": 44.6498193, "tags": {"addr:housenumber": "16", "addr:street": "\u0421\u0442\u0435\u043f\u0430\u043d\u0446\u043c\u0438\u043d\u0434\u0430", "contact:mobile": "+995 599 70 47 39", "internet_access": "wlan", "name:en": "Tsitsia And Stepan Guest House", "name:ru": "\u0426\u0438\u0446\u0438\u044f \u0438 \u0421\u0442\u0435\u043f\u0430\u043d", "tourism": "guest_house"}}, {"type": "node", "id": 11052754725, "lat": 42.650764, "lon": 44.6451448, "tags": {"addr:city": "\u10e1\u10e2\u10d4\u10e4\u10d0\u10dc\u10ec\u10db\u10d8\u10dc\u10d3\u10d0", "addr:housenumber": "28", "addr:postcode": "4700", "addr:street": "King tamar St.", "brand": "Design Hotels", "brand:wikidata": "Q5264274", "contact:email": "kazbegifolk@gmail.com", "contact:facebook": "https://www.facebook.com/profile.php?id=100090993895432", "contact:mobile": "+995 551 35 25 30;+995 593 89 79 97", "internet_access": "wlan", "internet_access:fee": "no", "name": "Kazbegi Folk", "opening_hours": "24/7", "rooms": "2", "tourism": "hotel"}}, {"type": "node", "id": 11067513906, "lat": 42.6637206, "lon": 44.6314545, "tags": {"name:fr": "my space kazegebi", "tourism": "guest_house"}}, {"type": "node", "id": 11080863605, "lat": 42.6530446, "lon": 44.6469469, "tags": {"addr:housenumber": "84", "addr:postcode": "4700", "addr:street": "\u10e2\u10d0\u10d1\u10d8\u10eb\u10d8\u10e1 \u10e5\u10e3\u10e9\u10d0", "contact:mobile": "+995 577 11 17 33", "email": "hotel.havenhill@gmail.com", "internet_access": "wlan", "name:en": "Heaven Hill", "opening_hours": "24/7", "tourism": "hotel"}}, {"type": "node", "id": 11098759406, "lat": 42.6610916, "lon": 44.6393999, "tags": {"amenity": "restaurant", "check_date": "2025-08-23", "name": "Park Inn"}}, {"type": "node", "id": 11098759505, "lat": 42.6550246, "lon": 44.6438313, "tags": {"name:fr": "Discover Kazbegi", "tourism": "hotel"}}, {"type": "node", "id": 11101473577, "lat": 42.651552, "lon": 44.6493838, "tags": {"name": "TIBA", "tourism": "hotel"}}, {"type": "node", "id": 11147622709, "lat": 42.6623982, "lon": 44.6467299, "tags": {"name:en": "Emotion Kazbegi", "tourism": "guest_house"}}, {"type": "node", "id": 11183840251, "lat": 42.6625069, "lon": 44.6297344, "tags": {"amenity": "restaurant", "cuisine": "georgian", "name": "Ethno Cafe", "payment:app": "yes", "payment:cards": "no", "payment:cash": "yes"}}, {"type": "node", "id": 11183840276, "lat": 42.663496, "lon": 44.6306165, "tags": {"name": "Blue Caps", "tourism": "guest_house"}}, {"type": "node", "id": 11257318838, "lat": 42.6663007, "lon": 44.6042236, "tags": {"name": "\u10d4\u10d9\u10da\u10d4\u10e1\u10d8\u10d8\u10e1\u10d0 \u10d3\u10d0 \u10db\u10d7\u10d4\u10d1\u10d8\u10e1 \u10ee\u10d4\u10d3\u10d8", "name:en": "view of church and mountains", "name:ka": "\u10d4\u10d9\u10da\u10d4\u10e1\u10d8\u10d8\u10e1\u10d0 \u10d3\u10d0 \u10db\u10d7\u10d4\u10d1\u10d8\u10e1 \u10ee\u10d4\u10d3\u10d8", "name:ru": "\u0432\u0438\u0434 \u043d\u0430 \u0446\u0435\u0440\u043a\u043e\u0432\u044c \u0438 \u0433\u043e\u0440\u044b", "tourism": "viewpoint"}}, {"type": "node", "id": 11257325737, "lat": 42.6663051, "lon": 44.6057064, "tags": {"tourism": "viewpoint"}}, {"type": "node", "id": 11280208931, "lat": 42.6579955, "lon": 44.6448065, "tags": {"name": "Aronia Kazbegi", "tourism": "hotel"}}, {"type": "node", "id": 11811695469, "lat": 42.6583243, "lon": 44.640436, "tags": {"amenity": "restaurant", "check_date": "2025-06-18"}}, {"type": "node", "id": 11832971571, "lat": 42.6561201, "lon": 44.6421794, "tags": {"name:en": "Sunny Mountain House", "tourism": "guest_house"}}, {"type": "node", "id": 11832990569, "lat": 42.6559571, "lon": 44.6421126, "tags": {"addr:housenumber": "58", "name:en": "Guesthouse Dodo", "tourism": "guest_house"}}, {"type": "node", "id": 11880955081, "lat": 42.6569587, "lon": 44.6433024, "tags": {"check_date": "2024-05-05", "internet_access": "wlan", "internet_access:fee": "customers", "name": "Veranda guesthouse", "payment:cards": "no", "payment:cash": "yes", "payment:credit_cards": "no", "payment:debit_cards": "no", "tourism": "hotel"}}, {"type": "node", "id": 11972277269, "lat": 42.6528505, "lon": 44.6473755, "tags": {"name:en": "Devdaraki Apartments", "name:ko": "Devdaraki Apartments", "tourism": "apartment"}}, {"type": "node", "id": 12050976469, "lat": 42.6552712, "lon": 44.6430611, "tags": {"addr:housenumber": "46", "addr:street": "\u10d8\u10da\u10d8\u10d0 \u10ed\u10d0\u10d5\u10ed\u10d0\u10d5\u10d0\u10eb\u10d8\u10e1 \u10e5\u10e3\u10e9\u10d0", "name:en": "Sweet night", "tourism": "hotel"}}, {"type": "node", "id": 12151193324, "lat": 42.6639687, "lon": 44.6202113, "tags": {"tourism": "viewpoint"}}, {"type": "node", "id": 12561251438, "lat": 42.6626798, "lon": 44.6445281, "tags": {"name": "Grigori guesthouse", "tourism": "guest_house"}}, {"type": "node", "id": 12610288601, "lat": 42.6596851, "lon": 44.636492, "tags": {"addr:housenumber": "3", "addr:postcode": "4700", "addr:street": "\u10ee\u10d4\u10d5\u10d8\u10e1\u10d1\u10d4\u10e0\u10d8\u10e1 \u10e5\u10e3\u10e9\u10d0", "internet_access": "wlan", "name": "\u10e1\u10d0\u10e1\u10e2\u10e3\u10db\u10e0\u10dd \u10d2\u10d4\u10e0\u10d2\u10d4\u10e2\u10d8", "name:en": "Hotel Gergeti", "name:ru": "\u041e\u0442\u0435\u043b\u044c \u0413\u0435\u0440\u0433\u0435\u0442\u0438", "tourism": "hotel"}}, {"type": "node", "id": 12615398362, "lat": 42.6566043, "lon": 44.6470255, "tags": {"tourism": "hostel"}}, {"type": "node", "id": 12818686002, "lat": 42.6520006, "lon": 44.6458724, "tags": {"addr:housenumber": "64", "addr:street": "\u10d8\u10da\u10d8\u10d0 \u10db\u10d4\u10dd\u10e0\u10d8\u10e1 \u10e5\u10e3\u10e9\u10d0", "name": "Cliff House", "tourism": "guest_house"}}, {"type": "node", "id": 12818686401, "lat": 42.6521714, "lon": 44.6458937, "tags": {"addr:housenumber": "62", "addr:street": "\u10d8\u10da\u10d8\u10d0 \u10db\u10d4\u10dd\u10e0\u10d8\u10e1 \u10e5\u10e3\u10e9\u10d0", "name": "Echoes", "tourism": "guest_house"}}, {"type": "node", "id": 12901888601, "lat": 42.6603873, "lon": 44.6452926, "tags": {"name": "Nikolov Guesthouse", "tourism": "guest_house"}}, {"type": "node", "id": 12922899806, "lat": 42.6583664, "lon": 44.6404516, "tags": {"check_date": "2025-06-18", "tourism": "hotel"}}, {"type": "node", "id": 12922899807, "lat": 42.6585195, "lon": 44.6407681, "tags": {"amenity": "restaurant", "check_date": "2025-06-18", "cuisine": "indian"}}, {"type": "node", "id": 12978131061, "lat": 42.6595342, "lon": 44.6409984, "tags": {"amenity": "cafe", "check_date": "2025-06-18", "name": "Green Corner"}}, {"type": "node", "id": 12978131100, "lat": 42.6524566, "lon": 44.6409193, "tags": {"check_date": "2025-06-18", "contact:mobile": "+995 595 14 24 11", "tourism": "guest_house"}}, {"type": "node", "id": 13003866895, "lat": 42.66459, "lon": 44.6140903, "tags": {"tourism": "information"}}, {"type": "node", "id": 13028647602, "lat": 42.6639935, "lon": 44.641056, "tags": {"amenity": "restaurant", "cuisine": "georgian", "name": "\u10db\u10d0\u10d9\u10d0\u10e2\u10dd", "name:en": "Makato", "opening_hours": "Mo-Su 11:00-23:00"}}, {"type": "node", "id": 13061556201, "lat": 42.650779, "lon": 44.6439524, "tags": {"name": "Dari", "name:en": "Dari", "tourism": "hotel"}}, {"type": "node", "id": 13092804239, "lat": 42.6560982, "lon": 44.6400486, "tags": {"amenity": "restaurant", "check_date": "2025-08-23", "name": "\u10e1\u10d0\u10db\u10d0\u10dc\u10d8", "name:en": "Samani", "name:ka": "\u10e1\u10d0\u10db\u10d0\u10dc\u10d8"}}, {"type": "node", "id": 13093942978, "lat": 42.6611586, "lon": 44.6455759, "tags": {"amenity": "cafe", "check_date": "2025-08-24", "name": "Capra", "name:en": "Capra", "opening_hours": "08:30-10:00"}}, {"type": "node", "id": 13093942979, "lat": 42.6611221, "lon": 44.6455259, "tags": {"check_date": "2025-08-24", "name": "Capra", "name:en": "Capra", "tourism": "hotel"}}, {"type": "node", "id": 13094380379, "lat": 42.6886559, "lon": 44.6345218, "tags": {"historic": "wayside_shrine"}}, {"type": "node", "id": 13094380381, "lat": 42.6882526, "lon": 44.6349572, "tags": {"tourism": "viewpoint"}}, {"type": "node", "id": 13094380383, "lat": 42.6928224, "lon": 44.6357175, "tags": {"historic": "wayside_cross"}}, {"type": "node", "id": 13094380384, "lat": 42.6928558, "lon": 44.6357463, "tags": {"historic": "wayside_shrine"}}, {"type": "node", "id": 13094908218, "lat": 42.6918842, "lon": 44.6339152, "tags": {"information": "board", "tourism": "information"}}, {"type": "node", "id": 13101198335, "lat": 42.665396, "lon": 44.6180127, "tags": {"name": "free camping", "tourism": "camp_site"}}, {"type": "node", "id": 13179063439, "lat": 42.6627905, "lon": 44.6446526, "tags": {"addr:city": "\u10e1\u10e2\u10d4\u10e4\u10d0\u10dc\u10ec\u10db\u10d8\u10dc\u10d3\u10d0", "addr:housenumber": "12", "addr:postcode": "4700", "addr:street": "\u10d3\u10d0\u10d5\u10d8\u10d7 \u10d0\u10e6\u10db\u10d0\u10e8\u10d4\u10dc\u10d4\u10d1\u10da\u10d8\u10e1 \u10e5\u10e3\u10e9\u10d0", "contact:mobile": "+995 550 00 20 47", "email": "cottagesdila@gmail.com", "internet_access": "wlan", "internet_access:fee": "no", "name": "Cottages DILA", "tourism": "chalet"}}, {"type": "way", "id": 122024199, "nodes": [1364475296, 1364475308, 1364475314, 1364475346, 1364475338, 1364475343, 1364475333, 1364475331, 1364475317, 1364475301, 1364475304, 1364475283, 2657356408, 1364475296], "tags": {"alt_name:ar": "\u0643\u0646\u064a\u0633\u0629 \u062c\u064a\u0631\u062c\u064a\u062a\u064a \u062a\u0631\u064a\u0646\u064a\u062a\u064a", "alt_name:bn": "\u099c\u09c7\u09b0\u09cd\u0997\u09c7\u099f\u09bf \u099f\u09cd\u09b0\u09bf\u09a8\u09bf\u099f\u09bf \u099a\u09be\u09b0\u09cd\u099a", "alt_name:de": "Gergeti-Dreifaltigkeitskirche", "alt_name:en": "Gergeti Church", "alt_name:es": "Iglesia de la Trinidad de Guergu\u00e9tie", "alt_name:hi": "\u0917\u0947\u0930\u0917\u0947\u091f\u0940 \u091f\u094d\u0930\u093f\u0928\u093f\u091f\u0940 \u091a\u0930\u094d\u091a", "alt_name:it": "Chiesa della Trinit\u00e0 di Gergeti", "alt_name:ja": "\u30b2\u30eb\u30b2\u30c6\u30a3\u4e09\u4f4d\u4e00\u4f53\u6559\u4f1a", "alt_name:ka": "\u10d2\u10d4\u10e0\u10d2\u10d4\u10d7\u10d8\u10e1 \u10e1\u10d0\u10db\u10d4\u10d1\u10d0", "alt_name:nl": "Gergeti Trinity Church", "alt_name:pl": "Ko\u015bci\u00f3\u0142 Tr\u00f3jcy \u015awi\u0119tej w Gergeti", "alt_name:pt": "Igreja da Trindade de Gergeti", "alt_name:ru": "\u0413\u0435\u0440\u0433\u0435\u0442\u0438\u0446\u043a\u0430\u044f \u0446\u0435\u0440\u043a\u043e\u0432\u044c", "alt_name:sv": "Gergeti Trinity Church", "alt_name:tr": "Gergeti Trinity Kilisesi", "alt_name:uk": "\u0426\u0435\u0440\u043a\u0432\u0430 \u0421\u0432\u044f\u0442\u043e\u0457 \u0422\u0440\u0456\u0439\u0446\u0456 \u0432 \u0413\u0435\u0440\u0433\u0435\u0442\u0456", "alt_name:zh": "\u683c\u76d6\u63d0\u5723\u4e09\u4e00\u6559\u5802", "amenity": "place_of_worship", "building": "church", "building:architecture": "byzantine", "building:material": "stone", "denomination": "georgian_orthodox", "description": "\u10d8\u10e1\u10e2\u10dd\u10e0\u10d8\u10e3\u10da\u10d8 \u10d4\u10d9\u10da\u10d4\u10e1\u10d8\u10d0, \u10e0\u10dd\u10db\u10d4\u10da\u10d8\u10ea \u10d9\u10dd\u10dc\u10e4\u10da\u10d8\u10e5\u10e2\u10d4\u10d1\u10d8\u10e1 \u10d3\u10e0\u10dd\u10e1 \u10eb\u10d5\u10d8\u10e0\u10e4\u10d0\u10e1\u10d8 \u10e0\u10d4\u10da\u10d8\u10d2\u10d8\u10e3\u10e0\u10d8 \u10d0\u10e0\u10e2\u10d4\u10e4\u10d0\u10e5\u10e2\u10d4\u10d1\u10d8\u10e1 \u10d7\u10d0\u10d5\u10e8\u10d4\u10e1\u10d0\u10e4\u10e0\u10d0\u10d3 \u10e4\u10e3\u10dc\u10e5\u10ea\u10d8\u10dd\u10dc\u10d8\u10e0\u10d4\u10d1\u10d3\u10d0, \u10d3\u10e0\u10d0\u10db\u10d0\u10e2\u10e3\u10da\u10d0\u10d3 \u10db\u10d3\u10d4\u10d1\u10d0\u10e0\u10d4\u10dd\u10d1\u10e1 \u10d2\u10dd\u10e0\u10d0\u10d9\u10d6\u10d4, \u10e1\u10d0\u10d8\u10d3\u10d0\u10dc\u10d0\u10ea \u10e1\u10e2\u10d4\u10e4\u10d0\u10dc\u10ec\u10db\u10d8\u10dc\u10d3\u10d0\u10e1\u10d0 \u10d3\u10d0 \u10e7\u10d0\u10d6\u10d1\u10d4\u10d2\u10d8\u10e1 \u10db\u10d7\u10d8\u10e1 \u10e3\u10da\u10d0\u10db\u10d0\u10d6\u10d4\u10e1\u10d8 \u10ee\u10d4\u10d3\u10d4\u10d1\u10d8 \u10d8\u10e8\u10da\u10d4\u10d1\u10d0.", "description:ar": "\u0643\u0646\u064a\u0633\u0629 \u062a\u0627\u0631\u064a\u062e\u064a\u0629 \u0643\u0627\u0646\u062a \u0628\u0645\u062b\u0627\u0628\u0629 \u0645\u0644\u062c\u0623 \u0644\u0644\u0642\u0637\u0639 \u0627\u0644\u0623\u062b\u0631\u064a\u0629 \u0627\u0644\u062f\u064a\u0646\u064a\u0629 \u0627\u0644\u062b\u0645\u064a\u0646\u0629 \u062e\u0644\u0627\u0644 \u0641\u062a\u0631\u0627\u062a \u0627\u0644\u0635\u0631\u0627\u0639 \u060c \u0648\u062a\u0642\u0639 \u0628\u0634\u0643\u0644 \u062f\u0631\u0627\u0645\u0627\u062a\u064a\u0643\u064a \u0639\u0644\u0649 \u062a\u0644\u0629 \u062a\u062a\u0645\u062a\u0639 \u0628\u0625\u0637\u0644\u0627\u0644\u0627\u062a \u062e\u0644\u0627\u0628\u0629 \u0639\u0644\u0649 \u0633\u062a\u064a\u0628\u0627\u0646\u062a\u0633\u0645\u064a\u0646\u062f\u0627 \u0648\u062c\u0628\u0644 \u0643\u0627\u0632\u0628\u064a\u0643.", "description:bn": "\u09b8\u0982\u0998\u09be\u09a4\u09c7\u09b0 \u09b8\u09ae\u09af\u09bc \u09ae\u09c2\u09b2\u09cd\u09af\u09ac\u09be\u09a8 \u09a7\u09b0\u09cd\u09ae\u09c0\u09af\u09bc \u09a8\u09bf\u09a6\u09b0\u09cd\u09b6\u09a8\u0997\u09c1\u09b2\u09bf\u09b0 \u0986\u09b6\u09cd\u09b0\u09af\u09bc\u09b8\u09cd\u09a5\u09b2 \u09b9\u09bf\u09b8\u09c7\u09ac\u09c7 \u0995\u09be\u099c \u0995\u09b0\u09be \u098f\u0995\u099f\u09bf \u0990\u09a4\u09bf\u09b9\u09be\u09b8\u09bf\u0995 \u0997\u09bf\u09b0\u09cd\u099c\u09be, \u09a8\u09be\u099f\u0995\u09c0\u09af\u09bc\u09ad\u09be\u09ac\u09c7 \u09b8\u09cd\u099f\u09c7\u09aa\u09cd\u09af\u09be\u09a8\u09cd\u099f\u09b8\u09ae\u09bf\u09a8\u09cd\u09a6\u09be \u098f\u09ac\u0982 \u09ae\u09be\u0989\u09a8\u09cd\u099f \u0995\u09be\u099c\u09ac\u09c7\u0995\u09c7\u09b0 \u09ae\u09a8\u09cb\u09ae\u09c1\u0997\u09cd\u09a7\u0995\u09b0 \u09a6\u09c3\u09b6\u09cd\u09af \u09b8\u09b9 \u098f\u0995\u099f\u09bf \u09aa\u09be\u09b9\u09be\u09a1\u09bc\u09c7 \u0985\u09ac\u09b8\u09cd\u09a5\u09bf\u09a4\u0964", "description:de": "Eine historische Kirche, die in Konfliktzeiten als Zufluchtsort f\u00fcr wertvolle religi\u00f6se Artefakte diente und dramatisch auf einem H\u00fcgel mit atemberaubender Aussicht auf Stepantsminda und den Berg Kasbek gelegen ist.", "description:en": "A historic church that served as a refuge for treasured religious artifacts during times of conflict, dramatically situated on a hill with breathtaking views of Stepantsminda and Mount Kazbek.", "description:es": "Una iglesia hist\u00f3rica que sirvi\u00f3 como refugio para valiosas reliquias religiosas durante tiempos de conflicto, situada dram\u00e1ticamente en una colina con impresionantes vistas de Stepantsminda y el Monte Kazbek.", "description:fr": "Une \u00e9glise historique qui a servi de refuge pour de pr\u00e9cieux artefacts religieux en temps de conflit, situ\u00e9e de fa\u00e7on spectaculaire sur une colline offrant une vue imprenable sur Stepantsminda et le mont Kazbek.", "description:hi": "\u0938\u0902\u0918\u0930\u094d\u0937 \u0915\u0947 \u0938\u092e\u092f \u092c\u0947\u0936\u0915\u0940\u092e\u0924\u0940 \u0927\u093e\u0930\u094d\u092e\u093f\u0915 \u0915\u0932\u093e\u0915\u0943\u0924\u093f\u092f\u094b\u0902 \u0915\u0947 \u0932\u093f\u090f \u090f\u0915 \u0936\u0930\u0923\u0938\u094d\u0925\u0932\u0940 \u0915\u0947 \u0930\u0942\u092a \u092e\u0947\u0902 \u0915\u093e\u092e \u0915\u0930\u0928\u0947 \u0935\u093e\u0932\u093e \u090f\u0915 \u0910\u0924\u093f\u0939\u093e\u0938\u093f\u0915 \u091a\u0930\u094d\u091a, \u0928\u093e\u091f\u0915\u0940\u092f \u0930\u0942\u092a \u0938\u0947 \u0938\u094d\u091f\u0947\u092a\u0947\u0902\u091f\u094d\u0938\u092e\u093f\u0902\u0921\u093e \u0914\u0930 \u092e\u093e\u0909\u0902\u091f \u0915\u093e\u091c\u093c\u094d\u092c\u0947\u0915 \u0915\u0947 \u092e\u0928\u092e\u094b\u0939\u0915 \u0926\u0943\u0936\u094d\u092f\u094b\u0902 \u0915\u0947 \u0938\u093e\u0925 \u090f\u0915 \u092a\u0939\u093e\u0921\u093c\u0940 \u092a\u0930 \u0938\u094d\u0925\u093f\u0924 \u0939\u0948\u0964", "description:it": "Una chiesa storica che serv\u00ec come rifugio per preziosi manufatti religiosi durante i periodi di conflitto, situata in posizione spettacolare su una collina con vista mozzafiato su Stepantsminda e sul Monte Kazbek.", "description:ja": "\u7d1b\u4e89\u306e\u6642\u4ee3\u306b\u8cb4\u91cd\u306a\u5b97\u6559\u7684\u907a\u7269\u306e\u907f\u96e3\u6240\u3068\u3057\u3066\u6a5f\u80fd\u3057\u305f\u6b74\u53f2\u7684\u306a\u6559\u4f1a\u306f\u3001\u30b9\u30c6\u30d1\u30f3\u30c4\u30df\u30f3\u30c0\u3068\u30ab\u30ba\u30d9\u30af\u5c71\u306e\u606f\u3092\u5451\u3080\u3088\u3046\u306a\u666f\u8272\u3092\u671b\u3080\u4e18\u306e\u4e0a\u306b\u30c9\u30e9\u30de\u30c1\u30c3\u30af\u306b\u4f4d\u7f6e\u3057\u3066\u3044\u307e\u3059\u3002", "description:ko": "\ubd84\uc7c1 \uc2dc\ub300\uc5d0 \uadc0\uc911\ud55c \uc885\uad50 \uc720\ubb3c\uc758 \ud53c\ub09c\ucc98 \uc5ed\ud560\uc744 \ud588\ub358 \uc5ed\uc0ac\uc801\uc778 \uad50\ud68c\ub294 \uc2a4\ud14c\ud310\uce20\ubbfc\ub2e4\uc640 \uce74\uc988\ubca0\ud06c \uc0b0\uc758 \uc228\ub9c9\ud788\ub294 \uc804\uacbd\uc744 \uc870\ub9dd\ud560 \uc218 \uc788\ub294 \uc5b8\ub355 \uc704\uc5d0 \uadf9\uc801\uc73c\ub85c \uc704\uce58\ud574 \uc788\uc2b5\ub2c8\ub2e4.", "description:nl": "Een historische kerk die in tijden van conflict dienstdeed als toevluchtsoord voor gekoesterde religieuze artefacten, dramatisch gelegen op een heuvel met een adembenemend uitzicht op Stepantsminda en de berg Kazbek.", "description:pl": "Historyczny ko\u015bci\u00f3\u0142, kt\u00f3ry s\u0142u\u017cy\u0142 jako schronienie dla cennych artefakt\u00f3w religijnych w czasach konflikt\u00f3w, dramatycznie po\u0142o\u017cony na wzg\u00f3rzu z zapieraj\u0105cymi dech w piersiach widokami na Stepancmind\u0119 i g\u00f3r\u0119 Kazbek.", "description:pt": "Uma igreja hist\u00f3rica que serviu de ref\u00fagio para artefatos religiosos preciosos durante tempos de conflito, dramaticamente situada em uma colina com vistas deslumbrantes de Stepantsminda e do Monte Kazbek.", "description:ru": "\u0418\u0441\u0442\u043e\u0440\u0438\u0447\u0435\u0441\u043a\u0430\u044f \u0446\u0435\u0440\u043a\u043e\u0432\u044c, \u0441\u043b\u0443\u0436\u0438\u0432\u0448\u0430\u044f \u0443\u0431\u0435\u0436\u0438\u0449\u0435\u043c \u0434\u043b\u044f \u0446\u0435\u043d\u043d\u044b\u0445 \u0440\u0435\u043b\u0438\u0433\u0438\u043e\u0437\u043d\u044b\u0445 \u0430\u0440\u0442\u0435\u0444\u0430\u043a\u0442\u043e\u0432 \u0432\u043e \u0432\u0440\u0435\u043c\u0435\u043d\u0430 \u043a\u043e\u043d\u0444\u043b\u0438\u043a\u0442\u043e\u0432, \u0440\u0430\u0441\u043f\u043e\u043b\u043e\u0436\u0435\u043d\u0430 \u043d\u0430 \u0445\u043e\u043b\u043c\u0435 \u0441 \u0437\u0430\u0445\u0432\u0430\u0442\u044b\u0432\u0430\u044e\u0449\u0438\u043c\u0438 \u0434\u0443\u0445 \u0432\u0438\u0434\u0430\u043c\u0438 \u043d\u0430 \u0421\u0442\u0435\u043f\u0430\u043d\u0446\u043c\u0438\u043d\u0434\u0443 \u0438 \u0433\u043e\u0440\u0443 \u041a\u0430\u0437\u0431\u0435\u043a.", "description:sv": "En historisk kyrka som tj\u00e4nade som tillflyktsort f\u00f6r v\u00e4rdefulla religi\u00f6sa artefakter under konflikter, dramatiskt bel\u00e4gen p\u00e5 en kulle med hisnande utsikt \u00f6ver Stepantsminda och berget Kazbek.", "description:tr": "\u00c7at\u0131\u015fma zamanlar\u0131nda de\u011ferli dini eserler i\u00e7in bir s\u0131\u011f\u0131nak g\u00f6revi g\u00f6ren tarihi bir kilise, Stepantsminda ve Kazbek Da\u011f\u0131'n\u0131n nefes kesen manzaras\u0131na sahip bir tepe \u00fczerine \u00e7arp\u0131c\u0131 bir \u015fekilde yerle\u015ftirilmi\u015ftir.", "description:uk": "\u0406\u0441\u0442\u043e\u0440\u0438\u0447\u043d\u0430 \u0446\u0435\u0440\u043a\u0432\u0430, \u044f\u043a\u0430 \u0441\u043b\u0443\u0436\u0438\u043b\u0430 \u043f\u0440\u0438\u0442\u0443\u043b\u043a\u043e\u043c \u0434\u043b\u044f \u0446\u0456\u043d\u043d\u0438\u0445 \u0440\u0435\u043b\u0456\u0433\u0456\u0439\u043d\u0438\u0445 \u0430\u0440\u0442\u0435\u0444\u0430\u043a\u0442\u0456\u0432 \u043f\u0456\u0434 \u0447\u0430\u0441 \u043a\u043e\u043d\u0444\u043b\u0456\u043a\u0442\u0456\u0432, \u0440\u043e\u0437\u0442\u0430\u0448\u043e\u0432\u0430\u043d\u0430 \u043d\u0430 \u043f\u0430\u0433\u043e\u0440\u0431\u0456 \u0437 \u0437\u0430\u0445\u043e\u043f\u043b\u044e\u044e\u0447\u0438\u043c\u0438 \u0434\u0443\u0445 \u043a\u0440\u0430\u0454\u0432\u0438\u0434\u0430\u043c\u0438 \u043d\u0430 \u0421\u0442\u0435\u043f\u0430\u043d\u0446\u043c\u0456\u043d\u0434\u0443 \u0442\u0430 \u0433\u043e\u0440\u0443 \u041a\u0430\u0437\u0431\u0435\u043a.", "description:zh": "\u8fd9\u5ea7\u5386\u53f2\u60a0\u4e45\u7684\u6559\u5802\u66fe\u5728\u51b2\u7a81\u65f6\u671f\u4f5c\u4e3a\u73cd\u8d35\u5b97\u6559\u6587\u7269\u7684\u907f\u96be\u6240\uff0c\u5750\u843d\u5728\u4e00\u5ea7\u53ef\u4ee5\u6b23\u8d4f\u5230\u65af\u6377\u6f58\u8328\u660e\u8fbe\u548c\u5361\u5179\u522b\u514b\u5c71\u58ee\u4e3d\u666f\u8272\u7684\u5c71\u4e18\u4e0a\uff0c\u666f\u8272\u4ee4\u4eba\u53f9\u4e3a\u89c2\u6b62\u3002", "ele": "2170", "historic": "yes", "name": "\u10d2\u10d4\u10e0\u10d2\u10d4\u10d7\u10d8\u10e1 \u10e1\u10d0\u10db\u10d4\u10d1\u10d8\u10e1 \u10d4\u10d9\u10da\u10d4\u10e1\u10d8\u10d0", "name:ar": "\u0643\u0646\u064a\u0633\u0629 \u062c\u064a\u0631\u062c\u064a\u062a\u064a \u062a\u0631\u064a\u0646\u064a\u062a\u064a", "name:bn": "\u099c\u09c7\u09b0\u09cd\u0997\u09c7\u099f\u09bf \u099f\u09cd\u09b0\u09bf\u09a8\u09bf\u099f\u09bf \u099a\u09be\u09b0\u09cd\u099a", "name:de": "Gergeti-Dreifaltigkeitskirche", "name:en": "Gergeti Trinity Church", "name:es": "Iglesia de la Trinidad de Guergu\u00e9tie", "name:fr": "\u00c9glise de la Trinit\u00e9 de Guergu\u00e9tie", "name:hi": "\u0917\u0947\u0930\u0917\u0947\u091f\u0940 \u091f\u094d\u0930\u093f\u0928\u093f\u091f\u0940 \u091a\u0930\u094d\u091a", "name:hu": "Gergeti Szenth\u00e1roms\u00e1g templom", "name:it": "Chiesa della Trinit\u00e0 di Gergeti", "name:ja": "\u30b2\u30eb\u30b2\u30c6\u30a3\u4e09\u4f4d\u4e00\u4f53\u6559\u4f1a", "name:ka": "\u10d2\u10d4\u10e0\u10d2\u10d4\u10d7\u10d8\u10e1 \u10e1\u10d0\u10db\u10d4\u10d1\u10d8\u10e1 \u10d4\u10d9\u10da\u10d4\u10e1\u10d8\u10d0", "name:ko": "\uc0ac\uba54\ubc14 \uad50\ud68c", "name:nl": "Gergeti Trinity Church", "name:pl": "Ko\u015bci\u00f3\u0142 Tr\u00f3jcy \u015awi\u0119tej w Gergeti", "name:pt": "Igreja da Trindade de Gergeti", "name:ru": "\u0413\u0435\u0440\u0433\u0435\u0442\u0438\u0446\u043a\u0430\u044f \u0446\u0435\u0440\u043a\u043e\u0432\u044c \u0421\u0432\u044f\u0442\u043e\u0439 \u0422\u0440\u043e\u0438\u0446\u044b", "name:sv": "Gergeti Trinity Church", "name:tr": "Gergeti Trinity Kilisesi", "name:uk": "\u0426\u0435\u0440\u043a\u0432\u0430 \u0421\u0432\u044f\u0442\u043e\u0457 \u0422\u0440\u0456\u0439\u0446\u0456 \u0432 \u0413\u0435\u0440\u0433\u0435\u0442\u0456", "name:zh": "\u683c\u76d6\u63d0\u5723\u4e09\u4e00\u6559\u5802", "reg_name:en": "Gergetis Samebis Eklesia", "reg_name:ru": "\u0413\u0435\u0440\u0433\u0435\u0442\u0438\u0441 \u0421\u0430\u043c\u0435\u0431\u0438\u0441 \u042d\u043a'\u043b\u0435\u0441\u0438\u0430", "religion": "christian", "source": "https://www.nplg.gov.ge/wikidict/index.php/%E1%83%92%E1%83%94%E1%83%A0%E1%83%92%E1%83%94%E1%83%A2%E1%83%98%E1%83%A1_%E1%83%A1%E1%83%90%E1%83%9B%E1%83%94%E1%83%91%E1%83%90", "start_date": "early C14", "tourism": "attraction", "wheelchair": "no", "wikidata": "Q1511206", "wikimedia_commons": "Category:Gergeti Trinity Church", "wikipedia": "ka:\u10d2\u10d4\u10e0\u10d2\u10d4\u10e2\u10d8\u10e1 \u10e1\u10d0\u10db\u10d4\u10d1\u10d8\u10e1 \u10d4\u10d9\u10da\u10d4\u10e1\u10d8\u10d0"}}, {"type": "way", "id": 122024203, "nodes": [1364475248, 9315525018, 2657356437, 9315525019, 1364475262, 12151193360, 1364475236, 1364475240, 1364475248], "tags": {"building": "tower", "building:levels": "2", "building:material": "stone", "description": "\u10d0\u10db \u10d9\u10dd\u10e8\u10d9\u10e1 \u10db\u10d4\u10dd\u10e0\u10d4 \u10e1\u10d0\u10e0\u10d7\u10e3\u10da\u10d6\u10d4 \u10e6\u10d8\u10d0 \u10e1\u10d0\u10db\u10e0\u10d4\u10d9\u10da\u10dd \u10d0\u10e5\u10d5\u10e1, \u10e0\u10dd\u10db\u10d4\u10da\u10d8\u10ea \u10db\u10d8\u10e1 \u10d6\u10d0\u10e0\u10d4\u10d1\u10e1 \u10d2\u10d0\u10e0\u10e8\u10d4\u10db\u10dd \u10db\u10d7\u10d4\u10d1\u10e8\u10d8 \u10e0\u10d4\u10d6\u10dd\u10dc\u10d0\u10dc\u10e1\u10d8\u10e1 \u10e1\u10d0\u10e8\u10e3\u10d0\u10da\u10d4\u10d1\u10d0\u10e1 \u10d0\u10eb\u10da\u10d4\u10d5\u10e1. \u10db\u10d8\u10e1\u10d8 \u10e1\u10d0\u10db\u10ee\u10e0\u10d4\u10d7\u10d8\u10e1 \u10e4\u10d0\u10e1\u10d0\u10d3\u10d8, \u10e0\u10dd\u10db\u10d4\u10da\u10d8\u10ea \u10e1\u10ee\u10d5\u10d4\u10d1\u10d6\u10d4 \u10e3\u10e4\u10e0\u10dd \u10db\u10dd\u10e0\u10d7\u10e3\u10da\u10d8\u10d0, \u10dd\u10d3\u10d4\u10e1\u10e6\u10d0\u10ea \u10d4\u10d9\u10da\u10d4\u10e1\u10d8\u10d8\u10e1 \u10d4\u10d6\u10dd\u10e1 \u10db\u10d7\u10d0\u10d5\u10d0\u10e0 \u10e8\u10d4\u10e1\u10d0\u10e1\u10d5\u10da\u10d4\u10da\u10e1 \u10ec\u10d0\u10e0\u10db\u10dd\u10d0\u10d3\u10d2\u10d4\u10dc\u10d3\u10d0.", "description:ar": "\u062a\u062a\u0645\u064a\u0632 \u0647\u0630\u0647 \u0627\u0644\u0628\u0631\u062c \u0628\u062c\u0631\u0633 \u0645\u0641\u062a\u0648\u062d \u0641\u064a \u0637\u0627\u0628\u0642\u0647\u0627 \u0627\u0644\u062b\u0627\u0646\u064a\u060c \u0645\u0645\u0627 \u064a\u0633\u0645\u062d \u0644\u0623\u062c\u0631\u0627\u0633\u0647\u0627 \u0628\u0627\u0644\u0631\u0646\u064a\u0646 \u0639\u0628\u0631 \u0627\u0644\u062c\u0628\u0627\u0644 \u0627\u0644\u0645\u062d\u064a\u0637\u0629. \u0643\u0627\u0646 \u0648\u0627\u062c\u0647\u062a\u0647\u0627 \u0627\u0644\u062c\u0646\u0648\u0628\u064a\u0629\u060c \u0627\u0644\u0623\u0643\u062b\u0631 \u0632\u062e\u0631\u0641\u0629 \u0645\u0646 \u063a\u064a\u0631\u0647\u0627\u060c \u0628\u0645\u062b\u0627\u0628\u0629 \u0627\u0644\u0645\u062f\u062e\u0644 \u0627\u0644\u0631\u0626\u064a\u0633\u064a \u0644\u062d\u0631\u0645 \u0627\u0644\u0643\u0646\u064a\u0633\u0629.", "description:bn": "\u098f\u0987 \u099f\u09be\u0993\u09af\u09bc\u09be\u09b0\u099f\u09bf\u09b0 \u09a6\u09cd\u09ac\u09bf\u09a4\u09c0\u09af\u09bc \u09a4\u09b2\u09be\u09af\u09bc \u098f\u0995\u099f\u09bf \u0996\u09cb\u09b2\u09be \u0998\u09a3\u09cd\u099f\u09be\u0998\u09b0 \u09b0\u09af\u09bc\u09c7\u099b\u09c7, \u09af\u09be \u098f\u09b0 \u0998\u09a3\u09cd\u099f\u09be\u0997\u09c1\u09b2\u09bf\u0995\u09c7 \u0986\u09b6\u09c7\u09aa\u09be\u09b6\u09c7\u09b0 \u09aa\u09be\u09b9\u09be\u09a1\u09bc \u099c\u09c1\u09a1\u09bc\u09c7 \u09aa\u09cd\u09b0\u09a4\u09bf\u09a7\u09cd\u09ac\u09a8\u09bf\u09a4 \u0995\u09b0\u09a4\u09c7 \u09a6\u09c7\u09af\u09bc\u0964 \u098f\u09b0 \u09a6\u0995\u09cd\u09b7\u09bf\u09a3 \u0985\u0982\u09b6, \u0985\u09a8\u09cd\u09af\u09a6\u09c7\u09b0 \u09a4\u09c1\u09b2\u09a8\u09be\u09af\u09bc \u0986\u09b0\u0993 \u0985\u09b2\u0999\u09cd\u0995\u09c3\u09a4, \u098f\u0995\u09b8\u09ae\u09af\u09bc \u0997\u09bf\u09b0\u09cd\u099c\u09be\u09b0 \u09ac\u09c7\u09a1\u09bc\u09be\u09b0 \u09aa\u09cd\u09b0\u09a7\u09be\u09a8 \u09aa\u09cd\u09b0\u09ac\u09c7\u09b6\u09a6\u09cd\u09ac\u09be\u09b0 \u09b9\u09bf\u09b8\u09c7\u09ac\u09c7 \u0995\u09be\u099c \u0995\u09b0\u09a4\u0964", "description:de": "Dieser Turm verf\u00fcgt \u00fcber einen offenen Glockenturm im zweiten Stock, sodass seine Glocken \u00fcber die umliegenden Berge schallen k\u00f6nnen. Seine S\u00fcdfassade, die kunstvoller gestaltet ist als die anderen, diente einst als Haupteingang zum Kirchenbereich.", "description:en": "This tower features an open belfry on its second floor, allowing its bells to resonate across the surrounding mountains. Its southern fa\u00e7ade, more ornate than the others, once served as the main entrance to the church enclosure.", "description:es": "Esta torre presenta un campanario abierto en su segundo piso, lo que permite que sus campanas resuenen a trav\u00e9s de las monta\u00f1as circundantes. Su fachada sur, m\u00e1s ornamentada que las dem\u00e1s, sirvi\u00f3 en su d\u00eda como entrada principal al recinto de la iglesia.", "description:fr": "Cette tour poss\u00e8de un clocher ouvert au deuxi\u00e8me \u00e9tage, permettant \u00e0 ses cloches de r\u00e9sonner \u00e0 travers les montagnes environnantes. Sa fa\u00e7ade sud, plus orn\u00e9e que les autres, servait autrefois d'entr\u00e9e principale \u00e0 l'enceinte de l'\u00e9glise.", "description:hi": "\u0907\u0938 \u092e\u0940\u0928\u093e\u0930 \u092e\u0947\u0902 \u0926\u0942\u0938\u0930\u0940 \u092e\u0902\u091c\u093f\u0932 \u092a\u0930 \u090f\u0915 \u0916\u0941\u0932\u093e \u0918\u0902\u091f\u093e\u0918\u0930 \u0939\u0948, \u091c\u093f\u0938\u0938\u0947 \u0907\u0938\u0915\u0940 \u0918\u0902\u091f\u093f\u092f\u093e\u0901 \u0906\u0938\u092a\u093e\u0938 \u0915\u0947 \u092a\u0939\u093e\u0921\u093c\u094b\u0902 \u092e\u0947\u0902 \u0917\u0942\u0902\u091c\u0924\u0940 \u0939\u0948\u0902\u0964 \u0907\u0938\u0915\u093e \u0926\u0915\u094d\u0937\u093f\u0923\u0940 \u092d\u093e\u0917, \u091c\u094b \u0905\u0928\u094d\u092f \u0915\u0940 \u0924\u0941\u0932\u0928\u093e \u092e\u0947\u0902 \u0905\u0927\u093f\u0915 \u0905\u0932\u0902\u0915\u0943\u0924 \u0939\u0948, \u0915\u092d\u0940 \u091a\u0930\u094d\u091a \u0915\u0947 \u092a\u094d\u0930\u093e\u0902\u0917\u0923 \u0915\u093e \u092e\u0941\u0916\u094d\u092f \u092a\u094d\u0930\u0935\u0947\u0936 \u0926\u094d\u0935\u093e\u0930 \u0939\u0941\u0906 \u0915\u0930\u0924\u093e \u0925\u093e\u0964", "description:ja": "\u3053\u306e\u5854\u306e2\u968e\u306b\u306f\u9418\u697c\u304c\u3042\u308a\u3001\u9418\u306e\u97f3\u304c\u5468\u56f2\u306e\u5c71\u3005\u306b\u97ff\u304d\u6e21\u308a\u307e\u3059\u3002\u4ed6\u306e\u9762\u3088\u308a\u3082\u88c5\u98fe\u304c\u65bd\u3055\u308c\u305f\u5357\u5074\u306e\u30d5\u30a1\u30b5\u30fc\u30c9\u306f\u3001\u304b\u3064\u3066\u6559\u4f1a\u306e\u6577\u5730\u306e\u6b63\u9580\u3068\u3057\u3066\u4f7f\u308f\u308c\u3066\u3044\u307e\u3057\u305f\u3002", "description:ko": "\uc774 \ud0d1\uc758 2\uce35\uc5d0\ub294 \uc885\uc18c\ub9ac\uac00 \uc8fc\ubcc0 \uc0b0\uc744 \uc6b8\ub9ac\ub3c4\ub85d \uc124\uacc4\ub41c \uac1c\ubc29\ud615 \uc885\ud0d1\uc774 \uc788\uc2b5\ub2c8\ub2e4. \ub2e4\ub978 \uba74\ubcf4\ub2e4 \ub354 \ud654\ub824\ud558\uac8c \uc7a5\uc2dd\ub41c \ub0a8\ucabd \uc815\uba74\uc740 \ud55c\ub54c \uad50\ud68c \ubd80\uc9c0\ub85c \ub4e4\uc5b4\uac00\ub294 \uc8fc \ucd9c\uc785\uad6c\uc600\uc2b5\ub2c8\ub2e4.", "description:nl": "Deze toren heeft een open klokkentoren op de tweede verdieping, waardoor de klokken over de omliggende bergen kunnen weerklinken. De zuidgevel, die sierlijker is dan de andere, diende ooit als hoofdingang van het kerkterrein.", "description:pl": "Ta wie\u017ca ma otwart\u0105 dzwonnic\u0119 na drugim pi\u0119trze, dzi\u0119ki czemu jej dzwony rozbrzmiewaj\u0105 po okolicznych g\u00f3rach. Jej po\u0142udniowa fasada, bardziej ozdobna ni\u017c pozosta\u0142e, niegdy\u015b s\u0142u\u017cy\u0142a jako g\u0142\u00f3wne wej\u015bcie na teren ko\u015bcielny.", "description:pt": "Esta torre possui um campan\u00e1rio aberto no segundo andar, permitindo que os seus sinos ressoem pelas montanhas circundantes. A sua fachada sul, mais ornamentada que as outras, serviu outrora como entrada principal para o recinto da igreja.", "description:ru": "\u042d\u0442\u0430 \u0431\u0430\u0448\u043d\u044f \u0438\u043c\u0435\u0435\u0442 \u043e\u0442\u043a\u0440\u044b\u0442\u0443\u044e \u0437\u0432\u043e\u043d\u043d\u0438\u0446\u0443 \u043d\u0430 \u0432\u0442\u043e\u0440\u043e\u043c \u044d\u0442\u0430\u0436\u0435, \u043f\u043e\u0437\u0432\u043e\u043b\u044f\u044f \u043a\u043e\u043b\u043e\u043a\u043e\u043b\u0430\u043c \u0440\u0430\u0437\u043d\u043e\u0441\u0438\u0442\u044c\u0441\u044f \u043f\u043e \u043e\u043a\u0440\u0443\u0436\u0430\u044e\u0449\u0438\u043c \u0433\u043e\u0440\u0430\u043c. \u0415\u0435 \u044e\u0436\u043d\u044b\u0439 \u0444\u0430\u0441\u0430\u0434, \u0431\u043e\u043b\u0435\u0435 \u0431\u043e\u0433\u0430\u0442\u043e \u0443\u043a\u0440\u0430\u0448\u0435\u043d\u043d\u044b\u0439, \u0447\u0435\u043c \u0434\u0440\u0443\u0433\u0438\u0435, \u043a\u043e\u0433\u0434\u0430-\u0442\u043e \u0441\u043b\u0443\u0436\u0438\u043b \u0433\u043b\u0430\u0432\u043d\u044b\u043c \u0432\u0445\u043e\u0434\u043e\u043c \u043d\u0430 \u0442\u0435\u0440\u0440\u0438\u0442\u043e\u0440\u0438\u044e \u0446\u0435\u0440\u043a\u0432\u0438.", "description:sv": "Det h\u00e4r tornet har en \u00f6ppen klockstapel p\u00e5 andra v\u00e5ningen, vilket g\u00f6r att dess klockor kan ljuda \u00f6ver de omgivande bergen. Dess s\u00f6dra fasad, mer utsmyckad \u00e4n de andra, fungerade en g\u00e5ng som huvudentr\u00e9 till kyrkog\u00e5rden.", "description:tr": "Bu kulenin ikinci kat\u0131nda, \u00e7evredeki da\u011flarda yank\u0131lanan \u00e7anlar\u0131n bulundu\u011fu a\u00e7\u0131k bir \u00e7an kulesi vard\u0131r. Di\u011ferlerinden daha s\u00fcsl\u00fc olan g\u00fcney cephesi, bir zamanlar kilise arazisine ana giri\u015f olarak hizmet veriyordu.", "description:uk": "\u0426\u044f \u0432\u0435\u0436\u0430 \u043c\u0430\u0454 \u0432\u0456\u0434\u043a\u0440\u0438\u0442\u0443 \u0434\u0437\u0432\u0456\u043d\u0438\u0446\u044e \u043d\u0430 \u0434\u0440\u0443\u0433\u043e\u043c\u0443 \u043f\u043e\u0432\u0435\u0440\u0441\u0456, \u0449\u043e \u0434\u043e\u0437\u0432\u043e\u043b\u044f\u0454 \u0457\u0457 \u0434\u0437\u0432\u043e\u043d\u0430\u043c \u043b\u0443\u043d\u0430\u0442\u0438 \u043d\u0430\u0434 \u043d\u0430\u0432\u043a\u043e\u043b\u0438\u0448\u043d\u0456\u043c\u0438 \u0433\u043e\u0440\u0430\u043c\u0438. \u0407\u0457 \u043f\u0456\u0432\u0434\u0435\u043d\u043d\u0438\u0439 \u0444\u0430\u0441\u0430\u0434, \u0431\u0456\u043b\u044c\u0448 \u043f\u0440\u0438\u043a\u0440\u0430\u0448\u0435\u043d\u0438\u0439, \u043d\u0456\u0436 \u0456\u043d\u0448\u0456, \u043a\u043e\u043b\u0438\u0441\u044c \u0441\u043b\u0443\u0436\u0438\u0432 \u0433\u043e\u043b\u043e\u0432\u043d\u0438\u043c \u0432\u0445\u043e\u0434\u043e\u043c \u0434\u043e \u0446\u0435\u0440\u043a\u043e\u0432\u043d\u043e\u0457 \u043e\u0433\u043e\u0440\u043e\u0436\u0456.", "description:zh": "\u8fd9\u5ea7\u5854\u7684\u4e8c\u697c\u6709\u4e00\u4e2a\u5f00\u653e\u5f0f\u949f\u697c\uff0c\u53ef\u4ee5\u8ba9\u949f\u58f0\u54cd\u5f7b\u5468\u56f4\u7684\u5c71\u8109\u3002\u5176\u5357\u7acb\u9762\u6bd4\u5176\u4ed6\u7acb\u9762\u66f4\u52a0\u534e\u4e3d\uff0c\u66fe\u7ecf\u662f\u6559\u5802\u5ead\u9662\u7684\u4e3b\u5165\u53e3\u3002", "historic": "yes", "man_made": "tower", "start_date": "late C14", "tower:construction": "freestanding", "tower:type": "bell_tower"}}, {"type": "way", "id": 293945157, "nodes": [2975219783, 11183840275, 13086922767, 13086922766, 2975219799, 2975219795, 11183840326, 11183840404, 11183840341, 2975219781, 2975219783], "tags": {"addr:housenumber": "18", "addr:street": "Ilia II Street", "building": "hotel", "building:levels": "3", "contact:facebook": "https://facebook.com/intouristkazbegi", "contact:instagram": "https://instagram.com/intourist.kazbegi", "contact:phone": "+995 32 202 22 20", "email": "reservations@intouristkazbegi.com", "internet_access": "wlan", "name": "\u10d8\u10dc\u10e2\u10e3\u10e0\u10d8\u10e1\u10e2\u10d8 \u10e7\u10d0\u10d6\u10d1\u10d4\u10d2\u10d8", "name:en": "Intourist Kazbegi", "opening_hours": "24/7", "tourism": "hotel"}}, {"type": "way", "id": 293945171, "nodes": [2975219886, 2975219888, 2975219887, 2975219881, 2975219882, 2975219884, 2975219886], "tags": {"addr:city": "\u10e1\u10e2\u10d4\u10e4\u10d0\u10dc\u10ec\u10db\u10d8\u10dc\u10d3\u10d0", "addr:country": "GE", "addr:housenumber": "2", "addr:postcode": "4700", "addr:street": "\u10d0\u10da\u10d4\u10e5\u10e1\u10d0\u10dc\u10d3\u10e0\u10d4 \u10e7\u10d0\u10d6\u10d1\u10d4\u10d2\u10d8\u10e1 \u10e5\u10e3\u10e9\u10d0", "building": "yes", "email": "stepantsminda@heritagesites.ge", "name": "\u10e1\u10e2\u10d4\u10e4\u10d0\u10dc\u10ec\u10db\u10d8\u10dc\u10d3\u10d8\u10e1 \u10d8\u10e1\u10e2\u10dd\u10e0\u10d8\u10e3\u10da\u10d8 \u10db\u10e3\u10d6\u10d4\u10e3\u10db\u10d8. \u10d0\u10da\u10d4\u10e5\u10e1\u10d0\u10dc\u10d3\u10e0\u10d4 \u10e7\u10d0\u10d6\u10d1\u10d4\u10d2\u10d8\u10e1 \u10e1\u10d0\u10ee\u10da-\u10db\u10e3\u10d6\u10d4\u10e3\u10db\u10d8", "name:en": "Stepantsminda Historical Museum. Aleksandre Kazbegi house museum", "name:ka": "\u10d0\u10da\u10d4\u10e5\u10e1\u10d0\u10dc\u10d3\u10e0\u10d4 \u10e7\u10d0\u10d6\u10d1\u10d4\u10d2\u10d8\u10e1 \u10e1\u10d0\u10ee\u10da-\u10db\u10e3\u10d6\u10d4\u10e3\u10db\u10d8", "name:ru": "\u0418\u0441\u0442\u043e\u0440\u0438\u0447\u0435\u0441\u043a\u0438\u0439 \u043c\u0443\u0437\u0435\u0439 \u0421\u0442\u0435\u043f\u0430\u043d\u0446\u043c\u0438\u043d\u0434\u0430. \u041a\u0430\u0437\u0431\u0435\u0433\u0441\u043a\u0438\u0439 \u043a\u0440\u0430\u0435\u0432\u0435\u0434\u0447\u0435\u0441\u043a\u0438\u0439 \u043c\u0443\u0437\u0435\u0439", "phone": "+995 590 88 01 11", "tourism": "museum", "wikidata": "Q107637163"}}, {"type": "way", "id": 293946136, "nodes": [2975229038, 2975229040, 2975229039, 2975229037, 2975229038], "tags": {"addr:city": "\u10e1\u10e2\u10d4\u10e4\u10d0\u10dc\u10ec\u10db\u10d8\u10dc\u10d3\u10d0", "addr:housenumber": "47", "addr:street": "Titsian Tabidze street", "building": "yes", "name": "Chemodann Hotel Kazbegi", "tourism": "hostel"}}, {"type": "way", "id": 293946151, "nodes": [2975229161, 2975229163, 2975229162, 2975229160, 2975229161], "tags": {"addr:housenumber": "8", "addr:street": "\u10d7\u10d1\u10d8\u10da\u10d8\u10e1\u10d8\u10e1 \u10e5\u10e3\u10e9\u10d0", "building": "yes", "name:en": "Northgate Kazbegi", "tourism": "hotel", "website": "https://northgate.ge/"}}, {"type": "way", "id": 294488998, "nodes": [2980849819, 2980849828, 2980849827, 11917450573, 11917450574, 2980849817, 2980849819], "tags": {"addr:housenumber": "50", "addr:street": "\u10d8\u10da\u10d8\u10d0 \u10ed\u10d0\u10d5\u10ed\u10d0\u10d5\u10d0\u10eb\u10d8\u10e1 \u10e5\u10e3\u10e9\u10d0", "building": "yes", "building:levels": "1", "name": "Lela Rezo Guesthouse", "name:en": "Lela Rezo Guesthouse", "tourism": "guest_house"}}, {"type": "way", "id": 294509633, "nodes": [2981066743, 2981066751, 2981066748, 2981066742, 2981066743], "tags": {"building": "yes", "check_date": "2025-06-18", "name": "Nunu Maisuradze hostel", "name:en": "Nunu\u2018s Guesthouse", "tourism": "hostel"}}, {"type": "way", "id": 294509647, "nodes": [2981066575, 2981066590, 2981066588, 2981066573, 2981066575], "tags": {"addr:housenumber": "50", "addr:street": "\u10d0\u10da\u10d4\u10e5\u10e1\u10d0\u10dc\u10d3\u10e0\u10d4 \u10e7\u10d0\u10d6\u10d1\u10d4\u10d2\u10d8\u10e1 \u10e5\u10e3\u10e9\u10d0", "building": "yes", "tourism": "guest_house"}}, {"type": "way", "id": 297309268, "nodes": [3011828024, 11195334517, 3011828025, 3011828023, 3011828022, 3011828024], "tags": {"leisure": "park"}}, {"type": "way", "id": 297309269, "nodes": [3011829944, 3011829945, 3011829946, 3011829947, 3011829941, 3011829940, 3011829943, 3011829942, 3011829937, 3011829936, 12164427119, 12164427118, 3011829944], "tags": {"building": "yes", "name": "Ineza Guest House", "tourism": "guest_house"}}, {"type": "way", "id": 297309271, "nodes": [3011829954, 3011829956, 3011829951, 12164427127, 12164427128, 12164427125, 12164427126, 3011829948, 3011829952, 3011829953, 3011829954], "tags": {"addr:street": "Qvemo gergeti str.", "building": "yes", "contact:mobile": "+995 571 03 24 39", "email": "ketinosujashvili@mail.ru", "internet_access": "wlan", "name": "Ketino", "name:en": "Ketino Sujashvili", "tourism": "guest_house"}}, {"type": "way", "id": 529376231, "nodes": [5142525902, 5142525903, 5142525904, 5142525905, 5142525902], "tags": {"addr:city": "\u10e1\u10e2\u10d4\u10e4\u10d0\u10dc\u10ec\u10db\u10d8\u10dc\u10d3\u10d0", "addr:street": "Khevisberi", "building": "yes", "name": "HQ of Nove Sujashvili", "operator": "Nove", "rooms": "4", "tourism": "guest_house"}}, {"type": "way", "id": 529471921, "nodes": [5137018095, 5143183608, 5143183609, 5143183610, 5143183611, 5143183612, 5137018095], "tags": {"addr:city": "\u10e1\u10e2\u10d4\u10e4\u10d0\u10dc\u10ec\u10db\u10d8\u10dc\u10d3\u10d0", "addr:housenumber": "19", "addr:postcode": "4700", "addr:street": "Khevisberi", "building": "yes", "internet_access": "wlan", "internet_access:fee": "yes", "name": "Nino's GuestHouse", "rooms": "5", "smoking": "outside", "tourism": "guest_house"}}, {"type": "way", "id": 530194331, "nodes": [5149035365, 5143183559, 5149035366, 5149035367, 5149035368, 5149035369, 12164427162, 5149035365], "tags": {"addr:city": "\u10e1\u10e2\u10d4\u10e4\u10d0\u10dc\u10ec\u10db\u10d8\u10dc\u10d3\u10d0", "addr:housenumber": "29", "addr:postcode": "4700", "addr:street": "Khevisberi", "building": "yes", "contact:mobile": "+995 571 03 24 39", "internet_access": "wlan", "name": "Ketino's Guest-house", "tourism": "guest_house"}}, {"type": "way", "id": 530198505, "nodes": [5149060042, 5149060043, 12164427045, 5149060047, 5149060048, 5149060042], "tags": {"addr:city": "\u10e1\u10e2\u10d4\u10e4\u10d0\u10dc\u10ec\u10db\u10d8\u10dc\u10d3\u10d0", "addr:postcode": "4700", "addr:street": "Khevisberi", "building": "yes", "name": "Guesthouse Koba Kakha", "name:en": "Guesthouse Kaxa Shorena", "tourism": "guest_house"}}, {"type": "way", "id": 530202754, "nodes": [5149082898, 5149084488, 5149084489, 5149084490, 5149084491, 5149084492, 5149084493, 5149084494, 5149082898], "tags": {"addr:city": "\u10e1\u10e2\u10d4\u10e4\u10d0\u10dc\u10ec\u10db\u10d8\u10dc\u10d3\u10d0", "addr:postcode": "4700", "addr:street": "Khevisberi", "building": "yes", "name": "Nazi Guesthouse", "tourism": "guest_house"}}, {"type": "way", "id": 530463183, "nodes": [5151077081, 5151077082, 5151077083, 5151077084, 5151077081], "tags": {"addr:city": "\u10e1\u10e2\u10d4\u10e4\u10d0\u10dc\u10ec\u10db\u10d8\u10dc\u10d3\u10d0", "addr:postcode": "4700", "addr:street": "Khevisberi", "building": "yes", "tourism": "guest_house"}}, {"type": "way", "id": 531457920, "nodes": [5159011308, 5159011309, 5159011310, 5159011311, 5159011308], "tags": {"addr:city": "\u10e1\u10e2\u10d4\u10e4\u10d0\u10dc\u10ec\u10db\u10d8\u10dc\u10d3\u10d0", "addr:postcode": "4700", "addr:street": "Khevisberi", "building": "yes", "internet_access": "yes", "name": "V & M Kazbegi GuestHouse", "rooms": "5", "smoking": "outside", "tourism": "guest_house"}}, {"type": "way", "id": 533758750, "nodes": [5177857792, 5177857793, 5177857794, 5177857795, 5177857796, 5177857797, 6681747676, 5177857792], "tags": {"historic": "memorial", "memorial": "obelisk", "name": "II \u10db\u10e1\u10dd\u10e4\u10da\u10d8\u10dd \u10dd\u10db\u10d8\u10e1 \u10db\u10d4\u10db\u10dd\u10e0\u10d8\u10d0\u10da\u10d8", "name:ka": "II \u10db\u10e1\u10dd\u10e4\u10da\u10d8\u10dd \u10dd\u10db\u10d8\u10e1 \u10db\u10d4\u10db\u10dd\u10e0\u10d8\u10d0\u10da\u10d8"}}, {"type": "way", "id": 946820947, "nodes": [8764498298, 11183840278, 8764498299, 11183840285, 11183840363, 11183840366, 8764498302, 8764498303, 11183840289, 8764498298], "tags": {"building": "yes", "building:levels": "2", "contact:mobile": "+995 598 33 93 13", "name": "Kazbegi hut", "tourism": "hotel"}}, {"type": "way", "id": 946820948, "nodes": [8764498306, 8764498307, 8764498308, 8764498309, 8764498306], "tags": {"addr:city": "\u10e1\u10e2\u10d4\u10e4\u10d0\u10dc\u10ec\u10db\u10d8\u10dc\u10d3\u10d0", "addr:housenumber": "18", "addr:postcode": "0108", "addr:street": "Betlemi Street", "building": "yes", "contact:mobile": "+995 598 33 93 13", "description": "Two identical cabin in Stepantsminda, Gergeti. Specious interior design made especially for you to feel comfortable and have a great and remarkable time", "email": "hut.kazbegi@gmail.com", "image": "https://static.wixstatic.com/media/ac77f0_0218325e98094c4997d7646fbfd2eb78~mv2.jpg", "internet_access": "wlan", "internet_access:fee": "customers", "name": "Kazbegi cabins", "rooms": "6", "tourism": "hotel", "website": "https://www.facebook.com/Kazbegi-Cabins-100449818145197/"}}, {"type": "way", "id": 1089438082, "nodes": [9979611116, 9979642017, 9979611114, 9979611113, 9979611115, 11934777431, 9979611112, 9979611116], "tags": {"addr:city": "\u10e1\u10e2\u10d4\u10e4\u10d0\u10dc\u10ec\u10db\u10d8\u10dc\u10d3\u10d0", "addr:country": "GE", "addr:housenumber": "2", "addr:postcode": "4700", "addr:street": "Alexander Kazbegi Street", "building": "yes", "check_date": "2025-06-18", "information": "office", "name": "\u10e7\u10d0\u10d6\u10d1\u10d4\u10d2\u10d8\u10e1 \u10d4\u10e0\u10dd\u10d5\u10dc\u10e3\u10da\u10d8 \u10de\u10d0\u10e0\u10d9\u10d8\u10e1 \u10d5\u10d8\u10d6\u10d8\u10e2\u10dd\u10e0\u10d7\u10d0 \u10ea\u10d4\u10dc\u10e2\u10e0\u10d8", "name:en": "Kazbegi National Park Visitor Center", "name:ka": "\u10e7\u10d0\u10d6\u10d1\u10d4\u10d2\u10d8\u10e1 \u10d4\u10e0\u10dd\u10d5\u10dc\u10e3\u10da\u10d8 \u10de\u10d0\u10e0\u10d9\u10d8\u10e1 \u10d5\u10d8\u10d6\u10d8\u10e2\u10dd\u10e0\u10d7\u10d0 \u10ea\u10d4\u10dc\u10e2\u10e0\u10d8", "operator": "Kazbegi National Park", "tourism": "information"}}, {"type": "way", "id": 1206948252, "nodes": [11183840402, 11183840388, 11183840261, 11183840410, 11183840402], "tags": {"addr:housenumber": "15", "addr:street": "Stepantsminda-Sameba", "building": "hotel", "building:levels": "3", "name": "Hotel Geni", "tourism": "hotel"}}, {"type": "way", "id": 1206948263, "nodes": [8764498303, 11183840342, 11183840328, 11183840289, 8764498303], "tags": {"amenity": "restaurant", "building": "yes", "building:levels": "1", "cuisine": "georgian", "name": "Maisi", "outdoor_seating": "yes"}}, {"type": "way", "id": 1245747447, "nodes": [11581112825, 11581112827, 11581112826, 11581112828, 11581112825], "tags": {"addr:country": "GE", "addr:housenumber": "8", "addr:street": "\u10d5\u10d0\u10df\u10d0 \u10e4\u10e8\u10d0\u10d5\u10d4\u10da\u10d0\u10e1 \u10e5\u10e3\u10e9\u10d0", "building": "yes", "contact:mobile": "+995 599 19 01 41", "internet_access": "wlan", "internet_access:fee": "no", "name": "Old district", "name:en": "Old district", "name:ka": "\u10eb\u10d5\u10d4\u10da\u10d8 \u10e3\u10d1\u10d0\u10dc\u10d8", "tourism": "hotel", "wheelchair": "no"}}, {"type": "way", "id": 1284431719, "nodes": [11916176769, 11916176770, 11916176771, 11916176772, 11916176769], "tags": {"addr:street": "\u10d2\u10d4\u10e0\u10d2\u10d4\u10e2\u10d8\u10e1 \u10e5\u10e3\u10e9\u10d0", "building": "yes", "name": "Little Wood House", "tourism": "chalet"}}, {"type": "way", "id": 1284431720, "nodes": [11916176773, 11916176774, 11916176775, 11916176776, 11916176773], "tags": {"building": "yes", "tourism": "chalet"}}, {"type": "way", "id": 1284431721, "nodes": [11916176777, 11916176778, 11916176779, 11916176780, 11916176777], "tags": {"building": "yes", "name": "Little Wood House Gergeti", "tourism": "chalet"}}, {"type": "way", "id": 1284431722, "nodes": [11916176781, 11916176782, 11916176783, 11916176784, 11916176781], "tags": {"building": "yes", "tourism": "chalet"}}, {"type": "way", "id": 1284431723, "nodes": [11916176785, 11916176786, 11916176787, 11916176788, 11916176785], "tags": {"building": "yes", "tourism": "chalet"}}, {"type": "way", "id": 1284431743, "nodes": [11916176895, 11916176896, 11916176897, 11916176898, 11916176899, 11916176900, 11916176901, 11916176902, 11916176903, 11916176904, 11916176905, 11916176906, 11916176907, 11916176908, 11916176909, 11916176910, 11916176895], "tags": {"amenity": "restaurant", "building": "yes"}}, {"type": "way", "id": 1284589629, "nodes": [11917450351, 11917450352, 11917450353, 11917450354, 11917450351], "tags": {"addr:housenumber": "10", "addr:street": "\u10d3\u10d0\u10d5\u10d8\u10d7 \u10d0\u10e6\u10db\u10d0\u10e8\u10d4\u10dc\u10d4\u10d1\u10da\u10d8\u10e1 \u10e5\u10e3\u10e9\u10d0", "building": "hotel", "building:levels": "2", "internet_access": "wlan", "internet_access:fee": "no", "name": "Axien", "roof:levels": "1", "roof:shape": "gabled", "ssid": "AXIEN", "tourism": "hotel", "wheelchair": "no"}}, {"type": "way", "id": 1284589640, "nodes": [11917450417, 11917450418, 11917450419, 11917450420, 11917450421, 11917450422, 11917450417], "tags": {"building": "yes", "name": "Alpenhaus Kazbegi Hotel & Restaurant", "tourism": "hotel"}}, {"type": "way", "id": 1284589641, "nodes": [11917450423, 11917450424, 11917450425, 11917450426, 11917450423], "tags": {"building": "yes", "name": "Hotel Old Hut", "tourism": "hotel"}}, {"type": "way", "id": 1337118308, "nodes": [1364475200, 12367476156, 12367476155, 12367476154, 1364475200], "tags": {"historic": "monument", "name": "\u10d0\u10da\u10d4\u10e5\u10e1\u10d0\u10dc\u10d3\u10e0\u10d4 \u10e7\u10d0\u10d6\u10d1\u10d4\u10d2\u10d8", "name:en": "Alexander Kasbegi", "name:ka": "\u10d0\u10da\u10d4\u10e5\u10e1\u10d0\u10dc\u10d3\u10e0\u10d4 \u10e7\u10d0\u10d6\u10d1\u10d4\u10d2\u10d8", "name:ru": "\u0410\u043b\u0435\u043a\u0441\u0430\u043d\u0434\u0440 \u041a\u0430\u0437\u0431\u0435\u0433\u0438"}}, {"type": "way", "id": 1424649463, "nodes": [13094897786, 13094897785, 13094897788, 13094897787, 13094897786], "tags": {"building": "yes", "building:levels": "1", "historic": "wayside_shrine"}}, {"type": "way", "id": 1424650219, "nodes": [13094908223, 13094908208, 13094908204, 13094908221, 13094908223], "tags": {"historic": "ruins"}}, {"type": "node", "id": 1364475236, "lat": 42.6621895, "lon": 44.6203858}, {"type": "node", "id": 1364475240, "lat": 42.6621932, "lon": 44.6203732}, {"type": "node", "id": 1364475248, "lat": 42.6622041, "lon": 44.6203354}, {"type": "node", "id": 1364475262, "lat": 42.6622245, "lon": 44.6204292}, {"type": "node", "id": 1364475283, "lat": 42.6622984, "lon": 44.620474}, {"type": "node", "id": 1364475296, "lat": 42.662313, "lon": 44.6204085}, {"type": "node", "id": 1364475301, "lat": 42.662326, "lon": 44.6205628}, {"type": "node", "id": 1364475304, "lat": 42.6623418, "lon": 44.6204919}, {"type": "node", "id": 1364475308, "lat": 42.6623403, "lon": 44.6204198}, {"type": "node", "id": 1364475314, "lat": 42.6623539, "lon": 44.6203588}, {"type": "node", "id": 1364475317, "lat": 42.6624189, "lon": 44.6206012}, {"type": "node", "id": 1364475331, "lat": 42.6624343, "lon": 44.6205324}, {"type": "node", "id": 1364475333, "lat": 42.6624516, "lon": 44.6205396}, {"type": "node", "id": 1364475338, "lat": 42.6624554, "lon": 44.6204554}, {"type": "node", "id": 1364475343, "lat": 42.6624691, "lon": 44.6204611}, {"type": "node", "id": 1364475346, "lat": 42.6624666, "lon": 44.6204053}, {"type": "node", "id": 2657356408, "lat": 42.6623096, "lon": 44.6204238}, {"type": "node", "id": 2657356437, "lat": 42.6622542, "lon": 44.6204044}, {"type": "node", "id": 9315525018, "lat": 42.6622648, "lon": 44.6203679}, {"type": "node", "id": 9315525019, "lat": 42.662244, "lon": 44.6204397}, {"type": "node", "id": 12151193360, "lat": 42.6621833, "lon": 44.6204072}, {"type": "node", "id": 8764498298, "lat": 42.6661597, "lon": 44.628437}, {"type": "node", "id": 8764498299, "lat": 42.6661531, "lon": 44.6285717}, {"type": "node", "id": 8764498302, "lat": 42.6660103, "lon": 44.6285084}, {"type": "node", "id": 8764498303, "lat": 42.6660315, "lon": 44.6284055}, {"type": "node", "id": 8764498306, "lat": 42.6662905, "lon": 44.6284197}, {"type": "node", "id": 8764498307, "lat": 42.6662219, "lon": 44.6284362}, {"type": "node", "id": 8764498308, "lat": 42.6662086, "lon": 44.6283334}, {"type": "node", "id": 8764498309, "lat": 42.6662772, "lon": 44.628317}, {"type": "node", "id": 11183840261, "lat": 42.6658107, "lon": 44.6292222}, {"type": "node", "id": 11183840278, "lat": 42.6661795, "lon": 44.6285201}, {"type": "node", "id": 11183840285, "lat": 42.6661119, "lon": 44.628552}, {"type": "node", "id": 11183840289, "lat": 42.6661028, "lon": 44.6284327}, {"type": "node", "id": 11183840328, "lat": 42.6661146, "lon": 44.6283791}, {"type": "node", "id": 11183840342, "lat": 42.6660423, "lon": 44.6283495}, {"type": "node", "id": 11183840363, "lat": 42.6660772, "lon": 44.6285745}, {"type": "node", "id": 11183840366, "lat": 42.6660608, "lon": 44.6285276}, {"type": "node", "id": 11183840388, "lat": 42.6656832, "lon": 44.6291338}, {"type": "node", "id": 11183840402, "lat": 42.6657532, "lon": 44.6289471}, {"type": "node", "id": 11183840410, "lat": 42.6658807, "lon": 44.6290355}, {"type": "node", "id": 5149060042, "lat": 42.6598477, "lon": 44.6365207}, {"type": "node", "id": 5149082898, "lat": 42.6596636, "lon": 44.6360151}, {"type": "node", "id": 5149084488, "lat": 42.659636, "lon": 44.6360093}, {"type": "node", "id": 5149084489, "lat": 42.6596345, "lon": 44.6360367}, {"type": "node", "id": 5149084490, "lat": 42.6595022, "lon": 44.6360489}, {"type": "node", "id": 5149084491, "lat": 42.6595007, "lon": 44.636179}, {"type": "node", "id": 5149084492, "lat": 42.6596069, "lon": 44.6361668}, {"type": "node", "id": 5149084493, "lat": 42.6596084, "lon": 44.6362095}, {"type": "node", "id": 5149084494, "lat": 42.6597263, "lon": 44.6362083}, {"type": "node", "id": 11916176769, "lat": 42.6605562, "lon": 44.6337495}, {"type": "node", "id": 11916176770, "lat": 42.6605045, "lon": 44.6337498}, {"type": "node", "id": 11916176771, "lat": 42.6605047, "lon": 44.6338239}, {"type": "node", "id": 11916176772, "lat": 42.6605564, "lon": 44.6338236}, {"type": "node", "id": 11916176773, "lat": 42.6606631, "lon": 44.6337937}, {"type": "node", "id": 11916176774, "lat": 42.6606141, "lon": 44.6337625}, {"type": "node", "id": 11916176775, "lat": 42.6605936, "lon": 44.6338221}, {"type": "node", "id": 11916176776, "lat": 42.6606426, "lon": 44.6338533}, {"type": "node", "id": 11916176777, "lat": 42.6605264, "lon": 44.6341169}, {"type": "node", "id": 11916176778, "lat": 42.6604858, "lon": 44.6341132}, {"type": "node", "id": 11916176779, "lat": 42.6604819, "lon": 44.6341933}, {"type": "node", "id": 11916176780, "lat": 42.6605225, "lon": 44.634197}, {"type": "node", "id": 11916176781, "lat": 42.6605956, "lon": 44.63413}, {"type": "node", "id": 11916176782, "lat": 42.6605543, "lon": 44.6341262}, {"type": "node", "id": 11916176783, "lat": 42.6605504, "lon": 44.6342038}, {"type": "node", "id": 11916176784, "lat": 42.6605917, "lon": 44.6342076}, {"type": "node", "id": 11916176785, "lat": 42.6606668, "lon": 44.6341398}, {"type": "node", "id": 11916176786, "lat": 42.660625, "lon": 44.6341352}, {"type": "node", "id": 11916176787, "lat": 42.6606205, "lon": 44.6342129}, {"type": "node", "id": 11916176788, "lat": 42.6606623, "lon": 44.6342174}, {"type": "node", "id": 1364475200, "lat": 42.6583152, "lon": 44.6406122}, {"type": "node", "id": 2980849817, "lat": 42.6547175, "lon": 44.6429591}, {"type": "node", "id": 2980849819, "lat": 42.6547339, "lon": 44.6428144}, {"type": "node", "id": 2980849827, "lat": 42.6548605, "lon": 44.6430265}, {"type": "node", "id": 2980849828, "lat": 42.6548811, "lon": 44.6428453}, {"type": "node", "id": 2981066573, "lat": 42.6562804, "lon": 44.6408758}, {"type": "node", "id": 2981066575, "lat": 42.6562897, "lon": 44.6407692}, {"type": "node", "id": 2981066588, "lat": 42.6564591, "lon": 44.6409048}, {"type": "node", "id": 2981066590, "lat": 42.6564685, "lon": 44.6407981}, {"type": "node", "id": 2981066742, "lat": 42.6570786, "lon": 44.6418892}, {"type": "node", "id": 2981066743, "lat": 42.6571052, "lon": 44.6417248}, {"type": "node", "id": 2981066748, "lat": 42.6571665, "lon": 44.6419156}, {"type": "node", "id": 2981066751, "lat": 42.6571931, "lon": 44.6417512}, {"type": "node", "id": 3011828022, "lat": 42.6562015, "lon": 44.6404941}, {"type": "node", "id": 3011828023, "lat": 42.6562771, "lon": 44.639689}, {"type": "node", "id": 3011828024, "lat": 42.657263, "lon": 44.6406785}, {"type": "node", "id": 3011828025, "lat": 42.6573386, "lon": 44.6398733}, {"type": "node", "id": 3011829936, "lat": 42.6583858, "lon": 44.6382479}, {"type": "node", "id": 3011829937, "lat": 42.6583871, "lon": 44.6383009}, {"type": "node", "id": 3011829940, "lat": 42.6584188, "lon": 44.638359}, {"type": "node", "id": 3011829941, "lat": 42.65842, "lon": 44.6384067}, {"type": "node", "id": 3011829942, "lat": 42.6584414, "lon": 44.6382983}, {"type": "node", "id": 3011829943, "lat": 42.6584429, "lon": 44.6383579}, {"type": "node", "id": 3011829944, "lat": 42.6584885, "lon": 44.6382431}, {"type": "node", "id": 3011829945, "lat": 42.658489, "lon": 44.638261}, {"type": "node", "id": 3011829946, "lat": 42.6584916, "lon": 44.6383659}, {"type": "node", "id": 3011829947, "lat": 42.6584926, "lon": 44.6384033}, {"type": "node", "id": 3011829948, "lat": 42.6584843, "lon": 44.6385428}, {"type": "node", "id": 3011829951, "lat": 42.6585406, "lon": 44.638732}, {"type": "node", "id": 3011829952, "lat": 42.6586364, "lon": 44.6385397}, {"type": "node", "id": 3011829953, "lat": 42.6586369, "lon": 44.638588}, {"type": "node", "id": 3011829954, "lat": 42.6586619, "lon": 44.6385874}, {"type": "node", "id": 3011829956, "lat": 42.6586635, "lon": 44.6387295}, {"type": "node", "id": 5137018095, "lat": 42.6584452, "lon": 44.637386}, {"type": "node", "id": 5142525902, "lat": 42.6579747, "lon": 44.6375695}, {"type": "node", "id": 5142525903, "lat": 42.6579662, "lon": 44.6377322}, {"type": "node", "id": 5142525904, "lat": 42.6578297, "lon": 44.637719}, {"type": "node", "id": 5142525905, "lat": 42.6578405, "lon": 44.6375547}, {"type": "node", "id": 5143183559, "lat": 42.6577406, "lon": 44.6378149}, {"type": "node", "id": 5143183608, "lat": 42.6584973, "lon": 44.63734}, {"type": "node", "id": 5143183609, "lat": 42.6584544, "lon": 44.6372279}, {"type": "node", "id": 5143183610, "lat": 42.6584286, "lon": 44.6372489}, {"type": "node", "id": 5143183611, "lat": 42.6584011, "lon": 44.6371742}, {"type": "node", "id": 5143183612, "lat": 42.6583704, "lon": 44.6371949}, {"type": "node", "id": 5149035365, "lat": 42.657758, "lon": 44.6376085}, {"type": "node", "id": 5149035366, "lat": 42.6576708, "lon": 44.6378039}, {"type": "node", "id": 5149035367, "lat": 42.6576753, "lon": 44.6377507}, {"type": "node", "id": 5149035368, "lat": 42.6575522, "lon": 44.6377314}, {"type": "node", "id": 5149035369, "lat": 42.6575652, "lon": 44.6375783}, {"type": "node", "id": 5149060043, "lat": 42.659685, "lon": 44.6366288}, {"type": "node", "id": 5149060047, "lat": 42.6597022, "lon": 44.6367643}, {"type": "node", "id": 5149060048, "lat": 42.6598903, "lon": 44.6366393}, {"type": "node", "id": 5151077081, "lat": 42.658952, "lon": 44.637505}, {"type": "node", "id": 5151077082, "lat": 42.6589668, "lon": 44.6377042}, {"type": "node", "id": 5151077083, "lat": 42.658861, "lon": 44.6377263}, {"type": "node", "id": 5151077084, "lat": 42.6588494, "lon": 44.6375786}, {"type": "node", "id": 5159011308, "lat": 42.6587206, "lon": 44.6370188}, {"type": "node", "id": 5159011309, "lat": 42.6585897, "lon": 44.6370566}, {"type": "node", "id": 5159011310, "lat": 42.658562, "lon": 44.6369271}, {"type": "node", "id": 5159011311, "lat": 42.6586934, "lon": 44.6368779}, {"type": "node", "id": 9979611112, "lat": 42.6574207, "lon": 44.6411592}, {"type": "node", "id": 9979611113, "lat": 42.6573805, "lon": 44.6414168}, {"type": "node", "id": 9979611114, "lat": 42.6575169, "lon": 44.6414688}, {"type": "node", "id": 9979611115, "lat": 42.6574163, "lon": 44.6412456}, {"type": "node", "id": 9979611116, "lat": 42.6575281, "lon": 44.6411277}, {"type": "node", "id": 9979642017, "lat": 42.6575548, "lon": 44.6412822}, {"type": "node", "id": 11195334517, "lat": 42.6572843, "lon": 44.6404515}, {"type": "node", "id": 11916176897, "lat": 42.6606642, "lon": 44.6380586}, {"type": "node", "id": 11916176898, "lat": 42.6606354, "lon": 44.6381122}, {"type": "node", "id": 11916176899, "lat": 42.6605946, "lon": 44.6381521}, {"type": "node", "id": 11916176900, "lat": 42.6605609, "lon": 44.6381612}, {"type": "node", "id": 11916176901, "lat": 42.6605322, "lon": 44.6381512}, {"type": "node", "id": 11916176902, "lat": 42.6605057, "lon": 44.6381261}, {"type": "node", "id": 11916176903, "lat": 42.6604914, "lon": 44.6380933}, {"type": "node", "id": 11916176904, "lat": 42.6604868, "lon": 44.6380507}, {"type": "node", "id": 11916176905, "lat": 42.6604908, "lon": 44.6380101}, {"type": "node", "id": 11916176906, "lat": 42.6605066, "lon": 44.6379715}, {"type": "node", "id": 11916176907, "lat": 42.660543, "lon": 44.6379415}, {"type": "node", "id": 11916176908, "lat": 42.660604, "lon": 44.6379056}, {"type": "node", "id": 11916176909, "lat": 42.6606718, "lon": 44.6378268}, {"type": "node", "id": 11917450573, "lat": 42.6548117, "lon": 44.6430162}, {"type": "node", "id": 11917450574, "lat": 42.6548158, "lon": 44.6429798}, {"type": "node", "id": 11934777431, "lat": 42.6574345, "lon": 44.6412439}, {"type": "node", "id": 12164427045, "lat": 42.6596596, "lon": 44.6366456}, {"type": "node", "id": 12164427118, "lat": 42.6584515, "lon": 44.6382448}, {"type": "node", "id": 12164427119, "lat": 42.6584108, "lon": 44.6382467}, {"type": "node", "id": 12164427125, "lat": 42.6584489, "lon": 44.6385718}, {"type": "node", "id": 12164427126, "lat": 42.6584846, "lon": 44.638571}, {"type": "node", "id": 12164427127, "lat": 42.6585395, "lon": 44.6386335}, {"type": "node", "id": 12164427128, "lat": 42.6584496, "lon": 44.6386353}, {"type": "node", "id": 12164427162, "lat": 42.6577365, "lon": 44.6376052}, {"type": "node", "id": 12367476154, "lat": 42.6581802, "lon": 44.6405679}, {"type": "node", "id": 12367476155, "lat": 42.6581477, "lon": 44.6407517}, {"type": "node", "id": 12367476156, "lat": 42.6582827, "lon": 44.6407959}, {"type": "node", "id": 5177857792, "lat": 42.6619228, "lon": 44.6317018}, {"type": "node", "id": 5177857793, "lat": 42.6618765, "lon": 44.6317211}, {"type": "node", "id": 5177857794, "lat": 42.6618234, "lon": 44.6317546}, {"type": "node", "id": 5177857795, "lat": 42.6617666, "lon": 44.6317221}, {"type": "node", "id": 5177857796, "lat": 42.6617188, "lon": 44.6316296}, {"type": "node", "id": 5177857797, "lat": 42.6618189, "lon": 44.6314101}, {"type": "node", "id": 6681747676, "lat": 42.6618779, "lon": 44.6314534}, {"type": "node", "id": 11916176895, "lat": 42.6607506, "lon": 44.6377434}, {"type": "node", "id": 11916176896, "lat": 42.660729, "lon": 44.6378485}, {"type": "node", "id": 11916176910, "lat": 42.6607004, "lon": 44.637724}, {"type": "node", "id": 11917450417, "lat": 42.6526491, "lon": 44.6490771}, {"type": "node", "id": 11917450418, "lat": 42.6525303, "lon": 44.6490777}, {"type": "node", "id": 11917450419, "lat": 42.6525306, "lon": 44.6492174}, {"type": "node", "id": 11917450420, "lat": 42.6527114, "lon": 44.6492165}, {"type": "node", "id": 11917450421, "lat": 42.6527112, "lon": 44.6491237}, {"type": "node", "id": 11917450422, "lat": 42.6526492, "lon": 44.649124}, {"type": "node", "id": 11917450423, "lat": 42.6528634, "lon": 44.6493879}, {"type": "node", "id": 11917450424, "lat": 42.6527264, "lon": 44.6493917}, {"type": "node", "id": 11917450425, "lat": 42.6527277, "lon": 44.6494783}, {"type": "node", "id": 11917450426, "lat": 42.6528647, "lon": 44.6494746}, {"type": "node", "id": 2975219781, "lat": 42.6579373, "lon": 44.6464232}, {"type": "node", "id": 2975219783, "lat": 42.6579859, "lon": 44.6462246}, {"type": "node", "id": 2975219795, "lat": 42.658367, "lon": 44.6466176}, {"type": "node", "id": 2975219799, "lat": 42.6584156, "lon": 44.646419}, {"type": "node", "id": 2975219881, "lat": 42.6605275, "lon": 44.6432707}, {"type": "node", "id": 2975219882, "lat": 42.6605524, "lon": 44.6431647}, {"type": "node", "id": 2975229037, "lat": 42.6549459, "lon": 44.6466989}, {"type": "node", "id": 2975229038, "lat": 42.6549539, "lon": 44.6465087}, {"type": "node", "id": 2975229039, "lat": 42.6550545, "lon": 44.6467073}, {"type": "node", "id": 2975229040, "lat": 42.6550624, "lon": 44.6465171}, {"type": "node", "id": 2975229160, "lat": 42.6569043, "lon": 44.6441928}, {"type": "node", "id": 2975229161, "lat": 42.6569125, "lon": 44.6440336}, {"type": "node", "id": 2975229162, "lat": 42.6571285, "lon": 44.6442141}, {"type": "node", "id": 2975229163, "lat": 42.6571367, "lon": 44.6440548}, {"type": "node", "id": 11183840275, "lat": 42.6581857, "lon": 44.646315}, {"type": "node", "id": 11183840326, "lat": 42.658214, "lon": 44.6465483}, {"type": "node", "id": 11183840341, "lat": 42.6581462, "lon": 44.6465177}, {"type": "node", "id": 11183840404, "lat": 42.6581645, "lon": 44.646526}, {"type": "node", "id": 11581112825, "lat": 42.6605171, "lon": 44.6440523}, {"type": "node", "id": 11581112826, "lat": 42.6606464, "lon": 44.6442186}, {"type": "node", "id": 11581112827, "lat": 42.6606691, "lon": 44.6441124}, {"type": "node", "id": 11581112828, "lat": 42.6604944, "lon": 44.6441585}, {"type": "node", "id": 13086922766, "lat": 42.6582232, "lon": 44.646332}, {"type": "node", "id": 13086922767, "lat": 42.6582075, "lon": 44.6463249}, {"type": "node", "id": 2975219884, "lat": 42.6607723, "lon": 44.64326}, {"type": "node", "id": 2975219886, "lat": 42.6607814, "lon": 44.6432213}, {"type": "node", "id": 2975219887, "lat": 42.6608067, "lon": 44.6433917}, {"type": "node", "id": 2975219888, "lat": 42.6608407, "lon": 44.643247}, {"type": "node", "id": 11917450351, "lat": 42.6635342, "lon": 44.6450194}, {"type": "node", "id": 11917450352, "lat": 42.663421, "lon": 44.6449663}, {"type": "node", "id": 11917450353, "lat": 42.6633863, "lon": 44.6451032}, {"type": "node", "id": 11917450354, "lat": 42.6634995, "lon": 44.6451563}, {"type": "node", "id": 13094897785, "lat": 42.6823972, "lon": 44.6332821}, {"type": "node", "id": 13094897786, "lat": 42.6824248, "lon": 44.6332456}, {"type": "node", "id": 13094897787, "lat": 42.6824053, "lon": 44.6332183}, {"type": "node", "id": 13094897788, "lat": 42.6823777, "lon": 44.6332549}, {"type": "node", "id": 13094908204, "lat": 42.692881, "lon": 44.6358879}, {"type": "node", "id": 13094908208, "lat": 42.6928626, "lon": 44.6358772}, {"type": "node", "id": 13094908221, "lat": 42.6928917, "lon": 44.635852}, {"type": "node", "id": 13094908223, "lat": 42.6928714, "lon": 44.6358412}]}