{"version": 0.6, "generator": "Overpass API 0.7.62.8 e802775f", "osm3s": {"timestamp_osm_base": "2025-11-23T09:47:30Z", "copyright": "The data included in this document is from www.openstreetmap.org. The data is made available under ODbL."}, "elements": [{"type": "node", "id": 3550499098, "lat": 41.1637573, "lon": 47.1556764, "tags": {"name": "FM motel \\ \u015e\u0259ki", "tourism": "motel"}}, {"type": "node", "id": 4308357489, "lat": 41.1983336, "lon": 47.1857128, "tags": {"access": "yes", "historic": "monument", "memorial": "war_memorial", "name": "1941-1945 Abid\u0259 \\ \u015e\u0259ki", "name:en": "1941-1945 War Memorial and City Panorama"}}, {"type": "node", "id": 4319472898, "lat": 41.1772922, "lon": 47.1538947, "tags": {"name": "Qonaq Evi", "tourism": "guest_house"}}, {"type": "node", "id": 4379537731, "lat": 41.1992503, "lon": 47.1965957, "tags": {"addr:housenumber": "2", "addr:street": "Azdliq", "internet_access": "wlan", "name": "Ilham Mustafa Houses", "tourism": "guest_house"}}, {"type": "node", "id": 4434330199, "lat": 41.1820008, "lon": 47.1703526, "tags": {"amenity": "cafe", "name:en": "\u00dcc Bucaq"}}, {"type": "node", "id": 4434330200, "lat": 41.1986786, "lon": 47.1670446, "tags": {"amenity": "cafe", "internet_access": "wlan", "name:en": "Rahat Kafe"}}, {"type": "node", "id": 4434354091, "lat": 41.1578196, "lon": 47.1785203, "tags": {"amenity": "cafe"}}, {"type": "node", "id": 4434357691, "lat": 41.1617735, "lon": 47.1643125, "tags": {"amenity": "cafe", "name:en": "Daddu"}}, {"type": "node", "id": 4434357895, "lat": 41.1626131, "lon": 47.1610523, "tags": {"amenity": "restaurant", "name": "T\u0259briz Restoran \\ \u015e\u0259ki"}}, {"type": "node", "id": 4434387093, "lat": 41.1921873, "lon": 47.1659224, "tags": {"amenity": "restaurant", "name": "Ruzi \u015eadl\u0131q Saray\u0131"}}, {"type": "node", "id": 4434387189, "lat": 41.1576005, "lon": 47.1792307, "tags": {"amenity": "cafe", "name:en": "Min Bir Geca Kafe"}}, {"type": "node", "id": 4434387390, "lat": 41.1614109, "lon": 47.1642355, "tags": {"amenity": "cafe"}}, {"type": "node", "id": 4436716790, "lat": 41.1631058, "lon": 47.1580177, "tags": {"name": "Karusel \\ \u015e\u0259ki", "tourism": "attraction"}}, {"type": "node", "id": 4437878990, "lat": 41.1937462, "lon": 47.174811, "tags": {"amenity": "cafe"}}, {"type": "node", "id": 4483490791, "lat": 41.1945598, "lon": 47.1755083, "tags": {"amenity": "cafe"}}, {"type": "node", "id": 4499609114, "lat": 41.1599803, "lon": 47.1659183, "tags": {"name": "\u015e\u0259ki HII Motel", "tourism": "hotel"}}, {"type": "node", "id": 4678358092, "lat": 41.1994776, "lon": 47.1980955, "tags": {"addr:city": "\u015e\u0259ki", "addr:housenumber": "20", "addr:postcode": "5500", "addr:street": "Muslim Magomayev", "capacity:beds": "1-4", "description:payment": "AZN45 (for 3)", "email": "ilqaragayev77@hotmail.com", "facebook": "https://www.facebook.com/Ilgarshostel/", "internet_access": "wlan", "internet_access:type": "WiFi", "name": "\u0130lqar Hostel", "opening_hours": "24/7", "operator": "Ilgar", "phone": "+994556238295", "tourism": "guest_house", "website": "https://m.facebook.com/Ilgarshostel/"}}, {"type": "node", "id": 4895888021, "lat": 41.1963099, "lon": 47.1619677, "tags": {"historic": "monument", "name:tr": "ofis \u015e\u0259ki"}}, {"type": "node", "id": 5084218523, "lat": 41.1994086, "lon": 47.1754265, "tags": {"addr:street": "Mikay\u0131l M\u00fcsfiq", "email": "incidesignhotel@gmail.com", "internet_access": "wlan", "name:en": "Inci Design Hotel", "operator": "Samir M", "phone": "+994552045561", "tourism": "hotel"}}, {"type": "node", "id": 5804347653, "lat": 41.1995487, "lon": 47.1773633, "tags": {"addr:city": "\u015e\u0259ki", "addr:housenumber": "57", "addr:street": "Mikay\u0131l M\u00fcsfiq", "internet_access": "wlan", "name": "Asteria Hostel \\ \u015e\u0259ki", "opening_hours": "24/7", "phone": "+994 70 383 00 01", "tourism": "hostel"}}, {"type": "node", "id": 6010382185, "lat": 41.1982452, "lon": 47.1766844, "tags": {"amenity": "restaurant", "cuisine": "regional"}}, {"type": "node", "id": 6050812402, "lat": 41.195727, "lon": 47.191152, "tags": {"name": "At kiray\u0259", "name:en": "Horse rental", "tourism": "attraction"}}, {"type": "node", "id": 6187539892, "lat": 41.1964609, "lon": 47.1672808, "tags": {"addr:street": "Izzat Qamidov", "amenity": "restaurant", "cuisine": "regional;local;kebab;oriental", "internet_access": "wlan", "name:en": "S\u0259rin Restoran \\ \u015e\u0259ki", "opening_hours": "Mo-Su 08:00-00:00", "operator": "Rafik", "phone": "+994552227759"}}, {"type": "node", "id": 6349546234, "lat": 41.1995638, "lon": 47.1777574, "tags": {"amenity": "restaurant", "cuisine": "regional", "name": "Nuran Kafe"}}, {"type": "node", "id": 6661744385, "lat": 41.1980886, "lon": 47.1849817, "tags": {"name:en": "Sunset Viewpoint and City Panorama", "tourism": "attraction", "wikimedia_commons": "File:\u015e\u0259ki \u015f\u0259h\u0259ri \u00fcmumi g\u00f6r\u00fcn\u00fc\u015f. \u00e7ayk\u0259nar\u0131.jpg"}}, {"type": "node", "id": 6726426485, "lat": 41.1686344, "lon": 47.1681211, "tags": {"amenity": "cafe", "name:en": "CAFE COKE", "name:ru": "\u041a\u0430\u0444\u044d \u0414\u0436\u043e\u043a\u0435"}}, {"type": "node", "id": 7964742352, "lat": 41.153914, "lon": 47.1914225, "tags": {"name": "\u015e\u0259ki Qonaq Evi", "tourism": "motel"}}, {"type": "node", "id": 7964810545, "lat": 41.1538605, "lon": 47.1916974, "tags": {"amenity": "restaurant", "name": "Zir\u0259 Restoran \\ \u015e\u0259ki"}}, {"type": "node", "id": 7969177370, "lat": 41.17139, "lon": 47.1543797, "tags": {"amenity": "restaurant", "name": "Edem \u015eadl\u0131q Saray\u0131 \\ \u015e\u0259ki"}}, {"type": "node", "id": 7969677692, "lat": 41.1685815, "lon": 47.1710323, "tags": {"amenity": "cafe", "name": "G\u00fcl\u00fcstan Kafe \\ \u015e\u0259ki"}}, {"type": "node", "id": 7969677693, "lat": 41.1686965, "lon": 47.1704757, "tags": {"amenity": "cafe", "name": "Manqal Kafe \\ \u015e\u0259ki"}}, {"type": "node", "id": 7969677695, "lat": 41.169587, "lon": 47.1679772, "tags": {"amenity": "cafe", "name": "G\u00f6r\u00fc\u015f Kafe \\ \u015e\u0259ki"}}, {"type": "node", "id": 7969677701, "lat": 41.1636567, "lon": 47.1560495, "tags": {"amenity": "restaurant", "name": "FM restoran \\ \u015e\u0259ki"}}, {"type": "node", "id": 7969677702, "lat": 41.1596261, "lon": 47.1594679, "tags": {"name": "Olimpiya Motel", "tourism": "motel"}}, {"type": "node", "id": 7969677703, "lat": 41.1606389, "lon": 47.1636066, "tags": {"amenity": "cafe", "name": "Zirv\u0259 Kafe"}}, {"type": "node", "id": 7969677709, "lat": 41.166954, "lon": 47.1672383, "tags": {"amenity": "restaurant", "name": "Dastan restoran\u0131 \\ \u015e\u0259ki"}}, {"type": "node", "id": 7985607861, "lat": 41.160234, "lon": 47.1652749, "tags": {"amenity": "cafe", "name": "Q\u0259dim \u015e\u0259ki kafe"}}, {"type": "node", "id": 7985655506, "lat": 41.1654538, "lon": 47.1822774, "tags": {"amenity": "cafe", "name": "Palma kafe \\ \u015e\u0259ki"}}, {"type": "node", "id": 7985918250, "lat": 41.193777, "lon": 47.1656799, "tags": {"amenity": "cafe", "name": "G\u00fclab \u00c7ay"}}, {"type": "node", "id": 7993080955, "lat": 41.1657264, "lon": 47.1530575, "tags": {"amenity": "restaurant", "name": "\u015e\u0259ki \u015eadl\u0131q Saray\u0131 \\ K\u0259rk\u00fck Saray\u0131"}}, {"type": "node", "id": 8312865116, "lat": 41.1897806, "lon": 47.1727583, "tags": {"historic": "manor", "name": "2-ci fabrikin binas\u0131 19-cu \u0259sr"}}, {"type": "node", "id": 8312885557, "lat": 41.1872878, "lon": 47.1712026, "tags": {"historic": "manor", "name": "Q\u0131\u015flaq hamam\u0131 19-cu \u0259sr"}}, {"type": "node", "id": 9951543756, "lat": 41.1644846, "lon": 47.153437, "tags": {"amenity": "restaurant", "name": "Aytac \u015eadl\u0131q Saray\u0131 \\ \u015e\u0259ki"}}, {"type": "node", "id": 9951543845, "lat": 41.1858445, "lon": 47.1599829, "tags": {"amenity": "cafe", "name": "M\u0259kan \u00c7ay Evi i \\ \u015e\u0259ki"}}, {"type": "node", "id": 9951543882, "lat": 41.1933532, "lon": 47.1640545, "tags": {"name": "S\u0259ma Motel \\ \u015e\u0259ki", "tourism": "motel"}}, {"type": "node", "id": 9951543903, "lat": 41.193995, "lon": 47.1634054, "tags": {"amenity": "restaurant", "name": "Yegan\u0259 M\u0259rasim Zal\u0131 \\ \u015e\u0259ki"}}, {"type": "node", "id": 10271091438, "lat": 41.1928164, "lon": 47.1735413, "tags": {"amenity": "cafe", "description": "Tea, coffee, chicha, games", "name": "Tea Mood"}}, {"type": "node", "id": 11224490337, "lat": 41.1993416, "lon": 47.1825681, "tags": {"internet_access": "wlan", "name:en": "Sheki Host House", "tourism": "guest_house"}}, {"type": "node", "id": 11816373969, "lat": 41.1976092, "lon": 47.1840251, "tags": {"name:en": "Qala Hotel \\ \u015e\u0259ki", "tourism": "hotel"}}, {"type": "node", "id": 11816374069, "lat": 41.1976886, "lon": 47.1842183, "tags": {"name:en": "Grey Stone Castle", "tourism": "attraction", "wikimedia_commons": "File:\u015e\u0259ki \"Yuxar\u0131ba\u015f\" m\u0259nz\u0259r\u0259 \u015f\u0259kli.jpg"}}, {"type": "node", "id": 11816374070, "lat": 41.1971438, "lon": 47.187181, "tags": {"name:en": "Graveyard Artwork", "tourism": "artwork"}}, {"type": "node", "id": 12083549745, "lat": 41.1553278, "lon": 47.1620951, "tags": {"name": "Gostevoy Dom \u0413\u043e\u0441\u0442\u0435\u0432\u043e\u0439 \u0414\u043e\u043c", "phone": "+994553111716", "tourism": "guest_house", "website": "https://g.co/kgs/7n3GP3h"}}, {"type": "node", "id": 13159808042, "lat": 41.1982555, "lon": 47.1876794, "tags": {"name": "Green Hill Inn Otel \\ \u015e\u0259ki", "tourism": "hotel"}}, {"type": "way", "id": 280057777, "nodes": [7964891558, 2842335506, 2842335502, 2842333699, 2842333696, 2842333689, 2842333661, 7964884376, 7964884377, 7964884381, 2842333693, 7964891556, 7964891558], "tags": {"leisure": "park"}}, {"type": "way", "id": 280060821, "nodes": [2842392558, 2842392560, 2842392562, 2842392563, 2842392561, 2842392559, 2842392556, 2842392554, 2842392552, 2842392553, 2842392555, 2842392558], "tags": {"landuse": "grass", "name": "D\u00f6rd Yol Dair\u0259si \\ \u015e\u0259ki", "tourism": "attraction"}}, {"type": "way", "id": 446390817, "nodes": [4436673300, 4436673694, 4436673194, 7967119795, 4436673192, 7967119789, 7967119790, 9951508376, 4436674191, 4436674296, 4436638896, 7969177330, 4436673496, 4436673497, 4436673300], "tags": {"leisure": "park", "name": "Heyd\u0259r \u018fliyev Park\u0131"}}, {"type": "way", "id": 446390818, "nodes": [4436673696, 4436691191, 4436638995, 4436659093, 4436673696], "tags": {"building": "yes", "building:levels": "2", "name": "Heyd\u0259r \u018fliyev m\u0259rk\u0259zi", "tourism": "museum"}}, {"type": "way", "id": 854044758, "nodes": [2842335531, 7964884375, 7964884356, 2842335532, 7964891557, 2842335531], "tags": {"leisure": "park", "name": "Olimpiya Park\u0131"}}, {"type": "way", "id": 854334130, "nodes": [7967256188, 7967256187, 7967256186, 7967256185, 7967256188], "tags": {"name": "Qonaq Evi", "tourism": "motel"}}, {"type": "way", "id": 855470014, "nodes": [7977733896, 7977733895, 7977733894, 7977733893, 7977733892, 7977733891, 7977733890, 7977733889, 7977733888, 7977733887, 7977733886, 7977733885, 7977730284, 7977730283, 7977730282, 7977733896], "tags": {"leisure": "park"}}, {"type": "way", "id": 855923751, "nodes": [7981408942, 7981408941, 7981408940, 7981408939, 7981408942], "tags": {"leisure": "park"}}, {"type": "way", "id": 857300709, "nodes": [7992870726, 7992870725, 7992870724, 7992870723, 7992870722, 7992870721, 7992870720, 7992870719, 7992870718, 7992870717, 7992870716, 7985795458, 7985795457, 7992870726], "tags": {"amenity": "marketplace", "name": "Simsim Bazar\u0131 \\ \u015e\u0259ki", "shop": "mall"}}, {"type": "way", "id": 857315344, "nodes": [7969156322, 7993080957, 7993080956, 7969156321, 7969156322], "tags": {"leisure": "park"}}, {"type": "way", "id": 857893759, "nodes": [7997942474, 7997942468, 7997942473, 7997942470, 7997942472, 7997942471, 7997942469, 7997942474], "tags": {"leisure": "park"}}, {"type": "way", "id": 894371875, "nodes": [8312930026, 8312930025, 8312930024, 8312930023, 8312930022, 8312930021, 8312930026], "tags": {"name": "\u018ff\u0259ndiyevin Ev Muzei", "name:en": "Efendiev's House Museum", "tourism": "museum"}}, {"type": "way", "id": 1086077714, "nodes": [9951533282, 9951533281, 9951533280, 9951533279, 9951533282], "tags": {"historic": "monument", "name": "\u015e\u018fK\u0130"}}, {"type": "way", "id": 1416910879, "nodes": [6005243791, 13020400232, 13020400236, 13020400233, 13020400234, 13020400235, 6005243791], "tags": {"addr:city": "\u015e\u0259ki", "air_conditioning": "yes", "building": "residential", "check_date": "2025-07-24", "description": "Guest house", "guest_house": "bed_and_breakfast", "internet_access": "wlan", "internet_access:fee": "customers", "name": "Sheki Panorama Guest House", "opening_hours": "24/7", "phone": "+994506229027", "tourism": "guest_house", "wheelchair": "limited"}}, {"type": "node", "id": 7964884375, "lat": 41.1598079, "lon": 47.1578801}, {"type": "node", "id": 2842335531, "lat": 41.16186, "lon": 47.1589267}, {"type": "node", "id": 2842335532, "lat": 41.1625832, "lon": 47.1582136}, {"type": "node", "id": 4436638896, "lat": 41.1637841, "lon": 47.156369}, {"type": "node", "id": 4436674296, "lat": 41.1634715, "lon": 47.1562069}, {"type": "node", "id": 7964884356, "lat": 41.1601269, "lon": 47.1568716}, {"type": "node", "id": 7964891556, "lat": 41.1618353, "lon": 47.1590495}, {"type": "node", "id": 7964891557, "lat": 41.1623179, "lon": 47.1591541}, {"type": "node", "id": 7964891558, "lat": 41.1622815, "lon": 47.1592668}, {"type": "node", "id": 7969177330, "lat": 41.1630246, "lon": 47.1588027}, {"type": "node", "id": 2842333661, "lat": 41.1585345, "lon": 47.1619178}, {"type": "node", "id": 7964884376, "lat": 41.1586164, "lon": 47.1616566}, {"type": "node", "id": 7964884377, "lat": 41.1597715, "lon": 47.1623379}, {"type": "node", "id": 7964884381, "lat": 41.1598871, "lon": 47.16199}, {"type": "node", "id": 2842333689, "lat": 41.160692, "lon": 47.1631425}, {"type": "node", "id": 2842333693, "lat": 41.1608293, "lon": 47.1625302}, {"type": "node", "id": 2842333696, "lat": 41.1608725, "lon": 47.1632284}, {"type": "node", "id": 2842333699, "lat": 41.1609747, "lon": 47.163242}, {"type": "node", "id": 2842335502, "lat": 41.1610769, "lon": 47.1632013}, {"type": "node", "id": 2842335506, "lat": 41.1611553, "lon": 47.1630429}, {"type": "node", "id": 2842392552, "lat": 41.1610833, "lon": 47.1635971}, {"type": "node", "id": 2842392553, "lat": 41.1610855, "lon": 47.1635616}, {"type": "node", "id": 2842392554, "lat": 41.1610959, "lon": 47.1636285}, {"type": "node", "id": 2842392555, "lat": 41.1611017, "lon": 47.1635334}, {"type": "node", "id": 2842392556, "lat": 41.1611193, "lon": 47.1636459}, {"type": "node", "id": 2842392558, "lat": 41.1611269, "lon": 47.1635213}, {"type": "node", "id": 2842392559, "lat": 41.161146, "lon": 47.1636437}, {"type": "node", "id": 2842392560, "lat": 41.161153, "lon": 47.1635292}, {"type": "node", "id": 2842392561, "lat": 41.1611676, "lon": 47.1636226}, {"type": "node", "id": 2842392562, "lat": 41.1611718, "lon": 47.1635545}, {"type": "node", "id": 2842392563, "lat": 41.1611772, "lon": 47.1635894}, {"type": "node", "id": 4436638995, "lat": 41.1623721, "lon": 47.1615563}, {"type": "node", "id": 4436659093, "lat": 41.162467, "lon": 47.1616041}, {"type": "node", "id": 4436673192, "lat": 41.1614749, "lon": 47.1634002}, {"type": "node", "id": 4436673194, "lat": 41.161824, "lon": 47.1636055}, {"type": "node", "id": 4436673300, "lat": 41.1622391, "lon": 47.1634877}, {"type": "node", "id": 4436673496, "lat": 41.1624823, "lon": 47.1605904}, {"type": "node", "id": 4436673497, "lat": 41.1630689, "lon": 47.1609564}, {"type": "node", "id": 4436673694, "lat": 41.1619091, "lon": 47.1633163}, {"type": "node", "id": 4436673696, "lat": 41.1623364, "lon": 47.1620615}, {"type": "node", "id": 4436674191, "lat": 41.1614782, "lon": 47.1628558}, {"type": "node", "id": 4436691191, "lat": 41.1622415, "lon": 47.1620137}, {"type": "node", "id": 7967119789, "lat": 41.1614304, "lon": 47.1633384}, {"type": "node", "id": 7967119790, "lat": 41.1614183, "lon": 47.1632029}, {"type": "node", "id": 7967119795, "lat": 41.1615825, "lon": 47.1634635}, {"type": "node", "id": 9951508376, "lat": 41.1614284, "lon": 47.1630889}, {"type": "node", "id": 7967256185, "lat": 41.1659185, "lon": 47.1828428}, {"type": "node", "id": 7967256186, "lat": 41.1657282, "lon": 47.1828373}, {"type": "node", "id": 7967256187, "lat": 41.1657306, "lon": 47.1826924}, {"type": "node", "id": 7967256188, "lat": 41.1659209, "lon": 47.182698}, {"type": "node", "id": 7969156321, "lat": 41.1901419, "lon": 47.1612731}, {"type": "node", "id": 7969156322, "lat": 41.1902428, "lon": 47.1608037}, {"type": "node", "id": 7993080956, "lat": 41.1898069, "lon": 47.1611497}, {"type": "node", "id": 7993080957, "lat": 41.1899158, "lon": 47.1606562}, {"type": "node", "id": 7992870716, "lat": 41.1983988, "lon": 47.1638212}, {"type": "node", "id": 7992870717, "lat": 41.1987258, "lon": 47.1622199}, {"type": "node", "id": 7992870718, "lat": 41.1991617, "lon": 47.1623969}, {"type": "node", "id": 7997942468, "lat": 41.199103, "lon": 47.1659925}, {"type": "node", "id": 7997942473, "lat": 41.1991506, "lon": 47.1660112}, {"type": "node", "id": 7997942474, "lat": 41.1989932, "lon": 47.1659495}, {"type": "node", "id": 7997942469, "lat": 41.1988567, "lon": 47.1667269}, {"type": "node", "id": 7997942470, "lat": 41.1989431, "lon": 47.1667679}, {"type": "node", "id": 7997942471, "lat": 41.1987893, "lon": 47.1671109}, {"type": "node", "id": 7997942472, "lat": 41.1988479, "lon": 47.1671149}, {"type": "node", "id": 7981408939, "lat": 41.1939366, "lon": 47.1745269}, {"type": "node", "id": 7981408940, "lat": 41.1935436, "lon": 47.1743742}, {"type": "node", "id": 7981408941, "lat": 41.1935801, "lon": 47.1742083}, {"type": "node", "id": 7981408942, "lat": 41.193973, "lon": 47.174361}, {"type": "node", "id": 6005243791, "lat": 41.1988639, "lon": 47.1846698}, {"type": "node", "id": 7977730282, "lat": 41.1983292, "lon": 47.1852171}, {"type": "node", "id": 7977730283, "lat": 41.1984029, "lon": 47.1852131}, {"type": "node", "id": 7977730284, "lat": 41.1986158, "lon": 47.185598}, {"type": "node", "id": 7977733885, "lat": 41.198642, "lon": 47.1857214}, {"type": "node", "id": 7977733886, "lat": 41.198642, "lon": 47.1857978}, {"type": "node", "id": 7977733887, "lat": 41.1986218, "lon": 47.1859038}, {"type": "node", "id": 7977733891, "lat": 41.1978559, "lon": 47.1854183}, {"type": "node", "id": 7977733892, "lat": 41.1978892, "lon": 47.1845855}, {"type": "node", "id": 7977733893, "lat": 41.1979215, "lon": 47.1845131}, {"type": "node", "id": 7977733894, "lat": 41.1979619, "lon": 47.1844795}, {"type": "node", "id": 7977733895, "lat": 41.1980012, "lon": 47.1844889}, {"type": "node", "id": 7977733896, "lat": 41.1980376, "lon": 47.1845318}, {"type": "node", "id": 13020400232, "lat": 41.1987406, "lon": 47.1846699}, {"type": "node", "id": 13020400233, "lat": 41.1987409, "lon": 47.1854076}, {"type": "node", "id": 13020400234, "lat": 41.1989362, "lon": 47.1854075}, {"type": "node", "id": 13020400235, "lat": 41.1989361, "lon": 47.1849375}, {"type": "node", "id": 13020400236, "lat": 41.1987407, "lon": 47.1850167}, {"type": "node", "id": 7985795457, "lat": 41.2014896, "lon": 47.1644393}, {"type": "node", "id": 7985795458, "lat": 41.2005894, "lon": 47.164269}, {"type": "node", "id": 7992870719, "lat": 41.199416, "lon": 47.1613589}, {"type": "node", "id": 7992870720, "lat": 41.1998559, "lon": 47.1602055}, {"type": "node", "id": 7992870721, "lat": 41.2006672, "lon": 47.1609297}, {"type": "node", "id": 7992870722, "lat": 41.2007298, "lon": 47.1608064}, {"type": "node", "id": 7992870723, "lat": 41.2013211, "lon": 47.1613428}, {"type": "node", "id": 7992870724, "lat": 41.2007722, "lon": 47.163958}, {"type": "node", "id": 7992870725, "lat": 41.2015855, "lon": 47.1641162}, {"type": "node", "id": 7992870726, "lat": 41.2015532, "lon": 47.1644542}, {"type": "node", "id": 9951533279, "lat": 41.1529394, "lon": 47.1981975}, {"type": "node", "id": 9951533280, "lat": 41.1529216, "lon": 47.1982356}, {"type": "node", "id": 9951533281, "lat": 41.1529793, "lon": 47.1982832}, {"type": "node", "id": 9951533282, "lat": 41.1529971, "lon": 47.1982451}, {"type": "node", "id": 7977733888, "lat": 41.1985764, "lon": 47.1860017}, {"type": "node", "id": 7977733889, "lat": 41.1985038, "lon": 47.1860889}, {"type": "node", "id": 7977733890, "lat": 41.198197, "lon": 47.1863222}, {"type": "node", "id": 8312930022, "lat": 41.1991445, "lon": 47.1922123}, {"type": "node", "id": 8312930021, "lat": 41.1993786, "lon": 47.192266}, {"type": "node", "id": 8312930023, "lat": 41.1992222, "lon": 47.1918435}, {"type": "node", "id": 8312930024, "lat": 41.1992979, "lon": 47.1918757}, {"type": "node", "id": 8312930025, "lat": 41.1992848, "lon": 47.192034}, {"type": "node", "id": 8312930026, "lat": 41.1993998, "lon": 47.1920581}]}