{"version": 0.6, "generator": "Overpass API 0.7.62.8 e802775f", "osm3s": {"timestamp_osm_base": "2025-11-22T14:26:00Z", "copyright": "The data included in this document is from www.openstreetmap.org. The data is made available under ODbL."}, "elements": [{"type": "node", "id": 1837410841, "lat": 28.5455297, "lon": 77.3058508, "tags": {"amenity": "restaurant", "cuisine": "indian", "name": "Zooby's Kitchen,Al-Bake"}}, {"type": "node", "id": 1861235131, "lat": 28.5309328, "lon": 77.2978924, "tags": {"amenity": "marketplace", "name": "DDA Market, Pocket E"}}, {"type": "node", "id": 6164754385, "lat": 28.536286, "lon": 77.2968367, "tags": {"name": "OM PLAZA", "tourism": "guest_house"}}, {"type": "node", "id": 6261271686, "lat": 28.5433298, "lon": 77.2922764, "tags": {"addr:housenumber": "1", "addr:postcode": "2334", "name": "Wellcome hotel", "name:en": "Engllish", "name:ja": "English", "tourism": "hotel"}}, {"type": "node", "id": 6274319093, "lat": 28.5397595, "lon": 77.2942105, "tags": {"name": "The Sentinel", "tourism": "hotel"}}, {"type": "node", "id": 6988144685, "lat": 28.5459335, "lon": 77.2918462, "tags": {"name": "KUNDAN PALACE", "tourism": "hotel"}}, {"type": "node", "id": 8204008811, "lat": 28.5348461, "lon": 77.2910419, "tags": {"amenity": "restaurant", "cuisine": "chinese;indian", "name": "Handi"}}, {"type": "node", "id": 10172949294, "lat": 28.5460399, "lon": 77.3065386, "tags": {"amenity": "cafe", "name": "Aggarwal Sweets"}}, {"type": "node", "id": 10172949309, "lat": 28.5436287, "lon": 77.2956314, "tags": {"amenity": "restaurant", "name": "restraunt"}}, {"type": "node", "id": 10803109780, "lat": 28.5464024, "lon": 77.2930918, "tags": {"addr:city": "Delhi", "addr:housenumber": "Chauhan Moholla", "addr:postcode": "110025", "addr:street": "Jasola Village", "name": "Tushar Chauhan Jasola", "tourism": "attraction"}}, {"type": "node", "id": 11224947604, "lat": 28.5007931, "lon": 77.3015786, "tags": {"amenity": "restaurant", "name": "Aggarwal sweets"}}, {"type": "node", "id": 11236764628, "lat": 28.5006244, "lon": 77.3139116, "tags": {"amenity": "restaurant", "name": "Murliwala Aggrawal", "opening_hours": "Mo-Su 10:00-23:45"}}, {"type": "node", "id": 11697109782, "lat": 28.5001039, "lon": 77.2901875, "tags": {"amenity": "restaurant", "name": "dosa express"}}, {"type": "node", "id": 11822481671, "lat": 28.5415665, "lon": 77.337044, "tags": {"addr:street": "Raipur Khadar, Opposite of Amity University Gate No 2", "name": "Riyansh PG", "tourism": "hostel"}}, {"type": "node", "id": 12896050427, "lat": 28.5462152, "lon": 77.3344446, "tags": {"amenity": "cafe", "brand": "Cafe Coffee Day", "brand:wikidata": "Q5017235", "cuisine": "coffee_shop", "name": "Cafe Coffee Day", "takeaway": "yes"}}, {"type": "node", "id": 13185273801, "lat": 28.5044318, "lon": 77.3204684, "tags": {"amenity": "cafe", "name": "Chaupalpur"}}, {"type": "node", "id": 13185273802, "lat": 28.5045209, "lon": 77.3208606, "tags": {"amenity": "cafe", "name": "LAPIZZANO"}}, {"type": "way", "id": 80511323, "nodes": [939234953, 939235144, 939234802, 939234894, 939234949, 939235048, 939235101, 939235151, 9077260200, 9077260201, 939234953], "tags": {"barrier": "fence", "name": "Kalindi Kunj Park", "tourism": "theme_park", "wikidata": "Q6352839"}}, {"type": "way", "id": 143975376, "nodes": [1575538353, 1575538361, 1575538351, 1575538357, 1575538359, 1575538355, 1575538353], "tags": {"designation": "Park", "leisure": "park"}}, {"type": "way", "id": 170455233, "nodes": [1815929101, 1815929170, 1815929216, 1815929235, 1815929251, 1815929247, 1815929232, 1815929221, 1815929210, 1815929194, 1815929183, 1815929154, 6464796804, 1815929122, 1815929101], "tags": {"leisure": "park"}}, {"type": "way", "id": 170455234, "nodes": [1815929195, 1815929200, 1815929201, 11003287276, 1815929198, 11003287277, 1815929196, 11003287278, 1815929178, 11003287279, 1815929123, 11003287280, 1815929051, 1815928971, 1815928976, 11003287281, 11003287282, 11003287283, 1815928964, 11003287284, 1815929017, 1815929065, 11003287285, 11003287286, 11003287287, 11003287288, 13255752094, 1815929088, 11003267512, 11003267511, 1815929129, 1815929158, 11003267510, 1815929195], "tags": {"leisure": "park"}}, {"type": "way", "id": 170455239, "nodes": [1815929176, 6475939648, 1815929197, 11003300818, 11003300814, 1815929233, 1815929249, 1815929258, 1815929270, 1815929279, 1815929272, 1815929266, 1815929260, 1815929252, 6464796807, 6464796806, 1815929243, 6464796805, 1815929237, 6581118955, 1815929228, 6581118954, 6581118953, 1815929223, 1815929214, 1815929206, 1815929176], "tags": {"leisure": "park"}}, {"type": "way", "id": 175547770, "nodes": [1867172846, 1867172845, 1861242881, 1867172847, 1867172846], "tags": {"barrier": "wall", "leisure": "park"}}, {"type": "way", "id": 188617256, "nodes": [9077205895, 9077205896, 9077205897, 9077205898, 11601701285, 9077205899, 9077205900, 9077205901, 11601701974, 11601701973, 9077205902, 11601701976, 11601701975, 9077205903, 11601701977, 11601701980, 11601701978, 11601701979, 9077205904, 9077205905, 5361945547, 11601701981, 1992383580, 1992383581, 5361945548, 11601701982, 1992383582, 1992383584, 5361945534, 5361945549, 1992383583, 5361945554, 11601701983, 1992383579, 1992383578, 11601701984, 5361945553, 11601701985, 11601701986, 1992383576, 1992383575, 11601701987, 11601701989, 11601701988, 1992383574, 5361945552, 11601701990, 1992383572, 11601701991, 1992383571, 11601701992, 5361945551, 11601701993, 5361945550, 11601701994, 1992383570, 11601701995, 11601701997, 11601701996, 1992383567, 11601701998, 11601701999, 11601702000, 11601702001, 11601702002, 9077205906, 9077205907, 9077205908, 11601702003, 11601702004, 11601702005, 9077205909, 11601702006, 11601702007, 11601702008, 9077205910, 9077205911, 11601702009, 9077205912, 9077205913, 9077205914, 9077205915, 9077205916, 11601702010, 9077223917, 11601702011, 11601701970, 1992383539, 11601701971, 1992383541, 1992383542, 11601701972, 9077205886, 9077205887, 9077205888, 9077205889, 9077205890, 9077205891, 9077205892, 11601701721, 9077205893, 9077205894, 9077205895], "tags": {"alt_name": "NTPC Eco-Park", "barrier": "wall", "construction": "park", "disused:landuse": "landfill", "disused:name": "NTPC Badarpur Plant", "disused:operator": "NTPC", "leisure": "park", "name": "NTPC Eco Park", "operator": "NTPC", "source": "https://samvaad.ntpc.co.in/Home/Details/47185/Corporate%20Buzz"}}, {"type": "way", "id": 235625787, "nodes": [6256156998, 2436996268, 2436996269, 2436996271, 2436996272, 2436996273, 6573803751, 2436996275, 2436996276, 2436996277, 2436996278, 2436996280, 6256156998], "tags": {"barrier": "wall", "leisure": "park", "name": "District Park Sarita Vihar"}}, {"type": "way", "id": 235626307, "nodes": [2437002064, 2437002068, 6464859622, 6464859623, 6464859624, 6464859625, 2437002069, 2437002070, 2437002064], "tags": {"addr:city": "Mohan Cooperatives Industrial Area, New Delhi, Delhi", "addr:housenumber": "B - 1, H-8 Road, Block B,", "addr:postcode": "110044", "addr:street": "Mathura Road", "air_conditioning": "yes", "amenity": "restaurant", "bar": "no", "brand:wikidata": "Q17054442", "brand:wikipedia": "en:Haldiram's", "building": "yes", "cuisine": "indian", "name": "Haldiram", "opening_hours": "Mo-Su 09:00-22:00", "phone": "011 4520 4200", "smoking": "no", "website": "www.haldiram.com"}}, {"type": "way", "id": 266074787, "nodes": [2716596151, 2716596255, 2716596261, 2716596107, 2716596112, 2716596106, 2716596121, 2716596256, 2716596181, 2716596143, 2716596200, 2716596110, 2716596086, 2716596154, 2716596219, 2716596083, 2716596203, 2716596156, 2716596303, 2716596234, 2716596120, 2716596089, 2716596307, 2716596213, 2716596111, 2716596225, 2716596295, 2716596116, 2716596202, 2716596305, 2716596151], "tags": {"leisure": "park"}}, {"type": "way", "id": 266074807, "nodes": [2716596128, 2716596258, 2716596199, 2716596207, 2716596128], "tags": {"leisure": "park", "name": "Netaji Subhash Sports Complex"}}, {"type": "way", "id": 283124991, "nodes": [2870403256, 2870403261, 2870403245, 2870403241, 6543987243, 6543987242, 6543987244, 2870403254, 2870403252, 2870403257, 2870403247, 2870403248, 2870403250, 2870403256], "tags": {"barrier": "wall", "leisure": "park"}}, {"type": "way", "id": 283124992, "nodes": [2870402999, 2870403211, 2870403202, 2870403206, 2870403222, 2870403216, 2870403218, 2870403210, 2870403213, 2870403000, 2870402999], "tags": {"barrier": "wall", "leisure": "park"}}, {"type": "way", "id": 283124993, "nodes": [2870403349, 2870403356, 2870403366, 2870403364, 2870403358, 2870403359, 2870403362, 2870403360, 2870403352, 2870403350, 2870403351, 2870403349], "tags": {"barrier": "wall", "leisure": "park"}}, {"type": "way", "id": 283124994, "nodes": [2870403221, 6581163800, 6581163798, 2870403204, 2870403217, 12951486981, 2870403205, 2870403219, 2870403208, 2870403207, 2870403203, 2870403215, 2870403220, 2870403226, 6581163799, 2870403221], "tags": {"barrier": "wall", "leisure": "park", "name": "playfield"}}, {"type": "way", "id": 283124996, "nodes": [2870403331, 2870403317, 2870403327, 2870403313, 2870403320, 2870403314, 12951578621, 2870403332, 2870403334, 2870403337, 2870403335, 2870403339, 2870403341, 2870403345, 2870403354, 2870403331], "tags": {"barrier": "wall", "leisure": "park"}}, {"type": "way", "id": 283124997, "nodes": [2870403286, 2870403288, 2870403306, 2870403308, 2870403296, 2870403302, 2870403312, 2870403328, 2870403316, 2870403309, 2870403294, 2870403290, 2870403295, 13059709562, 2870403280, 2870403286], "tags": {"barrier": "wall", "leisure": "park"}}, {"type": "way", "id": 283125002, "nodes": [2870403272, 2870403273, 2870403270, 2870403267, 2870403272], "tags": {"barrier": "wall", "leisure": "park"}}, {"type": "way", "id": 283125003, "nodes": [2870403292, 2870403298, 2870403303, 2870403300, 2870403292], "tags": {"barrier": "wall", "leisure": "park"}}, {"type": "way", "id": 283125004, "nodes": [2870403276, 2870403279, 2870403284, 2870403281, 2870403276], "tags": {"barrier": "wall", "leisure": "park"}}, {"type": "way", "id": 283125005, "nodes": [2870403340, 2870403347, 2870403348, 2870403344, 2870403340], "tags": {"barrier": "wall", "leisure": "park"}}, {"type": "way", "id": 283125006, "nodes": [2870403265, 2870403266, 2870403271, 2870403269, 2870403265], "tags": {"barrier": "wall", "leisure": "park"}}, {"type": "way", "id": 283125007, "nodes": [2870403353, 2870403357, 2870403361, 2870403355, 2870403353], "tags": {"barrier": "wall", "leisure": "park"}}, {"type": "way", "id": 283125009, "nodes": [2870403311, 2870403318, 2870403325, 2870403321, 2870403311], "tags": {"barrier": "wall", "leisure": "park"}}, {"type": "way", "id": 283125010, "nodes": [2870403225, 2870403227, 2870403212, 2870403201, 2870403225], "tags": {"alt_name": "Herbal Park", "leisure": "park", "name": "Model Park"}}, {"type": "way", "id": 283125011, "nodes": [2870403338, 2870403342, 2870403346, 2870403343, 2870403338], "tags": {"barrier": "wall", "leisure": "park"}}, {"type": "way", "id": 283125013, "nodes": [2870402995, 2870402998, 2870402993, 2870402990, 2870402995], "tags": {"barrier": "wall", "leisure": "park"}}, {"type": "way", "id": 283125014, "nodes": [2870402992, 2870402996, 2870402991, 2870402989, 2870402992], "tags": {"barrier": "wall", "leisure": "park", "name": "Durga Park"}}, {"type": "way", "id": 283125015, "nodes": [2870403324, 2870403333, 2870403336, 2870403330, 2870403324], "tags": {"barrier": "wall", "leisure": "park"}}, {"type": "way", "id": 283125016, "nodes": [2870403319, 2870403323, 2870403329, 2870403326, 2870403319], "tags": {"barrier": "wall", "leisure": "park"}}, {"type": "way", "id": 283125017, "nodes": [2870403275, 2870403277, 2870403283, 2870403278, 2870403275], "tags": {"barrier": "wall", "leisure": "park"}}, {"type": "way", "id": 283125018, "nodes": [2870402985, 2870402987, 6558016517, 2870402997, 2870402994, 2870402985], "tags": {"barrier": "wall", "leisure": "park"}}, {"type": "way", "id": 283125019, "nodes": [2870402977, 2870402982, 2870402976, 2870402974, 2870402977], "tags": {"barrier": "wall", "leisure": "park"}}, {"type": "way", "id": 283125022, "nodes": [2870403209, 2870403214, 2870403224, 2870403223, 2870403209], "tags": {"barrier": "wall", "leisure": "park"}}, {"type": "way", "id": 283125023, "nodes": [2870403291, 2870403299, 2870403304, 2870403301, 2870403291], "tags": {"barrier": "wall", "leisure": "park"}}, {"type": "way", "id": 283125024, "nodes": [2870402986, 2870402988, 2870402979, 2870402981, 2870402980, 2870402986], "tags": {"barrier": "wall", "leisure": "park"}}, {"type": "way", "id": 283125025, "nodes": [2870403365, 2870403367, 2870403370, 2870403369, 2870403368, 2870403365], "tags": {"barrier": "wall", "leisure": "park"}}, {"type": "way", "id": 283125026, "nodes": [2870402972, 2870402973, 2870402984, 2870402983, 2870402978, 2870402975, 2870402972], "tags": {"barrier": "wall", "leisure": "park", "name": "Pocket C Sarita Vihar Park"}}, {"type": "way", "id": 283125027, "nodes": [2870403243, 2870403246, 2870403234, 6573800753, 6573134146, 2870403240, 2870403236, 2870403233, 2870403228, 2870403243], "tags": {"barrier": "wall", "leisure": "park"}}, {"type": "way", "id": 283125030, "nodes": [2870403310, 2870403322, 2870403307, 2870403305, 2870403289, 13059709504, 2870403287, 2870403297, 2870403293, 2870403310], "tags": {"barrier": "wall", "leisure": "park"}}, {"type": "way", "id": 688609118, "nodes": [6457891256, 6457891257, 6457891258, 6457891259, 11601290314, 6457891260, 6457891261, 6457891262, 6457891263, 6457891264, 6457891265, 6457891256], "tags": {"leisure": "park", "name": "DDA Park"}}, {"type": "way", "id": 689154566, "nodes": [6464796821, 6464796822, 6464796823, 6464796824, 6464796825, 6464796821], "tags": {"access": "yes", "historic": "monument"}}, {"type": "way", "id": 689154567, "nodes": [6464796826, 6464796827, 6464796828, 6464796829, 6464796830, 6464796826], "tags": {"historic": "monument"}}, {"type": "way", "id": 689154568, "nodes": [6464796831, 6464796832, 6464796833, 6464796834, 6464796835, 6464796831], "tags": {"access": "yes", "historic": "monument"}}, {"type": "way", "id": 696812945, "nodes": [6543987245, 6543987246, 6543987247, 6543987248, 6543987249, 6543987250, 6543987251, 6543987252, 6543987253, 6543987254, 6543987245], "tags": {"leisure": "park"}}, {"type": "way", "id": 696921923, "nodes": [6544975554, 6544975555, 6544975556, 6544975557, 6544975558, 6544975559, 6544975554], "tags": {"leisure": "park"}}, {"type": "way", "id": 698208086, "nodes": [6557135661, 6557135662, 6557135663, 6557135664, 6557135665, 6557135666, 6557135661], "tags": {"leisure": "park"}}, {"type": "way", "id": 698208087, "nodes": [6557135667, 6557135668, 6557135669, 6557135670, 6557135671, 6557135672, 6557135667], "tags": {"leisure": "park"}}, {"type": "way", "id": 698241521, "nodes": [6557469999, 6557470000, 6557470001, 6557470002, 6557470003, 6557470004, 6557470005, 6557470006, 6557470007, 6557470008, 6557470009, 6557470010, 6557470011, 6557470012, 6557470017, 6557470019, 6557470022, 6557470021, 6557470020, 6557470013, 6557470014, 6557470015, 6557470016, 6557469999], "tags": {"leisure": "park"}}, {"type": "way", "id": 698241523, "nodes": [6557470024, 6557470025, 6557470026, 6557470027, 6557470028, 6557470029, 6557470030, 6557470031, 6557470032, 6557470033, 6557470034, 6557470035, 6557470036, 6557470037, 6557470038, 13276909742, 13276909743, 13276909745, 13276909744, 13276909741, 13276909740, 6557470024], "tags": {"leisure": "park", "name": "Millenium Ground"}}, {"type": "way", "id": 698866481, "nodes": [6562639159, 6562639160, 6562639161, 6562639162, 6562639163, 6562639164, 6562639159], "tags": {"leisure": "park"}}, {"type": "way", "id": 698866488, "nodes": [6562686306, 6562686307, 6562686308, 6562686309, 6562686310, 6562686311, 6562686312, 6562686313, 6562686314, 6562686315, 6562686306], "tags": {"leisure": "park"}}, {"type": "way", "id": 698866490, "nodes": [6562686321, 6562686322, 6562686323, 6562686324, 6562686325, 6562686326, 6562686327, 6562686328, 6562686321], "tags": {"leisure": "park"}}, {"type": "way", "id": 700028377, "nodes": [6573803687, 6573803688, 6573803689, 6573803691, 6573803687], "tags": {"leisure": "park"}}, {"type": "way", "id": 700028379, "nodes": [6573803696, 6573803697, 6573803698, 6573803699, 6573803700, 6573803696], "tags": {"leisure": "park"}}, {"type": "way", "id": 700028383, "nodes": [6573803757, 6573803758, 6573803815, 6573803759, 6573803760, 6573803761, 6573803762, 6573803763, 6573803764, 6573803765, 6573803766, 6573803767, 6573803768, 6573803769, 6573803770, 6573803771, 6573803772, 6573803773, 6573803774, 6573803775, 6573803776, 6573803757], "tags": {"leisure": "park"}}, {"type": "way", "id": 750346056, "nodes": [7016068883, 7016068884, 7016119985, 7016119986, 7016119987, 7016119988, 7016119989, 7016119990, 7016119991, 7016119992, 7016119993, 7016119994, 7016119995, 7016119996, 7016119997, 7016068883], "tags": {"addr:city": "New Delhi", "addr:postcode": "110044", "addr:street": "Jaitpur Kalandi Kunj Road, Khadda Colony", "description": "This is the park where people come to play and walk. It is a center-point for kids to play cricket. It is maintained by the Tree Protection Committee Jaitpur. It has slides for young kids and benches. Monthly we have football and kabbadi matches. ", "leisure": "park", "name": "NTPC Park", "operator": "Vriksh Raksha Manch"}}, {"type": "way", "id": 750505878, "nodes": [7017450994, 7017450995, 7017450996, 7017450997, 7017450994], "tags": {"addr:city": "New Delhi", "addr:housenumber": "Block F", "addr:postcode": "110044", "addr:street": "Jaitpur Extention Part 2, Kalandi Kunj Road", "amenity": "marketplace", "building": "shed", "name": "Nagar Mandi", "operator": "Nagar"}}, {"type": "way", "id": 750511401, "nodes": [7017488204, 7017488207, 7017488208, 7017488209, 7017488205, 7017488204], "tags": {"addr:city": "New Delhi", "addr:postcode": "110044", "addr:street": "Jaitpur Pushta Road", "description": "It is a small park maintained by the temple. Here people come to do yoga and exercise.", "leisure": "park", "name": "Peer Baba Park", "opening_hours": "24/7", "operator": "Peer Baba Makhan Shah Sthal"}}, {"type": "way", "id": 750519809, "nodes": [7017552127, 7017552128, 7017552129, 7017552127], "tags": {"addr:city": "New Delhi", "addr:housenumber": "K Block", "addr:postcode": "110044", "addr:street": "Sourabh Vihar, Jaitpur", "description": "This is a small park devoted to Shaheed Bhagat Singh. There is a very old Banyan tree. Kids love to play here.", "leisure": "park", "name": "Shaheed Bhagat Singh Park", "name:etymology:wikidata": "Q377808", "opening_hours": "24/7"}}, {"type": "way", "id": 750538901, "nodes": [7017688625, 7017688626, 7017688627, 7017688628, 7017688629, 7017688630, 7017688631, 7017688632, 7017688625], "tags": {"addr:city": "New Delhi", "addr:postcode": "110044", "addr:street": "Saurabh Vihar, Jaitpur", "leisure": "park", "name": "Chhath Ghat"}}, {"type": "way", "id": 750538902, "nodes": [7017688633, 7017688634, 2018077317, 2018077302, 9871895280, 7017688635, 9853089079, 9853089080, 7017688636, 7017688637, 7017688638, 7017688639, 2018077184, 2018077180, 9871500869, 9871500867, 9853089078, 9871493808, 9871493807, 9871493806, 7017688633], "tags": {"addr:city": "New Delhi", "addr:postcode": "110044", "addr:street": "Jaitpur Extention part 1", "leisure": "park", "name": "Arpan Vihar Park", "opening_hours": "24/7", "operator": "RWA ARPAN VIHAR"}}, {"type": "way", "id": 752624280, "nodes": [7033239132, 7033239133, 7033239134, 7033239135, 7033239136, 7033239137, 7033239138, 7033239132], "tags": {"addr:city": "Jaitpur Extention part 2", "addr:postcode": "110044", "addr:street": "Kalandi Kunj Road", "leisure": "park", "name": "Hanuman Mandir Park"}}, {"type": "way", "id": 752624281, "nodes": [7033239139, 7033239140, 7033239141, 7033239142, 7033239139], "tags": {"addr:city": "Jaitpur Extention part 2", "addr:postcode": "110044", "addr:street": "Kalandi Kunj Road", "leisure": "park", "name": "Vishwakarma Park"}}, {"type": "way", "id": 752624282, "nodes": [7033239143, 7033239144, 7033239145, 7033239146, 7033239147, 7033239148, 7033239143], "tags": {"addr:city": "Jaitpur Extention part 2", "addr:postcode": "110044", "addr:street": "Kalandi Kunj Road", "leisure": "park", "name": "Dargah Gareeb Yaar Park", "operator": "Dargah Gareeb Yaar"}}, {"type": "way", "id": 752624283, "nodes": [7033239149, 7033239150, 7033239151, 7033239152, 7033239149], "tags": {"leisure": "park"}}, {"type": "way", "id": 785105027, "nodes": [7335144980, 7335144981, 7335144982, 7335144983, 7335144984, 7335144980], "tags": {"leisure": "park", "name": "NTPC Park", "operator": "Vriksh Raksha Manch Jaitpur"}}, {"type": "way", "id": 928774723, "nodes": [8614152174, 8614152175, 8614152176, 8614152177, 8614152174], "tags": {"leisure": "park"}}, {"type": "way", "id": 928774725, "nodes": [8614152182, 8614152183, 8614152184, 8614152185, 8614152186, 8614152182], "tags": {"leisure": "park"}}, {"type": "way", "id": 928774749, "nodes": [8614200603, 8614200604, 8614200607, 8614200608, 8614200605, 8614200606, 8614200603], "tags": {"designation": "Park", "leisure": "park"}}, {"type": "way", "id": 928774750, "nodes": [8614200609, 8614200610, 8614200611, 8614200612, 8614200613, 8614200614, 8614200609], "tags": {"designation": "Park", "leisure": "park"}}, {"type": "way", "id": 928774751, "nodes": [8614200615, 8614200616, 8614200617, 8614200618, 8614200619, 8614200620, 8614200615], "tags": {"designation": "Park", "leisure": "park"}}, {"type": "way", "id": 928774752, "nodes": [8614200621, 8614200622, 8614200623, 8614200624, 8614200625, 8614200626, 8614200621], "tags": {"designation": "Park", "leisure": "park"}}, {"type": "way", "id": 1086784892, "nodes": [9957752609, 9957752610, 9957752611, 9957752612, 9957752613, 9957752614, 9957752615, 9957752616, 9957779517, 9957752609], "tags": {"addr:city": "new delhi", "addr:postcode": "110044", "addr:street": "Shaheed Bijender Gurjar Marg", "leisure": "park", "name": "molarband village park", "opening_hours": "24/7"}}, {"type": "way", "id": 1111954278, "nodes": [10172949280, 10172949281, 10172949282, 10172949283, 10172949280], "tags": {"leisure": "park", "name": "Police park", "opening_hours": "sunrise-sunset", "operator": "yes"}}, {"type": "way", "id": 1111954279, "nodes": [10172949285, 10172949286, 10172949287, 10172949288, 10172949285], "tags": {"leisure": "park", "name": "Childrens park"}}, {"type": "way", "id": 1188594471, "nodes": [11036833536, 11036833537, 11036833538, 11036833539, 11036833540, 11036833541, 11036833542, 11036833543, 11036833544, 11036833545, 11036833546, 11036833536], "tags": {"leisure": "park"}}, {"type": "way", "id": 1256777668, "nodes": [11601701801, 11601701766, 11601701765, 11683855030, 11601701801], "tags": {"leisure": "park", "name": "eco park", "operator": "ntpc", "operator:type": "government"}}, {"type": "way", "id": 1257174676, "nodes": [11688032472, 11688032473, 11688032474, 11688032475, 11688032472], "tags": {"amenity": "restaurant", "building": "yes", "name": "LUV KUSH"}}, {"type": "way", "id": 1257368791, "nodes": [11690274793, 11690274794, 11690274795, 11690274796, 11690274793], "tags": {"leisure": "park", "name": "sarita vihar park"}}, {"type": "way", "id": 1421142837, "nodes": [13059618257, 13059618254, 13059618251, 13059618258, 13059618263, 13059618259, 13059618256, 13059618266, 13059618257], "tags": {"leisure": "park"}}, {"type": "way", "id": 1421151470, "nodes": [13059709536, 13059709548, 13059709537, 13059709570, 13059709536], "tags": {"leisure": "park"}}, {"type": "way", "id": 1421272582, "nodes": [13061046060, 13061046056, 13061046065, 13061046059, 13061046060], "tags": {"leisure": "park"}}, {"type": "node", "id": 6557135661, "lat": 28.5033329, "lon": 77.2897108}, {"type": "node", "id": 6557135662, "lat": 28.502786, "lon": 77.2899093}, {"type": "node", "id": 6557135663, "lat": 28.5030264, "lon": 77.2906442}, {"type": "node", "id": 6557135664, "lat": 28.5033093, "lon": 77.2905745}, {"type": "node", "id": 6557135665, "lat": 28.5032904, "lon": 77.2903813}, {"type": "node", "id": 6557135666, "lat": 28.5034648, "lon": 77.2903062}, {"type": "node", "id": 6557135667, "lat": 28.5043049, "lon": 77.2901317}, {"type": "node", "id": 6557135668, "lat": 28.5045208, "lon": 77.2900702}, {"type": "node", "id": 6557135669, "lat": 28.5045962, "lon": 77.2905369}, {"type": "node", "id": 6557135670, "lat": 28.5043417, "lon": 77.2905959}, {"type": "node", "id": 6557135671, "lat": 28.503941, "lon": 77.2907461}, {"type": "node", "id": 6557135672, "lat": 28.5038231, "lon": 77.2902741}, {"type": "node", "id": 6562686321, "lat": 28.5031977, "lon": 77.291498}, {"type": "node", "id": 6562686322, "lat": 28.5034853, "lon": 77.2914176}, {"type": "node", "id": 6562686323, "lat": 28.5037281, "lon": 77.2913398}, {"type": "node", "id": 6562686324, "lat": 28.5037682, "lon": 77.2915678}, {"type": "node", "id": 6562686325, "lat": 28.5038153, "lon": 77.2917582}, {"type": "node", "id": 6562686326, "lat": 28.5038389, "lon": 77.2918575}, {"type": "node", "id": 6562686327, "lat": 28.5035277, "lon": 77.291954}, {"type": "node", "id": 6562686328, "lat": 28.5033227, "lon": 77.2920238}, {"type": "node", "id": 6562639159, "lat": 28.5062666, "lon": 77.2906022}, {"type": "node", "id": 6562639160, "lat": 28.5060451, "lon": 77.2906719}, {"type": "node", "id": 6562639161, "lat": 28.505873, "lon": 77.2907175}, {"type": "node", "id": 6562639162, "lat": 28.5059414, "lon": 77.2909965}, {"type": "node", "id": 6562639163, "lat": 28.5060191, "lon": 77.291372}, {"type": "node", "id": 6562639164, "lat": 28.5064057, "lon": 77.2912432}, {"type": "node", "id": 6562686306, "lat": 28.5053922, "lon": 77.292646}, {"type": "node", "id": 6562686307, "lat": 28.5050009, "lon": 77.292815}, {"type": "node", "id": 6562686308, "lat": 28.5050339, "lon": 77.2929196}, {"type": "node", "id": 6562686309, "lat": 28.5050905, "lon": 77.2929652}, {"type": "node", "id": 6562686310, "lat": 28.5051188, "lon": 77.2930564}, {"type": "node", "id": 6562686311, "lat": 28.5051697, "lon": 77.2930877}, {"type": "node", "id": 6562686312, "lat": 28.5055089, "lon": 77.2929557}, {"type": "node", "id": 6562686313, "lat": 28.5055218, "lon": 77.2929223}, {"type": "node", "id": 6562686314, "lat": 28.5054865, "lon": 77.292807}, {"type": "node", "id": 6562686315, "lat": 28.5054417, "lon": 77.292646}, {"type": "node", "id": 1815929101, "lat": 28.4996372, "lon": 77.2996101}, {"type": "node", "id": 1815929170, "lat": 28.4999068, "lon": 77.2995093}, {"type": "node", "id": 1815929216, "lat": 28.5002944, "lon": 77.2994175}, {"type": "node", "id": 1815929232, "lat": 28.5006781, "lon": 77.2995407}, {"type": "node", "id": 1815929235, "lat": 28.5007077, "lon": 77.2993638}, {"type": "node", "id": 1815929247, "lat": 28.5009379, "lon": 77.2994041}, {"type": "node", "id": 1815929249, "lat": 28.5009556, "lon": 77.2996616}, {"type": "node", "id": 1815929251, "lat": 28.5010068, "lon": 77.2993593}, {"type": "node", "id": 1815929258, "lat": 28.5011524, "lon": 77.2996437}, {"type": "node", "id": 1815929270, "lat": 28.5014987, "lon": 77.2996638}, {"type": "node", "id": 1815928964, "lat": 28.4990866, "lon": 77.3014732}, {"type": "node", "id": 1815928971, "lat": 28.4990541, "lon": 77.3018557}, {"type": "node", "id": 1815928976, "lat": 28.4990903, "lon": 77.3017806}, {"type": "node", "id": 1815929017, "lat": 28.499297, "lon": 77.3014724}, {"type": "node", "id": 1815929051, "lat": 28.4994176, "lon": 77.3017847}, {"type": "node", "id": 1815929065, "lat": 28.4994539, "lon": 77.3015045}, {"type": "node", "id": 1815929088, "lat": 28.4995486, "lon": 77.3013432}, {"type": "node", "id": 1815929122, "lat": 28.4997238, "lon": 77.2997153}, {"type": "node", "id": 1815929123, "lat": 28.4997138, "lon": 77.3017065}, {"type": "node", "id": 1815929129, "lat": 28.4997806, "lon": 77.3012116}, {"type": "node", "id": 1815929154, "lat": 28.4998182, "lon": 77.2998004}, {"type": "node", "id": 1815929158, "lat": 28.4998632, "lon": 77.3011264}, {"type": "node", "id": 1815929176, "lat": 28.4999442, "lon": 77.2999997}, {"type": "node", "id": 1815929178, "lat": 28.4999685, "lon": 77.3015077}, {"type": "node", "id": 1815929183, "lat": 28.4999579, "lon": 77.2998541}, {"type": "node", "id": 1815929194, "lat": 28.5000996, "lon": 77.2998541}, {"type": "node", "id": 1815929195, "lat": 28.5001309, "lon": 77.3005496}, {"type": "node", "id": 1815929196, "lat": 28.500124, "lon": 77.3012676}, {"type": "node", "id": 1815929197, "lat": 28.5004445, "lon": 77.2999664}, {"type": "node", "id": 1815929198, "lat": 28.5001766, "lon": 77.301064}, {"type": "node", "id": 1815929200, "lat": 28.5001778, "lon": 77.3006811}, {"type": "node", "id": 1815929201, "lat": 28.5001963, "lon": 77.3007965}, {"type": "node", "id": 1815929206, "lat": 28.5002216, "lon": 77.3003848}, {"type": "node", "id": 1815929210, "lat": 28.5002433, "lon": 77.2998206}, {"type": "node", "id": 1815929214, "lat": 28.5002925, "lon": 77.3004766}, {"type": "node", "id": 1815929221, "lat": 28.5004164, "lon": 77.2997153}, {"type": "node", "id": 1815929223, "lat": 28.5004499, "lon": 77.3005975}, {"type": "node", "id": 1815929228, "lat": 28.5005739, "lon": 77.3006222}, {"type": "node", "id": 1815929233, "lat": 28.5006801, "lon": 77.2997668}, {"type": "node", "id": 1815929237, "lat": 28.5007332, "lon": 77.3005819}, {"type": "node", "id": 1815929243, "lat": 28.5008907, "lon": 77.3004811}, {"type": "node", "id": 1815929252, "lat": 28.5010245, "lon": 77.3003445}, {"type": "node", "id": 1815929260, "lat": 28.5011917, "lon": 77.3001654}, {"type": "node", "id": 1815929266, "lat": 28.5013433, "lon": 77.3000624}, {"type": "node", "id": 1815929272, "lat": 28.5015696, "lon": 77.29989}, {"type": "node", "id": 1815929279, "lat": 28.5018628, "lon": 77.2997332}, {"type": "node", "id": 6457891256, "lat": 28.5024327, "lon": 77.3029353}, {"type": "node", "id": 6457891257, "lat": 28.5025211, "lon": 77.3029353}, {"type": "node", "id": 6457891258, "lat": 28.5026319, "lon": 77.3029326}, {"type": "node", "id": 6457891259, "lat": 28.5026283, "lon": 77.3025732}, {"type": "node", "id": 6457891260, "lat": 28.5024044, "lon": 77.3025705}, {"type": "node", "id": 6457891261, "lat": 28.5023738, "lon": 77.3025759}, {"type": "node", "id": 6457891262, "lat": 28.5023761, "lon": 77.3027609}, {"type": "node", "id": 6457891263, "lat": 28.5024138, "lon": 77.302769}, {"type": "node", "id": 6457891264, "lat": 28.5024162, "lon": 77.3028441}, {"type": "node", "id": 6457891265, "lat": 28.5024351, "lon": 77.3028468}, {"type": "node", "id": 6464796804, "lat": 28.4997815, "lon": 77.2997677}, {"type": "node", "id": 6464796805, "lat": 28.5008549, "lon": 77.300504}, {"type": "node", "id": 6464796806, "lat": 28.5009677, "lon": 77.3004025}, {"type": "node", "id": 6464796807, "lat": 28.5010143, "lon": 77.3003549}, {"type": "node", "id": 6464796821, "lat": 28.501109, "lon": 77.3014076}, {"type": "node", "id": 6464796822, "lat": 28.5010006, "lon": 77.3014089}, {"type": "node", "id": 6464796823, "lat": 28.5010006, "lon": 77.3015377}, {"type": "node", "id": 6464796824, "lat": 28.5011172, "lon": 77.301535}, {"type": "node", "id": 6464796825, "lat": 28.5011196, "lon": 77.3014103}, {"type": "node", "id": 6464796826, "lat": 28.5020147, "lon": 77.3014244}, {"type": "node", "id": 6464796827, "lat": 28.5019393, "lon": 77.3014284}, {"type": "node", "id": 6464796828, "lat": 28.5019393, "lon": 77.3015249}, {"type": "node", "id": 6464796829, "lat": 28.5020242, "lon": 77.3015357}, {"type": "node", "id": 6464796830, "lat": 28.502023, "lon": 77.3014378}, {"type": "node", "id": 6464796831, "lat": 28.5038438, "lon": 77.3013667}, {"type": "node", "id": 6464796832, "lat": 28.5037472, "lon": 77.3013694}, {"type": "node", "id": 6464796833, "lat": 28.5037472, "lon": 77.3015035}, {"type": "node", "id": 6464796834, "lat": 28.5038497, "lon": 77.3015021}, {"type": "node", "id": 6464796835, "lat": 28.5038497, "lon": 77.3013922}, {"type": "node", "id": 6475939648, "lat": 28.5003661, "lon": 77.299866}, {"type": "node", "id": 6581118953, "lat": 28.5004673, "lon": 77.300601}, {"type": "node", "id": 6581118954, "lat": 28.500515, "lon": 77.3006105}, {"type": "node", "id": 6581118955, "lat": 28.5006643, "lon": 77.3005993}, {"type": "node", "id": 11003267510, "lat": 28.4999472, "lon": 77.3009829}, {"type": "node", "id": 11003267511, "lat": 28.4996896, "lon": 77.3012827}, {"type": "node", "id": 11003267512, "lat": 28.4996185, "lon": 77.3013181}, {"type": "node", "id": 11003287276, "lat": 28.5001972, "lon": 77.3009197}, {"type": "node", "id": 11003287277, "lat": 28.5001565, "lon": 77.3011669}, {"type": "node", "id": 11003287278, "lat": 28.5000287, "lon": 77.3014204}, {"type": "node", "id": 11003287279, "lat": 28.4998143, "lon": 77.3016487}, {"type": "node", "id": 11003287280, "lat": 28.4995906, "lon": 77.3017521}, {"type": "node", "id": 11003287281, "lat": 28.4991125, "lon": 77.3017007}, {"type": "node", "id": 11003287282, "lat": 28.4991189, "lon": 77.3016323}, {"type": "node", "id": 11003287283, "lat": 28.499107, "lon": 77.3015364}, {"type": "node", "id": 11003287284, "lat": 28.4990544, "lon": 77.301416}, {"type": "node", "id": 11003287285, "lat": 28.499637, "lon": 77.3015115}, {"type": "node", "id": 11003287286, "lat": 28.4996434, "lon": 77.3013885}, {"type": "node", "id": 11003287287, "lat": 28.4995439, "lon": 77.3013866}, {"type": "node", "id": 11003287288, "lat": 28.4994113, "lon": 77.301383}, {"type": "node", "id": 11003300814, "lat": 28.5005769, "lon": 77.2998206}, {"type": "node", "id": 11003300818, "lat": 28.5005107, "lon": 77.2998848}, {"type": "node", "id": 11601290314, "lat": 28.5024678, "lon": 77.3025713}, {"type": "node", "id": 13255752094, "lat": 28.4994119, "lon": 77.3013582}, {"type": "node", "id": 6544975554, "lat": 28.5075348, "lon": 77.3021026}, {"type": "node", "id": 6544975555, "lat": 28.5070681, "lon": 77.3023601}, {"type": "node", "id": 6544975556, "lat": 28.507186, "lon": 77.3027409}, {"type": "node", "id": 6544975557, "lat": 28.5072378, "lon": 77.3027248}, {"type": "node", "id": 6544975558, "lat": 28.5072661, "lon": 77.3027999}, {"type": "node", "id": 6544975559, "lat": 28.507714, "lon": 77.3025478}, {"type": "node", "id": 6557470024, "lat": 28.5098692, "lon": 77.3042396}, {"type": "node", "id": 6557470025, "lat": 28.5100435, "lon": 77.3042182}, {"type": "node", "id": 6557470026, "lat": 28.5100812, "lon": 77.3041055}, {"type": "node", "id": 6557470027, "lat": 28.5109297, "lon": 77.3044756}, {"type": "node", "id": 6557470028, "lat": 28.5112314, "lon": 77.3050765}, {"type": "node", "id": 6557470036, "lat": 28.5107176, "lon": 77.305747}, {"type": "node", "id": 6557470037, "lat": 28.5102887, "lon": 77.3048672}, {"type": "node", "id": 6557470038, "lat": 28.5101119, "lon": 77.3045534}, {"type": "node", "id": 13276909740, "lat": 28.5097249, "lon": 77.3042089}, {"type": "node", "id": 13276909741, "lat": 28.5096143, "lon": 77.3042124}, {"type": "node", "id": 13276909742, "lat": 28.5097149, "lon": 77.3043975}, {"type": "node", "id": 13276909743, "lat": 28.509629, "lon": 77.3043661}, {"type": "node", "id": 13276909744, "lat": 28.5095781, "lon": 77.3042575}, {"type": "node", "id": 13276909745, "lat": 28.5095857, "lon": 77.3043392}, {"type": "node", "id": 9957752609, "lat": 28.5023083, "lon": 77.3142488}, {"type": "node", "id": 9957752610, "lat": 28.5004773, "lon": 77.3144281}, {"type": "node", "id": 9957752611, "lat": 28.5004581, "lon": 77.3141896}, {"type": "node", "id": 9957752612, "lat": 28.5005535, "lon": 77.3140299}, {"type": "node", "id": 9957752613, "lat": 28.500795, "lon": 77.3139963}, {"type": "node", "id": 9957752614, "lat": 28.5014336, "lon": 77.3139541}, {"type": "node", "id": 9957752615, "lat": 28.5017751, "lon": 77.3139392}, {"type": "node", "id": 9957752616, "lat": 28.5020124, "lon": 77.3139427}, {"type": "node", "id": 9957779517, "lat": 28.5022931, "lon": 77.313936}, {"type": "node", "id": 6557470031, "lat": 28.511387, "lon": 77.3064658}, {"type": "node", "id": 6557470032, "lat": 28.5114153, "lon": 77.3066858}, {"type": "node", "id": 11688032474, "lat": 28.5048187, "lon": 77.3224939}, {"type": "node", "id": 1992383539, "lat": 28.5108525, "lon": 77.3241172}, {"type": "node", "id": 1992383541, "lat": 28.5111756, "lon": 77.3224764}, {"type": "node", "id": 7017552127, "lat": 28.5102282, "lon": 77.3204759}, {"type": "node", "id": 7017552128, "lat": 28.5096625, "lon": 77.3200119}, {"type": "node", "id": 7017552129, "lat": 28.5096342, "lon": 77.3204598}, {"type": "node", "id": 7017688625, "lat": 28.5107434, "lon": 77.3207367}, {"type": "node", "id": 7017688626, "lat": 28.5106232, "lon": 77.3207796}, {"type": "node", "id": 7017688627, "lat": 28.5103945, "lon": 77.3207179}, {"type": "node", "id": 7017688628, "lat": 28.5102437, "lon": 77.3211283}, {"type": "node", "id": 7017688629, "lat": 28.5101777, "lon": 77.3214394}, {"type": "node", "id": 7017688630, "lat": 28.5102084, "lon": 77.3214475}, {"type": "node", "id": 7017688631, "lat": 28.5104134, "lon": 77.3214877}, {"type": "node", "id": 7017688632, "lat": 28.5107387, "lon": 77.3207662}, {"type": "node", "id": 11601701970, "lat": 28.5108075, "lon": 77.3244518}, {"type": "node", "id": 11601701971, "lat": 28.5109993, "lon": 77.3233004}, {"type": "node", "id": 11601702011, "lat": 28.5107783, "lon": 77.3247553}, {"type": "node", "id": 11688032472, "lat": 28.5050419, "lon": 77.3226023}, {"type": "node", "id": 11688032473, "lat": 28.5049237, "lon": 77.322748}, {"type": "node", "id": 11688032475, "lat": 28.5050058, "lon": 77.3224715}, {"type": "node", "id": 2018077302, "lat": 28.506976, "lon": 77.3317268}, {"type": "node", "id": 2018077317, "lat": 28.5073908, "lon": 77.3312802}, {"type": "node", "id": 7016068883, "lat": 28.5083754, "lon": 77.3315742}, {"type": "node", "id": 7016068884, "lat": 28.5084414, "lon": 77.3315313}, {"type": "node", "id": 7016119985, "lat": 28.5084792, "lon": 77.3313811}, {"type": "node", "id": 7016119986, "lat": 28.508597, "lon": 77.3313167}, {"type": "node", "id": 7016119987, "lat": 28.508729, "lon": 77.3313704}, {"type": "node", "id": 7016119988, "lat": 28.5088846, "lon": 77.3314508}, {"type": "node", "id": 7016119989, "lat": 28.5089458, "lon": 77.3316225}, {"type": "node", "id": 7016119990, "lat": 28.5090495, "lon": 77.3321643}, {"type": "node", "id": 7016119997, "lat": 28.5083519, "lon": 77.3322072}, {"type": "node", "id": 7017488204, "lat": 28.509679, "lon": 77.3281519}, {"type": "node", "id": 7017488205, "lat": 28.5095588, "lon": 77.3281372}, {"type": "node", "id": 7017488207, "lat": 28.509679, "lon": 77.3282753}, {"type": "node", "id": 7017488208, "lat": 28.5096412, "lon": 77.3284309}, {"type": "node", "id": 7017488209, "lat": 28.5095375, "lon": 77.3285046}, {"type": "node", "id": 7017688633, "lat": 28.5080068, "lon": 77.3309154}, {"type": "node", "id": 7017688634, "lat": 28.5077135, "lon": 77.3309306}, {"type": "node", "id": 7017688635, "lat": 28.5063935, "lon": 77.3323947}, {"type": "node", "id": 7335144980, "lat": 28.5082914, "lon": 77.3315266}, {"type": "node", "id": 7335144981, "lat": 28.5082981, "lon": 77.3319561}, {"type": "node", "id": 7335144984, "lat": 28.508251, "lon": 77.3315457}, {"type": "node", "id": 9077205911, "lat": 28.5108885, "lon": 77.3322777}, {"type": "node", "id": 9077205912, "lat": 28.5102099, "lon": 77.3319912}, {"type": "node", "id": 9077205913, "lat": 28.5100664, "lon": 77.3317678}, {"type": "node", "id": 9077205914, "lat": 28.5100308, "lon": 77.3315191}, {"type": "node", "id": 9077205915, "lat": 28.5100827, "lon": 77.3311061}, {"type": "node", "id": 9077205916, "lat": 28.5102828, "lon": 77.3305317}, {"type": "node", "id": 9077223917, "lat": 28.5107372, "lon": 77.3270568}, {"type": "node", "id": 9871493806, "lat": 28.5080335, "lon": 77.3309837}, {"type": "node", "id": 9871493807, "lat": 28.5068619, "lon": 77.3324546}, {"type": "node", "id": 9871895280, "lat": 28.5065769, "lon": 77.3321731}, {"type": "node", "id": 11601702009, "lat": 28.5107126, "lon": 77.3322128}, {"type": "node", "id": 11601702010, "lat": 28.5105993, "lon": 77.3284674}, {"type": "node", "id": 6557469999, "lat": 28.5116484, "lon": 77.3050316}, {"type": "node", "id": 6557470000, "lat": 28.5119972, "lon": 77.3045112}, {"type": "node", "id": 6557470001, "lat": 28.5120915, "lon": 77.3043557}, {"type": "node", "id": 6557470002, "lat": 28.5123507, "lon": 77.3045756}, {"type": "node", "id": 6557470003, "lat": 28.5125157, "lon": 77.3047097}, {"type": "node", "id": 6557470004, "lat": 28.5126194, "lon": 77.3047526}, {"type": "node", "id": 6557470005, "lat": 28.5125817, "lon": 77.3049297}, {"type": "node", "id": 6557470006, "lat": 28.5125534, "lon": 77.3051442}, {"type": "node", "id": 6557470007, "lat": 28.5124591, "lon": 77.3055895}, {"type": "node", "id": 6557470008, "lat": 28.5123884, "lon": 77.3059864}, {"type": "node", "id": 6557470011, "lat": 28.5126665, "lon": 77.3062225}, {"type": "node", "id": 6557470016, "lat": 28.5117285, "lon": 77.305332}, {"type": "node", "id": 6557470017, "lat": 28.513008, "lon": 77.3061127}, {"type": "node", "id": 6557470019, "lat": 28.5130882, "lon": 77.3060929}, {"type": "node", "id": 6557470029, "lat": 28.5114765, "lon": 77.3055807}, {"type": "node", "id": 6557470030, "lat": 28.5115378, "lon": 77.3062459}, {"type": "node", "id": 2437002064, "lat": 28.5185318, "lon": 77.2942151}, {"type": "node", "id": 2437002068, "lat": 28.5187043, "lon": 77.2947591}, {"type": "node", "id": 2437002069, "lat": 28.5185085, "lon": 77.2948756}, {"type": "node", "id": 2437002070, "lat": 28.5183184, "lon": 77.2943181}, {"type": "node", "id": 6464859622, "lat": 28.5186562, "lon": 77.2947871}, {"type": "node", "id": 6464859623, "lat": 28.518667, "lon": 77.2948235}, {"type": "node", "id": 6464859624, "lat": 28.518564, "lon": 77.2948735}, {"type": "node", "id": 6464859625, "lat": 28.5185563, "lon": 77.2948585}, {"type": "node", "id": 2436996271, "lat": 28.5275042, "lon": 77.2926651}, {"type": "node", "id": 2436996272, "lat": 28.5271558, "lon": 77.2927172}, {"type": "node", "id": 2436996275, "lat": 28.5259914, "lon": 77.2931347}, {"type": "node", "id": 2436996276, "lat": 28.5255146, "lon": 77.2922737}, {"type": "node", "id": 2436996277, "lat": 28.5258493, "lon": 77.2920598}, {"type": "node", "id": 2436996278, "lat": 28.5268715, "lon": 77.2909015}, {"type": "node", "id": 2436996280, "lat": 28.5277517, "lon": 77.2899675}, {"type": "node", "id": 2870402972, "lat": 28.5300403, "lon": 77.2906825}, {"type": "node", "id": 2870402973, "lat": 28.5302426, "lon": 77.2909983}, {"type": "node", "id": 2870402974, "lat": 28.5302541, "lon": 77.2920484}, {"type": "node", "id": 2870402975, "lat": 28.5303033, "lon": 77.2903798}, {"type": "node", "id": 2870402976, "lat": 28.5305095, "lon": 77.2924097}, {"type": "node", "id": 2870402977, "lat": 28.5305293, "lon": 77.2917963}, {"type": "node", "id": 2870402978, "lat": 28.5305461, "lon": 77.2903863}, {"type": "node", "id": 2870402982, "lat": 28.5307847, "lon": 77.2921576}, {"type": "node", "id": 2870402983, "lat": 28.5308323, "lon": 77.2901264}, {"type": "node", "id": 2870402984, "lat": 28.5309711, "lon": 77.2903304}, {"type": "node", "id": 2870402985, "lat": 28.5309965, "lon": 77.2900617}, {"type": "node", "id": 2870402987, "lat": 28.5311024, "lon": 77.2902188}, {"type": "node", "id": 6256156998, "lat": 28.5297314, "lon": 77.2926153}, {"type": "node", "id": 6573803687, "lat": 28.5292528, "lon": 77.2915919}, {"type": "node", "id": 6573803688, "lat": 28.5295526, "lon": 77.2913262}, {"type": "node", "id": 6573803689, "lat": 28.5296752, "lon": 77.2915054}, {"type": "node", "id": 6573803691, "lat": 28.5293754, "lon": 77.2917711}, {"type": "node", "id": 11690274793, "lat": 28.5276934, "lon": 77.2901836}, {"type": "node", "id": 11690274794, "lat": 28.5285037, "lon": 77.2911597}, {"type": "node", "id": 11690274795, "lat": 28.5280513, "lon": 77.2919975}, {"type": "node", "id": 11690274796, "lat": 28.5271261, "lon": 77.2909176}, {"type": "node", "id": 2716596255, "lat": 28.5376398, "lon": 77.2860803}, {"type": "node", "id": 2870402989, "lat": 28.5315322, "lon": 77.2909962}, {"type": "node", "id": 2870402991, "lat": 28.5317627, "lon": 77.29132}, {"type": "node", "id": 2870402992, "lat": 28.5318722, "lon": 77.2906827}, {"type": "node", "id": 2870402994, "lat": 28.5320365, "lon": 77.289154}, {"type": "node", "id": 2870402995, "lat": 28.5321051, "lon": 77.2930558}, {"type": "node", "id": 2870402996, "lat": 28.5321027, "lon": 77.2910065}, {"type": "node", "id": 2870402997, "lat": 28.5321423, "lon": 77.289311}, {"type": "node", "id": 2870403201, "lat": 28.5329483, "lon": 77.2922989}, {"type": "node", "id": 2870403203, "lat": 28.5329678, "lon": 77.2906941}, {"type": "node", "id": 2870403204, "lat": 28.5329853, "lon": 77.2892887}, {"type": "node", "id": 2870403205, "lat": 28.5331239, "lon": 77.2898255}, {"type": "node", "id": 2870403207, "lat": 28.5331268, "lon": 77.2905263}, {"type": "node", "id": 2870403208, "lat": 28.5331297, "lon": 77.2903486}, {"type": "node", "id": 2870403212, "lat": 28.5332385, "lon": 77.2927223}, {"type": "node", "id": 2870403215, "lat": 28.5332771, "lon": 77.2910955}, {"type": "node", "id": 2870403217, "lat": 28.5332288, "lon": 77.2897188}, {"type": "node", "id": 2870403219, "lat": 28.5333321, "lon": 77.2901413}, {"type": "node", "id": 2870403220, "lat": 28.5333436, "lon": 77.2903355}, {"type": "node", "id": 2870403221, "lat": 28.5333908, "lon": 77.2889602}, {"type": "node", "id": 2870403225, "lat": 28.5336432, "lon": 77.291694}, {"type": "node", "id": 2870403226, "lat": 28.5337973, "lon": 77.2899425}, {"type": "node", "id": 2870403227, "lat": 28.5338885, "lon": 77.2923593}, {"type": "node", "id": 2870403243, "lat": 28.5350173, "lon": 77.2927493}, {"type": "node", "id": 2870403246, "lat": 28.5351113, "lon": 77.2930238}, {"type": "node", "id": 2870403267, "lat": 28.5361285, "lon": 77.2923888}, {"type": "node", "id": 2870403270, "lat": 28.5362503, "lon": 77.2926889}, {"type": "node", "id": 2870403272, "lat": 28.536284, "lon": 77.292307}, {"type": "node", "id": 2870403273, "lat": 28.5364058, "lon": 77.2926071}, {"type": "node", "id": 2870403275, "lat": 28.5367079, "lon": 77.2921005}, {"type": "node", "id": 2870403277, "lat": 28.536815, "lon": 77.292377}, {"type": "node", "id": 2870403278, "lat": 28.5368682, "lon": 77.29202}, {"type": "node", "id": 2870403280, "lat": 28.5368806, "lon": 77.2904519}, {"type": "node", "id": 2870403283, "lat": 28.5369753, "lon": 77.2922965}, {"type": "node", "id": 2870403286, "lat": 28.537122, "lon": 77.2903259}, {"type": "node", "id": 2870403288, "lat": 28.537259, "lon": 77.290666}, {"type": "node", "id": 2870403290, "lat": 28.5372827, "lon": 77.2917869}, {"type": "node", "id": 2870403294, "lat": 28.537367, "lon": 77.2919961}, {"type": "node", "id": 2870403295, "lat": 28.5373948, "lon": 77.2917284}, {"type": "node", "id": 2870403296, "lat": 28.537414, "lon": 77.2909751}, {"type": "node", "id": 2870403302, "lat": 28.5375566, "lon": 77.2913291}, {"type": "node", "id": 2870403306, "lat": 28.5375881, "lon": 77.2904942}, {"type": "node", "id": 6543987245, "lat": 28.5335988, "lon": 77.2929023}, {"type": "node", "id": 6543987246, "lat": 28.5333207, "lon": 77.2931115}, {"type": "node", "id": 6558016517, "lat": 28.5318151, "lon": 77.2895966}, {"type": "node", "id": 6581163798, "lat": 28.533092, "lon": 77.2891545}, {"type": "node", "id": 6581163799, "lat": 28.5335952, "lon": 77.289446}, {"type": "node", "id": 6581163800, "lat": 28.5333165, "lon": 77.2889973}, {"type": "node", "id": 12951486981, "lat": 28.5331395, "lon": 77.2898096}, {"type": "node", "id": 13059709536, "lat": 28.5349672, "lon": 77.2915522}, {"type": "node", "id": 13059709537, "lat": 28.5347574, "lon": 77.2913044}, {"type": "node", "id": 13059709548, "lat": 28.5348782, "lon": 77.2915994}, {"type": "node", "id": 13059709562, "lat": 28.5372645, "lon": 77.291405}, {"type": "node", "id": 13059709570, "lat": 28.5348464, "lon": 77.2912572}, {"type": "node", "id": 1861242881, "lat": 28.5308343, "lon": 77.2982722}, {"type": "node", "id": 1867172845, "lat": 28.5303675, "lon": 77.2986399}, {"type": "node", "id": 1867172846, "lat": 28.5308515, "lon": 77.2994357}, {"type": "node", "id": 2436996268, "lat": 28.527903, "lon": 77.2941939}, {"type": "node", "id": 2436996269, "lat": 28.5276509, "lon": 77.2934477}, {"type": "node", "id": 2436996273, "lat": 28.5270503, "lon": 77.293599}, {"type": "node", "id": 2870402979, "lat": 28.5306224, "lon": 77.2971535}, {"type": "node", "id": 2870402980, "lat": 28.5306715, "lon": 77.2967278}, {"type": "node", "id": 2870402981, "lat": 28.530694, "lon": 77.2968371}, {"type": "node", "id": 2870402986, "lat": 28.531021, "lon": 77.2964346}, {"type": "node", "id": 6573803751, "lat": 28.5265803, "lon": 77.2933929}, {"type": "node", "id": 6573803757, "lat": 28.5302094, "lon": 77.3004674}, {"type": "node", "id": 6573803758, "lat": 28.5304003, "lon": 77.3008081}, {"type": "node", "id": 6573803759, "lat": 28.5305723, "lon": 77.3011085}, {"type": "node", "id": 6573803760, "lat": 28.530709, "lon": 77.3013552}, {"type": "node", "id": 6573803761, "lat": 28.5307043, "lon": 77.3013901}, {"type": "node", "id": 6573803762, "lat": 28.5307726, "lon": 77.3015135}, {"type": "node", "id": 6573803763, "lat": 28.530749, "lon": 77.3016127}, {"type": "node", "id": 6573803764, "lat": 28.5306665, "lon": 77.3016315}, {"type": "node", "id": 6573803765, "lat": 28.5306053, "lon": 77.301594}, {"type": "node", "id": 6573803766, "lat": 28.5305605, "lon": 77.301594}, {"type": "node", "id": 6573803767, "lat": 28.5305181, "lon": 77.3016127}, {"type": "node", "id": 6573803768, "lat": 28.530405, "lon": 77.3016476}, {"type": "node", "id": 6573803769, "lat": 28.5302895, "lon": 77.3016235}, {"type": "node", "id": 6573803770, "lat": 28.5299643, "lon": 77.3017281}, {"type": "node", "id": 6573803771, "lat": 28.5298394, "lon": 77.3016852}, {"type": "node", "id": 6573803772, "lat": 28.5297664, "lon": 77.3016449}, {"type": "node", "id": 6573803773, "lat": 28.5296839, "lon": 77.3016771}, {"type": "node", "id": 6573803774, "lat": 28.5295401, "lon": 77.3013123}, {"type": "node", "id": 6573803775, "lat": 28.5294388, "lon": 77.301079}, {"type": "node", "id": 6573803776, "lat": 28.529863, "lon": 77.3007437}, {"type": "node", "id": 6573803815, "lat": 28.530439, "lon": 77.3008756}, {"type": "node", "id": 1867172847, "lat": 28.5313182, "lon": 77.299068}, {"type": "node", "id": 2870402988, "lat": 28.5311661, "lon": 77.2966673}, {"type": "node", "id": 2870402990, "lat": 28.5317311, "lon": 77.2933802}, {"type": "node", "id": 2870402993, "lat": 28.5318898, "lon": 77.2936174}, {"type": "node", "id": 2870402998, "lat": 28.5322639, "lon": 77.293293}, {"type": "node", "id": 2870402999, "lat": 28.5325887, "lon": 77.2946379}, {"type": "node", "id": 2870403000, "lat": 28.5327749, "lon": 77.2949157}, {"type": "node", "id": 2870403202, "lat": 28.5329626, "lon": 77.293771}, {"type": "node", "id": 2870403206, "lat": 28.5331244, "lon": 77.2936305}, {"type": "node", "id": 2870403209, "lat": 28.5331352, "lon": 77.2953232}, {"type": "node", "id": 2870403210, "lat": 28.5331519, "lon": 77.2943313}, {"type": "node", "id": 2870403211, "lat": 28.5331924, "lon": 77.2941137}, {"type": "node", "id": 2870403213, "lat": 28.5332609, "lon": 77.2944938}, {"type": "node", "id": 2870403214, "lat": 28.5332735, "lon": 77.2955271}, {"type": "node", "id": 2870403216, "lat": 28.5332998, "lon": 77.2941342}, {"type": "node", "id": 2870403218, "lat": 28.5333289, "lon": 77.2941776}, {"type": "node", "id": 2870403222, "lat": 28.5334024, "lon": 77.2940451}, {"type": "node", "id": 2870403223, "lat": 28.5334373, "lon": 77.2950577}, {"type": "node", "id": 2870403224, "lat": 28.5335756, "lon": 77.2952616}, {"type": "node", "id": 2870403228, "lat": 28.5339054, "lon": 77.2933356}, {"type": "node", "id": 2870403233, "lat": 28.5343019, "lon": 77.2942476}, {"type": "node", "id": 2870403234, "lat": 28.5344614, "lon": 77.2934054}, {"type": "node", "id": 2870403236, "lat": 28.5345636, "lon": 77.294564}, {"type": "node", "id": 2870403240, "lat": 28.5348538, "lon": 77.2943965}, {"type": "node", "id": 2870403241, "lat": 28.5348692, "lon": 77.2973625}, {"type": "node", "id": 2870403245, "lat": 28.535073, "lon": 77.2976011}, {"type": "node", "id": 2870403247, "lat": 28.5352535, "lon": 77.2962179}, {"type": "node", "id": 2870403248, "lat": 28.5353107, "lon": 77.2961574}, {"type": "node", "id": 2870403250, "lat": 28.5353925, "lon": 77.2962714}, {"type": "node", "id": 2870403252, "lat": 28.535462, "lon": 77.2967414}, {"type": "node", "id": 2870403254, "lat": 28.5354174, "lon": 77.2967958}, {"type": "node", "id": 2870403256, "lat": 28.5355196, "lon": 77.2961863}, {"type": "node", "id": 2870403257, "lat": 28.5355376, "lon": 77.2966669}, {"type": "node", "id": 2870403261, "lat": 28.5357422, "lon": 77.2965268}, {"type": "node", "id": 2870403265, "lat": 28.5359689, "lon": 77.2937351}, {"type": "node", "id": 2870403266, "lat": 28.5360909, "lon": 77.2940621}, {"type": "node", "id": 2870403269, "lat": 28.5361579, "lon": 77.2936437}, {"type": "node", "id": 2870403271, "lat": 28.5362799, "lon": 77.2939707}, {"type": "node", "id": 2870403276, "lat": 28.5367545, "lon": 77.2939126}, {"type": "node", "id": 2870403279, "lat": 28.5368773, "lon": 77.2942107}, {"type": "node", "id": 2870403281, "lat": 28.536885, "lon": 77.2938429}, {"type": "node", "id": 2870403284, "lat": 28.5370078, "lon": 77.2941411}, {"type": "node", "id": 2870403287, "lat": 28.5371453, "lon": 77.2945076}, {"type": "node", "id": 2870403289, "lat": 28.537267, "lon": 77.2947835}, {"type": "node", "id": 2870403291, "lat": 28.5373219, "lon": 77.2953224}, {"type": "node", "id": 2870403292, "lat": 28.5373226, "lon": 77.2936373}, {"type": "node", "id": 2870403293, "lat": 28.5373488, "lon": 77.2942019}, {"type": "node", "id": 2870403297, "lat": 28.5374155, "lon": 77.2943594}, {"type": "node", "id": 2870403298, "lat": 28.5374304, "lon": 77.2939074}, {"type": "node", "id": 2870403299, "lat": 28.5374335, "lon": 77.295597}, {"type": "node", "id": 2870403300, "lat": 28.5374509, "lon": 77.2935709}, {"type": "node", "id": 2870403301, "lat": 28.537468, "lon": 77.2952455}, {"type": "node", "id": 2870403303, "lat": 28.5375588, "lon": 77.293841}, {"type": "node", "id": 2870403304, "lat": 28.5375796, "lon": 77.29552}, {"type": "node", "id": 2870403305, "lat": 28.5375798, "lon": 77.2946119}, {"type": "node", "id": 2870403307, "lat": 28.5376231, "lon": 77.2947142}, {"type": "node", "id": 6543987242, "lat": 28.5350467, "lon": 77.297004}, {"type": "node", "id": 6543987243, "lat": 28.5351276, "lon": 77.2971245}, {"type": "node", "id": 6543987244, "lat": 28.5353205, "lon": 77.2966501}, {"type": "node", "id": 6543987247, "lat": 28.5333914, "lon": 77.293259}, {"type": "node", "id": 6543987248, "lat": 28.5332995, "lon": 77.2933502}, {"type": "node", "id": 6543987249, "lat": 28.533415, "lon": 77.2935111}, {"type": "node", "id": 6543987250, "lat": 28.5332453, "lon": 77.2936667}, {"type": "node", "id": 6543987251, "lat": 28.5335092, "lon": 77.2940744}, {"type": "node", "id": 6543987252, "lat": 28.5337072, "lon": 77.2938786}, {"type": "node", "id": 6543987253, "lat": 28.5339852, "lon": 77.2936694}, {"type": "node", "id": 6543987254, "lat": 28.5338226, "lon": 77.293326}, {"type": "node", "id": 6573134146, "lat": 28.5347489, "lon": 77.2941315}, {"type": "node", "id": 6573800753, "lat": 28.5344774, "lon": 77.2934459}, {"type": "node", "id": 6573803696, "lat": 28.5339491, "lon": 77.2961813}, {"type": "node", "id": 6573803697, "lat": 28.5341588, "lon": 77.2964602}, {"type": "node", "id": 6573803698, "lat": 28.5345264, "lon": 77.2961571}, {"type": "node", "id": 6573803699, "lat": 28.5343261, "lon": 77.2958621}, {"type": "node", "id": 6573803700, "lat": 28.5341635, "lon": 77.2959989}, {"type": "node", "id": 13059709504, "lat": 28.5372032, "lon": 77.2946143}, {"type": "node", "id": 6557470009, "lat": 28.5123507, "lon": 77.3063137}, {"type": "node", "id": 6557470010, "lat": 28.5123979, "lon": 77.3063351}, {"type": "node", "id": 6557470012, "lat": 28.5126665, "lon": 77.306319}, {"type": "node", "id": 6557470013, "lat": 28.511983, "lon": 77.3068662}, {"type": "node", "id": 6557470014, "lat": 28.5118888, "lon": 77.306893}, {"type": "node", "id": 6557470015, "lat": 28.5119076, "lon": 77.306362}, {"type": "node", "id": 6557470020, "lat": 28.5124142, "lon": 77.3076234}, {"type": "node", "id": 6557470021, "lat": 28.5130019, "lon": 77.3070958}, {"type": "node", "id": 6557470022, "lat": 28.5135305, "lon": 77.3065675}, {"type": "node", "id": 6557470033, "lat": 28.511651, "lon": 77.3066911}, {"type": "node", "id": 6557470034, "lat": 28.5116604, "lon": 77.3069433}, {"type": "node", "id": 6557470035, "lat": 28.5114718, "lon": 77.3070077}, {"type": "node", "id": 9077205893, "lat": 28.5152113, "lon": 77.3127544}, {"type": "node", "id": 9077205894, "lat": 28.5159584, "lon": 77.3125613}, {"type": "node", "id": 9077205895, "lat": 28.5164557, "lon": 77.3124433}, {"type": "node", "id": 9077205887, "lat": 28.5120895, "lon": 77.3190221}, {"type": "node", "id": 9077205888, "lat": 28.5127849, "lon": 77.3178818}, {"type": "node", "id": 9077205889, "lat": 28.5128733, "lon": 77.3176387}, {"type": "node", "id": 9077205890, "lat": 28.5126541, "lon": 77.3168474}, {"type": "node", "id": 9077205891, "lat": 28.5124844, "lon": 77.3165336}, {"type": "node", "id": 9077205892, "lat": 28.5118739, "lon": 77.3139842}, {"type": "node", "id": 11601701721, "lat": 28.5142626, "lon": 77.313104}, {"type": "node", "id": 11601701766, "lat": 28.5163996, "lon": 77.3180695}, {"type": "node", "id": 9077205896, "lat": 28.5180818, "lon": 77.3119551}, {"type": "node", "id": 9077205897, "lat": 28.5184212, "lon": 77.3117834}, {"type": "node", "id": 9077205898, "lat": 28.5190316, "lon": 77.3115635}, {"type": "node", "id": 9077205899, "lat": 28.5217807, "lon": 77.309702}, {"type": "node", "id": 9077205900, "lat": 28.5224645, "lon": 77.3090482}, {"type": "node", "id": 9077205901, "lat": 28.5227261, "lon": 77.3089769}, {"type": "node", "id": 9077205902, "lat": 28.5237686, "lon": 77.3082134}, {"type": "node", "id": 11601701285, "lat": 28.5216017, "lon": 77.3098232}, {"type": "node", "id": 11601701973, "lat": 28.5235021, "lon": 77.3084082}, {"type": "node", "id": 11601701974, "lat": 28.5232939, "lon": 77.308587}, {"type": "node", "id": 11601701975, "lat": 28.5244809, "lon": 77.3077701}, {"type": "node", "id": 11601701976, "lat": 28.5242453, "lon": 77.3079177}, {"type": "node", "id": 11601701801, "lat": 28.5190381, "lon": 77.317592}, {"type": "node", "id": 11683855030, "lat": 28.5190545, "lon": 77.3176001}, {"type": "node", "id": 1992383542, "lat": 28.5116199, "lon": 77.3213636}, {"type": "node", "id": 9077205886, "lat": 28.5126036, "lon": 77.31942}, {"type": "node", "id": 11601701765, "lat": 28.5172235, "lon": 77.319661}, {"type": "node", "id": 11601701972, "lat": 28.5120659, "lon": 77.3203531}, {"type": "node", "id": 9077205909, "lat": 28.5165594, "lon": 77.331664}, {"type": "node", "id": 9077205910, "lat": 28.5156166, "lon": 77.3323727}, {"type": "node", "id": 11601702006, "lat": 28.5163487, "lon": 77.3318054}, {"type": "node", "id": 11601702007, "lat": 28.5159067, "lon": 77.3322627}, {"type": "node", "id": 11601702008, "lat": 28.515746, "lon": 77.3323583}, {"type": "node", "id": 11601702001, "lat": 28.5227479, "lon": 77.3258735}, {"type": "node", "id": 9077205906, "lat": 28.5205703, "lon": 77.3275677}, {"type": "node", "id": 9077205907, "lat": 28.5201945, "lon": 77.327653}, {"type": "node", "id": 9077205908, "lat": 28.5201827, "lon": 77.3288619}, {"type": "node", "id": 11601702002, "lat": 28.5207792, "lon": 77.3274365}, {"type": "node", "id": 11601702003, "lat": 28.5201729, "lon": 77.328933}, {"type": "node", "id": 11601702004, "lat": 28.5201254, "lon": 77.3290036}, {"type": "node", "id": 11601702005, "lat": 28.5200012, "lon": 77.3291034}, {"type": "node", "id": 1992383575, "lat": 28.527751, "lon": 77.3110398}, {"type": "node", "id": 1992383576, "lat": 28.5277836, "lon": 77.3108366}, {"type": "node", "id": 1992383578, "lat": 28.5281988, "lon": 77.3104066}, {"type": "node", "id": 1992383579, "lat": 28.5284074, "lon": 77.3103961}, {"type": "node", "id": 1992383580, "lat": 28.5289391, "lon": 77.3078412}, {"type": "node", "id": 1992383581, "lat": 28.5291888, "lon": 77.3083939}, {"type": "node", "id": 1992383582, "lat": 28.5297194, "lon": 77.3096131}, {"type": "node", "id": 1992383583, "lat": 28.5297509, "lon": 77.3106241}, {"type": "node", "id": 1992383584, "lat": 28.5297388, "lon": 77.3099704}, {"type": "node", "id": 5361945534, "lat": 28.529791, "lon": 77.3103461}, {"type": "node", "id": 5361945547, "lat": 28.5287647, "lon": 77.3076084}, {"type": "node", "id": 5361945548, "lat": 28.5294103, "lon": 77.3088373}, {"type": "node", "id": 5361945549, "lat": 28.52978, "lon": 77.3105624}, {"type": "node", "id": 5361945553, "lat": 28.527973, "lon": 77.310475}, {"type": "node", "id": 5361945554, "lat": 28.5296987, "lon": 77.3106283}, {"type": "node", "id": 9077205903, "lat": 28.5247356, "lon": 77.3075535}, {"type": "node", "id": 9077205904, "lat": 28.5279704, "lon": 77.3064297}, {"type": "node", "id": 9077205905, "lat": 28.5279987, "lon": 77.3070252}, {"type": "node", "id": 11601701977, "lat": 28.5257555, "lon": 77.3070988}, {"type": "node", "id": 11601701978, "lat": 28.526601, "lon": 77.3068764}, {"type": "node", "id": 11601701979, "lat": 28.5265883, "lon": 77.3068182}, {"type": "node", "id": 11601701980, "lat": 28.5263436, "lon": 77.3069595}, {"type": "node", "id": 11601701981, "lat": 28.5288764, "lon": 77.3077161}, {"type": "node", "id": 11601701982, "lat": 28.5295648, "lon": 77.3091211}, {"type": "node", "id": 11601701983, "lat": 28.5285769, "lon": 77.3104098}, {"type": "node", "id": 11601701984, "lat": 28.5280838, "lon": 77.3104222}, {"type": "node", "id": 11601701985, "lat": 28.5278921, "lon": 77.3105573}, {"type": "node", "id": 11601701986, "lat": 28.5278355, "lon": 77.3106779}, {"type": "node", "id": 11601701987, "lat": 28.5276602, "lon": 77.3115612}, {"type": "node", "id": 11601701989, "lat": 28.5275196, "lon": 77.3124924}, {"type": "node", "id": 1992383571, "lat": 28.5268074, "lon": 77.3152213}, {"type": "node", "id": 1992383572, "lat": 28.526961, "lon": 77.3146679}, {"type": "node", "id": 1992383574, "lat": 28.5273185, "lon": 77.3138814}, {"type": "node", "id": 5361945550, "lat": 28.5258939, "lon": 77.3186498}, {"type": "node", "id": 5361945551, "lat": 28.5264522, "lon": 77.3165761}, {"type": "node", "id": 5361945552, "lat": 28.527253, "lon": 77.3140597}, {"type": "node", "id": 11601701988, "lat": 28.5273881, "lon": 77.3136438}, {"type": "node", "id": 11601701990, "lat": 28.5271032, "lon": 77.314338}, {"type": "node", "id": 11601701991, "lat": 28.5269133, "lon": 77.3148951}, {"type": "node", "id": 11601701992, "lat": 28.5266613, "lon": 77.3159405}, {"type": "node", "id": 11601701993, "lat": 28.5262157, "lon": 77.3174911}, {"type": "node", "id": 11601701994, "lat": 28.5257592, "lon": 77.3192141}, {"type": "node", "id": 1992383567, "lat": 28.5250732, "lon": 77.3239358}, {"type": "node", "id": 1992383570, "lat": 28.525645, "lon": 77.3198701}, {"type": "node", "id": 11601701995, "lat": 28.525478, "lon": 77.3207709}, {"type": "node", "id": 11601701996, "lat": 28.5251365, "lon": 77.3231881}, {"type": "node", "id": 11601701997, "lat": 28.5253739, "lon": 77.3216251}, {"type": "node", "id": 11601701998, "lat": 28.5250561, "lon": 77.3240299}, {"type": "node", "id": 11601701999, "lat": 28.5249758, "lon": 77.3241213}, {"type": "node", "id": 11601702000, "lat": 28.5246325, "lon": 77.3243895}, {"type": "node", "id": 2018077180, "lat": 28.5047309, "lon": 77.3346958}, {"type": "node", "id": 2018077184, "lat": 28.5048154, "lon": 77.33445}, {"type": "node", "id": 9871500869, "lat": 28.5048242, "lon": 77.3347351}, {"type": "node", "id": 7016119991, "lat": 28.509191, "lon": 77.3327168}, {"type": "node", "id": 7016119992, "lat": 28.5092664, "lon": 77.3330065}, {"type": "node", "id": 7016119993, "lat": 28.5088751, "lon": 77.3330548}, {"type": "node", "id": 7016119994, "lat": 28.5086253, "lon": 77.3330119}, {"type": "node", "id": 7016119995, "lat": 28.5084697, "lon": 77.332969}, {"type": "node", "id": 7016119996, "lat": 28.5083424, "lon": 77.3328295}, {"type": "node", "id": 7017450994, "lat": 28.5090438, "lon": 77.3362559}, {"type": "node", "id": 7017450995, "lat": 28.5084654, "lon": 77.3362307}, {"type": "node", "id": 7017450996, "lat": 28.5084671, "lon": 77.3363779}, {"type": "node", "id": 7017450997, "lat": 28.5090438, "lon": 77.3363895}, {"type": "node", "id": 7017688636, "lat": 28.5056868, "lon": 77.3333734}, {"type": "node", "id": 7017688637, "lat": 28.5054935, "lon": 77.3335251}, {"type": "node", "id": 7017688638, "lat": 28.5053135, "lon": 77.3336541}, {"type": "node", "id": 7017688639, "lat": 28.5050735, "lon": 77.3341776}, {"type": "node", "id": 7335144982, "lat": 28.5082581, "lon": 77.3328573}, {"type": "node", "id": 7335144983, "lat": 28.5073247, "lon": 77.3327286}, {"type": "node", "id": 9853089078, "lat": 28.5054268, "lon": 77.3337741}, {"type": "node", "id": 9853089079, "lat": 28.5063231, "lon": 77.3326417}, {"type": "node", "id": 9853089080, "lat": 28.5058598, "lon": 77.3331025}, {"type": "node", "id": 9871493808, "lat": 28.5061828, "lon": 77.333107}, {"type": "node", "id": 9871500867, "lat": 28.5051542, "lon": 77.3341665}, {"type": "node", "id": 7033239132, "lat": 28.5100725, "lon": 77.3399422}, {"type": "node", "id": 7033239133, "lat": 28.5100792, "lon": 77.3398435}, {"type": "node", "id": 7033239134, "lat": 28.5091245, "lon": 77.3401815}, {"type": "node", "id": 7033239135, "lat": 28.5091446, "lon": 77.3402841}, {"type": "node", "id": 7033239136, "lat": 28.509445, "lon": 77.3401815}, {"type": "node", "id": 7033239137, "lat": 28.5098789, "lon": 77.3400296}, {"type": "node", "id": 7033239138, "lat": 28.5100458, "lon": 77.3399688}, {"type": "node", "id": 7033239139, "lat": 28.5103255, "lon": 77.339922}, {"type": "node", "id": 7033239140, "lat": 28.5090465, "lon": 77.3403946}, {"type": "node", "id": 7033239141, "lat": 28.5090889, "lon": 77.3405118}, {"type": "node", "id": 7033239142, "lat": 28.5103649, "lon": 77.3400876}, {"type": "node", "id": 7033239149, "lat": 28.5113672, "lon": 77.3395568}, {"type": "node", "id": 7033239150, "lat": 28.5114074, "lon": 77.339755}, {"type": "node", "id": 7033239151, "lat": 28.5104112, "lon": 77.3400751}, {"type": "node", "id": 7033239152, "lat": 28.5103676, "lon": 77.3399055}, {"type": "node", "id": 7033239143, "lat": 28.5114539, "lon": 77.3395671}, {"type": "node", "id": 7033239144, "lat": 28.5114672, "lon": 77.3397036}, {"type": "node", "id": 7033239145, "lat": 28.5123021, "lon": 77.3394474}, {"type": "node", "id": 7033239146, "lat": 28.5123583, "lon": 77.3397783}, {"type": "node", "id": 7033239147, "lat": 28.5130337, "lon": 77.3395167}, {"type": "node", "id": 7033239148, "lat": 28.5126163, "lon": 77.3391431}, {"type": "node", "id": 11036833536, "lat": 28.5375357, "lon": 77.3392141}, {"type": "node", "id": 11036833539, "lat": 28.5376416, "lon": 77.3406551}, {"type": "node", "id": 11036833540, "lat": 28.5371162, "lon": 77.3402116}, {"type": "node", "id": 11036833541, "lat": 28.537093, "lon": 77.3401904}, {"type": "node", "id": 11036833542, "lat": 28.5372266, "lon": 77.3399717}, {"type": "node", "id": 11036833543, "lat": 28.5372444, "lon": 77.3399355}, {"type": "node", "id": 11036833544, "lat": 28.5372457, "lon": 77.3399021}, {"type": "node", "id": 11036833545, "lat": 28.537238, "lon": 77.339879}, {"type": "node", "id": 11036833546, "lat": 28.5371617, "lon": 77.3398022}, {"type": "node", "id": 2716596151, "lat": 28.538408, "lon": 77.2857555}, {"type": "node", "id": 2716596261, "lat": 28.5381252, "lon": 77.2863509}, {"type": "node", "id": 2716596305, "lat": 28.5384551, "lon": 77.2859057}, {"type": "node", "id": 2716596083, "lat": 28.5385079, "lon": 77.290363}, {"type": "node", "id": 2716596086, "lat": 28.5389786, "lon": 77.2894503}, {"type": "node", "id": 2716596089, "lat": 28.5390539, "lon": 77.2888864}, {"type": "node", "id": 2716596106, "lat": 28.5377533, "lon": 77.2877744}, {"type": "node", "id": 2716596107, "lat": 28.5378899, "lon": 77.2869399}, {"type": "node", "id": 2716596110, "lat": 28.5388295, "lon": 77.2895308}, {"type": "node", "id": 2716596111, "lat": 28.5385297, "lon": 77.2879817}, {"type": "node", "id": 2716596112, "lat": 28.5381361, "lon": 77.2875545}, {"type": "node", "id": 2716596116, "lat": 28.5382737, "lon": 77.2875177}, {"type": "node", "id": 2716596120, "lat": 28.5392507, "lon": 77.2893466}, {"type": "node", "id": 2716596121, "lat": 28.5379642, "lon": 77.288272}, {"type": "node", "id": 2716596128, "lat": 28.5381688, "lon": 77.290693}, {"type": "node", "id": 2716596143, "lat": 28.5387428, "lon": 77.2890423}, {"type": "node", "id": 2716596154, "lat": 28.5391269, "lon": 77.2898064}, {"type": "node", "id": 2716596156, "lat": 28.5397465, "lon": 77.2894679}, {"type": "node", "id": 2716596181, "lat": 28.538547, "lon": 77.2885835}, {"type": "node", "id": 2716596199, "lat": 28.5399109, "lon": 77.2907504}, {"type": "node", "id": 2716596200, "lat": 28.5386495, "lon": 77.2890984}, {"type": "node", "id": 2716596202, "lat": 28.5380451, "lon": 77.2869437}, {"type": "node", "id": 2716596203, "lat": 28.5398237, "lon": 77.289686}, {"type": "node", "id": 2716596207, "lat": 28.5395854, "lon": 77.2899482}, {"type": "node", "id": 2716596213, "lat": 28.5387218, "lon": 77.2884517}, {"type": "node", "id": 2716596219, "lat": 28.5384321, "lon": 77.2901812}, {"type": "node", "id": 2716596225, "lat": 28.5388614, "lon": 77.2877803}, {"type": "node", "id": 2716596234, "lat": 28.5390909, "lon": 77.2894379}, {"type": "node", "id": 2716596256, "lat": 28.5383401, "lon": 77.2880952}, {"type": "node", "id": 2716596258, "lat": 28.5384942, "lon": 77.2914951}, {"type": "node", "id": 2716596295, "lat": 28.5386617, "lon": 77.2873194}, {"type": "node", "id": 2716596303, "lat": 28.5392333, "lon": 77.289761}, {"type": "node", "id": 2716596307, "lat": 28.5389269, "lon": 77.288954}, {"type": "node", "id": 2870403308, "lat": 28.537718, "lon": 77.2908165}, {"type": "node", "id": 2870403309, "lat": 28.5377972, "lon": 77.2917716}, {"type": "node", "id": 2870403312, "lat": 28.537881, "lon": 77.2911597}, {"type": "node", "id": 2870403313, "lat": 28.5378821, "lon": 77.2929149}, {"type": "node", "id": 2870403316, "lat": 28.5379434, "lon": 77.2921343}, {"type": "node", "id": 2870403317, "lat": 28.5379701, "lon": 77.2922735}, {"type": "node", "id": 2870403327, "lat": 28.5381686, "lon": 77.292765}, {"type": "node", "id": 2870403328, "lat": 28.5382163, "lon": 77.2919919}, {"type": "node", "id": 2870403331, "lat": 28.5382951, "lon": 77.2921034}, {"type": "node", "id": 2870403310, "lat": 28.537841, "lon": 77.2939319}, {"type": "node", "id": 2870403311, "lat": 28.53788, "lon": 77.2950285}, {"type": "node", "id": 2870403314, "lat": 28.5379183, "lon": 77.2933016}, {"type": "node", "id": 2870403318, "lat": 28.537984, "lon": 77.2952828}, {"type": "node", "id": 2870403319, "lat": 28.5380023, "lon": 77.2961624}, {"type": "node", "id": 2870403320, "lat": 28.5380173, "lon": 77.2932498}, {"type": "node", "id": 2870403321, "lat": 28.5380353, "lon": 77.2949462}, {"type": "node", "id": 2870403322, "lat": 28.5380687, "lon": 77.2944698}, {"type": "node", "id": 2870403323, "lat": 28.5381148, "lon": 77.2964225}, {"type": "node", "id": 2870403324, "lat": 28.5381368, "lon": 77.2973048}, {"type": "node", "id": 2870403325, "lat": 28.5381393, "lon": 77.2952004}, {"type": "node", "id": 2870403326, "lat": 28.5381496, "lon": 77.2960799}, {"type": "node", "id": 2870403329, "lat": 28.5382621, "lon": 77.2963399}, {"type": "node", "id": 2870403330, "lat": 28.5382893, "lon": 77.2972206}, {"type": "node", "id": 2870403332, "lat": 28.5383396, "lon": 77.2943446}, {"type": "node", "id": 2870403333, "lat": 28.5383459, "lon": 77.2977954}, {"type": "node", "id": 2870403334, "lat": 28.5384636, "lon": 77.2942782}, {"type": "node", "id": 2870403335, "lat": 28.5384882, "lon": 77.2946898}, {"type": "node", "id": 2870403336, "lat": 28.5384984, "lon": 77.2977112}, {"type": "node", "id": 2870403337, "lat": 28.5385973, "lon": 77.2946323}, {"type": "node", "id": 2870403338, "lat": 28.5385752, "lon": 77.2958613}, {"type": "node", "id": 2870403339, "lat": 28.538602, "lon": 77.2949618}, {"type": "node", "id": 2870403340, "lat": 28.538627, "lon": 77.2967802}, {"type": "node", "id": 2870403341, "lat": 28.5386913, "lon": 77.2949148}, {"type": "node", "id": 2870403342, "lat": 28.538685, "lon": 77.2961081}, {"type": "node", "id": 2870403343, "lat": 28.5387096, "lon": 77.2957839}, {"type": "node", "id": 2870403344, "lat": 28.538768, "lon": 77.2967035}, {"type": "node", "id": 2870403345, "lat": 28.5387862, "lon": 77.2951797}, {"type": "node", "id": 2870403346, "lat": 28.5388193, "lon": 77.2960307}, {"type": "node", "id": 2870403347, "lat": 28.5389224, "lon": 77.2974834}, {"type": "node", "id": 2870403348, "lat": 28.5390634, "lon": 77.2974067}, {"type": "node", "id": 2870403349, "lat": 28.5391735, "lon": 77.2951973}, {"type": "node", "id": 2870403350, "lat": 28.5391954, "lon": 77.2955136}, {"type": "node", "id": 2870403351, "lat": 28.5392804, "lon": 77.2954648}, {"type": "node", "id": 2870403352, "lat": 28.5393107, "lon": 77.2958039}, {"type": "node", "id": 2870403353, "lat": 28.5393017, "lon": 77.296684}, {"type": "node", "id": 2870403354, "lat": 28.5394071, "lon": 77.2948565}, {"type": "node", "id": 2870403355, "lat": 28.5394372, "lon": 77.2966092}, {"type": "node", "id": 2870403356, "lat": 28.5394835, "lon": 77.2950207}, {"type": "node", "id": 2870403357, "lat": 28.5395192, "lon": 77.2971944}, {"type": "node", "id": 2870403358, "lat": 28.5395268, "lon": 77.296136}, {"type": "node", "id": 2870403359, "lat": 28.5395326, "lon": 77.2960505}, {"type": "node", "id": 2870403360, "lat": 28.539547, "lon": 77.2956886}, {"type": "node", "id": 2870403361, "lat": 28.5396547, "lon": 77.2971196}, {"type": "node", "id": 2870403362, "lat": 28.5396713, "lon": 77.2959682}, {"type": "node", "id": 2870403364, "lat": 28.5400302, "lon": 77.2973318}, {"type": "node", "id": 2870403365, "lat": 28.5402492, "lon": 77.2974042}, {"type": "node", "id": 2870403366, "lat": 28.5403845, "lon": 77.2970616}, {"type": "node", "id": 2870403367, "lat": 28.5404341, "lon": 77.2972726}, {"type": "node", "id": 2870403368, "lat": 28.5404688, "lon": 77.2982498}, {"type": "node", "id": 2870403369, "lat": 28.5407203, "lon": 77.2988255}, {"type": "node", "id": 2870403370, "lat": 28.5410382, "lon": 77.2986215}, {"type": "node", "id": 10172949280, "lat": 28.5413504, "lon": 77.2964991}, {"type": "node", "id": 10172949281, "lat": 28.5416689, "lon": 77.2972241}, {"type": "node", "id": 10172949282, "lat": 28.5421996, "lon": 77.2969055}, {"type": "node", "id": 10172949283, "lat": 28.5419005, "lon": 77.2961696}, {"type": "node", "id": 12951578621, "lat": 28.5383288, "lon": 77.2943178}, {"type": "node", "id": 13059618251, "lat": 28.5378648, "lon": 77.2995238}, {"type": "node", "id": 13059618254, "lat": 28.53791, "lon": 77.2995004}, {"type": "node", "id": 13059618256, "lat": 28.5378309, "lon": 77.2991831}, {"type": "node", "id": 13059618257, "lat": 28.5379508, "lon": 77.2994796}, {"type": "node", "id": 13059618258, "lat": 28.5378062, "lon": 77.2993762}, {"type": "node", "id": 13059618259, "lat": 28.5377853, "lon": 77.2992071}, {"type": "node", "id": 13059618263, "lat": 28.5377462, "lon": 77.2992275}, {"type": "node", "id": 13059618266, "lat": 28.5378911, "lon": 77.2993321}, {"type": "node", "id": 13061046056, "lat": 28.5386973, "lon": 77.2988648}, {"type": "node", "id": 13061046059, "lat": 28.5384413, "lon": 77.2986769}, {"type": "node", "id": 13061046060, "lat": 28.538548, "lon": 77.2989426}, {"type": "node", "id": 13061046065, "lat": 28.5385906, "lon": 77.2985992}, {"type": "node", "id": 10172949285, "lat": 28.5446794, "lon": 77.2946208}, {"type": "node", "id": 10172949286, "lat": 28.5449592, "lon": 77.2953238}, {"type": "node", "id": 10172949287, "lat": 28.5454031, "lon": 77.2950492}, {"type": "node", "id": 10172949288, "lat": 28.5451618, "lon": 77.2943462}, {"type": "node", "id": 939234802, "lat": 28.5474979, "lon": 77.3075663}, {"type": "node", "id": 939234894, "lat": 28.5476526, "lon": 77.3080227}, {"type": "node", "id": 939234949, "lat": 28.5476182, "lon": 77.3084465}, {"type": "node", "id": 939234953, "lat": 28.5444633, "lon": 77.3094188}, {"type": "node", "id": 939235048, "lat": 28.5473776, "lon": 77.3088899}, {"type": "node", "id": 939235101, "lat": 28.5459857, "lon": 77.310573}, {"type": "node", "id": 939235144, "lat": 28.5468669, "lon": 77.3067263}, {"type": "node", "id": 939235151, "lat": 28.5458067, "lon": 77.3104649}, {"type": "node", "id": 9077260200, "lat": 28.545797, "lon": 77.31046}, {"type": "node", "id": 9077260201, "lat": 28.5455688, "lon": 77.3103458}, {"type": "node", "id": 8614152174, "lat": 28.5396744, "lon": 77.3389463}, {"type": "node", "id": 8614152175, "lat": 28.5395107, "lon": 77.3387507}, {"type": "node", "id": 8614152182, "lat": 28.5389673, "lon": 77.3356267}, {"type": "node", "id": 8614152183, "lat": 28.5395846, "lon": 77.3363562}, {"type": "node", "id": 8614152184, "lat": 28.5390804, "lon": 77.3368042}, {"type": "node", "id": 8614152185, "lat": 28.5386421, "lon": 77.3364126}, {"type": "node", "id": 8614152186, "lat": 28.5388094, "lon": 77.3360076}, {"type": "node", "id": 8614152176, "lat": 28.5392874, "lon": 77.339088}, {"type": "node", "id": 8614152177, "lat": 28.5393902, "lon": 77.3392267}, {"type": "node", "id": 11036833537, "lat": 28.5382373, "lon": 77.3397807}, {"type": "node", "id": 11036833538, "lat": 28.5376964, "lon": 77.3406908}, {"type": "node", "id": 1575538351, "lat": 28.5458255, "lon": 77.3337509}, {"type": "node", "id": 1575538353, "lat": 28.54496, "lon": 77.3334769}, {"type": "node", "id": 1575538355, "lat": 28.5452959, "lon": 77.3331145}, {"type": "node", "id": 1575538357, "lat": 28.5456571, "lon": 77.3335485}, {"type": "node", "id": 1575538359, "lat": 28.5456167, "lon": 77.3335}, {"type": "node", "id": 1575538361, "lat": 28.5454895, "lon": 77.3341132}, {"type": "node", "id": 8614200603, "lat": 28.5456662, "lon": 77.3343251}, {"type": "node", "id": 8614200604, "lat": 28.5458529, "lon": 77.3345595}, {"type": "node", "id": 8614200605, "lat": 28.5459764, "lon": 77.3343558}, {"type": "node", "id": 8614200606, "lat": 28.5458116, "lon": 77.3341575}, {"type": "node", "id": 8614200607, "lat": 28.5459762, "lon": 77.3344333}, {"type": "node", "id": 8614200608, "lat": 28.5459442, "lon": 77.3343935}, {"type": "node", "id": 8614200609, "lat": 28.5461344, "lon": 77.3338196}, {"type": "node", "id": 8614200610, "lat": 28.5463257, "lon": 77.3340575}, {"type": "node", "id": 8614200611, "lat": 28.5464491, "lon": 77.3339313}, {"type": "node", "id": 8614200612, "lat": 28.546417, "lon": 77.3338915}, {"type": "node", "id": 8614200613, "lat": 28.5464492, "lon": 77.3338538}, {"type": "node", "id": 8614200614, "lat": 28.5462844, "lon": 77.3336555}, {"type": "node", "id": 8614200615, "lat": 28.5460161, "lon": 77.3339208}, {"type": "node", "id": 8614200616, "lat": 28.5462183, "lon": 77.3341623}, {"type": "node", "id": 8614200617, "lat": 28.5460959, "lon": 77.3342897}, {"type": "node", "id": 8614200618, "lat": 28.5460642, "lon": 77.3342495}, {"type": "node", "id": 8614200619, "lat": 28.5460281, "lon": 77.3342823}, {"type": "node", "id": 8614200620, "lat": 28.5458709, "lon": 77.3340761}, {"type": "node", "id": 8614200621, "lat": 28.5465047, "lon": 77.3334263}, {"type": "node", "id": 8614200622, "lat": 28.5466975, "lon": 77.3336731}, {"type": "node", "id": 8614200623, "lat": 28.5465751, "lon": 77.3338005}, {"type": "node", "id": 8614200624, "lat": 28.5465435, "lon": 77.3337603}, {"type": "node", "id": 8614200625, "lat": 28.5465073, "lon": 77.3337931}, {"type": "node", "id": 8614200626, "lat": 28.5463501, "lon": 77.3335869}]}