{"version": 0.6, "generator": "Overpass API 0.7.62.8 e802775f", "osm3s": {"timestamp_osm_base": "2025-11-22T14:26:00Z", "copyright": "The data included in this document is from www.openstreetmap.org. The data is made available under ODbL."}, "elements": [{"type": "node", "id": 1186823675, "lat": 28.5114507, "lon": 77.2621804, "tags": {"board_type": "history", "information": "board", "name": "Tughlakabad Fort Information Board", "tourism": "information"}}, {"type": "node", "id": 1186823713, "lat": 28.5111647, "lon": 77.2637954, "tags": {"historic": "ruins", "name": "Vijaymandal", "opening_hours": "24/7", "ruins": "castle", "tourism": "attraction"}}, {"type": "node", "id": 1186823717, "lat": 28.5107701, "lon": 77.2635057, "tags": {"name": "Secret Passage", "tourism": "attraction"}}, {"type": "node", "id": 1186823729, "lat": 28.5118397, "lon": 77.2632747, "tags": {"historic": "archaeological_site", "name": "Tughlakabad Mosque", "name:hi": "\u0924\u0941\u0917\u0932\u0915\u093e\u092c\u093e\u0926 \u092e\u0938\u094d\u091c\u093f\u0926", "opening_hours": "24/7"}}, {"type": "node", "id": 1833070236, "lat": 28.5307368, "lon": 77.2457792, "tags": {"amenity": "restaurant", "name": "Culinaire"}}, {"type": "node", "id": 2454223034, "lat": 28.5493151, "lon": 77.2428571, "tags": {"addr:city": "New Delhi", "addr:housename": "B 71", "addr:postcode": "110048", "addr:street": "Greater Kailash 1", "name": "Indus Biznotel", "phone": "+911140267700", "tourism": "hotel", "website": "https://www.indusbiznotel.com/"}}, {"type": "node", "id": 2716596081, "lat": 28.5392892, "lon": 77.2852942, "tags": {"tourism": "hotel"}}, {"type": "node", "id": 3386169859, "lat": 28.527614, "lon": 77.2468884, "tags": {"amenity": "restaurant", "delivery": "yes", "name": "Green Chick Chop", "smoking": "no", "takeaway": "yes"}}, {"type": "node", "id": 3386169860, "lat": 28.5276128, "lon": 77.2470133, "tags": {"amenity": "restaurant", "cuisine": "Indian,Mughlai", "delivery": "yes", "name": "Qureshi", "takeaway": "yes"}}, {"type": "node", "id": 3386169861, "lat": 28.5276595, "lon": 77.2467941, "tags": {"amenity": "restaurant", "cuisine": "asian", "delivery": "yes", "name": "Call it Asian", "short_name": "CIA", "takeaway": "yes", "toilets": "no"}}, {"type": "node", "id": 3386751341, "lat": 28.5239533, "lon": 77.2556753, "tags": {"leisure": "park"}}, {"type": "node", "id": 3386751351, "lat": 28.5278854, "lon": 77.2502591, "tags": {"amenity": "cafe"}}, {"type": "node", "id": 3390001349, "lat": 28.5280616, "lon": 77.2561701, "tags": {"amenity": "restaurant", "cuisine": "south_indian", "name": "Kwality Sweets and Restaurant", "phone": "+91-96508-08949;+91-92125-15088"}}, {"type": "node", "id": 3394398827, "lat": 28.5323178, "lon": 77.2427574, "tags": {"amenity": "restaurant", "name": "Not Just Paranthas"}}, {"type": "node", "id": 3394398837, "lat": 28.5336384, "lon": 77.2442419, "tags": {"amenity": "cafe", "name": "Wagh Bakri Tea Lounge"}}, {"type": "node", "id": 3394398838, "lat": 28.5341212, "lon": 77.2428302, "tags": {"amenity": "cafe", "brand": "Starbucks", "brand:pa": "\u0a38\u0a1f\u0a3e\u0a30\u0a2c\u0a15\u0a38", "brand:ur": "\u0627\u0633\u0679\u0627\u0631\u0628\u06a9\u0633", "brand:wikidata": "Q37158", "brand:wikipedia": "en:Starbucks", "cuisine": "coffee_shop", "name": "Starbucks", "name:pa": "\u0a38\u0a1f\u0a3e\u0a30\u0a2c\u0a15\u0a38", "name:ur": "\u0627\u0633\u0679\u0627\u0631\u0628\u06a9\u0633", "official_name": "Starbucks Coffee", "official_name:pa": "\u0a38\u0a1f\u0a3e\u0a30\u0a2c\u0a15\u0a38 \u0a15\u0a4c\u0a2b\u0a40", "official_name:ur": "\u0627\u0633\u0679\u0627\u0631\u0628\u06a9\u0633 \u06a9\u0627\u0641\u06cc", "takeaway": "yes"}}, {"type": "node", "id": 3394398839, "lat": 28.5335834, "lon": 77.2433039, "tags": {"amenity": "cafe", "brand": "Costa", "brand:wikidata": "Q608845", "cuisine": "coffee_shop", "name": "Costa", "takeaway": "yes"}}, {"type": "node", "id": 3395916095, "lat": 28.5321582, "lon": 77.2506614, "tags": {"amenity": "restaurant"}}, {"type": "node", "id": 3404446540, "lat": 28.5277319, "lon": 77.2471116, "tags": {"amenity": "restaurant", "name": "Oriental"}}, {"type": "node", "id": 3404446544, "lat": 28.5403066, "lon": 77.2483593, "tags": {"amenity": "marketplace", "name": "Fish Market"}}, {"type": "node", "id": 3404446572, "lat": 28.5399337, "lon": 77.2403199, "tags": {"amenity": "restaurant", "cuisine": "ice_cream", "name": "Gianis Ice Cream"}}, {"type": "node", "id": 3428539645, "lat": 28.5346066, "lon": 77.2436003, "tags": {"amenity": "restaurant", "name": "Chocolateria San Churro"}}, {"type": "node", "id": 3508300432, "lat": 28.532347, "lon": 77.2427911, "tags": {"amenity": "restaurant", "name": "Zingo Star"}}, {"type": "node", "id": 3508300434, "lat": 28.5327962, "lon": 77.2433094, "tags": {"amenity": "restaurant", "cuisine": "chinese", "name": "China Garden"}}, {"type": "node", "id": 3508300435, "lat": 28.5328507, "lon": 77.2433747, "tags": {"amenity": "restaurant", "cuisine": "indian", "name": "Angrezi Dhaba"}}, {"type": "node", "id": 3508300436, "lat": 28.5332416, "lon": 77.2438243, "tags": {"amenity": "cafe", "brand": "Cafe Coffee Day", "brand:wikidata": "Q5017235", "cuisine": "coffee_shop", "name": "Cafe Coffee Day", "takeaway": "yes"}}, {"type": "node", "id": 3508300439, "lat": 28.5332859, "lon": 77.2416903, "tags": {"amenity": "restaurant", "cuisine": "chinese", "name": "Hao Shi Nian Nian"}}, {"type": "node", "id": 3508300440, "lat": 28.5335921, "lon": 77.2421395, "tags": {"amenity": "restaurant", "name": "Yeti"}}, {"type": "node", "id": 4236859392, "lat": 28.5414989, "lon": 77.2401446, "tags": {"addr:postcode": "110048", "addr:street": "Greater Kailash 2", "amenity": "restaurant", "cuisine": "fish;lebanese;diner;chicken;kebab", "name": "Karim's Mughal Palace", "opening_hours": "Mo-Su 00:30-23:00", "phone": "180030023291"}}, {"type": "node", "id": 4290803074, "lat": 28.5483544, "lon": 77.2418116, "tags": {"contact:phone": "+91 11 46 06 60 54", "contact:website": "http://www.bedandchai.com", "name": "Bed&Cha\u00ef Guesthouse", "tourism": "guest_house"}}, {"type": "node", "id": 5218330121, "lat": 28.5334254, "lon": 77.2420236, "tags": {"amenity": "restaurant", "name": "artusi"}}, {"type": "node", "id": 5218620424, "lat": 28.5333473, "lon": 77.2418684, "tags": {"amenity": "restaurant", "name": "fig & maple"}}, {"type": "node", "id": 5222845022, "lat": 28.5346937, "lon": 77.2435444, "tags": {"amenity": "restaurant", "name": "What A Comic Show!"}}, {"type": "node", "id": 5223303426, "lat": 28.5329797, "lon": 77.2434993, "tags": {"amenity": "cafe", "name": "angels in my kitchen"}}, {"type": "node", "id": 5372987682, "lat": 28.5471742, "lon": 77.2494125, "tags": {"name": "Hotel South View", "tourism": "hotel"}}, {"type": "node", "id": 5372989290, "lat": 28.54661, "lon": 77.2496586, "tags": {"name": "Shervani", "tourism": "hotel"}}, {"type": "node", "id": 5373001733, "lat": 28.5455235, "lon": 77.2478958, "tags": {"name": "The Muse", "tourism": "hotel"}}, {"type": "node", "id": 5385787222, "lat": 28.5333542, "lon": 77.2429097, "tags": {"amenity": "restaurant", "name": "Laidback Cafe"}}, {"type": "node", "id": 5416434522, "lat": 28.5421501, "lon": 77.2529516, "tags": {"amenity": "restaurant", "name": "The American Connection"}}, {"type": "node", "id": 5461916721, "lat": 28.542141, "lon": 77.252922, "tags": {"amenity": "cafe", "name": "the gol chakar"}}, {"type": "node", "id": 5492518424, "lat": 28.5401478, "lon": 77.2432582, "tags": {"internet_access": "wlan", "name": "Nomadia Hostel", "tourism": "hostel"}}, {"type": "node", "id": 5556605561, "lat": 28.5479351, "lon": 77.2507706, "tags": {"amenity": "cafe", "name": "Cafe Einstein"}}, {"type": "node", "id": 5657189084, "lat": 28.524724, "lon": 77.2558837, "tags": {"amenity": "restaurant", "cuisine": "Indian;chinese;snacks;dessert", "name": "Chandra Sweets", "outdoor_seating": "no", "payment:cash": "yes", "smoking": "no", "takeaway": "yes"}}, {"type": "node", "id": 5816931654, "lat": 28.5384822, "lon": 77.2429911, "tags": {"addr:housenumber": "E 99", "addr:postcode": "110048", "addr:street": "Third Floor", "internet_access": "wlan", "name": "Mango Hostel", "opening_hours": "24/7", "phone": "+918929098959", "tourism": "hostel", "website": "http://www.mangohostels.com"}}, {"type": "node", "id": 6403497366, "lat": 28.5497267, "lon": 77.2503461, "tags": {"amenity": "restaurant", "diet:vegetarian": "yes", "drink:alcohol": "served", "name": "Sandoz"}}, {"type": "node", "id": 6459196232, "lat": 28.5399961, "lon": 77.2581592, "tags": {"amenity": "cafe", "name": "Caf\u00e9 Amsterdam", "name:fa": "\u06a9\u0627\u0641\u0647 \u0622\u0645\u0633\u062a\u0631\u062f\u0627\u0645"}}, {"type": "node", "id": 6459196241, "lat": 28.5406268, "lon": 77.2567821, "tags": {"amenity": "cafe", "brand": "Blue Tokai Coffee Roasters", "cuisine": "coffee_shop", "level": "0", "name": "Blue Tokai Coffee Roasters", "takeaway": "yes", "wheelchair": "no"}}, {"type": "node", "id": 6459196255, "lat": 28.5418736, "lon": 77.2546185, "tags": {"alcohol": "yes", "amenity": "restaurant", "name": "Khidmat", "wheelchair": "no"}}, {"type": "node", "id": 6459196261, "lat": 28.5400859, "lon": 77.2580101, "tags": {"amenity": "cafe", "internet_access": "wlan", "name": "NYC Queens", "wheelchair": "no"}}, {"type": "node", "id": 6459196263, "lat": 28.5398995, "lon": 77.2582377, "tags": {"amenity": "cafe", "cuisine": "deli", "level": "0", "name": "Happy Dough", "opening_hours": "Mo-Su 08:00-24:00; PH closed", "seats": "2", "tables": "1", "toilets": "no", "wheelchair": "no"}}, {"type": "node", "id": 6535485502, "lat": 28.5472818, "lon": 77.2444724, "tags": {"amenity": "restaurant", "cuisine": "indian", "internet_access": "wlan", "name": "Nimtho", "name:en": "Nimtho", "name:fr": "Nimtho"}}, {"type": "node", "id": 6544471385, "lat": 28.536729, "lon": 77.2578258, "tags": {"name": "Flagship Le Grand", "operator": "Oyo", "tourism": "hotel"}}, {"type": "node", "id": 6794993737, "lat": 28.5483543, "lon": 77.2520105, "tags": {"name": "Nehru Enclave Clothes Market", "tourism": "attraction"}}, {"type": "node", "id": 6795202891, "lat": 28.5442403, "lon": 77.2510224, "tags": {"amenity": "restaurant", "name": "Curry House", "name:en": "Muradabadi Curry"}}, {"type": "node", "id": 6795214385, "lat": 28.5443046, "lon": 77.2512173, "tags": {"amenity": "restaurant", "name": "Bikaneri Sweets"}}, {"type": "node", "id": 6817346160, "lat": 28.5498716, "lon": 77.2510781, "tags": {"air_conditioning": "yes", "amenity": "restaurant", "bar": "no", "brand": "Pizza Hut", "brand:wikidata": "Q191615", "brewery": "no", "changing_table": "no", "check_date": "2024-05-19", "contact:phone": "+91-11-3988-3988", "cuisine": "pizza", "diet:chicken": "yes", "diet:fish": "yes", "diet:halal": "yes", "diet:meat": "yes", "diet:non-vegetarian": "yes", "diet:omnivore": "yes", "diet:seafood": "yes", "diet:vegetarian": "yes", "highchair": "no", "internet_access": "no", "level": "0", "name": "Pizza Hut", "operator": "Devyani International Limited", "outdoor_seating": "no", "payment:cash": "yes", "payment:credit_cards": "yes", "payment:debit_cards": "yes", "reservation": "no", "smoking": "no", "tables": "12", "toilets": "no", "toilets:wheelchair": "no", "wheelchair": "no"}}, {"type": "node", "id": 6900471305, "lat": 28.5374778, "lon": 77.2564665, "tags": {"amenity": "restaurant", "name": "Horn Please", "operator": "24/7"}}, {"type": "node", "id": 6929383886, "lat": 28.5465015, "lon": 77.252927, "tags": {"name": "Clark\u2019s Inn", "tourism": "hotel"}}, {"type": "node", "id": 6929383988, "lat": 28.5469541, "lon": 77.2537949, "tags": {"name": "The Orion Plaza", "tourism": "hotel"}}, {"type": "node", "id": 6929384385, "lat": 28.5469986, "lon": 77.2537901, "tags": {"amenity": "restaurant", "name": "Blue Parrott Cafe"}}, {"type": "node", "id": 6929384485, "lat": 28.5469213, "lon": 77.2540743, "tags": {"internet_access": "wlan", "name": "The Oakland Plaza", "phone": "+911147000829", "tourism": "hotel"}}, {"type": "node", "id": 7014000786, "lat": 28.5465156, "lon": 77.2529361, "tags": {"name": "Clark Inn", "tourism": "hotel"}}, {"type": "node", "id": 7021447890, "lat": 28.5481225, "lon": 77.2510734, "tags": {"amenity": "restaurant", "level": "1", "name": "Only Bar", "wheelchair": "no"}}, {"type": "node", "id": 7040389985, "lat": 28.5022579, "lon": 77.2793024, "tags": {"name": "Nai Ka Kot", "tourism": "attraction"}}, {"type": "node", "id": 7041538586, "lat": 28.5390026, "lon": 77.2702145, "tags": {"amenity": "cafe", "name": "Kaffa Cerrado The Roastery"}}, {"type": "node", "id": 7041570585, "lat": 28.5336703, "lon": 77.2423029, "tags": {"amenity": "cafe", "name": "Carnatic Cafe"}}, {"type": "node", "id": 7066449791, "lat": 28.5399032, "lon": 77.2585227, "tags": {"amenity": "restaurant", "level": "0", "name": "Wood Box", "wheelchair": "no"}}, {"type": "node", "id": 7171180188, "lat": 28.5380073, "lon": 77.2464006, "tags": {"internet_access": "wlan", "name": "HOG Poshtel Delhi", "opening_hours": "24/7", "tourism": "hostel"}}, {"type": "node", "id": 10933890872, "lat": 28.5491128, "lon": 77.2508918, "tags": {"addr:buildingname": "Aggarwal Bhawan", "addr:postcode": "110019", "amenity": "restaurant", "name": "Punjabi Khana", "phone": "9811153620"}}, {"type": "node", "id": 10933972834, "lat": 28.5497595, "lon": 77.2509754, "tags": {"air_conditioning": "yes", "amenity": "restaurant", "bar": "no", "brand": "Pizza Hut", "brand:wikidata": "Q191615", "brewery": "no", "changing_table": "no", "check_date": "2024-05-19", "cuisine": "pizza", "diet:chicken": "yes", "diet:fish": "yes", "diet:halal": "yes", "diet:meat": "yes", "diet:non-vegetarian": "yes", "diet:omnivore": "yes", "diet:seafood": "yes", "diet:vegetarian": "yes", "highchair": "no", "internet_access": "no", "microbrewery": "no", "name": "Pizza Hut", "outdoor_seating": "no", "payment:cash": "yes", "payment:credit_cards": "yes", "payment:debit_cards": "yes", "reservation": "no", "smoking": "no", "takeaway": "yes", "toilets": "no", "toilets:wheelchair": "no", "wheelchair": "no"}}, {"type": "node", "id": 10934177147, "lat": 28.5490934, "lon": 77.2508412, "tags": {"addr:city": "New Delhi", "addr:housename": "Aggarwal Bhawan", "addr:housenumber": "35;36", "addr:postcode": "110019", "addr:street": "Nehru Place Road", "addr:suburb": "Nehru Place", "addr:unit": "G-4", "amenity": "restaurant", "contact:mobile": "+91-98111-53620", "level": "0"}}, {"type": "node", "id": 10948823897, "lat": 28.5094752, "lon": 77.2615614, "tags": {"information": "board", "name": "Ghiyathu'd-din Tughluq's tomb", "tourism": "information"}}, {"type": "node", "id": 11304152239, "lat": 28.542225, "lon": 77.253804, "tags": {"amenity": "cafe", "name": "Third Wave", "payment:credit_cards": "yes", "payment:debit_cards": "yes"}}, {"type": "node", "id": 11304153795, "lat": 28.5422268, "lon": 77.2537368, "tags": {"amenity": "cafe", "name": "Nothing Before Coffee", "payment:credit_cards": "yes", "payment:debit_cards": "yes"}}, {"type": "node", "id": 11697003782, "lat": 28.5016903, "lon": 77.2862171, "tags": {"amenity": "cafe", "name": "nescafe"}}, {"type": "node", "id": 11697031078, "lat": 28.5018231, "lon": 77.287411, "tags": {"amenity": "restaurant", "name": "Sab ki rasoi"}}, {"type": "node", "id": 11697082513, "lat": 28.5001477, "lon": 77.2868104, "tags": {"amenity": "restaurant", "name": "dad's kitchen"}}, {"type": "node", "id": 11697083558, "lat": 28.5005798, "lon": 77.2871653, "tags": {"amenity": "restaurant", "name": "g bakar"}}, {"type": "node", "id": 11697090685, "lat": 28.5019702, "lon": 77.2829091, "tags": {"name": "fabhotel fortune city", "tourism": "motel"}}, {"type": "node", "id": 11697454684, "lat": 28.5488614, "lon": 77.2507114, "tags": {"amenity": "cafe", "cuisine": "tea"}}, {"type": "node", "id": 11697454702, "lat": 28.5486152, "lon": 77.2523289, "tags": {"amenity": "cafe", "cuisine": "coffee"}}, {"type": "node", "id": 11697454704, "lat": 28.5499616, "lon": 77.2505784, "tags": {"amenity": "cafe", "cuisine": "tea"}}, {"type": "node", "id": 11697454723, "lat": 28.5490252, "lon": 77.2512096, "tags": {"amenity": "cafe", "cuisine": "tea"}}, {"type": "node", "id": 11698069944, "lat": 28.511913, "lon": 77.2663067, "tags": {"amenity": "restaurant", "brand": "Pizza Hut", "brand:wikidata": "Q191615", "cuisine": "pizza", "name": "Pizza Hut"}}, {"type": "node", "id": 11704272917, "lat": 28.5490409, "lon": 77.2518356, "tags": {"amenity": "cafe", "cuisine": "tea", "shop": "tobacco"}}, {"type": "node", "id": 11704272964, "lat": 28.5492453, "lon": 77.2515707, "tags": {"air_conditioning": "no", "amenity": "cafe", "cuisine": "tea", "outdoor_seating": "yes", "smoking": "yes"}}, {"type": "node", "id": 11711417998, "lat": 28.5490677, "lon": 77.2533234, "tags": {"air_conditioning": "yes", "amenity": "restaurant", "bar": "no", "brewery": "no", "changing_table": "no", "check_date": "2024-05-19", "cuisine": "punjabi;south_indian;chinese", "diet:vegetarian": "yes", "highchair": "no", "internet_access": "no", "level": "0", "microbrewery": "no", "name": "Sona Dhaba", "name:en": "Sona Dhaba", "name:hi": "\u0938\u094b\u0928\u093e \u0922\u093e\u092c\u093e", "opening_hours": "11:00-23:00", "outdoor_seating": "no", "payment:cash": "yes", "payment:credit_cards": "yes", "payment:debit_cards": "yes", "phone": "+91 99587 62431; +91 98917 82842", "self_service": "yes", "smoking": "no", "toilets": "no", "toilets:wheelchair": "no", "website": "https://sonasweets.in", "wheelchair": "no"}}, {"type": "node", "id": 11766134636, "lat": 28.5498736, "lon": 77.2450538, "tags": {"board_type": "history", "information": "board", "tourism": "information"}}, {"type": "node", "id": 11853060970, "lat": 28.5455588, "lon": 77.2439747, "tags": {"name": "B 13, GK Transit flat approach road", "tourism": "apartment"}}, {"type": "node", "id": 11853063769, "lat": 28.5427686, "lon": 77.2424815, "tags": {"name": "B 13 GK TRANSIT FLAT", "tourism": "apartment"}}, {"type": "node", "id": 11910561582, "lat": 28.5365204, "lon": 77.254589, "tags": {"addr:city": "Delhi", "addr:housenumber": "838", "addr:postcode": "110019", "addr:street": "Bipinchandra Pal Marg", "leisure": "park", "name": "e block park"}}, {"type": "node", "id": 11917659197, "lat": 28.5495265, "lon": 77.2508121, "tags": {"amenity": "restaurant", "check_date": "2024-05-19", "level": "0", "name": "Rajshree South Indian Corner"}}, {"type": "node", "id": 11917691935, "lat": 28.5490658, "lon": 77.250763, "tags": {"addr:housenumber": "35-46", "addr:neighbourhood": "Nehru Place", "amenity": "restaurant", "check_date": "2024-05-19", "level": "0", "name": "Masala Bite", "wheelchair": "yes"}}, {"type": "node", "id": 11917702396, "lat": 28.5499984, "lon": 77.2512407, "tags": {"air_conditioning": "yes", "amenity": "restaurant", "contact:mobile": "+91-97118-99373", "level": "0", "name": "Massey's", "tables": "3"}}, {"type": "node", "id": 11917709499, "lat": 28.5498634, "lon": 77.2509881, "tags": {"air_conditioning": "yes", "amenity": "restaurant", "bar": "no", "brewery": "no", "changing_table": "no", "check_date": "2024-05-19", "cuisine": "japanese", "diet:chicken": "yes", "diet:fish": "yes", "diet:halal": "yes", "diet:meat": "yes", "diet:non-vegetarian": "yes", "diet:omnivore": "yes", "diet:seafood": "yes", "diet:vegetarian": "yes", "highchair": "no", "internet_access": "no", "microbrewery": "no", "name": "Sukiya Tokyo Bowls", "outdoor_seating": "no", "payment:cash": "yes", "payment:credit_cards": "yes", "payment:debit_cards": "yes", "reservation": "no", "smoking": "no", "toilets": "no", "toilets:wheelchair": "no", "wheelchair": "no"}}, {"type": "node", "id": 11985296571, "lat": 28.5408622, "lon": 77.2431317, "tags": {"addr:city": "New Delhi", "addr:neighbourhood": "Chittaranjan Park", "addr:place": "Market Number 3", "addr:postcode": "110019", "amenity": "restaurant", "cuisine": "bengali", "name": "Ashirbad Snacks Corner", "takeaway": "yes"}}, {"type": "node", "id": 11985404577, "lat": 28.5372482, "lon": 77.2487079, "tags": {"addr:city": "New Delhi", "addr:postcode": "110019", "amenity": "cafe", "cuisine": "coffee_shop;bakery", "name": "Astro Bakers", "outdoor_seating": "yes"}}, {"type": "node", "id": 11985479754, "lat": 28.5397499, "lon": 77.2487881, "tags": {"addr:city": "New Delhi", "addr:neighbourhood": "CR Park", "addr:place": "Market Number 1", "addr:postcode": "110019", "air_conditioning": "no", "amenity": "cafe", "indoor_seating": "no", "name": "Dada & Bodi Tandoori Tea Stall", "opening_hours": "Mo-Su 04:00-24:00", "outdoor_seating": "yes", "takeaway": "yes"}}, {"type": "node", "id": 12093491520, "lat": 28.5399731, "lon": 77.251123, "tags": {"contact:mobile": "+91 70424 78573;+91 83840 09987", "contact:phone": "+91 83840 09987", "name": "Hotel R.S. Villa", "operator": "Oyo", "tourism": "hotel"}}, {"type": "node", "id": 12093503922, "lat": 28.5399844, "lon": 77.2520229, "tags": {"amenity": "restaurant", "diet:vegetarian": "only", "level": "0", "name": "Bunty Dhaba"}}, {"type": "node", "id": 12147649191, "lat": 28.5236905, "lon": 77.2603121, "tags": {"access": "private", "alt_name": "Tundelkar niwas", "check_date": "2024-08-31", "description": "Tundelkar\u2019s residence", "historic": "manor", "loc_name": "Tundelkar Niwas", "name": "TUNDELKAR NIWAS \u091f\u0941\u0928\u094d\u0921\u0947\u0932\u0915\u0930  \u0928\u093f\u0935\u093e\u0938 (\u0916\u091f\u093f\u0915)", "nat_name": "Tundelkar Niwas", "official_name": "Tundelkar Niwas", "reg_name": "Tundelkar Niwas", "short_name": "Tundelkar Niwas", "source": "survey;local knowledge;aerial imagery;gps;streetlevel imagery;osm notes", "start_date": "2021-05-04"}}, {"type": "node", "id": 12483493053, "lat": 28.5329749, "lon": 77.2759483, "tags": {"addr:city": "New Delhi", "addr:district": "South Delhi", "addr:housenumber": "Ram Dulari Tundelkar Ji Road Block E Okhla Phase 2", "addr:postcode": "110020", "addr:street": "Ram Dulari Tundelkar Ji Road", "amenity": "marketplace", "building": "political_party_office", "name": "Tundelkar Office", "operator": "Vinod Tundelkar"}}, {"type": "node", "id": 12835636017, "lat": 28.5392614, "lon": 77.2637762, "tags": {"access": "private", "amenity": "drinking_water", "bottle": "yes", "dog": "no", "fountain": "nozzle", "historic": "no", "indoor": "yes", "level": "0"}}, {"type": "node", "id": 12835662550, "lat": 28.538849, "lon": 77.2640656, "tags": {"access": "private", "amenity": "drinking_water", "bottle": "yes", "dog": "no", "fountain": "nozzle", "historic": "no", "indoor": "yes", "level": "0"}}, {"type": "node", "id": 13094450301, "lat": 28.5397101, "lon": 77.2788477, "tags": {"amenity": "cafe", "name": "Patel Tea Stall"}}, {"type": "node", "id": 13094778275, "lat": 28.541778, "lon": 77.2542397, "tags": {"amenity": "restaurant", "cuisine": "indian;south_indian", "level": "-1", "name": "Naivedyam", "name:en": "Naivedyam", "name:hi": "\u0928\u0948\u0935\u0947\u0926\u094d\u092f\u092e", "wheelchair": "no"}}, {"type": "node", "id": 13100614866, "lat": 28.5471542, "lon": 77.2737412, "tags": {"amenity": "cafe", "name": "Nescafe"}}, {"type": "way", "id": 80511825, "nodes": [7116250480, 11766134629, 939241646, 11766115240, 11766134658, 11766134626, 11766134646, 11766134642, 10554336798, 7116250481, 939241481, 939241513, 939241545, 11766134575, 939241581, 939241626, 939241591, 11766134608, 7116250480], "tags": {"fee": "no", "leisure": "park", "name": "Asaf Ali Park", "name:etymology:wikidata": "Q684845", "name:hi": "\u0906\u0938\u092b\u093c \u0905\u0932\u0940 \u0909\u0926\u094d\u092f\u093e\u0928", "opening_hours": "Mar-Sep Mo-Su 05:00-21:30 ; Oct-Feb Mo-Su 05:30-21:00", "wikimedia_commons": "Category:Asaf Ali Park, Delhi"}}, {"type": "way", "id": 80511826, "nodes": [939241539, 939241651, 11688059890, 939241695, 939241482, 939241515, 939241547, 11688059893, 939241593, 939241663, 939241539], "tags": {"barrier": "wall", "leisure": "park", "name": "Hansraj Sethi Park", "natural": "wood"}}, {"type": "way", "id": 89808628, "nodes": [1040992524, 1040993655, 1040993034, 1040993302, 1040992627, 1040992700, 1040992524], "tags": {"addr:district": "South Delhi", "addr:street": "Greater Kailash 2", "barrier": "wall", "leisure": "park", "name": "Rock Garden"}}, {"type": "way", "id": 89808633, "nodes": [1040993313, 1040992726, 1040992176, 1040992309, 1040993270, 1040993545, 1040992894, 1040993313], "tags": {"barrier": "wall", "leisure": "park"}}, {"type": "way", "id": 89808654, "nodes": [1040993619, 1040993114, 1040992476, 1040992782, 1040993619], "tags": {"barrier": "wall", "leisure": "park"}}, {"type": "way", "id": 89808690, "nodes": [1040992826, 11756896322, 1040992392, 11756896328, 1040992610, 11756896323, 1040993626, 1040992826], "tags": {"barrier": "wall", "leisure": "park"}}, {"type": "way", "id": 89808694, "nodes": [1040992486, 1040992381, 1040992439, 1040993455, 1040992095, 1040993084, 1040992486], "tags": {"barrier": "wall", "leisure": "park"}}, {"type": "way", "id": 89808722, "nodes": [1040992185, 7640317805, 1040993317, 1040992123, 7640317807, 1040993102, 1040993358, 7640317806, 1040992185], "tags": {"barrier": "wall", "leisure": "park"}}, {"type": "way", "id": 89814375, "nodes": [1041069618, 1041069500, 1041069556, 1041069851, 1041069503, 1041069729, 1041069854, 1041070214, 1041069664, 1041070092, 1041070164, 2716796100, 2716796087, 2716796091, 1041069376, 1041069450, 1041069674, 1041069618], "tags": {"barrier": "wall", "leisure": "park", "name": "S Block Park"}}, {"type": "way", "id": 89955731, "nodes": [1042720573, 1042719896, 1042719593, 1042719158, 1042720573], "tags": {"leisure": "park"}}, {"type": "way", "id": 89955737, "nodes": [1042719470, 11964843530, 11964843488, 11964843502, 11964843484, 1042719666, 1042719643, 1042719276, 1042719470], "tags": {"leisure": "park"}}, {"type": "way", "id": 89955738, "nodes": [1042719509, 1042719687, 1042719662, 1042719313, 1042720586, 1042719509], "tags": {"leisure": "park"}}, {"type": "way", "id": 89955744, "nodes": [1042719563, 1042719780, 1042719468, 1042720750, 1042719955, 1042719563], "tags": {"leisure": "park"}}, {"type": "way", "id": 89955749, "nodes": [1042719663, 1740127265, 1740127278, 1042720731, 1740127348, 1042720301, 1740127268, 1042719920, 1042719663], "tags": {"leisure": "park"}}, {"type": "way", "id": 89955756, "nodes": [1042720022, 1042720295, 1042719909, 1042719852, 1042720022], "tags": {"leisure": "park"}}, {"type": "way", "id": 89955760, "nodes": [1042719080, 1042720111, 1042719727, 1042719431, 1042720694, 1042719080], "tags": {"barrier": "wall", "leisure": "park"}}, {"type": "way", "id": 89955762, "nodes": [1042719860, 1042719266, 1042720555, 1042719574, 1042719136, 1042720417, 1042719860], "tags": {"leisure": "park"}}, {"type": "way", "id": 89955764, "nodes": [1042719496, 1042720410, 1042720035, 1042719677, 1042719357, 1042719496], "tags": {"barrier": "wall", "leisure": "park"}}, {"type": "way", "id": 89955778, "nodes": [1042719119, 1042719466, 1042720738, 1042719679, 1042719359, 1042720620, 1042720233, 1042719568, 1042719119], "tags": {"leisure": "park"}}, {"type": "way", "id": 89955790, "nodes": [1042720256, 1042719629, 1042719234, 1042720193, 1042720256], "tags": {"barrier": "wall", "leisure": "park"}}, {"type": "way", "id": 89955793, "nodes": [1042719991, 1042719436, 1042720704, 1042720261, 1042719892, 1042719847, 1042719537, 1042719094, 1042720377, 1042719684, 1042719991], "tags": {"leisure": "park"}}, {"type": "way", "id": 89955796, "nodes": [1042720538, 1042719113, 1042720393, 1042719697, 1042719405, 1042720664, 3782946699, 1042720258, 1042720538], "tags": {"leisure": "park", "name": "Mela ground"}}, {"type": "way", "id": 89955802, "nodes": [1042720571, 1042719131, 1042720414, 2684837503, 2684837499, 1042719740, 2684837501, 2684837527, 1042719435, 2684837530, 1042720698, 1042720571], "tags": {"barrier": "wall", "leisure": "park"}}, {"type": "way", "id": 89955806, "nodes": [1042720308, 1042719664, 11083509729, 11083509744, 1042719321, 6881975942, 6881975943, 6881975944, 1042720219, 1042720167, 1042719783, 1042719494, 1042720754, 11083308309, 1042719959, 1042720308], "tags": {"leisure": "park"}}, {"type": "way", "id": 89955809, "nodes": [1042719525, 1042720457, 12095273058, 1042720069, 1042719699, 12095273063, 1042719525], "tags": {"leisure": "park"}}, {"type": "way", "id": 89955812, "nodes": [1042719528, 1042719707, 1042719429, 1042719348, 1042719528], "tags": {"leisure": "park"}}, {"type": "way", "id": 89955821, "nodes": [1042719809, 1042720043, 1042719683, 1042719388, 1042719311, 1042720583, 1042720199, 1042719815, 1042719097, 1042720382, 1042720002, 1042719661, 1042719633, 1042719238, 1042720533, 1042720156, 1042719809], "tags": {"barrier": "wall", "leisure": "park"}}, {"type": "way", "id": 89955822, "nodes": [1042720589, 1042719186, 1042720463, 1042719776, 1042719463, 1042720734, 1042720304, 1042720259, 1042719856, 1042719566, 1042720589], "tags": {"barrier": "wall", "leisure": "park", "name": "Durga Puja Ground"}}, {"type": "way", "id": 89955833, "nodes": [1042720774, 1042720068, 1042719693, 1042719398, 1042720774], "tags": {"leisure": "park"}}, {"type": "way", "id": 89955834, "nodes": [1042720338, 1042719615, 1042719211, 1042720507, 1042720146, 1042719504, 11964843486, 1042720764, 1042720338], "tags": {"barrier": "wall", "leisure": "park"}}, {"type": "way", "id": 89955841, "nodes": [1042719944, 1042719317, 1042720595, 1042720210, 1042719944], "tags": {"leisure": "park"}}, {"type": "way", "id": 89955850, "nodes": [1042719410, 1042719636, 1042719257, 1042720546, 1042719410], "tags": {"leisure": "park"}}, {"type": "way", "id": 89956565, "nodes": [1042741534, 1042741518, 1042741492, 1042741549, 1042741473, 1042741524, 1042741446, 1042741478, 1042741529, 1042741452, 1042741500, 1042741437, 1042741488, 1042741534], "tags": {"barrier": "wall", "leisure": "park"}}, {"type": "way", "id": 102522853, "nodes": [1184065460, 1184065462, 1184065463, 1184065464, 1184065465, 1184065460], "tags": {"barrier": "wall", "brand": "Crowne Plaza", "brand:wikidata": "Q2746220", "name": "Crowne Plaza", "tourism": "hotel"}}, {"type": "way", "id": 102684251, "nodes": [1185897609, 1185897690, 10958868751, 1185897569, 1507488733, 1185897542, 1185897601, 1185897575, 1185897634, 1185897672, 1185897560, 10958855695, 1185897725, 10958855690, 1185897592, 1185897564, 1185897625, 1185897597, 1185897680, 1185897709, 1185897582, 1185897555, 1185897617, 1185897588, 1185897662, 1185897621, 1185897718, 1185897700, 1185897577, 1185897547, 1185897611, 1185897580, 1185897645, 1185897615, 1185897705, 1185897540, 1185897599, 1185897571, 1186823691, 1185897630, 1186823703, 1185897603, 1185897694, 1185897636, 1185897544, 6567401941, 1185897562, 6567401940, 1185897624, 1185897595, 1185897676, 1185897627, 1185897732, 1185897686, 1185897567, 1185897585, 1185897653, 1185897619, 1185897668, 1185897557, 1185897721, 1185897590, 1185897578, 1185897640, 1185897612, 1185897701, 1185897652, 1185897550, 1185897715, 1185897584, 1185897600, 1185897688, 1185897632, 1185897541, 1185897698, 1185897573, 1185897545, 1185897606, 1185897723, 1185897678, 1185897563, 1185897734, 6567401950, 1185897596, 1185897568, 1185897628, 1185897657, 1185897553, 1185897716, 1185897587, 6567258152, 6567258157, 1185897558, 1185897620, 1185897591, 1185897670, 1185897642, 1185897546, 1185897703, 1185897579, 1185897551, 1185897613, 1185897586, 1185897655, 1185897692, 1185897570, 1185897543, 1185897602, 1185897576, 1185897635, 1185897608, 1185897699, 1185897731, 10958868760, 1185897565, 1185897626, 1185897598, 1185897683, 1185897629, 1185897538, 1185897556, 1185897618, 1185897589, 1185897664, 1185897623, 1185897719, 1185897674, 1185897561, 1185897549, 1185897610, 1185897581, 1185897650, 1185897616, 1185897707, 1185897660, 1185897554, 1185897572, 1185897631, 1185897605, 1185897696, 1185897638, 1185897607, 1185897609], "tags": {"barrier": "city_wall", "historic": "castle", "name": "Tughlakabad Fort", "name:hi": "\u0924\u0941\u0917\u0932\u0915\u093e\u092c\u093e\u0926 \u0915\u093f\u0932\u093e", "opening_hours": "24/7", "tourism": "attraction", "wikidata": "Q2511605", "wikipedia": "en:Tughlaqabad Fort"}}, {"type": "way", "id": 102758311, "nodes": [1186823659, 1186823702, 10958868707, 1186823686, 1186823689, 10958868708, 1186823659], "tags": {"amenity": "marketplace", "building": "yes", "name": "Meena Bazar", "name:hi": "\u092e\u0940\u0928\u093e \u092c\u093e\u091c\u093c\u093e\u0930", "tourism": "attraction"}}, {"type": "way", "id": 102758313, "nodes": [1186823679, 1186823746, 1186823710, 1186823695, 1186823679], "tags": {"area": "yes", "historic": "monument", "name": "Tughlakabad Baoli", "name:hi": "\u0924\u0941\u0917\u0932\u0915\u093e\u092c\u093e\u0926 \u092c\u093e\u0935\u0932\u0940", "opening_hours": "24/7"}}, {"type": "way", "id": 102758314, "nodes": [1186823657, 1186823666, 1186823669, 1186823740, 1186823704, 1186823688, 1186823699, 1186823681, 1186823734, 1186823716, 1186823718, 1186823701, 1186823663, 1186823736, 1186823661, 1186823657], "tags": {"barrier": "wall", "historic": "ruins", "name": "Tughlaqabad Palace Ruins", "name:hi": "\u0924\u0941\u0917\u0932\u0915\u093e\u092c\u093e\u0926 \u092e\u0939\u0932 \u0915\u0947 \u0916\u0902\u0921\u0939\u0930", "opening_hours": "24/7"}}, {"type": "way", "id": 102758345, "nodes": [1186826950, 1186826932, 1186826927, 1186826905, 1186826851, 1186826943, 1186826944, 1186826928, 1186826872, 1186826852, 1186826868, 1186826849, 1186826924, 1186826903, 1186826904, 1186826870, 1186826942, 1186826925, 1186826939, 1186826922, 1186826862, 1186826952, 1186826848, 1186826941, 1186826900, 1186826865, 1186826887, 1186826858, 1186826937, 1186826915, 1186826917, 1186826889, 1186826951, 1186826938, 1186826936, 1186826884, 1186826855, 1186826856, 1186826949, 1186826907, 1186826885, 1186826906, 1186826883, 1186826946, 1186826935, 1186826950], "tags": {"barrier": "city_wall", "historic": "fort", "name": "Ghiyas-ud-Din Tughlaq's Tomb", "name:hi": "\u0917\u093f\u092f\u093e\u0938\u0941\u0926\u094d\u0926\u0940\u0928 \u0924\u0941\u0917\u0932\u0915 \u0915\u093e \u092e\u0915\u092c\u0930\u093e", "tourism": "attraction", "wikidata": "Q1391172", "wikipedia": "en:Ghiyath al-Din Tughluq"}}, {"type": "way", "id": 102758346, "nodes": [1186826947, 1186826863, 1186826920, 1186826867, 1186826947], "tags": {"barrier": "wall", "historic": "monument", "name": "Ghiyas-ud-Din Tughlaq's Tomb", "name:hi": "\u0917\u093f\u092f\u093e\u0938\u0941\u0926\u094d\u0926\u0940\u0928 \u0924\u0941\u0917\u0932\u0915 \u0915\u093e \u092e\u0915\u092c\u0930\u093e", "wikidata": "Q1391172", "wikipedia": "en:Ghiyath al-Din Tughluq"}}, {"type": "way", "id": 155778863, "nodes": [1681413403, 1681413396, 1681413401, 1681413404, 1681413403], "tags": {"leisure": "park"}}, {"type": "way", "id": 204969698, "nodes": [2149472810, 4057963596, 2149472802, 2149472755, 2149472743, 2149472702, 2149472707, 2149472730, 2149472732, 2149472804, 2149472799, 2149472915, 2149472917, 2149472955, 2149472838, 4057963600, 2149472810], "tags": {"historic": "yes", "name": "Adilabad Fort", "name:hi": "\u0906\u0926\u093f\u0932\u093e\u092c\u093e\u0926 \u0915\u093f\u0932\u093e", "tourism": "attraction"}}, {"type": "way", "id": 221688672, "nodes": [2307253998, 2845364683, 11772104225, 562621327, 11766362709, 2845364679, 12254980069, 12254980071, 2307253998], "tags": {"name": "Eros Hotel", "tourism": "hotel"}}, {"type": "way", "id": 235625787, "nodes": [6256156998, 2436996268, 2436996269, 2436996271, 2436996272, 2436996273, 6573803751, 2436996275, 2436996276, 2436996277, 2436996278, 2436996280, 6256156998], "tags": {"barrier": "wall", "leisure": "park", "name": "District Park Sarita Vihar"}}, {"type": "way", "id": 237745099, "nodes": [2456221485, 2456221486, 2456221487, 2456221489, 2456221490, 2456221492, 2456221494, 2456221496, 2456221485], "tags": {"barrier": "wall", "leisure": "park"}}, {"type": "way", "id": 262082594, "nodes": [2677272918, 2677272940, 2677272936, 2677272920, 2677272927, 2677272943, 2677272918], "tags": {"leisure": "park"}}, {"type": "way", "id": 262090090, "nodes": [2677369553, 2677369597, 2677369551, 2677369595, 2677369553], "tags": {"barrier": "fence", "leisure": "park", "name": "Priyadarshani Indira Gandhi Park", "name:etymology:wikidata": "Q1149", "name:hi": "\u092a\u094d\u0930\u093f\u092f\u0926\u0930\u094d\u0936\u0928\u0940 \u0907\u0928\u094d\u0926\u093f\u0930\u093e \u0917\u093e\u0901\u0927\u0940 \u092a\u093e\u0930\u094d\u0915"}}, {"type": "way", "id": 262090091, "nodes": [2677369571, 2677369591, 2677369585, 2677369587, 2677369576, 2677369575, 2677369571], "tags": {"leisure": "park"}}, {"type": "way", "id": 262090092, "nodes": [2677369570, 2677215024, 2677256786, 2677369573, 2677369588, 2677369580, 2677369561, 2677272931, 2677272937, 2677272938, 2677272922, 2677272933, 2677369570], "tags": {"barrier": "wall", "leisure": "park"}}, {"type": "way", "id": 262097283, "nodes": [2677421758, 2677421775, 12942065050, 12942065052, 2677421758], "tags": {"leisure": "park"}}, {"type": "way", "id": 262097284, "nodes": [2677421756, 2677421794, 2677421793, 2677421783, 2677421768, 2677421788, 2677421779, 2677421777, 12942065048, 12942065059, 2677421756], "tags": {"leisure": "park"}}, {"type": "way", "id": 262097290, "nodes": [2677421757, 12942065046, 12942065058, 12942065047, 2677421764, 2677421757], "tags": {"leisure": "park"}}, {"type": "way", "id": 262248703, "nodes": [2679055782, 2679055792, 9855542087, 2679055801, 9860157381, 2679055808, 2679055794, 2679055782], "tags": {"leisure": "park"}}, {"type": "way", "id": 265732516, "nodes": [2713480565, 2713480553, 2713480562, 2713480564, 2713480565], "tags": {"amenity": "marketplace", "name": "Subzi Mandi"}}, {"type": "way", "id": 266074787, "nodes": [2716596151, 2716596255, 2716596261, 2716596107, 2716596112, 2716596106, 2716596121, 2716596256, 2716596181, 2716596143, 2716596200, 2716596110, 2716596086, 2716596154, 2716596219, 2716596083, 2716596203, 2716596156, 2716596303, 2716596234, 2716596120, 2716596089, 2716596307, 2716596213, 2716596111, 2716596225, 2716596295, 2716596116, 2716596202, 2716596305, 2716596151], "tags": {"leisure": "park"}}, {"type": "way", "id": 266074789, "nodes": [2716596144, 2716596172, 2716596102, 2716596140, 2716596093, 2716596096, 2716596238, 2716596162, 2716596165, 2716596097, 2716596085, 2716596144], "tags": {"barrier": "wall", "leisure": "park", "name": "Jasola District Park"}}, {"type": "way", "id": 266074807, "nodes": [2716596128, 2716596258, 2716596199, 2716596207, 2716596128], "tags": {"leisure": "park", "name": "Netaji Subhash Sports Complex"}}, {"type": "way", "id": 267842066, "nodes": [2732439256, 2732439252, 2732439253, 2732439254, 2732439258, 2732439257, 2732439259, 2732439256], "tags": {"barrier": "wall", "leisure": "park"}}, {"type": "way", "id": 276002131, "nodes": [13051305483, 2806477632, 2806477634, 13051305377, 13051305203, 13051305316, 2806477641, 2806477643, 2806477646, 13051305511, 13094304176, 2806477650, 13051305221, 13051305406, 13051305280, 2806477647, 2806477651, 2806477653, 2806477654, 13051305237, 2806477655, 13051305470, 2415850166, 2806477637, 2294862269, 13051305357, 13051305483], "tags": {"leisure": "park", "name": "Shri Maa Anandmayee Ashram Park"}}, {"type": "way", "id": 280415983, "nodes": [2845331069, 2845331067, 2845331065, 2845331064, 2845331066, 2845331071, 2845331073, 2845331070, 2845331075, 2845331074, 2845331069], "tags": {"barrier": "wall", "leisure": "park"}}, {"type": "way", "id": 283124994, "nodes": [2870403221, 6581163800, 6581163798, 2870403204, 2870403217, 12951486981, 2870403205, 2870403219, 2870403208, 2870403207, 2870403203, 2870403215, 2870403220, 2870403226, 6581163799, 2870403221], "tags": {"barrier": "wall", "leisure": "park", "name": "playfield"}}, {"type": "way", "id": 283124995, "nodes": [2870403251, 12951456981, 2870403249, 2870403258, 2870403260, 2870403262, 2870403263, 2870403264, 2870403285, 2870403282, 2870403274, 2870403259, 2870403251], "tags": {"barrier": "wall", "leisure": "park"}}, {"type": "way", "id": 283125012, "nodes": [2870403229, 2870403231, 2870403239, 2870403235, 2870403229], "tags": {"barrier": "wall", "leisure": "park", "name": "Fountain Park", "name:hi": "\u092b\u093e\u0909\u0902\u091f\u0947\u0928 \u092a\u093e\u0930\u094d\u0915"}}, {"type": "way", "id": 283125018, "nodes": [2870402985, 2870402987, 6558016517, 2870402997, 2870402994, 2870402985], "tags": {"barrier": "wall", "leisure": "park"}}, {"type": "way", "id": 283125029, "nodes": [2870403242, 2870403237, 2870403238, 2870403230, 2870403232, 2870403255, 2870403253, 2870403244, 2870403242], "tags": {"barrier": "wall", "leisure": "park"}}, {"type": "way", "id": 284820492, "nodes": [2885235620, 2885235618, 2885235616, 2885235610, 2885235615, 2885235612, 6567451526, 2885235613, 2885327297, 6567451511, 6567451510, 2885235641, 6567451508, 6567451504, 6567451507, 6567451506, 2885235640, 6567451505, 2885235633, 2885235631, 6567451534, 6567451535, 6567451536, 6567451538, 6567451539, 6567451537, 6567451530, 2885235630, 6567451531, 6567451528, 6567451540, 6567451527, 2885235620], "tags": {"leisure": "park", "name": "Sangam Vihar DDA Park"}}, {"type": "way", "id": 286523462, "nodes": [2902051943, 2902051949, 2902051948, 2902051940, 2902051938, 2902051943], "tags": {"barrier": "wall", "leisure": "park"}}, {"type": "way", "id": 286523464, "nodes": [2902051950, 2902051942, 2902051944, 2902051945, 2902051946, 2902051947, 2902051952, 2902051951, 2902051950], "tags": {"barrier": "wall", "leisure": "park"}}, {"type": "way", "id": 286523471, "nodes": [2902051941, 2902051937, 2902051936, 2902051935, 2902051932, 2902051933, 2902051934, 2902051939, 2902051941], "tags": {"barrier": "wall", "leisure": "park"}}, {"type": "way", "id": 332322719, "nodes": [3394398815, 3394398816, 3394398817, 11756896321, 3394398819, 3394398820, 3394398821, 3394398822, 3394398823, 11756896325, 11756896333, 3394398826, 3394398815], "tags": {"leisure": "park"}}, {"type": "way", "id": 332322722, "nodes": [1040993619, 1040992782, 1040992476, 1040993114, 1040993619], "tags": {"leisure": "park"}}, {"type": "way", "id": 333324254, "nodes": [3404446546, 3404446547, 3404446548, 3404446549, 3404446550, 3404446551, 3404446552, 3404446553, 3404446554, 3404446555, 3404446556, 3404446557, 3404446558, 3404446559, 3404446560, 3404446561, 3404446562, 1672070599, 3404446546], "tags": {"leisure": "park", "name": "Netaji Subhash Park", "name:etymology:wikidata": "Q2153"}}, {"type": "way", "id": 333726234, "nodes": [3408137903, 3408137904, 3408137905, 3408137906, 3408137903], "tags": {"leisure": "park"}}, {"type": "way", "id": 341461352, "nodes": [3486509712, 3486509713, 3486509714, 3486509715, 3486509712], "tags": {"leisure": "park"}}, {"type": "way", "id": 341461353, "nodes": [3486509716, 3486509717, 3486509718, 3486509719, 3486509716], "tags": {"leisure": "park"}}, {"type": "way", "id": 341461377, "nodes": [3486509755, 3486509756, 3486509757, 3486509758, 3486509759, 3486509760, 3486509761, 3486509762, 3486509755], "tags": {"leisure": "park"}}, {"type": "way", "id": 341461378, "nodes": [3486509763, 3486509764, 3486509765, 3486509766, 3486509767, 3486509763], "tags": {"leisure": "park"}}, {"type": "way", "id": 341461379, "nodes": [3486509767, 3486509766, 3486509768, 3486509769, 3486509770, 3486509767], "tags": {"leisure": "park"}}, {"type": "way", "id": 341461380, "nodes": [3486509771, 3486509772, 3486509773, 3486509774, 3486509775, 3486509777, 3486509776, 3486509771], "tags": {"leisure": "park", "name": "Central Park"}}, {"type": "way", "id": 341461388, "nodes": [3486511399, 3486511400, 3486511401, 3486511399], "tags": {"leisure": "park"}}, {"type": "way", "id": 341469001, "nodes": [3486577247, 3486577248, 3486577249, 3486577250, 3486577247], "tags": {"leisure": "park"}}, {"type": "way", "id": 341469002, "nodes": [3486577251, 3486577252, 3486577253, 3486577254, 3486577251], "tags": {"leisure": "park"}}, {"type": "way", "id": 341469003, "nodes": [3486577255, 3486577256, 3486577257, 3486577258, 3486577255], "tags": {"leisure": "park"}}, {"type": "way", "id": 341469004, "nodes": [3486577259, 3486577260, 3486577261, 3486577262, 3486577259], "tags": {"leisure": "park", "name": "Central Park"}}, {"type": "way", "id": 341469005, "nodes": [3486577263, 3486577264, 3486577265, 3486577266, 3486577267, 3486577268, 3486577263], "tags": {"leisure": "park", "name": "L Shape Park"}}, {"type": "way", "id": 341469890, "nodes": [3486581527, 3486581528, 3486581529, 3486581530, 3486581527], "tags": {"leisure": "park"}}, {"type": "way", "id": 341469891, "nodes": [3486581531, 3486581532, 3486581533, 3486581534, 3486581531], "tags": {"leisure": "park"}}, {"type": "way", "id": 341469892, "nodes": [3486581535, 3486581536, 3486581537, 3486581538, 3486581535], "tags": {"leisure": "park"}}, {"type": "way", "id": 454517225, "nodes": [4510708878, 4510708876, 4510708875, 4510708877, 4510708878], "tags": {"leisure": "park"}}, {"type": "way", "id": 461565336, "nodes": [4570365569, 4570365571, 4570365572, 4570365573, 4570365574, 4570365575, 4570366205, 4570365569], "tags": {"leisure": "park", "name": "Tughlakabad District Park"}}, {"type": "way", "id": 479138769, "nodes": [4722869736, 4722869737, 4722869738, 4722869720, 4722869721, 4722869722, 4722869723, 4722869724, 4722869725, 4722869732, 4722869733, 4722869734, 4722869735, 4722869726, 4722869727, 4722869728, 4722869729, 4722869730, 4722869731, 4722869736], "tags": {"leisure": "park"}}, {"type": "way", "id": 542448515, "nodes": [5244473248, 5244473250, 5244473251, 11782596268, 11782607379, 11782596206, 11782607465, 5244473253, 11782607461, 5244473254, 6020921014, 5244473248], "tags": {"leisure": "park", "name": "R-block park"}}, {"type": "way", "id": 648053885, "nodes": [6084886910, 6084886907, 6084886906, 6084886905, 6084886904, 6084886903, 6084886909, 6084886902, 6084886901, 6084886900, 6084886899, 6084886908, 6084886898, 6084886897, 6084886896, 6084886893, 6084886892, 6084886891, 6084886890, 6084886889, 6084886895, 6084886888, 6084886887, 6084886886, 6084886885, 6084885784, 6084886894, 6084885783, 6084885780, 6084885779, 6084885778, 6084885777, 6084885782, 6084885776, 6084885775, 6084885774, 6084886693, 6084886692, 6084885781, 6084886691, 6084886688, 6084886687, 6084886686, 6084886685, 6084885984, 6084886690, 6084885983, 6084885982, 6084885981, 6084885980, 6084886689, 6084885979, 6084885978, 6084885977, 6084885976, 6084885973, 6084885972, 6084885971, 6084885970, 6084885969, 6084885975, 6084885968, 6084885967, 6084885966, 6084885965, 6084885974, 6084885964, 6084885963, 6084885962, 6084885959, 6084885958, 6084885957, 6084885956, 6084885961, 6084885955, 6084885954, 6084885953, 6084885952, 6084885951, 6084885960, 6084885950, 6084885947, 6084885946, 6084885945, 6084885944, 6084885943, 6084885949, 6084885942, 6084885941, 6084885940, 6084885939, 6084885938, 6084885948, 6084885937, 6084885934, 6084885933, 6084885932, 6084885931, 6084885930, 6084885936, 6084885929, 6084885928, 6084885927, 6084885926, 6084885925, 6084885935, 6084885924, 6084885923, 6084885922, 6084885921, 6084885920, 6084885919, 6084885916, 6084885915, 6084885914, 6084885913, 6084885912, 6084885911, 6084885918, 6084885910, 6084885909, 6084885908, 6084885907, 6084885906, 6084885917, 6084885905, 6084885902, 6084885901, 6084885900, 6084885899, 6084885904, 6084885898, 6084885897, 6084885896, 6084885895, 6084885903, 6084885894, 6084886910], "tags": {"barrier": "city_wall", "historic": "fort", "name": "Adilabad Fort", "name:hi": "\u0906\u0926\u093f\u0932\u093e\u092c\u093e\u0926 \u0915\u093f\u0932\u093e"}}, {"type": "way", "id": 683561245, "nodes": [6402508995, 6402505569, 6402508988, 6402505573, 6402508994, 6402505574, 6402505567, 6402508995], "tags": {"leisure": "park"}}, {"type": "way", "id": 698208085, "nodes": [6557135654, 6557135655, 6557135656, 6557135657, 6557135658, 6557135659, 6557135660, 6557135654], "tags": {"leisure": "park"}}, {"type": "way", "id": 698208086, "nodes": [6557135661, 6557135662, 6557135663, 6557135664, 6557135665, 6557135666, 6557135661], "tags": {"leisure": "park"}}, {"type": "way", "id": 698251999, "nodes": [12151043955, 12151043956, 12151043958, 12151043957, 12151043955], "tags": {"access": "yes", "addr:city": "New Delhi", "addr:district": "South Delhi", "addr:housenumber": "B-75 okhla phase 2", "addr:postcode": "110020", "building": "industrial", "check_date": "31-08-2024", "description": "best park in okhla phase 2", "dog": "no", "email": "manishtundelkar199@gmail.com", "fax": "72777777822", "fixme": "unknown", "leisure": "park", "loc_name": "Raja Ram Tundelkar Ji Park", "mapillary": "unknown", "mobile": "7277777822", "name": "Raja Ram Tundelkar Ji Park", "nat_name": "Raja Ram Tundelkar Ji Park", "note": "best park in okhla phase 2", "official_name": "Raja Ram Tundelkar Ji Park", "opening_hours": "24/7", "phone": "7277777822", "reg_name": "Raja Ram Tundelkar Ji Park", "short_name": "Raja Ram Tundelkar Ji Park", "smoking": "no", "source": "streetlevel imagery;survey;aerial imagery;gps;local knowledge;osm notes", "start_date": "1978-08-12"}}, {"type": "way", "id": 698298768, "nodes": [6557965561, 6557965565, 12951486980, 6557965566, 6557965567, 6557965568, 6557965569, 6557965570, 6557965561], "tags": {"leisure": "park"}}, {"type": "way", "id": 699350689, "nodes": [6567258152, 6567258153, 6567258154, 6567258155, 6567258156, 6567258157, 6567258152], "tags": {"building": "yes", "historic": "city_gate", "name": "Khirki Gate"}}, {"type": "way", "id": 699365575, "nodes": [6567401934, 6567401935, 6567401938, 6567401936, 6567401937, 6567401939, 6567401934], "tags": {"bicycle": "no", "building": "yes", "historic": "city_gate", "name": "Hathi Gate", "name:hi": "\u0939\u093e\u0925\u0940 \u0926\u0930\u0935\u093e\u091c\u093c\u093e"}}, {"type": "way", "id": 699365576, "nodes": [6567401942, 6567401943, 6567401944, 6567401945, 6567401942], "tags": {"building": "yes", "historic": "city_gate"}}, {"type": "way", "id": 699365577, "nodes": [6567401946, 6567401947, 6567401948, 6567401949, 6567401946], "tags": {"bicycle": "no", "building": "yes", "historic": "city_gate", "name": "Dariba Gate"}}, {"type": "way", "id": 699365581, "nodes": [6567401972, 6567401973, 6567401974, 6567401975, 6567401976, 6567401977, 6567401978, 6567401979, 6567401980, 6567401981, 6567401982, 6567401983, 6567401984, 6567407785, 6084887701, 6084887691, 6084887687, 6084887690, 6084887689, 6084887380, 6567407786, 4057963569, 6567407787, 6567407788, 6567401972], "tags": {"leisure": "park", "name": "Kya Maya Park"}}, {"type": "way", "id": 700787129, "nodes": [6581163792, 6581163793, 6581163794, 6581163795, 6581163796, 6581163797, 6581163792], "tags": {"leisure": "park"}}, {"type": "way", "id": 718953327, "nodes": [6750512442, 6750512438, 6750512447, 6750512442], "tags": {"barrier": "fence", "leisure": "park"}}, {"type": "way", "id": 718953328, "nodes": [6750512433, 6750512440, 6750512436, 6750512433], "tags": {"barrier": "fence", "leisure": "park"}}, {"type": "way", "id": 750880707, "nodes": [7020241194, 7020241195, 7020241196, 11935286445, 11935286444, 11935286443, 11935286442, 9852278731, 7020241198, 7020241199, 7020241200, 7020241201, 2914353324, 2914353316, 2914353315, 2914353326, 2914353325, 7020241202, 7020241203, 7020241204, 2914353320, 2914353309, 1815960906, 7020241205, 7020241194], "tags": {"addr:city": "New Delhi", "addr:postcode": "110044", "addr:street": "Railway Colony, Tughlakabad", "leisure": "park", "name": "DDA Park", "operator": "Delhi Devloppment Authority"}}, {"type": "way", "id": 752918526, "nodes": [7035274195, 7035274198, 7035274197, 7035274199, 7035274195], "tags": {"leisure": "park"}}, {"type": "way", "id": 753357957, "nodes": [2629742839, 2630762370, 7039026979, 2677145316, 2677145301, 7039026980, 2677145285, 7039026981, 2679055782, 2679055792, 9855542092, 1801023470, 2679055813, 2679055780, 2629742839], "tags": {"leisure": "park"}}, {"type": "way", "id": 756567986, "nodes": [7066449806, 7066449796, 7066449792, 7066449804, 7066449806], "tags": {"leisure": "park"}}, {"type": "way", "id": 757051158, "nodes": [7070262940, 7070262941, 7070262942, 7070262943, 7070262940], "tags": {"leisure": "park"}}, {"type": "way", "id": 757051159, "nodes": [7070262944, 7070262945, 7070262946, 7070262947, 7070262944], "tags": {"leisure": "park"}}, {"type": "way", "id": 757051160, "nodes": [7070262948, 7070262949, 7070262950, 7070262951, 7070262948], "tags": {"leisure": "park"}}, {"type": "way", "id": 757051162, "nodes": [7070262958, 7070262959, 7070262960, 7070262961, 7070262958], "tags": {"leisure": "park"}}, {"type": "way", "id": 757051163, "nodes": [7070262962, 7070262963, 7070262964, 7070262965, 7070262962], "tags": {"leisure": "park"}}, {"type": "way", "id": 757051164, "nodes": [7070262966, 7070262967, 7070262968, 7070262969, 7070262966], "tags": {"leisure": "park"}}, {"type": "way", "id": 757051174, "nodes": [7070263050, 7070263051, 7070263052, 7070263053, 7070263054, 7070263055, 7070263056, 7070263057, 7070263058, 7070263059, 7070263060, 7070263061, 7070263062, 7070263063, 7070263050], "tags": {"leisure": "park"}}, {"type": "way", "id": 757051176, "nodes": [7070263072, 7070263073, 7070263074, 7070263075, 7070263072], "tags": {"leisure": "park"}}, {"type": "way", "id": 785104402, "nodes": [7335130814, 7335130815, 7335130816, 7335130817, 7335130814], "tags": {"leisure": "park", "name": "Kala Park", "operator": "South Delhi Municipal Corporation"}}, {"type": "way", "id": 818062057, "nodes": [7640317814, 7640317815, 7640317816, 7640317817, 11985356772, 7640317818, 7640317819, 11985356780, 7640317814], "tags": {"leisure": "park"}}, {"type": "way", "id": 818062058, "nodes": [7640317820, 7640317821, 7640317822, 7640317823, 7640317824, 7640317825, 7640317820], "tags": {"leisure": "park"}}, {"type": "way", "id": 818062059, "nodes": [7640317826, 7640317827, 7640317828, 7640317829, 7640317826], "tags": {"leisure": "park"}}, {"type": "way", "id": 818062062, "nodes": [7640317834, 7640317835, 7640317836, 7640317837, 7640317838, 7640317834], "tags": {"leisure": "park"}}, {"type": "way", "id": 818062063, "nodes": [7640317839, 7640317840, 7640317841, 7640317842, 7640317843, 7640317839], "tags": {"leisure": "park"}}, {"type": "way", "id": 818062064, "nodes": [6395457253, 7640317849, 7640317850, 7640317851, 6395457253], "tags": {"leisure": "park", "name": "G Block Park"}}, {"type": "way", "id": 818062065, "nodes": [7640317853, 7640317854, 7640317855, 7640317856, 7640317857, 7640317853], "tags": {"leisure": "park"}}, {"type": "way", "id": 818062066, "nodes": [7640317859, 7640317860, 7640317861, 7640317862, 7640317863, 7640317864, 7640317865, 7640317866, 7640317867, 7640317868, 7640317859], "tags": {"leisure": "park"}}, {"type": "way", "id": 818062067, "nodes": [7640317869, 7640317870, 7640317871, 7640317872, 7640317869], "tags": {"leisure": "park"}}, {"type": "way", "id": 818074707, "nodes": [7640415201, 7640415202, 7640415203, 7640415204, 7640415205, 7640415206, 7640415207, 7640415208, 7640415201], "tags": {"leisure": "park"}}, {"type": "way", "id": 818074708, "nodes": [7640415209, 7640415210, 7640415211, 7640415212, 7640415213, 7640415214, 7640415209], "tags": {"leisure": "park"}}, {"type": "way", "id": 818074709, "nodes": [7640415215, 7640415216, 7640415217, 7640415218, 7640415219, 7640415220, 7640415221, 7640415222, 7640415223, 7640415224, 7640415215], "tags": {"leisure": "park"}}, {"type": "way", "id": 818074710, "nodes": [7640415225, 7640415226, 7640415227, 7640415228, 7640415229, 7640415230, 7640415231, 7640415232, 7640415233, 7640415234, 7640415225], "tags": {"leisure": "park"}}, {"type": "way", "id": 818074711, "nodes": [7640415236, 7640415237, 7640415238, 7640415239, 7640415240, 7640415241, 7640415236], "tags": {"leisure": "park"}}, {"type": "way", "id": 845698510, "nodes": [7890137288, 7890137289, 1040993482, 1040992133, 7890137288], "tags": {"description": "Maintained by I Block RWA for its residents.", "leisure": "park", "name": "I Block Park, Chittaranjan Park"}}, {"type": "way", "id": 1074415658, "nodes": [9854982948, 9854982949, 9854982950, 9854982951, 9854982952, 9854982953, 9854982954, 9854982948], "tags": {"leisure": "park", "name": "park"}}, {"type": "way", "id": 1074445605, "nodes": [9855195747, 9855195748, 9855195749, 9855195750, 9855195751, 9855195752, 9855195753, 9855195747], "tags": {"leisure": "park", "name": "Research and Development Block Park"}}, {"type": "way", "id": 1074445606, "nodes": [9855195754, 12613525311, 9855195755, 9855195756, 9855195757, 9855195754], "tags": {"leisure": "park", "name": "park academic block"}}, {"type": "way", "id": 1090081321, "nodes": [9985113236, 9985113235, 9985113241, 9985113234, 9985113239, 9985113240, 9985113237, 9985113238, 9985113236], "tags": {"leisure": "park"}}, {"type": "way", "id": 1149815829, "nodes": [10696380624, 10696380623, 10696380622, 10696380621, 10696380624], "tags": {"leisure": "park", "name": "Cultural park"}}, {"type": "way", "id": 1149815830, "nodes": [10696380628, 10696380627, 10696380626, 10696380625, 10696380628], "tags": {"dog": "no", "leisure": "park"}}, {"type": "way", "id": 1195989500, "nodes": [11098788638, 11098788639, 11098788640, 11098788641, 11098788642, 11098788643, 11098788638], "tags": {"barrier": "fence", "leisure": "park"}}, {"type": "way", "id": 1213749026, "nodes": [11244995820, 11244995819, 11244995818, 11244995817, 11244995820], "tags": {"leisure": "park"}}, {"type": "way", "id": 1213749027, "nodes": [11244995825, 11244995824, 11244995823, 11244995822, 11244995821, 11244995825], "tags": {"leisure": "park"}}, {"type": "way", "id": 1213749028, "nodes": [11244995829, 11244995828, 11244995827, 11244995826, 11244995829], "tags": {"leisure": "park"}}, {"type": "way", "id": 1213749029, "nodes": [11244995835, 11244995834, 11244995833, 11244995832, 11244995831, 11244995830, 11244995835], "tags": {"leisure": "park"}}, {"type": "way", "id": 1213749030, "nodes": [11245004340, 11245004339, 11245004338, 11245004337, 11244995836, 11245004340], "tags": {"leisure": "park"}}, {"type": "way", "id": 1213749031, "nodes": [11245004344, 11245004343, 11245004342, 11245004341, 11245004344], "tags": {"leisure": "park"}}, {"type": "way", "id": 1213749032, "nodes": [11245004349, 11245004348, 11245004347, 11245004346, 11245004345, 11245004349], "tags": {"leisure": "park"}}, {"type": "way", "id": 1257178105, "nodes": [11688059890, 11688059891, 11688059892, 11688059893, 939241593, 939241663, 939241539, 11688059890], "tags": {"leisure": "park", "name": "DDA park"}}, {"type": "way", "id": 1262085425, "nodes": [11726626411, 11782711731, 11726626409, 11782711766, 11726626412, 11726626410, 11782740872, 11726626411], "tags": {"barrier": "wall", "leisure": "park"}}, {"type": "way", "id": 1265675756, "nodes": [11756892132, 11756892129, 11756892088, 11756892133, 11756892148, 11756892082, 11756892155, 11756892132], "tags": {"leisure": "park"}}, {"type": "way", "id": 1265675761, "nodes": [11756751159, 11756751164, 11756892112, 11756892086, 11756751149, 11756751159], "tags": {"leisure": "park"}}, {"type": "way", "id": 1265675762, "nodes": [11756751165, 11756751160, 11756892139, 11756892153, 11756892144, 11756751161, 11756751150, 11756892156, 11756751165], "tags": {"leisure": "park"}}, {"type": "way", "id": 1265675763, "nodes": [11756751151, 11756892098, 11756751156, 11756892108, 11756892135, 11756892071, 11756892150, 11756892093, 11756892103, 11756751163, 11756892075, 11756892116, 11756892107, 11756892083, 11756892142, 11756892115, 11756892070, 11756751151], "tags": {"leisure": "park"}}, {"type": "way", "id": 1265675768, "nodes": [11756892126, 11756892114, 11756892124, 11756892113, 11756892151, 11756751162, 11756892154, 11756751152, 11756892126], "tags": {"leisure": "park"}}, {"type": "way", "id": 1266908954, "nodes": [11767167767, 11767219090, 11767167739, 11767219101, 11767167767], "tags": {"leisure": "park"}}, {"type": "way", "id": 1290054461, "nodes": [11961157498, 11961157496, 2677145290, 2677145287, 2677145297, 11961157499, 11961157500, 11961157497, 11961157498], "tags": {"leisure": "park"}}, {"type": "way", "id": 1380340904, "nodes": [12779112188, 12779138904, 12779138901, 12779112195, 12779112187, 12779112181, 12779112188], "tags": {"dog": "no", "leisure": "park", "name": "Yoga Park"}}, {"type": "way", "id": 1380340907, "nodes": [12779112189, 12779138909, 12779138914, 12779112185, 12779112189], "tags": {"leisure": "park"}}, {"type": "way", "id": 1380340910, "nodes": [12779112192, 12779138906, 12779138913, 12779138911, 12779112192], "tags": {"leisure": "park", "name": "Vista Park"}}, {"type": "way", "id": 1421107906, "nodes": [13059347144, 13059347145, 13059347146, 13059347147, 13059347144], "tags": {"leisure": "park"}}, {"type": "way", "id": 1421107979, "nodes": [13059345552, 13059345553, 13059345554, 13059345555, 13059345552], "tags": {"leisure": "park"}}, {"type": "way", "id": 1424598801, "nodes": [13094401714, 13094401711, 13094401708, 13094348592, 13094348589, 13094401701, 13094401706, 13094348590, 13094401702, 13096167385, 13094348598, 13094348588, 13094401714], "tags": {"amenity": "marketplace", "opening_hours": "Mo-Su 16:00-24:00"}}, {"type": "way", "id": 1424773294, "nodes": [13094387397, 13096167383, 13096167386, 13096167351, 13094387397], "tags": {"leisure": "park", "name": "G-Block Harkesh Nagar Park"}}, {"type": "node", "id": 2885235610, "lat": 28.5094005, "lon": 77.2438583}, {"type": "node", "id": 2885235612, "lat": 28.509259, "lon": 77.2441609}, {"type": "node", "id": 2885235613, "lat": 28.5092854, "lon": 77.2449691}, {"type": "node", "id": 2885235615, "lat": 28.5092821, "lon": 77.2438573}, {"type": "node", "id": 2885235616, "lat": 28.5095027, "lon": 77.2438706}, {"type": "node", "id": 2885235618, "lat": 28.5096514, "lon": 77.2438898}, {"type": "node", "id": 2885235620, "lat": 28.509759, "lon": 77.2438977}, {"type": "node", "id": 2885235630, "lat": 28.5107079, "lon": 77.243347}, {"type": "node", "id": 2885235631, "lat": 28.51123, "lon": 77.2438303}, {"type": "node", "id": 2885235633, "lat": 28.5112848, "lon": 77.2435903}, {"type": "node", "id": 2885327297, "lat": 28.5093756, "lon": 77.2449888}, {"type": "node", "id": 6567451510, "lat": 28.5112183, "lon": 77.245586}, {"type": "node", "id": 6567451511, "lat": 28.5106223, "lon": 77.2453948}, {"type": "node", "id": 6567451526, "lat": 28.5092804, "lon": 77.2445113}, {"type": "node", "id": 6567451527, "lat": 28.5098324, "lon": 77.243565}, {"type": "node", "id": 6567451528, "lat": 28.5103919, "lon": 77.2432493}, {"type": "node", "id": 6567451530, "lat": 28.5107856, "lon": 77.2433738}, {"type": "node", "id": 6567451531, "lat": 28.5106902, "lon": 77.243333}, {"type": "node", "id": 6567451534, "lat": 28.5112099, "lon": 77.2441026}, {"type": "node", "id": 6567451535, "lat": 28.511048, "lon": 77.2442872}, {"type": "node", "id": 6567451536, "lat": 28.5109649, "lon": 77.244212}, {"type": "node", "id": 6567451537, "lat": 28.5106949, "lon": 77.243933}, {"type": "node", "id": 6567451538, "lat": 28.5108729, "lon": 77.2441224}, {"type": "node", "id": 6567451539, "lat": 28.5107769, "lon": 77.2440371}, {"type": "node", "id": 6567451540, "lat": 28.5099143, "lon": 77.2431283}, {"type": "node", "id": 2149472743, "lat": 28.5045997, "lon": 77.2664389}, {"type": "node", "id": 1185897542, "lat": 28.5110656, "lon": 77.2626931}, {"type": "node", "id": 1185897547, "lat": 28.5112091, "lon": 77.2648436}, {"type": "node", "id": 1185897555, "lat": 28.5102148, "lon": 77.2640657}, {"type": "node", "id": 1185897560, "lat": 28.5107927, "lon": 77.26321}, {"type": "node", "id": 1185897564, "lat": 28.5101899, "lon": 77.2636839}, {"type": "node", "id": 1185897569, "lat": 28.5112782, "lon": 77.2625968}, {"type": "node", "id": 1185897575, "lat": 28.5109357, "lon": 77.2630333}, {"type": "node", "id": 1185897577, "lat": 28.5109605, "lon": 77.2646668}, {"type": "node", "id": 1185897580, "lat": 28.511091, "lon": 77.2651548}, {"type": "node", "id": 1185897582, "lat": 28.5101092, "lon": 77.2640092}, {"type": "node", "id": 1185897588, "lat": 28.5105131, "lon": 77.2644123}, {"type": "node", "id": 1185897592, "lat": 28.5103018, "lon": 77.2635636}, {"type": "node", "id": 1185897597, "lat": 28.5099787, "lon": 77.2637334}, {"type": "node", "id": 1185897601, "lat": 28.5111087, "lon": 77.2628275}, {"type": "node", "id": 1185897611, "lat": 28.5111159, "lon": 77.2649851}, {"type": "node", "id": 1185897615, "lat": 28.5113396, "lon": 77.2649921}, {"type": "node", "id": 1185897617, "lat": 28.5103826, "lon": 77.2642637}, {"type": "node", "id": 1185897621, "lat": 28.5105069, "lon": 77.2646951}, {"type": "node", "id": 1185897625, "lat": 28.5100657, "lon": 77.2636556}, {"type": "node", "id": 1185897634, "lat": 28.5108238, "lon": 77.2629908}, {"type": "node", "id": 1185897645, "lat": 28.5112215, "lon": 77.2651831}, {"type": "node", "id": 1185897662, "lat": 28.5104323, "lon": 77.264582}, {"type": "node", "id": 1185897672, "lat": 28.5107617, "lon": 77.2630828}, {"type": "node", "id": 1185897680, "lat": 28.5099352, "lon": 77.2638748}, {"type": "node", "id": 1185897700, "lat": 28.5107989, "lon": 77.2645466}, {"type": "node", "id": 1185897709, "lat": 28.5099973, "lon": 77.2639738}, {"type": "node", "id": 1185897718, "lat": 28.5106498, "lon": 77.2647022}, {"type": "node", "id": 1185897725, "lat": 28.5104882, "lon": 77.2634293}, {"type": "node", "id": 1186823686, "lat": 28.5110256, "lon": 77.2634798}, {"type": "node", "id": 1186823702, "lat": 28.5110266, "lon": 77.2634271}, {"type": "node", "id": 1186826848, "lat": 28.5090102, "lon": 77.2617555}, {"type": "node", "id": 1186826849, "lat": 28.5090865, "lon": 77.261321}, {"type": "node", "id": 1186826851, "lat": 28.5093411, "lon": 77.2608612}, {"type": "node", "id": 1186826852, "lat": 28.509182, "lon": 77.2612232}, {"type": "node", "id": 1186826855, "lat": 28.5095956, "lon": 77.261397}, {"type": "node", "id": 1186826856, "lat": 28.509637, "lon": 77.2614007}, {"type": "node", "id": 1186826858, "lat": 28.5092584, "lon": 77.2616541}, {"type": "node", "id": 1186826862, "lat": 28.5089243, "lon": 77.2617084}, {"type": "node", "id": 1186826863, "lat": 28.5092551, "lon": 77.261212}, {"type": "node", "id": 1186826865, "lat": 28.5091374, "lon": 77.261636}, {"type": "node", "id": 1186826867, "lat": 28.5094395, "lon": 77.2613963}, {"type": "node", "id": 1186826868, "lat": 28.5091343, "lon": 77.2612993}, {"type": "node", "id": 1186826870, "lat": 28.509042, "lon": 77.2613826}, {"type": "node", "id": 1186826872, "lat": 28.5092838, "lon": 77.2610929}, {"type": "node", "id": 1186826883, "lat": 28.5095288, "lon": 77.2611581}, {"type": "node", "id": 1186826884, "lat": 28.5095733, "lon": 77.2613645}, {"type": "node", "id": 1186826885, "lat": 28.5096274, "lon": 77.2612957}, {"type": "node", "id": 1186826887, "lat": 28.509217, "lon": 77.261636}, {"type": "node", "id": 1186826889, "lat": 28.5093411, "lon": 77.2616614}, {"type": "node", "id": 1186826900, "lat": 28.5090452, "lon": 77.2616396}, {"type": "node", "id": 1186826903, "lat": 28.5090134, "lon": 77.2612993}, {"type": "node", "id": 1186826904, "lat": 28.5090165, "lon": 77.2613463}, {"type": "node", "id": 1186826905, "lat": 28.5093729, "lon": 77.2608358}, {"type": "node", "id": 1186826906, "lat": 28.5095892, "lon": 77.2612884}, {"type": "node", "id": 1186826907, "lat": 28.5096783, "lon": 77.2613246}, {"type": "node", "id": 1186826915, "lat": 28.5092997, "lon": 77.2617301}, {"type": "node", "id": 1186826917, "lat": 28.5093474, "lon": 77.261712}, {"type": "node", "id": 1186826920, "lat": 28.5092683, "lon": 77.261411}, {"type": "node", "id": 1186826922, "lat": 28.5089306, "lon": 77.2616432}, {"type": "node", "id": 1186826924, "lat": 28.5090515, "lon": 77.2612848}, {"type": "node", "id": 1186826925, "lat": 28.5090261, "lon": 77.2615129}, {"type": "node", "id": 1186826927, "lat": 28.5094079, "lon": 77.2608467}, {"type": "node", "id": 1186826928, "lat": 28.5093697, "lon": 77.261006}, {"type": "node", "id": 1186826932, "lat": 28.5094302, "lon": 77.2608793}, {"type": "node", "id": 1186826935, "lat": 28.5094302, "lon": 77.2609698}, {"type": "node", "id": 1186826936, "lat": 28.5094767, "lon": 77.2614592}, {"type": "node", "id": 1186826937, "lat": 28.5092584, "lon": 77.2617048}, {"type": "node", "id": 1186826938, "lat": 28.5093793, "lon": 77.2615491}, {"type": "node", "id": 1186826939, "lat": 28.5089815, "lon": 77.2616107}, {"type": "node", "id": 1186826941, "lat": 28.5090388, "lon": 77.2616976}, {"type": "node", "id": 1186826942, "lat": 28.509077, "lon": 77.2613862}, {"type": "node", "id": 1186826943, "lat": 28.5093411, "lon": 77.2609046}, {"type": "node", "id": 1186826944, "lat": 28.5093729, "lon": 77.2609517}, {"type": "node", "id": 1186826946, "lat": 28.509462, "lon": 77.2610422}, {"type": "node", "id": 1186826947, "lat": 28.5094263, "lon": 77.2611973}, {"type": "node", "id": 1186826949, "lat": 28.5096783, "lon": 77.2613789}, {"type": "node", "id": 1186826950, "lat": 28.509427, "lon": 77.2609227}, {"type": "node", "id": 1186826951, "lat": 28.5093061, "lon": 77.2616288}, {"type": "node", "id": 1186826952, "lat": 28.5089593, "lon": 77.2617483}, {"type": "node", "id": 1507488733, "lat": 28.5111558, "lon": 77.262577}, {"type": "node", "id": 2149472755, "lat": 28.5049079, "lon": 77.2653816}, {"type": "node", "id": 2149472802, "lat": 28.5056711, "lon": 77.2653654}, {"type": "node", "id": 2149472810, "lat": 28.5058891, "lon": 77.2657161}, {"type": "node", "id": 2149472838, "lat": 28.5065385, "lon": 77.2662015}, {"type": "node", "id": 4057963596, "lat": 28.5057757, "lon": 77.2655495}, {"type": "node", "id": 4057963600, "lat": 28.5061651, "lon": 77.2659224}, {"type": "node", "id": 4570365569, "lat": 28.5090948, "lon": 77.2662281}, {"type": "node", "id": 4570366205, "lat": 28.5089423, "lon": 77.2667697}, {"type": "node", "id": 6084885784, "lat": 28.5050394, "lon": 77.2668534}, {"type": "node", "id": 6084885894, "lat": 28.5054252, "lon": 77.2665721}, {"type": "node", "id": 6084885895, "lat": 28.5055785, "lon": 77.2668045}, {"type": "node", "id": 6084885896, "lat": 28.5055959, "lon": 77.266796}, {"type": "node", "id": 6084885897, "lat": 28.5056147, "lon": 77.2667941}, {"type": "node", "id": 6084885898, "lat": 28.5056332, "lon": 77.2667991}, {"type": "node", "id": 6084885899, "lat": 28.5056614, "lon": 77.266827}, {"type": "node", "id": 6084885900, "lat": 28.5056684, "lon": 77.2668471}, {"type": "node", "id": 6084885901, "lat": 28.5056694, "lon": 77.2668686}, {"type": "node", "id": 6084885902, "lat": 28.5056644, "lon": 77.2668894}, {"type": "node", "id": 6084885903, "lat": 28.5055643, "lon": 77.2668189}, {"type": "node", "id": 6084885904, "lat": 28.5056493, "lon": 77.2668105}, {"type": "node", "id": 6084885905, "lat": 28.5056539, "lon": 77.2669074}, {"type": "node", "id": 6084885908, "lat": 28.5058906, "lon": 77.2669348}, {"type": "node", "id": 6084885909, "lat": 28.5059164, "lon": 77.2669262}, {"type": "node", "id": 6084885910, "lat": 28.5059433, "lon": 77.2669275}, {"type": "node", "id": 6084885918, "lat": 28.5059684, "lon": 77.2669387}, {"type": "node", "id": 6084886885, "lat": 28.5050261, "lon": 77.266842}, {"type": "node", "id": 6084886886, "lat": 28.5050168, "lon": 77.2668263}, {"type": "node", "id": 6084886887, "lat": 28.5050126, "lon": 77.266808}, {"type": "node", "id": 6084886888, "lat": 28.5050139, "lon": 77.2667892}, {"type": "node", "id": 6084886889, "lat": 28.5050319, "lon": 77.266758}, {"type": "node", "id": 6084886890, "lat": 28.5050466, "lon": 77.2667492}, {"type": "node", "id": 6084886891, "lat": 28.505063, "lon": 77.2667463}, {"type": "node", "id": 6084886892, "lat": 28.5050793, "lon": 77.2667497}, {"type": "node", "id": 6084886893, "lat": 28.5050937, "lon": 77.2667591}, {"type": "node", "id": 6084886894, "lat": 28.5050552, "lon": 77.2668591}, {"type": "node", "id": 6084886895, "lat": 28.5050206, "lon": 77.2667719}, {"type": "node", "id": 6084886896, "lat": 28.5051047, "lon": 77.2667733}, {"type": "node", "id": 6084886897, "lat": 28.5051495, "lon": 77.2666982}, {"type": "node", "id": 6084886898, "lat": 28.5052744, "lon": 77.2665721}, {"type": "node", "id": 6084886899, "lat": 28.5052498, "lon": 77.2663821}, {"type": "node", "id": 6084886900, "lat": 28.5052634, "lon": 77.2663426}, {"type": "node", "id": 6084886901, "lat": 28.5052877, "lon": 77.2663104}, {"type": "node", "id": 6084886902, "lat": 28.5053201, "lon": 77.2662893}, {"type": "node", "id": 6084886903, "lat": 28.5053937, "lon": 77.2662882}, {"type": "node", "id": 6084886904, "lat": 28.5054265, "lon": 77.2663084}, {"type": "node", "id": 6084886905, "lat": 28.5054517, "lon": 77.2663398}, {"type": "node", "id": 6084886906, "lat": 28.5054662, "lon": 77.2663789}, {"type": "node", "id": 6084886907, "lat": 28.5054685, "lon": 77.2664213}, {"type": "node", "id": 6084886908, "lat": 28.5052485, "lon": 77.2664246}, {"type": "node", "id": 6084886909, "lat": 28.5053568, "lon": 77.2662816}, {"type": "node", "id": 6084886910, "lat": 28.5054582, "lon": 77.2664621}, {"type": "node", "id": 10958855690, "lat": 28.5104187, "lon": 77.2634793}, {"type": "node", "id": 10958855695, "lat": 28.5105671, "lon": 77.2633724}, {"type": "node", "id": 10958868707, "lat": 28.5110262, "lon": 77.2634513}, {"type": "node", "id": 2149472702, "lat": 28.5038697, "lon": 77.2675987}, {"type": "node", "id": 2149472707, "lat": 28.5040356, "lon": 77.2687422}, {"type": "node", "id": 2149472730, "lat": 28.5044291, "lon": 77.2695622}, {"type": "node", "id": 2149472732, "lat": 28.5045381, "lon": 77.2705763}, {"type": "node", "id": 6084885984, "lat": 28.5048908, "lon": 77.2676184}, {"type": "node", "id": 6084886690, "lat": 28.5048908, "lon": 77.2676421}, {"type": "node", "id": 2149472799, "lat": 28.5056663, "lon": 77.2703174}, {"type": "node", "id": 2149472804, "lat": 28.5056711, "lon": 77.2706464}, {"type": "node", "id": 2149472915, "lat": 28.5076098, "lon": 77.2705871}, {"type": "node", "id": 2149472917, "lat": 28.5076762, "lon": 77.2692547}, {"type": "node", "id": 2149472955, "lat": 28.5083493, "lon": 77.2670161}, {"type": "node", "id": 4057963569, "lat": 28.5052053, "lon": 77.2694226}, {"type": "node", "id": 4570365571, "lat": 28.5104249, "lon": 77.2670384}, {"type": "node", "id": 4570365572, "lat": 28.5097811, "lon": 77.2693115}, {"type": "node", "id": 4570365573, "lat": 28.5090804, "lon": 77.2698462}, {"type": "node", "id": 4570365574, "lat": 28.5086227, "lon": 77.2694775}, {"type": "node", "id": 4570365575, "lat": 28.5082019, "lon": 77.2693983}, {"type": "node", "id": 6084885774, "lat": 28.5049549, "lon": 77.2671751}, {"type": "node", "id": 6084885775, "lat": 28.5049462, "lon": 77.2671584}, {"type": "node", "id": 6084885776, "lat": 28.504943, "lon": 77.2671394}, {"type": "node", "id": 6084885777, "lat": 28.5049535, "lon": 77.2671032}, {"type": "node", "id": 6084885778, "lat": 28.5049661, "lon": 77.2670902}, {"type": "node", "id": 6084885779, "lat": 28.5049818, "lon": 77.2670827}, {"type": "node", "id": 6084885780, "lat": 28.5049988, "lon": 77.2670816}, {"type": "node", "id": 6084885781, "lat": 28.505001, "lon": 77.2671944}, {"type": "node", "id": 6084885782, "lat": 28.5049455, "lon": 77.2671203}, {"type": "node", "id": 6084885783, "lat": 28.5050151, "lon": 77.2670871}, {"type": "node", "id": 6084885906, "lat": 28.5058527, "lon": 77.2669773}, {"type": "node", "id": 6084885907, "lat": 28.5058685, "lon": 77.2669525}, {"type": "node", "id": 6084885911, "lat": 28.505989, "lon": 77.2669585}, {"type": "node", "id": 6084885912, "lat": 28.5060029, "lon": 77.2669848}, {"type": "node", "id": 6084885913, "lat": 28.5060086, "lon": 77.2670147}, {"type": "node", "id": 6084885914, "lat": 28.5060054, "lon": 77.2670452}, {"type": "node", "id": 6084885915, "lat": 28.5059938, "lon": 77.2670728}, {"type": "node", "id": 6084885916, "lat": 28.5059749, "lon": 77.2670948}, {"type": "node", "id": 6084885917, "lat": 28.5058448, "lon": 77.2670066}, {"type": "node", "id": 6084885919, "lat": 28.5059509, "lon": 77.2671086}, {"type": "node", "id": 6084885920, "lat": 28.5060027, "lon": 77.2673285}, {"type": "node", "id": 6084885921, "lat": 28.5060829, "lon": 77.2673097}, {"type": "node", "id": 6084885922, "lat": 28.5062879, "lon": 77.2673553}, {"type": "node", "id": 6084885923, "lat": 28.5062054, "lon": 77.2678381}, {"type": "node", "id": 6084885924, "lat": 28.5060263, "lon": 77.2677979}, {"type": "node", "id": 6084885925, "lat": 28.5060108, "lon": 77.2680824}, {"type": "node", "id": 6084885926, "lat": 28.5060377, "lon": 77.2680958}, {"type": "node", "id": 6084885927, "lat": 28.5060594, "lon": 77.2681184}, {"type": "node", "id": 6084885928, "lat": 28.5060736, "lon": 77.2681477}, {"type": "node", "id": 6084885929, "lat": 28.5060787, "lon": 77.2681806}, {"type": "node", "id": 6084885930, "lat": 28.5060606, "lon": 77.2682434}, {"type": "node", "id": 6084885931, "lat": 28.5060393, "lon": 77.2682665}, {"type": "node", "id": 6084885932, "lat": 28.5060126, "lon": 77.2682805}, {"type": "node", "id": 6084885933, "lat": 28.5059834, "lon": 77.2682841}, {"type": "node", "id": 6084885934, "lat": 28.5059547, "lon": 77.2682767}, {"type": "node", "id": 6084885935, "lat": 28.5059815, "lon": 77.2680795}, {"type": "node", "id": 6084885936, "lat": 28.5060742, "lon": 77.2682137}, {"type": "node", "id": 6084885937, "lat": 28.5059297, "lon": 77.2682592}, {"type": "node", "id": 6084885938, "lat": 28.5058188, "lon": 77.2686537}, {"type": "node", "id": 6084885939, "lat": 28.5058338, "lon": 77.2686771}, {"type": "node", "id": 6084885940, "lat": 28.5058409, "lon": 77.268705}, {"type": "node", "id": 6084885941, "lat": 28.5058393, "lon": 77.2687339}, {"type": "node", "id": 6084885942, "lat": 28.5058292, "lon": 77.2687606}, {"type": "node", "id": 6084885943, "lat": 28.505789, "lon": 77.2687949}, {"type": "node", "id": 6084885944, "lat": 28.5057637, "lon": 77.2687985}, {"type": "node", "id": 6084885945, "lat": 28.5057388, "lon": 77.2687921}, {"type": "node", "id": 6084885946, "lat": 28.5057173, "lon": 77.2687765}, {"type": "node", "id": 6084885947, "lat": 28.5057018, "lon": 77.2687535}, {"type": "node", "id": 6084885948, "lat": 28.5057977, "lon": 77.2686374}, {"type": "node", "id": 6084885949, "lat": 28.5058117, "lon": 77.2687817}, {"type": "node", "id": 6084885950, "lat": 28.5056939, "lon": 77.2687259}, {"type": "node", "id": 6084885951, "lat": 28.5053808, "lon": 77.2687893}, {"type": "node", "id": 6084885952, "lat": 28.5053747, "lon": 77.2688114}, {"type": "node", "id": 6084885953, "lat": 28.5053627, "lon": 77.2688302}, {"type": "node", "id": 6084885954, "lat": 28.5053462, "lon": 77.2688437}, {"type": "node", "id": 6084885955, "lat": 28.5053268, "lon": 77.2688506}, {"type": "node", "id": 6084885956, "lat": 28.5052872, "lon": 77.2688425}, {"type": "node", "id": 6084885957, "lat": 28.5052711, "lon": 77.2688283}, {"type": "node", "id": 6084885958, "lat": 28.5052598, "lon": 77.268809}, {"type": "node", "id": 6084885959, "lat": 28.5052544, "lon": 77.2687866}, {"type": "node", "id": 6084885960, "lat": 28.5053805, "lon": 77.2687662}, {"type": "node", "id": 6084885961, "lat": 28.5053064, "lon": 77.2688502}, {"type": "node", "id": 6084885962, "lat": 28.5052555, "lon": 77.2687635}, {"type": "node", "id": 6084885963, "lat": 28.505265, "lon": 77.2686776}, {"type": "node", "id": 6084885964, "lat": 28.5051212, "lon": 77.2686535}, {"type": "node", "id": 6084885965, "lat": 28.5051062, "lon": 77.2687566}, {"type": "node", "id": 6084885966, "lat": 28.5050965, "lon": 77.2687768}, {"type": "node", "id": 6084885967, "lat": 28.5050814, "lon": 77.268792}, {"type": "node", "id": 6084885968, "lat": 28.5050627, "lon": 77.2688007}, {"type": "node", "id": 6084885969, "lat": 28.5050233, "lon": 77.2687951}, {"type": "node", "id": 6084885970, "lat": 28.5050071, "lon": 77.2687814}, {"type": "node", "id": 6084885971, "lat": 28.5049958, "lon": 77.2687624}, {"type": "node", "id": 6084885972, "lat": 28.5049908, "lon": 77.2687401}, {"type": "node", "id": 6084885973, "lat": 28.5049926, "lon": 77.2687173}, {"type": "node", "id": 6084885974, "lat": 28.5051094, "lon": 77.268734}, {"type": "node", "id": 6084885975, "lat": 28.5050426, "lon": 77.2688017}, {"type": "node", "id": 6084885976, "lat": 28.505001, "lon": 77.2686964}, {"type": "node", "id": 6084885977, "lat": 28.5050128, "lon": 77.2686213}, {"type": "node", "id": 6084885978, "lat": 28.5049138, "lon": 77.2683424}, {"type": "node", "id": 6084885979, "lat": 28.5048996, "lon": 77.2681841}, {"type": "node", "id": 6084885980, "lat": 28.5049472, "lon": 77.2677027}, {"type": "node", "id": 6084885981, "lat": 28.5049272, "lon": 77.2676964}, {"type": "node", "id": 6084885982, "lat": 28.50491, "lon": 77.2676832}, {"type": "node", "id": 6084885983, "lat": 28.5048974, "lon": 77.2676644}, {"type": "node", "id": 6084886685, "lat": 28.5048974, "lon": 77.267596}, {"type": "node", "id": 6084886686, "lat": 28.50491, "lon": 77.2675773}, {"type": "node", "id": 6084886687, "lat": 28.5049272, "lon": 77.267564}, {"type": "node", "id": 6084886688, "lat": 28.5049472, "lon": 77.2675578}, {"type": "node", "id": 6084886689, "lat": 28.504968, "lon": 77.2677013}, {"type": "node", "id": 6084886691, "lat": 28.504968, "lon": 77.2675592}, {"type": "node", "id": 6084886692, "lat": 28.504984, "lon": 77.2671942}, {"type": "node", "id": 6084886693, "lat": 28.504968, "lon": 77.2671875}, {"type": "node", "id": 6084887380, "lat": 28.5054677, "lon": 77.2699812}, {"type": "node", "id": 6084887687, "lat": 28.5061883, "lon": 77.2701296}, {"type": "node", "id": 6084887689, "lat": 28.5060334, "lon": 77.27}, {"type": "node", "id": 6084887690, "lat": 28.5060956, "lon": 77.2701503}, {"type": "node", "id": 6084887691, "lat": 28.5062219, "lon": 77.270067}, {"type": "node", "id": 6084887701, "lat": 28.5067098, "lon": 77.2702494}, {"type": "node", "id": 6567401972, "lat": 28.5061938, "lon": 77.2686065}, {"type": "node", "id": 6567401973, "lat": 28.5063399, "lon": 77.268805}, {"type": "node", "id": 6567401974, "lat": 28.5067171, "lon": 77.2689766}, {"type": "node", "id": 6567401975, "lat": 28.5068915, "lon": 77.2691537}, {"type": "node", "id": 6567401976, "lat": 28.5070659, "lon": 77.2693253}, {"type": "node", "id": 6567401977, "lat": 28.5072592, "lon": 77.269261}, {"type": "node", "id": 6567401978, "lat": 28.507443, "lon": 77.2692288}, {"type": "node", "id": 6567401979, "lat": 28.5075609, "lon": 77.2692663}, {"type": "node", "id": 6567401980, "lat": 28.5077494, "lon": 77.2693307}, {"type": "node", "id": 6567401981, "lat": 28.5078154, "lon": 77.2693521}, {"type": "node", "id": 6567401982, "lat": 28.5077691, "lon": 77.2695976}, {"type": "node", "id": 6567401983, "lat": 28.5077164, "lon": 77.2699959}, {"type": "node", "id": 6567401984, "lat": 28.5071178, "lon": 77.269953}, {"type": "node", "id": 6567407785, "lat": 28.5068255, "lon": 77.2699369}, {"type": "node", "id": 6567407786, "lat": 28.5053877, "lon": 77.2698242}, {"type": "node", "id": 6567407787, "lat": 28.5054066, "lon": 77.2691215}, {"type": "node", "id": 6567407788, "lat": 28.5059911, "lon": 77.2689391}, {"type": "node", "id": 7020241198, "lat": 28.5050079, "lon": 77.2779526}, {"type": "node", "id": 9852278731, "lat": 28.5070463, "lon": 77.2791851}, {"type": "node", "id": 2885235640, "lat": 28.5118942, "lon": 77.2438655}, {"type": "node", "id": 2885235641, "lat": 28.5118667, "lon": 77.2458028}, {"type": "node", "id": 6567451504, "lat": 28.51195, "lon": 77.244588}, {"type": "node", "id": 6567451505, "lat": 28.5117952, "lon": 77.2438298}, {"type": "node", "id": 6567451506, "lat": 28.5120116, "lon": 77.2439325}, {"type": "node", "id": 6567451507, "lat": 28.5119662, "lon": 77.2444123}, {"type": "node", "id": 6567451508, "lat": 28.5118979, "lon": 77.2452258}, {"type": "node", "id": 3408137903, "lat": 28.52441, "lon": 77.2532408}, {"type": "node", "id": 3408137904, "lat": 28.524184, "lon": 77.2534609}, {"type": "node", "id": 3486577255, "lat": 28.5244907, "lon": 77.2508478}, {"type": "node", "id": 3486577257, "lat": 28.5242194, "lon": 77.2515975}, {"type": "node", "id": 3486577258, "lat": 28.5240178, "lon": 77.2513534}, {"type": "node", "id": 1040993317, "lat": 28.536101, "lon": 77.2405716}, {"type": "node", "id": 1041069376, "lat": 28.5318022, "lon": 77.2406988}, {"type": "node", "id": 1040992627, "lat": 28.5308479, "lon": 77.2457818}, {"type": "node", "id": 1040993302, "lat": 28.5307699, "lon": 77.2464053}, {"type": "node", "id": 1041069500, "lat": 28.5305613, "lon": 77.2429501}, {"type": "node", "id": 1041069556, "lat": 28.5308044, "lon": 77.243154}, {"type": "node", "id": 1041069618, "lat": 28.530294, "lon": 77.2426205}, {"type": "node", "id": 1041069674, "lat": 28.5304589, "lon": 77.2424076}, {"type": "node", "id": 1041069851, "lat": 28.5310443, "lon": 77.2432195}, {"type": "node", "id": 2677421756, "lat": 28.5280776, "lon": 77.2463401}, {"type": "node", "id": 2677421757, "lat": 28.5288968, "lon": 77.2471673}, {"type": "node", "id": 2677421758, "lat": 28.5281548, "lon": 77.2469442}, {"type": "node", "id": 2677421764, "lat": 28.5286995, "lon": 77.2471719}, {"type": "node", "id": 2677421768, "lat": 28.5281144, "lon": 77.2465732}, {"type": "node", "id": 2677421777, "lat": 28.5281644, "lon": 77.24682}, {"type": "node", "id": 2677421779, "lat": 28.5281601, "lon": 77.2466511}, {"type": "node", "id": 2677421783, "lat": 28.5281537, "lon": 77.2465719}, {"type": "node", "id": 2677421788, "lat": 28.5281165, "lon": 77.2466526}, {"type": "node", "id": 2677421793, "lat": 28.528151, "lon": 77.2464632}, {"type": "node", "id": 2677421794, "lat": 28.5280808, "lon": 77.2464655}, {"type": "node", "id": 3486581535, "lat": 28.5274539, "lon": 77.2472011}, {"type": "node", "id": 3486581536, "lat": 28.5270591, "lon": 77.2472216}, {"type": "node", "id": 12942065046, "lat": 28.5288908, "lon": 77.2467388}, {"type": "node", "id": 12942065047, "lat": 28.5286884, "lon": 77.2466258}, {"type": "node", "id": 12942065048, "lat": 28.5280218, "lon": 77.2468247}, {"type": "node", "id": 12942065052, "lat": 28.5280271, "lon": 77.2469483}, {"type": "node", "id": 12942065058, "lat": 28.5287843, "lon": 77.2466846}, {"type": "node", "id": 12942065059, "lat": 28.5280096, "lon": 77.2463423}, {"type": "node", "id": 2677256786, "lat": 28.5279202, "lon": 77.2533189}, {"type": "node", "id": 2677272931, "lat": 28.5273152, "lon": 77.2538157}, {"type": "node", "id": 2677369561, "lat": 28.5272863, "lon": 77.2537693}, {"type": "node", "id": 2677369573, "lat": 28.527725, "lon": 77.2532406}, {"type": "node", "id": 2677369580, "lat": 28.5274472, "lon": 77.2536011}, {"type": "node", "id": 2677369588, "lat": 28.5274142, "lon": 77.2535528}, {"type": "node", "id": 2677421775, "lat": 28.5281647, "lon": 77.2474245}, {"type": "node", "id": 3408137906, "lat": 28.5247224, "lon": 77.2536539}, {"type": "node", "id": 3486509712, "lat": 28.5310166, "lon": 77.2480404}, {"type": "node", "id": 3486509713, "lat": 28.5307574, "lon": 77.2479197}, {"type": "node", "id": 3486509714, "lat": 28.5303403, "lon": 77.2482201}, {"type": "node", "id": 3486509715, "lat": 28.5304652, "lon": 77.248432}, {"type": "node", "id": 3486509716, "lat": 28.5303187, "lon": 77.2496953}, {"type": "node", "id": 3486509717, "lat": 28.5302693, "lon": 77.2496117}, {"type": "node", "id": 3486509718, "lat": 28.5301047, "lon": 77.2497378}, {"type": "node", "id": 3486509719, "lat": 28.5301542, "lon": 77.2498213}, {"type": "node", "id": 3486509755, "lat": 28.5289309, "lon": 77.2488915}, {"type": "node", "id": 3486509756, "lat": 28.5288057, "lon": 77.2486727}, {"type": "node", "id": 3486509757, "lat": 28.5290211, "lon": 77.2485131}, {"type": "node", "id": 3486509758, "lat": 28.5290955, "lon": 77.2486431}, {"type": "node", "id": 3486509759, "lat": 28.5293093, "lon": 77.2484847}, {"type": "node", "id": 3486509760, "lat": 28.5294308, "lon": 77.2486971}, {"type": "node", "id": 3486509761, "lat": 28.5291974, "lon": 77.2488702}, {"type": "node", "id": 3486509762, "lat": 28.5291267, "lon": 77.2487464}, {"type": "node", "id": 3486509763, "lat": 28.5296205, "lon": 77.24848}, {"type": "node", "id": 3486509764, "lat": 28.5294878, "lon": 77.2485781}, {"type": "node", "id": 3486509765, "lat": 28.5293188, "lon": 77.2482819}, {"type": "node", "id": 3486509766, "lat": 28.5294515, "lon": 77.2481838}, {"type": "node", "id": 3486509767, "lat": 28.529511, "lon": 77.2482777}, {"type": "node", "id": 3486509768, "lat": 28.5293836, "lon": 77.248058}, {"type": "node", "id": 3486509769, "lat": 28.5297255, "lon": 77.2478013}, {"type": "node", "id": 3486509770, "lat": 28.5298528, "lon": 77.2480209}, {"type": "node", "id": 3486509771, "lat": 28.5300296, "lon": 77.2486543}, {"type": "node", "id": 3486509772, "lat": 28.5301688, "lon": 77.2489061}, {"type": "node", "id": 3486509773, "lat": 28.5299561, "lon": 77.2490584}, {"type": "node", "id": 3486509774, "lat": 28.5300167, "lon": 77.2491681}, {"type": "node", "id": 3486509775, "lat": 28.5298011, "lon": 77.2493309}, {"type": "node", "id": 3486509776, "lat": 28.5295923, "lon": 77.2489674}, {"type": "node", "id": 3486509777, "lat": 28.5296915, "lon": 77.2491442}, {"type": "node", "id": 3486511400, "lat": 28.530942, "lon": 77.2503517}, {"type": "node", "id": 3486511401, "lat": 28.5305583, "lon": 77.2501334}, {"type": "node", "id": 3486577247, "lat": 28.5267774, "lon": 77.2507961}, {"type": "node", "id": 3486577248, "lat": 28.5267501, "lon": 77.2512335}, {"type": "node", "id": 3486577249, "lat": 28.5263714, "lon": 77.2512028}, {"type": "node", "id": 3486577250, "lat": 28.5263987, "lon": 77.2507654}, {"type": "node", "id": 3486577251, "lat": 28.5257138, "lon": 77.2523526}, {"type": "node", "id": 3486577252, "lat": 28.5258234, "lon": 77.2524928}, {"type": "node", "id": 3486577253, "lat": 28.525429, "lon": 77.2528922}, {"type": "node", "id": 3486577254, "lat": 28.5253194, "lon": 77.252752}, {"type": "node", "id": 3486577256, "lat": 28.5246922, "lon": 77.2510919}, {"type": "node", "id": 3486577259, "lat": 28.5259468, "lon": 77.250182}, {"type": "node", "id": 3486577260, "lat": 28.5259497, "lon": 77.2499796}, {"type": "node", "id": 3486577261, "lat": 28.5256599, "lon": 77.2499742}, {"type": "node", "id": 3486577262, "lat": 28.525657, "lon": 77.2501765}, {"type": "node", "id": 3486577263, "lat": 28.5259265, "lon": 77.2510588}, {"type": "node", "id": 3486577264, "lat": 28.525769, "lon": 77.2510612}, {"type": "node", "id": 3486577265, "lat": 28.5257674, "lon": 77.2509184}, {"type": "node", "id": 3486577266, "lat": 28.5255238, "lon": 77.250922}, {"type": "node", "id": 3486577267, "lat": 28.5255214, "lon": 77.2507155}, {"type": "node", "id": 3486577268, "lat": 28.5259225, "lon": 77.2507095}, {"type": "node", "id": 3486581527, "lat": 28.5274929, "lon": 77.2483862}, {"type": "node", "id": 3486581528, "lat": 28.5275088, "lon": 77.2488345}, {"type": "node", "id": 3486581529, "lat": 28.5270783, "lon": 77.2488542}, {"type": "node", "id": 3486581530, "lat": 28.5270625, "lon": 77.2484059}, {"type": "node", "id": 3486581531, "lat": 28.5266201, "lon": 77.2485176}, {"type": "node", "id": 3486581532, "lat": 28.5263648, "lon": 77.2485373}, {"type": "node", "id": 3486581533, "lat": 28.5263861, "lon": 77.2488949}, {"type": "node", "id": 3486581534, "lat": 28.5266414, "lon": 77.2488751}, {"type": "node", "id": 3486581537, "lat": 28.5270715, "lon": 77.2475315}, {"type": "node", "id": 3486581538, "lat": 28.5274663, "lon": 77.247511}, {"type": "node", "id": 7640317869, "lat": 28.5276079, "lon": 77.2497322}, {"type": "node", "id": 7640317870, "lat": 28.527595, "lon": 77.2501083}, {"type": "node", "id": 7640317871, "lat": 28.5265722, "lon": 77.2500064}, {"type": "node", "id": 7640317872, "lat": 28.5265899, "lon": 77.2497644}, {"type": "node", "id": 12942065050, "lat": 28.5280319, "lon": 77.2474361}, {"type": "node", "id": 1040992095, "lat": 28.5342697, "lon": 77.2446126}, {"type": "node", "id": 1040992123, "lat": 28.5356069, "lon": 77.2411788}, {"type": "node", "id": 1040992176, "lat": 28.5374009, "lon": 77.2429188}, {"type": "node", "id": 1040992185, "lat": 28.5366199, "lon": 77.2411204}, {"type": "node", "id": 1040992381, "lat": 28.5351764, "lon": 77.2447867}, {"type": "node", "id": 1040992392, "lat": 28.5336302, "lon": 77.2425055}, {"type": "node", "id": 1040992439, "lat": 28.5348496, "lon": 77.244791}, {"type": "node", "id": 1040992476, "lat": 28.5337937, "lon": 77.2442255}, {"type": "node", "id": 1040992486, "lat": 28.5345512, "lon": 77.2438471}, {"type": "node", "id": 1040992524, "lat": 28.5316035, "lon": 77.2458167}, {"type": "node", "id": 1040992610, "lat": 28.5328803, "lon": 77.2431527}, {"type": "node", "id": 1040992700, "lat": 28.5311501, "lon": 77.2458355}, {"type": "node", "id": 1040992782, "lat": 28.5333725, "lon": 77.2437374}, {"type": "node", "id": 1040992826, "lat": 28.5330503, "lon": 77.2416497}, {"type": "node", "id": 1040992894, "lat": 28.5376063, "lon": 77.2419781}, {"type": "node", "id": 1040993034, "lat": 28.5312398, "lon": 77.2464376}, {"type": "node", "id": 1040993084, "lat": 28.5339089, "lon": 77.2443373}, {"type": "node", "id": 1040993102, "lat": 28.5360306, "lon": 77.241802}, {"type": "node", "id": 1040993114, "lat": 28.5344643, "lon": 77.2437116}, {"type": "node", "id": 1040993313, "lat": 28.5374693, "lon": 77.242177}, {"type": "node", "id": 1040993358, "lat": 28.5363385, "lon": 77.2415074}, {"type": "node", "id": 1040993455, "lat": 28.5345795, "lon": 77.2447609}, {"type": "node", "id": 1040993619, "lat": 28.5340827, "lon": 77.2431591}, {"type": "node", "id": 1040993626, "lat": 28.5323797, "lon": 77.2425399}, {"type": "node", "id": 1040993655, "lat": 28.5316719, "lon": 77.2463892}, {"type": "node", "id": 1041069450, "lat": 28.5311722, "lon": 77.2415593}, {"type": "node", "id": 1041069503, "lat": 28.5313097, "lon": 77.2432596}, {"type": "node", "id": 1041069664, "lat": 28.5325156, "lon": 77.2418943}, {"type": "node", "id": 1041069729, "lat": 28.531572, "lon": 77.2431685}, {"type": "node", "id": 1041069854, "lat": 28.5318023, "lon": 77.2429574}, {"type": "node", "id": 1041070092, "lat": 28.532634, "lon": 77.2416904}, {"type": "node", "id": 1041070164, "lat": 28.5328254, "lon": 77.2413555}, {"type": "node", "id": 1041070214, "lat": 28.5322054, "lon": 77.242404}, {"type": "node", "id": 1042719097, "lat": 28.5354305, "lon": 77.2468506}, {"type": "node", "id": 1042719311, "lat": 28.5363027, "lon": 77.2462911}, {"type": "node", "id": 1042719388, "lat": 28.5366615, "lon": 77.2462878}, {"type": "node", "id": 1042719683, "lat": 28.5370145, "lon": 77.2464206}, {"type": "node", "id": 1042719809, "lat": 28.5375192, "lon": 77.2466298}, {"type": "node", "id": 1042719815, "lat": 28.5355151, "lon": 77.2467277}, {"type": "node", "id": 1042720043, "lat": 28.5372595, "lon": 77.2465567}, {"type": "node", "id": 1042720156, "lat": 28.537312, "lon": 77.2472206}, {"type": "node", "id": 1042720199, "lat": 28.535696, "lon": 77.2465435}, {"type": "node", "id": 1042720382, "lat": 28.5355209, "lon": 77.2470764}, {"type": "node", "id": 1042720533, "lat": 28.5364715, "lon": 77.2471537}, {"type": "node", "id": 1042720583, "lat": 28.5358827, "lon": 77.2464488}, {"type": "node", "id": 2716796087, "lat": 28.532523, "lon": 77.2410193}, {"type": "node", "id": 2716796091, "lat": 28.5323404, "lon": 77.2411816}, {"type": "node", "id": 2716796100, "lat": 28.5327376, "lon": 77.2412407}, {"type": "node", "id": 3394398815, "lat": 28.5331667, "lon": 77.2423202}, {"type": "node", "id": 3394398816, "lat": 28.533093, "lon": 77.2422398}, {"type": "node", "id": 3394398817, "lat": 28.5330485, "lon": 77.2421839}, {"type": "node", "id": 3394398819, "lat": 28.5329548, "lon": 77.2421699}, {"type": "node", "id": 3394398820, "lat": 28.5328704, "lon": 77.2422136}, {"type": "node", "id": 3394398821, "lat": 28.5328274, "lon": 77.2422817}, {"type": "node", "id": 3394398822, "lat": 28.5327951, "lon": 77.2423743}, {"type": "node", "id": 3394398823, "lat": 28.5328105, "lon": 77.2425054}, {"type": "node", "id": 3394398826, "lat": 28.5330178, "lon": 77.2425089}, {"type": "node", "id": 7640317805, "lat": 28.5362533, "lon": 77.2407327}, {"type": "node", "id": 7640317806, "lat": 28.5363617, "lon": 77.2414755}, {"type": "node", "id": 7640317807, "lat": 28.5357117, "lon": 77.241333}, {"type": "node", "id": 7640317824, "lat": 28.5376614, "lon": 77.2462527}, {"type": "node", "id": 7640317859, "lat": 28.534348, "lon": 77.2468155}, {"type": "node", "id": 7640317860, "lat": 28.5345459, "lon": 77.2471106}, {"type": "node", "id": 7640317867, "lat": 28.5338791, "lon": 77.2471964}, {"type": "node", "id": 7640317868, "lat": 28.5341736, "lon": 77.2469644}, {"type": "node", "id": 11756896321, "lat": 28.5330222, "lon": 77.2421573}, {"type": "node", "id": 11756896322, "lat": 28.5333634, "lon": 77.2421089}, {"type": "node", "id": 11756896323, "lat": 28.5326837, "lon": 77.2429116}, {"type": "node", "id": 11756896325, "lat": 28.5328976, "lon": 77.2426388}, {"type": "node", "id": 11756896328, "lat": 28.5332872, "lon": 77.2428016}, {"type": "node", "id": 11756896333, "lat": 28.5329052, "lon": 77.2426475}, {"type": "node", "id": 1040992133, "lat": 28.5375023, "lon": 77.2498106}, {"type": "node", "id": 1042719113, "lat": 28.5372977, "lon": 77.2527596}, {"type": "node", "id": 1042719238, "lat": 28.5365072, "lon": 77.2481326}, {"type": "node", "id": 1042719405, "lat": 28.5374094, "lon": 77.2515222}, {"type": "node", "id": 1042719633, "lat": 28.5361511, "lon": 77.2479177}, {"type": "node", "id": 1042719661, "lat": 28.5356989, "lon": 77.2481771}, {"type": "node", "id": 1042719697, "lat": 28.537161, "lon": 77.2514858}, {"type": "node", "id": 1042719852, "lat": 28.5364635, "lon": 77.2525301}, {"type": "node", "id": 1042719909, "lat": 28.5358567, "lon": 77.2526826}, {"type": "node", "id": 1042720002, "lat": 28.5356216, "lon": 77.2475861}, {"type": "node", "id": 1042720022, "lat": 28.535794, "lon": 77.2502149}, {"type": "node", "id": 1042720295, "lat": 28.5355291, "lon": 77.2502862}, {"type": "node", "id": 1042720393, "lat": 28.5369308, "lon": 77.2514625}, {"type": "node", "id": 1042720664, "lat": 28.5376578, "lon": 77.2516415}, {"type": "node", "id": 1672070599, "lat": 28.5359688, "lon": 77.2531733}, {"type": "node", "id": 2732439252, "lat": 28.5343323, "lon": 77.2478865}, {"type": "node", "id": 2732439253, "lat": 28.5346198, "lon": 77.2480045}, {"type": "node", "id": 2732439254, "lat": 28.5345397, "lon": 77.2484766}, {"type": "node", "id": 2732439256, "lat": 28.5346481, "lon": 77.2474734}, {"type": "node", "id": 2732439257, "lat": 28.5348602, "lon": 77.2480635}, {"type": "node", "id": 2732439258, "lat": 28.534912, "lon": 77.2485463}, {"type": "node", "id": 2732439259, "lat": 28.5347706, "lon": 77.2475968}, {"type": "node", "id": 3404446546, "lat": 28.5360115, "lon": 77.2531595}, {"type": "node", "id": 3404446547, "lat": 28.53599, "lon": 77.2530737}, {"type": "node", "id": 3404446548, "lat": 28.5359287, "lon": 77.2530871}, {"type": "node", "id": 3404446549, "lat": 28.5358745, "lon": 77.2530951}, {"type": "node", "id": 3404446550, "lat": 28.5356978, "lon": 77.2531461}, {"type": "node", "id": 3404446551, "lat": 28.5356389, "lon": 77.2531756}, {"type": "node", "id": 3404446552, "lat": 28.5355823, "lon": 77.2532078}, {"type": "node", "id": 3404446553, "lat": 28.5355258, "lon": 77.2532185}, {"type": "node", "id": 3404446554, "lat": 28.5354763, "lon": 77.2532614}, {"type": "node", "id": 3404446555, "lat": 28.5354457, "lon": 77.2532346}, {"type": "node", "id": 3404446556, "lat": 28.5355611, "lon": 77.2537818}, {"type": "node", "id": 3404446557, "lat": 28.5357355, "lon": 77.2537094}, {"type": "node", "id": 3404446558, "lat": 28.5358156, "lon": 77.253696}, {"type": "node", "id": 3404446559, "lat": 28.5358863, "lon": 77.2536691}, {"type": "node", "id": 3404446560, "lat": 28.5359806, "lon": 77.2535967}, {"type": "node", "id": 3404446561, "lat": 28.5360301, "lon": 77.2535404}, {"type": "node", "id": 3404446562, "lat": 28.5360522, "lon": 77.2534506}, {"type": "node", "id": 3486511399, "lat": 28.5313987, "lon": 77.2494389}, {"type": "node", "id": 6395457253, "lat": 28.5345825, "lon": 77.2516773}, {"type": "node", "id": 7640317849, "lat": 28.5340683, "lon": 77.2517433}, {"type": "node", "id": 7640317850, "lat": 28.5340804, "lon": 77.252356}, {"type": "node", "id": 7640317851, "lat": 28.5346574, "lon": 77.2522544}, {"type": "node", "id": 7640317853, "lat": 28.5348794, "lon": 77.2502897}, {"type": "node", "id": 7640317854, "lat": 28.5348819, "lon": 77.2503858}, {"type": "node", "id": 7640317855, "lat": 28.5340249, "lon": 77.2506331}, {"type": "node", "id": 7640317856, "lat": 28.5340369, "lon": 77.2502952}, {"type": "node", "id": 7640317857, "lat": 28.5345729, "lon": 77.2502952}, {"type": "node", "id": 7640317861, "lat": 28.5340346, "lon": 77.2477261}, {"type": "node", "id": 7640317862, "lat": 28.5336423, "lon": 77.2481338}, {"type": "node", "id": 7640317863, "lat": 28.5335209, "lon": 77.2482572}, {"type": "node", "id": 7640317864, "lat": 28.5332935, "lon": 77.2479635}, {"type": "node", "id": 7640317865, "lat": 28.5330755, "lon": 77.2476644}, {"type": "node", "id": 7640317866, "lat": 28.533621, "lon": 77.2473654}, {"type": "node", "id": 1185897538, "lat": 28.5125455, "lon": 77.2592447}, {"type": "node", "id": 1185897541, "lat": 28.5173796, "lon": 77.2578001}, {"type": "node", "id": 1185897543, "lat": 28.5130187, "lon": 77.2583667}, {"type": "node", "id": 1185897545, "lat": 28.5174122, "lon": 77.2575119}, {"type": "node", "id": 1185897546, "lat": 28.513838, "lon": 77.2570587}, {"type": "node", "id": 1185897550, "lat": 28.5173796, "lon": 77.2593347}, {"type": "node", "id": 1185897551, "lat": 28.5132693, "lon": 77.2578598}, {"type": "node", "id": 1185897553, "lat": 28.5153616, "lon": 77.2550987}, {"type": "node", "id": 1185897556, "lat": 28.5124978, "lon": 77.2593986}, {"type": "node", "id": 1185897557, "lat": 28.5169073, "lon": 77.2599641}, {"type": "node", "id": 1185897558, "lat": 28.514981, "lon": 77.254807}, {"type": "node", "id": 1185897563, "lat": 28.5179792, "lon": 77.2571583}, {"type": "node", "id": 1185897565, "lat": 28.512637, "lon": 77.2590501}, {"type": "node", "id": 1185897568, "lat": 28.5170627, "lon": 77.2562567}, {"type": "node", "id": 1185897570, "lat": 28.5131699, "lon": 77.2580635}, {"type": "node", "id": 1185897573, "lat": 28.5173609, "lon": 77.2576092}, {"type": "node", "id": 1185897576, "lat": 28.5127722, "lon": 77.2586202}, {"type": "node", "id": 1185897578, "lat": 28.5168327, "lon": 77.2597802}, {"type": "node", "id": 1185897579, "lat": 28.5133051, "lon": 77.257896}, {"type": "node", "id": 1185897584, "lat": 28.5171994, "lon": 77.2591933}, {"type": "node", "id": 1185897586, "lat": 28.5131102, "lon": 77.2578598}, {"type": "node", "id": 1185897587, "lat": 28.5151286, "lon": 77.2547451}, {"type": "node", "id": 1185897589, "lat": 28.5123466, "lon": 77.2596657}, {"type": "node", "id": 1185897590, "lat": 28.516926, "lon": 77.2598014}, {"type": "node", "id": 1185897591, "lat": 28.5147557, "lon": 77.2554788}, {"type": "node", "id": 1185897596, "lat": 28.5173889, "lon": 77.2566103}, {"type": "node", "id": 1185897598, "lat": 28.5125017, "lon": 77.2590682}, {"type": "node", "id": 1185897600, "lat": 28.5171248, "lon": 77.2586699}, {"type": "node", "id": 1185897602, "lat": 28.5128636, "lon": 77.2584799}, {"type": "node", "id": 1185897606, "lat": 28.5177539, "lon": 77.2572202}, {"type": "node", "id": 1185897608, "lat": 28.5126489, "lon": 77.2586473}, {"type": "node", "id": 1185897612, "lat": 28.5170564, "lon": 77.2594691}, {"type": "node", "id": 1185897613, "lat": 28.5131818, "lon": 77.2578372}, {"type": "node", "id": 1185897618, "lat": 28.5124341, "lon": 77.2596702}, {"type": "node", "id": 1185897619, "lat": 28.5168079, "lon": 77.2602328}, {"type": "node", "id": 1185897620, "lat": 28.5150043, "lon": 77.2550191}, {"type": "node", "id": 1185897623, "lat": 28.5123864, "lon": 77.2598512}, {"type": "node", "id": 1185897626, "lat": 28.5125574, "lon": 77.2590411}, {"type": "node", "id": 1185897628, "lat": 28.5164646, "lon": 77.2557175}, {"type": "node", "id": 1185897629, "lat": 28.5125017, "lon": 77.2591995}, {"type": "node", "id": 1185897632, "lat": 28.5173148, "lon": 77.2578438}, {"type": "node", "id": 1185897635, "lat": 28.5127284, "lon": 77.2586066}, {"type": "node", "id": 1185897640, "lat": 28.516839, "lon": 77.2596954}, {"type": "node", "id": 1185897642, "lat": 28.5142198, "lon": 77.256407}, {"type": "node", "id": 1185897652, "lat": 28.5173174, "lon": 77.2594054}, {"type": "node", "id": 1185897655, "lat": 28.5130864, "lon": 77.2579503}, {"type": "node", "id": 1185897657, "lat": 28.5158976, "lon": 77.2554169}, {"type": "node", "id": 1185897664, "lat": 28.5123108, "lon": 77.2598241}, {"type": "node", "id": 1185897668, "lat": 28.516783, "lon": 77.2599429}, {"type": "node", "id": 1185897670, "lat": 28.5143984, "lon": 77.2559296}, {"type": "node", "id": 1185897674, "lat": 28.5123069, "lon": 77.2601816}, {"type": "node", "id": 1185897678, "lat": 28.5179947, "lon": 77.2572821}, {"type": "node", "id": 1185897683, "lat": 28.5124858, "lon": 77.2591406}, {"type": "node", "id": 1185897688, "lat": 28.5172277, "lon": 77.2582318}, {"type": "node", "id": 1185897692, "lat": 28.5131142, "lon": 77.2580227}, {"type": "node", "id": 1185897698, "lat": 28.5174293, "lon": 77.2577082}, {"type": "node", "id": 1185897699, "lat": 28.512633, "lon": 77.2587243}, {"type": "node", "id": 1185897701, "lat": 28.5171807, "lon": 77.2593559}, {"type": "node", "id": 1185897703, "lat": 28.5135, "lon": 77.2575837}, {"type": "node", "id": 1185897715, "lat": 28.5173547, "lon": 77.2592215}, {"type": "node", "id": 1185897716, "lat": 28.5151597, "lon": 77.2550456}, {"type": "node", "id": 1185897719, "lat": 28.5123705, "lon": 77.2599372}, {"type": "node", "id": 1185897721, "lat": 28.5169694, "lon": 77.2598792}, {"type": "node", "id": 1185897723, "lat": 28.5179015, "lon": 77.257344}, {"type": "node", "id": 1185897731, "lat": 28.5127324, "lon": 77.2588012}, {"type": "node", "id": 1185897734, "lat": 28.5178005, "lon": 77.257123}, {"type": "node", "id": 1186823679, "lat": 28.5125794, "lon": 77.2597776}, {"type": "node", "id": 1186823695, "lat": 28.5124427, "lon": 77.2599897}, {"type": "node", "id": 1186823710, "lat": 28.5126291, "lon": 77.2601029}, {"type": "node", "id": 1186823746, "lat": 28.512741, "lon": 77.259919}, {"type": "node", "id": 6567258152, "lat": 28.5150921, "lon": 77.2547604}, {"type": "node", "id": 6567258153, "lat": 28.5151087, "lon": 77.2547992}, {"type": "node", "id": 6567258154, "lat": 28.5151276, "lon": 77.2548743}, {"type": "node", "id": 6567258155, "lat": 28.5150451, "lon": 77.2549119}, {"type": "node", "id": 6567258156, "lat": 28.5150404, "lon": 77.2548207}, {"type": "node", "id": 6567258157, "lat": 28.5150388, "lon": 77.2547828}, {"type": "node", "id": 6567401934, "lat": 28.5127115, "lon": 77.2589081}, {"type": "node", "id": 6567401935, "lat": 28.5126726, "lon": 77.258892}, {"type": "node", "id": 6567401936, "lat": 28.512649, "lon": 77.2589657}, {"type": "node", "id": 6567401937, "lat": 28.5126891, "lon": 77.2589765}, {"type": "node", "id": 6567401938, "lat": 28.5126582, "lon": 77.2589334}, {"type": "node", "id": 6567401939, "lat": 28.5126998, "lon": 77.2589465}, {"type": "node", "id": 6567401946, "lat": 28.5175402, "lon": 77.2567447}, {"type": "node", "id": 6567401947, "lat": 28.5174884, "lon": 77.2568117}, {"type": "node", "id": 6567401948, "lat": 28.5175284, "lon": 77.2568815}, {"type": "node", "id": 6567401949, "lat": 28.5175873, "lon": 77.2568091}, {"type": "node", "id": 6567401950, "lat": 28.5176107, "lon": 77.2568866}, {"type": "node", "id": 10958868760, "lat": 28.5126792, "lon": 77.25894}, {"type": "node", "id": 1185897540, "lat": 28.5119237, "lon": 77.2641789}, {"type": "node", "id": 1185897544, "lat": 28.5140241, "lon": 77.2633373}, {"type": "node", "id": 1185897549, "lat": 28.5121359, "lon": 77.2605346}, {"type": "node", "id": 1185897554, "lat": 28.5120324, "lon": 77.2610687}, {"type": "node", "id": 1185897561, "lat": 28.5122154, "lon": 77.2605708}, {"type": "node", "id": 1185897562, "lat": 28.5144093, "lon": 77.2633656}, {"type": "node", "id": 1185897567, "lat": 28.5162859, "lon": 77.2608693}, {"type": "node", "id": 1185897571, "lat": 28.5125016, "lon": 77.2632949}, {"type": "node", "id": 1185897572, "lat": 28.5119728, "lon": 77.261028}, {"type": "node", "id": 1185897581, "lat": 28.5120285, "lon": 77.2606387}, {"type": "node", "id": 1185897585, "lat": 28.5165345, "lon": 77.2606076}, {"type": "node", "id": 1185897595, "lat": 28.5150991, "lon": 77.2632808}, {"type": "node", "id": 1185897599, "lat": 28.5122717, "lon": 77.2636273}, {"type": "node", "id": 1185897603, "lat": 28.5127688, "lon": 77.2632313}, {"type": "node", "id": 1185897605, "lat": 28.5118177, "lon": 77.2611094}, {"type": "node", "id": 1185897607, "lat": 28.5117804, "lon": 77.2617077}, {"type": "node", "id": 1185897609, "lat": 28.5115443, "lon": 77.2622098}, {"type": "node", "id": 1185897610, "lat": 28.5120643, "lon": 77.2605618}, {"type": "node", "id": 1185897616, "lat": 28.5120841, "lon": 77.2607519}, {"type": "node", "id": 1185897624, "lat": 28.5148878, "lon": 77.2634363}, {"type": "node", "id": 1185897627, "lat": 28.5154843, "lon": 77.2624675}, {"type": "node", "id": 1185897630, "lat": 28.5126445, "lon": 77.2632808}, {"type": "node", "id": 1185897631, "lat": 28.5118773, "lon": 77.2610234}, {"type": "node", "id": 1185897636, "lat": 28.5135331, "lon": 77.2633303}, {"type": "node", "id": 1185897638, "lat": 28.511941, "lon": 77.2612859}, {"type": "node", "id": 1185897650, "lat": 28.5120444, "lon": 77.2607021}, {"type": "node", "id": 1185897653, "lat": 28.516783, "lon": 77.260452}, {"type": "node", "id": 1185897660, "lat": 28.512112, "lon": 77.2608696}, {"type": "node", "id": 1185897676, "lat": 28.5152233, "lon": 77.2629201}, {"type": "node", "id": 1185897686, "lat": 28.515969, "lon": 77.2613007}, {"type": "node", "id": 1185897690, "lat": 28.5114988, "lon": 77.2622715}, {"type": "node", "id": 1185897694, "lat": 28.5131603, "lon": 77.2632808}, {"type": "node", "id": 1185897696, "lat": 28.5118376, "lon": 77.2611954}, {"type": "node", "id": 1185897705, "lat": 28.5116689, "lon": 77.2645113}, {"type": "node", "id": 1185897707, "lat": 28.5121398, "lon": 77.2607971}, {"type": "node", "id": 1185897732, "lat": 28.5157018, "lon": 77.2618028}, {"type": "node", "id": 1186823657, "lat": 28.5122648, "lon": 77.2608092}, {"type": "node", "id": 1186823659, "lat": 28.5114909, "lon": 77.2634386}, {"type": "node", "id": 1186823661, "lat": 28.5122767, "lon": 77.2610581}, {"type": "node", "id": 1186823663, "lat": 28.5121852, "lon": 77.2615379}, {"type": "node", "id": 1186823666, "lat": 28.5127698, "lon": 77.2608182}, {"type": "node", "id": 1186823669, "lat": 28.5127619, "lon": 77.2611667}, {"type": "node", "id": 1186823681, "lat": 28.514122, "lon": 77.2612301}, {"type": "node", "id": 1186823688, "lat": 28.5136448, "lon": 77.261221}, {"type": "node", "id": 1186823689, "lat": 28.5114899, "lon": 77.2634913}, {"type": "node", "id": 1186823691, "lat": 28.5125915, "lon": 77.263286}, {"type": "node", "id": 1186823699, "lat": 28.5140067, "lon": 77.2612301}, {"type": "node", "id": 1186823701, "lat": 28.5126545, "lon": 77.2615379}, {"type": "node", "id": 1186823703, "lat": 28.5127171, "lon": 77.2632519}, {"type": "node", "id": 1186823704, "lat": 28.5133465, "lon": 77.261212}, {"type": "node", "id": 1186823716, "lat": 28.513609, "lon": 77.2615514}, {"type": "node", "id": 1186823718, "lat": 28.5131437, "lon": 77.2615333}, {"type": "node", "id": 1186823734, "lat": 28.5141061, "lon": 77.2615695}, {"type": "node", "id": 1186823736, "lat": 28.5121812, "lon": 77.2610536}, {"type": "node", "id": 1186823740, "lat": 28.5130442, "lon": 77.2611894}, {"type": "node", "id": 6567401940, "lat": 28.5144991, "lon": 77.2633789}, {"type": "node", "id": 6567401941, "lat": 28.5143366, "lon": 77.2633603}, {"type": "node", "id": 6567401942, "lat": 28.5144522, "lon": 77.2633256}, {"type": "node", "id": 6567401943, "lat": 28.5143603, "lon": 77.2633337}, {"type": "node", "id": 6567401944, "lat": 28.5143626, "lon": 77.2633981}, {"type": "node", "id": 6567401945, "lat": 28.5144593, "lon": 77.2634115}, {"type": "node", "id": 10958868708, "lat": 28.5114905, "lon": 77.2634595}, {"type": "node", "id": 10958868751, "lat": 28.5114821, "lon": 77.2622961}, {"type": "node", "id": 3408137905, "lat": 28.524526, "lon": 77.2538773}, {"type": "node", "id": 7335130814, "lat": 28.5211138, "lon": 77.2784848}, {"type": "node", "id": 7335130815, "lat": 28.5211896, "lon": 77.2789901}, {"type": "node", "id": 7335130816, "lat": 28.5207213, "lon": 77.2790641}, {"type": "node", "id": 7335130817, "lat": 28.5206617, "lon": 77.2787837}, {"type": "node", "id": 1681413396, "lat": 28.5257946, "lon": 77.255286}, {"type": "node", "id": 1681413401, "lat": 28.525686, "lon": 77.2556839}, {"type": "node", "id": 1681413403, "lat": 28.5256115, "lon": 77.2552166}, {"type": "node", "id": 1681413404, "lat": 28.5254969, "lon": 77.2556036}, {"type": "node", "id": 2677145297, "lat": 28.5289553, "lon": 77.2603817}, {"type": "node", "id": 2677215024, "lat": 28.5277019, "lon": 77.254073}, {"type": "node", "id": 2677272918, "lat": 28.5285305, "lon": 77.2566912}, {"type": "node", "id": 2677272920, "lat": 28.5286359, "lon": 77.2557543}, {"type": "node", "id": 2677272922, "lat": 28.5274874, "lon": 77.2541388}, {"type": "node", "id": 2677272927, "lat": 28.5291971, "lon": 77.2559687}, {"type": "node", "id": 2677272933, "lat": 28.5274237, "lon": 77.2543361}, {"type": "node", "id": 2677272936, "lat": 28.5285389, "lon": 77.2560832}, {"type": "node", "id": 2677272937, "lat": 28.5273671, "lon": 77.2538425}, {"type": "node", "id": 2677272938, "lat": 28.527283, "lon": 77.2540533}, {"type": "node", "id": 2677272940, "lat": 28.5286996, "lon": 77.2561446}, {"type": "node", "id": 2677272943, "lat": 28.5289317, "lon": 77.2568573}, {"type": "node", "id": 2677369551, "lat": 28.5282151, "lon": 77.2556766}, {"type": "node", "id": 2677369553, "lat": 28.5281235, "lon": 77.2552469}, {"type": "node", "id": 2677369570, "lat": 28.5275963, "lon": 77.254407}, {"type": "node", "id": 2677369571, "lat": 28.5266262, "lon": 77.2555119}, {"type": "node", "id": 2677369575, "lat": 28.5272554, "lon": 77.2557506}, {"type": "node", "id": 2677369576, "lat": 28.5273708, "lon": 77.2553564}, {"type": "node", "id": 2677369585, "lat": 28.5270434, "lon": 77.255539}, {"type": "node", "id": 2677369587, "lat": 28.5271242, "lon": 77.2552628}, {"type": "node", "id": 2677369591, "lat": 28.5266607, "lon": 77.2553939}, {"type": "node", "id": 2677369595, "lat": 28.5283218, "lon": 77.2553247}, {"type": "node", "id": 2677369597, "lat": 28.5280168, "lon": 77.2555987}, {"type": "node", "id": 7035274195, "lat": 28.5256851, "lon": 77.2565025}, {"type": "node", "id": 7035274197, "lat": 28.5255723, "lon": 77.2563151}, {"type": "node", "id": 7035274198, "lat": 28.5255354, "lon": 77.2564491}, {"type": "node", "id": 7035274199, "lat": 28.525722, "lon": 77.2563685}, {"type": "node", "id": 11961157497, "lat": 28.5285126, "lon": 77.2598621}, {"type": "node", "id": 11961157498, "lat": 28.5281679, "lon": 77.2599208}, {"type": "node", "id": 11961157499, "lat": 28.5298416, "lon": 77.2603899}, {"type": "node", "id": 11961157500, "lat": 28.5298578, "lon": 77.2598008}, {"type": "node", "id": 2629742839, "lat": 28.5289122, "lon": 77.2658403}, {"type": "node", "id": 2630762370, "lat": 28.5286174, "lon": 77.2649863}, {"type": "node", "id": 2677145285, "lat": 28.5280815, "lon": 77.2668389}, {"type": "node", "id": 2677145287, "lat": 28.5289447, "lon": 77.2606261}, {"type": "node", "id": 2677145290, "lat": 28.5288428, "lon": 77.2606404}, {"type": "node", "id": 2677145301, "lat": 28.5279749, "lon": 77.2656603}, {"type": "node", "id": 2677145316, "lat": 28.5286542, "lon": 77.2654158}, {"type": "node", "id": 2679055780, "lat": 28.528847, "lon": 77.2658903}, {"type": "node", "id": 2845331064, "lat": 28.5258761, "lon": 77.2619946}, {"type": "node", "id": 2845331065, "lat": 28.5259257, "lon": 77.2616949}, {"type": "node", "id": 2845331066, "lat": 28.526093, "lon": 77.2620475}, {"type": "node", "id": 2845331067, "lat": 28.5261178, "lon": 77.2617231}, {"type": "node", "id": 2845331069, "lat": 28.5262386, "lon": 77.2607321}, {"type": "node", "id": 2845331070, "lat": 28.5262557, "lon": 77.2617971}, {"type": "node", "id": 2845331071, "lat": 28.5263207, "lon": 77.2621674}, {"type": "node", "id": 2845331073, "lat": 28.5264261, "lon": 77.2618941}, {"type": "node", "id": 2845331074, "lat": 28.5264447, "lon": 77.2607568}, {"type": "node", "id": 2845331075, "lat": 28.5266058, "lon": 77.2608185}, {"type": "node", "id": 7039026979, "lat": 28.528568, "lon": 77.2650022}, {"type": "node", "id": 7039026980, "lat": 28.5276848, "lon": 77.2658554}, {"type": "node", "id": 7070262940, "lat": 28.5262931, "lon": 77.2634682}, {"type": "node", "id": 7070262941, "lat": 28.5259386, "lon": 77.2635814}, {"type": "node", "id": 7070262942, "lat": 28.5260773, "lon": 77.2638446}, {"type": "node", "id": 7070262943, "lat": 28.5263267, "lon": 77.2636931}, {"type": "node", "id": 7070262944, "lat": 28.5256409, "lon": 77.2637344}, {"type": "node", "id": 7070262945, "lat": 28.5257866, "lon": 77.2640645}, {"type": "node", "id": 7070262946, "lat": 28.5257054, "lon": 77.2641219}, {"type": "node", "id": 7070262947, "lat": 28.525568, "lon": 77.2637902}, {"type": "node", "id": 7070262948, "lat": 28.5259772, "lon": 77.2644744}, {"type": "node", "id": 7070262949, "lat": 28.5259071, "lon": 77.2645127}, {"type": "node", "id": 7070262950, "lat": 28.5259912, "lon": 77.2646817}, {"type": "node", "id": 7070262951, "lat": 28.5260473, "lon": 77.2646387}, {"type": "node", "id": 7070262958, "lat": 28.5264105, "lon": 77.2649528}, {"type": "node", "id": 7070262959, "lat": 28.5261919, "lon": 77.2651043}, {"type": "node", "id": 7070262960, "lat": 28.5262774, "lon": 77.2652909}, {"type": "node", "id": 7070262961, "lat": 28.5265072, "lon": 77.2651298}, {"type": "node", "id": 7070262962, "lat": 28.5265815, "lon": 77.2652893}, {"type": "node", "id": 7070262963, "lat": 28.5264049, "lon": 77.2653994}, {"type": "node", "id": 7070262964, "lat": 28.526552, "lon": 77.2657295}, {"type": "node", "id": 7070262965, "lat": 28.5267398, "lon": 77.2655955}, {"type": "node", "id": 7070262966, "lat": 28.526848, "lon": 77.26621}, {"type": "node", "id": 7070262967, "lat": 28.5267514, "lon": 77.2662677}, {"type": "node", "id": 7070262968, "lat": 28.5268563, "lon": 77.2664916}, {"type": "node", "id": 7070262969, "lat": 28.5269541, "lon": 77.2664098}, {"type": "node", "id": 7070263050, "lat": 28.5291356, "lon": 77.261771}, {"type": "node", "id": 7070263051, "lat": 28.5287234, "lon": 77.2617755}, {"type": "node", "id": 7070263052, "lat": 28.5287214, "lon": 77.2615094}, {"type": "node", "id": 7070263053, "lat": 28.5290088, "lon": 77.2615026}, {"type": "node", "id": 7070263054, "lat": 28.5290068, "lon": 77.2611778}, {"type": "node", "id": 7070263055, "lat": 28.5294249, "lon": 77.2611598}, {"type": "node", "id": 7070263056, "lat": 28.5294031, "lon": 77.260826}, {"type": "node", "id": 7070263057, "lat": 28.529732, "lon": 77.2608214}, {"type": "node", "id": 7070263058, "lat": 28.5297439, "lon": 77.2612928}, {"type": "node", "id": 7070263059, "lat": 28.5294526, "lon": 77.2612928}, {"type": "node", "id": 7070263060, "lat": 28.5294269, "lon": 77.26148}, {"type": "node", "id": 7070263061, "lat": 28.529308, "lon": 77.2614823}, {"type": "node", "id": 7070263062, "lat": 28.529306, "lon": 77.2616086}, {"type": "node", "id": 7070263063, "lat": 28.5291336, "lon": 77.2616041}, {"type": "node", "id": 7070263072, "lat": 28.5307527, "lon": 77.2623985}, {"type": "node", "id": 7070263073, "lat": 28.5303485, "lon": 77.2622361}, {"type": "node", "id": 7070263074, "lat": 28.5302375, "lon": 77.2624978}, {"type": "node", "id": 7070263075, "lat": 28.5306536, "lon": 77.262694}, {"type": "node", "id": 11961157496, "lat": 28.5284513, "lon": 77.2606952}, {"type": "node", "id": 7640317834, "lat": 28.5360956, "lon": 77.2543248}, {"type": "node", "id": 7640317835, "lat": 28.5357681, "lon": 77.2544562}, {"type": "node", "id": 7640317836, "lat": 28.5359071, "lon": 77.2551911}, {"type": "node", "id": 7640317837, "lat": 28.5359448, "lon": 77.2553896}, {"type": "node", "id": 7640317838, "lat": 28.5363171, "lon": 77.255234}, {"type": "node", "id": 7640317839, "lat": 28.5359118, "lon": 77.2555264}, {"type": "node", "id": 7640317840, "lat": 28.5355489, "lon": 77.2556256}, {"type": "node", "id": 7640317841, "lat": 28.5357044, "lon": 77.2563981}, {"type": "node", "id": 7640317842, "lat": 28.5357539, "lon": 77.2568407}, {"type": "node", "id": 7640317843, "lat": 28.5361522, "lon": 77.2565269}, {"type": "node", "id": 7640415210, "lat": 28.5376345, "lon": 77.2587921}, {"type": "node", "id": 7640415211, "lat": 28.5373447, "lon": 77.2589879}, {"type": "node", "id": 7640415212, "lat": 28.5374908, "lon": 77.2592052}, {"type": "node", "id": 7640415215, "lat": 28.5357919, "lon": 77.2586687}, {"type": "node", "id": 7640415216, "lat": 28.5356316, "lon": 77.2588994}, {"type": "node", "id": 7640415217, "lat": 28.5360369, "lon": 77.2590684}, {"type": "node", "id": 7640415218, "lat": 28.5364234, "lon": 77.2591864}, {"type": "node", "id": 7640415219, "lat": 28.5366142, "lon": 77.2592427}, {"type": "node", "id": 7640415220, "lat": 28.5366731, "lon": 77.2590845}, {"type": "node", "id": 7640415221, "lat": 28.5364516, "lon": 77.2587921}, {"type": "node", "id": 7640415222, "lat": 28.5362985, "lon": 77.2585775}, {"type": "node", "id": 7640415223, "lat": 28.5361524, "lon": 77.2585266}, {"type": "node", "id": 7640415224, "lat": 28.5359403, "lon": 77.2585641}, {"type": "node", "id": 7640415225, "lat": 28.5324245, "lon": 77.2574859}, {"type": "node", "id": 7640415226, "lat": 28.5321865, "lon": 77.2573947}, {"type": "node", "id": 7640415227, "lat": 28.5320475, "lon": 77.257848}, {"type": "node", "id": 7640415228, "lat": 28.5321088, "lon": 77.2578748}, {"type": "node", "id": 7640415229, "lat": 28.5319556, "lon": 77.2583603}, {"type": "node", "id": 7640415230, "lat": 28.5320899, "lon": 77.2583951}, {"type": "node", "id": 7640415231, "lat": 28.5321606, "lon": 77.2581725}, {"type": "node", "id": 7640415232, "lat": 28.5322219, "lon": 77.2579499}, {"type": "node", "id": 7640415233, "lat": 28.532236, "lon": 77.257915}, {"type": "node", "id": 7640415234, "lat": 28.5322997, "lon": 77.2579365}, {"type": "node", "id": 7640415236, "lat": 28.53213, "lon": 77.2585158}, {"type": "node", "id": 7640415237, "lat": 28.5318614, "lon": 77.2584273}, {"type": "node", "id": 7640415238, "lat": 28.5317742, "lon": 77.2587304}, {"type": "node", "id": 7640415239, "lat": 28.5318496, "lon": 77.2587599}, {"type": "node", "id": 7640415240, "lat": 28.5318189, "lon": 77.2588994}, {"type": "node", "id": 7640415241, "lat": 28.5319957, "lon": 77.2589665}, {"type": "node", "id": 1184065460, "lat": 28.5293536, "lon": 77.2725165}, {"type": "node", "id": 1184065462, "lat": 28.5291149, "lon": 77.2721073}, {"type": "node", "id": 1184065463, "lat": 28.5286625, "lon": 77.2719893}, {"type": "node", "id": 1184065464, "lat": 28.5279838, "lon": 77.2724205}, {"type": "node", "id": 1184065465, "lat": 28.528403, "lon": 77.2731933}, {"type": "node", "id": 1801023470, "lat": 28.5281638, "lon": 77.2673447}, {"type": "node", "id": 2679055782, "lat": 28.5279327, "lon": 77.2685567}, {"type": "node", "id": 2679055792, "lat": 28.5284134, "lon": 77.2682828}, {"type": "node", "id": 2679055794, "lat": 28.5283568, "lon": 77.2694474}, {"type": "node", "id": 2679055801, "lat": 28.5295822, "lon": 77.2679073}, {"type": "node", "id": 2679055808, "lat": 28.5297755, "lon": 77.2684655}, {"type": "node", "id": 2679055813, "lat": 28.5291204, "lon": 77.2670174}, {"type": "node", "id": 7039026981, "lat": 28.5273409, "lon": 77.2673279}, {"type": "node", "id": 9855542087, "lat": 28.5290737, "lon": 77.2680742}, {"type": "node", "id": 9855542092, "lat": 28.5283582, "lon": 77.2680909}, {"type": "node", "id": 9860157381, "lat": 28.5296884, "lon": 77.268214}, {"type": "node", "id": 12151043955, "lat": 28.5376509, "lon": 77.2774664}, {"type": "node", "id": 12151043956, "lat": 28.5370437, "lon": 77.2778318}, {"type": "node", "id": 12151043958, "lat": 28.5373242, "lon": 77.2783525}, {"type": "node", "id": 1815960906, "lat": 28.5025403, "lon": 77.2847193}, {"type": "node", "id": 2914353309, "lat": 28.5025786, "lon": 77.2838333}, {"type": "node", "id": 2914353315, "lat": 28.5030756, "lon": 77.2833456}, {"type": "node", "id": 2914353316, "lat": 28.5031584, "lon": 77.2829873}, {"type": "node", "id": 2914353320, "lat": 28.5032922, "lon": 77.2840017}, {"type": "node", "id": 2914353324, "lat": 28.5035584, "lon": 77.2819836}, {"type": "node", "id": 2914353325, "lat": 28.5037302, "lon": 77.2837244}, {"type": "node", "id": 2914353326, "lat": 28.5037679, "lon": 77.2835065}, {"type": "node", "id": 7020241194, "lat": 28.5025464, "lon": 77.2862743}, {"type": "node", "id": 7020241199, "lat": 28.5033904, "lon": 77.2810538}, {"type": "node", "id": 7020241200, "lat": 28.503535, "lon": 77.2812116}, {"type": "node", "id": 7020241201, "lat": 28.5034205, "lon": 77.2817944}, {"type": "node", "id": 7020241202, "lat": 28.5038845, "lon": 77.2837691}, {"type": "node", "id": 7020241203, "lat": 28.5037338, "lon": 77.284441}, {"type": "node", "id": 7020241204, "lat": 28.5032458, "lon": 77.2843176}, {"type": "node", "id": 7020241205, "lat": 28.5024504, "lon": 77.2862649}, {"type": "node", "id": 6557135654, "lat": 28.5034083, "lon": 77.288772}, {"type": "node", "id": 6557135655, "lat": 28.5029369, "lon": 77.2889169}, {"type": "node", "id": 6557135656, "lat": 28.5025456, "lon": 77.2890295}, {"type": "node", "id": 6557135657, "lat": 28.5025786, "lon": 77.2891261}, {"type": "node", "id": 6557135658, "lat": 28.5024089, "lon": 77.2892709}, {"type": "node", "id": 6557135659, "lat": 28.5023806, "lon": 77.289566}, {"type": "node", "id": 6557135660, "lat": 28.5035026, "lon": 77.2892226}, {"type": "node", "id": 6557135661, "lat": 28.5033329, "lon": 77.2897108}, {"type": "node", "id": 6557135662, "lat": 28.502786, "lon": 77.2899093}, {"type": "node", "id": 6557135663, "lat": 28.5030264, "lon": 77.2906442}, {"type": "node", "id": 6557135664, "lat": 28.5033093, "lon": 77.2905745}, {"type": "node", "id": 6557135665, "lat": 28.5032904, "lon": 77.2903813}, {"type": "node", "id": 6557135666, "lat": 28.5034648, "lon": 77.2903062}, {"type": "node", "id": 7020241195, "lat": 28.5064135, "lon": 77.2856987}, {"type": "node", "id": 7020241196, "lat": 28.5064052, "lon": 77.284878}, {"type": "node", "id": 11935286442, "lat": 28.5065283, "lon": 77.2810292}, {"type": "node", "id": 11935286443, "lat": 28.5062879, "lon": 77.2809327}, {"type": "node", "id": 11935286444, "lat": 28.5055195, "lon": 77.283293}, {"type": "node", "id": 11935286445, "lat": 28.5063209, "lon": 77.2837436}, {"type": "node", "id": 4722869722, "lat": 28.5179759, "lon": 77.2837314}, {"type": "node", "id": 4722869723, "lat": 28.5179518, "lon": 77.2837574}, {"type": "node", "id": 4722869724, "lat": 28.5179364, "lon": 77.2837908}, {"type": "node", "id": 4722869725, "lat": 28.5179312, "lon": 77.2838281}, {"type": "node", "id": 4722869732, "lat": 28.5179368, "lon": 77.2838653}, {"type": "node", "id": 4722869733, "lat": 28.517953, "lon": 77.2838991}, {"type": "node", "id": 4722869734, "lat": 28.517978, "lon": 77.2839249}, {"type": "node", "id": 4722869720, "lat": 28.5180391, "lon": 77.2837117}, {"type": "node", "id": 4722869721, "lat": 28.5180061, "lon": 77.2837156}, {"type": "node", "id": 4722869726, "lat": 28.5180429, "lon": 77.2839427}, {"type": "node", "id": 4722869727, "lat": 28.5180755, "lon": 77.2839326}, {"type": "node", "id": 4722869728, "lat": 28.5181035, "lon": 77.2839109}, {"type": "node", "id": 4722869729, "lat": 28.5181237, "lon": 77.2838801}, {"type": "node", "id": 4722869730, "lat": 28.5181338, "lon": 77.2838433}, {"type": "node", "id": 4722869731, "lat": 28.5181329, "lon": 77.2838049}, {"type": "node", "id": 4722869735, "lat": 28.5180092, "lon": 77.28394}, {"type": "node", "id": 4722869736, "lat": 28.5181209, "lon": 77.2837689}, {"type": "node", "id": 4722869737, "lat": 28.5180997, "lon": 77.2837398}, {"type": "node", "id": 4722869738, "lat": 28.5180714, "lon": 77.2837201}, {"type": "node", "id": 2436996271, "lat": 28.5275042, "lon": 77.2926651}, {"type": "node", "id": 2436996272, "lat": 28.5271558, "lon": 77.2927172}, {"type": "node", "id": 2436996275, "lat": 28.5259914, "lon": 77.2931347}, {"type": "node", "id": 2436996276, "lat": 28.5255146, "lon": 77.2922737}, {"type": "node", "id": 2436996277, "lat": 28.5258493, "lon": 77.2920598}, {"type": "node", "id": 2436996278, "lat": 28.5268715, "lon": 77.2909015}, {"type": "node", "id": 2436996280, "lat": 28.5277517, "lon": 77.2899675}, {"type": "node", "id": 2870402985, "lat": 28.5309965, "lon": 77.2900617}, {"type": "node", "id": 2870402987, "lat": 28.5311024, "lon": 77.2902188}, {"type": "node", "id": 6256156998, "lat": 28.5297314, "lon": 77.2926153}, {"type": "node", "id": 2716596255, "lat": 28.5376398, "lon": 77.2860803}, {"type": "node", "id": 2870402994, "lat": 28.5320365, "lon": 77.289154}, {"type": "node", "id": 2870402997, "lat": 28.5321423, "lon": 77.289311}, {"type": "node", "id": 2870403203, "lat": 28.5329678, "lon": 77.2906941}, {"type": "node", "id": 2870403204, "lat": 28.5329853, "lon": 77.2892887}, {"type": "node", "id": 2870403205, "lat": 28.5331239, "lon": 77.2898255}, {"type": "node", "id": 2870403207, "lat": 28.5331268, "lon": 77.2905263}, {"type": "node", "id": 2870403208, "lat": 28.5331297, "lon": 77.2903486}, {"type": "node", "id": 2870403215, "lat": 28.5332771, "lon": 77.2910955}, {"type": "node", "id": 2870403217, "lat": 28.5332288, "lon": 77.2897188}, {"type": "node", "id": 2870403219, "lat": 28.5333321, "lon": 77.2901413}, {"type": "node", "id": 2870403220, "lat": 28.5333436, "lon": 77.2903355}, {"type": "node", "id": 2870403221, "lat": 28.5333908, "lon": 77.2889602}, {"type": "node", "id": 2870403226, "lat": 28.5337973, "lon": 77.2899425}, {"type": "node", "id": 2870403229, "lat": 28.5340857, "lon": 77.2875348}, {"type": "node", "id": 2870403230, "lat": 28.5341307, "lon": 77.2890117}, {"type": "node", "id": 2870403231, "lat": 28.5341904, "lon": 77.2877944}, {"type": "node", "id": 2870403232, "lat": 28.5341954, "lon": 77.2891724}, {"type": "node", "id": 2870403235, "lat": 28.5344924, "lon": 77.2873284}, {"type": "node", "id": 2870403237, "lat": 28.534585, "lon": 77.2886634}, {"type": "node", "id": 2870403238, "lat": 28.5346221, "lon": 77.2887555}, {"type": "node", "id": 2870403239, "lat": 28.5345972, "lon": 77.2875881}, {"type": "node", "id": 2870403242, "lat": 28.5349872, "lon": 77.2884536}, {"type": "node", "id": 2870403244, "lat": 28.5350408, "lon": 77.2885868}, {"type": "node", "id": 2870403249, "lat": 28.5353359, "lon": 77.2869815}, {"type": "node", "id": 2870403251, "lat": 28.5354458, "lon": 77.2872678}, {"type": "node", "id": 2870403253, "lat": 28.5354669, "lon": 77.2883645}, {"type": "node", "id": 2870403255, "lat": 28.535515, "lon": 77.2884841}, {"type": "node", "id": 2870403258, "lat": 28.5355932, "lon": 77.2870539}, {"type": "node", "id": 2870403259, "lat": 28.5356878, "lon": 77.2871507}, {"type": "node", "id": 2870403260, "lat": 28.5356915, "lon": 77.2870375}, {"type": "node", "id": 2870403262, "lat": 28.5357493, "lon": 77.2870259}, {"type": "node", "id": 2870403263, "lat": 28.5358114, "lon": 77.2869898}, {"type": "node", "id": 2870403264, "lat": 28.5359617, "lon": 77.2868647}, {"type": "node", "id": 2870403274, "lat": 28.5365944, "lon": 77.28945}, {"type": "node", "id": 2870403282, "lat": 28.5369664, "lon": 77.289279}, {"type": "node", "id": 2870403285, "lat": 28.5370103, "lon": 77.2891964}, {"type": "node", "id": 6557965561, "lat": 28.5324289, "lon": 77.2887899}, {"type": "node", "id": 6557965565, "lat": 28.532707, "lon": 77.289329}, {"type": "node", "id": 6557965566, "lat": 28.5330393, "lon": 77.2890715}, {"type": "node", "id": 6557965567, "lat": 28.5333856, "lon": 77.2888462}, {"type": "node", "id": 6557965568, "lat": 28.5331665, "lon": 77.2882427}, {"type": "node", "id": 6557965569, "lat": 28.5331358, "lon": 77.2881917}, {"type": "node", "id": 6557965570, "lat": 28.5328436, "lon": 77.2884573}, {"type": "node", "id": 6558016517, "lat": 28.5318151, "lon": 77.2895966}, {"type": "node", "id": 6581163792, "lat": 28.5340206, "lon": 77.2890538}, {"type": "node", "id": 6581163793, "lat": 28.5338675, "lon": 77.289153}, {"type": "node", "id": 6581163794, "lat": 28.5336295, "lon": 77.2892764}, {"type": "node", "id": 6581163795, "lat": 28.5337143, "lon": 77.289499}, {"type": "node", "id": 6581163796, "lat": 28.5339617, "lon": 77.2893676}, {"type": "node", "id": 6581163797, "lat": 28.5341149, "lon": 77.2892683}, {"type": "node", "id": 6581163798, "lat": 28.533092, "lon": 77.2891545}, {"type": "node", "id": 6581163799, "lat": 28.5335952, "lon": 77.289446}, {"type": "node", "id": 6581163800, "lat": 28.5333165, "lon": 77.2889973}, {"type": "node", "id": 12951456981, "lat": 28.5354187, "lon": 77.2871972}, {"type": "node", "id": 12951486980, "lat": 28.532914, "lon": 77.2891598}, {"type": "node", "id": 12951486981, "lat": 28.5331395, "lon": 77.2898096}, {"type": "node", "id": 2436996268, "lat": 28.527903, "lon": 77.2941939}, {"type": "node", "id": 2436996269, "lat": 28.5276509, "lon": 77.2934477}, {"type": "node", "id": 2436996273, "lat": 28.5270503, "lon": 77.293599}, {"type": "node", "id": 6573803751, "lat": 28.5265803, "lon": 77.2933929}, {"type": "node", "id": 1042719158, "lat": 28.5403358, "lon": 77.2405495}, {"type": "node", "id": 1042719593, "lat": 28.5401466, "lon": 77.2405728}, {"type": "node", "id": 1042719896, "lat": 28.5401421, "lon": 77.2402953}, {"type": "node", "id": 1042720573, "lat": 28.5402788, "lon": 77.2402745}, {"type": "node", "id": 1040992309, "lat": 28.5377975, "lon": 77.2434805}, {"type": "node", "id": 1040992726, "lat": 28.5377385, "lon": 77.2424619}, {"type": "node", "id": 1040993270, "lat": 28.5381635, "lon": 77.243021}, {"type": "node", "id": 1040993545, "lat": 28.5383713, "lon": 77.2426877}, {"type": "node", "id": 1042719080, "lat": 28.5394083, "lon": 77.243317}, {"type": "node", "id": 1042719136, "lat": 28.5437687, "lon": 77.2470576}, {"type": "node", "id": 1042719186, "lat": 28.5403841, "lon": 77.2447002}, {"type": "node", "id": 1042719234, "lat": 28.5415496, "lon": 77.2470114}, {"type": "node", "id": 1042719266, "lat": 28.5434915, "lon": 77.2467941}, {"type": "node", "id": 1042719276, "lat": 28.5425653, "lon": 77.2460711}, {"type": "node", "id": 1042719348, "lat": 28.5422775, "lon": 77.2435815}, {"type": "node", "id": 1042719357, "lat": 28.5389192, "lon": 77.2466187}, {"type": "node", "id": 1042719429, "lat": 28.5426239, "lon": 77.2445336}, {"type": "node", "id": 1042719431, "lat": 28.5396836, "lon": 77.2439728}, {"type": "node", "id": 1042719435, "lat": 28.5398472, "lon": 77.2460381}, {"type": "node", "id": 1042719463, "lat": 28.5404552, "lon": 77.2454328}, {"type": "node", "id": 1042719470, "lat": 28.5422349, "lon": 77.2453609}, {"type": "node", "id": 1042719528, "lat": 28.542813, "lon": 77.2433325}, {"type": "node", "id": 1042719566, "lat": 28.5399903, "lon": 77.2448185}, {"type": "node", "id": 1042719574, "lat": 28.5437114, "lon": 77.2471011}, {"type": "node", "id": 1042719629, "lat": 28.5413422, "lon": 77.2468895}, {"type": "node", "id": 1042719643, "lat": 28.5423859, "lon": 77.2462397}, {"type": "node", "id": 1042719666, "lat": 28.541928, "lon": 77.2458893}, {"type": "node", "id": 1042719677, "lat": 28.5382446, "lon": 77.2470831}, {"type": "node", "id": 1042719707, "lat": 28.5431457, "lon": 77.2442456}, {"type": "node", "id": 1042719727, "lat": 28.539381, "lon": 77.2442343}, {"type": "node", "id": 1042719740, "lat": 28.5396453, "lon": 77.2460339}, {"type": "node", "id": 1042719776, "lat": 28.540457, "lon": 77.2452481}, {"type": "node", "id": 1042719856, "lat": 28.5397478, "lon": 77.2451256}, {"type": "node", "id": 1042719860, "lat": 28.5439801, "lon": 77.2465492}, {"type": "node", "id": 1042720111, "lat": 28.5390109, "lon": 77.24384}, {"type": "node", "id": 1042720193, "lat": 28.5419256, "lon": 77.246586}, {"type": "node", "id": 1042720256, "lat": 28.5416407, "lon": 77.2464096}, {"type": "node", "id": 1042720259, "lat": 28.5399265, "lon": 77.2452273}, {"type": "node", "id": 1042720304, "lat": 28.5401052, "lon": 77.245329}, {"type": "node", "id": 1042720414, "lat": 28.5394149, "lon": 77.2462813}, {"type": "node", "id": 1042720417, "lat": 28.5441241, "lon": 77.2468646}, {"type": "node", "id": 1042720463, "lat": 28.5404242, "lon": 77.2450011}, {"type": "node", "id": 1042720555, "lat": 28.5436501, "lon": 77.2471987}, {"type": "node", "id": 1042720589, "lat": 28.5403422, "lon": 77.2445155}, {"type": "node", "id": 1042720694, "lat": 28.5395852, "lon": 77.2436843}, {"type": "node", "id": 1042720698, "lat": 28.5399195, "lon": 77.2461152}, {"type": "node", "id": 1042720734, "lat": 28.5402765, "lon": 77.2453913}, {"type": "node", "id": 1042741437, "lat": 28.5408667, "lon": 77.2422238}, {"type": "node", "id": 1042741446, "lat": 28.5399227, "lon": 77.2427979}, {"type": "node", "id": 1042741452, "lat": 28.5403901, "lon": 77.2418999}, {"type": "node", "id": 1042741473, "lat": 28.5397767, "lon": 77.2417064}, {"type": "node", "id": 1042741478, "lat": 28.5400963, "lon": 77.2427032}, {"type": "node", "id": 1042741488, "lat": 28.5409849, "lon": 77.2413679}, {"type": "node", "id": 1042741492, "lat": 28.5404609, "lon": 77.241074}, {"type": "node", "id": 1042741500, "lat": 28.5407817, "lon": 77.2422953}, {"type": "node", "id": 1042741518, "lat": 28.5409163, "lon": 77.2409957}, {"type": "node", "id": 1042741524, "lat": 28.5396049, "lon": 77.242127}, {"type": "node", "id": 1042741529, "lat": 28.5400557, "lon": 77.2425098}, {"type": "node", "id": 1042741534, "lat": 28.5413202, "lon": 77.2408144}, {"type": "node", "id": 1042741549, "lat": 28.5404609, "lon": 77.2416421}, {"type": "node", "id": 2456221485, "lat": 28.5414861, "lon": 77.2420404}, {"type": "node", "id": 2456221486, "lat": 28.5418508, "lon": 77.2429444}, {"type": "node", "id": 2456221487, "lat": 28.5420714, "lon": 77.2434132}, {"type": "node", "id": 2456221489, "lat": 28.5422773, "lon": 77.2439857}, {"type": "node", "id": 2456221490, "lat": 28.5419832, "lon": 77.2441297}, {"type": "node", "id": 2456221492, "lat": 28.5418214, "lon": 77.2436978}, {"type": "node", "id": 2456221494, "lat": 28.5416449, "lon": 77.2431587}, {"type": "node", "id": 2456221496, "lat": 28.5412096, "lon": 77.2422111}, {"type": "node", "id": 2684837499, "lat": 28.5395815, "lon": 77.2461024}, {"type": "node", "id": 2684837501, "lat": 28.5397235, "lon": 77.2460132}, {"type": "node", "id": 2684837503, "lat": 28.539521, "lon": 77.2461674}, {"type": "node", "id": 2684837527, "lat": 28.5397841, "lon": 77.2460165}, {"type": "node", "id": 2684837530, "lat": 28.5398928, "lon": 77.2460718}, {"type": "node", "id": 6750512433, "lat": 28.540402, "lon": 77.2423594}, {"type": "node", "id": 6750512436, "lat": 28.5403104, "lon": 77.2425795}, {"type": "node", "id": 6750512438, "lat": 28.5411257, "lon": 77.2419818}, {"type": "node", "id": 6750512440, "lat": 28.5405201, "lon": 77.2424908}, {"type": "node", "id": 6750512442, "lat": 28.5410936, "lon": 77.2421932}, {"type": "node", "id": 6750512447, "lat": 28.5411931, "lon": 77.2421256}, {"type": "node", "id": 7640317814, "lat": 28.5412382, "lon": 77.2411672}, {"type": "node", "id": 7640317815, "lat": 28.5410662, "lon": 77.2414113}, {"type": "node", "id": 7640317816, "lat": 28.5412382, "lon": 77.2415266}, {"type": "node", "id": 7640317817, "lat": 28.5414301, "lon": 77.2419605}, {"type": "node", "id": 7640317818, "lat": 28.5416385, "lon": 77.2418491}, {"type": "node", "id": 7640317819, "lat": 28.5414362, "lon": 77.2413201}, {"type": "node", "id": 7640317820, "lat": 28.5381444, "lon": 77.2462312}, {"type": "node", "id": 7640317821, "lat": 28.5379559, "lon": 77.2460139}, {"type": "node", "id": 7640317822, "lat": 28.5377439, "lon": 77.2457833}, {"type": "node", "id": 7640317823, "lat": 28.5376873, "lon": 77.2459013}, {"type": "node", "id": 7640317825, "lat": 28.5376897, "lon": 77.2464753}, {"type": "node", "id": 11964843484, "lat": 28.5420409, "lon": 77.2456981}, {"type": "node", "id": 11964843488, "lat": 28.5420853, "lon": 77.2456843}, {"type": "node", "id": 11964843502, "lat": 28.5420659, "lon": 77.2457172}, {"type": "node", "id": 11964843530, "lat": 28.5420568, "lon": 77.2456624}, {"type": "node", "id": 11985356772, "lat": 28.5415364, "lon": 77.2419037}, {"type": "node", "id": 11985356780, "lat": 28.541357, "lon": 77.2412589}, {"type": "node", "id": 12779112185, "lat": 28.5438392, "lon": 77.2425361}, {"type": "node", "id": 12779112187, "lat": 28.54412, "lon": 77.2415987}, {"type": "node", "id": 12779112189, "lat": 28.5439064, "lon": 77.242722}, {"type": "node", "id": 12779138901, "lat": 28.5440726, "lon": 77.242035}, {"type": "node", "id": 12779138904, "lat": 28.5441622, "lon": 77.2422761}, {"type": "node", "id": 12779138909, "lat": 28.543752, "lon": 77.2427943}, {"type": "node", "id": 12779138914, "lat": 28.5436848, "lon": 77.2426085}, {"type": "node", "id": 1040993482, "lat": 28.5383244, "lon": 77.250638}, {"type": "node", "id": 1042719094, "lat": 28.5436307, "lon": 77.2488147}, {"type": "node", "id": 1042719131, "lat": 28.5396176, "lon": 77.2473721}, {"type": "node", "id": 1042719211, "lat": 28.5392253, "lon": 77.2485704}, {"type": "node", "id": 1042719257, "lat": 28.5399793, "lon": 77.2530903}, {"type": "node", "id": 1042719313, "lat": 28.5419344, "lon": 77.2492717}, {"type": "node", "id": 1042719317, "lat": 28.5411873, "lon": 77.2522739}, {"type": "node", "id": 1042719398, "lat": 28.540914, "lon": 77.2507204}, {"type": "node", "id": 1042719410, "lat": 28.5403745, "lon": 77.2530604}, {"type": "node", "id": 1042719436, "lat": 28.544101, "lon": 77.2481319}, {"type": "node", "id": 1042719496, "lat": 28.5391152, "lon": 77.2476123}, {"type": "node", "id": 1042719504, "lat": 28.5395707, "lon": 77.2482054}, {"type": "node", "id": 1042719509, "lat": 28.5423104, "lon": 77.2499877}, {"type": "node", "id": 1042719525, "lat": 28.540729, "lon": 77.2522967}, {"type": "node", "id": 1042719537, "lat": 28.5437036, "lon": 77.24885}, {"type": "node", "id": 1042719615, "lat": 28.5397139, "lon": 77.2488174}, {"type": "node", "id": 1042719636, "lat": 28.540287, "lon": 77.253258}, {"type": "node", "id": 1042719662, "lat": 28.541661, "lon": 77.2499384}, {"type": "node", "id": 1042719684, "lat": 28.5435213, "lon": 77.2481278}, {"type": "node", "id": 1042719687, "lat": 28.5421327, "lon": 77.2501901}, {"type": "node", "id": 1042719693, "lat": 28.5408008, "lon": 77.2509877}, {"type": "node", "id": 1042719699, "lat": 28.5405684, "lon": 77.2524904}, {"type": "node", "id": 1042719847, "lat": 28.5437692, "lon": 77.2488396}, {"type": "node", "id": 1042719892, "lat": 28.5438367, "lon": 77.2487836}, {"type": "node", "id": 1042719944, "lat": 28.5413233, "lon": 77.2519534}, {"type": "node", "id": 1042719991, "lat": 28.5440171, "lon": 77.2478808}, {"type": "node", "id": 1042720035, "lat": 28.5382059, "lon": 77.2473996}, {"type": "node", "id": 1042720068, "lat": 28.5412258, "lon": 77.2512207}, {"type": "node", "id": 1042720069, "lat": 28.5402814, "lon": 77.2523297}, {"type": "node", "id": 1042720146, "lat": 28.5394487, "lon": 77.248291}, {"type": "node", "id": 1042720210, "lat": 28.5408518, "lon": 77.2516943}, {"type": "node", "id": 1042720258, "lat": 28.537888, "lon": 77.2518464}, {"type": "node", "id": 1042720261, "lat": 28.5439005, "lon": 77.2487151}, {"type": "node", "id": 1042720338, "lat": 28.5399542, "lon": 77.2482369}, {"type": "node", "id": 1042720377, "lat": 28.5434994, "lon": 77.2485511}, {"type": "node", "id": 1042720410, "lat": 28.538926, "lon": 77.2477887}, {"type": "node", "id": 1042720457, "lat": 28.5403337, "lon": 77.2520896}, {"type": "node", "id": 1042720507, "lat": 28.5393602, "lon": 77.2483878}, {"type": "node", "id": 1042720538, "lat": 28.5380224, "lon": 77.2519943}, {"type": "node", "id": 1042720546, "lat": 28.5400755, "lon": 77.2528728}, {"type": "node", "id": 1042720571, "lat": 28.5397372, "lon": 77.2473721}, {"type": "node", "id": 1042720586, "lat": 28.5420438, "lon": 77.2493184}, {"type": "node", "id": 1042720595, "lat": 28.5407159, "lon": 77.2520149}, {"type": "node", "id": 1042720704, "lat": 28.544101, "lon": 77.2481921}, {"type": "node", "id": 1042720764, "lat": 28.5398725, "lon": 77.2482093}, {"type": "node", "id": 1042720774, "lat": 28.541339, "lon": 77.2509534}, {"type": "node", "id": 3782946699, "lat": 28.5377352, "lon": 77.2517104}, {"type": "node", "id": 7640317826, "lat": 28.539722, "lon": 77.2503283}, {"type": "node", "id": 7640317827, "lat": 28.539312, "lon": 77.2501244}, {"type": "node", "id": 7640317828, "lat": 28.5390787, "lon": 77.2506394}, {"type": "node", "id": 7640317829, "lat": 28.539484, "lon": 77.2508862}, {"type": "node", "id": 7890137288, "lat": 28.5377559, "lon": 77.2493613}, {"type": "node", "id": 7890137289, "lat": 28.5387291, "lon": 77.2498098}, {"type": "node", "id": 11244995827, "lat": 28.5430629, "lon": 77.2535029}, {"type": "node", "id": 11244995828, "lat": 28.5431574, "lon": 77.2532908}, {"type": "node", "id": 11244995829, "lat": 28.5440202, "lon": 77.2537888}, {"type": "node", "id": 11244995833, "lat": 28.544029, "lon": 77.2530404}, {"type": "node", "id": 11244995834, "lat": 28.5442175, "lon": 77.2528419}, {"type": "node", "id": 11756751149, "lat": 28.5436526, "lon": 77.2515472}, {"type": "node", "id": 11756751151, "lat": 28.5423776, "lon": 77.2528522}, {"type": "node", "id": 11756751152, "lat": 28.5414808, "lon": 77.2532727}, {"type": "node", "id": 11756751156, "lat": 28.5424411, "lon": 77.2527586}, {"type": "node", "id": 11756751159, "lat": 28.5439253, "lon": 77.2513812}, {"type": "node", "id": 11756751162, "lat": 28.5416288, "lon": 77.2533829}, {"type": "node", "id": 11756751163, "lat": 28.5426223, "lon": 77.2529547}, {"type": "node", "id": 11756751164, "lat": 28.5439489, "lon": 77.2515311}, {"type": "node", "id": 11756892070, "lat": 28.5423742, "lon": 77.2529045}, {"type": "node", "id": 11756892071, "lat": 28.5425794, "lon": 77.2527667}, {"type": "node", "id": 11756892075, "lat": 28.5425907, "lon": 77.2530017}, {"type": "node", "id": 11756892082, "lat": 28.5422661, "lon": 77.2521052}, {"type": "node", "id": 11756892083, "lat": 28.5424465, "lon": 77.2530229}, {"type": "node", "id": 11756892086, "lat": 28.5432791, "lon": 77.2518079}, {"type": "node", "id": 11756892088, "lat": 28.5425661, "lon": 77.2517492}, {"type": "node", "id": 11756892093, "lat": 28.5426315, "lon": 77.2528518}, {"type": "node", "id": 11756892098, "lat": 28.5424045, "lon": 77.2527928}, {"type": "node", "id": 11756892103, "lat": 28.5426353, "lon": 77.2528998}, {"type": "node", "id": 11756892107, "lat": 28.5424976, "lon": 77.2530382}, {"type": "node", "id": 11756892108, "lat": 28.5424924, "lon": 77.2527406}, {"type": "node", "id": 11756892112, "lat": 28.5433568, "lon": 77.2519381}, {"type": "node", "id": 11756892113, "lat": 28.5417344, "lon": 77.2531891}, {"type": "node", "id": 11756892114, "lat": 28.5416001, "lon": 77.2530974}, {"type": "node", "id": 11756892115, "lat": 28.5423869, "lon": 77.2529549}, {"type": "node", "id": 11756892116, "lat": 28.5425488, "lon": 77.2530296}, {"type": "node", "id": 11756892124, "lat": 28.541724, "lon": 77.2531607}, {"type": "node", "id": 11756892126, "lat": 28.5415664, "lon": 77.2531038}, {"type": "node", "id": 11756892129, "lat": 28.5425673, "lon": 77.2516944}, {"type": "node", "id": 11756892132, "lat": 28.5425089, "lon": 77.2515678}, {"type": "node", "id": 11756892133, "lat": 28.5423591, "lon": 77.2520652}, {"type": "node", "id": 11756892135, "lat": 28.5425395, "lon": 77.2527454}, {"type": "node", "id": 11756892142, "lat": 28.5424122, "lon": 77.2529951}, {"type": "node", "id": 11756892148, "lat": 28.5423027, "lon": 77.2520991}, {"type": "node", "id": 11756892150, "lat": 28.542612, "lon": 77.2528037}, {"type": "node", "id": 11756892151, "lat": 28.5416613, "lon": 77.2533607}, {"type": "node", "id": 11756892154, "lat": 28.5414903, "lon": 77.2533058}, {"type": "node", "id": 11756892155, "lat": 28.5421816, "lon": 77.252062}, {"type": "node", "id": 11964843486, "lat": 28.5397152, "lon": 77.248187}, {"type": "node", "id": 12095273058, "lat": 28.5402667, "lon": 77.2522554}, {"type": "node", "id": 12095273063, "lat": 28.5406445, "lon": 77.2524667}, {"type": "node", "id": 939241646, "lat": 28.5498964, "lon": 77.2446334}, {"type": "node", "id": 5244473248, "lat": 28.547631, "lon": 77.2427906}, {"type": "node", "id": 5244473250, "lat": 28.5472686, "lon": 77.2429832}, {"type": "node", "id": 5244473251, "lat": 28.5468635, "lon": 77.2431791}, {"type": "node", "id": 5244473253, "lat": 28.546252, "lon": 77.2414802}, {"type": "node", "id": 5244473254, "lat": 28.5470901, "lon": 77.2423102}, {"type": "node", "id": 6020921014, "lat": 28.5474478, "lon": 77.2421893}, {"type": "node", "id": 7116250480, "lat": 28.5489122, "lon": 77.2446406}, {"type": "node", "id": 7116250481, "lat": 28.5506691, "lon": 77.2456204}, {"type": "node", "id": 10554336798, "lat": 28.550162, "lon": 77.2449754}, {"type": "node", "id": 10696380621, "lat": 28.5443122, "lon": 77.2435564}, {"type": "node", "id": 10696380622, "lat": 28.544399, "lon": 77.2437889}, {"type": "node", "id": 10696380623, "lat": 28.5450306, "lon": 77.2434834}, {"type": "node", "id": 10696380624, "lat": 28.5449438, "lon": 77.2432508}, {"type": "node", "id": 10696380625, "lat": 28.5453382, "lon": 77.2417623}, {"type": "node", "id": 10696380626, "lat": 28.5456881, "lon": 77.2426456}, {"type": "node", "id": 10696380627, "lat": 28.5460343, "lon": 77.2424678}, {"type": "node", "id": 10696380628, "lat": 28.5456844, "lon": 77.2415846}, {"type": "node", "id": 11766115240, "lat": 28.5499602, "lon": 77.2447149}, {"type": "node", "id": 11766134608, "lat": 28.5493382, "lon": 77.2458271}, {"type": "node", "id": 11766134626, "lat": 28.5499939, "lon": 77.244966}, {"type": "node", "id": 11766134629, "lat": 28.5494263, "lon": 77.2446461}, {"type": "node", "id": 11766134642, "lat": 28.5501492, "lon": 77.2449565}, {"type": "node", "id": 11766134646, "lat": 28.5500858, "lon": 77.244877}, {"type": "node", "id": 11766134658, "lat": 28.5498699, "lon": 77.2448038}, {"type": "node", "id": 11767167739, "lat": 28.5461057, "lon": 77.2458477}, {"type": "node", "id": 11767167767, "lat": 28.5466866, "lon": 77.2459727}, {"type": "node", "id": 11767219090, "lat": 28.5462409, "lon": 77.2461965}, {"type": "node", "id": 11767219101, "lat": 28.5465514, "lon": 77.2456238}, {"type": "node", "id": 11782596206, "lat": 28.54682, "lon": 77.243055}, {"type": "node", "id": 11782596268, "lat": 28.5468316, "lon": 77.2430875}, {"type": "node", "id": 11782607379, "lat": 28.5468232, "lon": 77.243064}, {"type": "node", "id": 11782607461, "lat": 28.5463394, "lon": 77.2414351}, {"type": "node", "id": 11782607465, "lat": 28.5465364, "lon": 77.2422384}, {"type": "node", "id": 12779112181, "lat": 28.5444566, "lon": 77.2414365}, {"type": "node", "id": 12779112188, "lat": 28.5446766, "lon": 77.2420283}, {"type": "node", "id": 12779112192, "lat": 28.5449151, "lon": 77.2419941}, {"type": "node", "id": 12779112195, "lat": 28.5442504, "lon": 77.2419494}, {"type": "node", "id": 12779138906, "lat": 28.544984, "lon": 77.2421672}, {"type": "node", "id": 12779138911, "lat": 28.5452724, "lon": 77.2418099}, {"type": "node", "id": 12779138913, "lat": 28.5453413, "lon": 77.241983}, {"type": "node", "id": 13059345552, "lat": 28.5462926, "lon": 77.2465355}, {"type": "node", "id": 13059345553, "lat": 28.5464902, "lon": 77.247013}, {"type": "node", "id": 13059345554, "lat": 28.5463386, "lon": 77.2470993}, {"type": "node", "id": 13059345555, "lat": 28.5461573, "lon": 77.2466063}, {"type": "node", "id": 13059347144, "lat": 28.5461104, "lon": 77.2451216}, {"type": "node", "id": 13059347145, "lat": 28.5463342, "lon": 77.2457092}, {"type": "node", "id": 13059347146, "lat": 28.5460917, "lon": 77.2458295}, {"type": "node", "id": 13059347147, "lat": 28.5458306, "lon": 77.2452526}, {"type": "node", "id": 562621327, "lat": 28.5503715, "lon": 77.2483011}, {"type": "node", "id": 939241581, "lat": 28.5504949, "lon": 77.2479741}, {"type": "node", "id": 939241591, "lat": 28.550072, "lon": 77.2477814}, {"type": "node", "id": 939241626, "lat": 28.5503782, "lon": 77.247635}, {"type": "node", "id": 1042719321, "lat": 28.5462049, "lon": 77.2523596}, {"type": "node", "id": 1042719494, "lat": 28.5458168, "lon": 77.2506765}, {"type": "node", "id": 1042719664, "lat": 28.5456069, "lon": 77.2520413}, {"type": "node", "id": 1042719783, "lat": 28.5458749, "lon": 77.2507055}, {"type": "node", "id": 1042719959, "lat": 28.5456687, "lon": 77.2509297}, {"type": "node", "id": 1042720167, "lat": 28.5459288, "lon": 77.2507437}, {"type": "node", "id": 1042720219, "lat": 28.5459884, "lon": 77.2508002}, {"type": "node", "id": 1042720308, "lat": 28.5452625, "lon": 77.2511272}, {"type": "node", "id": 1042720754, "lat": 28.5457381, "lon": 77.250651}, {"type": "node", "id": 2307253998, "lat": 28.5500494, "lon": 77.2500463}, {"type": "node", "id": 2845364679, "lat": 28.5495469, "lon": 77.2487195}, {"type": "node", "id": 4510708875, "lat": 28.549844, "lon": 77.2530692}, {"type": "node", "id": 4510708876, "lat": 28.549672, "lon": 77.2526589}, {"type": "node", "id": 4510708877, "lat": 28.5494575, "lon": 77.2532791}, {"type": "node", "id": 4510708878, "lat": 28.5492855, "lon": 77.2528688}, {"type": "node", "id": 6881975942, "lat": 28.5462683, "lon": 77.2523058}, {"type": "node", "id": 6881975943, "lat": 28.5459784, "lon": 77.2516431}, {"type": "node", "id": 6881975944, "lat": 28.5462553, "lon": 77.2514687}, {"type": "node", "id": 9985113234, "lat": 28.5486994, "lon": 77.2480746}, {"type": "node", "id": 9985113235, "lat": 28.5484437, "lon": 77.2481431}, {"type": "node", "id": 9985113236, "lat": 28.5482185, "lon": 77.2482597}, {"type": "node", "id": 9985113237, "lat": 28.548362, "lon": 77.2478568}, {"type": "node", "id": 9985113238, "lat": 28.5481098, "lon": 77.2479873}, {"type": "node", "id": 9985113239, "lat": 28.5485909, "lon": 77.2478027}, {"type": "node", "id": 9985113240, "lat": 28.5483833, "lon": 77.2479101}, {"type": "node", "id": 9985113241, "lat": 28.5484649, "lon": 77.248196}, {"type": "node", "id": 11083308309, "lat": 28.5455721, "lon": 77.2506849}, {"type": "node", "id": 11083509729, "lat": 28.5456357, "lon": 77.2520565}, {"type": "node", "id": 11083509744, "lat": 28.5461676, "lon": 77.2523372}, {"type": "node", "id": 11244995821, "lat": 28.5464323, "lon": 77.2532603}, {"type": "node", "id": 11244995822, "lat": 28.5462815, "lon": 77.2532174}, {"type": "node", "id": 11244995823, "lat": 28.5460318, "lon": 77.253322}, {"type": "node", "id": 11244995824, "lat": 28.5459705, "lon": 77.2528526}, {"type": "node", "id": 11244995825, "lat": 28.5463004, "lon": 77.2530162}, {"type": "node", "id": 11244995830, "lat": 28.5446558, "lon": 77.2533032}, {"type": "node", "id": 11244995831, "lat": 28.544479, "lon": 77.2533381}, {"type": "node", "id": 11244995832, "lat": 28.5443542, "lon": 77.2532737}, {"type": "node", "id": 11244995835, "lat": 28.5444296, "lon": 77.2527185}, {"type": "node", "id": 11245004345, "lat": 28.5457125, "lon": 77.2535902}, {"type": "node", "id": 11245004346, "lat": 28.5454521, "lon": 77.2534534}, {"type": "node", "id": 11245004347, "lat": 28.5453261, "lon": 77.2533515}, {"type": "node", "id": 11245004348, "lat": 28.5452424, "lon": 77.253157}, {"type": "node", "id": 11245004349, "lat": 28.5456501, "lon": 77.2529867}, {"type": "node", "id": 11726626409, "lat": 28.549629, "lon": 77.2495366}, {"type": "node", "id": 11726626410, "lat": 28.5476896, "lon": 77.2497184}, {"type": "node", "id": 11726626411, "lat": 28.5479752, "lon": 77.2504271}, {"type": "node", "id": 11726626412, "lat": 28.5493721, "lon": 77.248897}, {"type": "node", "id": 11766134575, "lat": 28.5505311, "lon": 77.2479503}, {"type": "node", "id": 11766362709, "lat": 28.5503402, "lon": 77.248321}, {"type": "node", "id": 11772104225, "lat": 28.5505206, "lon": 77.2487234}, {"type": "node", "id": 11782711731, "lat": 28.5485645, "lon": 77.2501098}, {"type": "node", "id": 11782711766, "lat": 28.5494849, "lon": 77.2491778}, {"type": "node", "id": 11782740872, "lat": 28.5478668, "lon": 77.2501584}, {"type": "node", "id": 12254980069, "lat": 28.5496389, "lon": 77.2489603}, {"type": "node", "id": 12254980071, "lat": 28.5498696, "lon": 77.249564}, {"type": "node", "id": 939241481, "lat": 28.5519423, "lon": 77.2469782}, {"type": "node", "id": 939241513, "lat": 28.5516402, "lon": 77.2473533}, {"type": "node", "id": 939241545, "lat": 28.5513794, "lon": 77.2475253}, {"type": "node", "id": 2845364683, "lat": 28.5508159, "lon": 77.2496617}, {"type": "node", "id": 1042719468, "lat": 28.5417275, "lon": 77.25755}, {"type": "node", "id": 1042719563, "lat": 28.5424273, "lon": 77.2580488}, {"type": "node", "id": 1042719663, "lat": 28.5420959, "lon": 77.2558677}, {"type": "node", "id": 1042719780, "lat": 28.5423672, "lon": 77.2579164}, {"type": "node", "id": 1042719920, "lat": 28.5415312, "lon": 77.2555387}, {"type": "node", "id": 1042719955, "lat": 28.5423087, "lon": 77.258373}, {"type": "node", "id": 1042720301, "lat": 28.5411565, "lon": 77.2562658}, {"type": "node", "id": 1042720731, "lat": 28.5417279, "lon": 77.2566462}, {"type": "node", "id": 1042720750, "lat": 28.5415739, "lon": 77.2579382}, {"type": "node", "id": 1740127265, "lat": 28.5421108, "lon": 77.2559417}, {"type": "node", "id": 1740127268, "lat": 28.5414637, "lon": 77.2555774}, {"type": "node", "id": 1740127278, "lat": 28.5417883, "lon": 77.2566086}, {"type": "node", "id": 1740127348, "lat": 28.541182, "lon": 77.2563321}, {"type": "node", "id": 7066449792, "lat": 28.540568, "lon": 77.2574708}, {"type": "node", "id": 7066449796, "lat": 28.5404601, "lon": 77.2577466}, {"type": "node", "id": 7066449804, "lat": 28.5410191, "lon": 77.2577203}, {"type": "node", "id": 7066449806, "lat": 28.5408962, "lon": 77.2580016}, {"type": "node", "id": 7640415201, "lat": 28.538471, "lon": 77.2570943}, {"type": "node", "id": 7640415202, "lat": 28.5380799, "lon": 77.2568475}, {"type": "node", "id": 7640415203, "lat": 28.5379385, "lon": 77.2570889}, {"type": "node", "id": 7640415204, "lat": 28.5380893, "lon": 77.2571747}, {"type": "node", "id": 7640415205, "lat": 28.5379903, "lon": 77.2574376}, {"type": "node", "id": 7640415206, "lat": 28.5382731, "lon": 77.2575985}, {"type": "node", "id": 7640415207, "lat": 28.5384192, "lon": 77.2572659}, {"type": "node", "id": 7640415208, "lat": 28.5384969, "lon": 77.2571104}, {"type": "node", "id": 7640415209, "lat": 28.53775, "lon": 77.2586687}, {"type": "node", "id": 7640415213, "lat": 28.5376864, "lon": 77.2592722}, {"type": "node", "id": 7640415214, "lat": 28.5378442, "lon": 77.2587304}, {"type": "node", "id": 11244995826, "lat": 28.5439257, "lon": 77.2540009}, {"type": "node", "id": 11756751150, "lat": 28.5413937, "lon": 77.2539909}, {"type": "node", "id": 11756751160, "lat": 28.5412204, "lon": 77.2538815}, {"type": "node", "id": 11756751161, "lat": 28.5413159, "lon": 77.2541437}, {"type": "node", "id": 11756751165, "lat": 28.5412671, "lon": 77.2538649}, {"type": "node", "id": 11756892139, "lat": 28.5411574, "lon": 77.2540147}, {"type": "node", "id": 11756892144, "lat": 28.5412603, "lon": 77.2541533}, {"type": "node", "id": 11756892153, "lat": 28.5411643, "lon": 77.2540736}, {"type": "node", "id": 11756892156, "lat": 28.5413775, "lon": 77.2539245}, {"type": "node", "id": 1042719119, "lat": 28.5432273, "lon": 77.2611104}, {"type": "node", "id": 1042719359, "lat": 28.5415851, "lon": 77.2623203}, {"type": "node", "id": 1042719466, "lat": 28.5423456, "lon": 77.2606147}, {"type": "node", "id": 1042719568, "lat": 28.5431178, "lon": 77.2612815}, {"type": "node", "id": 1042719679, "lat": 28.5420893, "lon": 77.2607561}, {"type": "node", "id": 1042720233, "lat": 28.5426837, "lon": 77.2610904}, {"type": "node", "id": 1042720620, "lat": 28.5422495, "lon": 77.2625768}, {"type": "node", "id": 1042720738, "lat": 28.5422493, "lon": 77.2608097}, {"type": "node", "id": 2713480553, "lat": 28.5389841, "lon": 77.2616234}, {"type": "node", "id": 2713480562, "lat": 28.5394062, "lon": 77.2617868}, {"type": "node", "id": 2713480564, "lat": 28.539528, "lon": 77.2614093}, {"type": "node", "id": 2713480565, "lat": 28.5390981, "lon": 77.2612353}, {"type": "node", "id": 939241539, "lat": 28.5466751, "lon": 77.2589938}, {"type": "node", "id": 939241651, "lat": 28.5480804, "lon": 77.2598608}, {"type": "node", "id": 939241663, "lat": 28.5460743, "lon": 77.2603616}, {"type": "node", "id": 939241695, "lat": 28.5484451, "lon": 77.2597021}, {"type": "node", "id": 2902051932, "lat": 28.5473173, "lon": 77.2585098}, {"type": "node", "id": 2902051933, "lat": 28.5473229, "lon": 77.258525}, {"type": "node", "id": 2902051934, "lat": 28.5473362, "lon": 77.2585401}, {"type": "node", "id": 2902051935, "lat": 28.5473871, "lon": 77.2583749}, {"type": "node", "id": 2902051936, "lat": 28.5474015, "lon": 77.2583762}, {"type": "node", "id": 2902051937, "lat": 28.5474159, "lon": 77.2583825}, {"type": "node", "id": 2902051938, "lat": 28.5476048, "lon": 77.2577263}, {"type": "node", "id": 2902051939, "lat": 28.5476496, "lon": 77.2587292}, {"type": "node", "id": 2902051940, "lat": 28.5476568, "lon": 77.2578448}, {"type": "node", "id": 2902051941, "lat": 28.5477249, "lon": 77.2585628}, {"type": "node", "id": 2902051942, "lat": 28.5477494, "lon": 77.25865}, {"type": "node", "id": 2902051943, "lat": 28.547782, "lon": 77.2573355}, {"type": "node", "id": 2902051944, "lat": 28.5477937, "lon": 77.2586803}, {"type": "node", "id": 2902051945, "lat": 28.5478282, "lon": 77.2586638}, {"type": "node", "id": 2902051946, "lat": 28.5478642, "lon": 77.258646}, {"type": "node", "id": 2902051947, "lat": 28.547894, "lon": 77.2586139}, {"type": "node", "id": 2902051948, "lat": 28.5479569, "lon": 77.2580162}, {"type": "node", "id": 2902051949, "lat": 28.5480278, "lon": 77.2578561}, {"type": "node", "id": 2902051950, "lat": 28.5480661, "lon": 77.2579567}, {"type": "node", "id": 2902051951, "lat": 28.5481352, "lon": 77.2580701}, {"type": "node", "id": 2902051952, "lat": 28.5481367, "lon": 77.2580968}, {"type": "node", "id": 6402505567, "lat": 28.5498081, "lon": 77.2562667}, {"type": "node", "id": 6402505569, "lat": 28.5497661, "lon": 77.2566631}, {"type": "node", "id": 6402505573, "lat": 28.549676, "lon": 77.2562152}, {"type": "node", "id": 6402505574, "lat": 28.5497639, "lon": 77.2562397}, {"type": "node", "id": 6402508988, "lat": 28.549639, "lon": 77.2562272}, {"type": "node", "id": 6402508994, "lat": 28.5497181, "lon": 77.2562202}, {"type": "node", "id": 6402508995, "lat": 28.5499878, "lon": 77.2564149}, {"type": "node", "id": 11098788638, "lat": 28.5460506, "lon": 77.2555549}, {"type": "node", "id": 11098788639, "lat": 28.5460073, "lon": 77.2556539}, {"type": "node", "id": 11098788640, "lat": 28.5447907, "lon": 77.2549636}, {"type": "node", "id": 11098788641, "lat": 28.544834, "lon": 77.2548646}, {"type": "node", "id": 11098788642, "lat": 28.545188, "lon": 77.2550654}, {"type": "node", "id": 11098788643, "lat": 28.5454139, "lon": 77.2551936}, {"type": "node", "id": 11244995817, "lat": 28.5462367, "lon": 77.2542903}, {"type": "node", "id": 11244995818, "lat": 28.5462721, "lon": 77.2543842}, {"type": "node", "id": 11244995819, "lat": 28.5466349, "lon": 77.2545665}, {"type": "node", "id": 11244995820, "lat": 28.5464747, "lon": 77.2541642}, {"type": "node", "id": 11244995836, "lat": 28.5451129, "lon": 77.2540274}, {"type": "node", "id": 11245004337, "lat": 28.5449644, "lon": 77.2539362}, {"type": "node", "id": 11245004338, "lat": 28.5448207, "lon": 77.2539335}, {"type": "node", "id": 11245004339, "lat": 28.5445403, "lon": 77.2540516}, {"type": "node", "id": 11245004340, "lat": 28.5449998, "lon": 77.2542956}, {"type": "node", "id": 11245004341, "lat": 28.5454262, "lon": 77.2541374}, {"type": "node", "id": 11245004342, "lat": 28.5452165, "lon": 77.2540301}, {"type": "node", "id": 11245004343, "lat": 28.5450893, "lon": 77.2543332}, {"type": "node", "id": 11245004344, "lat": 28.5455582, "lon": 77.2545907}, {"type": "node", "id": 11688059890, "lat": 28.5483872, "lon": 77.2597273}, {"type": "node", "id": 11688059891, "lat": 28.5484445, "lon": 77.2600137}, {"type": "node", "id": 939241482, "lat": 28.5488313, "lon": 77.2617782}, {"type": "node", "id": 939241515, "lat": 28.5485846, "lon": 77.2623644}, {"type": "node", "id": 939241547, "lat": 28.5458598, "lon": 77.2635368}, {"type": "node", "id": 939241593, "lat": 28.5449801, "lon": 77.2608134}, {"type": "node", "id": 11688059892, "lat": 28.5485937, "lon": 77.2616389}, {"type": "node", "id": 11688059893, "lat": 28.545819, "lon": 77.2634104}, {"type": "node", "id": 2294862269, "lat": 28.5440993, "lon": 77.2696605}, {"type": "node", "id": 2415850166, "lat": 28.5435013, "lon": 77.2726104}, {"type": "node", "id": 2806477632, "lat": 28.5419056, "lon": 77.2734377}, {"type": "node", "id": 2806477634, "lat": 28.5423291, "lon": 77.2732174}, {"type": "node", "id": 2806477637, "lat": 28.5433912, "lon": 77.2723485}, {"type": "node", "id": 9855195749, "lat": 28.5441377, "lon": 77.2713386}, {"type": "node", "id": 9855195750, "lat": 28.5440419, "lon": 77.2716326}, {"type": "node", "id": 9855195751, "lat": 28.5439939, "lon": 77.2717853}, {"type": "node", "id": 13051305357, "lat": 28.5432306, "lon": 77.2707389}, {"type": "node", "id": 13051305483, "lat": 28.5414008, "lon": 77.272442}, {"type": "node", "id": 2806477641, "lat": 28.5437291, "lon": 77.2760322}, {"type": "node", "id": 2806477643, "lat": 28.5438207, "lon": 77.2757325}, {"type": "node", "id": 2806477646, "lat": 28.5439582, "lon": 77.2752581}, {"type": "node", "id": 12151043957, "lat": 28.5379154, "lon": 77.2779784}, {"type": "node", "id": 13051305203, "lat": 28.5427873, "lon": 77.2742041}, {"type": "node", "id": 13051305316, "lat": 28.5427945, "lon": 77.2742189}, {"type": "node", "id": 13051305377, "lat": 28.5427791, "lon": 77.2741873}, {"type": "node", "id": 13094348588, "lat": 28.5431871, "lon": 77.2762492}, {"type": "node", "id": 13094348589, "lat": 28.5418574, "lon": 77.2775551}, {"type": "node", "id": 13094348590, "lat": 28.5417844, "lon": 77.2758466}, {"type": "node", "id": 13094348592, "lat": 28.5424368, "lon": 77.277181}, {"type": "node", "id": 13094348598, "lat": 28.5425082, "lon": 77.2768972}, {"type": "node", "id": 13094401701, "lat": 28.5417653, "lon": 77.277374}, {"type": "node", "id": 13094401702, "lat": 28.5419246, "lon": 77.2757378}, {"type": "node", "id": 13094401706, "lat": 28.5423704, "lon": 77.2769954}, {"type": "node", "id": 13094401708, "lat": 28.5425995, "lon": 77.2770588}, {"type": "node", "id": 13094401711, "lat": 28.5428153, "lon": 77.2768599}, {"type": "node", "id": 13094401714, "lat": 28.543243, "lon": 77.2763573}, {"type": "node", "id": 13096167385, "lat": 28.5421753, "lon": 77.2762234}, {"type": "node", "id": 2806477655, "lat": 28.5452159, "lon": 77.2732647}, {"type": "node", "id": 9854982948, "lat": 28.5448408, "lon": 77.270134}, {"type": "node", "id": 9854982949, "lat": 28.5447937, "lon": 77.270126}, {"type": "node", "id": 9854982950, "lat": 28.5447866, "lon": 77.2701555}, {"type": "node", "id": 9854982951, "lat": 28.5446123, "lon": 77.2701072}, {"type": "node", "id": 9854982952, "lat": 28.5446375, "lon": 77.2703096}, {"type": "node", "id": 9854982953, "lat": 28.5447984, "lon": 77.2702735}, {"type": "node", "id": 9854982954, "lat": 28.5448229, "lon": 77.2702261}, {"type": "node", "id": 9855195747, "lat": 28.5444793, "lon": 77.2711146}, {"type": "node", "id": 9855195748, "lat": 28.5442225, "lon": 77.2710931}, {"type": "node", "id": 9855195752, "lat": 28.5444204, "lon": 77.2719434}, {"type": "node", "id": 9855195753, "lat": 28.5444275, "lon": 77.2719059}, {"type": "node", "id": 9855195754, "lat": 28.54489, "lon": 77.2719452}, {"type": "node", "id": 9855195755, "lat": 28.5448392, "lon": 77.2721651}, {"type": "node", "id": 9855195756, "lat": 28.5444568, "lon": 77.2721405}, {"type": "node", "id": 9855195757, "lat": 28.5444643, "lon": 77.2719238}, {"type": "node", "id": 12613525311, "lat": 28.5448879, "lon": 77.2719996}, {"type": "node", "id": 13051305237, "lat": 28.5451856, "lon": 77.2733811}, {"type": "node", "id": 13051305470, "lat": 28.5445589, "lon": 77.2730104}, {"type": "node", "id": 2806477647, "lat": 28.5442436, "lon": 77.2744959}, {"type": "node", "id": 2806477650, "lat": 28.5443861, "lon": 77.2751116}, {"type": "node", "id": 2806477651, "lat": 28.5443554, "lon": 77.2744363}, {"type": "node", "id": 2806477653, "lat": 28.5444527, "lon": 77.2743924}, {"type": "node", "id": 2806477654, "lat": 28.5450439, "lon": 77.2741404}, {"type": "node", "id": 13051305221, "lat": 28.5442574, "lon": 77.2745556}, {"type": "node", "id": 13051305280, "lat": 28.5442497, "lon": 77.2745222}, {"type": "node", "id": 13051305406, "lat": 28.5442548, "lon": 77.2745444}, {"type": "node", "id": 13051305511, "lat": 28.5443105, "lon": 77.275377}, {"type": "node", "id": 13094304176, "lat": 28.5443268, "lon": 77.2753199}, {"type": "node", "id": 13094387397, "lat": 28.5451996, "lon": 77.2772894}, {"type": "node", "id": 13096167351, "lat": 28.5454234, "lon": 77.2772642}, {"type": "node", "id": 13096167383, "lat": 28.5452065, "lon": 77.2771167}, {"type": "node", "id": 13096167386, "lat": 28.5454228, "lon": 77.2771356}, {"type": "node", "id": 2716596085, "lat": 28.5409728, "lon": 77.2848004}, {"type": "node", "id": 2716596093, "lat": 28.5395967, "lon": 77.2844409}, {"type": "node", "id": 2716596096, "lat": 28.5400385, "lon": 77.2854873}, {"type": "node", "id": 2716596097, "lat": 28.5402565, "lon": 77.2851866}, {"type": "node", "id": 2716596102, "lat": 28.5391538, "lon": 77.2838294}, {"type": "node", "id": 2716596140, "lat": 28.5392704, "lon": 77.284291}, {"type": "node", "id": 2716596144, "lat": 28.5398972, "lon": 77.2828694}, {"type": "node", "id": 2716596151, "lat": 28.538408, "lon": 77.2857555}, {"type": "node", "id": 2716596172, "lat": 28.5393847, "lon": 77.2832715}, {"type": "node", "id": 2716596238, "lat": 28.5398842, "lon": 77.285884}, {"type": "node", "id": 2716596261, "lat": 28.5381252, "lon": 77.2863509}, {"type": "node", "id": 2716596305, "lat": 28.5384551, "lon": 77.2859057}, {"type": "node", "id": 2716596083, "lat": 28.5385079, "lon": 77.290363}, {"type": "node", "id": 2716596086, "lat": 28.5389786, "lon": 77.2894503}, {"type": "node", "id": 2716596089, "lat": 28.5390539, "lon": 77.2888864}, {"type": "node", "id": 2716596106, "lat": 28.5377533, "lon": 77.2877744}, {"type": "node", "id": 2716596107, "lat": 28.5378899, "lon": 77.2869399}, {"type": "node", "id": 2716596110, "lat": 28.5388295, "lon": 77.2895308}, {"type": "node", "id": 2716596111, "lat": 28.5385297, "lon": 77.2879817}, {"type": "node", "id": 2716596112, "lat": 28.5381361, "lon": 77.2875545}, {"type": "node", "id": 2716596116, "lat": 28.5382737, "lon": 77.2875177}, {"type": "node", "id": 2716596120, "lat": 28.5392507, "lon": 77.2893466}, {"type": "node", "id": 2716596121, "lat": 28.5379642, "lon": 77.288272}, {"type": "node", "id": 2716596128, "lat": 28.5381688, "lon": 77.290693}, {"type": "node", "id": 2716596143, "lat": 28.5387428, "lon": 77.2890423}, {"type": "node", "id": 2716596154, "lat": 28.5391269, "lon": 77.2898064}, {"type": "node", "id": 2716596156, "lat": 28.5397465, "lon": 77.2894679}, {"type": "node", "id": 2716596162, "lat": 28.5411835, "lon": 77.2890189}, {"type": "node", "id": 2716596165, "lat": 28.5417621, "lon": 77.288728}, {"type": "node", "id": 2716596181, "lat": 28.538547, "lon": 77.2885835}, {"type": "node", "id": 2716596199, "lat": 28.5399109, "lon": 77.2907504}, {"type": "node", "id": 2716596200, "lat": 28.5386495, "lon": 77.2890984}, {"type": "node", "id": 2716596202, "lat": 28.5380451, "lon": 77.2869437}, {"type": "node", "id": 2716596203, "lat": 28.5398237, "lon": 77.289686}, {"type": "node", "id": 2716596207, "lat": 28.5395854, "lon": 77.2899482}, {"type": "node", "id": 2716596213, "lat": 28.5387218, "lon": 77.2884517}, {"type": "node", "id": 2716596219, "lat": 28.5384321, "lon": 77.2901812}, {"type": "node", "id": 2716596225, "lat": 28.5388614, "lon": 77.2877803}, {"type": "node", "id": 2716596234, "lat": 28.5390909, "lon": 77.2894379}, {"type": "node", "id": 2716596256, "lat": 28.5383401, "lon": 77.2880952}, {"type": "node", "id": 2716596258, "lat": 28.5384942, "lon": 77.2914951}, {"type": "node", "id": 2716596295, "lat": 28.5386617, "lon": 77.2873194}, {"type": "node", "id": 2716596303, "lat": 28.5392333, "lon": 77.289761}, {"type": "node", "id": 2716596307, "lat": 28.5389269, "lon": 77.288954}]}