{"version": 0.6, "generator": "Overpass API 0.7.62.8 e802775f", "osm3s": {"timestamp_osm_base": "2025-11-21T17:58:05Z", "copyright": "The data included in this document is from www.openstreetmap.org. The data is made available under ODbL."}, "elements": [{"type": "node", "id": 515774480, "lat": 28.4446821, "lon": 77.0596627, "tags": {"amenity": "restaurant", "cuisine": "indian", "name": "Raj Restaurant"}}, {"type": "node", "id": 574363830, "lat": 28.4169406, "lon": 77.04636, "tags": {"information": "map", "map_size": "region", "map_type": "street", "tourism": "information"}}, {"type": "node", "id": 574363832, "lat": 28.4184887, "lon": 77.0456182, "tags": {"information": "map", "map_size": "region", "map_type": "street", "name": "South City II", "tourism": "information"}}, {"type": "node", "id": 574363835, "lat": 28.4211505, "lon": 77.0629001, "tags": {"information": "map", "map_size": "region", "map_type": "street", "name": "Nirwana Country", "tourism": "information"}}, {"type": "node", "id": 574363837, "lat": 28.4231437, "lon": 77.0621324, "tags": {"information": "map", "map_size": "region", "map_type": "street", "tourism": "information"}}, {"type": "node", "id": 738195683, "lat": 28.4469468, "lon": 77.0608055, "tags": {"information": "map", "map_size": "region", "map_type": "street", "tourism": "information"}}, {"type": "node", "id": 1351283175, "lat": 28.417164, "lon": 77.046696, "tags": {"amenity": "restaurant"}}, {"type": "node", "id": 1556459150, "lat": 28.4494947, "lon": 77.0642891, "tags": {"name": "Vista Wood", "tourism": "hotel"}}, {"type": "node", "id": 4329054392, "lat": 28.4361052, "lon": 77.0457499, "tags": {"addr:street": "sector39", "name:ur": "\u0641\u0646\u062f\u0642 \u0648\u0645\u0637\u0639\u0645 \u0627\u0644\u0641\u0631\u0627\u062a", "tourism": "hotel"}}, {"type": "node", "id": 4330598101, "lat": 28.4387779, "lon": 77.0480252, "tags": {"name:ur": "\u0641\u0646\u062f\u0642 \u0648\u0645\u0637\u0639\u0645 \u0627\u0644\u0641\u0631\u0627\u062a", "tourism": "hotel"}}, {"type": "node", "id": 4347503189, "lat": 28.43818, "lon": 77.0688282, "tags": {"addr:housenumber": "185", "addr:street": "Netaji Subhash Chandra Bose Road", "internet_access": "wlan", "name": "Building 185", "opening_hours": "24/7", "phone": "97-16-956688", "tourism": "guest_house"}}, {"type": "node", "id": 4524987308, "lat": 28.4276659, "lon": 77.0465102, "tags": {"tourism": "guest_house"}}, {"type": "node", "id": 4746917524, "lat": 28.4098499, "lon": 77.068131, "tags": {"addr:housenumber": "2", "addr:street": "Golf Course Extension Road", "internet_access": "wlan", "name:en": "City dhaba", "opening_hours": "Mo-Su 09:00-23:30", "operator": "umesh Rao", "phone": "8586986389", "tourism": "hotel"}}, {"type": "node", "id": 4881555021, "lat": 28.4325771, "lon": 77.0721528, "tags": {"name:ar": "\u0639\u0646\u0648\u0627\u0646 \u0627\u0644\u0633\u0643\u0646 \u0641\u064a \u0643\u0631\u0643\u0627\u0648\u0646\u062f", "tourism": "guest_house"}}, {"type": "node", "id": 5029862921, "lat": 28.4410558, "lon": 77.042689, "tags": {"tourism": "hotel"}}, {"type": "node", "id": 5217418923, "lat": 28.4383695, "lon": 77.0647399, "tags": {"name": "111", "tourism": "guest_house"}}, {"type": "node", "id": 5378350223, "lat": 28.435141, "lon": 77.0886406, "tags": {"access": "yes", "description": "A park with pathways for walking. Also has benches for sitting. Lacks shaded areas though.", "leisure": "park", "name": "Sector 52 Park"}}, {"type": "node", "id": 5378362990, "lat": 28.4352144, "lon": 77.088689, "tags": {"access": "yes", "description": "A park with pathways for walking. Also has benches for sitting. Lacks shaded areas though.", "leisure": "park", "name": "Sector 52 Park"}}, {"type": "node", "id": 5399142221, "lat": 28.4386011, "lon": 77.046913, "tags": {"name:en": "Chirag house & PG for boys and girls", "phone": "9911434372", "tourism": "hotel"}}, {"type": "node", "id": 5503402321, "lat": 28.4387292, "lon": 77.0456678, "tags": {"name": "\u05d1\u05d3\u05e8\u05da \u05dc\u05e7\u05d0\u05e1\u05e8 \u05d2\u05d5\u05e7\u05d5\u05e2\u05e8\u05d1\u05d9", "tourism": "apartment"}}, {"type": "node", "id": 6014654985, "lat": 28.4387447, "lon": 77.047984, "tags": {"addr:housenumber": "459", "addr:street": "sector 39", "name": "My home", "name:en": "Alforat hotel", "name:hi": "Alforate hotel", "phone": "009647812755300", "tourism": "apartment"}}, {"type": "node", "id": 6033290805, "lat": 28.4385341, "lon": 77.0478907, "tags": {"tourism": "apartment"}}, {"type": "node", "id": 6068022432, "lat": 28.4214768, "lon": 77.0528259, "tags": {"addr:city": "Gurgaon", "addr:housenumber": "Sector 50", "addr:postcode": "122018", "addr:street": "Good Earth City Centre", "brand": "Holiday Inn Express", "brand:wikidata": "Q5880423", "internet_access": "wlan", "name": "Holiday Inn Express Gurgaon Sector 50", "operator": "IHG", "phone": "124-6685555", "tourism": "hotel", "website": "https://www.ihg.com/holidayinnexpress/hotels/us/en/gurgaon/hayge/hoteldetail"}}, {"type": "node", "id": 6223496985, "lat": 28.4049644, "lon": 77.0419167, "tags": {"leisure": "park"}}, {"type": "node", "id": 6299523286, "lat": 28.4222391, "lon": 77.0872998, "tags": {"name:en": "G-217", "tourism": "apartment"}}, {"type": "node", "id": 6472488318, "lat": 28.4063064, "lon": 77.0448369, "tags": {"addr:city": "Gurugram", "addr:postcode": "122018", "amenity": "restaurant", "cuisine": "Multi_cuisine", "name": "Nook", "opening_hours": "Mo-Su 11:00-23:30", "outdoor_seating": "yes"}}, {"type": "node", "id": 6472488319, "lat": 28.4061488, "lon": 77.0451428, "tags": {"addr:city": "Gurugram", "addr:housenumber": "Vatika Business Park", "addr:postcode": "122018", "addr:street": "Sohna Road", "amenity": "cafe", "brand": "Starbucks", "brand:pa": "\u0a38\u0a1f\u0a3e\u0a30\u0a2c\u0a15\u0a38", "brand:ur": "\u0627\u0633\u0679\u0627\u0631\u0628\u06a9\u0633", "brand:wikidata": "Q37158", "brand:wikipedia": "en:Starbucks", "cuisine": "coffee_shop", "name": "Starbucks", "name:pa": "\u0a38\u0a1f\u0a3e\u0a30\u0a2c\u0a15\u0a38", "name:ur": "\u0627\u0633\u0679\u0627\u0631\u0628\u06a9\u0633", "official_name": "Starbucks Coffee", "official_name:pa": "\u0a38\u0a1f\u0a3e\u0a30\u0a2c\u0a15\u0a38 \u0a15\u0a4c\u0a2b\u0a40", "official_name:ur": "\u0627\u0633\u0679\u0627\u0631\u0628\u06a9\u0633 \u06a9\u0627\u0641\u06cc", "outdoor_seating": "yes", "takeaway": "yes"}}, {"type": "node", "id": 6629349285, "lat": 28.439496, "lon": 77.0448701, "tags": {"amenity": "restaurant", "name:en": "\u0645\u0637\u0639\u0645 \u0646\u0635\u064a\u0628"}}, {"type": "node", "id": 6629349286, "lat": 28.438509, "lon": 77.0474753, "tags": {"addr:housenumber": "455", "addr:street": "Sector 39", "name:en": "AZALEA ROOMS", "tourism": "hotel"}}, {"type": "node", "id": 7117806844, "lat": 28.4144192, "lon": 77.0654842, "tags": {"amenity": "cafe", "name": "Madison and Pike"}}, {"type": "node", "id": 7489555985, "lat": 28.4295072, "lon": 77.0430119, "tags": {"addr:postcode": "122001", "addr:street": "Netaji Subhash Chandra Bose Road", "name:en": "Urja Towers", "tourism": "apartment"}}, {"type": "node", "id": 8221307917, "lat": 28.4390629, "lon": 77.0470025, "tags": {"name": "\u0634\u0642\u0629 \u0627\u0644\u0647\u0646\u062f \u062f\u0644\u0647\u064a", "tourism": "hostel"}}, {"type": "node", "id": 8228260719, "lat": 28.4388183, "lon": 77.0477116, "tags": {"name": "\u0633\u0643\u0646 Aster", "tourism": "hotel"}}, {"type": "node", "id": 8412682417, "lat": 28.4381654, "lon": 77.0448569, "tags": {"addr:housenumber": "room 210", "addr:street": "Sector 39", "name:en": "Athinahotel", "phone": "8826793670", "tourism": "hotel"}}, {"type": "node", "id": 8621451517, "lat": 28.4316439, "lon": 77.0746326, "tags": {"name:en": "Alpine lnn", "tourism": "hotel"}}, {"type": "node", "id": 8629461273, "lat": 28.4312227, "lon": 77.0624205, "tags": {"addr:city": "Gurgaon", "addr:postcode": "122003", "addr:street": "Sector 51", "air_conditioning": "yes", "email": "harsh.godara18@gmail.com", "guest_house": "guest_house", "internet_access": "wlan", "internet_access:access": "customers", "name": "Reebah Inn & Suites", "note": "Contact: 9236300001", "operator": "Harsh Godara", "rooms": "28", "start_date": "2021-05-15", "tourism": "guest_house"}}, {"type": "node", "id": 8858817017, "lat": 28.431704, "lon": 77.0743325, "tags": {"name": "Queen's Residency", "tourism": "attraction"}}, {"type": "node", "id": 9876333617, "lat": 28.4298131, "lon": 77.0599241, "tags": {"name": "\u0627\u0644\u0634\u0642\u0647", "tourism": "guest_house"}}, {"type": "node", "id": 10085331417, "lat": 28.4369957, "lon": 77.0473281, "tags": {"tourism": "apartment"}}, {"type": "node", "id": 10721962106, "lat": 28.4338255, "lon": 77.0748973, "tags": {"historic": "monument", "name:ar": "\u0627\u0644\u0628\u064a\u062a"}}, {"type": "node", "id": 10721970305, "lat": 28.4337628, "lon": 77.074861, "tags": {"name": "\u0627\u0644\u0628\u064a\u062a", "name:ar": "\u0627\u0644\u0628\u064a\u062a", "toilets": "no", "tourism": "caravan_site"}}, {"type": "node", "id": 10721970505, "lat": 28.43872, "lon": 77.047886, "tags": {"amenity": "restaurant", "name:ar": "\u0645\u0637\u0639\u0645 \u0627\u0628\u0648 \u0627\u062d\u0645\u062f"}}, {"type": "node", "id": 10721970805, "lat": 28.4141606, "lon": 77.0654136, "tags": {"name:ar": "\u0633\u0648\u0642", "tourism": "guest_house"}}, {"type": "node", "id": 11186027537, "lat": 28.4325914, "lon": 77.0730578, "tags": {"name:ar": "\u0634\u0642\u0647 \u0645\u0642\u0627\u0628\u064a\u0644 \u0627\u0631\u062a\u0645\u0633", "tourism": "guest_house"}}, {"type": "node", "id": 11191200637, "lat": 28.4158252, "lon": 77.0838317, "tags": {"name:ar": "\u0627\u0644\u0634\u0642\u0647", "tourism": "guest_house"}}, {"type": "node", "id": 11314042364, "lat": 28.4245502, "lon": 77.0678795, "tags": {"air_conditioning": "no", "amenity": "restaurant", "contact:mobile": "+917631398096", "name": "Pandit Ji ka Dhaba", "phone": "+91-9971353602"}}, {"type": "node", "id": 11591554872, "lat": 28.44843, "lon": 77.0707433, "tags": {"name": "Nikhil PG", "tourism": "apartment"}}, {"type": "node", "id": 11591577365, "lat": 28.4472133, "lon": 77.0736661, "tags": {"amenity": "marketplace", "name": "Patanjali Store"}}, {"type": "node", "id": 11627313794, "lat": 28.4311426, "lon": 77.0620379, "tags": {"amenity": "cafe", "name": "Kaffee Stories"}}, {"type": "node", "id": 11653030148, "lat": 28.4397212, "lon": 77.0402096, "tags": {"amenity": "cafe", "brand": "Costa", "brand:wikidata": "Q608845", "cuisine": "coffee_shop", "level": "UG", "name": "Costa", "takeaway": "yes"}}, {"type": "node", "id": 11653030149, "lat": 28.4396905, "lon": 77.0401796, "tags": {"amenity": "restaurant", "brand": "Pizza Hut", "brand:wikidata": "Q191615", "cuisine": "pizza", "level": "UG", "name": "Pizza Hut"}}, {"type": "node", "id": 11799696380, "lat": 28.4247823, "lon": 77.0695764, "tags": {"name": "Hotel Wedlock", "tourism": "hotel"}}, {"type": "node", "id": 11813552610, "lat": 28.4249957, "lon": 77.0683336, "tags": {"air_conditioning": "yes", "amenity": "restaurant", "cuisine": "indian;fast_food", "delivery": "yes", "diet:vegetarian": "yes", "level": "0", "mobile": "+917291000809", "name": "Anand ki kadai"}}, {"type": "node", "id": 11813552611, "lat": 28.425067, "lon": 77.0683338, "tags": {"air_conditioning": "yes", "amenity": "restaurant", "cuisine": "indian", "delivery": "yes", "diet:vegan": "yes", "diet:vegetarian": "yes", "level": "0", "mobile": "+91 7428459888", "name": "Dadi Key Rasoi", "opening_hours": "Mo-Su 09:30-21:30"}}, {"type": "node", "id": 11813552613, "lat": 28.4255368, "lon": 77.0682838, "tags": {"addr:city": "Gurugram", "addr:district": "Gurugram", "addr:housenumber": "G-34", "addr:postcode": "122003", "air_conditioning": "yes", "amenity": "restaurant", "cuisine": "south_indian", "delivery": "yes", "diet:vegetarian": "yes", "level": "0", "mobile": "+919560522624;+91 7827608559", "name": "KARIBEVU", "opening_hours": "Mo-Su 09:00-21:00"}}, {"type": "node", "id": 11813552614, "lat": 28.4243243, "lon": 77.0682426, "tags": {"air_conditioning": "yes", "amenity": "restaurant", "cuisine": "pizza;burger;fast_food", "diet:non-vegetarian": "yes", "mobile": "9810694469", "name": "PizZoMore", "phone": "08527895983", "website": "https://pizzomore.com/"}}, {"type": "node", "id": 11813552619, "lat": 28.4249525, "lon": 77.0679739, "tags": {"addr:housenumber": "G-12;G-13", "air_conditioning": "yes", "amenity": "restaurant", "cuisine": "indian", "diet:non-vegetarian": "yes", "diet:vegetarian": "yes", "level": "0", "mobile": "+91 7827976738", "name": "Garari", "opening_hours": "Mo-Su 10:00-22:00"}}, {"type": "node", "id": 11834470061, "lat": 28.4115593, "lon": 77.0416411, "tags": {"addr:city": "Gurugram", "addr:district": "Gurugram", "addr:postcode": "122001", "addr:street": "Sohna Road, Sector 48", "alt_name": "ShriRam Dhaba", "amenity": "restaurant", "cuisine": "indian", "name": "Shri Ram Dhaba", "opening_hours": "24/7", "phone": "0124-4278885", "website": "https://www.shriramdhaba.com"}}, {"type": "node", "id": 11902799314, "lat": 28.4480901, "lon": 77.0707417, "tags": {"name": "Nikhil PG", "tourism": "hostel"}}, {"type": "node", "id": 11902805335, "lat": 28.4498488, "lon": 77.0710475, "tags": {"air_conditioning": "yes", "check_date": "2025-08-31", "internet_access": "wlan", "internet_access:fee": "customers", "name": "Ramada by Wyndham", "name:en": "Ramada by Wyndham", "payment:cash": "yes", "payment:credit_cards": "yes", "payment:debit_cards": "yes", "reservation": "yes", "tourism": "hotel", "wheelchair": "yes"}}, {"type": "node", "id": 12055507252, "lat": 28.4252192, "lon": 77.059491, "tags": {"name": "Keys Lite", "tourism": "hotel"}}, {"type": "node", "id": 12113019717, "lat": 28.4394491, "lon": 77.0448654, "tags": {"amenity": "restaurant", "name": "\u0645\u0637\u0639\u0645 \u0639\u0631\u0628\u064a \u0644\u0628\u0646\u0627\u0646\u064a"}}, {"type": "node", "id": 12120121044, "lat": 28.4300255, "lon": 77.0625122, "tags": {"air_conditioning": "no", "amenity": "restaurant", "cuisine": "indian", "diet:non-vegetarian": "yes", "diet:vegetarian": "yes", "name": "Talab Dhaba", "payment:cash": "yes", "payment:upi": "yes", "phone": "+91 8449819198"}}, {"type": "node", "id": 12120121048, "lat": 28.4294004, "lon": 77.0632716, "tags": {"air_conditioning": "no", "amenity": "restaurant", "cuisine": "indian", "diet:non-vegetarian": "yes", "diet:vegetarian": "yes", "mobile": "+919650153956", "name": "Lajabab Dhaba", "payment:cash": "yes", "payment:upi": "yes", "phone": "+919958468930"}}, {"type": "node", "id": 12120121049, "lat": 28.4293609, "lon": 77.0634581, "tags": {"air_conditioning": "no", "amenity": "restaurant", "cuisine": "indian", "mobile": "+918178903056", "name": "Rajeev Restaurant"}}, {"type": "node", "id": 12120121051, "lat": 28.4284202, "lon": 77.0645575, "tags": {"air_conditioning": "no", "amenity": "restaurant", "bar": "no", "changing_table": "no", "cuisine": "indian", "diet:eggs": "yes", "diet:vegetarian": "yes", "name": "Food Point Dhaba", "payment:cash": "yes", "payment:upi": "yes", "phone": "+91 97563 03572", "takeaway": "yes", "toilets:wheelchair": "no", "wheelchair": "no"}}, {"type": "node", "id": 12120121054, "lat": 28.4279207, "lon": 77.0651712, "tags": {"air_conditioning": "no", "amenity": "restaurant", "cuisine": "indian"}}, {"type": "node", "id": 13073917031, "lat": 28.4291306, "lon": 77.0637029, "tags": {"air_conditioning": "no", "amenity": "restaurant", "bar": "no", "cuisine": "indian", "diet:non-vegetarian": "yes", "diet:vegetarian": "yes", "name": "Shri Shyam Dhaba", "phone": "+91 93118 68487"}}, {"type": "node", "id": 13073917040, "lat": 28.4254717, "lon": 77.0682792, "tags": {"addr:housenumber": "G35", "amenity": "restaurant", "cuisine": "sandwich;salad;juice", "diet:non-vegetarian": "yes", "diet:vegan": "yes", "diet:vegetarian": "yes", "level": "0", "name": "Toss & Taste", "opening_hours": "Mo-Su 11:00-22:00", "phone": "+91 920558577;+91 9958709477"}}, {"type": "node", "id": 13073917041, "lat": 28.4251584, "lon": 77.0679866, "tags": {"amenity": "restaurant", "cuisine": "indian;kebab", "diet:non-vegetarian": "yes", "diet:vegetarian": "yes", "level": "0", "mobile": "+91 9599024488", "name": "Degh & Wok"}}, {"type": "node", "id": 13073917042, "lat": 28.4250036, "lon": 77.067974, "tags": {"air_conditioning": "yes", "amenity": "restaurant", "cuisine": "indian", "diet:non-vegetarian": "yes", "diet:vegetarian": "yes", "level": "0", "mobile": "+91 8588000844", "name": "Himalayan Flavours"}}, {"type": "node", "id": 13302967399, "lat": 28.4226891, "lon": 77.06286, "tags": {"addr:city": "Gurugram", "addr:district": "Gurugram", "addr:housenumber": "J-23", "addr:postcode": "122001", "addr:street": "Block J, Mayfield Garden", "air_conditioning": "yes", "amenity": "restaurant", "cuisine": "indian", "diet:non-vegetarian": "yes", "diet:vegetarian": "yes", "name": "ZING", "opening_hours": "Mo-Su 00:00-23:30", "phone": "+91 7838000582;+91 78380 00582;+91 96896 81324;+91 7838800058", "website": "https://www.countryinngurugram.com/"}}, {"type": "way", "id": 24530530, "nodes": [266733524, 266733525, 266733526, 266733527, 266733524], "tags": {"created_by": "Potlatch 0.9a", "leisure": "park"}}, {"type": "way", "id": 24530533, "nodes": [266733530, 266733531, 266733532, 266733533, 266733530], "tags": {"created_by": "Potlatch 0.9a", "leisure": "park"}}, {"type": "way", "id": 24530535, "nodes": [266733549, 266733550, 266733551, 266733552, 266733549], "tags": {"created_by": "Potlatch 0.9a", "leisure": "park"}}, {"type": "way", "id": 24636515, "nodes": [267807545, 267807546, 267807547, 267807548, 267807545], "tags": {"created_by": "Potlatch 0.9c", "leisure": "park"}}, {"type": "way", "id": 24636531, "nodes": [267807640, 267807641, 267807642, 267807643, 267807640], "tags": {"created_by": "Potlatch 0.9c", "leisure": "park"}}, {"type": "way", "id": 24636550, "nodes": [267807754, 267807755, 267807756, 267807757, 267807754], "tags": {"created_by": "Potlatch 0.9c", "leisure": "park"}}, {"type": "way", "id": 24636553, "nodes": [267807761, 267807762, 267807763, 267807761], "tags": {"leisure": "park"}}, {"type": "way", "id": 24636558, "nodes": [267807789, 267807790, 267807791, 267807792, 267807789], "tags": {"leisure": "park"}}, {"type": "way", "id": 25657420, "nodes": [279695818, 279695819, 279695820, 279695821, 279695818], "tags": {"leisure": "park"}}, {"type": "way", "id": 28845738, "nodes": [317145205, 317145200, 317145199, 317145205], "tags": {"landuse": "grass", "leisure": "park"}}, {"type": "way", "id": 34940769, "nodes": [410057602, 410057604, 410057605, 410057607, 410057602], "tags": {"leisure": "park", "name": "Sector 45 Community park"}}, {"type": "way", "id": 34940770, "nodes": [4225329897, 410057599, 410057600, 410057601, 4225329897], "tags": {"leisure": "park"}}, {"type": "way", "id": 36778168, "nodes": [427598519, 427598520, 427598521, 427598523, 427598524, 427598525, 427598519], "tags": {"amenity": "marketplace", "building": "yes", "name": "Block B Market"}}, {"type": "way", "id": 36778169, "nodes": [427598526, 427598527, 427598528, 427598529, 427598526], "tags": {"amenity": "marketplace", "name": "Block D Market"}}, {"type": "way", "id": 45098399, "nodes": [571771328, 571771340, 571771341, 571771327, 571771328], "tags": {"leisure": "park"}}, {"type": "way", "id": 45098400, "nodes": [571771323, 571771339, 571771316, 571771323], "tags": {"leisure": "park"}}, {"type": "way", "id": 45252709, "nodes": [574653515, 574653519, 574653521, 574653500, 574653515], "tags": {"landuse": "grass", "leisure": "park"}}, {"type": "way", "id": 45252710, "nodes": [574653509, 574653527, 574653524, 574653513, 574653509], "tags": {"landuse": "grass", "leisure": "park"}}, {"type": "way", "id": 45300932, "nodes": [575396978, 575396985, 575396990, 575396966, 575396978], "tags": {"landuse": "grass", "leisure": "park"}}, {"type": "way", "id": 45769060, "nodes": [582862859, 582862874, 582862862, 582862858, 582862859], "tags": {"landuse": "grass", "leisure": "park"}}, {"type": "way", "id": 45769378, "nodes": [582865873, 582865890, 582865888, 582865882, 582865862, 582865865, 4227968360, 582865869, 582865873], "tags": {"addr:street": "Sec 46", "leisure": "park", "name": "Sector 46 Central Park", "operator": "RWA", "operator:type": "private"}}, {"type": "way", "id": 45769386, "nodes": [582865894, 582865918, 582865919, 582865901, 582865894], "tags": {"landuse": "grass", "leisure": "park"}}, {"type": "way", "id": 154343505, "nodes": [1668896302, 1668896317, 1668896313, 1668896300, 1668896302], "tags": {"leisure": "park"}}, {"type": "way", "id": 168928794, "nodes": [1801129916, 1801129937, 1801129939, 1801129916], "tags": {"leisure": "park"}}, {"type": "way", "id": 190244450, "nodes": [2008317779, 2008317775, 2008317774, 2008317769, 2008317768, 2008317767, 2008317766, 2008317770, 2008317771, 2008317777, 2008317778, 2008317779], "tags": {"leisure": "park"}}, {"type": "way", "id": 190244452, "nodes": [2008317782, 2008317785, 2008317784, 2008317781, 2008317782], "tags": {"leisure": "park"}}, {"type": "way", "id": 190244453, "nodes": [2008317783, 2008317786, 2008317793, 2008317787, 2008317783], "tags": {"leisure": "park"}}, {"type": "way", "id": 269290677, "nodes": [2745385442, 2745385438, 2745385439, 2745385445, 2745385443, 2745385442], "tags": {"barrier": "wall", "name": "Fortune Select Hotel", "tourism": "hotel"}}, {"type": "way", "id": 269649967, "nodes": [4231243264, 4231243266, 4231243268, 4231243278, 4231243280, 4231243282, 4231243281, 4231243279, 4231243269, 4231243267, 4231243265, 4231243249, 4231243246, 4231243245, 4231243241, 4231243239, 4231243237, 4231243238, 4231243240, 4231243242, 4231243244, 4231243248, 4231243264], "tags": {"landuse": "grass", "leisure": "park"}}, {"type": "way", "id": 272612967, "nodes": [2775583684, 2775583712, 4191082978, 2775583715, 2775583694, 2775583687, 2775583663, 2775583667, 2775583684], "tags": {"leisure": "park"}}, {"type": "way", "id": 272616513, "nodes": [2775629719, 2775629723, 2775629730, 2775629765, 2775629764, 2775629772, 2775629776, 2775629779, 2775629782, 2775629726, 2775629715, 2775629702, 2775629719], "tags": {"barrier": "wall", "leisure": "park"}}, {"type": "way", "id": 272616514, "nodes": [2775629746, 2775629749, 2775629793, 2775629790, 2775629746], "tags": {"barrier": "wall", "leisure": "park"}}, {"type": "way", "id": 272616515, "nodes": [2775629797, 2775629800, 2775629813, 2775629811, 2775629797], "tags": {"barrier": "wall", "leisure": "park"}}, {"type": "way", "id": 272616517, "nodes": [2775629818, 2775629820, 2775629826, 2775629829, 2775629832, 2775629837, 2775629840, 2775629818], "tags": {"barrier": "wall", "leisure": "park"}}, {"type": "way", "id": 272749557, "nodes": [2776784439, 2776784443, 2776784445, 2776784442, 2776784441, 2776784439], "tags": {"amenity": "restaurant", "barrier": "wall", "landuse": "retail", "name": "Bikanerwala", "shop": "bakery"}}, {"type": "way", "id": 272749561, "nodes": [2776784496, 2776784485, 2776784487, 2776784506, 2776784496], "tags": {"barrier": "wall", "leisure": "park"}}, {"type": "way", "id": 272749571, "nodes": [2776784540, 2776784513, 2776784527, 2776784526, 2776784545, 2776784548, 2776784525, 2776784540], "tags": {"barrier": "wall", "leisure": "park"}}, {"type": "way", "id": 274212232, "nodes": [2789807964, 2789807960, 2789807962, 2789807966, 2789807964], "tags": {"barrier": "wall", "name": "Apotel", "tourism": "guest_house"}}, {"type": "way", "id": 297353904, "nodes": [3012286782, 3012286783, 3012286784, 3012286782], "tags": {"leisure": "park", "name": "Triangle Park"}}, {"type": "way", "id": 297353910, "nodes": [3012286651, 3012286652, 3012286653, 3012286651], "tags": {"leisure": "park", "name": "Triangle Children Park"}}, {"type": "way", "id": 349817854, "nodes": [3556146757, 3556146763, 3556146742, 3556146741, 3556146757], "tags": {"addr:street": "Mayfield Garden", "amenity": "marketplace", "building": "yes", "name": "B-block", "name:en": "B-block, Mayfield Garden"}}, {"type": "way", "id": 349817879, "nodes": [3556146795, 3556146798, 3556146776, 3556146771, 3556146795], "tags": {"amenity": "marketplace", "building": "yes", "name": "Baani Square"}}, {"type": "way", "id": 349818075, "nodes": [3556146769, 3556146770, 3556146744, 3556146743, 3556146769], "tags": {"addr:street": "Mayfield Garden", "amenity": "marketplace", "building": "yes", "name": "B-block Mayfield Garden"}}, {"type": "way", "id": 349818086, "nodes": [3556146828, 3556146808, 3556146805, 3556146816, 3556146828], "tags": {"amenity": "marketplace", "building": "yes", "name": "Baani Square"}}, {"type": "way", "id": 349818137, "nodes": [3556146773, 3556146821, 3556146813, 3556146775, 3556146773], "tags": {"amenity": "marketplace", "building": "yes", "name": "Baani Square"}}, {"type": "way", "id": 349818190, "nodes": [3556146814, 3556146815, 3556146800, 3556146799, 3556146814], "tags": {"amenity": "marketplace", "building": "yes", "name": "Baani Square"}}, {"type": "way", "id": 349818221, "nodes": [3556146854, 3556146835, 3556146818, 3556146827, 3556146817, 3556146826, 3556146854], "tags": {"addr:city": "Gurgaon", "addr:district": "Sector 50", "addr:place": "Baani Square", "addr:postcode": "122002", "brand": "DoubleTree", "brand:wikidata": "Q2504643", "building": "yes", "contact:facebook": "https://www.facebook.com/DoubleTreeGurugram", "contact:instagram": "https://www.instagram.com/doubletreegurugram/", "email": "delgu.res@hilton.com", "fax": "+91-124-4420010", "internet_access": "yes", "name": "DoubleTree by Hilton Gurugram Baani Square", "official_name": "DoubleTree by Hilton", "operator": "Hilton", "phone": "+91 124 4420000", "rooms": "201", "smoking": "separated", "stars": "5", "tourism": "hotel", "website": "https://www.hilton.com/en/hotels/delgudi-doubletree-gurugram-baani-square/", "wheelchair": "yes"}}, {"type": "way", "id": 349978197, "nodes": [3557531743, 3557531720, 3557531702, 3557531578, 3557531592, 3557531708, 3557531723, 3557531743], "tags": {"amenity": "restaurant", "building": "yes", "cuisine": "indian", "diet:meat": "yes", "name": "Norenj"}}, {"type": "way", "id": 350066605, "nodes": [3558196021, 3558196024, 3558196022, 10118686115, 10118686113, 10118686112, 10118686114, 3558196028, 3558196027, 10118686116, 3558196020, 3558196019, 3558196026, 10118702517, 3558196025, 3558196008, 3558196021], "tags": {"amenity": "marketplace", "building": "yes", "name": "Earth Centre"}}, {"type": "way", "id": 351840951, "nodes": [3576438439, 3576438434, 3576438438, 3576438433, 3576438435, 3576438432, 3576438437, 3576438431, 3576438430, 3576438428, 3576438427, 3576438426, 3576438425, 3576438424, 3576438423, 3576438422, 3576438429, 3576438439], "tags": {"building": "yes", "tourism": "hotel"}}, {"type": "way", "id": 411357284, "nodes": [4225329976, 4130434509, 4130434510, 4130434498, 4225329974, 4225329976], "tags": {"leisure": "park"}}, {"type": "way", "id": 411357289, "nodes": [4130434433, 4130434424, 4130434410, 4130434389, 4130434392, 4130434402, 4130434416, 4130434433], "tags": {"leisure": "park"}}, {"type": "way", "id": 422805420, "nodes": [4225329916, 4225329909, 4225329917, 4225329921, 4225329926, 4225329916], "tags": {"leisure": "park"}}, {"type": "way", "id": 423057677, "nodes": [4130178156, 4130178160, 4130178161, 4130178163, 4130178159, 4130178158, 4130178156], "tags": {"landuse": "grass", "leisure": "park"}}, {"type": "way", "id": 423108017, "nodes": [4228055000, 4228054999, 4228055001, 4228055002, 4228055000], "tags": {"landuse": "grass", "leisure": "park"}}, {"type": "way", "id": 423115180, "nodes": [4228109048, 4228109045, 4228109044, 4228109047, 4228109048], "tags": {"addr:city": "Gurugram", "addr:postcode": "122001", "addr:street": "N Block", "leisure": "park", "name": "N Block Central Park", "operator": "RWA", "operator:type": "private"}}, {"type": "way", "id": 423116763, "nodes": [4228119835, 4228119833, 4228119837, 4228119840, 4228119835], "tags": {"landuse": "grass", "leisure": "park"}}, {"type": "way", "id": 423270301, "nodes": [4229454009, 4229453989, 4229453990, 4229453992, 4229453993, 4229453995, 4229453996, 4229453997, 4229453998, 4229453999, 4229454009], "tags": {"landuse": "grass", "leisure": "park"}}, {"type": "way", "id": 423270304, "nodes": [4229454063, 4229454055, 4229454053, 4229454050, 4229454048, 4229454045, 4229454043, 4565345867, 4229454044, 4229454046, 4229454047, 4229454049, 4229454051, 4229454054, 4229454058, 4229454062, 4229454064, 4229454066, 4229454068, 4229454070, 4229454071, 4229454069, 4229454067, 4229454065, 4229454063], "tags": {"landuse": "grass", "leisure": "park"}}, {"type": "way", "id": 423270305, "nodes": [4229454057, 4229454056, 4229454095, 4229454094, 4229454091, 4229454092, 4229454093, 4229454090, 4229454089, 4229454088, 4229454087, 4229454086, 4229454085, 4229454084, 4229454083, 4229454082, 4229454081, 4229454080, 4229454079, 4229454078, 4229454077, 4229454076, 4229454075, 4229454074, 4229454057], "tags": {"landuse": "grass", "leisure": "park"}}, {"type": "way", "id": 423270307, "nodes": [4229454000, 4229453991, 4229453994, 4229454002, 4229454000], "tags": {"landuse": "grass", "leisure": "park"}}, {"type": "way", "id": 423270308, "nodes": [4229454072, 4229454040, 4565345866, 4229454041, 4229454073, 4229454072], "tags": {"landuse": "grass", "leisure": "park"}}, {"type": "way", "id": 423270309, "nodes": [4229454005, 4229451381, 4229451382, 4229454006, 4229454005], "tags": {"landuse": "grass", "leisure": "park"}}, {"type": "way", "id": 423270311, "nodes": [4229454027, 4229454003, 4229454004, 4229454007, 4229454008, 4229454029, 4229454027], "tags": {"landuse": "grass", "leisure": "park"}}, {"type": "way", "id": 423298943, "nodes": [4229617464, 4229617459, 4229617460, 4229617461, 4229617462, 4229617463, 4229617465, 4229617464], "tags": {"landuse": "grass", "leisure": "park"}}, {"type": "way", "id": 423343434, "nodes": [4229864636, 4229864635, 4229864628, 4229864630, 4229864638, 4229864636], "tags": {"landuse": "grass", "leisure": "park"}}, {"type": "way", "id": 423531272, "nodes": [4231243229, 4231243227, 4231243226, 4231243228, 4231243229], "tags": {"fixme": "Is this a public park?", "leisure": "park"}}, {"type": "way", "id": 423531273, "nodes": [4231243907, 4231243904, 4231243905, 4231243906, 4231243907], "tags": {"landuse": "grass", "leisure": "park"}}, {"type": "way", "id": 423531274, "nodes": [4231243902, 4231243898, 4231243899, 4231243903, 4231243902], "tags": {"landuse": "grass", "leisure": "park"}}, {"type": "way", "id": 423531275, "nodes": [4231243234, 4231243232, 4231243231, 4231243233, 4231243234], "tags": {"landuse": "grass", "leisure": "park"}}, {"type": "way", "id": 423531276, "nodes": [4231243288, 4231243261, 4231243263, 4231243889, 4231243890, 4231243288], "tags": {"landuse": "grass", "leisure": "park"}}, {"type": "way", "id": 423531277, "nodes": [4231243224, 4231243221, 4231243220, 4231243222, 4231243223, 4231243225, 4231243224], "tags": {"landuse": "grass", "leisure": "park"}}, {"type": "way", "id": 423531278, "nodes": [4231243900, 4231243897, 4231243894, 4231243895, 4231243896, 4231243901, 4231243900], "tags": {"landuse": "grass", "leisure": "park"}}, {"type": "way", "id": 423531565, "nodes": [4231247219, 4231247216, 4231247215, 4231247217, 4231247218, 4231247220, 4231247219], "tags": {"landuse": "grass", "leisure": "park"}}, {"type": "way", "id": 423619136, "nodes": [9916596109, 9916596111, 2008318031, 2008318013, 9916596112, 4231825956, 4231825960, 4231825966, 9916596109], "tags": {"leisure": "park"}}, {"type": "way", "id": 423619154, "nodes": [4231825968, 4231825962, 4231825957, 4231825969, 4231825968], "tags": {"landuse": "grass", "leisure": "park"}}, {"type": "way", "id": 442957603, "nodes": [4406070159, 4406070160, 4406070161, 4406070162, 4406070159], "tags": {"leisure": "park"}}, {"type": "way", "id": 442957604, "nodes": [4406070163, 4406070164, 4406070165, 4406070166, 4406070163], "tags": {"leisure": "park"}}, {"type": "way", "id": 471501657, "nodes": [4656564861, 4656564862, 266612978, 266612977, 4656564863, 266598141, 5978006301, 4656564865, 4656564861], "tags": {"leisure": "park", "name": "Malibu Town Tower 3-4 Park"}}, {"type": "way", "id": 471501661, "nodes": [266612337, 266612947, 266612944, 266612945, 4132365085, 266612938, 266612937, 266612926, 266612925, 266612924, 266612917, 266612918, 266612919, 266612920, 4656564876, 4656564877, 4656564878, 4656564879, 266612859, 266612337], "tags": {"leisure": "park", "name": "Imperia Towers Park"}}, {"type": "way", "id": 471502959, "nodes": [5977620119, 5977620121, 4146708360, 266598149, 506626927, 2742737328, 2742737315, 9917046096, 9917046098, 266612446, 266613169, 5977620119], "tags": {"leisure": "park", "name": "Malibu Town Parks"}}, {"type": "way", "id": 545162107, "nodes": [5269197402, 5269197403, 5269197404, 5269197405, 5269197402], "tags": {"grassland": "grass", "leisure": "park"}}, {"type": "way", "id": 546519112, "nodes": [5950623377, 5281517314, 5281517313, 5281517312, 5281517311, 5281517310, 5281517309, 5281517308, 5281517320, 5281517307, 5281517305, 5281517304, 5950623377], "tags": {"leisure": "park", "name": "Royal Presidency Park"}}, {"type": "way", "id": 546519114, "nodes": [5281518622, 5281518623, 12067837154, 5281518625, 5281518622], "tags": {"leisure": "park", "name": "Sports Complex, Sector 45"}}, {"type": "way", "id": 546520217, "nodes": [5281524844, 5281524845, 5281524846, 5281524847, 5281524844], "tags": {"leisure": "park", "name": "Park behind St. Angel's school"}}, {"type": "way", "id": 546520572, "nodes": [5281524640, 5281524641, 5281524642, 5281524643, 5281524640], "tags": {"leisure": "park"}}, {"type": "way", "id": 546520573, "nodes": [5281524644, 5281524645, 5281524646, 5281524644], "tags": {"leisure": "park"}}, {"type": "way", "id": 546520574, "nodes": [5281524647, 5281524648, 5281524649, 5281524650, 5281524647], "tags": {"leisure": "park"}}, {"type": "way", "id": 557700825, "nodes": [5378349920, 5378350221, 5378350222, 5378362989, 5378350223, 5378349920], "tags": {"description": "Municipal park with benches and walking paths surrounded by small shrubs, flower beds and well-maintained grass", "leisure": "park"}}, {"type": "way", "id": 581309919, "nodes": [5562420770, 5562420771, 5562420772, 5562420773, 5562420770], "tags": {"description": "Small park for society residents\n", "leisure": "park", "name": "Karanvir Towers Park"}}, {"type": "way", "id": 581313140, "nodes": [5562442413, 5562442414, 5562442415, 5562442416, 5562442413], "tags": {"leisure": "park", "name": "Golden Crest park and green area"}}, {"type": "way", "id": 592315617, "nodes": [5653408987, 5653408988, 5653408989, 5653408990, 5653408991, 5653408992, 5653408993, 5653408994, 5653408995, 5653408996, 5653408997, 5653408998, 5653408999, 5653409000, 5653409001, 5653409002, 5653409003, 5653409004, 5653409005, 5653409006, 5653409007, 5653409008, 5653409009, 5653408987], "tags": {"leisure": "park", "name": "Palm Drive Gardens"}}, {"type": "way", "id": 592316728, "nodes": [5653415540, 5653415541, 5653415542, 5653415543, 5653415544, 5653415540], "tags": {"leisure": "park"}}, {"type": "way", "id": 625513669, "nodes": [5905856430, 5905856431, 5905856432, 5905856433, 5905856430], "tags": {"leisure": "park", "name": "Common Park"}}, {"type": "way", "id": 629413037, "nodes": [5942250378, 5942250379, 5942250380, 5942250381, 5942250378], "tags": {"leisure": "park", "name": "Nile's Central Park"}}, {"type": "way", "id": 630236232, "nodes": [5951500871, 5951500872, 5951500873, 5951500874, 5951500871], "tags": {"leisure": "park"}}, {"type": "way", "id": 630236234, "nodes": [5951500879, 5951500880, 5951500881, 5951500882, 5951500879], "tags": {"leisure": "park"}}, {"type": "way", "id": 630421732, "nodes": [5952939881, 5952939882, 5952939883, 5952939884, 5952940385, 5952940386, 5952939881], "tags": {"leisure": "park"}}, {"type": "way", "id": 651388658, "nodes": [6108661447, 6108661448, 6108661449, 6108661450, 6108661451, 6108661452, 6108661453, 6108661447], "tags": {"leisure": "park", "name": "White Wood Central Park"}}, {"type": "way", "id": 843253867, "nodes": [7866031530, 7866031531, 7866031532, 7866031533, 7866031534, 7866031535, 7866031530], "tags": {"leisure": "park", "opening_hours:covid19": "off"}}, {"type": "way", "id": 1079172957, "nodes": [9892775548, 9892775549, 9892775550, 9892775551, 9892775552, 9892775553, 4162948926, 4162948925, 4162948929, 4162948928, 4162948930, 4162948932, 4162948934, 9892775548], "tags": {"leisure": "park"}}, {"type": "way", "id": 1195003748, "nodes": [11091626077, 11091626078, 11091626079, 11091626080, 11091626077], "tags": {"leisure": "park"}}, {"type": "way", "id": 1195171946, "nodes": [11092830744, 11092830745, 11092830746, 11092830747, 11092830744], "tags": {"addr:city": "Gurugram", "addr:district": "Gurugram", "addr:village": "Samaspur", "leisure": "park", "name": "Park Number 5", "operator": "Municipal Coorporation Gurugram", "operator:type": "government"}}, {"type": "way", "id": 1220968209, "nodes": [11313801743, 11313801744, 11313801745, 11313801746, 11313801743], "tags": {"addr:city": "Gurugram", "addr:postcode": "122001", "addr:street": "C Block May Field Gardens", "leisure": "park", "name": "Manav Rachna Playground cum C Block Main Park", "operator": "C Block RWA", "operator:type": "private"}}, {"type": "way", "id": 1220968333, "nodes": [11313857179, 11313857180, 11313857181, 11313857182, 11313857179], "tags": {"leisure": "park"}}, {"type": "way", "id": 1222327377, "nodes": [11336553981, 11336553982, 11336553983, 11336553981], "tags": {"leisure": "park"}}, {"type": "way", "id": 1222327378, "nodes": [11336553984, 11336553985, 11336553986, 11336553987, 11336553984], "tags": {"fixme": "park boundary correction by local survey", "leisure": "park"}}, {"type": "way", "id": 1226655024, "nodes": [11374846876, 11374846877, 11374846878, 11374846879, 11374846880, 11374846876], "tags": {"leisure": "park"}}, {"type": "way", "id": 1227950252, "nodes": [11387117784, 11387117785, 11387117786, 11387117787, 11387117790, 11387117791, 11387117784], "tags": {"access": "yes", "leisure": "park"}}, {"type": "way", "id": 1228658282, "nodes": [11394276177, 11394276178, 11394276179, 11394276180, 11394276177], "tags": {"access": "yes", "leisure": "park"}}, {"type": "way", "id": 1228658283, "nodes": [11394276181, 11394276182, 11394276183, 11394276181], "tags": {"access": "yes", "leisure": "park"}}, {"type": "way", "id": 1228658285, "nodes": [11394276187, 11394276188, 11394276189, 11394276187], "tags": {"access": "yes", "leisure": "park"}}, {"type": "way", "id": 1228658286, "nodes": [11394276190, 11394276191, 11394276192, 11394276193, 11394276194, 11394276195, 11394276196, 11394276197, 11394276198, 11394276199, 11394276200, 11394276201, 11394276202, 11394276190], "tags": {"access": "yes", "leisure": "park"}}, {"type": "way", "id": 1228658290, "nodes": [11394276216, 11394276214, 11394276217, 11394276218, 11394276216], "tags": {"access": "yes", "leisure": "park"}}, {"type": "way", "id": 1228658298, "nodes": [11394276236, 11394276237, 11394276238, 11394276239, 11394276240, 11394276241, 11394276242, 11394276236], "tags": {"access": "yes", "leisure": "park"}}, {"type": "way", "id": 1253892528, "nodes": [11655790305, 11655790306, 11655790307, 11655790308, 11655790305], "tags": {"leisure": "park"}}, {"type": "way", "id": 1253892529, "nodes": [11655790309, 11655790310, 11655790311, 11655790312, 11655790313, 11655790314, 11655790315, 11655790316, 11655790317, 11655790318, 11655790319, 11655790320, 11655790309], "tags": {"leisure": "park"}}, {"type": "way", "id": 1253892530, "nodes": [11655790321, 11655790322, 11655790323, 11655790324, 11655790321], "tags": {"leisure": "park"}}, {"type": "way", "id": 1260741044, "nodes": [11718101172, 11718101173, 11718101174, 11718101172], "tags": {"addr:city": "Gurugram", "addr:postcode": "122001", "addr:street": "J Block", "leisure": "park", "name": "Main Triangular Park", "operator": "J Block MayField Gardens", "operator:type": "private"}}, {"type": "way", "id": 1260743940, "nodes": [11718109827, 11718109828, 11718109829, 11718109827], "tags": {"addr:city": "Gurugram", "addr:postcode": "122001", "addr:street": "J Block", "description": "J Block Joggers Park", "leisure": "park", "name": "Joggers Park", "operator": "RWA", "operator:type": "private"}}, {"type": "way", "id": 1260750144, "nodes": [11718028310, 11718028311, 11718028312, 11718028313, 11718028310], "tags": {"addr:city": "Gurugram", "addr:postcode": "122001", "addr:street": "N Block", "leisure": "park", "name": "Temple Park", "operator": "Temple", "operator:type": "private"}}, {"type": "way", "id": 1260759155, "nodes": [11718262390, 11718262391, 11718262392, 11718262390], "tags": {"leisure": "park", "name": "Housing Board Park N Block", "operator": "Housing Board", "operator:type": "public"}}, {"type": "way", "id": 1270574326, "nodes": [11799198858, 11799198859, 11799198860, 11799198858], "tags": {"leisure": "park"}}, {"type": "way", "id": 1270574327, "nodes": [11799198861, 11799198862, 11799198863, 11799198864, 11799198861], "tags": {"leisure": "park"}}, {"type": "way", "id": 1270574328, "nodes": [11799198865, 11799198866, 11799198867, 11799198868, 11799198865], "tags": {"leisure": "park"}}, {"type": "way", "id": 1270574329, "nodes": [11799198870, 11799198871, 11799198872, 11799198870], "tags": {"leisure": "park"}}, {"type": "way", "id": 1270694619, "nodes": [11800254030, 11800254031, 11800254032, 11800254030], "tags": {"leisure": "park"}}, {"type": "way", "id": 1270694621, "nodes": [11800254044, 11800254045, 11800254046, 11800254047, 11800254048, 11800254044], "tags": {"leisure": "park"}}, {"type": "way", "id": 1271122115, "nodes": [11804488798, 11804488799, 11804488801, 11804488800, 11804488798], "tags": {"leisure": "park"}}, {"type": "way", "id": 1271122118, "nodes": [11804488812, 11804488813, 11804488814, 11804488815, 11804488812], "tags": {"leisure": "park"}}, {"type": "way", "id": 1271122120, "nodes": [11804488824, 11804488825, 11804488826, 11804488827, 11804488824], "tags": {"leisure": "park"}}, {"type": "way", "id": 1271124846, "nodes": [11804514244, 11804514245, 11804514246, 11804514247, 11804514244], "tags": {"leisure": "park"}}, {"type": "way", "id": 1271124847, "nodes": [11804514248, 11804514249, 11804514250, 11804514251, 11804514248], "tags": {"leisure": "park"}}, {"type": "way", "id": 1271124848, "nodes": [11804514252, 11804514253, 11804514254, 11804514255, 11804514252], "tags": {"leisure": "park"}}, {"type": "way", "id": 1271124850, "nodes": [11804514260, 11804514261, 11804514262, 11804514263, 11804514260], "tags": {"leisure": "park"}}, {"type": "way", "id": 1271124851, "nodes": [11804514264, 11804514265, 11804514266, 11804514267, 11804514268, 11804515669, 11804514264], "tags": {"leisure": "park"}}, {"type": "way", "id": 1296966884, "nodes": [12017363089, 12017363090, 12017363091, 12017363089], "tags": {"leisure": "park"}}, {"type": "way", "id": 1300397431, "nodes": [12044956238, 12044956239, 12044956240, 12044956238], "tags": {"leisure": "park"}}, {"type": "way", "id": 1313203041, "nodes": [12155063044, 12155063045, 12155063046, 12155063047, 12155063044], "tags": {"leisure": "park"}}, {"type": "way", "id": 1315446100, "nodes": [12175945995, 12175945996, 12175945997, 12175945995], "tags": {"leisure": "park"}}, {"type": "way", "id": 1336849086, "nodes": [12365076037, 12365076038, 12365076039, 12365076040, 12365076037], "tags": {"addr:city": "Gurgaon", "addr:district": "Sector 63", "addr:postcode": "122101", "brand": "Hilton", "brand:wikidata": "Q598884", "building": "yes", "contact:facebook": "https://www.facebook.com/profile.php?id=61560764114817", "contact:instagram": "https://www.instagram.com/hiltongurugrambaanicitycentre/", "contact:linkedin": "https://www.linkedin.com/company/hilton-gurugram-baani-city-centre/", "email": "Delgb_reservations@hilton.com", "internet_access": "yes", "internet_access:fee": "yes", "name": "Hilton Gurugram Baani City Centre", "phone": "+91 124 513 1400", "rooms": "223", "tourism": "hotel", "website": "https://www.hilton.com/en/hotels/delgbhi-hilton-gurugram-baani-city-centre/"}}, {"type": "way", "id": 1337326032, "nodes": [12369289563, 12369289564, 12369289565, 12369289563], "tags": {"leisure": "park"}}, {"type": "way", "id": 1337326040, "nodes": [12369289582, 12369289583, 12369289584, 12369289582], "tags": {"leisure": "park"}}, {"type": "way", "id": 1383659344, "nodes": [12810722274, 12810722273, 12810722278, 12810722276, 12810722280, 12810722275, 12810722274], "tags": {"leisure": "park"}}, {"type": "way", "id": 1387719418, "nodes": [12845636512, 12845636513, 12845636514, 12845636515, 12845636512], "tags": {"addr:village": "Samaspur", "leisure": "park", "name": "Park 2"}}, {"type": "way", "id": 1387719422, "nodes": [12845636527, 12845636528, 12845636529, 12845636530, 12845636527], "tags": {"leisure": "park"}}, {"type": "way", "id": 1408776567, "nodes": [12946386141, 12946386142, 12946386143, 12946386144, 12946386141], "tags": {"leisure": "park", "name": "F Block Park"}}, {"type": "way", "id": 1408777029, "nodes": [12946477108, 12946477109, 12946477110, 12946477111, 12946477108], "tags": {"leisure": "park", "name": "F Block Open Gym"}}, {"type": "way", "id": 1434681189, "nodes": [13186584935, 13186584936, 13186584937, 13186584938, 13186584935], "tags": {"leisure": "park"}}, {"type": "way", "id": 1442593455, "nodes": [13236532074, 13236532075, 13236532076, 13236532077, 13236532074], "tags": {"leisure": "park"}}, {"type": "way", "id": 1450445804, "nodes": [13302967395, 13302967396, 13302967397, 13302967398, 13302967395], "tags": {"addr:city": "Gurugram", "addr:district": "Gurugram", "addr:housenumber": "J-23", "addr:postcode": "122003", "addr:street": "Block J, Mayfield Garden", "air_conditioning": "yes", "building": "yes", "check_in": "14:00", "check_out": "11:00", "email": "info@countryingurugram.com", "internet_access": "wlan", "internet_access:fee": "customers", "mobile": "+91 78380 00582;+91 96896 81324;+91 7838800058", "name": "Country Inn Gurugram", "tourism": "hotel", "website": "https://countryinngurugram.com/"}}, {"type": "node", "id": 5269197402, "lat": 28.405267, "lon": 77.0433726}, {"type": "node", "id": 5269197403, "lat": 28.4052981, "lon": 77.0435566}, {"type": "node", "id": 5269197404, "lat": 28.4041774, "lon": 77.0438681}, {"type": "node", "id": 5269197405, "lat": 28.4041213, "lon": 77.0436769}, {"type": "node", "id": 5653415541, "lat": 28.4030017, "lon": 77.0504025}, {"type": "node", "id": 5653415542, "lat": 28.4026616, "lon": 77.0505419}, {"type": "node", "id": 5653408987, "lat": 28.4023538, "lon": 77.0519281}, {"type": "node", "id": 5653408988, "lat": 28.402112, "lon": 77.0519933}, {"type": "node", "id": 5653408989, "lat": 28.4019615, "lon": 77.0520303}, {"type": "node", "id": 5653408990, "lat": 28.4016755, "lon": 77.0520767}, {"type": "node", "id": 5653408991, "lat": 28.4012464, "lon": 77.0520674}, {"type": "node", "id": 5653408992, "lat": 28.4009359, "lon": 77.052086}, {"type": "node", "id": 5653408993, "lat": 28.4009236, "lon": 77.0527549}, {"type": "node", "id": 5653408994, "lat": 28.40094, "lon": 77.0530801}, {"type": "node", "id": 5653408995, "lat": 28.4011116, "lon": 77.0532427}, {"type": "node", "id": 5653408996, "lat": 28.4012873, "lon": 77.0532334}, {"type": "node", "id": 5653408997, "lat": 28.4013935, "lon": 77.0531172}, {"type": "node", "id": 5653408998, "lat": 28.401463, "lon": 77.052885}, {"type": "node", "id": 5653408999, "lat": 28.4016142, "lon": 77.0529082}, {"type": "node", "id": 5653409000, "lat": 28.4016918, "lon": 77.0528943}, {"type": "node", "id": 5653409001, "lat": 28.4017572, "lon": 77.0527921}, {"type": "node", "id": 5653409002, "lat": 28.4017858, "lon": 77.0525319}, {"type": "node", "id": 5653409003, "lat": 28.4019329, "lon": 77.0524855}, {"type": "node", "id": 5653409004, "lat": 28.4020187, "lon": 77.0525505}, {"type": "node", "id": 5653409005, "lat": 28.4020677, "lon": 77.0525598}, {"type": "node", "id": 5653409006, "lat": 28.4021127, "lon": 77.0523415}, {"type": "node", "id": 5653409007, "lat": 28.402129, "lon": 77.0521836}, {"type": "node", "id": 5653409008, "lat": 28.4022435, "lon": 77.0521139}, {"type": "node", "id": 5653409009, "lat": 28.4023293, "lon": 77.0521278}, {"type": "node", "id": 5653415540, "lat": 28.4034828, "lon": 77.0515032}, {"type": "node", "id": 5653415543, "lat": 28.4030998, "lon": 77.0518376}, {"type": "node", "id": 5653415544, "lat": 28.4032928, "lon": 77.0516704}, {"type": "node", "id": 4229451381, "lat": 28.4034388, "lon": 77.062641}, {"type": "node", "id": 4229451382, "lat": 28.40346, "lon": 77.0628716}, {"type": "node", "id": 4229453991, "lat": 28.4036712, "lon": 77.0622132}, {"type": "node", "id": 4229453994, "lat": 28.4037066, "lon": 77.0626128}, {"type": "node", "id": 4229454000, "lat": 28.4038434, "lon": 77.0621998}, {"type": "node", "id": 4229454002, "lat": 28.4038811, "lon": 77.0626343}, {"type": "node", "id": 4229454003, "lat": 28.4039165, "lon": 77.0621595}, {"type": "node", "id": 4229454004, "lat": 28.4039213, "lon": 77.062637}, {"type": "node", "id": 4229454005, "lat": 28.4039366, "lon": 77.0626772}, {"type": "node", "id": 4229454006, "lat": 28.4040286, "lon": 77.0628609}, {"type": "node", "id": 4229454007, "lat": 28.4041949, "lon": 77.0626799}, {"type": "node", "id": 4229454008, "lat": 28.4042044, "lon": 77.0628408}, {"type": "node", "id": 4229454027, "lat": 28.4046998, "lon": 77.062181}, {"type": "node", "id": 4229454029, "lat": 28.4047187, "lon": 77.0628462}, {"type": "node", "id": 4229617459, "lat": 28.4048375, "lon": 77.0617277}, {"type": "node", "id": 4229617460, "lat": 28.4049342, "lon": 77.0620026}, {"type": "node", "id": 4229617461, "lat": 28.4051041, "lon": 77.0619718}, {"type": "node", "id": 4229617462, "lat": 28.4057412, "lon": 77.0619181}, {"type": "node", "id": 4229617463, "lat": 28.4057695, "lon": 77.061733}, {"type": "node", "id": 4229617464, "lat": 28.4060832, "lon": 77.0608586}, {"type": "node", "id": 4229617465, "lat": 28.4062413, "lon": 77.0614165}, {"type": "node", "id": 4229453989, "lat": 28.4036529, "lon": 77.0682904}, {"type": "node", "id": 4229453990, "lat": 28.4036541, "lon": 77.068405}, {"type": "node", "id": 4229453992, "lat": 28.4036818, "lon": 77.068405}, {"type": "node", "id": 4229453993, "lat": 28.403703, "lon": 77.0684178}, {"type": "node", "id": 4229453995, "lat": 28.4037219, "lon": 77.0684352}, {"type": "node", "id": 4229453996, "lat": 28.4037319, "lon": 77.0684567}, {"type": "node", "id": 4229453997, "lat": 28.4037408, "lon": 77.0684788}, {"type": "node", "id": 4229453998, "lat": 28.4037437, "lon": 77.068507}, {"type": "node", "id": 4229453999, "lat": 28.4037437, "lon": 77.0685251}, {"type": "node", "id": 4229454009, "lat": 28.4042055, "lon": 77.0682857}, {"type": "node", "id": 4229454056, "lat": 28.406388, "lon": 77.0703028}, {"type": "node", "id": 4229454057, "lat": 28.4063891, "lon": 77.0696349}, {"type": "node", "id": 4162948925, "lat": 28.4084561, "lon": 77.0403931}, {"type": "node", "id": 4162948926, "lat": 28.4084592, "lon": 77.0404796}, {"type": "node", "id": 4162948928, "lat": 28.4085165, "lon": 77.0402554}, {"type": "node", "id": 4162948929, "lat": 28.4085206, "lon": 77.0403912}, {"type": "node", "id": 4162948930, "lat": 28.4085655, "lon": 77.0401575}, {"type": "node", "id": 4162948932, "lat": 28.408623, "lon": 77.0401147}, {"type": "node", "id": 4162948934, "lat": 28.4086961, "lon": 77.0401103}, {"type": "node", "id": 9892775548, "lat": 28.4086901, "lon": 77.040069}, {"type": "node", "id": 9892775549, "lat": 28.4086871, "lon": 77.0400133}, {"type": "node", "id": 9892775550, "lat": 28.4085722, "lon": 77.0399235}, {"type": "node", "id": 9892775551, "lat": 28.4084592, "lon": 77.039953}, {"type": "node", "id": 9892775552, "lat": 28.4083602, "lon": 77.0400417}, {"type": "node", "id": 9892775553, "lat": 28.4083642, "lon": 77.0404725}, {"type": "node", "id": 266598149, "lat": 28.4195268, "lon": 77.0422742}, {"type": "node", "id": 266733527, "lat": 28.4189794, "lon": 77.0440629}, {"type": "node", "id": 266733530, "lat": 28.4196837, "lon": 77.0436268}, {"type": "node", "id": 266733531, "lat": 28.4195732, "lon": 77.0438641}, {"type": "node", "id": 266733532, "lat": 28.4191839, "lon": 77.0436236}, {"type": "node", "id": 266733533, "lat": 28.4192943, "lon": 77.0433863}, {"type": "node", "id": 266733551, "lat": 28.4195183, "lon": 77.0429052}, {"type": "node", "id": 266733552, "lat": 28.4196292, "lon": 77.0426668}, {"type": "node", "id": 267807640, "lat": 28.4162667, "lon": 77.0441012}, {"type": "node", "id": 267807641, "lat": 28.4160629, "lon": 77.0441021}, {"type": "node", "id": 267807754, "lat": 28.4160863, "lon": 77.0432634}, {"type": "node", "id": 267807755, "lat": 28.4160939, "lon": 77.0440273}, {"type": "node", "id": 267807756, "lat": 28.4171658, "lon": 77.0440531}, {"type": "node", "id": 267807757, "lat": 28.4171583, "lon": 77.0439243}, {"type": "node", "id": 2745385438, "lat": 28.4155336, "lon": 77.0421189}, {"type": "node", "id": 2745385439, "lat": 28.4157359, "lon": 77.0420861}, {"type": "node", "id": 2745385442, "lat": 28.4158997, "lon": 77.0413478}, {"type": "node", "id": 2745385443, "lat": 28.4161132, "lon": 77.0412614}, {"type": "node", "id": 2745385445, "lat": 28.4162628, "lon": 77.0419023}, {"type": "node", "id": 2789807960, "lat": 28.418334, "lon": 77.0414987}, {"type": "node", "id": 2789807962, "lat": 28.418824, "lon": 77.0404709}, {"type": "node", "id": 2789807964, "lat": 28.4189253, "lon": 77.0414284}, {"type": "node", "id": 2789807966, "lat": 28.4194331, "lon": 77.0403331}, {"type": "node", "id": 3576438422, "lat": 28.4157613, "lon": 77.0419274}, {"type": "node", "id": 3576438423, "lat": 28.4158695, "lon": 77.0420025}, {"type": "node", "id": 3576438424, "lat": 28.4158839, "lon": 77.0419756}, {"type": "node", "id": 3576438425, "lat": 28.4159079, "lon": 77.0419923}, {"type": "node", "id": 3576438426, "lat": 28.4159146, "lon": 77.0419799}, {"type": "node", "id": 3576438427, "lat": 28.4159635, "lon": 77.0419709}, {"type": "node", "id": 3576438428, "lat": 28.4159972, "lon": 77.0419142}, {"type": "node", "id": 3576438429, "lat": 28.4160056, "lon": 77.0414719}, {"type": "node", "id": 3576438430, "lat": 28.4160261, "lon": 77.0419322}, {"type": "node", "id": 3576438431, "lat": 28.4161062, "lon": 77.0418963}, {"type": "node", "id": 3576438432, "lat": 28.4161413, "lon": 77.0417571}, {"type": "node", "id": 3576438433, "lat": 28.4161534, "lon": 77.0416942}, {"type": "node", "id": 3576438434, "lat": 28.4161637, "lon": 77.0416358}, {"type": "node", "id": 3576438435, "lat": 28.4161639, "lon": 77.0417123}, {"type": "node", "id": 3576438437, "lat": 28.4161701, "lon": 77.0417771}, {"type": "node", "id": 3576438438, "lat": 28.4161791, "lon": 77.0416464}, {"type": "node", "id": 3576438439, "lat": 28.4161849, "lon": 77.0415962}, {"type": "node", "id": 266598141, "lat": 28.422875, "lon": 77.03967}, {"type": "node", "id": 266612337, "lat": 28.4223762, "lon": 77.0406802}, {"type": "node", "id": 266612859, "lat": 28.4224459, "lon": 77.0415071}, {"type": "node", "id": 266612917, "lat": 28.4229205, "lon": 77.0414828}, {"type": "node", "id": 266612918, "lat": 28.4229298, "lon": 77.0419069}, {"type": "node", "id": 266612919, "lat": 28.4230809, "lon": 77.0420625}, {"type": "node", "id": 266612920, "lat": 28.4233385, "lon": 77.0420636}, {"type": "node", "id": 266612924, "lat": 28.422909, "lon": 77.0410252}, {"type": "node", "id": 266612925, "lat": 28.423067, "lon": 77.0408311}, {"type": "node", "id": 266612926, "lat": 28.4232406, "lon": 77.0408311}, {"type": "node", "id": 266612937, "lat": 28.4234306, "lon": 77.0408912}, {"type": "node", "id": 266612938, "lat": 28.4235815, "lon": 77.0408053}, {"type": "node", "id": 266612944, "lat": 28.4230456, "lon": 77.0406251}, {"type": "node", "id": 266612945, "lat": 28.4233098, "lon": 77.0406337}, {"type": "node", "id": 266612947, "lat": 28.422636, "lon": 77.0406303}, {"type": "node", "id": 266612977, "lat": 28.4226984, "lon": 77.0401273}, {"type": "node", "id": 266612978, "lat": 28.4228644, "lon": 77.0400329}, {"type": "node", "id": 266613169, "lat": 28.4224048, "lon": 77.0437997}, {"type": "node", "id": 266733549, "lat": 28.4201401, "lon": 77.0429958}, {"type": "node", "id": 266733550, "lat": 28.4200232, "lon": 77.0432305}, {"type": "node", "id": 506626927, "lat": 28.4202084, "lon": 77.042867}, {"type": "node", "id": 2742737315, "lat": 28.4201749, "lon": 77.0431382}, {"type": "node", "id": 2742737328, "lat": 28.4203525, "lon": 77.042776}, {"type": "node", "id": 4132365085, "lat": 28.4236225, "lon": 77.0406364}, {"type": "node", "id": 4146708360, "lat": 28.4200062, "lon": 77.041327}, {"type": "node", "id": 4656564861, "lat": 28.423042, "lon": 77.0401912}, {"type": "node", "id": 4656564862, "lat": 28.4229533, "lon": 77.0400472}, {"type": "node", "id": 4656564863, "lat": 28.4226587, "lon": 77.040099}, {"type": "node", "id": 4656564865, "lat": 28.4234804, "lon": 77.0401365}, {"type": "node", "id": 4656564876, "lat": 28.4233189, "lon": 77.0423175}, {"type": "node", "id": 4656564877, "lat": 28.4229819, "lon": 77.0423123}, {"type": "node", "id": 4656564878, "lat": 28.4227724, "lon": 77.0423538}, {"type": "node", "id": 4656564879, "lat": 28.422514, "lon": 77.042343}, {"type": "node", "id": 5977620119, "lat": 28.4223231, "lon": 77.040813}, {"type": "node", "id": 5977620121, "lat": 28.4201444, "lon": 77.0412725}, {"type": "node", "id": 5978006301, "lat": 28.4235083, "lon": 77.0400614}, {"type": "node", "id": 9917046096, "lat": 28.420598, "lon": 77.0435358}, {"type": "node", "id": 9917046098, "lat": 28.4214258, "lon": 77.0440325}, {"type": "node", "id": 2008317766, "lat": 28.4317267, "lon": 77.0429842}, {"type": "node", "id": 2008317767, "lat": 28.431734, "lon": 77.0433043}, {"type": "node", "id": 2008317768, "lat": 28.4317758, "lon": 77.0434923}, {"type": "node", "id": 2008317769, "lat": 28.4319265, "lon": 77.043643}, {"type": "node", "id": 2008317770, "lat": 28.4319937, "lon": 77.0430069}, {"type": "node", "id": 2008317771, "lat": 28.4320028, "lon": 77.0428727}, {"type": "node", "id": 2008317774, "lat": 28.4323386, "lon": 77.0433641}, {"type": "node", "id": 2008317775, "lat": 28.4325334, "lon": 77.0435588}, {"type": "node", "id": 2008317777, "lat": 28.432653, "lon": 77.0429842}, {"type": "node", "id": 2008317778, "lat": 28.4327983, "lon": 77.0431701}, {"type": "node", "id": 5942250378, "lat": 28.4100206, "lon": 77.0500815}, {"type": "node", "id": 5942250379, "lat": 28.4100223, "lon": 77.0505127}, {"type": "node", "id": 5942250380, "lat": 28.4103441, "lon": 77.0505111}, {"type": "node", "id": 5942250381, "lat": 28.4103424, "lon": 77.0500799}, {"type": "node", "id": 5951500872, "lat": 28.412969, "lon": 77.0454282}, {"type": "node", "id": 5951500873, "lat": 28.4129778, "lon": 77.0460762}, {"type": "node", "id": 5952939883, "lat": 28.4130689, "lon": 77.0487017}, {"type": "node", "id": 5952939884, "lat": 28.4127565, "lon": 77.0487094}, {"type": "node", "id": 5952940385, "lat": 28.4127293, "lon": 77.0472668}, {"type": "node", "id": 266733524, "lat": 28.4193727, "lon": 77.0442941}, {"type": "node", "id": 266733525, "lat": 28.4192401, "lon": 77.0445788}, {"type": "node", "id": 266733526, "lat": 28.418846, "lon": 77.0443495}, {"type": "node", "id": 267807642, "lat": 28.4160643, "lon": 77.0445702}, {"type": "node", "id": 267807643, "lat": 28.4162681, "lon": 77.0445693}, {"type": "node", "id": 427598519, "lat": 28.4172212, "lon": 77.0462906}, {"type": "node", "id": 427598520, "lat": 28.4172304, "lon": 77.046817}, {"type": "node", "id": 427598521, "lat": 28.416719, "lon": 77.0468286}, {"type": "node", "id": 427598523, "lat": 28.4167172, "lon": 77.0467226}, {"type": "node", "id": 427598524, "lat": 28.4171263, "lon": 77.0467134}, {"type": "node", "id": 427598525, "lat": 28.4171189, "lon": 77.0462929}, {"type": "node", "id": 571771316, "lat": 28.4187957, "lon": 77.0455555}, {"type": "node", "id": 571771323, "lat": 28.4177479, "lon": 77.0459346}, {"type": "node", "id": 571771327, "lat": 28.4178209, "lon": 77.0465682}, {"type": "node", "id": 571771328, "lat": 28.4180773, "lon": 77.0465653}, {"type": "node", "id": 571771339, "lat": 28.4189307, "lon": 77.0459015}, {"type": "node", "id": 571771340, "lat": 28.4180855, "lon": 77.0474868}, {"type": "node", "id": 571771341, "lat": 28.4178291, "lon": 77.0474898}, {"type": "node", "id": 5951500871, "lat": 28.4143901, "lon": 77.0454033}, {"type": "node", "id": 5951500874, "lat": 28.4143989, "lon": 77.0460513}, {"type": "node", "id": 5951500879, "lat": 28.4158739, "lon": 77.045925}, {"type": "node", "id": 5951500880, "lat": 28.4158887, "lon": 77.0464026}, {"type": "node", "id": 5951500881, "lat": 28.4154526, "lon": 77.0464202}, {"type": "node", "id": 5951500882, "lat": 28.4154377, "lon": 77.0459426}, {"type": "node", "id": 5952939881, "lat": 28.4132352, "lon": 77.0485219}, {"type": "node", "id": 5952939882, "lat": 28.4131482, "lon": 77.048524}, {"type": "node", "id": 5952940386, "lat": 28.4132113, "lon": 77.047255}, {"type": "node", "id": 267807761, "lat": 28.417546, "lon": 77.0531137}, {"type": "node", "id": 267807762, "lat": 28.4168208, "lon": 77.0531008}, {"type": "node", "id": 267807763, "lat": 28.4168186, "lon": 77.0534344}, {"type": "node", "id": 267807789, "lat": 28.4168004, "lon": 77.0520479}, {"type": "node", "id": 267807790, "lat": 28.4168004, "lon": 77.0525286}, {"type": "node", "id": 267807791, "lat": 28.4169891, "lon": 77.0525371}, {"type": "node", "id": 267807792, "lat": 28.4169816, "lon": 77.0520307}, {"type": "node", "id": 279695818, "lat": 28.4194553, "lon": 77.0551041}, {"type": "node", "id": 279695819, "lat": 28.4191746, "lon": 77.05511}, {"type": "node", "id": 279695820, "lat": 28.4191958, "lon": 77.0560463}, {"type": "node", "id": 279695821, "lat": 28.4194747, "lon": 77.0560404}, {"type": "node", "id": 317145199, "lat": 28.4185436, "lon": 77.0540571}, {"type": "node", "id": 317145200, "lat": 28.4194297, "lon": 77.0540794}, {"type": "node", "id": 317145205, "lat": 28.4194105, "lon": 77.0536353}, {"type": "node", "id": 427598526, "lat": 28.4172571, "lon": 77.0512581}, {"type": "node", "id": 427598527, "lat": 28.4172414, "lon": 77.0508762}, {"type": "node", "id": 427598528, "lat": 28.4173843, "lon": 77.0508685}, {"type": "node", "id": 427598529, "lat": 28.4174001, "lon": 77.0512505}, {"type": "node", "id": 12946386141, "lat": 28.4170884, "lon": 77.0545487}, {"type": "node", "id": 12946386142, "lat": 28.4170907, "lon": 77.0550906}, {"type": "node", "id": 12946386143, "lat": 28.4160221, "lon": 77.0550825}, {"type": "node", "id": 12946386144, "lat": 28.4161188, "lon": 77.054994}, {"type": "node", "id": 12946477108, "lat": 28.4158639, "lon": 77.0550386}, {"type": "node", "id": 12946477109, "lat": 28.4157664, "lon": 77.0547829}, {"type": "node", "id": 12946477110, "lat": 28.4157095, "lon": 77.0548476}, {"type": "node", "id": 12946477111, "lat": 28.415723, "lon": 77.0550571}, {"type": "node", "id": 4231247215, "lat": 28.4113335, "lon": 77.0631043}, {"type": "node", "id": 4231247216, "lat": 28.4113347, "lon": 77.0629232}, {"type": "node", "id": 4231247217, "lat": 28.4115081, "lon": 77.0631083}, {"type": "node", "id": 4231247218, "lat": 28.4115104, "lon": 77.0633806}, {"type": "node", "id": 4231247219, "lat": 28.412401, "lon": 77.0629219}, {"type": "node", "id": 4231247220, "lat": 28.4124128, "lon": 77.0633819}, {"type": "node", "id": 4229454074, "lat": 28.406782, "lon": 77.0696349}, {"type": "node", "id": 4229454075, "lat": 28.4069459, "lon": 77.0696577}, {"type": "node", "id": 4229454076, "lat": 28.4070025, "lon": 77.0696953}, {"type": "node", "id": 4229454077, "lat": 28.4070179, "lon": 77.0697449}, {"type": "node", "id": 4229454078, "lat": 28.4070509, "lon": 77.0698106}, {"type": "node", "id": 4229454079, "lat": 28.4070863, "lon": 77.0698589}, {"type": "node", "id": 4229454080, "lat": 28.4071252, "lon": 77.0698857}, {"type": "node", "id": 4229454081, "lat": 28.4071724, "lon": 77.0699058}, {"type": "node", "id": 4229454082, "lat": 28.4072314, "lon": 77.0699139}, {"type": "node", "id": 4229454083, "lat": 28.407301, "lon": 77.0698978}, {"type": "node", "id": 4229454084, "lat": 28.40736, "lon": 77.0698777}, {"type": "node", "id": 4229454085, "lat": 28.4074213, "lon": 77.0698549}, {"type": "node", "id": 4229454086, "lat": 28.407465, "lon": 77.0698348}, {"type": "node", "id": 4229454087, "lat": 28.4075027, "lon": 77.0698106}, {"type": "node", "id": 4229454088, "lat": 28.4075263, "lon": 77.0697811}, {"type": "node", "id": 4229454089, "lat": 28.4075523, "lon": 77.0697275}, {"type": "node", "id": 4229454090, "lat": 28.4075664, "lon": 77.0697255}, {"type": "node", "id": 4229454091, "lat": 28.4076244, "lon": 77.0696964}, {"type": "node", "id": 4229454092, "lat": 28.4076032, "lon": 77.0697031}, {"type": "node", "id": 4229454093, "lat": 28.4075828, "lon": 77.0697106}, {"type": "node", "id": 4229454094, "lat": 28.4076749, "lon": 77.0696867}, {"type": "node", "id": 4229454095, "lat": 28.4076749, "lon": 77.0702948}, {"type": "node", "id": 4231243220, "lat": 28.4118384, "lon": 77.0655612}, {"type": "node", "id": 4231243221, "lat": 28.4118407, "lon": 77.064601}, {"type": "node", "id": 4231243222, "lat": 28.4119894, "lon": 77.0655558}, {"type": "node", "id": 4231243223, "lat": 28.4119894, "lon": 77.0657704}, {"type": "node", "id": 4231243224, "lat": 28.4123314, "lon": 77.0645983}, {"type": "node", "id": 4231243225, "lat": 28.4123409, "lon": 77.0657597}, {"type": "node", "id": 267807545, "lat": 28.4184038, "lon": 77.0585756}, {"type": "node", "id": 267807546, "lat": 28.4178754, "lon": 77.0585928}, {"type": "node", "id": 267807547, "lat": 28.4178754, "lon": 77.0580263}, {"type": "node", "id": 267807548, "lat": 28.4184114, "lon": 77.0580263}, {"type": "node", "id": 4231243897, "lat": 28.4181135, "lon": 77.0635643}, {"type": "node", "id": 4231243898, "lat": 28.4181502, "lon": 77.0605611}, {"type": "node", "id": 4231243899, "lat": 28.4181546, "lon": 77.06113}, {"type": "node", "id": 4231243900, "lat": 28.4184225, "lon": 77.0635643}, {"type": "node", "id": 4231243902, "lat": 28.4184639, "lon": 77.0605671}, {"type": "node", "id": 4231243903, "lat": 28.4184684, "lon": 77.061128}, {"type": "node", "id": 4231243904, "lat": 28.4190712, "lon": 77.0635589}, {"type": "node", "id": 4231243907, "lat": 28.4195312, "lon": 77.0635562}, {"type": "node", "id": 4231243226, "lat": 28.413452, "lon": 77.0670512}, {"type": "node", "id": 4231243227, "lat": 28.4143508, "lon": 77.0662116}, {"type": "node", "id": 4231243228, "lat": 28.4148509, "lon": 77.0670377}, {"type": "node", "id": 4231243229, "lat": 28.4148698, "lon": 77.066213}, {"type": "node", "id": 4231243231, "lat": 28.4151352, "lon": 77.0661526}, {"type": "node", "id": 4231243232, "lat": 28.4151376, "lon": 77.0658375}, {"type": "node", "id": 4231243233, "lat": 28.415423, "lon": 77.066158}, {"type": "node", "id": 4231243234, "lat": 28.4154242, "lon": 77.0658442}, {"type": "node", "id": 4231243237, "lat": 28.4155339, "lon": 77.0682582}, {"type": "node", "id": 4231243238, "lat": 28.4155374, "lon": 77.0682058}, {"type": "node", "id": 4231243239, "lat": 28.4155374, "lon": 77.0683158}, {"type": "node", "id": 4231243240, "lat": 28.4155422, "lon": 77.0681696}, {"type": "node", "id": 4231243241, "lat": 28.4155469, "lon": 77.0683654}, {"type": "node", "id": 4231243242, "lat": 28.4155516, "lon": 77.0681281}, {"type": "node", "id": 4231243244, "lat": 28.4155693, "lon": 77.0680691}, {"type": "node", "id": 4231243245, "lat": 28.4155693, "lon": 77.0684191}, {"type": "node", "id": 4231243246, "lat": 28.4155905, "lon": 77.0684566}, {"type": "node", "id": 4231243248, "lat": 28.4155941, "lon": 77.0680355}, {"type": "node", "id": 4231243249, "lat": 28.4156153, "lon": 77.0684875}, {"type": "node", "id": 4231243261, "lat": 28.4161932, "lon": 77.0654968}, {"type": "node", "id": 4231243263, "lat": 28.4162487, "lon": 77.0655853}, {"type": "node", "id": 4231243264, "lat": 28.4162965, "lon": 77.0680288}, {"type": "node", "id": 4231243265, "lat": 28.4163183, "lon": 77.0684714}, {"type": "node", "id": 4231243266, "lat": 28.416336, "lon": 77.068061}, {"type": "node", "id": 4231243267, "lat": 28.4163501, "lon": 77.0684392}, {"type": "node", "id": 4231243268, "lat": 28.4163631, "lon": 77.0681026}, {"type": "node", "id": 4231243269, "lat": 28.4163725, "lon": 77.0684124}, {"type": "node", "id": 4231243278, "lat": 28.416389, "lon": 77.0681482}, {"type": "node", "id": 4231243279, "lat": 28.4163926, "lon": 77.0683695}, {"type": "node", "id": 4231243280, "lat": 28.4164008, "lon": 77.0681898}, {"type": "node", "id": 4231243281, "lat": 28.4164032, "lon": 77.0683131}, {"type": "node", "id": 4231243282, "lat": 28.4164044, "lon": 77.0682488}, {"type": "node", "id": 4231243288, "lat": 28.4170095, "lon": 77.0647351}, {"type": "node", "id": 4231243889, "lat": 28.4170779, "lon": 77.0655894}, {"type": "node", "id": 4231243890, "lat": 28.4170826, "lon": 77.0648276}, {"type": "node", "id": 4231243894, "lat": 28.4177478, "lon": 77.0639291}, {"type": "node", "id": 4231243895, "lat": 28.4180569, "lon": 77.0643663}, {"type": "node", "id": 4231243896, "lat": 28.418071, "lon": 77.0646989}, {"type": "node", "id": 4231243901, "lat": 28.4184367, "lon": 77.0646747}, {"type": "node", "id": 4231243905, "lat": 28.4190783, "lon": 77.0641705}, {"type": "node", "id": 4231243906, "lat": 28.4195218, "lon": 77.0641758}, {"type": "node", "id": 266612446, "lat": 28.4219388, "lon": 77.0443174}, {"type": "node", "id": 6108661449, "lat": 28.4259817, "lon": 77.0497058}, {"type": "node", "id": 6108661450, "lat": 28.4259817, "lon": 77.0494409}, {"type": "node", "id": 6108661451, "lat": 28.42596, "lon": 77.0491389}, {"type": "node", "id": 3556146741, "lat": 28.4250119, "lon": 77.056705}, {"type": "node", "id": 3556146757, "lat": 28.4251897, "lon": 77.0567025}, {"type": "node", "id": 3556146771, "lat": 28.4252803, "lon": 77.0570666}, {"type": "node", "id": 3556146773, "lat": 28.4252801, "lon": 77.0567745}, {"type": "node", "id": 3556146775, "lat": 28.4252858, "lon": 77.057}, {"type": "node", "id": 3556146795, "lat": 28.4253963, "lon": 77.0570616}, {"type": "node", "id": 3556146799, "lat": 28.4254442, "lon": 77.0570517}, {"type": "node", "id": 3556146813, "lat": 28.4255401, "lon": 77.0569751}, {"type": "node", "id": 3556146814, "lat": 28.425577, "lon": 77.0570458}, {"type": "node", "id": 3556146817, "lat": 28.425623, "lon": 77.0570255}, {"type": "node", "id": 3556146821, "lat": 28.4256892, "lon": 77.0567609}, {"type": "node", "id": 3556146826, "lat": 28.4257515, "lon": 77.0568661}, {"type": "node", "id": 3556146827, "lat": 28.425761, "lon": 77.0571694}, {"type": "node", "id": 3556146854, "lat": 28.4260634, "lon": 77.0571913}, {"type": "node", "id": 3558196008, "lat": 28.4209699, "lon": 77.0532499}, {"type": "node", "id": 3558196019, "lat": 28.4212733, "lon": 77.0532436}, {"type": "node", "id": 3558196020, "lat": 28.4213426, "lon": 77.0531636}, {"type": "node", "id": 3558196021, "lat": 28.4214359, "lon": 77.0527113}, {"type": "node", "id": 3558196022, "lat": 28.4214587, "lon": 77.0530329}, {"type": "node", "id": 3558196024, "lat": 28.4215875, "lon": 77.0528859}, {"type": "node", "id": 3558196025, "lat": 28.4214508, "lon": 77.0537744}, {"type": "node", "id": 3558196026, "lat": 28.4217091, "lon": 77.0537189}, {"type": "node", "id": 3558196027, "lat": 28.4219178, "lon": 77.0537321}, {"type": "node", "id": 3558196028, "lat": 28.4220039, "lon": 77.0536254}, {"type": "node", "id": 10118686112, "lat": 28.4217806, "lon": 77.0533313}, {"type": "node", "id": 10118686113, "lat": 28.4216835, "lon": 77.0532257}, {"type": "node", "id": 10118686114, "lat": 28.421758, "lon": 77.0533581}, {"type": "node", "id": 10118686115, "lat": 28.4216609, "lon": 77.0532526}, {"type": "node", "id": 10118686116, "lat": 28.4218619, "lon": 77.0537335}, {"type": "node", "id": 10118702517, "lat": 28.4216732, "lon": 77.053767}, {"type": "node", "id": 12845636527, "lat": 28.4222905, "lon": 77.0564479}, {"type": "node", "id": 12845636528, "lat": 28.4222953, "lon": 77.056681}, {"type": "node", "id": 12845636529, "lat": 28.4229037, "lon": 77.0566789}, {"type": "node", "id": 12845636530, "lat": 28.422899, "lon": 77.0564436}, {"type": "node", "id": 6108661447, "lat": 28.4269734, "lon": 77.0491081}, {"type": "node", "id": 6108661448, "lat": 28.4269715, "lon": 77.0492925}, {"type": "node", "id": 6108661452, "lat": 28.4264478, "lon": 77.0491081}, {"type": "node", "id": 6108661453, "lat": 28.4267025, "lon": 77.0491081}, {"type": "node", "id": 574653509, "lat": 28.431389, "lon": 77.0550248}, {"type": "node", "id": 574653513, "lat": 28.4310046, "lon": 77.0555135}, {"type": "node", "id": 574653515, "lat": 28.4300295, "lon": 77.0567807}, {"type": "node", "id": 574653519, "lat": 28.4303921, "lon": 77.0571282}, {"type": "node", "id": 574653524, "lat": 28.4313547, "lon": 77.0558697}, {"type": "node", "id": 574653527, "lat": 28.4317391, "lon": 77.055381}, {"type": "node", "id": 582862858, "lat": 28.4322263, "lon": 77.056601}, {"type": "node", "id": 582862859, "lat": 28.4325181, "lon": 77.0561958}, {"type": "node", "id": 582862862, "lat": 28.43251, "lon": 77.0568651}, {"type": "node", "id": 582862874, "lat": 28.4328013, "lon": 77.0564606}, {"type": "node", "id": 3557531578, "lat": 28.4269133, "lon": 77.0570961}, {"type": "node", "id": 3557531592, "lat": 28.4269695, "lon": 77.0570466}, {"type": "node", "id": 3557531702, "lat": 28.4270157, "lon": 77.0572114}, {"type": "node", "id": 3557531708, "lat": 28.4270384, "lon": 77.0570354}, {"type": "node", "id": 3557531720, "lat": 28.4271028, "lon": 77.057213}, {"type": "node", "id": 3557531723, "lat": 28.4271184, "lon": 77.0570386}, {"type": "node", "id": 3557531743, "lat": 28.4271844, "lon": 77.0570785}, {"type": "node", "id": 11336553981, "lat": 28.4284573, "lon": 77.0557519}, {"type": "node", "id": 11336553982, "lat": 28.4286911, "lon": 77.0559755}, {"type": "node", "id": 11336553983, "lat": 28.4282108, "lon": 77.0566}, {"type": "node", "id": 11336553984, "lat": 28.428859, "lon": 77.0531968}, {"type": "node", "id": 11336553985, "lat": 28.428766, "lon": 77.053712}, {"type": "node", "id": 11336553986, "lat": 28.4289932, "lon": 77.0539674}, {"type": "node", "id": 11336553987, "lat": 28.4292895, "lon": 77.0535806}, {"type": "node", "id": 3556146742, "lat": 28.4250219, "lon": 77.0576017}, {"type": "node", "id": 3556146743, "lat": 28.4250529, "lon": 77.0577948}, {"type": "node", "id": 3556146744, "lat": 28.4250549, "lon": 77.0581087}, {"type": "node", "id": 3556146763, "lat": 28.4251996, "lon": 77.0575991}, {"type": "node", "id": 3556146769, "lat": 28.4252235, "lon": 77.0577934}, {"type": "node", "id": 3556146770, "lat": 28.4252255, "lon": 77.0581073}, {"type": "node", "id": 3556146776, "lat": 28.42531, "lon": 77.057952}, {"type": "node", "id": 3556146798, "lat": 28.4254261, "lon": 77.057947}, {"type": "node", "id": 3556146800, "lat": 28.4254581, "lon": 77.0574582}, {"type": "node", "id": 3556146805, "lat": 28.4254516, "lon": 77.0576699}, {"type": "node", "id": 3556146808, "lat": 28.4254959, "lon": 77.057966}, {"type": "node", "id": 3556146815, "lat": 28.4255909, "lon": 77.0574523}, {"type": "node", "id": 3556146816, "lat": 28.4256264, "lon": 77.0574463}, {"type": "node", "id": 3556146818, "lat": 28.4256481, "lon": 77.0573094}, {"type": "node", "id": 3556146828, "lat": 28.4257779, "lon": 77.0576047}, {"type": "node", "id": 3556146835, "lat": 28.4258219, "lon": 77.0574907}, {"type": "node", "id": 4228109044, "lat": 28.4261215, "lon": 77.062342}, {"type": "node", "id": 4228109045, "lat": 28.4261592, "lon": 77.0614998}, {"type": "node", "id": 11313801743, "lat": 28.4223506, "lon": 77.0607194}, {"type": "node", "id": 11313801744, "lat": 28.4219982, "lon": 77.0610468}, {"type": "node", "id": 11313801745, "lat": 28.4226997, "lon": 77.0617}, {"type": "node", "id": 11313801746, "lat": 28.4229893, "lon": 77.0613048}, {"type": "node", "id": 11718109827, "lat": 28.4236876, "lon": 77.0632094}, {"type": "node", "id": 11718109828, "lat": 28.4229331, "lon": 77.0632221}, {"type": "node", "id": 11718109829, "lat": 28.4233159, "lon": 77.0627185}, {"type": "node", "id": 12017363089, "lat": 28.4236826, "lon": 77.0629642}, {"type": "node", "id": 12017363090, "lat": 28.4233174, "lon": 77.0625695}, {"type": "node", "id": 12017363091, "lat": 28.4236808, "lon": 77.0621171}, {"type": "node", "id": 13302967395, "lat": 28.4224986, "lon": 77.0627981}, {"type": "node", "id": 13302967396, "lat": 28.4225984, "lon": 77.0626674}, {"type": "node", "id": 13302967397, "lat": 28.4227752, "lon": 77.0628574}, {"type": "node", "id": 13302967398, "lat": 28.4226785, "lon": 77.0629768}, {"type": "node", "id": 11091626077, "lat": 28.4262068, "lon": 77.0662438}, {"type": "node", "id": 11091626078, "lat": 28.4256833, "lon": 77.0668829}, {"type": "node", "id": 11091626079, "lat": 28.4257205, "lon": 77.0669312}, {"type": "node", "id": 11387117784, "lat": 28.4260652, "lon": 77.0650792}, {"type": "node", "id": 11387117785, "lat": 28.4259034, "lon": 77.0652841}, {"type": "node", "id": 11387117790, "lat": 28.4261894, "lon": 77.0651946}, {"type": "node", "id": 11387117791, "lat": 28.426174, "lon": 77.0651802}, {"type": "node", "id": 11718101172, "lat": 28.4226668, "lon": 77.0638631}, {"type": "node", "id": 11718101173, "lat": 28.4226531, "lon": 77.0647695}, {"type": "node", "id": 11718101174, "lat": 28.4224718, "lon": 77.0642897}, {"type": "node", "id": 12845636512, "lat": 28.4255249, "lon": 77.0656092}, {"type": "node", "id": 12845636513, "lat": 28.4249429, "lon": 77.0663613}, {"type": "node", "id": 12845636514, "lat": 28.4250938, "lon": 77.0664903}, {"type": "node", "id": 12845636515, "lat": 28.4256645, "lon": 77.0657537}, {"type": "node", "id": 574653500, "lat": 28.4295156, "lon": 77.057474}, {"type": "node", "id": 574653521, "lat": 28.4298782, "lon": 77.0578215}, {"type": "node", "id": 575396966, "lat": 28.4311267, "lon": 77.0589229}, {"type": "node", "id": 575396978, "lat": 28.4313664, "lon": 77.0585678}, {"type": "node", "id": 575396985, "lat": 28.4320104, "lon": 77.059193}, {"type": "node", "id": 575396990, "lat": 28.4317683, "lon": 77.0595131}, {"type": "node", "id": 4228109047, "lat": 28.4265059, "lon": 77.062342}, {"type": "node", "id": 4228109048, "lat": 28.4265508, "lon": 77.061524}, {"type": "node", "id": 11374846876, "lat": 28.4301531, "lon": 77.0626283}, {"type": "node", "id": 11374846877, "lat": 28.4303307, "lon": 77.062753}, {"type": "node", "id": 11374846878, "lat": 28.4302319, "lon": 77.0629158}, {"type": "node", "id": 11374846879, "lat": 28.4299718, "lon": 77.0629169}, {"type": "node", "id": 11374846880, "lat": 28.4299437, "lon": 77.0628416}, {"type": "node", "id": 11718028310, "lat": 28.4265186, "lon": 77.0604735}, {"type": "node", "id": 11718028311, "lat": 28.4266517, "lon": 77.0606517}, {"type": "node", "id": 11718028312, "lat": 28.4265526, "lon": 77.0607744}, {"type": "node", "id": 11718028313, "lat": 28.4262835, "lon": 77.060761}, {"type": "node", "id": 11718262390, "lat": 28.4266317, "lon": 77.0629467}, {"type": "node", "id": 11718262391, "lat": 28.4266361, "lon": 77.0632244}, {"type": "node", "id": 11718262392, "lat": 28.4263275, "lon": 77.0632394}, {"type": "node", "id": 11799198858, "lat": 28.4307813, "lon": 77.0637445}, {"type": "node", "id": 11799198861, "lat": 28.4311667, "lon": 77.0636419}, {"type": "node", "id": 11799198865, "lat": 28.4305353, "lon": 77.062028}, {"type": "node", "id": 11799198866, "lat": 28.4305433, "lon": 77.0624232}, {"type": "node", "id": 11799198867, "lat": 28.4305662, "lon": 77.0624324}, {"type": "node", "id": 11799198868, "lat": 28.43074, "lon": 77.0621965}, {"type": "node", "id": 12369289563, "lat": 28.4301481, "lon": 77.0616771}, {"type": "node", "id": 12369289564, "lat": 28.4304204, "lon": 77.0619286}, {"type": "node", "id": 12369289565, "lat": 28.4299666, "lon": 77.0619596}, {"type": "node", "id": 11091626080, "lat": 28.4263556, "lon": 77.0663994}, {"type": "node", "id": 11092830744, "lat": 28.4275532, "lon": 77.0651716}, {"type": "node", "id": 11092830745, "lat": 28.4272505, "lon": 77.0655581}, {"type": "node", "id": 11092830746, "lat": 28.4273133, "lon": 77.0656328}, {"type": "node", "id": 11092830747, "lat": 28.4276718, "lon": 77.0653015}, {"type": "node", "id": 11387117786, "lat": 28.4266682, "lon": 77.0660138}, {"type": "node", "id": 11387117787, "lat": 28.4268377, "lon": 77.0657967}, {"type": "node", "id": 11394276177, "lat": 28.4301485, "lon": 77.0663217}, {"type": "node", "id": 11394276178, "lat": 28.4301497, "lon": 77.0660349}, {"type": "node", "id": 11394276179, "lat": 28.4300693, "lon": 77.0660321}, {"type": "node", "id": 11394276180, "lat": 28.4300568, "lon": 77.0663252}, {"type": "node", "id": 11394276181, "lat": 28.4310133, "lon": 77.0678357}, {"type": "node", "id": 11394276182, "lat": 28.4305707, "lon": 77.0674266}, {"type": "node", "id": 11394276183, "lat": 28.4305398, "lon": 77.067861}, {"type": "node", "id": 11394276187, "lat": 28.4313911, "lon": 77.0673455}, {"type": "node", "id": 11394276188, "lat": 28.431646, "lon": 77.0674144}, {"type": "node", "id": 11394276189, "lat": 28.4316439, "lon": 77.0675958}, {"type": "node", "id": 11394276190, "lat": 28.4319151, "lon": 77.0680057}, {"type": "node", "id": 11394276191, "lat": 28.431795, "lon": 77.0681831}, {"type": "node", "id": 11394276192, "lat": 28.4319523, "lon": 77.0683031}, {"type": "node", "id": 11394276193, "lat": 28.431846, "lon": 77.0684869}, {"type": "node", "id": 11394276194, "lat": 28.4318707, "lon": 77.0685154}, {"type": "node", "id": 11394276195, "lat": 28.4319048, "lon": 77.0685342}, {"type": "node", "id": 11394276196, "lat": 28.4319394, "lon": 77.0685395}, {"type": "node", "id": 11394276197, "lat": 28.431977, "lon": 77.0685337}, {"type": "node", "id": 11394276198, "lat": 28.4320002, "lon": 77.0685145}, {"type": "node", "id": 11394276199, "lat": 28.4320444, "lon": 77.0684829}, {"type": "node", "id": 11394276200, "lat": 28.4320257, "lon": 77.0681665}, {"type": "node", "id": 11394276201, "lat": 28.432009, "lon": 77.0681238}, {"type": "node", "id": 11394276202, "lat": 28.4319767, "lon": 77.0680765}, {"type": "node", "id": 11394276214, "lat": 28.4322987, "lon": 77.0687331}, {"type": "node", "id": 11394276216, "lat": 28.4321599, "lon": 77.0686171}, {"type": "node", "id": 11394276218, "lat": 28.4327461, "lon": 77.0677799}, {"type": "node", "id": 11394276236, "lat": 28.4305644, "lon": 77.0667304}, {"type": "node", "id": 11394276237, "lat": 28.4304443, "lon": 77.0669302}, {"type": "node", "id": 11394276238, "lat": 28.4304487, "lon": 77.0671367}, {"type": "node", "id": 11394276239, "lat": 28.4306661, "lon": 77.0673747}, {"type": "node", "id": 11394276240, "lat": 28.4307584, "lon": 77.0672465}, {"type": "node", "id": 11394276241, "lat": 28.4305153, "lon": 77.0670276}, {"type": "node", "id": 11394276242, "lat": 28.4306698, "lon": 77.0668195}, {"type": "node", "id": 11799198859, "lat": 28.4307746, "lon": 77.0640172}, {"type": "node", "id": 11799198860, "lat": 28.4310521, "lon": 77.0640249}, {"type": "node", "id": 11799198862, "lat": 28.4310373, "lon": 77.0638242}, {"type": "node", "id": 11799198863, "lat": 28.4311882, "lon": 77.0639866}, {"type": "node", "id": 11799198864, "lat": 28.4314765, "lon": 77.0639712}, {"type": "node", "id": 12044956238, "lat": 28.4276806, "lon": 77.0649014}, {"type": "node", "id": 12044956239, "lat": 28.4275704, "lon": 77.0651079}, {"type": "node", "id": 12044956240, "lat": 28.4272614, "lon": 77.0647458}, {"type": "node", "id": 12155063044, "lat": 28.4321312, "lon": 77.0669741}, {"type": "node", "id": 12155063045, "lat": 28.4321303, "lon": 77.0672122}, {"type": "node", "id": 12155063046, "lat": 28.4323868, "lon": 77.0672101}, {"type": "node", "id": 12155063047, "lat": 28.4323849, "lon": 77.066971}, {"type": "node", "id": 4229454040, "lat": 28.4059402, "lon": 77.0703617}, {"type": "node", "id": 4229454041, "lat": 28.4059567, "lon": 77.0711261}, {"type": "node", "id": 4229454043, "lat": 28.4059962, "lon": 77.0704817}, {"type": "node", "id": 4229454044, "lat": 28.4059962, "lon": 77.0707795}, {"type": "node", "id": 4229454045, "lat": 28.4060057, "lon": 77.0704616}, {"type": "node", "id": 4229454046, "lat": 28.4060069, "lon": 77.0708076}, {"type": "node", "id": 4229454047, "lat": 28.4060187, "lon": 77.0708251}, {"type": "node", "id": 4229454048, "lat": 28.4060269, "lon": 77.0704388}, {"type": "node", "id": 4229454049, "lat": 28.406034, "lon": 77.0708385}, {"type": "node", "id": 4229454050, "lat": 28.4060434, "lon": 77.0704254}, {"type": "node", "id": 4229454051, "lat": 28.4060517, "lon": 77.0708532}, {"type": "node", "id": 4229454053, "lat": 28.4060694, "lon": 77.070416}, {"type": "node", "id": 4229454054, "lat": 28.4060706, "lon": 77.0708573}, {"type": "node", "id": 4229454055, "lat": 28.4061095, "lon": 77.070416}, {"type": "node", "id": 4229454058, "lat": 28.4063961, "lon": 77.0708559}, {"type": "node", "id": 4565345866, "lat": 28.4059462, "lon": 77.0706401}, {"type": "node", "id": 4565345867, "lat": 28.4059962, "lon": 77.0706414}, {"type": "node", "id": 12365076038, "lat": 28.3999647, "lon": 77.0863865}, {"type": "node", "id": 12365076039, "lat": 28.3999666, "lon": 77.0871117}, {"type": "node", "id": 12365076037, "lat": 28.4001553, "lon": 77.08638}, {"type": "node", "id": 12365076040, "lat": 28.4001572, "lon": 77.087116}, {"type": "node", "id": 4229454062, "lat": 28.4066014, "lon": 77.0708559}, {"type": "node", "id": 4229454063, "lat": 28.4066038, "lon": 77.0704227}, {"type": "node", "id": 4229454064, "lat": 28.4066226, "lon": 77.0708492}, {"type": "node", "id": 4229454065, "lat": 28.4066297, "lon": 77.0704388}, {"type": "node", "id": 4229454066, "lat": 28.4066368, "lon": 77.0708385}, {"type": "node", "id": 4229454067, "lat": 28.4066439, "lon": 77.0704643}, {"type": "node", "id": 4229454068, "lat": 28.4066509, "lon": 77.0708251}, {"type": "node", "id": 4229454069, "lat": 28.4066592, "lon": 77.0704817}, {"type": "node", "id": 4229454070, "lat": 28.4066639, "lon": 77.0707982}, {"type": "node", "id": 4229454071, "lat": 28.4066663, "lon": 77.0705059}, {"type": "node", "id": 4229454072, "lat": 28.4067258, "lon": 77.0703537}, {"type": "node", "id": 4229454073, "lat": 28.4067353, "lon": 77.0711047}, {"type": "node", "id": 2776784485, "lat": 28.4195422, "lon": 77.0802192}, {"type": "node", "id": 4229864628, "lat": 28.4167203, "lon": 77.0770305}, {"type": "node", "id": 4229864630, "lat": 28.4168501, "lon": 77.0773484}, {"type": "node", "id": 4229864635, "lat": 28.417257, "lon": 77.0770305}, {"type": "node", "id": 4229864636, "lat": 28.4175684, "lon": 77.0769393}, {"type": "node", "id": 4229864638, "lat": 28.417592, "lon": 77.0770305}, {"type": "node", "id": 2776784439, "lat": 28.4160594, "lon": 77.0844939}, {"type": "node", "id": 2776784441, "lat": 28.4160594, "lon": 77.0846512}, {"type": "node", "id": 2776784442, "lat": 28.4161777, "lon": 77.0850331}, {"type": "node", "id": 2776784443, "lat": 28.4162777, "lon": 77.0844884}, {"type": "node", "id": 2776784445, "lat": 28.4162865, "lon": 77.0850095}, {"type": "node", "id": 12175945995, "lat": 28.4207238, "lon": 77.0739183}, {"type": "node", "id": 12175945996, "lat": 28.4210655, "lon": 77.0739183}, {"type": "node", "id": 12175945997, "lat": 28.4210574, "lon": 77.074111}, {"type": "node", "id": 12369289582, "lat": 28.4243929, "lon": 77.0754065}, {"type": "node", "id": 12369289583, "lat": 28.4246355, "lon": 77.0754054}, {"type": "node", "id": 12369289584, "lat": 28.4246002, "lon": 77.0758253}, {"type": "node", "id": 1801129916, "lat": 28.4238986, "lon": 77.0771847}, {"type": "node", "id": 1801129937, "lat": 28.4235683, "lon": 77.0777963}, {"type": "node", "id": 1801129939, "lat": 28.4235636, "lon": 77.0772008}, {"type": "node", "id": 2776784487, "lat": 28.419896, "lon": 77.0806733}, {"type": "node", "id": 2776784496, "lat": 28.4209015, "lon": 77.0788499}, {"type": "node", "id": 2776784506, "lat": 28.4212553, "lon": 77.079304}, {"type": "node", "id": 2776784513, "lat": 28.4216381, "lon": 77.0779921}, {"type": "node", "id": 2776784525, "lat": 28.4220152, "lon": 77.0770867}, {"type": "node", "id": 2776784526, "lat": 28.4220272, "lon": 77.0785065}, {"type": "node", "id": 2776784527, "lat": 28.4220318, "lon": 77.0779921}, {"type": "node", "id": 2776784540, "lat": 28.4222806, "lon": 77.0774057}, {"type": "node", "id": 2776784545, "lat": 28.422647, "lon": 77.0778532}, {"type": "node", "id": 2776784548, "lat": 28.422651, "lon": 77.0770946}, {"type": "node", "id": 11313857179, "lat": 28.4249207, "lon": 77.077885}, {"type": "node", "id": 11313857180, "lat": 28.4246151, "lon": 77.0784833}, {"type": "node", "id": 11313857181, "lat": 28.4255984, "lon": 77.0789714}, {"type": "node", "id": 11313857182, "lat": 28.4256847, "lon": 77.0787946}, {"type": "node", "id": 11804488798, "lat": 28.4240765, "lon": 77.0815523}, {"type": "node", "id": 11804488799, "lat": 28.4239264, "lon": 77.0818741}, {"type": "node", "id": 11804488800, "lat": 28.4245203, "lon": 77.0818273}, {"type": "node", "id": 11804488801, "lat": 28.4243795, "lon": 77.0821401}, {"type": "node", "id": 11804514244, "lat": 28.4316725, "lon": 77.0752898}, {"type": "node", "id": 11804514245, "lat": 28.4313997, "lon": 77.0756742}, {"type": "node", "id": 11804514246, "lat": 28.4320033, "lon": 77.0760906}, {"type": "node", "id": 11804514247, "lat": 28.4321954, "lon": 77.0757917}, {"type": "node", "id": 11804514248, "lat": 28.4326252, "lon": 77.074066}, {"type": "node", "id": 13186584935, "lat": 28.4282315, "lon": 77.0815338}, {"type": "node", "id": 13186584936, "lat": 28.4281629, "lon": 77.0821539}, {"type": "node", "id": 13186584937, "lat": 28.4289837, "lon": 77.0822713}, {"type": "node", "id": 13186584938, "lat": 28.4290523, "lon": 77.0816513}, {"type": "node", "id": 13236532074, "lat": 28.4223096, "lon": 77.0856388}, {"type": "node", "id": 13236532075, "lat": 28.4220529, "lon": 77.0860344}, {"type": "node", "id": 13236532076, "lat": 28.4225171, "lon": 77.0861891}, {"type": "node", "id": 13236532077, "lat": 28.4226981, "lon": 77.0858796}, {"type": "node", "id": 11804488812, "lat": 28.4281745, "lon": 77.0852939}, {"type": "node", "id": 11804488813, "lat": 28.4287376, "lon": 77.0853634}, {"type": "node", "id": 11804488814, "lat": 28.4287842, "lon": 77.0858555}, {"type": "node", "id": 11804488815, "lat": 28.4281117, "lon": 77.0858226}, {"type": "node", "id": 11804488824, "lat": 28.4278568, "lon": 77.0876475}, {"type": "node", "id": 11804488825, "lat": 28.4284323, "lon": 77.0876547}, {"type": "node", "id": 11804488826, "lat": 28.4284785, "lon": 77.0885255}, {"type": "node", "id": 11804488827, "lat": 28.4279194, "lon": 77.0885163}, {"type": "node", "id": 2008317779, "lat": 28.4328074, "lon": 77.0431907}, {"type": "node", "id": 2008317781, "lat": 28.4332025, "lon": 77.0435888}, {"type": "node", "id": 2008317782, "lat": 28.4334589, "lon": 77.0432479}, {"type": "node", "id": 2008317783, "lat": 28.4338336, "lon": 77.0419745}, {"type": "node", "id": 2008317785, "lat": 28.4341498, "lon": 77.0439198}, {"type": "node", "id": 2008317786, "lat": 28.4343622, "lon": 77.0412922}, {"type": "node", "id": 2008317787, "lat": 28.4347147, "lon": 77.0428573}, {"type": "node", "id": 2008317793, "lat": 28.4352433, "lon": 77.0421749}, {"type": "node", "id": 11655790323, "lat": 28.4390668, "lon": 77.0415919}, {"type": "node", "id": 11655790324, "lat": 28.4393473, "lon": 77.0412126}, {"type": "node", "id": 11655790305, "lat": 28.4401128, "lon": 77.0411646}, {"type": "node", "id": 11655790306, "lat": 28.4398624, "lon": 77.0414957}, {"type": "node", "id": 11655790307, "lat": 28.4395227, "lon": 77.0411636}, {"type": "node", "id": 11655790308, "lat": 28.4397731, "lon": 77.0408324}, {"type": "node", "id": 11655790309, "lat": 28.44063, "lon": 77.0405171}, {"type": "node", "id": 11655790310, "lat": 28.4402142, "lon": 77.0410609}, {"type": "node", "id": 11655790311, "lat": 28.4398066, "lon": 77.0406578}, {"type": "node", "id": 11655790312, "lat": 28.4398504, "lon": 77.0406004}, {"type": "node", "id": 11655790313, "lat": 28.4398113, "lon": 77.0405618}, {"type": "node", "id": 11655790314, "lat": 28.4398404, "lon": 77.0405237}, {"type": "node", "id": 11655790315, "lat": 28.439795, "lon": 77.0404788}, {"type": "node", "id": 11655790316, "lat": 28.4399035, "lon": 77.0403368}, {"type": "node", "id": 11655790317, "lat": 28.4397055, "lon": 77.0401411}, {"type": "node", "id": 11655790318, "lat": 28.4397628, "lon": 77.0400661}, {"type": "node", "id": 11655790319, "lat": 28.4397072, "lon": 77.0400111}, {"type": "node", "id": 11655790320, "lat": 28.4398842, "lon": 77.0397796}, {"type": "node", "id": 11655790321, "lat": 28.4397697, "lon": 77.0416166}, {"type": "node", "id": 11655790322, "lat": 28.4394893, "lon": 77.0419958}, {"type": "node", "id": 2008317784, "lat": 28.4338934, "lon": 77.0442607}, {"type": "node", "id": 11799198870, "lat": 28.4385087, "lon": 77.0550163}, {"type": "node", "id": 11799198871, "lat": 28.4385006, "lon": 77.0555774}, {"type": "node", "id": 11799198872, "lat": 28.4387497, "lon": 77.0552481}, {"type": "node", "id": 2008318013, "lat": 28.440932, "lon": 77.046947}, {"type": "node", "id": 2008318031, "lat": 28.4410466, "lon": 77.0466761}, {"type": "node", "id": 4231825956, "lat": 28.4408958, "lon": 77.0476992}, {"type": "node", "id": 4231825957, "lat": 28.4409289, "lon": 77.0480492}, {"type": "node", "id": 4231825960, "lat": 28.4410043, "lon": 77.0476201}, {"type": "node", "id": 4231825962, "lat": 28.441094, "lon": 77.0477113}, {"type": "node", "id": 4231825966, "lat": 28.4414206, "lon": 77.0475999}, {"type": "node", "id": 4231825968, "lat": 28.4416671, "lon": 77.0477086}, {"type": "node", "id": 4231825969, "lat": 28.4416694, "lon": 77.048068}, {"type": "node", "id": 9916596109, "lat": 28.4416306, "lon": 77.0469645}, {"type": "node", "id": 9916596111, "lat": 28.4411954, "lon": 77.0467948}, {"type": "node", "id": 9916596112, "lat": 28.4407659, "lon": 77.0476022}, {"type": "node", "id": 582865862, "lat": 28.4334471, "lon": 77.0607298}, {"type": "node", "id": 582865865, "lat": 28.4336186, "lon": 77.0605626}, {"type": "node", "id": 582865869, "lat": 28.4340165, "lon": 77.0602295}, {"type": "node", "id": 582865873, "lat": 28.4351986, "lon": 77.0597368}, {"type": "node", "id": 582865882, "lat": 28.4333485, "lon": 77.0609198}, {"type": "node", "id": 582865888, "lat": 28.4341682, "lon": 77.061722}, {"type": "node", "id": 582865890, "lat": 28.4354464, "lon": 77.0600315}, {"type": "node", "id": 582865894, "lat": 28.4365718, "lon": 77.0604757}, {"type": "node", "id": 582865901, "lat": 28.4362883, "lon": 77.0608526}, {"type": "node", "id": 582865918, "lat": 28.4370633, "lon": 77.060948}, {"type": "node", "id": 582865919, "lat": 28.4367951, "lon": 77.0613222}, {"type": "node", "id": 4130178156, "lat": 28.4362818, "lon": 77.062451}, {"type": "node", "id": 4130178158, "lat": 28.4364104, "lon": 77.0625717}, {"type": "node", "id": 4130178159, "lat": 28.4365118, "lon": 77.0626495}, {"type": "node", "id": 4130178160, "lat": 28.4366109, "lon": 77.0619843}, {"type": "node", "id": 4130178161, "lat": 28.4367559, "lon": 77.0620943}, {"type": "node", "id": 4130178163, "lat": 28.4368396, "lon": 77.0621801}, {"type": "node", "id": 4227968360, "lat": 28.4338067, "lon": 77.060359}, {"type": "node", "id": 4228119835, "lat": 28.4351801, "lon": 77.0636925}, {"type": "node", "id": 1668896300, "lat": 28.438546, "lon": 77.0673828}, {"type": "node", "id": 1668896302, "lat": 28.4389221, "lon": 77.0668736}, {"type": "node", "id": 1668896313, "lat": 28.4390959, "lon": 77.0679081}, {"type": "node", "id": 4228054999, "lat": 28.4365099, "lon": 77.0655759}, {"type": "node", "id": 4228055000, "lat": 28.4367175, "lon": 77.0652915}, {"type": "node", "id": 4228055001, "lat": 28.4368225, "lon": 77.0658722}, {"type": "node", "id": 4228055002, "lat": 28.4370288, "lon": 77.0655906}, {"type": "node", "id": 4228119833, "lat": 28.434923, "lon": 77.06406}, {"type": "node", "id": 4228119837, "lat": 28.4353429, "lon": 77.0644516}, {"type": "node", "id": 4228119840, "lat": 28.4355952, "lon": 77.064119}, {"type": "node", "id": 5281524650, "lat": 28.4391709, "lon": 77.0657214}, {"type": "node", "id": 11394276217, "lat": 28.4328287, "lon": 77.0678531}, {"type": "node", "id": 11800254030, "lat": 28.4343588, "lon": 77.0697525}, {"type": "node", "id": 11800254031, "lat": 28.4343666, "lon": 77.0700741}, {"type": "node", "id": 11800254032, "lat": 28.434622, "lon": 77.0697502}, {"type": "node", "id": 11800254044, "lat": 28.4337669, "lon": 77.0680402}, {"type": "node", "id": 11800254045, "lat": 28.4335786, "lon": 77.0680428}, {"type": "node", "id": 11800254046, "lat": 28.4335763, "lon": 77.0677887}, {"type": "node", "id": 11800254047, "lat": 28.4336024, "lon": 77.0677345}, {"type": "node", "id": 11800254048, "lat": 28.4337635, "lon": 77.0674571}, {"type": "node", "id": 3012286782, "lat": 28.4444362, "lon": 77.0633618}, {"type": "node", "id": 3012286784, "lat": 28.444244, "lon": 77.0636286}, {"type": "node", "id": 5281517304, "lat": 28.4421068, "lon": 77.0636644}, {"type": "node", "id": 5281517305, "lat": 28.442127, "lon": 77.0636945}, {"type": "node", "id": 5950623377, "lat": 28.4420432, "lon": 77.0635754}, {"type": "node", "id": 410057599, "lat": 28.4413993, "lon": 77.0683121}, {"type": "node", "id": 410057600, "lat": 28.4415622, "lon": 77.0684741}, {"type": "node", "id": 410057601, "lat": 28.4417862, "lon": 77.0681725}, {"type": "node", "id": 410057602, "lat": 28.4416059, "lon": 77.0663275}, {"type": "node", "id": 410057604, "lat": 28.4412863, "lon": 77.0667343}, {"type": "node", "id": 410057605, "lat": 28.4429921, "lon": 77.0684904}, {"type": "node", "id": 410057607, "lat": 28.4433516, "lon": 77.0680099}, {"type": "node", "id": 1668896317, "lat": 28.439472, "lon": 77.0673989}, {"type": "node", "id": 3012286651, "lat": 28.4444102, "lon": 77.0639787}, {"type": "node", "id": 3012286652, "lat": 28.4443961, "lon": 77.0643569}, {"type": "node", "id": 3012286653, "lat": 28.444244, "lon": 77.064216}, {"type": "node", "id": 3012286783, "lat": 28.4444256, "lon": 77.0638097}, {"type": "node", "id": 4225329897, "lat": 28.4416231, "lon": 77.068017}, {"type": "node", "id": 4225329916, "lat": 28.4432448, "lon": 77.0700963}, {"type": "node", "id": 5281517307, "lat": 28.4421646, "lon": 77.0637856}, {"type": "node", "id": 5281517308, "lat": 28.4421406, "lon": 77.0638517}, {"type": "node", "id": 5281517309, "lat": 28.4421553, "lon": 77.0638931}, {"type": "node", "id": 5281517310, "lat": 28.4421592, "lon": 77.0639402}, {"type": "node", "id": 5281517311, "lat": 28.4421997, "lon": 77.063988}, {"type": "node", "id": 5281517312, "lat": 28.4421857, "lon": 77.0640287}, {"type": "node", "id": 5281517313, "lat": 28.4421601, "lon": 77.0640675}, {"type": "node", "id": 5281517314, "lat": 28.4418825, "lon": 77.0637947}, {"type": "node", "id": 5281517320, "lat": 28.4421573, "lon": 77.063812}, {"type": "node", "id": 5281518622, "lat": 28.4411598, "lon": 77.0648703}, {"type": "node", "id": 5281518623, "lat": 28.4406343, "lon": 77.0655411}, {"type": "node", "id": 5281518625, "lat": 28.4419749, "lon": 77.0656834}, {"type": "node", "id": 5281524640, "lat": 28.4423913, "lon": 77.0703302}, {"type": "node", "id": 5281524647, "lat": 28.439651, "lon": 77.0650886}, {"type": "node", "id": 5281524648, "lat": 28.4399721, "lon": 77.0653962}, {"type": "node", "id": 5281524649, "lat": 28.4394813, "lon": 77.0660371}, {"type": "node", "id": 5281524844, "lat": 28.4410892, "lon": 77.0690759}, {"type": "node", "id": 5281524845, "lat": 28.4414952, "lon": 77.0694679}, {"type": "node", "id": 5281524846, "lat": 28.4412572, "lon": 77.0697867}, {"type": "node", "id": 5281524847, "lat": 28.4408512, "lon": 77.0693946}, {"type": "node", "id": 5905856430, "lat": 28.4425257, "lon": 77.0651324}, {"type": "node", "id": 5905856431, "lat": 28.4423632, "lon": 77.0653665}, {"type": "node", "id": 5905856432, "lat": 28.4426747, "lon": 77.0657147}, {"type": "node", "id": 5905856433, "lat": 28.4428779, "lon": 77.0654281}, {"type": "node", "id": 7866031530, "lat": 28.4458277, "lon": 77.0649917}, {"type": "node", "id": 7866031531, "lat": 28.4454567, "lon": 77.0654879}, {"type": "node", "id": 7866031532, "lat": 28.4451857, "lon": 77.0643402}, {"type": "node", "id": 7866031533, "lat": 28.4452107, "lon": 77.0643621}, {"type": "node", "id": 7866031534, "lat": 28.4453875, "lon": 77.0645413}, {"type": "node", "id": 7866031535, "lat": 28.445476, "lon": 77.0646681}, {"type": "node", "id": 12067837154, "lat": 28.4414866, "lon": 77.066413}, {"type": "node", "id": 12810722273, "lat": 28.4478912, "lon": 77.0564065}, {"type": "node", "id": 12810722274, "lat": 28.4481545, "lon": 77.056682}, {"type": "node", "id": 12810722276, "lat": 28.4473398, "lon": 77.0571239}, {"type": "node", "id": 12810722278, "lat": 28.4478678, "lon": 77.056437}, {"type": "node", "id": 4406070159, "lat": 28.4500021, "lon": 77.0613936}, {"type": "node", "id": 4406070160, "lat": 28.4507252, "lon": 77.0621491}, {"type": "node", "id": 4406070161, "lat": 28.4506159, "lon": 77.0623021}, {"type": "node", "id": 4406070162, "lat": 28.449876, "lon": 77.0615753}, {"type": "node", "id": 4406070163, "lat": 28.4480745, "lon": 77.0603455}, {"type": "node", "id": 4406070164, "lat": 28.4479739, "lon": 77.0604484}, {"type": "node", "id": 4406070165, "lat": 28.4491804, "lon": 77.0616148}, {"type": "node", "id": 4406070166, "lat": 28.4492508, "lon": 77.0615233}, {"type": "node", "id": 12810722275, "lat": 28.4476159, "lon": 77.0573895}, {"type": "node", "id": 12810722280, "lat": 28.4474896, "lon": 77.0572681}, {"type": "node", "id": 2775583663, "lat": 28.4371685, "lon": 77.0755463}, {"type": "node", "id": 2775583667, "lat": 28.43717, "lon": 77.0749394}, {"type": "node", "id": 2775583684, "lat": 28.4373501, "lon": 77.0749414}, {"type": "node", "id": 2775583687, "lat": 28.4373849, "lon": 77.0755425}, {"type": "node", "id": 2775583694, "lat": 28.4374856, "lon": 77.0753411}, {"type": "node", "id": 2775583712, "lat": 28.4379428, "lon": 77.0749353}, {"type": "node", "id": 2775583715, "lat": 28.4379689, "lon": 77.0756386}, {"type": "node", "id": 2775629702, "lat": 28.439055, "lon": 77.075261}, {"type": "node", "id": 4191082978, "lat": 28.4379485, "lon": 77.0752855}, {"type": "node", "id": 11804514249, "lat": 28.4329006, "lon": 77.0743243}, {"type": "node", "id": 11804514250, "lat": 28.4337214, "lon": 77.0732686}, {"type": "node", "id": 11804514251, "lat": 28.4334087, "lon": 77.0730602}, {"type": "node", "id": 11804514252, "lat": 28.437022, "lon": 77.0706217}, {"type": "node", "id": 11804514253, "lat": 28.437023, "lon": 77.0707402}, {"type": "node", "id": 11804514254, "lat": 28.4374038, "lon": 77.0707365}, {"type": "node", "id": 11804514255, "lat": 28.4374049, "lon": 77.0706105}, {"type": "node", "id": 2775629715, "lat": 28.4395203, "lon": 77.07457}, {"type": "node", "id": 2775629719, "lat": 28.4395452, "lon": 77.0752578}, {"type": "node", "id": 2775629723, "lat": 28.4395538, "lon": 77.0745683}, {"type": "node", "id": 2775629726, "lat": 28.4396349, "lon": 77.0744381}, {"type": "node", "id": 2775629730, "lat": 28.439642, "lon": 77.0744615}, {"type": "node", "id": 2775629746, "lat": 28.4396532, "lon": 77.0751012}, {"type": "node", "id": 2775629749, "lat": 28.4396553, "lon": 77.0754411}, {"type": "node", "id": 2775629764, "lat": 28.4400092, "lon": 77.0742608}, {"type": "node", "id": 2775629765, "lat": 28.4400092, "lon": 77.0744648}, {"type": "node", "id": 2775629772, "lat": 28.440271, "lon": 77.0742479}, {"type": "node", "id": 2775629776, "lat": 28.4402767, "lon": 77.0739566}, {"type": "node", "id": 2775629779, "lat": 28.4403422, "lon": 77.0739533}, {"type": "node", "id": 2775629782, "lat": 28.4403479, "lon": 77.0737883}, {"type": "node", "id": 2775629790, "lat": 28.4408273, "lon": 77.0750922}, {"type": "node", "id": 2775629793, "lat": 28.4408293, "lon": 77.0754321}, {"type": "node", "id": 2775629797, "lat": 28.440955, "lon": 77.0750967}, {"type": "node", "id": 2775629800, "lat": 28.440955, "lon": 77.0753945}, {"type": "node", "id": 2775629811, "lat": 28.4413022, "lon": 77.0750967}, {"type": "node", "id": 2775629813, "lat": 28.4413022, "lon": 77.0753945}, {"type": "node", "id": 2775629818, "lat": 28.4414673, "lon": 77.075057}, {"type": "node", "id": 2775629820, "lat": 28.4414673, "lon": 77.0753637}, {"type": "node", "id": 2775629826, "lat": 28.4420349, "lon": 77.0753888}, {"type": "node", "id": 2775629829, "lat": 28.4421929, "lon": 77.0753419}, {"type": "node", "id": 2775629832, "lat": 28.4422945, "lon": 77.0751371}, {"type": "node", "id": 2775629837, "lat": 28.4425119, "lon": 77.0751085}, {"type": "node", "id": 2775629840, "lat": 28.4425672, "lon": 77.0750375}, {"type": "node", "id": 4130434389, "lat": 28.444262, "lon": 77.0730534}, {"type": "node", "id": 4130434392, "lat": 28.4443563, "lon": 77.0729113}, {"type": "node", "id": 4130434402, "lat": 28.4444636, "lon": 77.0729448}, {"type": "node", "id": 4130434410, "lat": 28.4445288, "lon": 77.0733086}, {"type": "node", "id": 4130434416, "lat": 28.444631, "lon": 77.073107}, {"type": "node", "id": 4130434424, "lat": 28.4447174, "lon": 77.073489}, {"type": "node", "id": 4130434433, "lat": 28.4448424, "lon": 77.0733119}, {"type": "node", "id": 4130434498, "lat": 28.445483, "lon": 77.0727215}, {"type": "node", "id": 4130434509, "lat": 28.4455479, "lon": 77.0729274}, {"type": "node", "id": 4130434510, "lat": 28.4455497, "lon": 77.0727778}, {"type": "node", "id": 4225329909, "lat": 28.4429831, "lon": 77.0704504}, {"type": "node", "id": 4225329917, "lat": 28.4432708, "lon": 77.070732}, {"type": "node", "id": 4225329921, "lat": 28.4434115, "lon": 77.0705539}, {"type": "node", "id": 4225329926, "lat": 28.443542, "lon": 77.0703887}, {"type": "node", "id": 4225329974, "lat": 28.4453428, "lon": 77.0728932}, {"type": "node", "id": 4225329976, "lat": 28.4454572, "lon": 77.0730374}, {"type": "node", "id": 5281524641, "lat": 28.4431134, "lon": 77.0710498}, {"type": "node", "id": 5281524642, "lat": 28.4428632, "lon": 77.0714198}, {"type": "node", "id": 5281524643, "lat": 28.4421161, "lon": 77.0707002}, {"type": "node", "id": 5281524644, "lat": 28.4398103, "lon": 77.0711067}, {"type": "node", "id": 5281524645, "lat": 28.4404717, "lon": 77.0717613}, {"type": "node", "id": 5281524646, "lat": 28.4397353, "lon": 77.0717816}, {"type": "node", "id": 5378349920, "lat": 28.4359567, "lon": 77.0884903}, {"type": "node", "id": 5378350221, "lat": 28.4360264, "lon": 77.0889934}, {"type": "node", "id": 5378350222, "lat": 28.4352165, "lon": 77.0891317}, {"type": "node", "id": 5378350223, "lat": 28.435141, "lon": 77.0886406}, {"type": "node", "id": 5378362989, "lat": 28.4352015, "lon": 77.0890435}, {"type": "node", "id": 5562420770, "lat": 28.4352934, "lon": 77.0894965}, {"type": "node", "id": 5562420771, "lat": 28.435304, "lon": 77.089589}, {"type": "node", "id": 5562420772, "lat": 28.4352022, "lon": 77.0896035}, {"type": "node", "id": 5562420773, "lat": 28.4351998, "lon": 77.0895026}, {"type": "node", "id": 5562442413, "lat": 28.4357556, "lon": 77.089345}, {"type": "node", "id": 5562442414, "lat": 28.4357792, "lon": 77.0895676}, {"type": "node", "id": 5562442415, "lat": 28.435666, "lon": 77.0895917}, {"type": "node", "id": 5562442416, "lat": 28.4356518, "lon": 77.089353}, {"type": "node", "id": 11804514260, "lat": 28.4491489, "lon": 77.0827127}, {"type": "node", "id": 11804514261, "lat": 28.4493562, "lon": 77.0833472}, {"type": "node", "id": 11804514262, "lat": 28.4496856, "lon": 77.0829}, {"type": "node", "id": 11804514263, "lat": 28.4497149, "lon": 77.082486}, {"type": "node", "id": 11804514264, "lat": 28.448654, "lon": 77.0812711}, {"type": "node", "id": 11804514265, "lat": 28.4487882, "lon": 77.0817077}, {"type": "node", "id": 11804514266, "lat": 28.4492213, "lon": 77.0815536}, {"type": "node", "id": 11804514267, "lat": 28.4490937, "lon": 77.0813542}, {"type": "node", "id": 11804514268, "lat": 28.4489449, "lon": 77.0812182}, {"type": "node", "id": 11804515669, "lat": 28.4488214, "lon": 77.0811472}]}