{"version": 0.6, "generator": "Overpass API 0.7.62.8 e802775f", "osm3s": {"timestamp_osm_base": "2025-11-22T14:26:00Z", "copyright": "The data included in this document is from www.openstreetmap.org. The data is made available under ODbL."}, "elements": [{"type": "node", "id": 4438214691, "lat": 28.5968453, "lon": 77.0650733, "tags": {"name": "New Ashiana CGHS", "name:en": "New Ashiana Apartments", "name:hi": "\u0928\u0908 \u0906\u0936\u093f\u092f\u093e\u0928\u093e \u0905\u092a\u093e\u0930\u094d\u091f\u092e\u0947\u0902\u091f\u094d\u0938", "tourism": "guest_house"}}, {"type": "node", "id": 4603962390, "lat": 28.554756, "lon": 77.0854199, "tags": {"name": "\u092d\u093e\u0930\u0924\u0940\u092f \u0939\u093e\u0925\u0940", "name:en": "The Indian Elephant", "name:hi": "\u092d\u093e\u0930\u0924\u0940\u092f \u0939\u093e\u0925\u0940", "tourism": "artwork"}}, {"type": "node", "id": 4603966689, "lat": 28.5545719, "lon": 77.0858145, "tags": {"amenity": "cafe", "name": "caf\u00e9ccino", "name:en": "caf\u00e9ccino"}}, {"type": "node", "id": 4603970590, "lat": 28.5561016, "lon": 77.0844719, "tags": {"amenity": "cafe", "brand": "Costa", "brand:wikidata": "Q608845", "check_date": "2023-05-04", "cuisine": "coffee_shop", "name": "Costa", "name:en": "Costa Coffee", "takeaway": "yes"}}, {"type": "node", "id": 4603980789, "lat": 28.5559303, "lon": 77.084758, "tags": {"name": "The Indian Elephant", "name:en": "The Indian Elephant", "name:hi": "\u092d\u093e\u0930\u0924\u0940\u092f \u0939\u093e\u0925\u0940", "tourism": "artwork"}}, {"type": "node", "id": 5158535344, "lat": 28.5960692, "lon": 77.0411256, "tags": {"addr:city": "Dwarka", "addr:housenumber": "sector 12", "addr:postcode": "110075", "addr:street": "Road 205", "amenity": "cafe", "cuisine": "burger", "name": "Modern Bazaar", "name:fa": "\u0645\u062f\u0631\u0646 \u0628\u0627\u0632\u0627\u0631"}}, {"type": "node", "id": 5702455521, "lat": 28.5854447, "lon": 77.0447245, "tags": {"addr:housenumber": "113", "addr:postcode": "110075", "addr:street": "gaur associate", "name": "Gaur Associate (Akshardham Appt)", "name:en": "hindi", "opening_hours": "Th-Tu 10:30-19:30; We 00:00-24:00", "tourism": "apartment"}}, {"type": "node", "id": 5929204674, "lat": 28.5850113, "lon": 77.0727103, "tags": {"addr:city": "New Delhi", "addr:housenumber": "E-522, Palam Extention,", "addr:postcode": "110077", "addr:street": "sector 7, Dwarka", "brand": "Galaxy international", "ele": "4", "email": "galaxyintldwarka@gmail.com", "internet_access": "wlan", "name": "City Hotel", "phone": "+911142412121", "rooms": "0", "smoking": "outside", "stars": "3", "tourism": "hotel"}}, {"type": "node", "id": 6221405085, "lat": 28.5867182, "lon": 77.0425355, "tags": {"addr:housenumber": "336", "addr:postcode": "110075", "addr:street": "Dwarka Sector 19, Akshardham apartments", "email": "admin@bawraybanjaray.com", "internet_access": "wlan", "name": "\u091c\u0949\u092c \u0932\u0947\u0938 \u0935\u093e\u0902\u0921\u0930\u0930\u094d\u0938 \u0928\u0947\u0938\u094d\u091f", "name:en": "Jobless Wanderers nest", "opening_hours": "24/7", "operator": "Bawray Banjaray", "phone": "8076828059", "tourism": "guest_house", "website": "http://Bawraybanjaray.com"}}, {"type": "node", "id": 6497137887, "lat": 28.5867167, "lon": 77.0634493, "tags": {"addr:housenumber": "Dwarka Sec-10", "addr:postcode": "110075", "name": "\u092a\u0902\u091a\u0936\u0940\u0932 \u0906\u092a\u093e\u0930\u094d\u091f\u092e\u0947\u0902\u091f\u094d\u0938", "name:en": "Panchsheel Apartments", "tourism": "apartment"}}, {"type": "node", "id": 6507823985, "lat": 28.5993973, "lon": 77.0473157, "tags": {"addr:housenumber": "Dwarka Sec-4", "addr:postcode": "110075", "name": "Panchsheel Apartments", "tourism": "apartment"}}, {"type": "node", "id": 8615192752, "lat": 28.5534224, "lon": 77.0737637, "tags": {"addr:city": "NEW DELHI", "addr:housenumber": "273/2", "addr:postcode": "110061", "addr:street": "SHAHABAD AIRPORT ROAD,JAIN COLONY SHAHABAD MOHAMMADPUR, DWARKA", "air_conditioning": "yes", "bar": "no", "brand": "THE CUBE STAY", "email": "thecubestay@gmail.com", "internet_access": "wlan", "internet_access:fee": "no", "internet_access:ssid": "thecubestay", "name": "Hotel The Cube Stay", "payment:cash": "yes", "payment:credit_cards": "yes", "payment:electronic_purses": "yes", "payment:mastercard": "yes", "phone": "+91-9999993990", "reservation": "yes", "rooms": "20", "smoking": "isolated", "source": "survey;local knowledge;gps;aerial imagery;streetlevel imagery;maps", "start_date": "2020-01-01", "tourism": "hotel", "wheelchair": "yes"}}, {"type": "node", "id": 10869895050, "lat": 28.5553573, "lon": 77.0826996, "tags": {"access": "passengers", "addr:floor": "3", "amenity": "restaurant", "check_date": "2023-05-04", "cuisine": "indian", "level": "3", "name": "Dilli Streat", "note": "Behind check-in", "payment:credit_cards": "yes", "payment:debit_cards": "yes", "payment:mastercard": "yes", "payment:visa": "yes", "wheelchair": "yes"}}, {"type": "node", "id": 10869895051, "lat": 28.5549147, "lon": 77.0827495, "tags": {"access": "passengers", "addr:floor": "3", "amenity": "cafe", "brand": "The Coffee Bean & Tea Leaf", "brand:wikidata": "Q1141384", "check_date": "2023-05-04", "cuisine": "coffee_shop", "level": "3", "name": "The Coffee Bean & Tea Leaf", "note": "behind check-in", "payment:mastercard": "yes", "payment:visa": "yes", "takeaway": "yes", "wheelchair": "yes"}}, {"type": "node", "id": 11311206781, "lat": 28.5575108, "lon": 77.0833809, "tags": {"amenity": "cafe", "brand": "Chaayos", "brand:wikidata": "Q117235235", "check_date": "2023-11-04", "cuisine": "tea", "name": "Chaayos", "takeaway": "yes"}}, {"type": "node", "id": 11400503409, "lat": 28.5794639, "lon": 77.0558929, "tags": {"addr:city": "New Delhi", "addr:district": "Sector 10", "name": "ITC Welcomhotel", "phone": "+911142229222", "rooms": "392", "tourism": "hotel", "website": "https://www.itchotels.com/in/"}}, {"type": "node", "id": 11664566940, "lat": 28.5590925, "lon": 77.0879478, "tags": {"amenity": "restaurant", "name": "Encalm Lounge", "opening_hours": "24/7"}}, {"type": "node", "id": 11938612765, "lat": 28.584512, "lon": 77.0710581, "tags": {"amenity": "restaurant", "check_date": "2024-05-28", "cuisine": "indian;south_indian", "level": "1", "name": "God's Gift South Indian Restaurant"}}, {"type": "node", "id": 11949214777, "lat": 28.5834689, "lon": 77.0710452, "tags": {"check_date": "2024-06-01", "name": "Krishna Regency Hotel & PG", "tourism": "hotel"}}, {"type": "node", "id": 11963843718, "lat": 28.5852621, "lon": 77.0680801, "tags": {"addr:floor": "1", "amenity": "restaurant", "check_date": "2024-06-08", "name": "Sehat Cafe"}}, {"type": "node", "id": 12223906533, "lat": 28.5866071, "lon": 77.0733299, "tags": {"check_date": "2024-10-05", "name": "Shraddha Residency", "tourism": "hotel"}}, {"type": "node", "id": 12223925628, "lat": 28.5898436, "lon": 77.0718072, "tags": {"amenity": "restaurant", "check_date": "2024-10-05", "cuisine": "indian", "name": "Veer Ji"}}, {"type": "node", "id": 12223938340, "lat": 28.5874126, "lon": 77.0716156, "tags": {"amenity": "restaurant", "check_date": "2024-10-05", "cuisine": "indian", "name": "Burfiwala"}}, {"type": "node", "id": 12368969599, "lat": 28.583869, "lon": 77.0715607, "tags": {"amenity": "cafe", "check_date": "2024-11-24", "name": "Suto Cafe"}}, {"type": "node", "id": 12401406843, "lat": 28.5852029, "lon": 77.071484, "tags": {"amenity": "restaurant", "check_date": "2024-12-07", "level": "0", "name": "Kali Ghata Sweets Chaat Bakery"}}, {"type": "node", "id": 12421805598, "lat": 28.5855038, "lon": 77.0714946, "tags": {"amenity": "cafe", "check_date": "2024-12-14", "cuisine": "coffee_shop", "level": "0", "name": "Nothing Before Coffee"}}, {"type": "node", "id": 12421936664, "lat": 28.5855745, "lon": 77.0711123, "tags": {"amenity": "restaurant", "check_date": "2024-12-14", "level": "0;1", "name": "The Prizm"}}, {"type": "node", "id": 12421941939, "lat": 28.5857049, "lon": 77.0715027, "tags": {"amenity": "cafe", "check_date": "2024-12-14", "level": "0", "name": "Ka\u092b\u0947Mi\u0924\u094d\u0930\u094b\u0902"}}, {"type": "node", "id": 12458062788, "lat": 28.5862248, "lon": 77.071568, "tags": {"amenity": "cafe", "check_date": "2024-12-28", "level": "1;2", "name": "Flying Club Cafe And Bar"}}, {"type": "node", "id": 12512265744, "lat": 28.5902775, "lon": 77.0586011, "tags": {"addr:floor": "1", "air_conditioning": "yes", "amenity": "restaurant", "bar": "no", "check_date": "2025-01-18", "cuisine": "indian", "name": "Kake Da Hotel", "source": "survey", "start_date": "1931", "toilets": "yes"}}, {"type": "node", "id": 12525323965, "lat": 28.5871849, "lon": 77.0712637, "tags": {"addr:floor": "G", "amenity": "restaurant", "check_date": "2025-01-23", "level": "0", "name": "Nazeer Foods"}}, {"type": "node", "id": 12525323969, "lat": 28.5872043, "lon": 77.0712697, "tags": {"addr:floor": "G", "amenity": "restaurant", "check_date": "2025-01-23", "level": "0", "name": "Super Fine Foods"}}, {"type": "node", "id": 12525417462, "lat": 28.586858, "lon": 77.0712031, "tags": {"check_date": "2025-01-23", "name": "Treebo TMS Residency", "tourism": "hotel"}}, {"type": "node", "id": 12579202237, "lat": 28.5917093, "lon": 77.0452474, "tags": {"amenity": "restaurant", "name": "Raju Chur-Chur Naan"}}, {"type": "node", "id": 12579202253, "lat": 28.592471, "lon": 77.0413332, "tags": {"amenity": "restaurant", "brand": "Pizza Hut", "brand:wikidata": "Q191615", "cuisine": "pizza", "level": "0", "name": "Pizza Hut"}}, {"type": "node", "id": 12579202256, "lat": 28.5963346, "lon": 77.0509818, "tags": {"amenity": "restaurant", "cuisine": "south_indian", "level": "0", "name": "Unaav", "opening_hours": "Mo-Fr 08:00-22:30; Sa-Su 08:00-23:00", "outdoor_seating": "no"}}, {"type": "node", "id": 12579202262, "lat": 28.591813, "lon": 77.0452666, "tags": {"air_conditioning": "yes", "amenity": "restaurant", "level": "0", "name": "Rana's Haveli", "outdoor_seating": "yes"}}, {"type": "node", "id": 12620240426, "lat": 28.5852714, "lon": 77.0672265, "tags": {"amenity": "cafe", "check_date": "2025-02-26", "cuisine": "coffee_shop", "name": "Capital Coffee", "outdoor_seating": "no", "phone": "+91 88603 61772"}}, {"type": "node", "id": 12647113758, "lat": 28.5949766, "lon": 77.0415169, "tags": {"name": "Green Lotus La Wisteria Inn", "tourism": "hotel"}}, {"type": "node", "id": 12647113763, "lat": 28.5949565, "lon": 77.0415522, "tags": {"amenity": "cafe", "name": "Aroma Cafe"}}, {"type": "node", "id": 12647123153, "lat": 28.5935801, "lon": 77.0429491, "tags": {"name": "Sai International", "tourism": "hotel"}}, {"type": "node", "id": 12647123168, "lat": 28.5960291, "lon": 77.0406286, "tags": {"name": "Home Stay Dwarka", "tourism": "hotel"}}, {"type": "node", "id": 12647144284, "lat": 28.5905755, "lon": 77.0437252, "tags": {"amenity": "restaurant", "brand": "Punjab Grill", "contact:phone": "+91 989138057", "cuisine": "north_indian", "delivery": "yes", "level": "0", "name": "Punjab Chicken", "takeaway": "yes", "toilets": "yes", "wheelchair": "no"}}, {"type": "node", "id": 12647144983, "lat": 28.5905876, "lon": 77.0437009, "tags": {"amenity": "restaurant", "contact:phone": "+91 98111 45841", "cuisine": "north_indian", "level": "0", "name": "Mehfil Restaurant", "wheelchair": "no"}}, {"type": "node", "id": 12647146204, "lat": 28.5921725, "lon": 77.0416734, "tags": {"amenity": "cafe", "level": "1", "name": "After Hours"}}, {"type": "node", "id": 12647146207, "lat": 28.5923639, "lon": 77.0414092, "tags": {"amenity": "cafe", "name": "Cafe Coffee Bar"}}, {"type": "node", "id": 12647146210, "lat": 28.5922121, "lon": 77.04169, "tags": {"amenity": "cafe", "level": "1", "name": "Cafe After Hours"}}, {"type": "node", "id": 12647146763, "lat": 28.5927401, "lon": 77.0411001, "tags": {"amenity": "cafe", "brand": "Chaayos", "brand:wikidata": "Q117235235", "cuisine": "tea", "level": "0", "name": "Chaayos", "takeaway": "yes"}}, {"type": "node", "id": 12690131042, "lat": 28.5887736, "lon": 77.0717247, "tags": {"addr:floor": "G", "amenity": "restaurant", "check_date": "2025-03-22", "level": "0", "name": "Box8"}}, {"type": "node", "id": 12690139834, "lat": 28.5886062, "lon": 77.071719, "tags": {"addr:floor": "1", "amenity": "restaurant", "check_date": "2025-03-22", "level": "1", "name": "Chefsville"}}, {"type": "node", "id": 12730244151, "lat": 28.586753, "lon": 77.0716001, "tags": {"addr:floor": "G", "amenity": "restaurant", "check_date": "2025-04-05", "level": "0", "name": "Sabki Rasoi"}}, {"type": "node", "id": 13227548264, "lat": 28.5940927, "lon": 77.0473264, "tags": {"amenity": "cafe", "name": "Blue Tokai", "opening_hours": "Mo-Su 08:00-22:00"}}, {"type": "node", "id": 13227568055, "lat": 28.5942937, "lon": 77.0474989, "tags": {"air_conditioning": "yes", "amenity": "cafe", "indoor_seating": "yes", "level": "0", "name": "Cheesecake and Co.", "opening_hours": "Mo-Sa 10:00-22:00"}}, {"type": "node", "id": 13227568246, "lat": 28.5949937, "lon": 77.0481238, "tags": {"amenity": "cafe", "name": "Koby's", "opening_hours": "Mo-Su,PH 07:00-22:30"}}, {"type": "node", "id": 13227576856, "lat": 28.5931504, "lon": 77.0465182, "tags": {"amenity": "restaurant", "level": "0", "name": "Cheffective"}}, {"type": "node", "id": 13227576862, "lat": 28.5933187, "lon": 77.0466435, "tags": {"amenity": "restaurant", "level": "3", "name": "Dwarka Syd"}}, {"type": "node", "id": 13227576863, "lat": 28.5932913, "lon": 77.0466444, "tags": {"amenity": "restaurant", "cuisine": "indian", "level": "0", "name": "Punnu Biriyani"}}, {"type": "node", "id": 13227587534, "lat": 28.5927046, "lon": 77.0461485, "tags": {"amenity": "cafe", "indoor_seating": "yes", "name": "Honey & Dough"}}, {"type": "node", "id": 13227590090, "lat": 28.5961991, "lon": 77.0491527, "tags": {"amenity": "cafe", "name": "UNION Artisan Coffee"}}, {"type": "node", "id": 13227601544, "lat": 28.5953562, "lon": 77.0484467, "tags": {"amenity": "cafe", "name": "D\u014dugh & Cream"}}, {"type": "node", "id": 13227607141, "lat": 28.5959857, "lon": 77.0489952, "tags": {"air_conditioning": "yes", "amenity": "cafe", "cuisine": "tea", "level": "0", "name": "Chaayos"}}, {"type": "node", "id": 13227612581, "lat": 28.5933562, "lon": 77.0466954, "tags": {"amenity": "restaurant", "cuisine": "indian", "name": "The Meat Wala", "outdoor_seating": "yes"}}, {"type": "node", "id": 13227846464, "lat": 28.595757, "lon": 77.0518276, "tags": {"air_conditioning": "yes", "amenity": "restaurant", "cuisine": "indian", "delivery": "yes", "diet:vegetarian": "only", "handwashing:soap": "yes", "image:menu": "c4c88678-c460-4eba-887a-0ee21f3f9429", "image:menu:0": "6ee0330f-f281-49b3-8d3b-3e4f4eaf0008", "image:menu:1": "312c736e-5bcf-487d-b944-1f18474cc971", "indoor_seating": "yes", "internet_access": "no", "level": "3", "name": "Mint Family Restaurant", "outdoor_seating": "no", "panoramax": "ecbb4fcd-82a2-46a8-a9ef-b9ef187846fe", "panoramax:0": "0b81f7ca-354c-4cba-b9f6-4190a1773b6d", "payment:cash": "yes", "payment:upi": "yes", "phone": "+91 11 4560 5355", "service:electricity": "ask", "toilets": "yes", "toilets:access": "customers", "toilets:disposal": "flush", "toilets:fee": "no", "toilets:gender_segregated": "yes", "toilets:hands_drying": "towel_cabinet", "toilets:handwashing": "yes", "toilets:panoramax": "79be9b70-f163-4a69-a35a-63d47fee152d", "toilets:panoramax:0": "98258dec-56af-48ea-9ac4-475834b788c2", "toilets:position": "seated;urinal", "toilets:wheelchair": "no", "wheelchair": "limited"}}, {"type": "way", "id": 150882095, "nodes": [1637471074, 8815664794, 1637471075, 1637471076, 1637471071, 2000516934, 2000516928, 2000516935, 1637471072, 1637471074], "tags": {"barrier": "wall", "leisure": "park"}}, {"type": "way", "id": 154162075, "nodes": [1667424200, 1667424197, 1667424189, 1667424191, 1667424200], "tags": {"amenity": "marketplace", "barrier": "wall", "name": "Sector 9 Market"}}, {"type": "way", "id": 154186641, "nodes": [1667584253, 1667584218, 1667584215, 1667584212, 1667584205, 1667584195, 1667584241, 1667584253], "tags": {"addr:city": "New Delhi", "addr:housenumber": "Plot No 3", "addr:place": "Sector 10 District Centre", "addr:postcode": "110075", "addr:quarter": "Dwarka", "area": "yes", "brand": "ITC Hotels", "contact:phone": "+9111 4222 9222", "name": "WelcomHotel Dwarka", "note": "formerly THE EMPORIO Hotel formerly lebua New Delhi Hotel", "source": "bing", "stars": "5", "tourism": "hotel", "website": "https://www.itchotels.in/hotels/new-delhi/welcomhoteldwarka.html"}}, {"type": "way", "id": 189430943, "nodes": [2000516379, 2000516384, 12538870755, 12538870800, 2000516387, 12538870720, 12538870813, 2000516399, 12538870735, 12538870804, 12538862393, 2000516427, 2000516417, 2000516402, 2000516391, 2000516379], "tags": {"leisure": "park", "name": "Kargil Colony Park", "operator": "Delhi Development Authority"}}, {"type": "way", "id": 189447678, "nodes": [2000646091, 2000646102, 2000645942, 2207623666, 2207623661, 2207623665, 2207623663, 2207623664, 2000645741, 2000645862, 2000645903, 2000645937, 2000646091], "tags": {"barrier": "wall", "is_in": "Dwarka", "leisure": "park", "name": "Bharat Vandana park", "operator": "DDA", "website": "https://dda.gov.in/land-/bharatvandana"}}, {"type": "way", "id": 189447988, "nodes": [2000646470, 2000646391, 2000646317, 2000646316, 2000646324, 2131765820, 2000646326, 2000646330, 2197111654, 2000646335, 2000646470], "tags": {"barrier": "wall", "leisure": "park"}}, {"type": "way", "id": 189447990, "nodes": [2000646442, 2000646458, 2000646487, 2000646515, 2837797656, 2000646541, 2000646544, 2000646524, 2000646554, 2000646563, 2000646591, 2000646589, 2000646577, 2837862367, 2837862364, 2000646556, 11006923522, 2000646522, 2837837226, 2837837224, 2837837222, 2837797646, 2837797643, 2837797649, 2000646473, 2000646509, 2000646442], "tags": {"barrier": "wall", "leisure": "park"}}, {"type": "way", "id": 189447991, "nodes": [2000646245, 2000646156, 2000646127, 2000646216, 2000646245], "tags": {"barrier": "wall", "leisure": "park"}}, {"type": "way", "id": 189448076, "nodes": [2000646241, 2000646267, 2000646247, 2000646211, 2000646241], "tags": {"barrier": "wall", "leisure": "park"}}, {"type": "way", "id": 189448081, "nodes": [2000646580, 2000646562, 2000646553, 2837862362, 2837862365, 9910924155, 2000646573, 2000646580], "tags": {"barrier": "wall", "leisure": "park"}}, {"type": "way", "id": 189448083, "nodes": [2000646417, 2000646406, 2837837214, 2837837216, 2837837218, 2837837220, 2837837223, 2000646498, 2000646507, 2000646417], "tags": {"barrier": "wall", "leisure": "park", "name": "Public Park"}}, {"type": "way", "id": 189448085, "nodes": [2000646325, 2000646281, 2000646195, 2000646233, 2000646291, 2000646310, 2000646325], "tags": {"barrier": "wall", "leisure": "park", "name": "Park no 3, Sector 9 Dwarka"}}, {"type": "way", "id": 189448086, "nodes": [2000646327, 2000646382, 2000646408, 2000646380, 2000646374, 2000646350, 2000646327], "tags": {"barrier": "wall", "leisure": "park"}}, {"type": "way", "id": 189448088, "nodes": [2000646516, 2000646452, 2000646383, 2000646446, 2000646499, 2000646526, 2000646540, 2000646481, 2000646516], "tags": {"barrier": "wall", "leisure": "park"}}, {"type": "way", "id": 189450657, "nodes": [2000663511, 2000663519, 2000663516, 2000663508, 2000663511], "tags": {"barrier": "wall", "leisure": "park"}}, {"type": "way", "id": 189450658, "nodes": [2000663522, 2000663525, 2000663543, 2000663538, 2000663522], "tags": {"barrier": "wall", "leisure": "park"}}, {"type": "way", "id": 189450659, "nodes": [2000663500, 2000663515, 2841444323, 2841444347, 2841444358, 2841444361, 2841444348, 2000663509, 2000663498, 2000663500], "tags": {"barrier": "wall", "leisure": "park"}}, {"type": "way", "id": 189450660, "nodes": [2000663563, 2000663557, 2000663555, 2000663561, 2841444424, 2841444419, 2000663552, 2841444420, 2000663558, 2000663563], "tags": {"barrier": "wall", "leisure": "park"}}, {"type": "way", "id": 202947323, "nodes": [2128976179, 2128976317, 2128976274, 1637471118, 1637471117, 2128976237, 2128976365, 2128976357, 2128976363, 2128976353, 2128976189, 2128976179], "tags": {"barrier": "wall", "leisure": "park"}}, {"type": "way", "id": 202947328, "nodes": [2128976351, 2128976332, 2128976215, 2128976293, 2128976368, 2128976351], "tags": {"barrier": "wall", "leisure": "park"}}, {"type": "way", "id": 202947335, "nodes": [2128976267, 2128976255, 2128976319, 2128976349, 2128976267], "tags": {"barrier": "wall", "leisure": "park"}}, {"type": "way", "id": 202947336, "nodes": [2128976345, 2128976252, 2128976340, 2128976345], "tags": {"leisure": "park"}}, {"type": "way", "id": 203247170, "nodes": [9295863349, 2132403580, 2132403577, 2132403587, 2132403596, 2132403610, 2132403604, 2132403609, 2132403592, 2132403607, 8566010460, 8566010463, 9295863350, 9295863349], "tags": {"leisure": "park"}}, {"type": "way", "id": 203590038, "nodes": [2136003548, 2136003558, 2136003568, 2136003548], "tags": {"addr:city": "Delhi", "barrier": "wall", "leisure": "park", "name": "S.D.M.C. Park", "opening_hours": "24/7", "operator": "South Delhi Municipal Corporation", "operator:short": "SDMC", "operator:type": "government", "operator:wikidata": "Q17083576"}}, {"type": "way", "id": 203590039, "nodes": [2136003528, 2136003521, 2136003520, 2136003526, 2136003528], "tags": {"addr:city": "Delhi", "barrier": "wall", "leisure": "park", "name": "Sector - 23 Narrow Park", "opening_hours": "24/7"}}, {"type": "way", "id": 203590040, "nodes": [2136003529, 2136003519, 2136003515, 2136003512, 2136003533, 2136003546, 2136003522, 2136003530, 2136003529], "tags": {"addr:city": "Delhi", "addr:postcode": "110075", "barrier": "wall", "leisure": "park", "name": "D.D.A. Park - 4, Sector - 23", "opening_hours": "24/7", "operator": "Delhi Development Authority (D.D.A.)"}}, {"type": "way", "id": 209296153, "nodes": [2195208394, 2195208471, 2195208494, 2195208465, 2195208394], "tags": {"barrier": "wall", "leisure": "park"}}, {"type": "way", "id": 209296520, "nodes": [2195213005, 2195212936, 2195212998, 2195212993, 2195213005], "tags": {"barrier": "wall", "leisure": "park"}}, {"type": "way", "id": 209296527, "nodes": [2195213003, 2195212948, 2195212959, 2195213014, 2195213003], "tags": {"leisure": "park"}}, {"type": "way", "id": 209296533, "nodes": [2195212954, 2195212956, 2195212961, 2195212947, 2195212954], "tags": {"barrier": "wall", "leisure": "park", "name": "Public Park"}}, {"type": "way", "id": 209297513, "nodes": [2195222169, 2195222165, 2195222168, 2195222170, 2195222177, 728300509, 2000516504, 2195222172, 2195222169], "tags": {"barrier": "wall", "leisure": "park"}}, {"type": "way", "id": 209297515, "nodes": [2195222162, 2195222159, 12538994813, 2195215719, 2195222166, 2195222164, 13227591557, 12538994811, 12538993100, 2195222171, 2195222162], "tags": {"leisure": "park", "operator": "South Delhi Municipal Corporation"}}, {"type": "way", "id": 209297842, "nodes": [2195225191, 2195225200, 2195225169, 2195225185, 2195225191], "tags": {"leisure": "park"}}, {"type": "way", "id": 209297847, "nodes": [2195225166, 2195225192, 2195225167, 2195225153, 2195225193, 2195225202, 7306012358, 2195225144, 2195225149, 2195225196, 2195225182, 2195225198, 2195225197, 2195225166], "tags": {"addr:city": "Sector 5 Dwarka, New Delhi", "addr:postcode": "110075", "barrier": "wall", "leisure": "park", "name": "DDA Park", "operator": "DDA"}}, {"type": "way", "id": 209302336, "nodes": [2195295666, 2195295691, 7306012356, 2195295728, 2195295706, 2195295669, 2195295679, 2195295686, 2195295703, 2195295689, 7306012354, 2195295666], "tags": {"barrier": "wall", "leisure": "park"}}, {"type": "way", "id": 209302783, "nodes": [2195299940, 2195299946, 2195299939, 2195299942, 2195299948, 4107285245, 2195299940], "tags": {"addr:city": "Sector 6 Dwarka, New Delhi", "addr:postcode": "110075", "barrier": "wall", "leisure": "park", "name": "Herbal Park", "operator": "Delhi Development Authority"}}, {"type": "way", "id": 209304273, "nodes": [2195315044, 2195299943, 2195299944, 2195315106, 2195315044], "tags": {"leisure": "park", "name": "Public Park"}}, {"type": "way", "id": 209304277, "nodes": [2195315119, 2195315104, 2195315072, 2195315074, 2837925224, 7305985632, 2195315102, 2195315037, 2195315092, 2195315099, 2195315061, 2195315123, 2195315119], "tags": {"addr:city": "Sector 6 Dwarka, New Delhi", "addr:postcode": "110075", "barrier": "wall", "leisure": "park", "name": "Shaheed Major Sanjay Lohchub Park", "operator": "South Delhi Municipal Corporation", "operator:short": "SDMC", "operator:type": "government", "operator:wikidata": "Q17083576"}}, {"type": "way", "id": 209304824, "nodes": [2195322438, 2195322450, 2195322411, 2195322434, 2195322432, 2195322438], "tags": {"barrier": "wall", "leisure": "park"}}, {"type": "way", "id": 209501803, "nodes": [2197111664, 2197111671, 2197111655, 2197111656, 1667420935, 2000646636, 2197111668, 2197111657, 2197111647, 2197111670, 2197111664], "tags": {"barrier": "wall", "leisure": "park"}}, {"type": "way", "id": 209501805, "nodes": [2197111659, 2197111648, 2197111658, 2197111653, 2197111659], "tags": {"barrier": "wall", "leisure": "park"}}, {"type": "way", "id": 209501806, "nodes": [2197111667, 2197111650, 2197111661, 2197111663, 2197111646, 2197111649, 2197111669, 2197111665, 2197111667], "tags": {"barrier": "wall", "leisure": "park"}}, {"type": "way", "id": 209501807, "nodes": [2197111672, 2197111673, 2197111652, 2197111651, 2197111672], "tags": {"barrier": "wall", "leisure": "park"}}, {"type": "way", "id": 209508174, "nodes": [2197183041, 2197183043, 2197183025, 2197183023, 2197183021, 2197183041], "tags": {"barrier": "wall", "leisure": "park"}}, {"type": "way", "id": 209564908, "nodes": [2197682545, 2197682554, 2197682529, 2197682556, 2197682524, 2197682550, 2197682532, 2197682523, 2197682514, 2197682537, 2197682535, 2197682518, 2197682545], "tags": {"barrier": "wall", "leisure": "park"}}, {"type": "way", "id": 210588821, "nodes": [2206677234, 2206677261, 2206677237, 2206677311, 2206677266, 2206677259, 2206677303, 2353499082, 2353499084, 2206677275, 2206677241, 2206677281, 2206677284, 2206677269, 2206677272, 2206677314, 2206677263, 2206677298, 2206677319, 2206677317, 2206677230, 2206677234], "tags": {"barrier": "wall", "leisure": "park"}}, {"type": "way", "id": 210682551, "nodes": [2207623659, 12951373857, 2207623658, 2207623662, 2207623660, 2207623659], "tags": {"addr:city": "New Delhi", "addr:street": "Sector 19", "barrier": "wall", "leisure": "park", "name": "District Park"}}, {"type": "way", "id": 226566300, "nodes": [2353499000, 2353499019, 2353499014, 2353499027, 2353499026, 2353499021, 2353499017, 2353499020, 2353499016, 2353499008, 2353499005, 2353499002, 2353498992, 2353498982, 2353498972, 2353498984, 2353498987, 2353498989, 2353498988, 2353498994, 2353498997, 2353498999, 2353498996, 2353499000], "tags": {"barrier": "wall", "leisure": "park", "name": "SPG COMPLEX"}}, {"type": "way", "id": 226566301, "nodes": [2353498971, 2353498966, 2353498959, 2353498964, 2353498971], "tags": {"barrier": "wall", "leisure": "park"}}, {"type": "way", "id": 226566302, "nodes": [2353499053, 2353499062, 2353499056, 2353499046, 2353499053], "tags": {"barrier": "wall", "leisure": "park"}}, {"type": "way", "id": 226566303, "nodes": [2353498985, 2353498974, 2353498968, 2353498973, 2353498985], "tags": {"barrier": "wall", "leisure": "park"}}, {"type": "way", "id": 226566304, "nodes": [2353498998, 2353498990, 2353498976, 2353498983, 2353498998], "tags": {"barrier": "wall", "leisure": "park"}}, {"type": "way", "id": 226566305, "nodes": [2353498981, 2353499011, 2353499007, 2353498979, 2353498981], "tags": {"barrier": "wall", "leisure": "park"}}, {"type": "way", "id": 232499607, "nodes": [2408450664, 2408450667, 2408450663, 2408450665, 2408450666, 2408450664], "tags": {"barrier": "wall", "leisure": "park", "name": "Central park"}}, {"type": "way", "id": 279548725, "nodes": [2837721572, 2837721571, 2837721569, 2837721573, 2837721580, 2837721583, 2837721585, 2837721572], "tags": {"leisure": "park", "name": "Park Sector 7"}}, {"type": "way", "id": 279548728, "nodes": [2837721582, 2837721584, 1667356209, 2837721587, 2837721590, 2837721602, 2837721608, 2837721599, 1478739453, 2837721613, 2837721609, 2837721607, 2837721604, 2837721605, 2837721586, 2837721582], "tags": {"barrier": "wall", "leisure": "park", "name": "Chaudhary Ramkaran Solanki(Pradhan Palam 360) Memorial Park"}}, {"type": "way", "id": 279548729, "nodes": [2837721575, 2837721574, 2837721588, 1667356214, 1667356196, 2837721575], "tags": {"barrier": "wall", "leisure": "park"}}, {"type": "way", "id": 279554565, "nodes": [2837777430, 2000646388, 2000646362, 2837777427, 2837777430], "tags": {"barrier": "wall", "leisure": "park", "name": "Park"}}, {"type": "way", "id": 279560616, "nodes": [2837837235, 2837837237, 2837837242, 2837837240, 2837837235], "tags": {"barrier": "wall", "leisure": "park", "name": "Public Park"}}, {"type": "way", "id": 279569849, "nodes": [2837925217, 1479946509, 1479946530, 1479946576, 1479946586, 2837925227, 2837925217], "tags": {"barrier": "wall", "leisure": "park", "name": "Public Park"}}, {"type": "way", "id": 279569851, "nodes": [2837924796, 2837925204, 2837925209, 1478739235, 1478739232, 1478739231, 2837924800, 2837924796], "tags": {"barrier": "wall", "leisure": "park", "name": "Park"}}, {"type": "way", "id": 279573045, "nodes": [2837957913, 2837957915, 2837957914, 2837945702, 2837935084, 2837935088, 2837935090, 2837957910, 2837957909, 2837957911, 2837957912, 2837957913], "tags": {"addr:city": "Sector 2 Dwarka, New Delhi", "addr:postcode": "110075", "barrier": "wall", "leisure": "park", "name": "Plaza-Park", "operator": "Delhi Development Authority"}}, {"type": "way", "id": 279573046, "nodes": [2837925232, 2837925226, 2837925216, 2837925221, 2837925231, 2837925244, 2837957799, 2837957901, 7305972569, 2837957903, 2837957906, 2837957907, 2837957905, 2837957908, 2837925268, 2837925255, 2837925248, 2837957800, 2837957902, 2837957904, 4107279283, 2837925232], "tags": {"addr:city": "Sector 6 Dwarka, New Delhi", "addr:postcode": "110075", "barrier": "wall", "leisure": "park", "name": "DDA Park", "operator": "Delhi Development Authority"}}, {"type": "way", "id": 279962763, "nodes": [2841444445, 2841444451, 2841444435, 2841444428, 2841444445], "tags": {"leisure": "park"}}, {"type": "way", "id": 279962772, "nodes": [2841444390, 2000663558, 2841444420, 4778391813, 2841444396, 10892368785, 10892368786, 10892368784, 2841444371, 2841444390], "tags": {"barrier": "wall", "leisure": "park"}}, {"type": "way", "id": 279962773, "nodes": [2841444485, 2841444488, 2841444484, 2841444502, 2841444504, 2841444498, 2841444485], "tags": {"barrier": "wall", "leisure": "park"}}, {"type": "way", "id": 279964396, "nodes": [11979825944, 2837935071, 2837935080, 11979825934, 11979825944], "tags": {"barrier": "wall", "leisure": "park", "material": "brick", "name": "Park", "wall": "brick"}}, {"type": "way", "id": 279990645, "nodes": [2837935060, 2841690765, 2841690763, 2841690764, 2841690768, 2841690770, 2841690772, 2841690774, 2841690777, 2841690779, 2837935068, 2837935069, 2837935063, 2837935064, 2837935059, 2837935061, 2837935058, 2837935066, 2837935060], "tags": {"barrier": "wall", "leisure": "park", "name": "Park"}}, {"type": "way", "id": 343506898, "nodes": [3503423202, 3503423203, 3503423204, 3503423206, 3503423205, 3503423202], "tags": {"barrier": "wall", "leisure": "park"}}, {"type": "way", "id": 350070312, "nodes": [3558204679, 3558204488, 3558204284, 3558204477, 3558204679], "tags": {"building": "hotel", "name": "Vivanta by TAJ", "tourism": "hotel"}}, {"type": "way", "id": 355015144, "nodes": [3606547332, 3606547331, 3606547329, 3606547330, 3606547332], "tags": {"air_conditioning": "no", "amenity": "restaurant", "bar": "no", "building": "yes", "cuisine": "indian", "microbrewery": "no", "name": "Skygreen Rooftop Cafe", "outdoor_seating": "yes", "toilets": "yes"}}, {"type": "way", "id": 408832988, "nodes": [4107394738, 4107394720, 4107394696, 4107394386, 4107394351, 4107394318, 4107394343, 4107394331, 4107394365, 4107394376, 4107394383, 4107394382, 4107394380, 4107394375, 4107394362, 4107394738], "tags": {"leisure": "park"}}, {"type": "way", "id": 408832991, "nodes": [4107394636, 4107394598, 4107394597, 4107394623, 4107394636], "tags": {"leisure": "park"}}, {"type": "way", "id": 408832992, "nodes": [4107393741, 4107394744, 4107393732, 4107394662, 4107393741], "tags": {"leisure": "park"}}, {"type": "way", "id": 408832993, "nodes": [4107393737, 4107394725, 4107393720, 4107393729, 4107393738, 4107394658, 4107393737], "tags": {"leisure": "park"}}, {"type": "way", "id": 408838130, "nodes": [4107456920, 4107456918, 4107456917, 2837721512, 2837721518, 2837721517, 2837721520, 4107456919, 4107456922, 4107456921, 5331016222, 4107456925, 2837721532, 4107456924, 4107456920], "tags": {"landuse": "grass", "leisure": "park"}}, {"type": "way", "id": 408838131, "nodes": [4107456935, 4107456932, 4107456930, 4107456929, 4107456931, 4107456934, 4107456938, 4107456935], "tags": {"leisure": "park", "name": "Park"}}, {"type": "way", "id": 410975152, "nodes": [4127209789, 4127209790, 4127209791, 4127209792, 4127209793, 4127209794, 4127209795, 4127209796, 4127209797, 4127209798, 4127209799, 4127209800, 4127209801, 4127209789], "tags": {"leisure": "park"}}, {"type": "way", "id": 410975153, "nodes": [4127209802, 4127209803, 4127209804, 4127209805, 4127209806, 4127209802], "tags": {"leisure": "park"}}, {"type": "way", "id": 414771600, "nodes": [2837925300, 4159055233, 2837925304, 2837925300], "tags": {"leisure": "park"}}, {"type": "way", "id": 414771601, "nodes": [2837925298, 4159055234, 2837925303, 2837925298], "tags": {"leisure": "park"}}, {"type": "way", "id": 414771607, "nodes": [2837925281, 4159055265, 4159055266, 4159055267, 4159055268, 9914224332, 4159055269, 9914224346, 9724549189, 9724549190, 3589084354, 4159055272, 2837925273, 2837925281], "tags": {"addr:city": "Sector 6 Dwarka, New Delhi", "addr:postcode": "110075", "leisure": "park", "name": "Park 3", "operator": "Delhi Development Authority"}}, {"type": "way", "id": 469749399, "nodes": [4640453355, 4640453356, 4640453357, 4640453358, 4640453359, 4640453360, 4640453361, 4640453362, 4640453363, 4640453364, 4640453365, 4640453355], "tags": {"leisure": "park", "name": "Sector 11 Park"}}, {"type": "way", "id": 469754269, "nodes": [4640466646, 4640466647, 4640466648, 4640466649, 4640466650, 4640466651, 4640466652, 4640466653, 4640466654, 4640466646], "tags": {"leisure": "park", "name": "Park And Open Gym"}}, {"type": "way", "id": 494442282, "nodes": [11224611698, 5332647364, 5332647365, 5284592039, 4862004830, 4862004831, 4862004832, 4862004833, 5284592038, 11224611698], "tags": {"layer": "2", "leisure": "park", "name": "Goldcroft Society Park", "natural": "grassland"}}, {"type": "way", "id": 662185756, "nodes": [6199388680, 6199388679, 6199388678, 6199388677, 6199388676, 6199388675, 6199388680], "tags": {"leisure": "park"}}, {"type": "way", "id": 662185757, "nodes": [6199388684, 6199388683, 6199388682, 6199388681, 6199388684], "tags": {"leisure": "park"}}, {"type": "way", "id": 662185758, "nodes": [6199393091, 6199393090, 6199393089, 6199393088, 6199393087, 6199393086, 6199393085, 6199393091], "tags": {"leisure": "park"}}, {"type": "way", "id": 662185759, "nodes": [6199393098, 6199393097, 6199393096, 6199393095, 6199393094, 6199393093, 6199393092, 6199393098], "tags": {"leisure": "park"}}, {"type": "way", "id": 662185760, "nodes": [6199393109, 6199393108, 6199393107, 6199393106, 6199393105, 6199393104, 6199393103, 6199393102, 6199393101, 6199393100, 6199393099, 6199393109], "tags": {"leisure": "park", "name": "Shahid Bhagat Singh Park", "name:etymology:wikidata": "Q377808"}}, {"type": "way", "id": 662185761, "nodes": [6199393113, 6199393112, 6199393111, 6199393110, 6199393113], "tags": {"leisure": "park", "name": "Shahid Bhagat Singh Park", "name:etymology:wikidata": "Q377808"}}, {"type": "way", "id": 729191976, "nodes": [6831705229, 6831705230, 6831705231, 6831705232, 6831705229], "tags": {"addr:city": "New Delhi", "addr:postcode": "110045", "addr:street": "L Block", "leisure": "park", "name": "L Block Ground"}}, {"type": "way", "id": 729191979, "nodes": [6831705239, 6831705240, 6831705241, 6831705242, 6831705243, 6831705244, 6831705245, 6831705246, 6831705239], "tags": {"leisure": "park"}}, {"type": "way", "id": 729191982, "nodes": [2837721582, 6831705257, 6831705258, 2837721584, 2837721582], "tags": {"leisure": "park"}}, {"type": "way", "id": 729191983, "nodes": [4107456917, 6831705259, 6831705260, 6831705261, 4107456920, 4107456917], "tags": {"leisure": "park"}}, {"type": "way", "id": 729191984, "nodes": [6831705262, 6831705263, 6831705264, 6831705265, 6831705266, 6831705262], "tags": {"leisure": "park"}}, {"type": "way", "id": 729191985, "nodes": [6831705267, 6831705268, 6831705269, 6831705270, 6831705271, 6831705272, 6831705267], "tags": {"leisure": "park"}}, {"type": "way", "id": 782307697, "nodes": [7305090533, 7305090534, 7305090535, 7305090536, 7305090537, 7305090538, 7305090533], "tags": {"amenity": "marketplace", "name": "Vardhman Market"}}, {"type": "way", "id": 782387432, "nodes": [7305894274, 7305894275, 7305894276, 7305894277, 7305894278, 7305894279, 7305894274], "tags": {"addr:city": "Sector 6 Dwarka, New Delhi", "addr:postcode": "110075", "amenity": "marketplace", "name": "DDA Market"}}, {"type": "way", "id": 782592556, "nodes": [2195322442, 7308243231, 2195322448, 7308243232, 2195322422, 2195322428, 2195322444, 2195322442], "tags": {"addr:city": "Sector 5 Dwarka, New Delhi", "addr:postcode": "110075", "leisure": "park", "name": "Central Nursery Park", "operator": "DDA"}}, {"type": "way", "id": 782592557, "nodes": [7308243233, 7308243234, 7308243235, 7308243236, 7308243237, 7308243238, 9910790184, 7308243239, 7308243240, 7308243248, 7308243241, 7308243242, 7308243243, 7308243244, 7308243245, 7308243246, 7308243247, 7308243233], "tags": {"addr:city": "Sector 5 Dwarka, New Delhi", "addr:postcode": "110075", "leisure": "park", "name": "District Park", "operator": "DDA"}}, {"type": "way", "id": 789655294, "nodes": [7382998670, 7382998671, 7382998672, 7382998673, 7382998674, 7382998675, 7382998676, 7382998677, 7382998678, 7382998679, 7382998680, 7382998681, 7382998682, 7382998670], "tags": {"leisure": "park"}}, {"type": "way", "id": 789655295, "nodes": [7382998683, 7382998684, 7383006485, 7383006486, 7382998683], "tags": {"leisure": "park"}}, {"type": "way", "id": 789655298, "nodes": [7383006494, 7383006495, 7383006496, 3583031658, 7383006497, 7383006494], "tags": {"leisure": "park"}}, {"type": "way", "id": 789655299, "nodes": [3583031660, 7383006498, 7383006499, 7383006500, 7383006501, 7383006502, 3583031660], "tags": {"leisure": "park"}}, {"type": "way", "id": 789655300, "nodes": [7383006503, 7383006504, 7383006505, 7383006506, 7383006507, 7383006508, 7383006503], "tags": {"leisure": "park"}}, {"type": "way", "id": 789655301, "nodes": [7383006509, 7383006510, 7383006511, 7383006512, 7383006513, 7383006514, 7383006515, 7383006516, 7383006517, 7383006518, 7383006519, 7383006520, 7383006521, 7383006522, 7383006523, 7383006524, 7383006525, 7383006526, 7383006527, 7383006528, 7383006529, 7383006509], "tags": {"leisure": "park"}}, {"type": "way", "id": 789655302, "nodes": [7383006530, 7383006531, 7383006532, 7383006533, 7383006534, 7383006530], "tags": {"leisure": "park"}}, {"type": "way", "id": 909987808, "nodes": [8449240668, 8449240669, 8449240670, 8449240672, 8449240668], "tags": {"leisure": "park"}}, {"type": "way", "id": 926764963, "nodes": [8599527563, 8599527562, 8599527561, 8599527557, 8639369425, 8639369429, 8639369428, 8599527558, 8639369426, 8639369427, 8639369424, 8599527559, 8599527563], "tags": {"addr:city": "Delhi", "addr:postcode": "110075", "leisure": "park", "name": "Society Park", "opening_hours": "24/7", "operator": "Corporative Group Housing Society (C.G.H.S.)"}}, {"type": "way", "id": 952472027, "nodes": [8815664739, 8815664740, 8815664741, 8815664742, 8815664739], "tags": {"leisure": "park", "name": "DDA Park"}}, {"type": "way", "id": 952472028, "nodes": [8815664743, 8815664744, 8815664745, 8815664746, 8815664743], "tags": {"leisure": "park"}}, {"type": "way", "id": 952472032, "nodes": [8815664821, 8815664822, 8815664823, 8815664824, 12629818761, 8815664821], "tags": {"leisure": "park"}}, {"type": "way", "id": 961902633, "nodes": [8897815101, 8897815102, 8897815103, 8897815104, 8897815101], "tags": {"addr:city": "Delhi", "leisure": "park", "name": "Lord Satish Cricket Park", "opening_hours": "24/7"}}, {"type": "way", "id": 961902634, "nodes": [8897815105, 8897815106, 8897815107, 8897815108, 8897815105], "tags": {"addr:city": "Delhi", "leisure": "park"}}, {"type": "way", "id": 961902635, "nodes": [8897815109, 8897815110, 8897815111, 8897815112, 8897815113, 8897815114, 8897815109], "tags": {"addr:city": "Delhi", "addr:postcode": "110077", "leisure": "park"}}, {"type": "way", "id": 961902636, "nodes": [8897815115, 8897815116, 8897842517, 8897842518, 8897815115], "tags": {"addr:city": "Delhi", "leisure": "park"}}, {"type": "way", "id": 961903611, "nodes": [8897851038, 8897851039, 8897851040, 8897851041, 8897851038], "tags": {"addr:city": "Delhi", "leisure": "park", "opening_hours": "24/7"}}, {"type": "way", "id": 961914016, "nodes": [8897943023, 8897943024, 8897943025, 8897943026, 8897943023], "tags": {"addr:city": "Delhi", "leisure": "park"}}, {"type": "way", "id": 961914017, "nodes": [8897943027, 8897943028, 8897943029, 8897943030, 8897943027], "tags": {"leisure": "park"}}, {"type": "way", "id": 961914018, "nodes": [8897943031, 8897943032, 8897943033, 8897943034, 8897943031], "tags": {"leisure": "park"}}, {"type": "way", "id": 962041599, "nodes": [8899081843, 8899081844, 8899081845, 8899081846, 8899081843], "tags": {"addr:city": "Delhi", "leisure": "park", "name": "District Park", "opening_hours": "24/7", "operator": "Delhi Development Authority (D.D.A.)"}}, {"type": "way", "id": 962044382, "nodes": [8899075063, 8899075064, 8899075065, 8899075066, 8899075063], "tags": {"addr:city": "Delhi", "leisure": "park"}}, {"type": "way", "id": 962212689, "nodes": [8900599789, 8900599790, 2841444463, 2841444493, 8900599789], "tags": {"addr:city": "Delhi", "leisure": "park"}}, {"type": "way", "id": 962220055, "nodes": [8900677969, 8900677970, 8900677971, 8900677972, 8900744186, 8900744185, 8900744187, 8900677973, 8900677969], "tags": {"leisure": "park", "name": "Dwarka Park"}}, {"type": "way", "id": 962229057, "nodes": [8900762579, 8900762580, 8900762581, 8900762582, 8900762583, 8900762584, 8900762585, 8900762579], "tags": {"leisure": "park"}}, {"type": "way", "id": 967904502, "nodes": [8954539120, 8954539121, 8954539122, 8954539123, 8954539124, 8954539120], "tags": {"leisure": "park"}}, {"type": "way", "id": 987655106, "nodes": [9129076398, 9129076399, 9129076400, 9129076401, 9129076398], "tags": {"leisure": "park"}}, {"type": "way", "id": 987671388, "nodes": [9129242231, 9129242232, 9129242233, 9129242234, 9129242235, 9129242236, 9129242237, 9129242231], "tags": {"leisure": "park"}}, {"type": "way", "id": 1007603951, "nodes": [8566010461, 2132403585, 2132403608, 2132403597, 2132403617, 2132403579, 2132403583, 9295863351, 9295863352, 8566010462, 8566010461], "tags": {"leisure": "park"}}, {"type": "way", "id": 1107937742, "nodes": [10137472504, 10137472505, 10137472508, 10137472509, 10137472506, 10137472507, 10137472504], "tags": {"leisure": "park", "opening_hours": "24/7"}}, {"type": "way", "id": 1107937982, "nodes": [10137472510, 10137472511, 10137472512, 10137472513, 10137472510], "tags": {"leisure": "park", "opening_hours": "24/7"}}, {"type": "way", "id": 1182768136, "nodes": [10983035646, 10983035647, 10983035648, 10983035649, 10983035650, 10983035651, 10983035652, 10983035653, 10983035646], "tags": {"leisure": "park"}}, {"type": "way", "id": 1182816507, "nodes": [10983506225, 10983506226, 10983506227, 10983506228, 10983506229, 10983506230, 10983506231, 10983506232, 10983506233, 10983506234, 10983506235, 10983506236, 10983506237, 10983506238, 10983506239, 10983506240, 10983506241, 10983506242, 10983506225], "tags": {"leisure": "park"}}, {"type": "way", "id": 1182816508, "nodes": [10983506243, 10983506244, 10983506245, 10983506246, 10983506247, 10983506248, 10983506249, 10983506250, 10983506251, 10983506252, 10983506253, 10983506254, 10983506255, 10983506256, 10983506257, 10983506258, 10983506259, 10983506243], "tags": {"leisure": "park"}}, {"type": "way", "id": 1182816509, "nodes": [10983506260, 10983506261, 10983506262, 10983506263, 10983506264, 10983506265, 10983506266, 10983506267, 10983506268, 10983506269, 10983506270, 10983506271, 10983506272, 10983506273, 10983506260], "tags": {"leisure": "park"}}, {"type": "way", "id": 1182816510, "nodes": [10983506274, 10983506275, 10983506276, 10983506277, 10983518141, 10983506278, 10983506279, 10983506280, 10983506281, 10983506282, 10983506283, 10983506284, 10983506285, 10983506286, 10983506287, 10983506288, 10983506274], "tags": {"leisure": "park"}}, {"type": "way", "id": 1182816512, "nodes": [10983506293, 10983506294, 10983506295, 10983506296, 10983506297, 10983506298, 10983506299, 10983506300, 10983506301, 10983506302, 10983506303, 10983506293], "tags": {"leisure": "park"}}, {"type": "way", "id": 1182816513, "nodes": [10983506304, 10983518105, 10983518106, 10983518107, 10983518108, 10983518109, 10983518110, 10983518111, 10983506304], "tags": {"leisure": "park"}}, {"type": "way", "id": 1182816514, "nodes": [10983466399, 10983466398, 10983518123, 10983518124, 10983518122, 10983518125, 10983518121, 10983518120, 10983518112, 10983518113, 10983518114, 10983518115, 10983518116, 10983518117, 10983518118, 10983518119, 10983466401, 10983466400, 10983466399], "tags": {"leisure": "park"}}, {"type": "way", "id": 1182816515, "nodes": [10983518126, 10983518127, 10983518128, 10983518139, 10983518129, 10983518130, 10983518140, 10983518131, 10983518132, 10983518133, 10983518134, 10983518135, 10983518136, 10983518137, 10983518138, 10983518126], "tags": {"leisure": "park"}}, {"type": "way", "id": 1183406526, "nodes": [10989524720, 10989524721, 10989524722, 10989524723, 10989524724, 10989581708, 10989524725, 10989524726, 10989524727, 10989524728, 10989524729, 10989524730, 10989524731, 10989524732, 10989524733, 10989524734, 10989524735, 10989524720], "tags": {"leisure": "park"}}, {"type": "way", "id": 1212113254, "nodes": [11229809272, 11229809273, 11229809274, 11229809275, 11229809276, 11229809277, 11229809278, 11229809272], "tags": {"leisure": "park", "name": "Common park"}}, {"type": "way", "id": 1257160903, "nodes": [11687895240, 11687895241, 11687895242, 11687895243, 11687895240], "tags": {"leisure": "park", "name": "badminton court"}}, {"type": "way", "id": 1257539779, "nodes": [11691408770, 11691408771, 11691408772, 11691408773, 11691408770], "tags": {"leisure": "park"}}, {"type": "way", "id": 1257541584, "nodes": [11691342213, 11691342214, 11691342215, 11691342216, 11691342217, 11691342213], "tags": {"leisure": "park"}}, {"type": "way", "id": 1257541692, "nodes": [11691425801, 11691425802, 11691425803, 11691425804, 11691425805, 11691425806, 11691425807, 11691425808, 11691425809, 11691425801], "tags": {"leisure": "park", "name": "District Park, Sector 23"}}, {"type": "way", "id": 1263403983, "nodes": [11738339150, 11738339151, 11738339152, 11738339153, 11738339150], "tags": {"leisure": "park"}}, {"type": "way", "id": 1266808270, "nodes": [11766351940, 12990858192, 12990858191, 11766351914, 12990858198, 11766351939, 12990858186, 11766351942, 12951223284, 12951223283, 11766351907, 11766351908, 12990959209, 12990959206, 11766351911, 11766351940], "tags": {"addr:block": "RZ", "addr:housenumber": "83", "addr:place": "Mahavir Enclave", "addr:state": "DL", "air_conditioning": "yes", "email": "info@sulabhinternational.org", "fee": "no", "mobile": "+91 11 2505 3646", "museum": "history", "museum_type": "national", "name": "Sulabh International Museum of Toilets", "name:en": "Sulabh International Museum of Toilets", "name:fr": "Mus\u00e9e des Toilettes de Sulabh International", "start_date": "1992", "toilets": "yes", "toilets:access": "yes", "toilets:wheelchair": "yes", "tourism": "museum", "website": "https://www.sulabhtoiletmuseum.org", "wheelchair": "yes", "wikidata": "Q18953525", "wikipedia": "en:Sulabh International Museum of Toilets"}}, {"type": "way", "id": 1292245632, "nodes": [11979990208, 11979825936, 11979825941, 11979990174, 11979990203, 11979990176, 11979825937, 11979990181, 11979825959, 11979990177, 11979990194, 11979825933, 11979990179, 11979990193, 11979990169, 11979825952, 11979825935, 11979825956, 11979990189, 11979825947, 11979990170, 11979990200, 11979825954, 11979990178, 11979990183, 11979990186, 11979825953, 11979825948, 11979825958, 11979990209, 11979990199, 11979825957, 11979825939, 11979990171, 11979990184, 11979825938, 11979825968, 11979990175, 11979825945, 11979990204, 11979990185, 11979825964, 11979990195, 11979825950, 11979990206, 11979825967, 11979990197, 11979825940, 11979825966, 11979825962, 11979990207, 11979825946, 11979990196, 11979990180, 11979990173, 11979990188, 11979825961, 11979990187, 11979990190, 11979825942, 11979990208], "tags": {"access": "private", "leisure": "park"}}, {"type": "way", "id": 1292262372, "nodes": [11979658341, 11979658350, 11979658353, 11979658337, 11979658341], "tags": {"leisure": "park"}}, {"type": "way", "id": 1292262374, "nodes": [11979658344, 11979658345, 11979658343, 11979658359, 11979658344], "tags": {"leisure": "park"}}, {"type": "way", "id": 1292262375, "nodes": [11979658354, 11979658351, 11979658340, 11979658354], "tags": {"leisure": "park"}}, {"type": "way", "id": 1292262376, "nodes": [11979658335, 11979658356, 11979658338, 11979658349, 11979658335], "tags": {"leisure": "park"}}, {"type": "way", "id": 1292262378, "nodes": [11979658355, 11979658339, 11979658358, 11979658355], "tags": {"leisure": "park"}}, {"type": "way", "id": 1292262379, "nodes": [11979658352, 11979658346, 11979658348, 11979658352], "tags": {"leisure": "park"}}, {"type": "way", "id": 1292262380, "nodes": [11979658336, 11979658342, 11979658347, 11979658336], "tags": {"leisure": "park"}}, {"type": "way", "id": 1340308826, "nodes": [12398054165, 12398054148, 12398054173, 12398054159, 12398054176, 12398054167, 12398054143, 12398054174, 12398054170, 12398054175, 12398054154, 12398054149, 12398054171, 12398054144, 12398054168, 12398054169, 12398054155, 12398054156, 12398054150, 12398054172, 12398054153, 12398054164, 12398054158, 12398054161, 12398054146, 12398054157, 12398054162, 12398054145, 12398054160, 12398054151, 12398054147, 12398054152, 12398054163, 12398054165], "tags": {"leisure": "park"}}, {"type": "way", "id": 1342579602, "nodes": [12421982993, 12421982988, 12421982986, 12421982985, 12421982982, 12421982992, 12421982989, 12421982978, 12421982987, 12421982984, 12421982979, 12421982983, 12421982995, 12421982996, 12421982991, 12421982990, 12421982981, 12421982980, 12421982994, 12421982993], "tags": {"leisure": "park", "name": "Water Body Park Ramphal Chowk"}}, {"type": "way", "id": 1346820513, "nodes": [12458247239, 12458247267, 12458247249, 12458247263, 12458247259, 12458247238, 12458247248, 12458247231, 12458247268, 12458247245, 12458247230, 12458247256, 12458247233, 12458247229, 12458247240, 12458247246, 12458247258, 12458247243, 12458247257, 12458247241, 12458247255, 12458247251, 12458247260, 12458247254, 12458247261, 12458247271, 12458247232, 12458247247, 12458247252, 12458247250, 12458247273, 12458247275, 12458247236, 12458247235, 12458247234, 12458247272, 12458247270, 12458247264, 12458247242, 12458247265, 12458247274, 12458247253, 12458247266, 12458247244, 12458247237, 12458247269, 12458247262, 12458247239], "tags": {"leisure": "park", "name": "Flight Lieutenant Sunit Mohanty Park", "name:hi": "\u092b\u094d\u0932\u093e\u0907\u091f \u0932\u0947\u092b\u094d\u091f\u093f\u0928\u0947\u0902\u091f \u0938\u0941\u0928\u0940\u0924 \u092e\u094b\u0939\u0902\u0924\u0940 \u092a\u093e\u0930\u094d\u0915", "operator": "MCD"}}, {"type": "way", "id": 1348421410, "nodes": [12472981839, 12472981829, 12472981840, 12472981832, 12472981834, 12472981843, 12472981837, 12472981838, 12472981830, 12472981844, 12472981836, 12472981845, 12472981833, 12472981842, 12472981831, 12472981835, 12472974713, 12472981841, 12472981839], "tags": {"leisure": "park", "name:hi": "\u0936\u094d\u0930\u0940 \u0935\u093f\u091c\u092f \u092a\u0902\u0921\u093f\u0924 \u092e\u0947\u092e\u094b\u0930\u093f\u092f\u0932 \u092a\u093e\u0930\u094d\u0915"}}, {"type": "way", "id": 1354873591, "nodes": [12538610083, 12538610081, 12538610082, 12538610080, 12538610083], "tags": {"leisure": "park"}}, {"type": "way", "id": 1356472636, "nodes": [12554440590, 12554440591, 12554440592, 12554440593, 12554440594, 12554440595, 12554440596, 12554440597, 12554440598, 12554440599, 12554440600, 12554452701, 12554452702, 12554452703, 12554452704, 12554452705, 12554452706, 12554452707, 12554452708, 12554452709, 12554440590], "tags": {"leisure": "park"}}, {"type": "way", "id": 1356473984, "nodes": [12554464517, 12554464518, 12554464519, 12554464520, 12554464521, 12554464522, 12554464523, 12554464524, 12554464525, 12554464526, 12554464527, 12554464528, 12554464529, 12554464530, 12554464531, 12554464532, 12554464533, 12554464534, 12554464535, 12554464536, 12554464537, 12554464538, 12554464539, 12554464540, 12554464541, 12554464542, 12554464543, 12554464544, 12554464517], "tags": {"leisure": "park"}}, {"type": "way", "id": 1356474218, "nodes": [12554466837, 12554466838, 12554466839, 12554466840, 12554466841, 12554466842, 12554466843, 12554466844, 12554466845, 12554466846, 12554466837], "tags": {"leisure": "park"}}, {"type": "way", "id": 1356601689, "nodes": [12555769171, 12704673156, 12555769172, 12704673157, 12555769171], "tags": {"amenity": "cafe", "building": "yes", "name": "Amul Shop"}}, {"type": "way", "id": 1356601712, "nodes": [12555808010, 12555808011, 12555808012, 12555808013, 12555808010], "tags": {"leisure": "park", "name": "Playground"}}, {"type": "way", "id": 1359085234, "nodes": [12579202245, 12579202252, 12579202250, 12579202247, 12579202242, 12579202241, 12579202244, 12579202251, 12579202245], "tags": {"access": "yes", "archaeological_site": "baths", "barrier": "fence", "building": "yes", "description": "Department of archaeology, Govt of NCT of Delhi", "historic": "archaeological_site", "historic:civilization": "Pathan", "man_made": "water_well", "name": "Baoli", "name:hi": "\u092c\u093e\u0935\u0932\u0940"}}, {"type": "way", "id": 1365656356, "nodes": [12646857252, 12646857250, 12646857251, 12646857249, 12646857252], "tags": {"leisure": "park"}}, {"type": "way", "id": 1384678306, "nodes": [12819987651, 12819987655, 12819987652, 12819987657, 12819987653, 12819987650, 12819987654, 12819987656, 12819987651], "tags": {"leisure": "park", "name": "Chaudhary Brahma Prakash Park"}}, {"type": "way", "id": 1429088144, "nodes": [1997765024, 2000645949, 2000645948, 413764585, 6195396518, 9910853141, 9708798184, 9910853138, 1997765024], "tags": {"leisure": "park", "name": "DDA Park Sector 20"}}, {"type": "way", "id": 1429088145, "nodes": [2000646075, 267194410, 9910853144, 11563101903, 11563101911, 13137014103, 2837775547, 9910853177, 9910853175, 9910853172, 2000646146, 2000646075], "tags": {"leisure": "park"}}, {"type": "way", "id": 1429088146, "nodes": [9708798193, 9910853170, 9708798198, 13137014104, 9708798193], "tags": {"leisure": "park", "name": "Sector 9 Park"}}, {"type": "way", "id": 1429088147, "nodes": [13009366494, 9909530515, 10595698793, 472499956, 472499958, 472499966, 472499974, 472499975, 472499976, 2000646055, 9129076400, 9129076399, 10216247266, 13137014105, 13137014106, 13009417591, 13009366494], "tags": {"addr:city": "New Delhi", "addr:postcode": "110075", "addr:street": "Dwarka", "leisure": "park", "name": "Ground & Park Sector 19B"}}, {"type": "way", "id": 1429088149, "nodes": [13137014109, 9129259382, 9129259383, 13137014110, 13137014111, 13137014109], "tags": {"leisure": "park", "name": "Park Sector 19 Dwarka"}}, {"type": "way", "id": 1429088150, "nodes": [11001542962, 9129076404, 9129259388, 13137014112, 11549065661, 11001542962], "tags": {"leisure": "park", "name": "Park Sector 19"}}, {"type": "way", "id": 1429088151, "nodes": [13137014113, 13137014114, 9129266251, 9129266252, 13137014115, 13137014113], "tags": {"leisure": "park", "name": "Park Sector 19"}}, {"type": "way", "id": 1429088152, "nodes": [13277027875, 13277027876, 4229894870, 4229894857, 13137014116, 11372965369, 13009366490, 13137014117, 13277075370, 13277075369, 13277027875], "tags": {"leisure": "park"}}, {"type": "way", "id": 1429088153, "nodes": [13137014118, 13137014119, 13137014120, 13137014121, 13137014118], "tags": {"leisure": "park"}}, {"type": "way", "id": 1429088154, "nodes": [13137014122, 13137014123, 13137014124, 13137014125, 13137014126, 13137014127, 13137014128, 13137014122], "tags": {"leisure": "park"}}, {"type": "way", "id": 1429088155, "nodes": [13137014129, 13137014130, 13137014105, 13137014131, 13137014132, 10216247269, 9917039411, 13137014133, 13137014129], "tags": {"leisure": "park"}}, {"type": "way", "id": 1429088156, "nodes": [13137014134, 13137014105, 10216247263, 13137014137, 13137014138, 9917039390, 9917039389, 13137014139, 9917039378, 13137014140, 13137014136, 13137014134], "tags": {"leisure": "park", "name": "Park at Sector 19"}}, {"type": "way", "id": 1429088157, "nodes": [13137014141, 13137014142, 13137014143, 10216247253, 10216247256, 13137014144, 13137014145, 13137014146, 13137014141], "tags": {"leisure": "park"}}, {"type": "way", "id": 1429088158, "nodes": [13137014147, 13137014148, 13137014149, 13137014150, 13137014151, 13137014152, 13009417610, 13137014153, 13137014154, 13137014155, 13137014156, 13137014157, 13137014158, 13137014147], "tags": {"leisure": "park"}}, {"type": "way", "id": 1429088159, "nodes": [13137014159, 13137014160, 13137014161, 13137014162, 13137014163, 13137014164, 13137014165, 13137014159], "tags": {"leisure": "park"}}, {"type": "way", "id": 1429088160, "nodes": [13137014166, 13137014167, 13137014168, 13137014169, 13137014166], "tags": {"leisure": "park", "name": "Football Park"}}, {"type": "way", "id": 1429088161, "nodes": [13137014170, 13137014171, 13137014167, 13137014172, 2245777876, 2245777921, 13137014170], "tags": {"leisure": "park"}}, {"type": "way", "id": 1429088162, "nodes": [2000646141, 13137014173, 13137014174, 13137014175, 13137014176, 13137014177, 2000646141], "tags": {"leisure": "park"}}, {"type": "way", "id": 1429088164, "nodes": [13137014179, 13137014180, 13137014181, 13137014182, 13137014179], "tags": {"leisure": "park"}}, {"type": "way", "id": 1451897060, "nodes": [13315871995, 13315871996, 11563283137, 13315871997, 13315871995], "tags": {"leisure": "park", "name": "DDA Park"}}, {"type": "node", "id": 11687895240, "lat": 28.5626884, "lon": 77.0430872}, {"type": "node", "id": 11687895241, "lat": 28.5626777, "lon": 77.0432219}, {"type": "node", "id": 11687895242, "lat": 28.5626024, "lon": 77.0432119}, {"type": "node", "id": 11687895243, "lat": 28.5626102, "lon": 77.0430827}, {"type": "node", "id": 2000663500, "lat": 28.5569787, "lon": 77.0571838}, {"type": "node", "id": 2000663508, "lat": 28.5572073, "lon": 77.0558229}, {"type": "node", "id": 11691408772, "lat": 28.5638619, "lon": 77.0445281}, {"type": "node", "id": 11691408773, "lat": 28.5638603, "lon": 77.044385}, {"type": "node", "id": 2000663511, "lat": 28.5576105, "lon": 77.0551992}, {"type": "node", "id": 2000663516, "lat": 28.5579652, "lon": 77.0564579}, {"type": "node", "id": 2000663519, "lat": 28.5583683, "lon": 77.0558341}, {"type": "node", "id": 2136003512, "lat": 28.5606507, "lon": 77.0539807}, {"type": "node", "id": 2136003515, "lat": 28.5607596, "lon": 77.0538394}, {"type": "node", "id": 2136003519, "lat": 28.5613091, "lon": 77.0543209}, {"type": "node", "id": 2136003520, "lat": 28.5613615, "lon": 77.056113}, {"type": "node", "id": 2136003521, "lat": 28.5615171, "lon": 77.0562472}, {"type": "node", "id": 2136003522, "lat": 28.561727, "lon": 77.0540095}, {"type": "node", "id": 2136003526, "lat": 28.5619308, "lon": 77.0552576}, {"type": "node", "id": 2136003528, "lat": 28.5620864, "lon": 77.0553919}, {"type": "node", "id": 2136003529, "lat": 28.5622132, "lon": 77.0529888}, {"type": "node", "id": 2136003530, "lat": 28.5622638, "lon": 77.0531734}, {"type": "node", "id": 2136003533, "lat": 28.5626817, "lon": 77.0557395}, {"type": "node", "id": 2136003546, "lat": 28.5630641, "lon": 77.0551571}, {"type": "node", "id": 2136003548, "lat": 28.5631223, "lon": 77.0521988}, {"type": "node", "id": 2841444428, "lat": 28.5624327, "lon": 77.0530858}, {"type": "node", "id": 2841444435, "lat": 28.5626698, "lon": 77.0532967}, {"type": "node", "id": 2841444445, "lat": 28.5629737, "lon": 77.0522769}, {"type": "node", "id": 2841444451, "lat": 28.5632146, "lon": 77.0524724}, {"type": "node", "id": 2841444463, "lat": 28.563693, "lon": 77.0566326}, {"type": "node", "id": 8599527557, "lat": 28.563141, "lon": 77.0544218}, {"type": "node", "id": 8599527558, "lat": 28.5628901, "lon": 77.0547975}, {"type": "node", "id": 8599527559, "lat": 28.5631554, "lon": 77.0546448}, {"type": "node", "id": 8599527561, "lat": 28.5630365, "lon": 77.0543306}, {"type": "node", "id": 8599527562, "lat": 28.5631462, "lon": 77.0541676}, {"type": "node", "id": 8599527563, "lat": 28.5633521, "lon": 77.0543473}, {"type": "node", "id": 8639369424, "lat": 28.5631237, "lon": 77.0546175}, {"type": "node", "id": 8639369425, "lat": 28.5629886, "lon": 77.0546405}, {"type": "node", "id": 8639369426, "lat": 28.5629652, "lon": 77.0548654}, {"type": "node", "id": 8639369427, "lat": 28.5630639, "lon": 77.0547098}, {"type": "node", "id": 8639369428, "lat": 28.5628369, "lon": 77.0547499}, {"type": "node", "id": 8639369429, "lat": 28.5629414, "lon": 77.0546007}, {"type": "node", "id": 8897815101, "lat": 28.5629522, "lon": 77.0562965}, {"type": "node", "id": 8897815102, "lat": 28.5626744, "lon": 77.0560421}, {"type": "node", "id": 8897815103, "lat": 28.562571, "lon": 77.0561887}, {"type": "node", "id": 8897815104, "lat": 28.5628593, "lon": 77.0564352}, {"type": "node", "id": 8897815105, "lat": 28.5630282, "lon": 77.0517023}, {"type": "node", "id": 8897815106, "lat": 28.5629383, "lon": 77.051387}, {"type": "node", "id": 8897815107, "lat": 28.5627334, "lon": 77.051476}, {"type": "node", "id": 8897815108, "lat": 28.5628125, "lon": 77.0518113}, {"type": "node", "id": 8897815109, "lat": 28.5624757, "lon": 77.050998}, {"type": "node", "id": 8897815110, "lat": 28.561885, "lon": 77.0512268}, {"type": "node", "id": 8897815111, "lat": 28.5623813, "lon": 77.0529407}, {"type": "node", "id": 8897815112, "lat": 28.5624716, "lon": 77.0529103}, {"type": "node", "id": 8897815113, "lat": 28.562894, "lon": 77.0522425}, {"type": "node", "id": 8897815114, "lat": 28.5628448, "lon": 77.0522005}, {"type": "node", "id": 8899081843, "lat": 28.5617688, "lon": 77.0536171}, {"type": "node", "id": 8899081844, "lat": 28.5612064, "lon": 77.0531494}, {"type": "node", "id": 8899081845, "lat": 28.560747, "lon": 77.0538254}, {"type": "node", "id": 8899081846, "lat": 28.5613055, "lon": 77.0543054}, {"type": "node", "id": 8954539120, "lat": 28.5637411, "lon": 77.0514898}, {"type": "node", "id": 8954539121, "lat": 28.5636064, "lon": 77.0510455}, {"type": "node", "id": 8954539122, "lat": 28.5635085, "lon": 77.0510857}, {"type": "node", "id": 8954539123, "lat": 28.5636586, "lon": 77.0515909}, {"type": "node", "id": 8954539124, "lat": 28.5637249, "lon": 77.0515647}, {"type": "node", "id": 2000663498, "lat": 28.5564809, "lon": 77.0579426}, {"type": "node", "id": 2000663509, "lat": 28.5573686, "lon": 77.0586976}, {"type": "node", "id": 2000663515, "lat": 28.5578641, "lon": 77.0579368}, {"type": "node", "id": 2000663522, "lat": 28.5588937, "lon": 77.0599847}, {"type": "node", "id": 2000663525, "lat": 28.5593221, "lon": 77.0593403}, {"type": "node", "id": 2000663538, "lat": 28.5601917, "lon": 77.0611034}, {"type": "node", "id": 2000663543, "lat": 28.5606201, "lon": 77.060459}, {"type": "node", "id": 2000663552, "lat": 28.5614113, "lon": 77.0594852}, {"type": "node", "id": 2000663555, "lat": 28.5617349, "lon": 77.0608547}, {"type": "node", "id": 2000663557, "lat": 28.5618427, "lon": 77.0609454}, {"type": "node", "id": 2000663558, "lat": 28.5618484, "lon": 77.0588171}, {"type": "node", "id": 2000663561, "lat": 28.562209, "lon": 77.0601254}, {"type": "node", "id": 2000663563, "lat": 28.5627351, "lon": 77.0595725}, {"type": "node", "id": 2408450663, "lat": 28.5610891, "lon": 77.0622574}, {"type": "node", "id": 2408450664, "lat": 28.5611268, "lon": 77.0615279}, {"type": "node", "id": 2408450665, "lat": 28.5614302, "lon": 77.0621357}, {"type": "node", "id": 2408450666, "lat": 28.5616846, "lon": 77.0619962}, {"type": "node", "id": 2408450667, "lat": 28.5607027, "lon": 77.0622038}, {"type": "node", "id": 2841444323, "lat": 28.5574358, "lon": 77.0585897}, {"type": "node", "id": 2841444347, "lat": 28.5587515, "lon": 77.0597086}, {"type": "node", "id": 2841444348, "lat": 28.5587751, "lon": 77.0598937}, {"type": "node", "id": 2841444358, "lat": 28.5594373, "lon": 77.0586633}, {"type": "node", "id": 2841444361, "lat": 28.5595304, "lon": 77.0587425}, {"type": "node", "id": 2841444371, "lat": 28.5598129, "lon": 77.0585842}, {"type": "node", "id": 2841444390, "lat": 28.5604101, "lon": 77.057639}, {"type": "node", "id": 2841444396, "lat": 28.5612105, "lon": 77.0584844}, {"type": "node", "id": 2841444419, "lat": 28.5617018, "lon": 77.0596994}, {"type": "node", "id": 2841444420, "lat": 28.5617628, "lon": 77.0589527}, {"type": "node", "id": 2841444424, "lat": 28.5618753, "lon": 77.059843}, {"type": "node", "id": 3558204284, "lat": 28.5573694, "lon": 77.0625517}, {"type": "node", "id": 3558204477, "lat": 28.5576098, "lon": 77.0621736}, {"type": "node", "id": 3558204488, "lat": 28.5576643, "lon": 77.0627948}, {"type": "node", "id": 3558204679, "lat": 28.5579047, "lon": 77.0624167}, {"type": "node", "id": 4778391813, "lat": 28.5616, "lon": 77.0588147}, {"type": "node", "id": 10892368784, "lat": 28.5600777, "lon": 77.0588204}, {"type": "node", "id": 10892368785, "lat": 28.561197, "lon": 77.058473}, {"type": "node", "id": 10892368786, "lat": 28.5606348, "lon": 77.0580247}, {"type": "node", "id": 13137014117, "lat": 28.5670619, "lon": 77.0439296}, {"type": "node", "id": 13137014123, "lat": 28.5696215, "lon": 77.0425716}, {"type": "node", "id": 13137014124, "lat": 28.5695072, "lon": 77.0426529}, {"type": "node", "id": 13137014125, "lat": 28.5694504, "lon": 77.0434378}, {"type": "node", "id": 13137014126, "lat": 28.5701499, "lon": 77.0435798}, {"type": "node", "id": 13137014127, "lat": 28.5704213, "lon": 77.0435798}, {"type": "node", "id": 13137014136, "lat": 28.5695415, "lon": 77.0437115}, {"type": "node", "id": 13277027875, "lat": 28.5682491, "lon": 77.0428086}, {"type": "node", "id": 13277027876, "lat": 28.5690013, "lon": 77.0429159}, {"type": "node", "id": 13277075369, "lat": 28.5671761, "lon": 77.0426464}, {"type": "node", "id": 13277075370, "lat": 28.5671012, "lon": 77.0426399}, {"type": "node", "id": 9129076404, "lat": 28.5715002, "lon": 77.0439397}, {"type": "node", "id": 9129242231, "lat": 28.5753069, "lon": 77.0411643}, {"type": "node", "id": 9129242232, "lat": 28.5755456, "lon": 77.0415173}, {"type": "node", "id": 9129242233, "lat": 28.5754533, "lon": 77.0424764}, {"type": "node", "id": 9129242234, "lat": 28.5745306, "lon": 77.0423612}, {"type": "node", "id": 9129242235, "lat": 28.5743688, "lon": 77.0440429}, {"type": "node", "id": 9129242236, "lat": 28.5742715, "lon": 77.0440307}, {"type": "node", "id": 9129242237, "lat": 28.5745569, "lon": 77.0410705}, {"type": "node", "id": 9129259382, "lat": 28.5723637, "lon": 77.0439437}, {"type": "node", "id": 9129259383, "lat": 28.5727128, "lon": 77.0436528}, {"type": "node", "id": 9129266251, "lat": 28.5728062, "lon": 77.0436104}, {"type": "node", "id": 9129266252, "lat": 28.5730933, "lon": 77.0440387}, {"type": "node", "id": 11001542962, "lat": 28.5722032, "lon": 77.0440416}, {"type": "node", "id": 13137014109, "lat": 28.571656, "lon": 77.0438602}, {"type": "node", "id": 13137014110, "lat": 28.5728203, "lon": 77.0425753}, {"type": "node", "id": 13137014111, "lat": 28.5717249, "lon": 77.0424179}, {"type": "node", "id": 13137014113, "lat": 28.5742005, "lon": 77.0430623}, {"type": "node", "id": 13137014114, "lat": 28.572987, "lon": 77.0428672}, {"type": "node", "id": 13137014118, "lat": 28.5716852, "lon": 77.042788}, {"type": "node", "id": 13137014119, "lat": 28.5705575, "lon": 77.0426526}, {"type": "node", "id": 13137014120, "lat": 28.570586, "lon": 77.0437338}, {"type": "node", "id": 13137014121, "lat": 28.5715834, "lon": 77.0437369}, {"type": "node", "id": 13137014122, "lat": 28.5704356, "lon": 77.042718}, {"type": "node", "id": 13137014128, "lat": 28.5704498, "lon": 77.0431408}, {"type": "node", "id": 13137014129, "lat": 28.5714327, "lon": 77.0440247}, {"type": "node", "id": 13137014130, "lat": 28.5706131, "lon": 77.0438358}, {"type": "node", "id": 13137014134, "lat": 28.5705343, "lon": 77.0438267}, {"type": "node", "id": 2197682523, "lat": 28.5824997, "lon": 77.0369333}, {"type": "node", "id": 2197682532, "lat": 28.5811307, "lon": 77.0355311}, {"type": "node", "id": 2197682550, "lat": 28.5803959, "lon": 77.0371189}, {"type": "node", "id": 2132403577, "lat": 28.5813705, "lon": 77.0415347}, {"type": "node", "id": 2132403579, "lat": 28.5777892, "lon": 77.0426235}, {"type": "node", "id": 2132403580, "lat": 28.5805452, "lon": 77.0415728}, {"type": "node", "id": 2132403583, "lat": 28.5779175, "lon": 77.0415186}, {"type": "node", "id": 2132403587, "lat": 28.581705, "lon": 77.0414006}, {"type": "node", "id": 2132403592, "lat": 28.5831879, "lon": 77.0426456}, {"type": "node", "id": 2132403596, "lat": 28.5820385, "lon": 77.0411865}, {"type": "node", "id": 2132403604, "lat": 28.58242, "lon": 77.0405535}, {"type": "node", "id": 2132403607, "lat": 28.583023, "lon": 77.0427637}, {"type": "node", "id": 2132403610, "lat": 28.5823739, "lon": 77.0408963}, {"type": "node", "id": 2132403617, "lat": 28.5777226, "lon": 77.0433385}, {"type": "node", "id": 2197682514, "lat": 28.5804335, "lon": 77.0391574}, {"type": "node", "id": 2197682518, "lat": 28.5802828, "lon": 77.0409169}, {"type": "node", "id": 2197682524, "lat": 28.5795479, "lon": 77.0380416}, {"type": "node", "id": 2197682529, "lat": 28.5779585, "lon": 77.0384997}, {"type": "node", "id": 2197682535, "lat": 28.580377, "lon": 77.039887}, {"type": "node", "id": 2197682537, "lat": 28.5801697, "lon": 77.0397582}, {"type": "node", "id": 2197682545, "lat": 28.5774365, "lon": 77.0408504}, {"type": "node", "id": 2197682554, "lat": 28.5773988, "lon": 77.0382497}, {"type": "node", "id": 2197682556, "lat": 28.5787122, "lon": 77.038371}, {"type": "node", "id": 3503423202, "lat": 28.5826509, "lon": 77.0401018}, {"type": "node", "id": 3503423203, "lat": 28.5829487, "lon": 77.0394556}, {"type": "node", "id": 8566010460, "lat": 28.5805814, "lon": 77.043643}, {"type": "node", "id": 8566010462, "lat": 28.5785321, "lon": 77.0424293}, {"type": "node", "id": 8566010463, "lat": 28.5799842, "lon": 77.0419559}, {"type": "node", "id": 9295863349, "lat": 28.5798016, "lon": 77.0415575}, {"type": "node", "id": 9295863350, "lat": 28.5798652, "lon": 77.0419947}, {"type": "node", "id": 9295863351, "lat": 28.5796838, "lon": 77.041555}, {"type": "node", "id": 9295863352, "lat": 28.5797467, "lon": 77.0420333}, {"type": "node", "id": 2000516379, "lat": 28.5884352, "lon": 77.0415227}, {"type": "node", "id": 2000516384, "lat": 28.5886679, "lon": 77.0411201}, {"type": "node", "id": 2000516387, "lat": 28.5888741, "lon": 77.0406281}, {"type": "node", "id": 2000516391, "lat": 28.5892478, "lon": 77.0424552}, {"type": "node", "id": 2000516399, "lat": 28.5893705, "lon": 77.0398114}, {"type": "node", "id": 2000516402, "lat": 28.5898568, "lon": 77.0414727}, {"type": "node", "id": 2132403609, "lat": 28.5842673, "lon": 77.0409553}, {"type": "node", "id": 2197111651, "lat": 28.588593, "lon": 77.0434862}, {"type": "node", "id": 3503423204, "lat": 28.5836848, "lon": 77.0385854}, {"type": "node", "id": 3503423205, "lat": 28.5846287, "lon": 77.0405689}, {"type": "node", "id": 3503423206, "lat": 28.5848703, "lon": 77.039993}, {"type": "node", "id": 12538870720, "lat": 28.5889098, "lon": 77.0405689}, {"type": "node", "id": 12538870755, "lat": 28.5887718, "lon": 77.040878}, {"type": "node", "id": 12538870800, "lat": 28.5888187, "lon": 77.0407686}, {"type": "node", "id": 12538870813, "lat": 28.5889234, "lon": 77.040547}, {"type": "node", "id": 4229894857, "lat": 28.5685935, "lon": 77.0447911}, {"type": "node", "id": 4229894870, "lat": 28.5691048, "lon": 77.0447486}, {"type": "node", "id": 8899075064, "lat": 28.5648397, "lon": 77.0506515}, {"type": "node", "id": 9917039378, "lat": 28.5693266, "lon": 77.0450936}, {"type": "node", "id": 9917039389, "lat": 28.5692859, "lon": 77.0461467}, {"type": "node", "id": 9917039390, "lat": 28.5691843, "lon": 77.0461516}, {"type": "node", "id": 10216247253, "lat": 28.5681614, "lon": 77.0470955}, {"type": "node", "id": 10216247256, "lat": 28.568353, "lon": 77.0465892}, {"type": "node", "id": 10216247263, "lat": 28.5689066, "lon": 77.047854}, {"type": "node", "id": 11372965369, "lat": 28.567461, "lon": 77.0457652}, {"type": "node", "id": 11691342213, "lat": 28.5650863, "lon": 77.0501194}, {"type": "node", "id": 11691342214, "lat": 28.5659069, "lon": 77.0504497}, {"type": "node", "id": 11691408770, "lat": 28.5640878, "lon": 77.0443798}, {"type": "node", "id": 11691408771, "lat": 28.5640849, "lon": 77.0445245}, {"type": "node", "id": 11691425801, "lat": 28.5650988, "lon": 77.0499212}, {"type": "node", "id": 11691425802, "lat": 28.5673451, "lon": 77.0491284}, {"type": "node", "id": 11691425809, "lat": 28.566023, "lon": 77.0503034}, {"type": "node", "id": 12398054143, "lat": 28.5650941, "lon": 77.0465385}, {"type": "node", "id": 12398054144, "lat": 28.5649784, "lon": 77.0470354}, {"type": "node", "id": 12398054145, "lat": 28.5662589, "lon": 77.0478504}, {"type": "node", "id": 12398054146, "lat": 28.5658727, "lon": 77.0478224}, {"type": "node", "id": 12398054147, "lat": 28.5660404, "lon": 77.0470705}, {"type": "node", "id": 12398054148, "lat": 28.5657673, "lon": 77.046569}, {"type": "node", "id": 12398054149, "lat": 28.5649968, "lon": 77.0468093}, {"type": "node", "id": 12398054150, "lat": 28.5655249, "lon": 77.0472678}, {"type": "node", "id": 12398054151, "lat": 28.5661086, "lon": 77.0472908}, {"type": "node", "id": 12398054152, "lat": 28.5659572, "lon": 77.0467121}, {"type": "node", "id": 12398054153, "lat": 28.5658571, "lon": 77.0472779}, {"type": "node", "id": 12398054154, "lat": 28.5649913, "lon": 77.046697}, {"type": "node", "id": 12398054155, "lat": 28.5652034, "lon": 77.0472667}, {"type": "node", "id": 12398054156, "lat": 28.5653717, "lon": 77.047263}, {"type": "node", "id": 12398054157, "lat": 28.5660181, "lon": 77.0478456}, {"type": "node", "id": 12398054158, "lat": 28.5658821, "lon": 77.0474365}, {"type": "node", "id": 12398054159, "lat": 28.5655562, "lon": 77.0465566}, {"type": "node", "id": 12398054160, "lat": 28.5661968, "lon": 77.047578}, {"type": "node", "id": 12398054161, "lat": 28.56589, "lon": 77.0476189}, {"type": "node", "id": 12398054162, "lat": 28.5661488, "lon": 77.0478536}, {"type": "node", "id": 12398054163, "lat": 28.5659307, "lon": 77.0465987}, {"type": "node", "id": 12398054164, "lat": 28.5659007, "lon": 77.0472624}, {"type": "node", "id": 12398054165, "lat": 28.5658616, "lon": 77.046582}, {"type": "node", "id": 12398054167, "lat": 28.5652108, "lon": 77.0465464}, {"type": "node", "id": 12398054168, "lat": 28.564983, "lon": 77.0471929}, {"type": "node", "id": 12398054169, "lat": 28.5650309, "lon": 77.0472353}, {"type": "node", "id": 12398054170, "lat": 28.5649999, "lon": 77.0465266}, {"type": "node", "id": 12398054171, "lat": 28.5649956, "lon": 77.0469326}, {"type": "node", "id": 12398054172, "lat": 28.5657148, "lon": 77.0472664}, {"type": "node", "id": 12398054173, "lat": 28.5656695, "lon": 77.0465561}, {"type": "node", "id": 12398054174, "lat": 28.5650233, "lon": 77.0465309}, {"type": "node", "id": 12398054175, "lat": 28.5649957, "lon": 77.0465947}, {"type": "node", "id": 12398054176, "lat": 28.5653712, "lon": 77.0465446}, {"type": "node", "id": 13009366490, "lat": 28.5672202, "lon": 77.0450054}, {"type": "node", "id": 13009366494, "lat": 28.5692608, "lon": 77.05049}, {"type": "node", "id": 13009417591, "lat": 28.5692891, "lon": 77.0503773}, {"type": "node", "id": 13009417610, "lat": 28.5679852, "lon": 77.0480747}, {"type": "node", "id": 13137014105, "lat": 28.5698181, "lon": 77.0475195}, {"type": "node", "id": 13137014106, "lat": 28.5694397, "lon": 77.0494374}, {"type": "node", "id": 13137014116, "lat": 28.5684949, "lon": 77.0453939}, {"type": "node", "id": 13137014137, "lat": 28.5688931, "lon": 77.0475315}, {"type": "node", "id": 13137014138, "lat": 28.5691788, "lon": 77.047499}, {"type": "node", "id": 13137014139, "lat": 28.5694215, "lon": 77.0460679}, {"type": "node", "id": 13137014140, "lat": 28.5695644, "lon": 77.0449946}, {"type": "node", "id": 13137014141, "lat": 28.5683499, "lon": 77.0455609}, {"type": "node", "id": 13137014142, "lat": 28.5674724, "lon": 77.0460281}, {"type": "node", "id": 13137014143, "lat": 28.5678165, "lon": 77.0474175}, {"type": "node", "id": 13137014144, "lat": 28.5685537, "lon": 77.0462976}, {"type": "node", "id": 13137014145, "lat": 28.5685697, "lon": 77.0457127}, {"type": "node", "id": 13137014146, "lat": 28.5684442, "lon": 77.045526}, {"type": "node", "id": 13137014147, "lat": 28.5684859, "lon": 77.0464793}, {"type": "node", "id": 13137014148, "lat": 28.5683205, "lon": 77.046691}, {"type": "node", "id": 13137014149, "lat": 28.568227, "lon": 77.0470876}, {"type": "node", "id": 13137014150, "lat": 28.5680321, "lon": 77.0472172}, {"type": "node", "id": 13137014151, "lat": 28.5679112, "lon": 77.0474063}, {"type": "node", "id": 13137014152, "lat": 28.5678919, "lon": 77.0477112}, {"type": "node", "id": 13137014153, "lat": 28.5683841, "lon": 77.0479739}, {"type": "node", "id": 13137014154, "lat": 28.5686483, "lon": 77.0478763}, {"type": "node", "id": 13137014155, "lat": 28.5688317, "lon": 77.0478307}, {"type": "node", "id": 13137014156, "lat": 28.5687508, "lon": 77.0474215}, {"type": "node", "id": 13137014157, "lat": 28.568534, "lon": 77.0474861}, {"type": "node", "id": 13137014158, "lat": 28.5684912, "lon": 77.0470551}, {"type": "node", "id": 13137014159, "lat": 28.5696655, "lon": 77.0479201}, {"type": "node", "id": 13137014160, "lat": 28.5691159, "lon": 77.0480976}, {"type": "node", "id": 13137014161, "lat": 28.5692636, "lon": 77.048686}, {"type": "node", "id": 13137014162, "lat": 28.5692964, "lon": 77.0489195}, {"type": "node", "id": 13137014163, "lat": 28.5690667, "lon": 77.0491437}, {"type": "node", "id": 13137014164, "lat": 28.5686402, "lon": 77.049153}, {"type": "node", "id": 13137014165, "lat": 28.56928, "lon": 77.0499656}, {"type": "node", "id": 2000645862, "lat": 28.5697509, "lon": 77.0532213}, {"type": "node", "id": 2136003558, "lat": 28.5640238, "lon": 77.0518442}, {"type": "node", "id": 2136003568, "lat": 28.5644417, "lon": 77.0533435}, {"type": "node", "id": 2841444484, "lat": 28.5644695, "lon": 77.0531407}, {"type": "node", "id": 2841444485, "lat": 28.5645064, "lon": 77.0534187}, {"type": "node", "id": 2841444488, "lat": 28.5645488, "lon": 77.0533363}, {"type": "node", "id": 2841444498, "lat": 28.5651403, "lon": 77.0539388}, {"type": "node", "id": 2841444502, "lat": 28.5655929, "lon": 77.0526445}, {"type": "node", "id": 2841444504, "lat": 28.5657019, "lon": 77.0529925}, {"type": "node", "id": 8897815116, "lat": 28.5653788, "lon": 77.0568486}, {"type": "node", "id": 8897842517, "lat": 28.5651413, "lon": 77.0571707}, {"type": "node", "id": 8897851038, "lat": 28.5648119, "lon": 77.0519166}, {"type": "node", "id": 8897851039, "lat": 28.5646764, "lon": 77.0514579}, {"type": "node", "id": 8897851040, "lat": 28.5643325, "lon": 77.0516403}, {"type": "node", "id": 8897851041, "lat": 28.5644833, "lon": 77.052111}, {"type": "node", "id": 8897943023, "lat": 28.5660355, "lon": 77.0562195}, {"type": "node", "id": 8897943024, "lat": 28.5659065, "lon": 77.0560775}, {"type": "node", "id": 8897943025, "lat": 28.5656991, "lon": 77.0563833}, {"type": "node", "id": 8897943026, "lat": 28.5658552, "lon": 77.0564971}, {"type": "node", "id": 8897943027, "lat": 28.5657932, "lon": 77.0569593}, {"type": "node", "id": 8897943028, "lat": 28.565719, "lon": 77.0570656}, {"type": "node", "id": 8897943029, "lat": 28.5654076, "lon": 77.0567901}, {"type": "node", "id": 8897943030, "lat": 28.5654799, "lon": 77.0566936}, {"type": "node", "id": 8897943031, "lat": 28.5657286, "lon": 77.0565481}, {"type": "node", "id": 8897943032, "lat": 28.5656454, "lon": 77.0564761}, {"type": "node", "id": 8897943033, "lat": 28.5655475, "lon": 77.0566138}, {"type": "node", "id": 8897943034, "lat": 28.5656348, "lon": 77.0566862}, {"type": "node", "id": 8899075063, "lat": 28.5649461, "lon": 77.0509889}, {"type": "node", "id": 8899075065, "lat": 28.5645131, "lon": 77.0507851}, {"type": "node", "id": 8899075066, "lat": 28.5646196, "lon": 77.0511225}, {"type": "node", "id": 8900599789, "lat": 28.5649903, "lon": 77.0571607}, {"type": "node", "id": 8900599790, "lat": 28.56393, "lon": 77.056267}, {"type": "node", "id": 11691342215, "lat": 28.5667483, "lon": 77.0535217}, {"type": "node", "id": 11691342216, "lat": 28.5665949, "lon": 77.0536255}, {"type": "node", "id": 11691342217, "lat": 28.5660188, "lon": 77.0530121}, {"type": "node", "id": 11691425803, "lat": 28.5686754, "lon": 77.0508178}, {"type": "node", "id": 11691425804, "lat": 28.5685718, "lon": 77.0510679}, {"type": "node", "id": 11691425805, "lat": 28.5688743, "lon": 77.0516672}, {"type": "node", "id": 11691425806, "lat": 28.5689116, "lon": 77.0535264}, {"type": "node", "id": 11691425807, "lat": 28.5685221, "lon": 77.0542248}, {"type": "node", "id": 11691425808, "lat": 28.5670218, "lon": 77.0537718}, {"type": "node", "id": 472499956, "lat": 28.5737795, "lon": 77.050407}, {"type": "node", "id": 472499958, "lat": 28.5734752, "lon": 77.0496174}, {"type": "node", "id": 472499966, "lat": 28.5734625, "lon": 77.0481822}, {"type": "node", "id": 472499974, "lat": 28.5741814, "lon": 77.0463418}, {"type": "node", "id": 472499975, "lat": 28.5742947, "lon": 77.0462354}, {"type": "node", "id": 472499976, "lat": 28.5744787, "lon": 77.0461387}, {"type": "node", "id": 2000646055, "lat": 28.5755866, "lon": 77.0457402}, {"type": "node", "id": 2132403585, "lat": 28.5756337, "lon": 77.0454247}, {"type": "node", "id": 2132403608, "lat": 28.5755149, "lon": 77.0449572}, {"type": "node", "id": 8449240668, "lat": 28.5745867, "lon": 77.0444705}, {"type": "node", "id": 8449240669, "lat": 28.574018, "lon": 77.04438}, {"type": "node", "id": 8449240670, "lat": 28.5738856, "lon": 77.0454594}, {"type": "node", "id": 8449240672, "lat": 28.5744856, "lon": 77.0452936}, {"type": "node", "id": 9129076398, "lat": 28.5708728, "lon": 77.0466585}, {"type": "node", "id": 9129076399, "lat": 28.5709444, "lon": 77.0472223}, {"type": "node", "id": 9129076400, "lat": 28.5753002, "lon": 77.0456286}, {"type": "node", "id": 9129076401, "lat": 28.5752431, "lon": 77.0451814}, {"type": "node", "id": 9129259388, "lat": 28.5713947, "lon": 77.0451697}, {"type": "node", "id": 9917039411, "lat": 28.5712782, "lon": 77.04646}, {"type": "node", "id": 10216247266, "lat": 28.5705078, "lon": 77.0472596}, {"type": "node", "id": 10216247269, "lat": 28.5708242, "lon": 77.0466833}, {"type": "node", "id": 11549065661, "lat": 28.5721859, "lon": 77.0442117}, {"type": "node", "id": 11563283137, "lat": 28.5752429, "lon": 77.0499981}, {"type": "node", "id": 13137014112, "lat": 28.5719877, "lon": 77.0452495}, {"type": "node", "id": 13137014115, "lat": 28.5741132, "lon": 77.0441499}, {"type": "node", "id": 13137014131, "lat": 28.5707221, "lon": 77.0471532}, {"type": "node", "id": 13137014132, "lat": 28.5707497, "lon": 77.046881}, {"type": "node", "id": 13137014133, "lat": 28.5713474, "lon": 77.0450655}, {"type": "node", "id": 13315871995, "lat": 28.575761, "lon": 77.0490346}, {"type": "node", "id": 13315871996, "lat": 28.5759345, "lon": 77.0497204}, {"type": "node", "id": 13315871997, "lat": 28.5750253, "lon": 77.0492993}, {"type": "node", "id": 2000645903, "lat": 28.5713223, "lon": 77.054642}, {"type": "node", "id": 2000645937, "lat": 28.5719501, "lon": 77.0536462}, {"type": "node", "id": 2207623658, "lat": 28.5760911, "lon": 77.0564334}, {"type": "node", "id": 2207623660, "lat": 28.5752386, "lon": 77.0520172}, {"type": "node", "id": 2207623662, "lat": 28.5736846, "lon": 77.054389}, {"type": "node", "id": 2245777876, "lat": 28.5741551, "lon": 77.0528637}, {"type": "node", "id": 2245777921, "lat": 28.5738095, "lon": 77.0525639}, {"type": "node", "id": 9909530515, "lat": 28.5727959, "lon": 77.0536781}, {"type": "node", "id": 10595698793, "lat": 28.5745126, "lon": 77.0511754}, {"type": "node", "id": 13137014166, "lat": 28.5735317, "lon": 77.0528707}, {"type": "node", "id": 13137014167, "lat": 28.5742315, "lon": 77.053513}, {"type": "node", "id": 13137014168, "lat": 28.5736674, "lon": 77.0543668}, {"type": "node", "id": 13137014169, "lat": 28.5729283, "lon": 77.0537407}, {"type": "node", "id": 13137014170, "lat": 28.574535, "lon": 77.0513624}, {"type": "node", "id": 13137014171, "lat": 28.5752312, "lon": 77.0519722}, {"type": "node", "id": 13137014172, "lat": 28.5739494, "lon": 77.0532162}, {"type": "node", "id": 2000645741, "lat": 28.5657301, "lon": 77.0592634}, {"type": "node", "id": 2207623663, "lat": 28.5658663, "lon": 77.0598905}, {"type": "node", "id": 2207623664, "lat": 28.5657063, "lon": 77.0595856}, {"type": "node", "id": 2841444493, "lat": 28.5647421, "lon": 77.0575377}, {"type": "node", "id": 8897815115, "lat": 28.5661794, "lon": 77.0575566}, {"type": "node", "id": 8897842518, "lat": 28.5659739, "lon": 77.0578878}, {"type": "node", "id": 2206677298, "lat": 28.5703988, "lon": 77.0689304}, {"type": "node", "id": 2206677319, "lat": 28.5700313, "lon": 77.0699067}, {"type": "node", "id": 2353498964, "lat": 28.5652051, "lon": 77.069655}, {"type": "node", "id": 2353498968, "lat": 28.5653221, "lon": 77.0692647}, {"type": "node", "id": 2353498971, "lat": 28.565495, "lon": 77.0697669}, {"type": "node", "id": 2353498973, "lat": 28.5656033, "lon": 77.0683204}, {"type": "node", "id": 2353498974, "lat": 28.565612, "lon": 77.0693766}, {"type": "node", "id": 2353498976, "lat": 28.5657076, "lon": 77.0679737}, {"type": "node", "id": 2353498983, "lat": 28.565854, "lon": 77.0674917}, {"type": "node", "id": 2353498984, "lat": 28.5658883, "lon": 77.0698565}, {"type": "node", "id": 2353498985, "lat": 28.5658932, "lon": 77.0684323}, {"type": "node", "id": 2353498987, "lat": 28.5659307, "lon": 77.0698729}, {"type": "node", "id": 2353498988, "lat": 28.565961, "lon": 77.0696028}, {"type": "node", "id": 2353498989, "lat": 28.5660059, "lon": 77.0696202}, {"type": "node", "id": 2353498990, "lat": 28.5660078, "lon": 77.0680911}, {"type": "node", "id": 2353498994, "lat": 28.5660907, "lon": 77.0691667}, {"type": "node", "id": 2353498996, "lat": 28.5661294, "lon": 77.0689288}, {"type": "node", "id": 2353498997, "lat": 28.5661368, "lon": 77.0691845}, {"type": "node", "id": 2353498998, "lat": 28.5661911, "lon": 77.0675137}, {"type": "node", "id": 2353498999, "lat": 28.5662043, "lon": 77.0689577}, {"type": "node", "id": 2353499000, "lat": 28.5662353, "lon": 77.068573}, {"type": "node", "id": 2353499008, "lat": 28.5665018, "lon": 77.0702431}, {"type": "node", "id": 2353499014, "lat": 28.5669616, "lon": 77.0693438}, {"type": "node", "id": 2353499017, "lat": 28.5670357, "lon": 77.0700878}, {"type": "node", "id": 2353499019, "lat": 28.5670925, "lon": 77.0689037}, {"type": "node", "id": 2353499020, "lat": 28.5671173, "lon": 77.0701193}, {"type": "node", "id": 2353499021, "lat": 28.5671346, "lon": 77.0697554}, {"type": "node", "id": 2353499026, "lat": 28.567233, "lon": 77.0697934}, {"type": "node", "id": 2353499027, "lat": 28.5673251, "lon": 77.069484}, {"type": "node", "id": 2353499082, "lat": 28.5703445, "lon": 77.0682162}, {"type": "node", "id": 267194410, "lat": 28.575437, "lon": 77.0603742}, {"type": "node", "id": 1997765024, "lat": 28.5753023, "lon": 77.0606309}, {"type": "node", "id": 2000646075, "lat": 28.5759526, "lon": 77.0596168}, {"type": "node", "id": 2000646091, "lat": 28.5765855, "lon": 77.0575854}, {"type": "node", "id": 2000646102, "lat": 28.5766609, "lon": 77.0578811}, {"type": "node", "id": 9708798184, "lat": 28.5751805, "lon": 77.0629405}, {"type": "node", "id": 9708798193, "lat": 28.5767375, "lon": 77.0630514}, {"type": "node", "id": 9708798198, "lat": 28.5759783, "lon": 77.0623987}, {"type": "node", "id": 9910853138, "lat": 28.5753179, "lon": 77.0608331}, {"type": "node", "id": 9910853144, "lat": 28.5757213, "lon": 77.0607803}, {"type": "node", "id": 9910853170, "lat": 28.5761708, "lon": 77.0625682}, {"type": "node", "id": 13137014104, "lat": 28.5756614, "lon": 77.063029}, {"type": "node", "id": 413764585, "lat": 28.5724129, "lon": 77.065792}, {"type": "node", "id": 2000645942, "lat": 28.5721041, "lon": 77.0647509}, {"type": "node", "id": 2000645948, "lat": 28.5723163, "lon": 77.0655569}, {"type": "node", "id": 2000645949, "lat": 28.5723332, "lon": 77.0649323}, {"type": "node", "id": 2206677241, "lat": 28.57274, "lon": 77.070056}, {"type": "node", "id": 2206677263, "lat": 28.5710961, "lon": 77.0689089}, {"type": "node", "id": 2206677269, "lat": 28.5715295, "lon": 77.0698209}, {"type": "node", "id": 2206677272, "lat": 28.5717179, "lon": 77.0694025}, {"type": "node", "id": 2206677275, "lat": 28.5728849, "lon": 77.06955}, {"type": "node", "id": 2206677281, "lat": 28.5725848, "lon": 77.070014}, {"type": "node", "id": 2206677284, "lat": 28.5724717, "lon": 77.0703251}, {"type": "node", "id": 2206677314, "lat": 28.5710961, "lon": 77.0690591}, {"type": "node", "id": 2206677317, "lat": 28.5704445, "lon": 77.0701401}, {"type": "node", "id": 2207623661, "lat": 28.5717838, "lon": 77.064932}, {"type": "node", "id": 2207623665, "lat": 28.571676, "lon": 77.0648891}, {"type": "node", "id": 2207623666, "lat": 28.5719678, "lon": 77.0648961}, {"type": "node", "id": 2353499084, "lat": 28.5704777, "lon": 77.0681607}, {"type": "node", "id": 6195396518, "lat": 28.5726194, "lon": 77.0657286}, {"type": "node", "id": 9910853141, "lat": 28.5750597, "lon": 77.0643481}, {"type": "node", "id": 13137014173, "lat": 28.5768887, "lon": 77.0649732}, {"type": "node", "id": 13137014174, "lat": 28.5764483, "lon": 77.0654783}, {"type": "node", "id": 13137014175, "lat": 28.5756684, "lon": 77.0647401}, {"type": "node", "id": 13137014176, "lat": 28.5745536, "lon": 77.0663231}, {"type": "node", "id": 13137014177, "lat": 28.5758753, "lon": 77.0676401}, {"type": "node", "id": 2000646316, "lat": 28.5809937, "lon": 77.0467721}, {"type": "node", "id": 2000646317, "lat": 28.5810034, "lon": 77.0472124}, {"type": "node", "id": 2000646324, "lat": 28.581164, "lon": 77.0467689}, {"type": "node", "id": 2000646326, "lat": 28.5811737, "lon": 77.0459884}, {"type": "node", "id": 2000646330, "lat": 28.5813147, "lon": 77.0458804}, {"type": "node", "id": 2000646335, "lat": 28.5812916, "lon": 77.0453737}, {"type": "node", "id": 2000646383, "lat": 28.5826372, "lon": 77.0498829}, {"type": "node", "id": 2000646391, "lat": 28.5828082, "lon": 77.0487685}, {"type": "node", "id": 2131765820, "lat": 28.5811651, "lon": 77.0462047}, {"type": "node", "id": 2132403597, "lat": 28.5776349, "lon": 77.0442276}, {"type": "node", "id": 2197111654, "lat": 28.5813894, "lon": 77.045688}, {"type": "node", "id": 8566010461, "lat": 28.5791963, "lon": 77.0441418}, {"type": "node", "id": 1667584195, "lat": 28.5785442, "lon": 77.055991}, {"type": "node", "id": 1667584205, "lat": 28.5786751, "lon": 77.0557952}, {"type": "node", "id": 1667584212, "lat": 28.5789823, "lon": 77.0553359}, {"type": "node", "id": 1667584215, "lat": 28.5792228, "lon": 77.0555444}, {"type": "node", "id": 1667584218, "lat": 28.5794177, "lon": 77.0552529}, {"type": "node", "id": 1667584241, "lat": 28.5795426, "lon": 77.0568506}, {"type": "node", "id": 1667584253, "lat": 28.5801818, "lon": 77.0559039}, {"type": "node", "id": 2000646241, "lat": 28.5790973, "lon": 77.0569062}, {"type": "node", "id": 2207623659, "lat": 28.577645, "lon": 77.0540616}, {"type": "node", "id": 11229809272, "lat": 28.5803013, "lon": 77.0517458}, {"type": "node", "id": 11229809273, "lat": 28.5802662, "lon": 77.0518012}, {"type": "node", "id": 11229809274, "lat": 28.580277, "lon": 77.0518274}, {"type": "node", "id": 11229809275, "lat": 28.5802675, "lon": 77.0518428}, {"type": "node", "id": 11229809276, "lat": 28.5802283, "lon": 77.0518182}, {"type": "node", "id": 11229809277, "lat": 28.5801809, "lon": 77.0517781}, {"type": "node", "id": 11229809278, "lat": 28.5802459, "lon": 77.0516749}, {"type": "node", "id": 12951373857, "lat": 28.5772537, "lon": 77.0546588}, {"type": "node", "id": 2000646446, "lat": 28.5843621, "lon": 77.0472631}, {"type": "node", "id": 2000646470, "lat": 28.5836776, "lon": 77.047402}, {"type": "node", "id": 2000646481, "lat": 28.5850149, "lon": 77.0491802}, {"type": "node", "id": 2000646499, "lat": 28.5853199, "lon": 77.0481527}, {"type": "node", "id": 2000646516, "lat": 28.5857064, "lon": 77.0497719}, {"type": "node", "id": 2000646526, "lat": 28.5859011, "lon": 77.0473156}, {"type": "node", "id": 2000646540, "lat": 28.5861408, "lon": 77.0475386}, {"type": "node", "id": 2197111648, "lat": 28.5860655, "lon": 77.047082}, {"type": "node", "id": 2197111650, "lat": 28.5898985, "lon": 77.04444}, {"type": "node", "id": 2197111652, "lat": 28.5896174, "lon": 77.0443189}, {"type": "node", "id": 2197111653, "lat": 28.5877996, "lon": 77.0450629}, {"type": "node", "id": 2197111658, "lat": 28.5875478, "lon": 77.0448463}, {"type": "node", "id": 2197111659, "lat": 28.5863174, "lon": 77.0472986}, {"type": "node", "id": 2197111667, "lat": 28.5884416, "lon": 77.0466771}, {"type": "node", "id": 2197111672, "lat": 28.5877576, "lon": 77.044819}, {"type": "node", "id": 2197111673, "lat": 28.588782, "lon": 77.0456517}, {"type": "node", "id": 2000646452, "lat": 28.5845415, "lon": 77.0515124}, {"type": "node", "id": 2000646458, "lat": 28.5845998, "lon": 77.0567562}, {"type": "node", "id": 2000646487, "lat": 28.5850945, "lon": 77.0571439}, {"type": "node", "id": 2000646515, "lat": 28.5856129, "lon": 77.0571534}, {"type": "node", "id": 2000646524, "lat": 28.585893, "lon": 77.0570639}, {"type": "node", "id": 2000646541, "lat": 28.5861635, "lon": 77.0563816}, {"type": "node", "id": 2000646544, "lat": 28.5862909, "lon": 77.0564814}, {"type": "node", "id": 2000646563, "lat": 28.587013, "lon": 77.056946}, {"type": "node", "id": 2195322411, "lat": 28.5880438, "lon": 77.0550874}, {"type": "node", "id": 2195322432, "lat": 28.5873079, "lon": 77.0567691}, {"type": "node", "id": 2195322434, "lat": 28.5882805, "lon": 77.0552891}, {"type": "node", "id": 2195322438, "lat": 28.5872756, "lon": 77.0568183}, {"type": "node", "id": 2195322450, "lat": 28.5870389, "lon": 77.0566165}, {"type": "node", "id": 2197111656, "lat": 28.5900715, "lon": 77.0526936}, {"type": "node", "id": 2197111671, "lat": 28.5891949, "lon": 77.050906}, {"type": "node", "id": 2197183021, "lat": 28.587818, "lon": 77.0549121}, {"type": "node", "id": 2197183023, "lat": 28.5867613, "lon": 77.0564508}, {"type": "node", "id": 2197183025, "lat": 28.5865102, "lon": 77.0562272}, {"type": "node", "id": 2197183041, "lat": 28.5875525, "lon": 77.0546908}, {"type": "node", "id": 2197183043, "lat": 28.5870784, "lon": 77.0554067}, {"type": "node", "id": 2837797656, "lat": 28.585951, "lon": 77.0566795}, {"type": "node", "id": 1667424191, "lat": 28.5806027, "lon": 77.0636808}, {"type": "node", "id": 2000646146, "lat": 28.5776252, "lon": 77.0610365}, {"type": "node", "id": 2000646211, "lat": 28.5786675, "lon": 77.0575645}, {"type": "node", "id": 2000646216, "lat": 28.5787426, "lon": 77.0628802}, {"type": "node", "id": 2000646245, "lat": 28.5792393, "lon": 77.0633115}, {"type": "node", "id": 2000646247, "lat": 28.5792621, "lon": 77.0580678}, {"type": "node", "id": 2000646267, "lat": 28.5796918, "lon": 77.0574094}, {"type": "node", "id": 2000646362, "lat": 28.5818111, "lon": 77.0586399}, {"type": "node", "id": 2000646388, "lat": 28.5827016, "lon": 77.0587219}, {"type": "node", "id": 2000646406, "lat": 28.5831659, "lon": 77.0611398}, {"type": "node", "id": 2000646417, "lat": 28.5833381, "lon": 77.0608673}, {"type": "node", "id": 2837775547, "lat": 28.5778231, "lon": 77.0620137}, {"type": "node", "id": 2837777427, "lat": 28.5818239, "lon": 77.0584594}, {"type": "node", "id": 2837777430, "lat": 28.5827144, "lon": 77.0585413}, {"type": "node", "id": 9910853172, "lat": 28.5776867, "lon": 77.0610996}, {"type": "node", "id": 9910853175, "lat": 28.5777065, "lon": 77.0612079}, {"type": "node", "id": 9910853177, "lat": 28.5774293, "lon": 77.0616472}, {"type": "node", "id": 11563101903, "lat": 28.5773165, "lon": 77.0621336}, {"type": "node", "id": 11563101911, "lat": 28.5774745, "lon": 77.0622923}, {"type": "node", "id": 13137014103, "lat": 28.5775679, "lon": 77.0623135}, {"type": "node", "id": 1667424189, "lat": 28.5804719, "lon": 77.0638897}, {"type": "node", "id": 1667424197, "lat": 28.580835, "lon": 77.0641844}, {"type": "node", "id": 1667424200, "lat": 28.5809658, "lon": 77.0639755}, {"type": "node", "id": 2000646127, "lat": 28.5771962, "lon": 77.0651894}, {"type": "node", "id": 2000646141, "lat": 28.5773295, "lon": 77.0654032}, {"type": "node", "id": 2000646156, "lat": 28.5776929, "lon": 77.0656208}, {"type": "node", "id": 2000646195, "lat": 28.5783946, "lon": 77.0688511}, {"type": "node", "id": 2000646233, "lat": 28.5789297, "lon": 77.0680198}, {"type": "node", "id": 2000646281, "lat": 28.5798885, "lon": 77.0701044}, {"type": "node", "id": 2000646291, "lat": 28.5800379, "lon": 77.068976}, {"type": "node", "id": 2000646310, "lat": 28.5808019, "lon": 77.0678411}, {"type": "node", "id": 2000646325, "lat": 28.581165, "lon": 77.0681727}, {"type": "node", "id": 2000646327, "lat": 28.5811878, "lon": 77.0647133}, {"type": "node", "id": 2000646350, "lat": 28.5815982, "lon": 77.0641211}, {"type": "node", "id": 2000646374, "lat": 28.5823565, "lon": 77.0647822}, {"type": "node", "id": 2000646380, "lat": 28.5825569, "lon": 77.0644377}, {"type": "node", "id": 2000646382, "lat": 28.5826364, "lon": 77.0659537}, {"type": "node", "id": 2000646408, "lat": 28.5832302, "lon": 77.0650126}, {"type": "node", "id": 2000646442, "lat": 28.5842396, "lon": 77.0573694}, {"type": "node", "id": 2000646473, "lat": 28.5848729, "lon": 77.0593198}, {"type": "node", "id": 2000646498, "lat": 28.5853151, "lon": 77.0629603}, {"type": "node", "id": 2000646507, "lat": 28.5854965, "lon": 77.0626863}, {"type": "node", "id": 2000646509, "lat": 28.5855506, "lon": 77.0582903}, {"type": "node", "id": 2000646522, "lat": 28.5859008, "lon": 77.0584242}, {"type": "node", "id": 2000646553, "lat": 28.5865837, "lon": 77.0617236}, {"type": "node", "id": 2000646554, "lat": 28.5865874, "lon": 77.0576063}, {"type": "node", "id": 2000646556, "lat": 28.5866831, "lon": 77.0590992}, {"type": "node", "id": 2000646562, "lat": 28.5869557, "lon": 77.0620304}, {"type": "node", "id": 2000646573, "lat": 28.587401, "lon": 77.0604381}, {"type": "node", "id": 2000646577, "lat": 28.5875944, "lon": 77.05773}, {"type": "node", "id": 2000646580, "lat": 28.5877731, "lon": 77.060745}, {"type": "node", "id": 2000646589, "lat": 28.5883738, "lon": 77.0584074}, {"type": "node", "id": 2000646591, "lat": 28.5885254, "lon": 77.0581736}, {"type": "node", "id": 2195315104, "lat": 28.5899979, "lon": 77.0603141}, {"type": "node", "id": 2195315119, "lat": 28.5898767, "lon": 77.0605025}, {"type": "node", "id": 2837797643, "lat": 28.584539, "lon": 77.0599857}, {"type": "node", "id": 2837797646, "lat": 28.5847372, "lon": 77.0601448}, {"type": "node", "id": 2837797649, "lat": 28.5849299, "lon": 77.0593775}, {"type": "node", "id": 2837837214, "lat": 28.5835539, "lon": 77.0614687}, {"type": "node", "id": 2837837216, "lat": 28.5839676, "lon": 77.0618203}, {"type": "node", "id": 2837837218, "lat": 28.5843506, "lon": 77.0621517}, {"type": "node", "id": 2837837220, "lat": 28.5846678, "lon": 77.0624176}, {"type": "node", "id": 2837837222, "lat": 28.5848734, "lon": 77.0599567}, {"type": "node", "id": 2837837223, "lat": 28.5849211, "lon": 77.06263}, {"type": "node", "id": 2837837224, "lat": 28.5851523, "lon": 77.0595401}, {"type": "node", "id": 2837837226, "lat": 28.5854285, "lon": 77.0591393}, {"type": "node", "id": 2837837235, "lat": 28.5867711, "lon": 77.0624929}, {"type": "node", "id": 2837837237, "lat": 28.5870208, "lon": 77.0621177}, {"type": "node", "id": 2837837240, "lat": 28.5875481, "lon": 77.0631633}, {"type": "node", "id": 2837837242, "lat": 28.5877977, "lon": 77.0627881}, {"type": "node", "id": 2837862362, "lat": 28.5868315, "lon": 77.0613338}, {"type": "node", "id": 2837862364, "lat": 28.5870205, "lon": 77.0585863}, {"type": "node", "id": 2837862365, "lat": 28.5871009, "lon": 77.060929}, {"type": "node", "id": 2837862367, "lat": 28.587295, "lon": 77.0581767}, {"type": "node", "id": 2837925204, "lat": 28.5893366, "lon": 77.0631985}, {"type": "node", "id": 9910924155, "lat": 28.5871114, "lon": 77.0608879}, {"type": "node", "id": 11006923522, "lat": 28.5861658, "lon": 77.0586528}, {"type": "node", "id": 1478739231, "lat": 28.5886973, "lon": 77.0652887}, {"type": "node", "id": 1478739232, "lat": 28.5895064, "lon": 77.0641305}, {"type": "node", "id": 1479946509, "lat": 28.589815, "lon": 77.0666168}, {"type": "node", "id": 1479946530, "lat": 28.5899587, "lon": 77.0663986}, {"type": "node", "id": 2837924796, "lat": 28.5880816, "lon": 77.0651266}, {"type": "node", "id": 2837924800, "lat": 28.5885499, "lon": 77.0655132}, {"type": "node", "id": 4107393720, "lat": 28.5875836, "lon": 77.0649683}, {"type": "node", "id": 4107393729, "lat": 28.5876112, "lon": 77.0649267}, {"type": "node", "id": 4107393732, "lat": 28.5876407, "lon": 77.0653326}, {"type": "node", "id": 4107393737, "lat": 28.5876837, "lon": 77.0645224}, {"type": "node", "id": 4107393738, "lat": 28.5876866, "lon": 77.0648557}, {"type": "node", "id": 4107393741, "lat": 28.5876911, "lon": 77.0649336}, {"type": "node", "id": 4107394318, "lat": 28.5872079, "lon": 77.0651943}, {"type": "node", "id": 4107394331, "lat": 28.5872303, "lon": 77.065496}, {"type": "node", "id": 4107394343, "lat": 28.5872656, "lon": 77.0653706}, {"type": "node", "id": 4107394351, "lat": 28.5872856, "lon": 77.0650736}, {"type": "node", "id": 4107394362, "lat": 28.5873327, "lon": 77.0654129}, {"type": "node", "id": 4107394365, "lat": 28.587341, "lon": 77.0655866}, {"type": "node", "id": 4107394375, "lat": 28.5873669, "lon": 77.0654484}, {"type": "node", "id": 4107394376, "lat": 28.5873716, "lon": 77.0655376}, {"type": "node", "id": 4107394380, "lat": 28.5873751, "lon": 77.0654632}, {"type": "node", "id": 4107394382, "lat": 28.5873775, "lon": 77.0654799}, {"type": "node", "id": 4107394383, "lat": 28.5873775, "lon": 77.0655115}, {"type": "node", "id": 4107394386, "lat": 28.5873793, "lon": 77.0651427}, {"type": "node", "id": 4107394597, "lat": 28.5869047, "lon": 77.0649542}, {"type": "node", "id": 4107394598, "lat": 28.5869312, "lon": 77.065091}, {"type": "node", "id": 4107394623, "lat": 28.5870548, "lon": 77.0647222}, {"type": "node", "id": 4107394636, "lat": 28.5871284, "lon": 77.0647859}, {"type": "node", "id": 4107394658, "lat": 28.5878203, "lon": 77.0646411}, {"type": "node", "id": 4107394662, "lat": 28.5878272, "lon": 77.0650504}, {"type": "node", "id": 4107394696, "lat": 28.5873987, "lon": 77.0651353}, {"type": "node", "id": 4107394720, "lat": 28.5874423, "lon": 77.0651158}, {"type": "node", "id": 4107394725, "lat": 28.587457, "lon": 77.0648644}, {"type": "node", "id": 4107394738, "lat": 28.5874929, "lon": 77.065146}, {"type": "node", "id": 4107394744, "lat": 28.5875045, "lon": 77.0652158}, {"type": "node", "id": 4127209789, "lat": 28.5865399, "lon": 77.0669613}, {"type": "node", "id": 4127209790, "lat": 28.5867212, "lon": 77.0671246}, {"type": "node", "id": 4127209791, "lat": 28.5864614, "lon": 77.0675652}, {"type": "node", "id": 4127209792, "lat": 28.586126, "lon": 77.0675775}, {"type": "node", "id": 4127209793, "lat": 28.5861368, "lon": 77.0673926}, {"type": "node", "id": 4127209794, "lat": 28.586153, "lon": 77.0673556}, {"type": "node", "id": 4127209795, "lat": 28.5861801, "lon": 77.0673341}, {"type": "node", "id": 4127209796, "lat": 28.5861828, "lon": 77.0672232}, {"type": "node", "id": 4127209797, "lat": 28.5862991, "lon": 77.0672355}, {"type": "node", "id": 4127209798, "lat": 28.5863235, "lon": 77.0671862}, {"type": "node", "id": 4127209799, "lat": 28.5862152, "lon": 77.0671184}, {"type": "node", "id": 4127209800, "lat": 28.5863153, "lon": 77.066952}, {"type": "node", "id": 4127209801, "lat": 28.5864695, "lon": 77.0670968}, {"type": "node", "id": 4127209802, "lat": 28.5862938, "lon": 77.0664527}, {"type": "node", "id": 4127209803, "lat": 28.586348, "lon": 77.0665037}, {"type": "node", "id": 4127209804, "lat": 28.5862303, "lon": 77.0666995}, {"type": "node", "id": 4127209805, "lat": 28.5862727, "lon": 77.0667478}, {"type": "node", "id": 4127209806, "lat": 28.5860748, "lon": 77.0667907}, {"type": "node", "id": 12458247229, "lat": 28.5859972, "lon": 77.0664765}, {"type": "node", "id": 12458247230, "lat": 28.5861214, "lon": 77.0663167}, {"type": "node", "id": 12458247231, "lat": 28.5863004, "lon": 77.0662216}, {"type": "node", "id": 12458247232, "lat": 28.5855264, "lon": 77.066982}, {"type": "node", "id": 12458247233, "lat": 28.5860374, "lon": 77.0664155}, {"type": "node", "id": 12458247234, "lat": 28.5860912, "lon": 77.0665941}, {"type": "node", "id": 12458247235, "lat": 28.5860403, "lon": 77.0666678}, {"type": "node", "id": 12458247236, "lat": 28.5859914, "lon": 77.0667345}, {"type": "node", "id": 12458247237, "lat": 28.5866481, "lon": 77.0662304}, {"type": "node", "id": 12458247238, "lat": 28.586402, "lon": 77.0661767}, {"type": "node", "id": 12458247239, "lat": 28.586675, "lon": 77.0661918}, {"type": "node", "id": 12458247240, "lat": 28.5859424, "lon": 77.0665449}, {"type": "node", "id": 12458247241, "lat": 28.5856079, "lon": 77.0667871}, {"type": "node", "id": 12458247242, "lat": 28.586281, "lon": 77.0663411}, {"type": "node", "id": 12458247243, "lat": 28.5857492, "lon": 77.0667256}, {"type": "node", "id": 12458247244, "lat": 28.5865906, "lon": 77.0662398}, {"type": "node", "id": 12458247245, "lat": 28.586179, "lon": 77.0662737}, {"type": "node", "id": 12458247246, "lat": 28.585872, "lon": 77.0666169}, {"type": "node", "id": 12458247247, "lat": 28.5856015, "lon": 77.0669811}, {"type": "node", "id": 12458247248, "lat": 28.5863488, "lon": 77.0662018}, {"type": "node", "id": 12458247249, "lat": 28.5865728, "lon": 77.0661531}, {"type": "node", "id": 12458247250, "lat": 28.5857911, "lon": 77.066918}, {"type": "node", "id": 12458247251, "lat": 28.5854686, "lon": 77.0668149}, {"type": "node", "id": 12458247252, "lat": 28.585706, "lon": 77.0669536}, {"type": "node", "id": 12458247253, "lat": 28.5864336, "lon": 77.0662654}, {"type": "node", "id": 12458247254, "lat": 28.5853906, "lon": 77.0669019}, {"type": "node", "id": 12458247255, "lat": 28.5855359, "lon": 77.0668038}, {"type": "node", "id": 12458247256, "lat": 28.5860812, "lon": 77.0663584}, {"type": "node", "id": 12458247257, "lat": 28.5856887, "lon": 77.0667504}, {"type": "node", "id": 12458247258, "lat": 28.5858115, "lon": 77.0666722}, {"type": "node", "id": 12458247259, "lat": 28.586454, "lon": 77.0661673}, {"type": "node", "id": 12458247260, "lat": 28.5853999, "lon": 77.0668192}, {"type": "node", "id": 12458247261, "lat": 28.5853928, "lon": 77.0669863}, {"type": "node", "id": 12458247262, "lat": 28.5866964, "lon": 77.0662127}, {"type": "node", "id": 12458247263, "lat": 28.5865194, "lon": 77.0661525}, {"type": "node", "id": 12458247264, "lat": 28.5862337, "lon": 77.0663943}, {"type": "node", "id": 12458247265, "lat": 28.586303, "lon": 77.066294}, {"type": "node", "id": 12458247266, "lat": 28.5865129, "lon": 77.0662525}, {"type": "node", "id": 12458247267, "lat": 28.5866304, "lon": 77.0661531}, {"type": "node", "id": 12458247268, "lat": 28.586235, "lon": 77.0662481}, {"type": "node", "id": 12458247269, "lat": 28.5866838, "lon": 77.0662246}, {"type": "node", "id": 12458247270, "lat": 28.586191, "lon": 77.0664531}, {"type": "node", "id": 12458247271, "lat": 28.5854521, "lon": 77.0670105}, {"type": "node", "id": 12458247272, "lat": 28.5861409, "lon": 77.0665195}, {"type": "node", "id": 12458247273, "lat": 28.5858673, "lon": 77.066866}, {"type": "node", "id": 12458247274, "lat": 28.5863684, "lon": 77.066276}, {"type": "node", "id": 12458247275, "lat": 28.5859302, "lon": 77.0667964}, {"type": "node", "id": 12554464517, "lat": 28.5884903, "lon": 77.0697249}, {"type": "node", "id": 12554464542, "lat": 28.5891784, "lon": 77.0702847}, {"type": "node", "id": 12554464543, "lat": 28.5888621, "lon": 77.0700284}, {"type": "node", "id": 12554464544, "lat": 28.5885162, "lon": 77.0697451}, {"type": "node", "id": 12554466837, "lat": 28.5884342, "lon": 77.0697013}, {"type": "node", "id": 12554466838, "lat": 28.5879131, "lon": 77.0696659}, {"type": "node", "id": 12554466839, "lat": 28.5877402, "lon": 77.0696497}, {"type": "node", "id": 12554466840, "lat": 28.5877661, "lon": 77.0694207}, {"type": "node", "id": 12554466841, "lat": 28.5877768, "lon": 77.0693736}, {"type": "node", "id": 12554466842, "lat": 28.5877975, "lon": 77.0693247}, {"type": "node", "id": 12554466843, "lat": 28.5878047, "lon": 77.0691794}, {"type": "node", "id": 12554466844, "lat": 28.5878386, "lon": 77.0691722}, {"type": "node", "id": 12554466845, "lat": 28.5878721, "lon": 77.069178}, {"type": "node", "id": 12554466846, "lat": 28.5884587, "lon": 77.0696576}, {"type": "node", "id": 728300509, "lat": 28.5920363, "lon": 77.0440217}, {"type": "node", "id": 2000516417, "lat": 28.5909345, "lon": 77.0423804}, {"type": "node", "id": 2000516427, "lat": 28.5914614, "lon": 77.0415862}, {"type": "node", "id": 2000516504, "lat": 28.5924548, "lon": 77.0433834}, {"type": "node", "id": 2195215719, "lat": 28.5922307, "lon": 77.0431899}, {"type": "node", "id": 2195222159, "lat": 28.5923821, "lon": 77.0423834}, {"type": "node", "id": 2195222162, "lat": 28.5928258, "lon": 77.0427646}, {"type": "node", "id": 2195222164, "lat": 28.5933728, "lon": 77.0439957}, {"type": "node", "id": 2195222166, "lat": 28.5922988, "lon": 77.043087}, {"type": "node", "id": 2195222171, "lat": 28.5926623, "lon": 77.0430115}, {"type": "node", "id": 2195222172, "lat": 28.5923173, "lon": 77.0432664}, {"type": "node", "id": 8815664821, "lat": 28.5965773, "lon": 77.043622}, {"type": "node", "id": 8815664822, "lat": 28.5962862, "lon": 77.0433656}, {"type": "node", "id": 8815664823, "lat": 28.5961148, "lon": 77.0436179}, {"type": "node", "id": 8815664824, "lat": 28.5964059, "lon": 77.0438744}, {"type": "node", "id": 12538610080, "lat": 28.5948007, "lon": 77.0437737}, {"type": "node", "id": 12538862393, "lat": 28.5907199, "lon": 77.0409534}, {"type": "node", "id": 12538870735, "lat": 28.5902176, "lon": 77.0405283}, {"type": "node", "id": 12538870804, "lat": 28.5906887, "lon": 77.0409269}, {"type": "node", "id": 12538993100, "lat": 28.5925921, "lon": 77.0431191}, {"type": "node", "id": 12538994811, "lat": 28.5934636, "lon": 77.0438565}, {"type": "node", "id": 12538994813, "lat": 28.5919868, "lon": 77.0429803}, {"type": "node", "id": 12629818761, "lat": 28.5964909, "lon": 77.0437492}, {"type": "node", "id": 13227591557, "lat": 28.5933914, "lon": 77.0439672}, {"type": "node", "id": 2195208394, "lat": 28.5982947, "lon": 77.0415506}, {"type": "node", "id": 2195208465, "lat": 28.5987464, "lon": 77.0419447}, {"type": "node", "id": 2195208471, "lat": 28.5986071, "lon": 77.0410863}, {"type": "node", "id": 2195208494, "lat": 28.5990587, "lon": 77.0414805}, {"type": "node", "id": 12579202241, "lat": 28.5997686, "lon": 77.0440312}, {"type": "node", "id": 12579202242, "lat": 28.5997139, "lon": 77.0440182}, {"type": "node", "id": 12579202244, "lat": 28.5998015, "lon": 77.044}, {"type": "node", "id": 12579202247, "lat": 28.5996787, "lon": 77.0439801}, {"type": "node", "id": 12579202250, "lat": 28.5996509, "lon": 77.0439706}, {"type": "node", "id": 12579202251, "lat": 28.5998995, "lon": 77.0440306}, {"type": "node", "id": 12579202252, "lat": 28.5996248, "lon": 77.0440707}, {"type": "node", "id": 2195212936, "lat": 28.5954499, "lon": 77.0444871}, {"type": "node", "id": 2195212959, "lat": 28.5961909, "lon": 77.0480157}, {"type": "node", "id": 2195212993, "lat": 28.5962232, "lon": 77.0449781}, {"type": "node", "id": 2195212998, "lat": 28.5961477, "lon": 77.0450912}, {"type": "node", "id": 2195213005, "lat": 28.5955254, "lon": 77.044374}, {"type": "node", "id": 2195213014, "lat": 28.5963323, "lon": 77.0481363}, {"type": "node", "id": 2195222165, "lat": 28.5914555, "lon": 77.0452359}, {"type": "node", "id": 2195222168, "lat": 28.5916325, "lon": 77.0449658}, {"type": "node", "id": 2195222169, "lat": 28.5911795, "lon": 77.0450011}, {"type": "node", "id": 2195222170, "lat": 28.5917357, "lon": 77.0448085}, {"type": "node", "id": 2195222177, "lat": 28.5915975, "lon": 77.044691}, {"type": "node", "id": 2197111646, "lat": 28.5912938, "lon": 77.046631}, {"type": "node", "id": 2197111647, "lat": 28.5915124, "lon": 77.0490714}, {"type": "node", "id": 2197111649, "lat": 28.591095, "lon": 77.0469362}, {"type": "node", "id": 2197111661, "lat": 28.5919507, "lon": 77.0461734}, {"type": "node", "id": 2197111663, "lat": 28.5915253, "lon": 77.0468265}, {"type": "node", "id": 2197111664, "lat": 28.591258, "lon": 77.0477946}, {"type": "node", "id": 2197111665, "lat": 28.5904917, "lon": 77.0484088}, {"type": "node", "id": 2197111669, "lat": 28.5913245, "lon": 77.04713}, {"type": "node", "id": 2197111670, "lat": 28.5913523, "lon": 77.049243}, {"type": "node", "id": 4640453356, "lat": 28.5934343, "lon": 77.0503007}, {"type": "node", "id": 4640453357, "lat": 28.5935332, "lon": 77.0503597}, {"type": "node", "id": 4640453358, "lat": 28.5937593, "lon": 77.0500272}, {"type": "node", "id": 4640453359, "lat": 28.5927654, "lon": 77.0492064}, {"type": "node", "id": 4640453360, "lat": 28.5923274, "lon": 77.0497267}, {"type": "node", "id": 4640453361, "lat": 28.5918422, "lon": 77.0498394}, {"type": "node", "id": 4640453362, "lat": 28.5919082, "lon": 77.050467}, {"type": "node", "id": 4640453363, "lat": 28.5924122, "lon": 77.0504295}, {"type": "node", "id": 4640453364, "lat": 28.5926712, "lon": 77.0506333}, {"type": "node", "id": 4640466646, "lat": 28.5930363, "lon": 77.0472564}, {"type": "node", "id": 4640466647, "lat": 28.5929609, "lon": 77.047184}, {"type": "node", "id": 4640466648, "lat": 28.5925558, "lon": 77.0477956}, {"type": "node", "id": 4640466649, "lat": 28.5926665, "lon": 77.0479243}, {"type": "node", "id": 4640466650, "lat": 28.592285, "lon": 77.0485063}, {"type": "node", "id": 4640466651, "lat": 28.5925252, "lon": 77.0487236}, {"type": "node", "id": 4640466652, "lat": 28.5931611, "lon": 77.0477178}, {"type": "node", "id": 4640466653, "lat": 28.5933, "lon": 77.0474951}, {"type": "node", "id": 4640466654, "lat": 28.5931446, "lon": 77.0473503}, {"type": "node", "id": 4862004830, "lat": 28.5944118, "lon": 77.0496609}, {"type": "node", "id": 4862004831, "lat": 28.5942059, "lon": 77.0494604}, {"type": "node", "id": 4862004832, "lat": 28.5943747, "lon": 77.0491389}, {"type": "node", "id": 4862004833, "lat": 28.5944597, "lon": 77.0492229}, {"type": "node", "id": 5284592038, "lat": 28.5945327, "lon": 77.049067}, {"type": "node", "id": 5284592039, "lat": 28.5945803, "lon": 77.0493947}, {"type": "node", "id": 5332647364, "lat": 28.5946018, "lon": 77.0492731}, {"type": "node", "id": 5332647365, "lat": 28.5945487, "lon": 77.0493594}, {"type": "node", "id": 8815664741, "lat": 28.596635, "lon": 77.0466963}, {"type": "node", "id": 11224611698, "lat": 28.5946634, "lon": 77.0491757}, {"type": "node", "id": 12538610081, "lat": 28.5947835, "lon": 77.0452314}, {"type": "node", "id": 12538610082, "lat": 28.5954079, "lon": 77.0443042}, {"type": "node", "id": 12538610083, "lat": 28.5941762, "lon": 77.044701}, {"type": "node", "id": 12646857249, "lat": 28.5941505, "lon": 77.046007}, {"type": "node", "id": 12646857250, "lat": 28.5947618, "lon": 77.04533}, {"type": "node", "id": 12646857251, "lat": 28.5946339, "lon": 77.0452312}, {"type": "node", "id": 12646857252, "lat": 28.5942621, "lon": 77.0460879}, {"type": "node", "id": 1667420935, "lat": 28.5907228, "lon": 77.0532921}, {"type": "node", "id": 2000646636, "lat": 28.5928551, "lon": 77.0552412}, {"type": "node", "id": 2195322442, "lat": 28.5937776, "lon": 77.0546398}, {"type": "node", "id": 2197111655, "lat": 28.5904451, "lon": 77.0520368}, {"type": "node", "id": 2197111657, "lat": 28.5919552, "lon": 77.0522793}, {"type": "node", "id": 2197111668, "lat": 28.5937516, "lon": 77.0539573}, {"type": "node", "id": 4640453355, "lat": 28.5930433, "lon": 77.0509391}, {"type": "node", "id": 4640453365, "lat": 28.5928926, "lon": 77.0508318}, {"type": "node", "id": 7308243231, "lat": 28.5957554, "lon": 77.0564557}, {"type": "node", "id": 7308243235, "lat": 28.5965711, "lon": 77.05242}, {"type": "node", "id": 7308243237, "lat": 28.5964997, "lon": 77.0544121}, {"type": "node", "id": 7308243238, "lat": 28.5956787, "lon": 77.0537372}, {"type": "node", "id": 7308243239, "lat": 28.5943436, "lon": 77.0537616}, {"type": "node", "id": 7308243240, "lat": 28.5938796, "lon": 77.0544365}, {"type": "node", "id": 7308243248, "lat": 28.5960927, "lon": 77.0562985}, {"type": "node", "id": 9910790184, "lat": 28.5951485, "lon": 77.0544091}, {"type": "node", "id": 1637471071, "lat": 28.5997398, "lon": 77.0486244}, {"type": "node", "id": 1637471074, "lat": 28.5987919, "lon": 77.0499521}, {"type": "node", "id": 1637471075, "lat": 28.5987225, "lon": 77.0496544}, {"type": "node", "id": 1637471076, "lat": 28.5994196, "lon": 77.0486459}, {"type": "node", "id": 1637471117, "lat": 28.5989252, "lon": 77.0491896}, {"type": "node", "id": 1637471118, "lat": 28.5986831, "lon": 77.0489807}, {"type": "node", "id": 2000516928, "lat": 28.5992265, "lon": 77.050084}, {"type": "node", "id": 2000516934, "lat": 28.6000082, "lon": 77.0488822}, {"type": "node", "id": 2128976179, "lat": 28.5987655, "lon": 77.0504987}, {"type": "node", "id": 2128976189, "lat": 28.5989352, "lon": 77.0502463}, {"type": "node", "id": 2128976215, "lat": 28.5996133, "lon": 77.0481094}, {"type": "node", "id": 2128976237, "lat": 28.5986148, "lon": 77.0496275}, {"type": "node", "id": 2128976274, "lat": 28.5980685, "lon": 77.0499247}, {"type": "node", "id": 2128976293, "lat": 28.5993202, "lon": 77.0485767}, {"type": "node", "id": 2128976317, "lat": 28.5983844, "lon": 77.0501848}, {"type": "node", "id": 2128976332, "lat": 28.6001832, "lon": 77.047221}, {"type": "node", "id": 2128976351, "lat": 28.6004093, "lon": 77.0474302}, {"type": "node", "id": 2128976353, "lat": 28.5987137, "lon": 77.0500159}, {"type": "node", "id": 2128976357, "lat": 28.5986054, "lon": 77.0498582}, {"type": "node", "id": 2128976363, "lat": 28.5986478, "lon": 77.049944}, {"type": "node", "id": 2128976365, "lat": 28.5986007, "lon": 77.0497401}, {"type": "node", "id": 2128976368, "lat": 28.5997028, "lon": 77.0485299}, {"type": "node", "id": 2195212947, "lat": 28.5976576, "lon": 77.0463479}, {"type": "node", "id": 2195212948, "lat": 28.596837, "lon": 77.047032}, {"type": "node", "id": 2195212954, "lat": 28.5983456, "lon": 77.0469435}, {"type": "node", "id": 2195212956, "lat": 28.5982402, "lon": 77.0471014}, {"type": "node", "id": 2195212961, "lat": 28.5975522, "lon": 77.0465059}, {"type": "node", "id": 2195213003, "lat": 28.5969785, "lon": 77.0471526}, {"type": "node", "id": 8815664739, "lat": 28.5975123, "lon": 77.046275}, {"type": "node", "id": 8815664740, "lat": 28.5970179, "lon": 77.047024}, {"type": "node", "id": 8815664742, "lat": 28.5971295, "lon": 77.0459472}, {"type": "node", "id": 8815664743, "lat": 28.5985319, "lon": 77.0460698}, {"type": "node", "id": 8815664744, "lat": 28.5984021, "lon": 77.0462633}, {"type": "node", "id": 8815664745, "lat": 28.5985972, "lon": 77.0464331}, {"type": "node", "id": 8815664746, "lat": 28.598727, "lon": 77.0462395}, {"type": "node", "id": 8815664794, "lat": 28.598706, "lon": 77.0498086}, {"type": "node", "id": 12579202245, "lat": 28.5998698, "lon": 77.0441536}, {"type": "node", "id": 1637471072, "lat": 28.5999353, "lon": 77.0509781}, {"type": "node", "id": 2000516935, "lat": 28.6000488, "lon": 77.0508066}, {"type": "node", "id": 2128976252, "lat": 28.5996934, "lon": 77.0522958}, {"type": "node", "id": 2128976255, "lat": 28.5991847, "lon": 77.0518505}, {"type": "node", "id": 2128976267, "lat": 28.5993336, "lon": 77.0519938}, {"type": "node", "id": 2128976319, "lat": 28.5997546, "lon": 77.0509844}, {"type": "node", "id": 2128976340, "lat": 28.6003434, "lon": 77.0521831}, {"type": "node", "id": 2128976345, "lat": 28.6000325, "lon": 77.0525854}, {"type": "node", "id": 2128976349, "lat": 28.5999383, "lon": 77.0511478}, {"type": "node", "id": 2195225144, "lat": 28.5989257, "lon": 77.0563189}, {"type": "node", "id": 2195225149, "lat": 28.5987509, "lon": 77.0562183}, {"type": "node", "id": 2195225166, "lat": 28.6015962, "lon": 77.0562438}, {"type": "node", "id": 2195225169, "lat": 28.5988603, "lon": 77.0521545}, {"type": "node", "id": 2195225182, "lat": 28.5999289, "lon": 77.0557181}, {"type": "node", "id": 2195225185, "lat": 28.5992495, "lon": 77.0524874}, {"type": "node", "id": 2195225191, "lat": 28.5986466, "lon": 77.0534017}, {"type": "node", "id": 2195225193, "lat": 28.5997169, "lon": 77.056909}, {"type": "node", "id": 2195225196, "lat": 28.5989346, "lon": 77.0549845}, {"type": "node", "id": 2195225197, "lat": 28.6015585, "lon": 77.0560828}, {"type": "node", "id": 2195225198, "lat": 28.6003669, "lon": 77.055069}, {"type": "node", "id": 2195225200, "lat": 28.5982574, "lon": 77.0530688}, {"type": "node", "id": 2195225202, "lat": 28.5998625, "lon": 77.0567011}, {"type": "node", "id": 7306012358, "lat": 28.5998321, "lon": 77.0566879}, {"type": "node", "id": 7308243233, "lat": 28.5984914, "lon": 77.0534689}, {"type": "node", "id": 7308243234, "lat": 28.596878, "lon": 77.0521436}, {"type": "node", "id": 7308243236, "lat": 28.5973278, "lon": 77.0530461}, {"type": "node", "id": 7308243243, "lat": 28.5966924, "lon": 77.0568676}, {"type": "node", "id": 7308243244, "lat": 28.5974634, "lon": 77.0557456}, {"type": "node", "id": 7308243245, "lat": 28.5982987, "lon": 77.0564448}, {"type": "node", "id": 7308243246, "lat": 28.5985914, "lon": 77.0554285}, {"type": "node", "id": 7308243247, "lat": 28.5977276, "lon": 77.0546804}, {"type": "node", "id": 2195295669, "lat": 28.5956664, "lon": 77.0596392}, {"type": "node", "id": 2195295706, "lat": 28.5960239, "lon": 77.0591312}, {"type": "node", "id": 2195295728, "lat": 28.5962316, "lon": 77.0589847}, {"type": "node", "id": 2195299939, "lat": 28.5941121, "lon": 77.0620896}, {"type": "node", "id": 2195299942, "lat": 28.5939425, "lon": 77.0635756}, {"type": "node", "id": 2195299943, "lat": 28.5937621, "lon": 77.0599455}, {"type": "node", "id": 2195299944, "lat": 28.5930717, "lon": 77.0610165}, {"type": "node", "id": 2195299948, "lat": 28.5943947, "lon": 77.0636238}, {"type": "node", "id": 2195315037, "lat": 28.5915096, "lon": 77.0613171}, {"type": "node", "id": 2195315044, "lat": 28.5936356, "lon": 77.0598257}, {"type": "node", "id": 2195315061, "lat": 28.5908115, "lon": 77.0612827}, {"type": "node", "id": 2195315072, "lat": 28.5902529, "lon": 77.0605269}, {"type": "node", "id": 2195315074, "lat": 28.5906032, "lon": 77.0608193}, {"type": "node", "id": 2195315092, "lat": 28.5913632, "lon": 77.0615445}, {"type": "node", "id": 2195315099, "lat": 28.59128, "lon": 77.0616738}, {"type": "node", "id": 2195315102, "lat": 28.5909029, "lon": 77.0608107}, {"type": "node", "id": 2195315106, "lat": 28.5929288, "lon": 77.0608797}, {"type": "node", "id": 2195315123, "lat": 28.5904138, "lon": 77.0609508}, {"type": "node", "id": 2195322422, "lat": 28.5949127, "lon": 77.0602724}, {"type": "node", "id": 2195322428, "lat": 28.5918417, "lon": 77.0577082}, {"type": "node", "id": 2195322444, "lat": 28.5918224, "lon": 77.0575594}, {"type": "node", "id": 2837925224, "lat": 28.5907946, "lon": 77.0609791}, {"type": "node", "id": 2837925244, "lat": 28.592117, "lon": 77.0623882}, {"type": "node", "id": 2837925248, "lat": 28.592605, "lon": 77.0630209}, {"type": "node", "id": 2837925255, "lat": 28.5929968, "lon": 77.0624642}, {"type": "node", "id": 2837925268, "lat": 28.5936982, "lon": 77.0630761}, {"type": "node", "id": 2837957799, "lat": 28.5915922, "lon": 77.0619278}, {"type": "node", "id": 2837957800, "lat": 28.5921163, "lon": 77.0637589}, {"type": "node", "id": 2837957901, "lat": 28.5921271, "lon": 77.061102}, {"type": "node", "id": 2837957903, "lat": 28.5924, "lon": 77.0613492}, {"type": "node", "id": 2837957905, "lat": 28.5926127, "lon": 77.0616297}, {"type": "node", "id": 2837957906, "lat": 28.592706, "lon": 77.0608988}, {"type": "node", "id": 2837957907, "lat": 28.5929439, "lon": 77.0610961}, {"type": "node", "id": 2837957908, "lat": 28.5937618, "lon": 77.0626452}, {"type": "node", "id": 7305972569, "lat": 28.5923841, "lon": 77.0613348}, {"type": "node", "id": 7305985632, "lat": 28.5908016, "lon": 77.0609682}, {"type": "node", "id": 7308243232, "lat": 28.5958572, "lon": 77.058911}, {"type": "node", "id": 1478739235, "lat": 28.5901355, "lon": 77.0646806}, {"type": "node", "id": 1479946576, "lat": 28.5904559, "lon": 77.0668234}, {"type": "node", "id": 1479946586, "lat": 28.5908379, "lon": 77.0662436}, {"type": "node", "id": 2195299940, "lat": 28.5958477, "lon": 77.0648631}, {"type": "node", "id": 2195299946, "lat": 28.5964007, "lon": 77.0640543}, {"type": "node", "id": 2837925209, "lat": 28.5902395, "lon": 77.0640016}, {"type": "node", "id": 2837925216, "lat": 28.5904192, "lon": 77.0645641}, {"type": "node", "id": 2837925217, "lat": 28.590425, "lon": 77.067138}, {"type": "node", "id": 2837925221, "lat": 28.5905079, "lon": 77.0638688}, {"type": "node", "id": 2837925226, "lat": 28.5908374, "lon": 77.0646248}, {"type": "node", "id": 2837925227, "lat": 28.5909507, "lon": 77.06634}, {"type": "node", "id": 2837925231, "lat": 28.5910922, "lon": 77.0639395}, {"type": "node", "id": 2837925232, "lat": 28.5911365, "lon": 77.0649112}, {"type": "node", "id": 2837925273, "lat": 28.5942286, "lon": 77.0672877}, {"type": "node", "id": 2837925281, "lat": 28.5948815, "lon": 77.0662636}, {"type": "node", "id": 2837925298, "lat": 28.5958366, "lon": 77.0670667}, {"type": "node", "id": 2837925300, "lat": 28.5959298, "lon": 77.0667395}, {"type": "node", "id": 2837925303, "lat": 28.596038, "lon": 77.0676956}, {"type": "node", "id": 2837925304, "lat": 28.5963999, "lon": 77.0666078}, {"type": "node", "id": 2837935071, "lat": 28.5964364, "lon": 77.0682895}, {"type": "node", "id": 2837957902, "lat": 28.5922715, "lon": 77.063898}, {"type": "node", "id": 2837957904, "lat": 28.5914841, "lon": 77.0650608}, {"type": "node", "id": 3589084354, "lat": 28.594342, "lon": 77.0675446}, {"type": "node", "id": 4107279283, "lat": 28.5914164, "lon": 77.0651661}, {"type": "node", "id": 4107285245, "lat": 28.5953415, "lon": 77.0644313}, {"type": "node", "id": 4159055233, "lat": 28.5962692, "lon": 77.067018}, {"type": "node", "id": 4159055234, "lat": 28.5961656, "lon": 77.0673479}, {"type": "node", "id": 4159055265, "lat": 28.5946863, "lon": 77.0660967}, {"type": "node", "id": 4159055266, "lat": 28.593266, "lon": 77.0682196}, {"type": "node", "id": 4159055267, "lat": 28.5943157, "lon": 77.069147}, {"type": "node", "id": 4159055268, "lat": 28.5944347, "lon": 77.0689775}, {"type": "node", "id": 4159055269, "lat": 28.593872, "lon": 77.0678406}, {"type": "node", "id": 4159055272, "lat": 28.5943291, "lon": 77.0672885}, {"type": "node", "id": 7305894274, "lat": 28.5955533, "lon": 77.0653525}, {"type": "node", "id": 7305894275, "lat": 28.5952219, "lon": 77.0650783}, {"type": "node", "id": 7305894276, "lat": 28.5954099, "lon": 77.0647316}, {"type": "node", "id": 7305894277, "lat": 28.5952435, "lon": 77.0646053}, {"type": "node", "id": 7305894278, "lat": 28.5953517, "lon": 77.0644543}, {"type": "node", "id": 7305894279, "lat": 28.5958576, "lon": 77.0648811}, {"type": "node", "id": 9724549189, "lat": 28.5943689, "lon": 77.0677956}, {"type": "node", "id": 9724549190, "lat": 28.5945839, "lon": 77.0675217}, {"type": "node", "id": 9914224332, "lat": 28.5942857, "lon": 77.0688303}, {"type": "node", "id": 9914224346, "lat": 28.5941787, "lon": 77.0677704}, {"type": "node", "id": 11979825933, "lat": 28.5966384, "lon": 77.0696191}, {"type": "node", "id": 11979825936, "lat": 28.5963496, "lon": 77.0695697}, {"type": "node", "id": 11979825937, "lat": 28.596533, "lon": 77.0696863}, {"type": "node", "id": 11979825940, "lat": 28.5965646, "lon": 77.0690416}, {"type": "node", "id": 11979825941, "lat": 28.5963714, "lon": 77.0696396}, {"type": "node", "id": 11979825942, "lat": 28.5963807, "lon": 77.0695327}, {"type": "node", "id": 11979825944, "lat": 28.5965164, "lon": 77.0680868}, {"type": "node", "id": 11979825945, "lat": 28.5966456, "lon": 77.0686714}, {"type": "node", "id": 11979825946, "lat": 28.5964368, "lon": 77.0692453}, {"type": "node", "id": 11979825950, "lat": 28.5965797, "lon": 77.0688535}, {"type": "node", "id": 11979825952, "lat": 28.5966282, "lon": 77.069449}, {"type": "node", "id": 11979825959, "lat": 28.5965879, "lon": 77.0697211}, {"type": "node", "id": 11979825961, "lat": 28.5964328, "lon": 77.0694234}, {"type": "node", "id": 11979825962, "lat": 28.5964669, "lon": 77.0691677}, {"type": "node", "id": 11979825964, "lat": 28.596597, "lon": 77.0687747}, {"type": "node", "id": 11979825966, "lat": 28.5964907, "lon": 77.0690753}, {"type": "node", "id": 11979825967, "lat": 28.5966106, "lon": 77.0689445}, {"type": "node", "id": 11979990173, "lat": 28.5964478, "lon": 77.0693505}, {"type": "node", "id": 11979990174, "lat": 28.5964017, "lon": 77.0696897}, {"type": "node", "id": 11979990176, "lat": 28.5965169, "lon": 77.069694}, {"type": "node", "id": 11979990177, "lat": 28.5965722, "lon": 77.069679}, {"type": "node", "id": 11979990179, "lat": 28.5966191, "lon": 77.0695559}, {"type": "node", "id": 11979990180, "lat": 28.5964397, "lon": 77.0693287}, {"type": "node", "id": 11979990181, "lat": 28.5965523, "lon": 77.0697382}, {"type": "node", "id": 11979990185, "lat": 28.5966059, "lon": 77.0687498}, {"type": "node", "id": 11979990187, "lat": 28.5963669, "lon": 77.0694549}, {"type": "node", "id": 11979990188, "lat": 28.5964122, "lon": 77.0693676}, {"type": "node", "id": 11979990190, "lat": 28.5963614, "lon": 77.0694694}, {"type": "node", "id": 11979990194, "lat": 28.5966256, "lon": 77.0696532}, {"type": "node", "id": 11979990195, "lat": 28.5966176, "lon": 77.0688374}, {"type": "node", "id": 11979990196, "lat": 28.5964635, "lon": 77.0693173}, {"type": "node", "id": 11979990197, "lat": 28.5965411, "lon": 77.0689748}, {"type": "node", "id": 11979990203, "lat": 28.5964981, "lon": 77.0696432}, {"type": "node", "id": 11979990206, "lat": 28.5965873, "lon": 77.0688752}, {"type": "node", "id": 11979990207, "lat": 28.5964868, "lon": 77.0692214}, {"type": "node", "id": 11979990208, "lat": 28.5963424, "lon": 77.0695478}, {"type": "node", "id": 12555769171, "lat": 28.5912166, "lon": 77.0682521}, {"type": "node", "id": 12555769172, "lat": 28.591175, "lon": 77.0682385}, {"type": "node", "id": 12555808010, "lat": 28.5907619, "lon": 77.0680444}, {"type": "node", "id": 12555808011, "lat": 28.5906538, "lon": 77.0679442}, {"type": "node", "id": 12555808012, "lat": 28.5903797, "lon": 77.0683707}, {"type": "node", "id": 12555808013, "lat": 28.5904832, "lon": 77.0684594}, {"type": "node", "id": 12704673156, "lat": 28.5911897, "lon": 77.0682217}, {"type": "node", "id": 12704673157, "lat": 28.5912019, "lon": 77.0682689}, {"type": "node", "id": 2195225153, "lat": 28.6001502, "lon": 77.0572845}, {"type": "node", "id": 2195225167, "lat": 28.5998601, "lon": 77.0577748}, {"type": "node", "id": 2195225192, "lat": 28.6003104, "lon": 77.058175}, {"type": "node", "id": 2195295666, "lat": 28.597183, "lon": 77.0585126}, {"type": "node", "id": 2195295679, "lat": 28.5988275, "lon": 77.0623796}, {"type": "node", "id": 2195295686, "lat": 28.5990769, "lon": 77.0620108}, {"type": "node", "id": 2195295689, "lat": 28.5977571, "lon": 77.0598071}, {"type": "node", "id": 2195295691, "lat": 28.5970134, "lon": 77.0586092}, {"type": "node", "id": 2195295703, "lat": 28.5982752, "lon": 77.0606117}, {"type": "node", "id": 2195322448, "lat": 28.5969757, "lon": 77.0582715}, {"type": "node", "id": 7306012354, "lat": 28.5973373, "lon": 77.0588605}, {"type": "node", "id": 7306012356, "lat": 28.5968872, "lon": 77.0586698}, {"type": "node", "id": 7308243241, "lat": 28.597235, "lon": 77.0580466}, {"type": "node", "id": 7308243242, "lat": 28.5975562, "lon": 77.0576076}, {"type": "node", "id": 2837935080, "lat": 28.5972711, "lon": 77.0686978}, {"type": "node", "id": 2837935084, "lat": 28.5974982, "lon": 77.0690143}, {"type": "node", "id": 2837935088, "lat": 28.5976699, "lon": 77.0696347}, {"type": "node", "id": 2837935090, "lat": 28.597778, "lon": 77.0700001}, {"type": "node", "id": 2837945702, "lat": 28.5986216, "lon": 77.0686478}, {"type": "node", "id": 2837957909, "lat": 28.5968806, "lon": 77.0700477}, {"type": "node", "id": 2837957910, "lat": 28.5973976, "lon": 77.0700477}, {"type": "node", "id": 2837957911, "lat": 28.5979305, "lon": 77.0672023}, {"type": "node", "id": 2837957912, "lat": 28.5980307, "lon": 77.066977}, {"type": "node", "id": 2837957913, "lat": 28.598189, "lon": 77.0668147}, {"type": "node", "id": 2837957914, "lat": 28.5983631, "lon": 77.0679054}, {"type": "node", "id": 2837957915, "lat": 28.5986665, "lon": 77.067641}, {"type": "node", "id": 7305090533, "lat": 28.5990936, "lon": 77.0699645}, {"type": "node", "id": 7305090538, "lat": 28.5985337, "lon": 77.0700231}, {"type": "node", "id": 11979825934, "lat": 28.5973437, "lon": 77.0685115}, {"type": "node", "id": 11979825935, "lat": 28.5966983, "lon": 77.0694205}, {"type": "node", "id": 11979825938, "lat": 28.596717, "lon": 77.0686967}, {"type": "node", "id": 11979825939, "lat": 28.596867, "lon": 77.0687419}, {"type": "node", "id": 11979825947, "lat": 28.5967724, "lon": 77.069214}, {"type": "node", "id": 11979825948, "lat": 28.5968644, "lon": 77.0689461}, {"type": "node", "id": 11979825953, "lat": 28.5968111, "lon": 77.0689718}, {"type": "node", "id": 11979825954, "lat": 28.5967756, "lon": 77.0690644}, {"type": "node", "id": 11979825956, "lat": 28.5966761, "lon": 77.069353}, {"type": "node", "id": 11979825957, "lat": 28.596889, "lon": 77.0688117}, {"type": "node", "id": 11979825958, "lat": 28.5968773, "lon": 77.068912}, {"type": "node", "id": 11979825968, "lat": 28.5967012, "lon": 77.0687049}, {"type": "node", "id": 11979990169, "lat": 28.596649, "lon": 77.0695194}, {"type": "node", "id": 11979990170, "lat": 28.5967524, "lon": 77.0691604}, {"type": "node", "id": 11979990171, "lat": 28.5968323, "lon": 77.0686981}, {"type": "node", "id": 11979990175, "lat": 28.5966808, "lon": 77.0686534}, {"type": "node", "id": 11979990178, "lat": 28.5967993, "lon": 77.0690529}, {"type": "node", "id": 11979990183, "lat": 28.5967912, "lon": 77.0690311}, {"type": "node", "id": 11979990184, "lat": 28.5967369, "lon": 77.068747}, {"type": "node", "id": 11979990186, "lat": 28.5968267, "lon": 77.069014}, {"type": "node", "id": 11979990189, "lat": 28.5967507, "lon": 77.0693213}, {"type": "node", "id": 11979990193, "lat": 28.5966573, "lon": 77.0695407}, {"type": "node", "id": 11979990199, "lat": 28.5968962, "lon": 77.0688336}, {"type": "node", "id": 11979990200, "lat": 28.5968023, "lon": 77.0691363}, {"type": "node", "id": 11979990204, "lat": 28.5966647, "lon": 77.0687197}, {"type": "node", "id": 11979990209, "lat": 28.596858, "lon": 77.0688488}, {"type": "node", "id": 10983035647, "lat": 28.5559798, "lon": 77.0897007}, {"type": "node", "id": 10983466398, "lat": 28.553471, "lon": 77.0879931}, {"type": "node", "id": 10983466399, "lat": 28.5538382, "lon": 77.0864166}, {"type": "node", "id": 10983466400, "lat": 28.5539282, "lon": 77.0864416}, {"type": "node", "id": 10983466401, "lat": 28.5535637, "lon": 77.0880211}, {"type": "node", "id": 10983506225, "lat": 28.5537858, "lon": 77.0860286}, {"type": "node", "id": 10983506226, "lat": 28.553792, "lon": 77.0860375}, {"type": "node", "id": 10983506227, "lat": 28.5537942, "lon": 77.0860516}, {"type": "node", "id": 10983506228, "lat": 28.5536709, "lon": 77.0862716}, {"type": "node", "id": 10983506229, "lat": 28.5536524, "lon": 77.0862742}, {"type": "node", "id": 10983506230, "lat": 28.5535689, "lon": 77.0859578}, {"type": "node", "id": 10983506231, "lat": 28.5535224, "lon": 77.085827}, {"type": "node", "id": 10983506232, "lat": 28.5534793, "lon": 77.0857339}, {"type": "node", "id": 10983506233, "lat": 28.5534339, "lon": 77.0856675}, {"type": "node", "id": 10983506234, "lat": 28.5534092, "lon": 77.0856458}, {"type": "node", "id": 10983506235, "lat": 28.5533963, "lon": 77.0856407}, {"type": "node", "id": 10983506236, "lat": 28.5533885, "lon": 77.0856292}, {"type": "node", "id": 10983506237, "lat": 28.5533907, "lon": 77.0856171}, {"type": "node", "id": 10983506238, "lat": 28.5534014, "lon": 77.0856133}, {"type": "node", "id": 10983506239, "lat": 28.5534165, "lon": 77.0856101}, {"type": "node", "id": 10983506240, "lat": 28.5534423, "lon": 77.0856146}, {"type": "node", "id": 10983506241, "lat": 28.553463, "lon": 77.085628}, {"type": "node", "id": 10983506242, "lat": 28.5534821, "lon": 77.0856477}, {"type": "node", "id": 10983506243, "lat": 28.5533915, "lon": 77.0858245}, {"type": "node", "id": 10983506244, "lat": 28.5534145, "lon": 77.0858299}, {"type": "node", "id": 10983506245, "lat": 28.5534423, "lon": 77.0858506}, {"type": "node", "id": 10983506246, "lat": 28.5535072, "lon": 77.0859706}, {"type": "node", "id": 10983506247, "lat": 28.553531, "lon": 77.0860257}, {"type": "node", "id": 10983506248, "lat": 28.5536079, "lon": 77.0863035}, {"type": "node", "id": 10983506249, "lat": 28.5536079, "lon": 77.0863171}, {"type": "node", "id": 10983506250, "lat": 28.5536031, "lon": 77.0863288}, {"type": "node", "id": 10983506251, "lat": 28.5535928, "lon": 77.0863342}, {"type": "node", "id": 10983506252, "lat": 28.5535778, "lon": 77.0863297}, {"type": "node", "id": 10983506253, "lat": 28.5534922, "lon": 77.0862683}, {"type": "node", "id": 10983506254, "lat": 28.5533527, "lon": 77.0861294}, {"type": "node", "id": 10983506255, "lat": 28.5533337, "lon": 77.0860969}, {"type": "node", "id": 10983506256, "lat": 28.5533266, "lon": 77.0860635}, {"type": "node", "id": 10983506257, "lat": 28.5533281, "lon": 77.0860329}, {"type": "node", "id": 10983506258, "lat": 28.5533709, "lon": 77.0858416}, {"type": "node", "id": 10983506259, "lat": 28.5533804, "lon": 77.0858263}, {"type": "node", "id": 10983506260, "lat": 28.5537962, "lon": 77.0859489}, {"type": "node", "id": 10983506261, "lat": 28.5534571, "lon": 77.0855366}, {"type": "node", "id": 10983506262, "lat": 28.5534523, "lon": 77.0855195}, {"type": "node", "id": 10983506263, "lat": 28.5534563, "lon": 77.0854933}, {"type": "node", "id": 10983506264, "lat": 28.55348, "lon": 77.0854563}, {"type": "node", "id": 10983506265, "lat": 28.5535236, "lon": 77.0854229}, {"type": "node", "id": 10983506266, "lat": 28.5535561, "lon": 77.085413}, {"type": "node", "id": 10983506267, "lat": 28.5535949, "lon": 77.0854193}, {"type": "node", "id": 10983506268, "lat": 28.5536322, "lon": 77.0854464}, {"type": "node", "id": 10983506269, "lat": 28.5536591, "lon": 77.0854897}, {"type": "node", "id": 10983506270, "lat": 28.5537851, "lon": 77.0857261}, {"type": "node", "id": 10983506271, "lat": 28.5537994, "lon": 77.0857892}, {"type": "node", "id": 10983506272, "lat": 28.5538041, "lon": 77.0858578}, {"type": "node", "id": 10983506273, "lat": 28.5537994, "lon": 77.0859128}, {"type": "node", "id": 10983506274, "lat": 28.5537916, "lon": 77.0863722}, {"type": "node", "id": 10983506275, "lat": 28.5537837, "lon": 77.086381}, {"type": "node", "id": 10983506276, "lat": 28.5537725, "lon": 77.0863837}, {"type": "node", "id": 10983506277, "lat": 28.5537571, "lon": 77.0863745}, {"type": "node", "id": 10983506278, "lat": 28.553716, "lon": 77.0863701}, {"type": "node", "id": 10983506279, "lat": 28.5536982, "lon": 77.0863796}, {"type": "node", "id": 10983506280, "lat": 28.5536851, "lon": 77.0863822}, {"type": "node", "id": 10983506281, "lat": 28.5536761, "lon": 77.0863746}, {"type": "node", "id": 10983506282, "lat": 28.553675, "lon": 77.0863605}, {"type": "node", "id": 10983506283, "lat": 28.5536778, "lon": 77.0863389}, {"type": "node", "id": 10983506284, "lat": 28.5538072, "lon": 77.0861258}, {"type": "node", "id": 10983506285, "lat": 28.5538196, "lon": 77.0861194}, {"type": "node", "id": 10983506286, "lat": 28.5538313, "lon": 77.0861213}, {"type": "node", "id": 10983506287, "lat": 28.5538397, "lon": 77.0861309}, {"type": "node", "id": 10983506288, "lat": 28.553842, "lon": 77.0861481}, {"type": "node", "id": 10983506293, "lat": 28.5540851, "lon": 77.0863984}, {"type": "node", "id": 10983506294, "lat": 28.5540343, "lon": 77.0863614}, {"type": "node", "id": 10983506295, "lat": 28.5539717, "lon": 77.086291}, {"type": "node", "id": 10983506296, "lat": 28.5539361, "lon": 77.0862279}, {"type": "node", "id": 10983506297, "lat": 28.5539052, "lon": 77.0861656}, {"type": "node", "id": 10983506298, "lat": 28.5539012, "lon": 77.0861232}, {"type": "node", "id": 10983506299, "lat": 28.5539733, "lon": 77.0857885}, {"type": "node", "id": 10983506300, "lat": 28.5539979, "lon": 77.0857849}, {"type": "node", "id": 10983506301, "lat": 28.5541881, "lon": 77.0861575}, {"type": "node", "id": 10983506302, "lat": 28.55415, "lon": 77.0862188}, {"type": "node", "id": 10983506303, "lat": 28.5541088, "lon": 77.0863118}, {"type": "node", "id": 10983506304, "lat": 28.5540652, "lon": 77.0864706}, {"type": "node", "id": 10983518105, "lat": 28.5540518, "lon": 77.08654}, {"type": "node", "id": 10983518106, "lat": 28.5540169, "lon": 77.0865698}, {"type": "node", "id": 10983518107, "lat": 28.5539757, "lon": 77.0866041}, {"type": "node", "id": 10983518108, "lat": 28.5539622, "lon": 77.0865932}, {"type": "node", "id": 10983518109, "lat": 28.5540034, "lon": 77.0864318}, {"type": "node", "id": 10983518110, "lat": 28.5540169, "lon": 77.0864236}, {"type": "node", "id": 10983518111, "lat": 28.5540431, "lon": 77.0864534}, {"type": "node", "id": 10983518112, "lat": 28.5538695, "lon": 77.0862432}, {"type": "node", "id": 10983518113, "lat": 28.5538857, "lon": 77.0862482}, {"type": "node", "id": 10983518114, "lat": 28.5539337, "lon": 77.0863226}, {"type": "node", "id": 10983518115, "lat": 28.5539472, "lon": 77.086356}, {"type": "node", "id": 10983518116, "lat": 28.5539559, "lon": 77.086402}, {"type": "node", "id": 10983518117, "lat": 28.5539543, "lon": 77.0864489}, {"type": "node", "id": 10983518118, "lat": 28.5535192, "lon": 77.0883715}, {"type": "node", "id": 10983518119, "lat": 28.5534907, "lon": 77.0883624}, {"type": "node", "id": 10983518120, "lat": 28.5538549, "lon": 77.0862528}, {"type": "node", "id": 10983518121, "lat": 28.5533945, "lon": 77.0882544}, {"type": "node", "id": 10983518122, "lat": 28.5533987, "lon": 77.0883365}, {"type": "node", "id": 10983518123, "lat": 28.5534514, "lon": 77.0881476}, {"type": "node", "id": 10983518124, "lat": 28.5534099, "lon": 77.0883314}, {"type": "node", "id": 10983518125, "lat": 28.5533904, "lon": 77.088323}, {"type": "node", "id": 10983518126, "lat": 28.5537679, "lon": 77.0865025}, {"type": "node", "id": 10983518127, "lat": 28.5537713, "lon": 77.0864769}, {"type": "node", "id": 10983518128, "lat": 28.5537651, "lon": 77.0864573}, {"type": "node", "id": 10983518129, "lat": 28.5537417, "lon": 77.086438}, {"type": "node", "id": 10983518130, "lat": 28.5537225, "lon": 77.0864384}, {"type": "node", "id": 10983518131, "lat": 28.5536968, "lon": 77.0864608}, {"type": "node", "id": 10983518132, "lat": 28.5536951, "lon": 77.0864826}, {"type": "node", "id": 10983518133, "lat": 28.5537012, "lon": 77.0865012}, {"type": "node", "id": 10983518134, "lat": 28.5537219, "lon": 77.0865344}, {"type": "node", "id": 10983518135, "lat": 28.5537276, "lon": 77.086549}, {"type": "node", "id": 10983518136, "lat": 28.5537264, "lon": 77.0865707}, {"type": "node", "id": 10983518137, "lat": 28.5533667, "lon": 77.088133}, {"type": "node", "id": 10983518138, "lat": 28.5533885, "lon": 77.0881413}, {"type": "node", "id": 10983518139, "lat": 28.5537538, "lon": 77.0864439}, {"type": "node", "id": 10983518140, "lat": 28.5537094, "lon": 77.0864455}, {"type": "node", "id": 10983518141, "lat": 28.5537368, "lon": 77.0863675}, {"type": "node", "id": 10989524720, "lat": 28.5567892, "lon": 77.088748}, {"type": "node", "id": 10989524721, "lat": 28.5563309, "lon": 77.0886039}, {"type": "node", "id": 10989524722, "lat": 28.5561566, "lon": 77.0893546}, {"type": "node", "id": 10989524733, "lat": 28.5565992, "lon": 77.0897254}, {"type": "node", "id": 10989524734, "lat": 28.5566046, "lon": 77.0895505}, {"type": "node", "id": 10989524735, "lat": 28.5566369, "lon": 77.0893878}, {"type": "node", "id": 10983035646, "lat": 28.5559249, "lon": 77.0903757}, {"type": "node", "id": 10983035648, "lat": 28.5556649, "lon": 77.0901932}, {"type": "node", "id": 10983035649, "lat": 28.5556806, "lon": 77.0902188}, {"type": "node", "id": 10983035650, "lat": 28.5557456, "lon": 77.09022}, {"type": "node", "id": 10983035651, "lat": 28.5558072, "lon": 77.0902404}, {"type": "node", "id": 10983035652, "lat": 28.5558554, "lon": 77.0902749}, {"type": "node", "id": 10983035653, "lat": 28.5558958, "lon": 77.0903259}, {"type": "node", "id": 10989524723, "lat": 28.556002, "lon": 77.0908483}, {"type": "node", "id": 10989524724, "lat": 28.555302, "lon": 77.093821}, {"type": "node", "id": 10989524725, "lat": 28.5558682, "lon": 77.091825}, {"type": "node", "id": 10989524726, "lat": 28.5558984, "lon": 77.0917325}, {"type": "node", "id": 10989524727, "lat": 28.5559604, "lon": 77.0916404}, {"type": "node", "id": 10989524728, "lat": 28.5561976, "lon": 77.0914286}, {"type": "node", "id": 10989524729, "lat": 28.5562677, "lon": 77.0914041}, {"type": "node", "id": 10989524730, "lat": 28.5567825, "lon": 77.0915575}, {"type": "node", "id": 10989524731, "lat": 28.5567582, "lon": 77.0910911}, {"type": "node", "id": 10989524732, "lat": 28.5566801, "lon": 77.0907565}, {"type": "node", "id": 10989581708, "lat": 28.5553989, "lon": 77.0938469}, {"type": "node", "id": 2206677230, "lat": 28.5690514, "lon": 77.0740373}, {"type": "node", "id": 2206677234, "lat": 28.5694283, "lon": 77.0742197}, {"type": "node", "id": 2206677303, "lat": 28.568618, "lon": 77.0736618}, {"type": "node", "id": 2353498959, "lat": 28.5649239, "lon": 77.0705993}, {"type": "node", "id": 2353498966, "lat": 28.5652139, "lon": 77.0707112}, {"type": "node", "id": 2353498972, "lat": 28.5655625, "lon": 77.0709514}, {"type": "node", "id": 2353498979, "lat": 28.5657671, "lon": 77.0723876}, {"type": "node", "id": 2353498981, "lat": 28.5658416, "lon": 77.0721471}, {"type": "node", "id": 2353498982, "lat": 28.5658425, "lon": 77.0710594}, {"type": "node", "id": 2353498992, "lat": 28.5660692, "lon": 77.0711469}, {"type": "node", "id": 2353499002, "lat": 28.5662679, "lon": 77.0704793}, {"type": "node", "id": 2353499005, "lat": 28.5664147, "lon": 77.0705359}, {"type": "node", "id": 2353499007, "lat": 28.5664881, "lon": 77.0726771}, {"type": "node", "id": 2353499011, "lat": 28.5665626, "lon": 77.0724367}, {"type": "node", "id": 2353499016, "lat": 28.5670209, "lon": 77.0704433}, {"type": "node", "id": 2353499046, "lat": 28.5679968, "lon": 77.0721453}, {"type": "node", "id": 2353499053, "lat": 28.5681676, "lon": 77.0716029}, {"type": "node", "id": 2353499056, "lat": 28.5682984, "lon": 77.0722684}, {"type": "node", "id": 2353499062, "lat": 28.5684692, "lon": 77.071726}, {"type": "node", "id": 2206677237, "lat": 28.5682411, "lon": 77.0775349}, {"type": "node", "id": 2206677259, "lat": 28.5676003, "lon": 77.0769126}, {"type": "node", "id": 2206677261, "lat": 28.5685991, "lon": 77.0778675}, {"type": "node", "id": 2206677266, "lat": 28.5677228, "lon": 77.0769556}, {"type": "node", "id": 2206677311, "lat": 28.5683447, "lon": 77.0770628}, {"type": "node", "id": 12819987650, "lat": 28.5730709, "lon": 77.0727757}, {"type": "node", "id": 12819987651, "lat": 28.5742376, "lon": 77.0735981}, {"type": "node", "id": 12819987652, "lat": 28.5731172, "lon": 77.0731041}, {"type": "node", "id": 12819987653, "lat": 28.5730332, "lon": 77.0728743}, {"type": "node", "id": 12819987654, "lat": 28.5741778, "lon": 77.0734045}, {"type": "node", "id": 12819987655, "lat": 28.5741448, "lon": 77.0737679}, {"type": "node", "id": 12819987656, "lat": 28.574119, "lon": 77.0735224}, {"type": "node", "id": 12819987657, "lat": 28.5732101, "lon": 77.0729753}, {"type": "node", "id": 2837721512, "lat": 28.5792585, "lon": 77.0746321}, {"type": "node", "id": 2837721517, "lat": 28.5799022, "lon": 77.0752967}, {"type": "node", "id": 2837721518, "lat": 28.5799076, "lon": 77.0747343}, {"type": "node", "id": 2837721520, "lat": 28.5800791, "lon": 77.0753112}, {"type": "node", "id": 2837721532, "lat": 28.5816067, "lon": 77.0733907}, {"type": "node", "id": 4107456917, "lat": 28.5793691, "lon": 77.0743701}, {"type": "node", "id": 4107456918, "lat": 28.579958, "lon": 77.0745954}, {"type": "node", "id": 4107456919, "lat": 28.5800768, "lon": 77.0753947}, {"type": "node", "id": 4107456920, "lat": 28.58017, "lon": 77.0747242}, {"type": "node", "id": 4107456921, "lat": 28.5807765, "lon": 77.074358}, {"type": "node", "id": 4107456922, "lat": 28.5807777, "lon": 77.0754336}, {"type": "node", "id": 4107456924, "lat": 28.5812493, "lon": 77.0730844}, {"type": "node", "id": 4107456925, "lat": 28.5816056, "lon": 77.0743715}, {"type": "node", "id": 4107456929, "lat": 28.5817163, "lon": 77.0743352}, {"type": "node", "id": 4107456930, "lat": 28.5817245, "lon": 77.0734689}, {"type": "node", "id": 4107456931, "lat": 28.5817434, "lon": 77.0743795}, {"type": "node", "id": 4107456932, "lat": 28.5817622, "lon": 77.0733817}, {"type": "node", "id": 4107456934, "lat": 28.5825571, "lon": 77.0743956}, {"type": "node", "id": 4107456935, "lat": 28.582583, "lon": 77.0721653}, {"type": "node", "id": 4107456938, "lat": 28.5825972, "lon": 77.0722498}, {"type": "node", "id": 5331016222, "lat": 28.5810388, "lon": 77.0743612}, {"type": "node", "id": 6831705259, "lat": 28.5798091, "lon": 77.0735396}, {"type": "node", "id": 6831705260, "lat": 28.5804753, "lon": 77.072561}, {"type": "node", "id": 6831705261, "lat": 28.5811614, "lon": 77.0731375}, {"type": "node", "id": 12421982978, "lat": 28.585932, "lon": 77.0721246}, {"type": "node", "id": 12421982979, "lat": 28.5857717, "lon": 77.0725028}, {"type": "node", "id": 12421982980, "lat": 28.586536, "lon": 77.0731943}, {"type": "node", "id": 12421982981, "lat": 28.5864686, "lon": 77.0731436}, {"type": "node", "id": 12421982982, "lat": 28.586589, "lon": 77.072184}, {"type": "node", "id": 12421982983, "lat": 28.5857564, "lon": 77.0727572}, {"type": "node", "id": 12421982984, "lat": 28.5857904, "lon": 77.0722896}, {"type": "node", "id": 12421982985, "lat": 28.5865776, "lon": 77.072297}, {"type": "node", "id": 12421982986, "lat": 28.5865699, "lon": 77.0724917}, {"type": "node", "id": 12421982987, "lat": 28.5858092, "lon": 77.0721128}, {"type": "node", "id": 12421982988, "lat": 28.5865609, "lon": 77.0727289}, {"type": "node", "id": 12421982989, "lat": 28.5861215, "lon": 77.0721377}, {"type": "node", "id": 12421982990, "lat": 28.5862556, "lon": 77.0731175}, {"type": "node", "id": 12421982991, "lat": 28.5860467, "lon": 77.0730239}, {"type": "node", "id": 12421982992, "lat": 28.5863401, "lon": 77.0721477}, {"type": "node", "id": 12421982993, "lat": 28.5865573, "lon": 77.0731058}, {"type": "node", "id": 12421982994, "lat": 28.5865703, "lon": 77.0731397}, {"type": "node", "id": 12421982995, "lat": 28.585775, "lon": 77.072931}, {"type": "node", "id": 12421982996, "lat": 28.5857838, "lon": 77.0730356}, {"type": "node", "id": 12472974713, "lat": 28.5873618, "lon": 77.0736513}, {"type": "node", "id": 12472981829, "lat": 28.5868983, "lon": 77.0741487}, {"type": "node", "id": 12472981830, "lat": 28.5869411, "lon": 77.0734043}, {"type": "node", "id": 12472981831, "lat": 28.5874302, "lon": 77.0731272}, {"type": "node", "id": 12472981832, "lat": 28.5867189, "lon": 77.0741098}, {"type": "node", "id": 12472981833, "lat": 28.5871579, "lon": 77.0731053}, {"type": "node", "id": 12472981834, "lat": 28.5867083, "lon": 77.0737182}, {"type": "node", "id": 12472981835, "lat": 28.5873861, "lon": 77.0735211}, {"type": "node", "id": 12472981836, "lat": 28.5869745, "lon": 77.0731251}, {"type": "node", "id": 12472981837, "lat": 28.5867375, "lon": 77.0733892}, {"type": "node", "id": 12472981838, "lat": 28.5868544, "lon": 77.0734133}, {"type": "node", "id": 12472981839, "lat": 28.5872687, "lon": 77.074142}, {"type": "node", "id": 12472981840, "lat": 28.5867387, "lon": 77.0741277}, {"type": "node", "id": 12472981841, "lat": 28.5873298, "lon": 77.0738228}, {"type": "node", "id": 12472981842, "lat": 28.5873697, "lon": 77.0731376}, {"type": "node", "id": 12472981843, "lat": 28.5867383, "lon": 77.0734373}, {"type": "node", "id": 12472981844, "lat": 28.586968, "lon": 77.0732796}, {"type": "node", "id": 12472981845, "lat": 28.5869745, "lon": 77.0730917}, {"type": "node", "id": 12554440590, "lat": 28.5900729, "lon": 77.0736628}, {"type": "node", "id": 12554440591, "lat": 28.5899592, "lon": 77.0735844}, {"type": "node", "id": 12554440592, "lat": 28.5899681, "lon": 77.0734312}, {"type": "node", "id": 12554440593, "lat": 28.5898131, "lon": 77.0733512}, {"type": "node", "id": 12554440594, "lat": 28.5898402, "lon": 77.0732711}, {"type": "node", "id": 12554440595, "lat": 28.5897537, "lon": 77.0731761}, {"type": "node", "id": 12554440596, "lat": 28.5896306, "lon": 77.073118}, {"type": "node", "id": 12554440597, "lat": 28.5895177, "lon": 77.0730863}, {"type": "node", "id": 12554440598, "lat": 28.5894381, "lon": 77.0730885}, {"type": "node", "id": 12554440599, "lat": 28.5893981, "lon": 77.0731194}, {"type": "node", "id": 12554440600, "lat": 28.5894274, "lon": 77.0731775}, {"type": "node", "id": 12554452701, "lat": 28.5892567, "lon": 77.0736399}, {"type": "node", "id": 12554452702, "lat": 28.5893102, "lon": 77.0736854}, {"type": "node", "id": 12554452703, "lat": 28.5893102, "lon": 77.0738292}, {"type": "node", "id": 12554452704, "lat": 28.5894854, "lon": 77.0739119}, {"type": "node", "id": 12554452705, "lat": 28.5896724, "lon": 77.0739085}, {"type": "node", "id": 12554452706, "lat": 28.5897581, "lon": 77.0739181}, {"type": "node", "id": 12554452707, "lat": 28.5898005, "lon": 77.0738921}, {"type": "node", "id": 12554452708, "lat": 28.5899145, "lon": 77.0739069}, {"type": "node", "id": 12554452709, "lat": 28.5900042, "lon": 77.0739353}, {"type": "node", "id": 12554464518, "lat": 28.5883743, "lon": 77.0706242}, {"type": "node", "id": 12554464519, "lat": 28.5884619, "lon": 77.0706367}, {"type": "node", "id": 12554464520, "lat": 28.5884621, "lon": 77.0706892}, {"type": "node", "id": 12554464521, "lat": 28.5886652, "lon": 77.0707086}, {"type": "node", "id": 12554464522, "lat": 28.5886682, "lon": 77.0706737}, {"type": "node", "id": 12554464523, "lat": 28.5887308, "lon": 77.0706771}, {"type": "node", "id": 12554464524, "lat": 28.5887325, "lon": 77.0707134}, {"type": "node", "id": 12554464525, "lat": 28.5889364, "lon": 77.0707423}, {"type": "node", "id": 12554464526, "lat": 28.5889627, "lon": 77.0706426}, {"type": "node", "id": 12554464527, "lat": 28.5890186, "lon": 77.0706929}, {"type": "node", "id": 12554464528, "lat": 28.5891016, "lon": 77.0706828}, {"type": "node", "id": 12554464529, "lat": 28.5891594, "lon": 77.0706372}, {"type": "node", "id": 12554464530, "lat": 28.589221, "lon": 77.070645}, {"type": "node", "id": 12554464531, "lat": 28.5894484, "lon": 77.0708148}, {"type": "node", "id": 12554464532, "lat": 28.5895874, "lon": 77.0709039}, {"type": "node", "id": 12554464533, "lat": 28.5896583, "lon": 77.0709045}, {"type": "node", "id": 12554464534, "lat": 28.5896976, "lon": 77.0709303}, {"type": "node", "id": 12554464535, "lat": 28.5898489, "lon": 77.0710058}, {"type": "node", "id": 12554464536, "lat": 28.5898578, "lon": 77.0710627}, {"type": "node", "id": 12554464537, "lat": 28.5900828, "lon": 77.0710944}, {"type": "node", "id": 12554464538, "lat": 28.5900817, "lon": 77.0710192}, {"type": "node", "id": 12554464539, "lat": 28.5899419, "lon": 77.0709097}, {"type": "node", "id": 12554464540, "lat": 28.5897169, "lon": 77.0707256}, {"type": "node", "id": 12554464541, "lat": 28.5894908, "lon": 77.0705427}, {"type": "node", "id": 7382998670, "lat": 28.5890947, "lon": 77.0894963}, {"type": "node", "id": 7382998671, "lat": 28.5888026, "lon": 77.08944}, {"type": "node", "id": 7382998672, "lat": 28.588792, "lon": 77.0895567}, {"type": "node", "id": 7382998673, "lat": 28.5888156, "lon": 77.0895835}, {"type": "node", "id": 7382998674, "lat": 28.5888038, "lon": 77.0895983}, {"type": "node", "id": 7382998675, "lat": 28.5887803, "lon": 77.0896439}, {"type": "node", "id": 7382998676, "lat": 28.5888109, "lon": 77.0896613}, {"type": "node", "id": 7382998677, "lat": 28.5887555, "lon": 77.0898249}, {"type": "node", "id": 7382998682, "lat": 28.589097, "lon": 77.0895272}, {"type": "node", "id": 7382998683, "lat": 28.589786, "lon": 77.0895992}, {"type": "node", "id": 7383006485, "lat": 28.5891671, "lon": 77.089931}, {"type": "node", "id": 7383006486, "lat": 28.5891839, "lon": 77.0895737}, {"type": "node", "id": 11738339150, "lat": 28.5877521, "lon": 77.0868736}, {"type": "node", "id": 11738339151, "lat": 28.5877277, "lon": 77.0872441}, {"type": "node", "id": 11738339152, "lat": 28.5872532, "lon": 77.0872271}, {"type": "node", "id": 11738339153, "lat": 28.5872505, "lon": 77.0868582}, {"type": "node", "id": 7382998678, "lat": 28.5887143, "lon": 77.0900247}, {"type": "node", "id": 7382998679, "lat": 28.5890028, "lon": 77.0900636}, {"type": "node", "id": 7382998680, "lat": 28.5890134, "lon": 77.0900019}, {"type": "node", "id": 7382998681, "lat": 28.5890806, "lon": 77.0900086}, {"type": "node", "id": 7382998684, "lat": 28.5897468, "lon": 77.0900298}, {"type": "node", "id": 1478739453, "lat": 28.5933207, "lon": 77.0730896}, {"type": "node", "id": 1667356196, "lat": 28.5905611, "lon": 77.0711382}, {"type": "node", "id": 1667356209, "lat": 28.5915317, "lon": 77.0728062}, {"type": "node", "id": 1667356214, "lat": 28.5918361, "lon": 77.0715831}, {"type": "node", "id": 2837721569, "lat": 28.5901476, "lon": 77.0742496}, {"type": "node", "id": 2837721571, "lat": 28.5902912, "lon": 77.0738481}, {"type": "node", "id": 2837721572, "lat": 28.590377, "lon": 77.0734019}, {"type": "node", "id": 2837721573, "lat": 28.5905001, "lon": 77.0744175}, {"type": "node", "id": 2837721574, "lat": 28.5905188, "lon": 77.0710421}, {"type": "node", "id": 2837721575, "lat": 28.5905462, "lon": 77.0711436}, {"type": "node", "id": 2837721580, "lat": 28.5908994, "lon": 77.0746257}, {"type": "node", "id": 2837721582, "lat": 28.591006, "lon": 77.0733295}, {"type": "node", "id": 2837721583, "lat": 28.5911158, "lon": 77.0739926}, {"type": "node", "id": 2837721584, "lat": 28.5911099, "lon": 77.0726837}, {"type": "node", "id": 2837721585, "lat": 28.5912487, "lon": 77.0736424}, {"type": "node", "id": 2837721586, "lat": 28.5915731, "lon": 77.0734782}, {"type": "node", "id": 2837721587, "lat": 28.5915889, "lon": 77.0725763}, {"type": "node", "id": 2837721588, "lat": 28.5918884, "lon": 77.0714867}, {"type": "node", "id": 2837721590, "lat": 28.5922645, "lon": 77.0728208}, {"type": "node", "id": 2837721599, "lat": 28.5925136, "lon": 77.0729005}, {"type": "node", "id": 2837721602, "lat": 28.5926413, "lon": 77.0712104}, {"type": "node", "id": 2837721604, "lat": 28.5928118, "lon": 77.0743833}, {"type": "node", "id": 2837721605, "lat": 28.5928193, "lon": 77.0736524}, {"type": "node", "id": 2837721607, "lat": 28.5928421, "lon": 77.0745214}, {"type": "node", "id": 2837721608, "lat": 28.5928856, "lon": 77.0713532}, {"type": "node", "id": 2837721609, "lat": 28.5929925, "lon": 77.0745214}, {"type": "node", "id": 2837721613, "lat": 28.5931771, "lon": 77.0735929}, {"type": "node", "id": 2837935058, "lat": 28.595543, "lon": 77.0712951}, {"type": "node", "id": 2837935059, "lat": 28.595599, "lon": 77.0713822}, {"type": "node", "id": 2837935060, "lat": 28.5956139, "lon": 77.070581}, {"type": "node", "id": 2837935061, "lat": 28.5956139, "lon": 77.0713269}, {"type": "node", "id": 2837935063, "lat": 28.5956699, "lon": 77.0714523}, {"type": "node", "id": 2837935064, "lat": 28.5956829, "lon": 77.071397}, {"type": "node", "id": 2837935066, "lat": 28.5957874, "lon": 77.0706683}, {"type": "node", "id": 2837935068, "lat": 28.5961543, "lon": 77.0717531}, {"type": "node", "id": 2837935069, "lat": 28.5962146, "lon": 77.0715479}, {"type": "node", "id": 2841690763, "lat": 28.5954128, "lon": 77.0711666}, {"type": "node", "id": 2841690764, "lat": 28.595413, "lon": 77.0713107}, {"type": "node", "id": 2841690765, "lat": 28.5954362, "lon": 77.0710439}, {"type": "node", "id": 2841690768, "lat": 28.5954757, "lon": 77.0714371}, {"type": "node", "id": 2841690770, "lat": 28.5955489, "lon": 77.0715103}, {"type": "node", "id": 2841690772, "lat": 28.5956872, "lon": 77.0715872}, {"type": "node", "id": 2841690774, "lat": 28.5958375, "lon": 77.0716678}, {"type": "node", "id": 2841690777, "lat": 28.595934, "lon": 77.0717008}, {"type": "node", "id": 2841690779, "lat": 28.5960466, "lon": 77.0717246}, {"type": "node", "id": 3583031658, "lat": 28.5947751, "lon": 77.0750571}, {"type": "node", "id": 3583031660, "lat": 28.5947923, "lon": 77.0754247}, {"type": "node", "id": 6831705257, "lat": 28.5904347, "lon": 77.0731973}, {"type": "node", "id": 6831705258, "lat": 28.5905694, "lon": 77.0726469}, {"type": "node", "id": 7383006494, "lat": 28.5947552, "lon": 77.0745761}, {"type": "node", "id": 7383006495, "lat": 28.594492, "lon": 77.0745572}, {"type": "node", "id": 7383006496, "lat": 28.5943755, "lon": 77.0750768}, {"type": "node", "id": 7383006497, "lat": 28.5947768, "lon": 77.0746027}, {"type": "node", "id": 7383006498, "lat": 28.5942922, "lon": 77.0754486}, {"type": "node", "id": 7383006499, "lat": 28.5942156, "lon": 77.0757482}, {"type": "node", "id": 7383006500, "lat": 28.5949184, "lon": 77.0761503}, {"type": "node", "id": 7383006501, "lat": 28.5949783, "lon": 77.0760024}, {"type": "node", "id": 7383006502, "lat": 28.5947918, "lon": 77.0759948}, {"type": "node", "id": 7383006503, "lat": 28.5949544, "lon": 77.0739896}, {"type": "node", "id": 7383006504, "lat": 28.5946119, "lon": 77.0739541}, {"type": "node", "id": 7383006505, "lat": 28.5945353, "lon": 77.0743296}, {"type": "node", "id": 7383006506, "lat": 28.5946253, "lon": 77.074341}, {"type": "node", "id": 7383006507, "lat": 28.5946452, "lon": 77.0741513}, {"type": "node", "id": 7383006508, "lat": 28.5949583, "lon": 77.0741627}, {"type": "node", "id": 7383006509, "lat": 28.5949972, "lon": 77.0750969}, {"type": "node", "id": 7383006510, "lat": 28.5948994, "lon": 77.0750969}, {"type": "node", "id": 7383006511, "lat": 28.5949018, "lon": 77.0754107}, {"type": "node", "id": 7383006512, "lat": 28.5950101, "lon": 77.0754081}, {"type": "node", "id": 7383006513, "lat": 28.5951832, "lon": 77.0754215}, {"type": "node", "id": 7383006514, "lat": 28.5951891, "lon": 77.0760759}, {"type": "node", "id": 7383006515, "lat": 28.5950254, "lon": 77.0760639}, {"type": "node", "id": 7383006516, "lat": 28.5950054, "lon": 77.0761913}, {"type": "node", "id": 7383006517, "lat": 28.595301, "lon": 77.0764112}, {"type": "node", "id": 7383006518, "lat": 28.5952998, "lon": 77.0762717}, {"type": "node", "id": 7383006519, "lat": 28.5952656, "lon": 77.0762664}, {"type": "node", "id": 7383006520, "lat": 28.5952633, "lon": 77.0760625}, {"type": "node", "id": 7383006521, "lat": 28.5952962, "lon": 77.0760518}, {"type": "node", "id": 7383006522, "lat": 28.5952927, "lon": 77.075569}, {"type": "node", "id": 7383006523, "lat": 28.5952209, "lon": 77.0755596}, {"type": "node", "id": 7383006524, "lat": 28.595215, "lon": 77.0753745}, {"type": "node", "id": 7383006525, "lat": 28.595175, "lon": 77.0753678}, {"type": "node", "id": 7383006526, "lat": 28.5951714, "lon": 77.0752471}, {"type": "node", "id": 7383006527, "lat": 28.5950372, "lon": 77.0752538}, {"type": "node", "id": 7383006528, "lat": 28.5950054, "lon": 77.0752552}, {"type": "node", "id": 7383006529, "lat": 28.5950019, "lon": 77.075109}, {"type": "node", "id": 7383006530, "lat": 28.59462, "lon": 77.076402}, {"type": "node", "id": 7383006531, "lat": 28.5945529, "lon": 77.0765575}, {"type": "node", "id": 7383006532, "lat": 28.5940724, "lon": 77.076292}, {"type": "node", "id": 7383006533, "lat": 28.5941266, "lon": 77.0760385}, {"type": "node", "id": 7383006534, "lat": 28.5943374, "lon": 77.0762088}, {"type": "node", "id": 8900677969, "lat": 28.5961283, "lon": 77.0724838}, {"type": "node", "id": 8900677970, "lat": 28.5951628, "lon": 77.0723871}, {"type": "node", "id": 8900677971, "lat": 28.5950262, "lon": 77.0727841}, {"type": "node", "id": 8900677972, "lat": 28.595662, "lon": 77.0728217}, {"type": "node", "id": 8900677973, "lat": 28.596113, "lon": 77.0733715}, {"type": "node", "id": 8900744185, "lat": 28.5959004, "lon": 77.0730175}, {"type": "node", "id": 8900744186, "lat": 28.5958267, "lon": 77.0728574}, {"type": "node", "id": 8900744187, "lat": 28.596035, "lon": 77.0734037}, {"type": "node", "id": 8900762580, "lat": 28.5962472, "lon": 77.072418}, {"type": "node", "id": 8900762581, "lat": 28.5962307, "lon": 77.0729571}, {"type": "node", "id": 8900762582, "lat": 28.5964615, "lon": 77.0729678}, {"type": "node", "id": 11979658335, "lat": 28.5946506, "lon": 77.0716223}, {"type": "node", "id": 11979658336, "lat": 28.5946235, "lon": 77.071961}, {"type": "node", "id": 11979658337, "lat": 28.5947922, "lon": 77.0725427}, {"type": "node", "id": 11979658338, "lat": 28.5948564, "lon": 77.0715051}, {"type": "node", "id": 11979658339, "lat": 28.5945544, "lon": 77.0722592}, {"type": "node", "id": 11979658340, "lat": 28.595098, "lon": 77.0721458}, {"type": "node", "id": 11979658341, "lat": 28.5949525, "lon": 77.0720703}, {"type": "node", "id": 11979658342, "lat": 28.5943986, "lon": 77.0718946}, {"type": "node", "id": 11979658343, "lat": 28.5951674, "lon": 77.0713809}, {"type": "node", "id": 11979658344, "lat": 28.5952166, "lon": 77.0717338}, {"type": "node", "id": 11979658345, "lat": 28.595237, "lon": 77.0716237}, {"type": "node", "id": 11979658346, "lat": 28.5954772, "lon": 77.0717935}, {"type": "node", "id": 11979658347, "lat": 28.5945025, "lon": 77.0720085}, {"type": "node", "id": 11979658348, "lat": 28.5952854, "lon": 77.0716627}, {"type": "node", "id": 11979658349, "lat": 28.5947228, "lon": 77.0715873}, {"type": "node", "id": 11979658350, "lat": 28.5950621, "lon": 77.0721758}, {"type": "node", "id": 11979658351, "lat": 28.5950228, "lon": 77.072049}, {"type": "node", "id": 11979658352, "lat": 28.5952672, "lon": 77.0717439}, {"type": "node", "id": 11979658353, "lat": 28.594896, "lon": 77.0723303}, {"type": "node", "id": 11979658354, "lat": 28.5952583, "lon": 77.0720871}, {"type": "node", "id": 11979658355, "lat": 28.5945238, "lon": 77.0720421}, {"type": "node", "id": 11979658356, "lat": 28.5947861, "lon": 77.0716602}, {"type": "node", "id": 11979658358, "lat": 28.5946374, "lon": 77.0720074}, {"type": "node", "id": 11979658359, "lat": 28.5950793, "lon": 77.0717063}, {"type": "node", "id": 6831705229, "lat": 28.5952684, "lon": 77.0789548}, {"type": "node", "id": 6831705230, "lat": 28.5952545, "lon": 77.0793879}, {"type": "node", "id": 6831705231, "lat": 28.5948428, "lon": 77.0793879}, {"type": "node", "id": 6831705232, "lat": 28.5948289, "lon": 77.0791415}, {"type": "node", "id": 10137472504, "lat": 28.592704, "lon": 77.0773951}, {"type": "node", "id": 10137472505, "lat": 28.5924958, "lon": 77.0780817}, {"type": "node", "id": 10137472506, "lat": 28.5920518, "lon": 77.0785892}, {"type": "node", "id": 10137472507, "lat": 28.5919178, "lon": 77.0771969}, {"type": "node", "id": 10137472508, "lat": 28.5923313, "lon": 77.0780204}, {"type": "node", "id": 10137472509, "lat": 28.5921713, "lon": 77.0785472}, {"type": "node", "id": 11766351907, "lat": 28.5964289, "lon": 77.0802524}, {"type": "node", "id": 11766351908, "lat": 28.5964167, "lon": 77.0807813}, {"type": "node", "id": 11766351911, "lat": 28.5966161, "lon": 77.080839}, {"type": "node", "id": 12990959206, "lat": 28.5965482, "lon": 77.0808193}, {"type": "node", "id": 12990959209, "lat": 28.5964661, "lon": 77.0807956}, {"type": "node", "id": 7305090534, "lat": 28.5992857, "lon": 77.0704914}, {"type": "node", "id": 7305090535, "lat": 28.5991315, "lon": 77.0705653}, {"type": "node", "id": 7305090536, "lat": 28.5990503, "lon": 77.070402}, {"type": "node", "id": 7305090537, "lat": 28.5986094, "lon": 77.0704667}, {"type": "node", "id": 8900762579, "lat": 28.5967653, "lon": 77.0724314}, {"type": "node", "id": 8900762583, "lat": 28.5967182, "lon": 77.0726299}, {"type": "node", "id": 8900762584, "lat": 28.596763, "lon": 77.0725574}, {"type": "node", "id": 8900762585, "lat": 28.5967677, "lon": 77.0725011}, {"type": "node", "id": 10137472510, "lat": 28.5970687, "lon": 77.0740673}, {"type": "node", "id": 10137472511, "lat": 28.5973328, "lon": 77.0743295}, {"type": "node", "id": 10137472512, "lat": 28.5971936, "lon": 77.0745145}, {"type": "node", "id": 10137472513, "lat": 28.5969187, "lon": 77.0742543}, {"type": "node", "id": 3606547329, "lat": 28.5968151, "lon": 77.0814188}, {"type": "node", "id": 3606547330, "lat": 28.5968508, "lon": 77.0811861}, {"type": "node", "id": 3606547331, "lat": 28.5969104, "lon": 77.0814378}, {"type": "node", "id": 3606547332, "lat": 28.5969461, "lon": 77.0812051}, {"type": "node", "id": 6831705262, "lat": 28.5983713, "lon": 77.0782338}, {"type": "node", "id": 6831705263, "lat": 28.5982225, "lon": 77.0782397}, {"type": "node", "id": 6831705264, "lat": 28.598188, "lon": 77.0781988}, {"type": "node", "id": 6831705265, "lat": 28.5981711, "lon": 77.0783032}, {"type": "node", "id": 6831705266, "lat": 28.5983728, "lon": 77.0783307}, {"type": "node", "id": 6831705267, "lat": 28.5983515, "lon": 77.0783616}, {"type": "node", "id": 6831705268, "lat": 28.5981785, "lon": 77.0783424}, {"type": "node", "id": 6831705269, "lat": 28.5981785, "lon": 77.0784719}, {"type": "node", "id": 6831705270, "lat": 28.59821, "lon": 77.0784886}, {"type": "node", "id": 6831705271, "lat": 28.5982166, "lon": 77.0785512}, {"type": "node", "id": 6831705272, "lat": 28.5983633, "lon": 77.0785579}, {"type": "node", "id": 11766351914, "lat": 28.5974631, "lon": 77.0803287}, {"type": "node", "id": 11766351939, "lat": 28.5969237, "lon": 77.0803101}, {"type": "node", "id": 11766351940, "lat": 28.5974202, "lon": 77.0811108}, {"type": "node", "id": 11766351942, "lat": 28.596932, "lon": 77.0797802}, {"type": "node", "id": 12951223283, "lat": 28.5967255, "lon": 77.0802547}, {"type": "node", "id": 12951223284, "lat": 28.5967393, "lon": 77.079775}, {"type": "node", "id": 12990858186, "lat": 28.5969308, "lon": 77.0798556}, {"type": "node", "id": 12990858191, "lat": 28.5974563, "lon": 77.0806746}, {"type": "node", "id": 12990858192, "lat": 28.5974545, "lon": 77.0807655}, {"type": "node", "id": 12990858198, "lat": 28.597022, "lon": 77.0803135}, {"type": "node", "id": 13137014179, "lat": 28.5978967, "lon": 77.0798588}, {"type": "node", "id": 13137014180, "lat": 28.5978004, "lon": 77.0798482}, {"type": "node", "id": 13137014181, "lat": 28.5978012, "lon": 77.08003}, {"type": "node", "id": 13137014182, "lat": 28.5978936, "lon": 77.0800353}, {"type": "node", "id": 6199388675, "lat": 28.5934714, "lon": 77.0876849}, {"type": "node", "id": 6199388676, "lat": 28.59317, "lon": 77.0875293}, {"type": "node", "id": 6199388677, "lat": 28.5927649, "lon": 77.0874837}, {"type": "node", "id": 6199388678, "lat": 28.5928143, "lon": 77.0861882}, {"type": "node", "id": 6199388679, "lat": 28.5934667, "lon": 77.0867702}, {"type": "node", "id": 6199388680, "lat": 28.5937116, "lon": 77.0870975}, {"type": "node", "id": 6199388681, "lat": 28.5947008, "lon": 77.085751}, {"type": "node", "id": 6199388682, "lat": 28.5950728, "lon": 77.0850697}, {"type": "node", "id": 6199388683, "lat": 28.5954002, "lon": 77.0853701}, {"type": "node", "id": 6199388684, "lat": 28.595094, "lon": 77.0860997}, {"type": "node", "id": 6199393085, "lat": 28.5965966, "lon": 77.0862633}, {"type": "node", "id": 6199393086, "lat": 28.5962904, "lon": 77.086325}, {"type": "node", "id": 6199393087, "lat": 28.5960455, "lon": 77.0869955}, {"type": "node", "id": 6199393088, "lat": 28.5963752, "lon": 77.0872021}, {"type": "node", "id": 6199393089, "lat": 28.5965353, "lon": 77.0869365}, {"type": "node", "id": 6199393090, "lat": 28.5964882, "lon": 77.0869017}, {"type": "node", "id": 6199393092, "lat": 28.5964082, "lon": 77.088232}, {"type": "node", "id": 6199393093, "lat": 28.5963493, "lon": 77.0881784}, {"type": "node", "id": 6199393094, "lat": 28.5965212, "lon": 77.0878941}, {"type": "node", "id": 6199393095, "lat": 28.5961703, "lon": 77.0875856}, {"type": "node", "id": 6199393096, "lat": 28.5960172, "lon": 77.0876768}, {"type": "node", "id": 6199393097, "lat": 28.5956381, "lon": 77.0882642}, {"type": "node", "id": 6199393098, "lat": 28.5961255, "lon": 77.0887148}, {"type": "node", "id": 6199393108, "lat": 28.5959466, "lon": 77.0896214}, {"type": "node", "id": 6199393109, "lat": 28.5954026, "lon": 77.0891386}, {"type": "node", "id": 6199393110, "lat": 28.5953201, "lon": 77.0890555}, {"type": "node", "id": 6199393111, "lat": 28.595021, "lon": 77.0898467}, {"type": "node", "id": 6199393112, "lat": 28.5939825, "lon": 77.0893398}, {"type": "node", "id": 6199393113, "lat": 28.5944629, "lon": 77.0883447}, {"type": "node", "id": 6831705239, "lat": 28.5948235, "lon": 77.0843653}, {"type": "node", "id": 6831705240, "lat": 28.594583, "lon": 77.0850423}, {"type": "node", "id": 6831705241, "lat": 28.5942636, "lon": 77.0846982}, {"type": "node", "id": 6831705242, "lat": 28.5943413, "lon": 77.0846757}, {"type": "node", "id": 6831705243, "lat": 28.5943709, "lon": 77.0841925}, {"type": "node", "id": 6831705244, "lat": 28.5945152, "lon": 77.0841911}, {"type": "node", "id": 6831705245, "lat": 28.5945337, "lon": 77.0843358}, {"type": "node", "id": 6831705246, "lat": 28.5948272, "lon": 77.0843526}, {"type": "node", "id": 6199393099, "lat": 28.5949386, "lon": 77.0904127}, {"type": "node", "id": 6199393100, "lat": 28.5952, "lon": 77.0905414}, {"type": "node", "id": 6199393101, "lat": 28.594981, "lon": 77.091153}, {"type": "node", "id": 6199393102, "lat": 28.5952824, "lon": 77.0912844}, {"type": "node", "id": 6199393103, "lat": 28.5952424, "lon": 77.0914265}, {"type": "node", "id": 6199393104, "lat": 28.5957982, "lon": 77.0917377}, {"type": "node", "id": 6199393105, "lat": 28.5961986, "lon": 77.0918611}, {"type": "node", "id": 6199393106, "lat": 28.5962598, "lon": 77.0911878}, {"type": "node", "id": 6199393107, "lat": 28.5955627, "lon": 77.0908204}, {"type": "node", "id": 6199393091, "lat": 28.5966931, "lon": 77.0863116}]}