{"version": 0.6, "generator": "Overpass API 0.7.62.8 e802775f", "osm3s": {"timestamp_osm_base": "2025-11-22T14:27:02Z", "copyright": "The data included in this document is from www.openstreetmap.org. The data is made available under ODbL."}, "elements": [{"type": "node", "id": 2715465980, "lat": 28.6150749, "lon": 77.0121927, "tags": {"historic": "archaeological_site", "name": "\u0936\u094d\u0930\u0940 \u0936\u094d\u0930\u0940 1008 \u0936\u094d\u0930\u0940 \u0926\u093e\u0926\u093e \u0930\u093e\u0923\u093e \u0928\u093e\u0925 \u092a\u0940\u0930 \u091c\u0940 \u092e\u0920"}}, {"type": "node", "id": 8958441917, "lat": 28.6093078, "lon": 77.0350316, "tags": {"artwork_type": "statue", "name": "Netaji Subhas Chandra Bose Statue", "subject:wikidata": "Q2153", "subject:wikipedia": "en:Subhas Chandra Bose", "tourism": "artwork"}}, {"type": "node", "id": 9134866492, "lat": 28.6127047, "lon": 76.9909817, "tags": {"amenity": "restaurant", "cuisine": "indian", "name": "Bikaner Sweets"}}, {"type": "node", "id": 9692661617, "lat": 28.6106965, "lon": 77.032443, "tags": {"addr:housenumber": "12", "addr:postcode": "110078", "addr:street": "Chandra Park", "name": "Sai Dham", "name:en": "Sai Dham Apartment", "tourism": "apartment"}}, {"type": "node", "id": 9694067517, "lat": 28.6107342, "lon": 77.0322728, "tags": {"addr:housenumber": "10 and 11", "addr:postcode": "110078", "name": "Sai Aashray Apartment", "tourism": "apartment"}}, {"type": "node", "id": 9694069017, "lat": 28.6109002, "lon": 77.0322917, "tags": {"addr:housenumber": "31-32", "addr:postcode": "110078", "addr:street": "Chandra Park", "check_date": "2025-01-10", "name": "Sai Apartment", "name:en": "Sai Apartment", "name:hi": "\u0938\u093e\u0908\u0902 \u0905\u092a\u093e\u0930\u094d\u091f\u092e\u0947\u0902\u091f", "tourism": "apartment"}}, {"type": "node", "id": 9694584317, "lat": 28.6105839, "lon": 77.0323694, "tags": {"addr:housenumber": "7-8", "addr:postcode": "110078", "addr:street": "Chandra Park", "name": "Singla General Store", "tourism": "apartment"}}, {"type": "node", "id": 10606496417, "lat": 28.6067365, "lon": 77.0370008, "tags": {"addr:housenumber": "21,26", "addr:street": "Type V Quarters", "name": "Girl's Hostel 3", "operator": "NSUT", "ref": "GH 3", "tourism": "hostel"}}, {"type": "node", "id": 10949022874, "lat": 28.6096598, "lon": 77.0397627, "tags": {"historic": "memorial", "memorial": "plaque", "name": "Ashfaq Ullah Khan", "subject:wikidata": "Q1571670", "subject:wikipedia": "en:Ashfaqulla Khan"}}, {"type": "node", "id": 11915120630, "lat": 28.6184025, "lon": 77.0326301, "tags": {"brand": "OYO", "check_date": "2024-05-18", "name": "OYO Hotel Royal Residency", "tourism": "hotel"}}, {"type": "node", "id": 11935445080, "lat": 28.6062081, "lon": 77.0390247, "tags": {"name": "Boys Hostel", "tourism": "hostel", "wheelchair": "limited"}}, {"type": "node", "id": 12218183773, "lat": 28.6050445, "lon": 77.0381503, "tags": {"artwork_type": "statue", "material": "stone", "name": "Deen Dayal Upadhyaya", "subject:wikidata": "Q3631426", "subject:wikipedia": "en:Deendayal Upadhyaya", "tourism": "artwork"}}, {"type": "node", "id": 12368054746, "lat": 28.618827, "lon": 77.0294316, "tags": {"historic": "memorial", "memorial": "bust", "name": "Samadhi Sthal Sri Chandra Singh Pradhan"}}, {"type": "node", "id": 12378737956, "lat": 28.6199939, "lon": 77.0240491, "tags": {"board_type": "welcome_sign", "information": "board", "name": "Hari Vihar A,B,C Block Welcome Sign", "tourism": "information"}}, {"type": "node", "id": 12378782616, "lat": 28.6198736, "lon": 77.0246613, "tags": {"board_type": "direction", "information": "board", "tourism": "information"}}, {"type": "node", "id": 12378788771, "lat": 28.6199387, "lon": 77.0243029, "tags": {"board_type": "direction", "information": "board", "name": "Ward-123 Kakrola", "tourism": "information"}}, {"type": "node", "id": 12378788772, "lat": 28.6199383, "lon": 77.0243017, "tags": {"board_type": "direction", "information": "board", "name": "Road Construction Information", "tourism": "information"}}, {"type": "node", "id": 12393748480, "lat": 28.6151272, "lon": 77.0331382, "tags": {"amenity": "restaurant", "check_date": "2024-12-03", "level": "0", "name": "CravEat"}}, {"type": "node", "id": 12395783261, "lat": 28.6270968, "lon": 77.0200673, "tags": {"board_type": "welcome_sign", "information": "board", "name": "Baprola Bihar Ambedkar Palace Nagli Vihar Welcome Sign", "tourism": "information"}}, {"type": "node", "id": 12397229287, "lat": 28.6306832, "lon": 77.0217467, "tags": {"board_type": "welcome_sign", "information": "board", "name": "Shri Sai Dwara", "name:hi": "\u0936\u094d\u0930\u0940 \u0938\u093e\u0908\u0902 \u0926\u094d\u0935\u093e\u0930", "tourism": "information"}}, {"type": "node", "id": 12430666827, "lat": 28.6179673, "lon": 77.0319903, "tags": {"amenity": "cafe", "check_date": "2024-12-18", "name": "Tea\u0935\u093e\u0928\u093f"}}, {"type": "node", "id": 12430666829, "lat": 28.6180548, "lon": 77.031982, "tags": {"amenity": "restaurant", "check_date": "2024-12-18", "name": "Zaika Chicken Biryani Corner"}}, {"type": "node", "id": 12432724139, "lat": 28.6205451, "lon": 77.0229825, "tags": {"historic": "memorial", "material": "marble"}}, {"type": "node", "id": 12451071173, "lat": 28.6169987, "lon": 77.033025, "tags": {"amenity": "cafe", "check_date": "2024-12-25", "name": "The Daily Dose Cafe"}}, {"type": "node", "id": 12451128964, "lat": 28.6166139, "lon": 77.0331512, "tags": {"amenity": "restaurant", "check_date": "2024-12-25", "name": "The Hunger's Door"}}, {"type": "node", "id": 12451141764, "lat": 28.6171382, "lon": 77.0331711, "tags": {"amenity": "restaurant", "check_date": "2024-12-25", "name": "Lunch Ladies"}}, {"type": "node", "id": 12451149111, "lat": 28.6166958, "lon": 77.0331861, "tags": {"amenity": "restaurant", "check_date": "2024-12-25", "cuisine": "indian", "name": "Mr. Southwala"}}, {"type": "node", "id": 12451152144, "lat": 28.61651, "lon": 77.0331669, "tags": {"addr:floor": "G", "amenity": "restaurant", "check_date": "2024-12-25", "level": "0", "name": "Pizza Yum"}}, {"type": "node", "id": 12451179077, "lat": 28.6172602, "lon": 77.033184, "tags": {"amenity": "restaurant", "check_date": "2024-12-25", "name": "A1 Chaap Junction"}}, {"type": "node", "id": 12451199516, "lat": 28.6173234, "lon": 77.0331911, "tags": {"amenity": "restaurant", "check_date": "2024-12-25", "name": "New China Town"}}, {"type": "node", "id": 12451274919, "lat": 28.617491, "lon": 77.0331947, "tags": {"amenity": "cafe", "check_date": "2024-12-25", "level": "1", "name": "Yumiverse"}}, {"type": "node", "id": 12633639394, "lat": 28.615687, "lon": 77.0329069, "tags": {"addr:floor": "G", "amenity": "restaurant", "check_date": "2025-03-03", "cuisine": "indian", "level": "0", "name": "Namaste Taste Hub"}}, {"type": "node", "id": 12633639397, "lat": 28.6145524, "lon": 77.0331704, "tags": {"addr:floor": "G", "amenity": "restaurant", "check_date": "2025-03-03", "cuisine": "indian", "level": "0", "name": "Kohli's Restaurant"}}, {"type": "node", "id": 12638564953, "lat": 28.608593, "lon": 77.0350889, "tags": {"historic": "stone"}}, {"type": "way", "id": 167984515, "nodes": [1793036643, 1793036653, 1793036628, 1793036632, 2243911205, 1793036620, 1793036626, 1793036648, 1793036658, 2243911210, 1793036655, 1793036631, 1793036625, 1793036651, 1793036623, 1793036622, 1793036645, 1793036629, 2871862889, 6540390648, 1793036643], "tags": {"barrier": "wall", "leisure": "park"}}, {"type": "way", "id": 194228047, "nodes": [2047532007, 2047532003, 2047532005, 2047532009, 2047532007], "tags": {"leisure": "park", "source": "bing"}}, {"type": "way", "id": 194228056, "nodes": [2047533707, 2047533705, 2047533708, 2047533703, 2047533707], "tags": {"leisure": "park"}}, {"type": "way", "id": 203569952, "nodes": [2135805609, 2135805807, 2135805779, 2135805590, 2135805609], "tags": {"leisure": "park"}}, {"type": "way", "id": 203570013, "nodes": [2135806163, 2135806164, 2135806166, 2135806165, 2135806163], "tags": {"leisure": "park"}}, {"type": "way", "id": 203574683, "nodes": [2135855189, 2135855196, 2135855218, 2135855310, 2135855320, 2135855216, 2135855234, 2135855221, 2135855200, 2135855178, 2135855175, 2135855201, 2135855189], "tags": {"leisure": "park"}}, {"type": "way", "id": 209295080, "nodes": [2195195227, 2195195226, 2195195223, 2195195210, 2195195227], "tags": {"barrier": "wall", "leisure": "park"}}, {"type": "way", "id": 209492486, "nodes": [2197020679, 2197020662, 2197020664, 2197020683, 2197020679], "tags": {"barrier": "wall", "leisure": "park"}}, {"type": "way", "id": 209492488, "nodes": [2197020710, 12067862639, 2129029161, 2129029236, 2129029252, 2197020715, 2197020705, 2197020686, 2197020710], "tags": {"barrier": "wall", "leisure": "park"}}, {"type": "way", "id": 209497650, "nodes": [2197075585, 2197075555, 2703790957, 2197075558, 2197075516, 2129029173, 2129029147, 2129029239, 2197075604, 2197075578, 2197075619, 2197075611, 2197075504, 2197075585], "tags": {"barrier": "wall", "leisure": "park"}}, {"type": "way", "id": 209497815, "nodes": [2197081881, 2129015816, 2129015826, 2129015818, 12507284446, 2129015820, 12507284516, 2129015824, 12507284343, 12507381757, 2129015845, 2129015843, 2197081880, 2197081878, 2197081879, 2197081876, 2197081884, 2197081875, 2197081874, 2197081881], "tags": {"barrier": "wall", "leisure": "park"}}, {"type": "way", "id": 209501274, "nodes": [2197106261, 1191281934, 2197091867, 2197091868, 2197106262, 12507381776, 12507381819, 12507381706, 12507381750, 12507381761, 12507381631, 12507381738, 12507381660, 10607650987, 2197106263, 2197106261], "tags": {"barrier": "wall", "leisure": "park"}}, {"type": "way", "id": 221155540, "nodes": [2302117022, 11942349300, 2302113835, 2302113830, 2313913669, 2302117015, 2302117018, 2845728503, 2302117022], "tags": {"addr:city": "Dwarka", "addr:postcode": "110078", "leisure": "park", "name": "District Public Park", "opening_hours": "24/7"}}, {"type": "way", "id": 264723375, "nodes": [2703770035, 2703770036, 2129029175, 2129029268, 2703762019, 2703770037, 2703770035], "tags": {"barrier": "wall", "leisure": "park"}}, {"type": "way", "id": 451100582, "nodes": [4479654999, 4479655000, 4479655001, 4479655002, 4479654999], "tags": {"leisure": "park", "name": "Main park"}}, {"type": "way", "id": 579530170, "nodes": [5549986327, 5549986328, 9911406432, 9911406437, 5549986327], "tags": {"leisure": "park"}}, {"type": "way", "id": 714722267, "nodes": [6718182709, 11942278955, 11942278954, 11942278953, 6718182710, 11942278967, 6718182711, 6718182712, 6718182713, 11942278961, 11942278960, 11942278959, 11942278958, 11942278957, 6718182709], "tags": {"addr:city": "Dwarka", "addr:postcode": "110078", "leisure": "park", "name": "Mahila Park"}}, {"type": "way", "id": 789636114, "nodes": [7382840159, 7382840160, 7382840161, 7382840162, 7382840163, 7382840164, 7382840165, 7382840166, 7382840167, 7382840168, 7382840169, 7382840159], "tags": {"leisure": "park"}}, {"type": "way", "id": 789636115, "nodes": [7382840170, 7382840171, 7382840172, 7382840173, 7382840170], "tags": {"leisure": "park"}}, {"type": "way", "id": 789636116, "nodes": [7382840174, 7382840175, 7382840176, 7382840177, 7382840178, 7382840179, 7382840180, 7382840181, 7382840182, 7382840183, 7382840184, 7382856685, 7382856686, 7382856687, 7382856688, 7382856689, 7382856690, 7382856691, 7382856692, 7382856693, 7382856694, 7382840174], "tags": {"leisure": "park"}}, {"type": "way", "id": 789636117, "nodes": [7382856695, 7382856696, 7382856697, 7382856698, 7382856699, 7382856700, 7382856701, 7382856702, 7382856703, 7382856704, 7382856705, 7382856706, 7382856707, 7382856695], "tags": {"leisure": "park"}}, {"type": "way", "id": 789636118, "nodes": [7382856708, 7382856709, 7382856710, 7382856711, 7382856712, 7382856713, 7382856714, 7382856715, 7382856716, 7382856717, 7382856708], "tags": {"leisure": "park"}}, {"type": "way", "id": 789636119, "nodes": [7382856718, 7382856719, 7382856720, 7382856721, 7382856722, 7382856723, 7382856724, 7382856718], "tags": {"leisure": "park"}}, {"type": "way", "id": 789636962, "nodes": [7382841994, 7382841995, 7382841996, 7382841997, 7382841998, 7382841999, 7382842000, 7382842001, 7382842002, 7382842003, 7382841994], "tags": {"leisure": "park", "name": "Shri Chander Singh Pradhan Memorial Park"}}, {"type": "way", "id": 789640051, "nodes": [7382807650, 7382807651, 7382807652, 7382807653, 7382807650], "tags": {"leisure": "park", "name": "Kakrola More Park"}}, {"type": "way", "id": 789640052, "nodes": [7382807654, 7382807655, 7382807656, 7382807657, 7382807654], "tags": {"leisure": "park"}}, {"type": "way", "id": 789640054, "nodes": [7382807662, 7382807667, 7382807663, 7382807664, 7382807662], "tags": {"leisure": "park", "name:hi": "\u0938\u094d\u0935\u093e\u092e\u0940 \u0935\u093f\u0935\u0947\u0915\u093e\u0928\u0902\u0926 \u092a\u093e\u0930\u094d\u0915"}}, {"type": "way", "id": 789640056, "nodes": [7382807669, 7382807670, 7382807671, 7382807672, 7382807669], "tags": {"leisure": "park"}}, {"type": "way", "id": 822230242, "nodes": [7677275411, 7677275412, 7677275413, 7677275414, 7677275411], "tags": {"leisure": "park", "name": "Golf Course"}}, {"type": "way", "id": 822230243, "nodes": [7677275415, 7677275416, 7677275417, 7677275418, 7677275428, 7677275415], "tags": {"leisure": "park", "name": "Football/ Cricket ground"}}, {"type": "way", "id": 822230244, "nodes": [7677275419, 7677275420, 7677275421, 7677275422, 7677275423, 7677275424, 7677275425, 7677275426, 7677275427, 7677275428, 7677275419], "tags": {"leisure": "park", "name": "Golf course"}}, {"type": "way", "id": 822230245, "nodes": [7677275429, 7677275430, 7677275431, 7677275432, 7677275429], "tags": {"leisure": "park"}}, {"type": "way", "id": 822230246, "nodes": [7677275433, 7677275434, 7677275435, 7677275436, 7677275433], "tags": {"leisure": "park", "name": "Basketball court"}}, {"type": "way", "id": 952148763, "nodes": [8812964955, 8812964956, 9521838985, 8812964957, 8812964958, 8812964959, 8812964960, 9521838984, 8812964955], "tags": {"amenity": "cafe", "building": "yes", "name": "Students' Centre", "operational_status": "closed", "operator": "NSUT", "outdoor_seating": "yes", "start_date": "2018-09-26"}}, {"type": "way", "id": 952148795, "nodes": [8812965192, 8812965193, 8812965194, 8812965195, 8812965196, 9934242185, 8812965197, 8812965198, 8812965199, 8812965192], "tags": {"addr:city": "National Capital Territory of Delhi", "addr:district": "South West Delhi", "addr:postcode": "110078", "building": "yes", "guest_house": "student_accomodation", "name": "Alaknanda Hostel", "operator": "NSUT", "tourism": "hostel"}}, {"type": "way", "id": 952398066, "nodes": [8815115473, 8815115474, 8815115475, 8815115476, 8815115477, 8815115478, 8815115479, 8815115480, 8815115481, 8815115482, 8815115483, 8815115484, 8815115485, 8815115486, 8815115487, 8815115488, 8815115489, 8815115490, 8815115491, 8815115492, 8815115493, 8815115494, 8815115495, 8815115496, 8815115497, 8815115498, 8815115499, 8815115500, 8815115501, 8815115502, 8815115503, 8815115504, 8815115505, 8815115506, 8815115507, 8815115508, 8815115509, 8815115510, 8815115511, 8815115652, 8815115512, 8815115513, 8815115514, 8815115515, 8815115473], "tags": {"addr:city": "National Capital Territory of Delhi", "addr:district": "South West Delhi", "addr:postcode": "110078", "air_conditioning": "yes", "building": "yes", "guest_house": "student_accomodation", "name": "Kaveri Hostel", "old_name": "Type I Quarters", "operator": "NSUT", "ref": "GH 2", "tourism": "hostel"}}, {"type": "way", "id": 952398074, "nodes": [8815115648, 8815115649, 8815115650, 8815115651, 8815115648], "tags": {"leisure": "park"}}, {"type": "way", "id": 952398080, "nodes": [8815115712, 8815115713, 8815115714, 8815115715, 8815115716, 8815115717, 8815115718, 8815115719, 8815115720, 8815115721, 8815115722, 8815115723, 8815115724, 8815115725, 8815115726, 8815115727, 8815115728, 8818921344, 8815115729, 8815115730, 8815115731, 8815115732, 8815115733, 8815115734, 8815115735, 8815115736, 8815115737, 8815115738, 8815115739, 8815115740, 8815115741, 8815115712], "tags": {"access": "private", "building": "yes", "building:levels": "2", "guest_house": "guest_house", "name": "Guest House", "operator": "NSUT", "tourism": "guest_house"}}, {"type": "way", "id": 952398088, "nodes": [8815115826, 8815115827, 8815115828, 8815115829, 8815115830, 8815115831, 8815115832, 8815115833, 8815115834, 8815115835, 8815115836, 8815115837, 8815115826], "tags": {"building": "yes", "guest_house": "student_accomodation", "name": "J. C. Bose Hostel", "operator": "NSUT", "tourism": "hostel"}}, {"type": "way", "id": 977099773, "nodes": [9042087564, 9042087565, 9042087566, 9042087567, 9042087568, 9042087564], "tags": {"addr:city": "National Capital Territory of Delhi", "addr:district": "West Delhi", "addr:postcode": "110078", "addr:street": "Azad Hind Fauj Marg", "leisure": "park"}}, {"type": "way", "id": 988271784, "nodes": [9134826700, 9134826701, 9134826702, 9134826703, 9134826700], "tags": {"amenity": "restaurant", "building": "yes", "cuisine": "indian", "name": "Bikaner"}}, {"type": "way", "id": 988273230, "nodes": [9134892518, 9134892519, 9134892520, 4591248343, 9134892518], "tags": {"amenity": "restaurant", "building": "yes", "name": "Aggarwal Sweets"}}, {"type": "way", "id": 988338092, "nodes": [9135492659, 9135492660, 9135492661, 9135492662, 9135492663, 9135492664, 9135492659], "tags": {"leisure": "park"}}, {"type": "way", "id": 997743881, "nodes": [9212444703, 9212444704, 9212444705, 9212444706, 9212444703], "tags": {"leisure": "park"}}, {"type": "way", "id": 997968123, "nodes": [9214583876, 9214583877, 9214583878, 9214583879, 9214583881, 9214583876], "tags": {"fitness_station": "yes", "leisure": "park", "name": "Shaheed Ashfaq Ullah Fitness Park", "name:etymology:wikidata": "Q1571670", "operator": "NSUT", "start_date": "2021-10-22"}}, {"type": "way", "id": 1076556197, "nodes": [9872198137, 9872198174, 9872198138, 9872198139, 9872198140, 9872198172, 9872198137], "tags": {"leisure": "park"}}, {"type": "way", "id": 1076556198, "nodes": [9872198141, 9872198142, 9872198143, 9872198144, 9872198145, 9872198154, 9872198155, 9872198156, 9872198157, 9872198146, 9872198147, 9872198141], "tags": {"leisure": "park"}}, {"type": "way", "id": 1076556200, "nodes": [9872198158, 9872198159, 9872198160, 9872198161, 9872198158], "tags": {"leisure": "park"}}, {"type": "way", "id": 1076556201, "nodes": [9872198162, 9872198163, 9872198164, 9872198165, 9872198162], "tags": {"leisure": "park"}}, {"type": "way", "id": 1076561232, "nodes": [9872165892, 9872165895, 9872165893, 9872165894, 9872165892], "tags": {"leisure": "park"}}, {"type": "way", "id": 1177891788, "nodes": [10942165684, 10942165687, 10942165689, 10942165688, 10942165700, 10942165685, 10942165686, 10942165684], "tags": {"leisure": "park"}}, {"type": "way", "id": 1286297640, "nodes": [11930881406, 11930881405, 11930881404, 11930881406], "tags": {"leisure": "park"}}, {"type": "way", "id": 1286304939, "nodes": [11930960570, 11930960569, 11930942468, 11930960570], "tags": {"access": "yes", "leisure": "park", "name": "\u0936\u094d\u0930\u0940 \u091a\u0902\u0926\u094d\u0930 \u0938\u093f\u0902\u0939 \u092a\u094d\u0930\u0927\u093e\u0928 \u092a\u093e\u0930\u094d\u0915", "opening_hours": "24/7"}}, {"type": "way", "id": 1287718663, "nodes": [11942407004, 11942407005, 11942407006, 11942407007, 11942407004], "tags": {"leisure": "park"}}, {"type": "way", "id": 1287719177, "nodes": [11942419882, 11942419883, 11942419884, 11942419885, 11942419886, 11942419887, 12434902257, 11942419888, 12434902264, 11942419889, 11942419890, 11942419882], "tags": {"leisure": "park"}}, {"type": "way", "id": 1287734671, "nodes": [11942520266, 11942520265, 11942520267, 11942520266], "tags": {"leisure": "park"}}, {"type": "way", "id": 1331426652, "nodes": [12319057894, 12319057895, 12319057896, 12319057897, 12319057898, 12319057899, 12319057900, 12319070001, 12319070002, 12319070003, 12319070004, 12319070005, 12319070006, 12319070007, 12319070008, 12319070009, 12319070010, 12319070011, 12319070012, 12319070013, 12319070014, 12319070015, 12319070016, 12319070017, 12319070018, 12319070019, 12319070020, 12319070021, 12319070022, 12319070023, 12319070024, 12319070025, 12319070026, 12319070027, 12319070028, 12319070029, 12319070030, 12319070031, 12319070032, 12319070033, 12319070034, 12319070035, 12319070036, 12319070037, 12319070038, 12319070039, 12319070040, 12319070041, 12319070042, 12319070043, 12319070044, 12319070073, 12319070072, 12319070045, 12319070071, 12319070070, 12319070067, 12319070068, 12319070069, 12319070065, 12319070066, 12319070046, 12319070064, 12319070047, 12319070063, 12319070062, 12319070048, 12319070061, 12319070049, 12319070060, 12319070050, 12319070059, 12319070051, 12319070058, 12319070057, 12319070052, 12319070056, 12319070055, 12319070053, 12319070054, 12319057894], "tags": {"leisure": "park"}}, {"type": "way", "id": 1366985851, "nodes": [12659534324, 12659534320, 12659534326, 12659534302, 12659534304, 12659534306, 12659534313, 12659534321, 12659534322, 12659534324], "tags": {"barrier": "wall", "note": "under construction", "tourism": "hotel"}}, {"type": "way", "id": 1379328586, "nodes": [12772224524, 12772224543, 12772224531, 12772224539, 12772224540, 12772224524], "tags": {"leisure": "park"}}, {"type": "way", "id": 1393246968, "nodes": [12896641465, 12896641466, 12896641467, 12896641468, 12896641469, 12896641470, 12896641465], "tags": {"leisure": "park"}}, {"type": "node", "id": 4591248343, "lat": 28.6123175, "lon": 76.9910041}, {"type": "node", "id": 9134826700, "lat": 28.6128038, "lon": 76.9908781}, {"type": "node", "id": 9134826701, "lat": 28.6128054, "lon": 76.9910603}, {"type": "node", "id": 9134826702, "lat": 28.6126121, "lon": 76.9910751}, {"type": "node", "id": 9134826703, "lat": 28.6126154, "lon": 76.9908873}, {"type": "node", "id": 9134892518, "lat": 28.6122939, "lon": 76.990948}, {"type": "node", "id": 9134892519, "lat": 28.6121712, "lon": 76.9909274}, {"type": "node", "id": 9134892520, "lat": 28.6121839, "lon": 76.9910487}, {"type": "node", "id": 2195195210, "lat": 28.6019023, "lon": 77.0178399}, {"type": "node", "id": 2195195227, "lat": 28.6009698, "lon": 77.0177594}, {"type": "node", "id": 12896641465, "lat": 28.6063085, "lon": 77.0042979}, {"type": "node", "id": 12896641469, "lat": 28.6060304, "lon": 77.0042539}, {"type": "node", "id": 12896641470, "lat": 28.6063068, "lon": 77.0042659}, {"type": "node", "id": 1793036620, "lat": 28.611025, "lon": 76.9961365}, {"type": "node", "id": 1793036625, "lat": 28.6112862, "lon": 76.9978}, {"type": "node", "id": 1793036626, "lat": 28.6108543, "lon": 76.9970005}, {"type": "node", "id": 1793036628, "lat": 28.6118621, "lon": 76.9967081}, {"type": "node", "id": 1793036629, "lat": 28.6132655, "lon": 76.998178}, {"type": "node", "id": 1793036631, "lat": 28.6111369, "lon": 76.9976791}, {"type": "node", "id": 1793036632, "lat": 28.6118809, "lon": 76.9960805}, {"type": "node", "id": 1793036643, "lat": 28.6130347, "lon": 76.9969925}, {"type": "node", "id": 1793036645, "lat": 28.612917, "lon": 76.9981458}, {"type": "node", "id": 1793036648, "lat": 28.6109012, "lon": 76.9973559}, {"type": "node", "id": 1793036651, "lat": 28.6118022, "lon": 76.9980184}, {"type": "node", "id": 1793036653, "lat": 28.6120316, "lon": 76.996794}, {"type": "node", "id": 1793036655, "lat": 28.6110286, "lon": 76.9975933}, {"type": "node", "id": 1793036658, "lat": 28.6108554, "lon": 76.9974619}, {"type": "node", "id": 2243911205, "lat": 28.6111446, "lon": 76.9961058}, {"type": "node", "id": 2243911210, "lat": 28.6109467, "lon": 76.9975167}, {"type": "node", "id": 2871862889, "lat": 28.6131344, "lon": 76.9975045}, {"type": "node", "id": 6540390648, "lat": 28.6130536, "lon": 76.9970896}, {"type": "node", "id": 9872165892, "lat": 28.6138816, "lon": 76.9949605}, {"type": "node", "id": 9872165893, "lat": 28.6137669, "lon": 76.9952124}, {"type": "node", "id": 9872165894, "lat": 28.6138898, "lon": 76.9952087}, {"type": "node", "id": 9872165895, "lat": 28.6137555, "lon": 76.9949652}, {"type": "node", "id": 9872198137, "lat": 28.6137084, "lon": 76.9943636}, {"type": "node", "id": 9872198138, "lat": 28.6133714, "lon": 76.9943676}, {"type": "node", "id": 9872198139, "lat": 28.6133784, "lon": 76.9949284}, {"type": "node", "id": 9872198140, "lat": 28.6137067, "lon": 76.9948983}, {"type": "node", "id": 9872198141, "lat": 28.6133819, "lon": 76.9960441}, {"type": "node", "id": 9872198142, "lat": 28.6133819, "lon": 76.9957707}, {"type": "node", "id": 9872198143, "lat": 28.6134666, "lon": 76.9957707}, {"type": "node", "id": 9872198144, "lat": 28.6134684, "lon": 76.9955938}, {"type": "node", "id": 9872198145, "lat": 28.6134614, "lon": 76.9955295}, {"type": "node", "id": 9872198146, "lat": 28.6137525, "lon": 76.9955255}, {"type": "node", "id": 9872198147, "lat": 28.6137402, "lon": 76.9960501}, {"type": "node", "id": 9872198154, "lat": 28.6135275, "lon": 76.9955255}, {"type": "node", "id": 9872198155, "lat": 28.6135324, "lon": 76.9953023}, {"type": "node", "id": 9872198156, "lat": 28.6136619, "lon": 76.9953033}, {"type": "node", "id": 9872198157, "lat": 28.6136701, "lon": 76.995533}, {"type": "node", "id": 9872198158, "lat": 28.6139678, "lon": 76.9949325}, {"type": "node", "id": 9872198159, "lat": 28.6144408, "lon": 76.9949184}, {"type": "node", "id": 9872198160, "lat": 28.6144443, "lon": 76.9951274}, {"type": "node", "id": 9872198161, "lat": 28.6139696, "lon": 76.9951576}, {"type": "node", "id": 9872198162, "lat": 28.6144372, "lon": 76.9943857}, {"type": "node", "id": 9872198163, "lat": 28.614432, "lon": 76.9941826}, {"type": "node", "id": 9872198164, "lat": 28.6137102, "lon": 76.9941867}, {"type": "node", "id": 9872198165, "lat": 28.6137278, "lon": 76.9943716}, {"type": "node", "id": 9872198172, "lat": 28.6137083, "lon": 76.9943917}, {"type": "node", "id": 9872198174, "lat": 28.6133943, "lon": 76.9943673}, {"type": "node", "id": 1793036622, "lat": 28.6126768, "lon": 76.9983818}, {"type": "node", "id": 1793036623, "lat": 28.6122849, "lon": 76.9982556}, {"type": "node", "id": 2047532003, "lat": 28.6158283, "lon": 77.0010169}, {"type": "node", "id": 2047532005, "lat": 28.6160686, "lon": 77.0010068}, {"type": "node", "id": 2047532007, "lat": 28.6158195, "lon": 77.0007448}, {"type": "node", "id": 2047532009, "lat": 28.6160598, "lon": 77.0007347}, {"type": "node", "id": 2047533703, "lat": 28.6159082, "lon": 77.002648}, {"type": "node", "id": 2047533705, "lat": 28.6161545, "lon": 77.0028831}, {"type": "node", "id": 2047533707, "lat": 28.6161449, "lon": 77.0026362}, {"type": "node", "id": 2047533708, "lat": 28.6159178, "lon": 77.0028949}, {"type": "node", "id": 12896641466, "lat": 28.6062343, "lon": 77.0056727}, {"type": "node", "id": 12896641467, "lat": 28.6059898, "lon": 77.0056654}, {"type": "node", "id": 12896641468, "lat": 28.6059941, "lon": 77.0055187}, {"type": "node", "id": 9135492659, "lat": 28.6198897, "lon": 76.9889375}, {"type": "node", "id": 9135492660, "lat": 28.6194116, "lon": 76.9885326}, {"type": "node", "id": 9135492661, "lat": 28.6193575, "lon": 76.9901769}, {"type": "node", "id": 9135492662, "lat": 28.6187657, "lon": 76.9901193}, {"type": "node", "id": 9135492663, "lat": 28.618735, "lon": 76.9907031}, {"type": "node", "id": 9135492664, "lat": 28.6198464, "lon": 76.9906846}, {"type": "node", "id": 7677275411, "lat": 28.638978, "lon": 76.9997809}, {"type": "node", "id": 7677275412, "lat": 28.6393531, "lon": 77.0003189}, {"type": "node", "id": 7677275413, "lat": 28.6391589, "lon": 77.0005025}, {"type": "node", "id": 7677275414, "lat": 28.6387749, "lon": 76.999972}, {"type": "node", "id": 7677275415, "lat": 28.6378183, "lon": 77.000077}, {"type": "node", "id": 7677275416, "lat": 28.6371264, "lon": 77.0007266}, {"type": "node", "id": 7677275417, "lat": 28.6373976, "lon": 77.0010939}, {"type": "node", "id": 7677275418, "lat": 28.6380778, "lon": 77.0004578}, {"type": "node", "id": 7677275419, "lat": 28.6381014, "lon": 77.0004399}, {"type": "node", "id": 7677275420, "lat": 28.639222, "lon": 76.9993065}, {"type": "node", "id": 7677275421, "lat": 28.6393792, "lon": 76.9991676}, {"type": "node", "id": 7677275422, "lat": 28.6388131, "lon": 76.9983702}, {"type": "node", "id": 7677275423, "lat": 28.6385496, "lon": 76.9986256}, {"type": "node", "id": 7677275424, "lat": 28.6388131, "lon": 76.9990556}, {"type": "node", "id": 7677275425, "lat": 28.6388602, "lon": 76.9991363}, {"type": "node", "id": 7677275426, "lat": 28.6386637, "lon": 76.9992751}, {"type": "node", "id": 7677275427, "lat": 28.638872, "lon": 76.9996022}, {"type": "node", "id": 7677275428, "lat": 28.638052, "lon": 77.0004199}, {"type": "node", "id": 7677275429, "lat": 28.6391575, "lon": 76.999612}, {"type": "node", "id": 7677275430, "lat": 28.6395716, "lon": 77.0001595}, {"type": "node", "id": 7677275431, "lat": 28.6394779, "lon": 77.0002619}, {"type": "node", "id": 7677275432, "lat": 28.6390481, "lon": 76.9996966}, {"type": "node", "id": 7677275433, "lat": 28.6380558, "lon": 77.001535}, {"type": "node", "id": 7677275434, "lat": 28.6378839, "lon": 77.0016952}, {"type": "node", "id": 7677275435, "lat": 28.6381613, "lon": 77.0020514}, {"type": "node", "id": 7677275436, "lat": 28.638341, "lon": 77.0018644}, {"type": "node", "id": 5549986327, "lat": 28.6424794, "lon": 77.0102992}, {"type": "node", "id": 5549986328, "lat": 28.6419992, "lon": 77.0103126}, {"type": "node", "id": 9911406432, "lat": 28.6419886, "lon": 77.0109568}, {"type": "node", "id": 9911406437, "lat": 28.6424875, "lon": 77.0109909}, {"type": "node", "id": 2129029161, "lat": 28.5997735, "lon": 77.0241492}, {"type": "node", "id": 2195195223, "lat": 28.6018364, "lon": 77.0188645}, {"type": "node", "id": 2195195226, "lat": 28.6009179, "lon": 77.0187733}, {"type": "node", "id": 2197020686, "lat": 28.6002354, "lon": 77.0240088}, {"type": "node", "id": 2197020705, "lat": 28.6013818, "lon": 77.0243886}, {"type": "node", "id": 2197020710, "lat": 28.6005274, "lon": 77.0228608}, {"type": "node", "id": 12067862639, "lat": 28.600105, "lon": 77.0226881}, {"type": "node", "id": 2129029236, "lat": 28.6005919, "lon": 77.0248668}, {"type": "node", "id": 2129029252, "lat": 28.5998251, "lon": 77.0260013}, {"type": "node", "id": 2135805590, "lat": 28.6031081, "lon": 77.0290117}, {"type": "node", "id": 2135805609, "lat": 28.603161, "lon": 77.0289324}, {"type": "node", "id": 2135806163, "lat": 28.6031681, "lon": 77.0267031}, {"type": "node", "id": 2135855175, "lat": 28.6024262, "lon": 77.0291987}, {"type": "node", "id": 2135855178, "lat": 28.6024874, "lon": 77.0292523}, {"type": "node", "id": 2135855189, "lat": 28.6026935, "lon": 77.028312}, {"type": "node", "id": 2135855196, "lat": 28.6028171, "lon": 77.0281291}, {"type": "node", "id": 2135855200, "lat": 28.6028876, "lon": 77.0286601}, {"type": "node", "id": 2135855201, "lat": 28.6029019, "lon": 77.0284948}, {"type": "node", "id": 2135855216, "lat": 28.6030089, "lon": 77.0284732}, {"type": "node", "id": 2135855218, "lat": 28.6030118, "lon": 77.0282998}, {"type": "node", "id": 2135855221, "lat": 28.6030479, "lon": 77.0288007}, {"type": "node", "id": 2135855234, "lat": 28.6031724, "lon": 77.0286164}, {"type": "node", "id": 2197020662, "lat": 28.6011114, "lon": 77.0249637}, {"type": "node", "id": 2197020664, "lat": 28.6018528, "lon": 77.0255688}, {"type": "node", "id": 2197020679, "lat": 28.6014317, "lon": 77.0245238}, {"type": "node", "id": 2197020683, "lat": 28.6025903, "lon": 77.0249208}, {"type": "node", "id": 2197020715, "lat": 28.6000941, "lon": 77.0262511}, {"type": "node", "id": 2129029147, "lat": 28.6014878, "lon": 77.0341163}, {"type": "node", "id": 2129029173, "lat": 28.5995385, "lon": 77.0325083}, {"type": "node", "id": 2129029239, "lat": 28.6024675, "lon": 77.0325928}, {"type": "node", "id": 2197075504, "lat": 28.5995855, "lon": 77.0351346}, {"type": "node", "id": 2197075516, "lat": 28.5987551, "lon": 77.0317899}, {"type": "node", "id": 2197075555, "lat": 28.6000254, "lon": 77.0333365}, {"type": "node", "id": 2197075558, "lat": 28.5985399, "lon": 77.0321091}, {"type": "node", "id": 2197075585, "lat": 28.5990391, "lon": 77.0347162}, {"type": "node", "id": 2197075611, "lat": 28.6016766, "lon": 77.0348986}, {"type": "node", "id": 2197075619, "lat": 28.6023176, "lon": 77.0355085}, {"type": "node", "id": 2197081874, "lat": 28.6022889, "lon": 77.0360144}, {"type": "node", "id": 2197081875, "lat": 28.6009956, "lon": 77.0362547}, {"type": "node", "id": 2197081876, "lat": 28.6013187, "lon": 77.0370336}, {"type": "node", "id": 2197081878, "lat": 28.6021664, "lon": 77.0370873}, {"type": "node", "id": 2197081879, "lat": 28.6018839, "lon": 77.0368405}, {"type": "node", "id": 2197081880, "lat": 28.602515, "lon": 77.0366045}, {"type": "node", "id": 2197081881, "lat": 28.6027975, "lon": 77.0352955}, {"type": "node", "id": 2197081884, "lat": 28.601168, "lon": 77.0372697}, {"type": "node", "id": 2703762019, "lat": 28.6008851, "lon": 77.0371845}, {"type": "node", "id": 2703770037, "lat": 28.6009982, "lon": 77.0374098}, {"type": "node", "id": 2703790957, "lat": 28.5993665, "lon": 77.0327921}, {"type": "node", "id": 4479654999, "lat": 28.6011192, "lon": 77.0326656}, {"type": "node", "id": 4479655000, "lat": 28.6007507, "lon": 77.0323496}, {"type": "node", "id": 4479655001, "lat": 28.6004871, "lon": 77.0327332}, {"type": "node", "id": 4479655002, "lat": 28.6008722, "lon": 77.0330664}, {"type": "node", "id": 2129029175, "lat": 28.60084, "lon": 77.0390168}, {"type": "node", "id": 2129029268, "lat": 28.6001114, "lon": 77.0384091}, {"type": "node", "id": 2703770035, "lat": 28.6004801, "lon": 77.0382359}, {"type": "node", "id": 2703770036, "lat": 28.6010217, "lon": 77.0387249}, {"type": "node", "id": 12772224524, "lat": 28.6011124, "lon": 77.0387759}, {"type": "node", "id": 12772224531, "lat": 28.6013656, "lon": 77.0405138}, {"type": "node", "id": 12772224539, "lat": 28.6008505, "lon": 77.0401016}, {"type": "node", "id": 12772224540, "lat": 28.6004775, "lon": 77.0396836}, {"type": "node", "id": 12772224543, "lat": 28.6020146, "lon": 77.0395672}, {"type": "node", "id": 7382840177, "lat": 28.6096892, "lon": 77.0187257}, {"type": "node", "id": 7382840178, "lat": 28.6093764, "lon": 77.0189242}, {"type": "node", "id": 7382840179, "lat": 28.6092774, "lon": 77.0192986}, {"type": "node", "id": 7382840180, "lat": 28.6092694, "lon": 77.0195287}, {"type": "node", "id": 7382840181, "lat": 28.6091784, "lon": 77.0198174}, {"type": "node", "id": 7382840182, "lat": 28.6094437, "lon": 77.0202459}, {"type": "node", "id": 7382840183, "lat": 28.6096061, "lon": 77.0205662}, {"type": "node", "id": 7382840184, "lat": 28.609515, "lon": 77.0205932}, {"type": "node", "id": 7382856702, "lat": 28.6092536, "lon": 77.022772}, {"type": "node", "id": 7382856703, "lat": 28.6085843, "lon": 77.022745}, {"type": "node", "id": 7382856704, "lat": 28.6085606, "lon": 77.0220683}, {"type": "node", "id": 7382856705, "lat": 28.6090358, "lon": 77.0219871}, {"type": "node", "id": 7382856706, "lat": 28.6093684, "lon": 77.021933}, {"type": "node", "id": 7382856708, "lat": 28.6094991, "lon": 77.0209722}, {"type": "node", "id": 7382856710, "lat": 28.6093447, "lon": 77.0216623}, {"type": "node", "id": 7382856711, "lat": 28.6093288, "lon": 77.0215631}, {"type": "node", "id": 7382856712, "lat": 28.6092338, "lon": 77.0215631}, {"type": "node", "id": 7382856713, "lat": 28.6092536, "lon": 77.0212609}, {"type": "node", "id": 7382856714, "lat": 28.6090199, "lon": 77.0212203}, {"type": "node", "id": 7382856715, "lat": 28.6090437, "lon": 77.0210489}, {"type": "node", "id": 7382856716, "lat": 28.6090595, "lon": 77.0210128}, {"type": "node", "id": 7382856717, "lat": 28.6094714, "lon": 77.0209541}, {"type": "node", "id": 2135805779, "lat": 28.6037314, "lon": 77.0295518}, {"type": "node", "id": 2135805807, "lat": 28.6037843, "lon": 77.0294725}, {"type": "node", "id": 2135806164, "lat": 28.6035699, "lon": 77.0260873}, {"type": "node", "id": 2135806165, "lat": 28.6041171, "lon": 77.0275064}, {"type": "node", "id": 2135806166, "lat": 28.6045189, "lon": 77.0268907}, {"type": "node", "id": 2135855310, "lat": 28.6036504, "lon": 77.0273548}, {"type": "node", "id": 2135855320, "lat": 28.6037222, "lon": 77.0274177}, {"type": "node", "id": 12659534302, "lat": 28.6053568, "lon": 77.0306126}, {"type": "node", "id": 12659534304, "lat": 28.6054591, "lon": 77.0305315}, {"type": "node", "id": 12659534306, "lat": 28.6055832, "lon": 77.0304451}, {"type": "node", "id": 12659534313, "lat": 28.6058348, "lon": 77.0303823}, {"type": "node", "id": 12659534321, "lat": 28.6060198, "lon": 77.0303404}, {"type": "node", "id": 12659534322, "lat": 28.6061692, "lon": 77.0303508}, {"type": "node", "id": 12659534324, "lat": 28.6061876, "lon": 77.0309124}, {"type": "node", "id": 12659534326, "lat": 28.605243, "lon": 77.0307213}, {"type": "node", "id": 7382840159, "lat": 28.6119488, "lon": 77.0238377}, {"type": "node", "id": 7382840160, "lat": 28.6121466, "lon": 77.0222177}, {"type": "node", "id": 7382840161, "lat": 28.611817, "lon": 77.0220245}, {"type": "node", "id": 7382840162, "lat": 28.6112895, "lon": 77.0219816}, {"type": "node", "id": 7382840163, "lat": 28.6111012, "lon": 77.0219709}, {"type": "node", "id": 7382840164, "lat": 28.6109693, "lon": 77.0229794}, {"type": "node", "id": 7382840165, "lat": 28.6109604, "lon": 77.0230246}, {"type": "node", "id": 7382840166, "lat": 28.6113683, "lon": 77.023399}, {"type": "node", "id": 7382840167, "lat": 28.6117841, "lon": 77.0237644}, {"type": "node", "id": 7382840168, "lat": 28.6119108, "lon": 77.0238817}, {"type": "node", "id": 7382840169, "lat": 28.6119544, "lon": 77.0239313}, {"type": "node", "id": 7382840170, "lat": 28.6108099, "lon": 77.0219465}, {"type": "node", "id": 7382840171, "lat": 28.6100496, "lon": 77.0219195}, {"type": "node", "id": 7382840172, "lat": 28.6102357, "lon": 77.0223029}, {"type": "node", "id": 7382840173, "lat": 28.6107386, "lon": 77.0228668}, {"type": "node", "id": 7382840174, "lat": 28.610604, "lon": 77.019046}, {"type": "node", "id": 7382840175, "lat": 28.6103704, "lon": 77.0191994}, {"type": "node", "id": 7382840176, "lat": 28.6098159, "lon": 77.0188024}, {"type": "node", "id": 7382856685, "lat": 28.6098595, "lon": 77.0213962}, {"type": "node", "id": 7382856686, "lat": 28.6099585, "lon": 77.0216127}, {"type": "node", "id": 7382856687, "lat": 28.6104179, "lon": 77.0216172}, {"type": "node", "id": 7382856688, "lat": 28.6108535, "lon": 77.0216443}, {"type": "node", "id": 7382856689, "lat": 28.6108614, "lon": 77.0214684}, {"type": "node", "id": 7382856690, "lat": 28.610798, "lon": 77.0212112}, {"type": "node", "id": 7382856691, "lat": 28.6106713, "lon": 77.0208819}, {"type": "node", "id": 7382856692, "lat": 28.6105525, "lon": 77.0203812}, {"type": "node", "id": 7382856693, "lat": 28.6105763, "lon": 77.0195918}, {"type": "node", "id": 7382856694, "lat": 28.610608, "lon": 77.0191407}, {"type": "node", "id": 7382856695, "lat": 28.609911, "lon": 77.0219149}, {"type": "node", "id": 7382856696, "lat": 28.6100417, "lon": 77.0221856}, {"type": "node", "id": 7382856697, "lat": 28.6102318, "lon": 77.0224202}, {"type": "node", "id": 7382856698, "lat": 28.6101724, "lon": 77.0226141}, {"type": "node", "id": 7382856699, "lat": 28.6100258, "lon": 77.0226367}, {"type": "node", "id": 7382856700, "lat": 28.6097882, "lon": 77.0227269}, {"type": "node", "id": 7382856701, "lat": 28.6098516, "lon": 77.022763}, {"type": "node", "id": 7382856707, "lat": 28.6098674, "lon": 77.0219149}, {"type": "node", "id": 7382856709, "lat": 28.6097803, "lon": 77.0216127}, {"type": "node", "id": 7382856718, "lat": 28.6126553, "lon": 77.0231194}, {"type": "node", "id": 7382856719, "lat": 28.6123266, "lon": 77.0230788}, {"type": "node", "id": 7382856720, "lat": 28.6122356, "lon": 77.0238321}, {"type": "node", "id": 7382856721, "lat": 28.6123583, "lon": 77.0238682}, {"type": "node", "id": 7382856722, "lat": 28.6123504, "lon": 77.0240261}, {"type": "node", "id": 7382856723, "lat": 28.6125048, "lon": 77.0241975}, {"type": "node", "id": 7382856724, "lat": 28.6126197, "lon": 77.0234036}, {"type": "node", "id": 11942407007, "lat": 28.6160819, "lon": 77.0242634}, {"type": "node", "id": 2302113830, "lat": 28.6158289, "lon": 77.0256985}, {"type": "node", "id": 2302113835, "lat": 28.6139024, "lon": 77.025554}, {"type": "node", "id": 2302117015, "lat": 28.6158809, "lon": 77.0263409}, {"type": "node", "id": 2302117022, "lat": 28.6158803, "lon": 77.0273028}, {"type": "node", "id": 2313913669, "lat": 28.6158809, "lon": 77.0257034}, {"type": "node", "id": 6718182709, "lat": 28.6160595, "lon": 77.0282586}, {"type": "node", "id": 6718182710, "lat": 28.6160451, "lon": 77.0278709}, {"type": "node", "id": 6718182711, "lat": 28.6157957, "lon": 77.0276596}, {"type": "node", "id": 6718182712, "lat": 28.6155242, "lon": 77.0278835}, {"type": "node", "id": 6718182713, "lat": 28.6155991, "lon": 77.0282353}, {"type": "node", "id": 7382807650, "lat": 28.6152659, "lon": 77.0291732}, {"type": "node", "id": 7382807651, "lat": 28.6151718, "lon": 77.0291755}, {"type": "node", "id": 7382807652, "lat": 28.6151639, "lon": 77.0293514}, {"type": "node", "id": 7382807653, "lat": 28.6152708, "lon": 77.0293548}, {"type": "node", "id": 7382807654, "lat": 28.6154817, "lon": 77.0288541}, {"type": "node", "id": 7382807655, "lat": 28.6154263, "lon": 77.0288518}, {"type": "node", "id": 7382807656, "lat": 28.6154263, "lon": 77.0290041}, {"type": "node", "id": 7382807657, "lat": 28.6154857, "lon": 77.0290075}, {"type": "node", "id": 7382807662, "lat": 28.6148969, "lon": 77.0275937}, {"type": "node", "id": 7382807663, "lat": 28.6145626, "lon": 77.0275964}, {"type": "node", "id": 7382807664, "lat": 28.614532, "lon": 77.0278834}, {"type": "node", "id": 7382807667, "lat": 28.6148429, "lon": 77.0275942}, {"type": "node", "id": 7382807669, "lat": 28.6145131, "lon": 77.026671}, {"type": "node", "id": 7382807670, "lat": 28.6145061, "lon": 77.0269634}, {"type": "node", "id": 7382807671, "lat": 28.6149134, "lon": 77.0270036}, {"type": "node", "id": 7382807672, "lat": 28.6145767, "lon": 77.0267166}, {"type": "node", "id": 11942278953, "lat": 28.6160476, "lon": 77.0279384}, {"type": "node", "id": 11942278954, "lat": 28.6160504, "lon": 77.0280143}, {"type": "node", "id": 11942278955, "lat": 28.6160534, "lon": 77.028095}, {"type": "node", "id": 11942278957, "lat": 28.6159864, "lon": 77.0282549}, {"type": "node", "id": 11942278958, "lat": 28.6158972, "lon": 77.0282504}, {"type": "node", "id": 11942278959, "lat": 28.6157694, "lon": 77.0282439}, {"type": "node", "id": 11942278960, "lat": 28.6156843, "lon": 77.0282396}, {"type": "node", "id": 11942278961, "lat": 28.6156312, "lon": 77.0282369}, {"type": "node", "id": 11942278967, "lat": 28.6158262, "lon": 77.0276854}, {"type": "node", "id": 11942349300, "lat": 28.6157158, "lon": 77.0271573}, {"type": "node", "id": 11942407004, "lat": 28.6160744, "lon": 77.0247748}, {"type": "node", "id": 11942520265, "lat": 28.6161611, "lon": 77.0282951}, {"type": "node", "id": 11942520267, "lat": 28.6161741, "lon": 77.0278249}, {"type": "node", "id": 2129015816, "lat": 28.6034471, "lon": 77.0358326}, {"type": "node", "id": 2129015818, "lat": 28.6035413, "lon": 77.0362186}, {"type": "node", "id": 2129015820, "lat": 28.6032257, "lon": 77.0367926}, {"type": "node", "id": 2129015826, "lat": 28.6036449, "lon": 77.0359882}, {"type": "node", "id": 2197075578, "lat": 28.6034757, "lon": 77.0338042}, {"type": "node", "id": 2197075604, "lat": 28.6034004, "lon": 77.0333858}, {"type": "node", "id": 9042087564, "lat": 28.6070356, "lon": 77.0359591}, {"type": "node", "id": 9042087565, "lat": 28.6071558, "lon": 77.0364347}, {"type": "node", "id": 9042087566, "lat": 28.6069677, "lon": 77.0364964}, {"type": "node", "id": 9042087567, "lat": 28.6068676, "lon": 77.0361003}, {"type": "node", "id": 9042087568, "lat": 28.6068766, "lon": 77.0360112}, {"type": "node", "id": 9212444703, "lat": 28.6074829, "lon": 77.0366564}, {"type": "node", "id": 9212444704, "lat": 28.6072742, "lon": 77.0367245}, {"type": "node", "id": 9212444705, "lat": 28.6073753, "lon": 77.0371261}, {"type": "node", "id": 9212444706, "lat": 28.607584, "lon": 77.0370579}, {"type": "node", "id": 12507284446, "lat": 28.6032484, "lon": 77.0367513}, {"type": "node", "id": 12507284516, "lat": 28.6040017, "lon": 77.0373897}, {"type": "node", "id": 12659534320, "lat": 28.6053062, "lon": 77.0310629}, {"type": "node", "id": 1191281934, "lat": 28.6073776, "lon": 77.0419302}, {"type": "node", "id": 2129015824, "lat": 28.6044597, "lon": 77.0377421}, {"type": "node", "id": 2129015843, "lat": 28.6038152, "lon": 77.0377812}, {"type": "node", "id": 2129015845, "lat": 28.6041986, "lon": 77.0381179}, {"type": "node", "id": 2197091867, "lat": 28.6068445, "lon": 77.0399027}, {"type": "node", "id": 2197091868, "lat": 28.6048464, "lon": 77.038184}, {"type": "node", "id": 2197106261, "lat": 28.6061245, "lon": 77.04164}, {"type": "node", "id": 2197106262, "lat": 28.6046423, "lon": 77.0384958}, {"type": "node", "id": 2197106263, "lat": 28.6068661, "lon": 77.0405616}, {"type": "node", "id": 8812965192, "lat": 28.6081184, "lon": 77.0394073}, {"type": "node", "id": 8812965193, "lat": 28.6078768, "lon": 77.0394835}, {"type": "node", "id": 8812965194, "lat": 28.6079149, "lon": 77.0396403}, {"type": "node", "id": 8812965195, "lat": 28.6080041, "lon": 77.0396122}, {"type": "node", "id": 8812965196, "lat": 28.60802, "lon": 77.0396778}, {"type": "node", "id": 8812965197, "lat": 28.6080756, "lon": 77.0396602}, {"type": "node", "id": 8812965198, "lat": 28.6080588, "lon": 77.0395913}, {"type": "node", "id": 8812965199, "lat": 28.6081557, "lon": 77.0395607}, {"type": "node", "id": 8815115712, "lat": 28.6079898, "lon": 77.0381675}, {"type": "node", "id": 8815115713, "lat": 28.6080081, "lon": 77.0382315}, {"type": "node", "id": 8815115714, "lat": 28.6080316, "lon": 77.0382228}, {"type": "node", "id": 8815115715, "lat": 28.6080748, "lon": 77.0382492}, {"type": "node", "id": 8815115716, "lat": 28.608111, "lon": 77.0382304}, {"type": "node", "id": 8815115717, "lat": 28.6081318, "lon": 77.0382454}, {"type": "node", "id": 8815115718, "lat": 28.6080817, "lon": 77.0383357}, {"type": "node", "id": 8815115719, "lat": 28.6081261, "lon": 77.0383676}, {"type": "node", "id": 8815115720, "lat": 28.6081017, "lon": 77.0384116}, {"type": "node", "id": 8815115721, "lat": 28.6081814, "lon": 77.0384689}, {"type": "node", "id": 8815115722, "lat": 28.6082067, "lon": 77.0384232}, {"type": "node", "id": 8815115723, "lat": 28.6082494, "lon": 77.0384539}, {"type": "node", "id": 8815115724, "lat": 28.6082987, "lon": 77.0383649}, {"type": "node", "id": 8815115725, "lat": 28.6082201, "lon": 77.0383084}, {"type": "node", "id": 8815115726, "lat": 28.608238, "lon": 77.0382761}, {"type": "node", "id": 8815115727, "lat": 28.6081873, "lon": 77.0382398}, {"type": "node", "id": 8815115728, "lat": 28.6082341, "lon": 77.0381552}, {"type": "node", "id": 8815115729, "lat": 28.608218, "lon": 77.0380902}, {"type": "node", "id": 8815115730, "lat": 28.608142, "lon": 77.0380479}, {"type": "node", "id": 8815115731, "lat": 28.6081692, "lon": 77.0379844}, {"type": "node", "id": 8815115732, "lat": 28.6081402, "lon": 77.0379683}, {"type": "node", "id": 8815115733, "lat": 28.6081778, "lon": 77.0378807}, {"type": "node", "id": 8815115734, "lat": 28.6080903, "lon": 77.037832}, {"type": "node", "id": 8815115735, "lat": 28.6080712, "lon": 77.0378765}, {"type": "node", "id": 8815115736, "lat": 28.6080292, "lon": 77.0378531}, {"type": "node", "id": 8815115737, "lat": 28.6079803, "lon": 77.0379672}, {"type": "node", "id": 8815115738, "lat": 28.6081073, "lon": 77.0380378}, {"type": "node", "id": 8815115739, "lat": 28.6080779, "lon": 77.0381064}, {"type": "node", "id": 8815115740, "lat": 28.6080338, "lon": 77.0381146}, {"type": "node", "id": 8815115741, "lat": 28.6080119, "lon": 77.0381593}, {"type": "node", "id": 8818921344, "lat": 28.6082261, "lon": 77.0381227}, {"type": "node", "id": 9214583876, "lat": 28.6088881, "lon": 77.0394188}, {"type": "node", "id": 9214583877, "lat": 28.6090695, "lon": 77.0401309}, {"type": "node", "id": 9214583881, "lat": 28.6096973, "lon": 77.0391513}, {"type": "node", "id": 9934242185, "lat": 28.6080476, "lon": 77.0396691}, {"type": "node", "id": 10607650987, "lat": 28.6068546, "lon": 77.0404069}, {"type": "node", "id": 12507284343, "lat": 28.6042795, "lon": 77.037973}, {"type": "node", "id": 12507381631, "lat": 28.6065636, "lon": 77.0401555}, {"type": "node", "id": 12507381660, "lat": 28.6067696, "lon": 77.0403335}, {"type": "node", "id": 12507381706, "lat": 28.6061452, "lon": 77.0397941}, {"type": "node", "id": 12507381738, "lat": 28.6067071, "lon": 77.0402795}, {"type": "node", "id": 12507381750, "lat": 28.6062957, "lon": 77.0399241}, {"type": "node", "id": 12507381757, "lat": 28.6042273, "lon": 77.0380665}, {"type": "node", "id": 12507381761, "lat": 28.6064079, "lon": 77.040021}, {"type": "node", "id": 12507381776, "lat": 28.6047767, "lon": 77.0386119}, {"type": "node", "id": 12507381819, "lat": 28.6060033, "lon": 77.0396715}, {"type": "node", "id": 8812964955, "lat": 28.6116553, "lon": 77.0367349}, {"type": "node", "id": 8812964956, "lat": 28.6115401, "lon": 77.0367723}, {"type": "node", "id": 8812964957, "lat": 28.6116265, "lon": 77.0371172}, {"type": "node", "id": 8812964958, "lat": 28.6117629, "lon": 77.0370729}, {"type": "node", "id": 8812964959, "lat": 28.6117434, "lon": 77.036995}, {"type": "node", "id": 8812964960, "lat": 28.6117221, "lon": 77.037002}, {"type": "node", "id": 8815115826, "lat": 28.6136773, "lon": 77.0341677}, {"type": "node", "id": 8815115827, "lat": 28.6135427, "lon": 77.0342122}, {"type": "node", "id": 8815115828, "lat": 28.6135684, "lon": 77.0343131}, {"type": "node", "id": 8815115829, "lat": 28.613512, "lon": 77.0343317}, {"type": "node", "id": 8815115830, "lat": 28.6135272, "lon": 77.0343914}, {"type": "node", "id": 8815115831, "lat": 28.6135829, "lon": 77.034373}, {"type": "node", "id": 8815115832, "lat": 28.6136094, "lon": 77.0344771}, {"type": "node", "id": 8815115833, "lat": 28.6137445, "lon": 77.0344324}, {"type": "node", "id": 8815115834, "lat": 28.6137148, "lon": 77.0343162}, {"type": "node", "id": 8815115835, "lat": 28.6137028, "lon": 77.0343202}, {"type": "node", "id": 8815115836, "lat": 28.6136948, "lon": 77.034289}, {"type": "node", "id": 8815115837, "lat": 28.6137071, "lon": 77.0342849}, {"type": "node", "id": 9521838984, "lat": 28.6116887, "lon": 77.0368684}, {"type": "node", "id": 9521838985, "lat": 28.6115735, "lon": 77.0369055}, {"type": "node", "id": 10942165684, "lat": 28.6133769, "lon": 77.0375393}, {"type": "node", "id": 10942165687, "lat": 28.6132921, "lon": 77.0375669}, {"type": "node", "id": 8815115473, "lat": 28.6137961, "lon": 77.0385359}, {"type": "node", "id": 8815115474, "lat": 28.6138052, "lon": 77.0385721}, {"type": "node", "id": 8815115475, "lat": 28.6138482, "lon": 77.038558}, {"type": "node", "id": 8815115476, "lat": 28.6138388, "lon": 77.0385212}, {"type": "node", "id": 8815115477, "lat": 28.6138745, "lon": 77.0385094}, {"type": "node", "id": 8815115478, "lat": 28.6138926, "lon": 77.0385807}, {"type": "node", "id": 8815115479, "lat": 28.613874, "lon": 77.0385869}, {"type": "node", "id": 8815115480, "lat": 28.6138833, "lon": 77.0386236}, {"type": "node", "id": 8815115481, "lat": 28.6137908, "lon": 77.0386541}, {"type": "node", "id": 8815115482, "lat": 28.6137793, "lon": 77.0386084}, {"type": "node", "id": 8815115483, "lat": 28.613726, "lon": 77.0386259}, {"type": "node", "id": 8815115484, "lat": 28.6137173, "lon": 77.0385919}, {"type": "node", "id": 8815115485, "lat": 28.6136972, "lon": 77.0385986}, {"type": "node", "id": 8815115486, "lat": 28.6136896, "lon": 77.0385685}, {"type": "node", "id": 8815115487, "lat": 28.6136976, "lon": 77.0385659}, {"type": "node", "id": 8815115488, "lat": 28.6136876, "lon": 77.0385268}, {"type": "node", "id": 8815115489, "lat": 28.6136804, "lon": 77.0385292}, {"type": "node", "id": 8815115490, "lat": 28.6136726, "lon": 77.0384984}, {"type": "node", "id": 8815115491, "lat": 28.6136926, "lon": 77.0384918}, {"type": "node", "id": 8815115492, "lat": 28.613677, "lon": 77.03843}, {"type": "node", "id": 8815115493, "lat": 28.6136561, "lon": 77.0384368}, {"type": "node", "id": 8815115494, "lat": 28.6136511, "lon": 77.0384171}, {"type": "node", "id": 8815115495, "lat": 28.6136594, "lon": 77.0384143}, {"type": "node", "id": 8815115496, "lat": 28.6136486, "lon": 77.0383711}, {"type": "node", "id": 8815115497, "lat": 28.6136398, "lon": 77.0383739}, {"type": "node", "id": 8815115498, "lat": 28.6136344, "lon": 77.0383524}, {"type": "node", "id": 8815115499, "lat": 28.6136604, "lon": 77.0383439}, {"type": "node", "id": 8815115500, "lat": 28.6136513, "lon": 77.0383077}, {"type": "node", "id": 8815115501, "lat": 28.6137013, "lon": 77.0382912}, {"type": "node", "id": 8815115502, "lat": 28.6136891, "lon": 77.0382424}, {"type": "node", "id": 8815115503, "lat": 28.6137849, "lon": 77.0382111}, {"type": "node", "id": 8815115504, "lat": 28.6137933, "lon": 77.0382445}, {"type": "node", "id": 8815115505, "lat": 28.6138126, "lon": 77.0382382}, {"type": "node", "id": 8815115506, "lat": 28.6138322, "lon": 77.0383158}, {"type": "node", "id": 8815115507, "lat": 28.6137941, "lon": 77.0383282}, {"type": "node", "id": 8815115508, "lat": 28.6137846, "lon": 77.0382905}, {"type": "node", "id": 8815115509, "lat": 28.613738, "lon": 77.0383057}, {"type": "node", "id": 8815115510, "lat": 28.6137473, "lon": 77.0383428}, {"type": "node", "id": 8815115511, "lat": 28.6137023, "lon": 77.0383576}, {"type": "node", "id": 8815115512, "lat": 28.6137382, "lon": 77.0383927}, {"type": "node", "id": 8815115513, "lat": 28.6137639, "lon": 77.0384942}, {"type": "node", "id": 8815115514, "lat": 28.6137375, "lon": 77.0385029}, {"type": "node", "id": 8815115515, "lat": 28.6137497, "lon": 77.0385511}, {"type": "node", "id": 8815115648, "lat": 28.6131575, "lon": 77.0377389}, {"type": "node", "id": 8815115649, "lat": 28.6129068, "lon": 77.0378193}, {"type": "node", "id": 8815115650, "lat": 28.6129787, "lon": 77.0381104}, {"type": "node", "id": 8815115651, "lat": 28.6132295, "lon": 77.03803}, {"type": "node", "id": 8815115652, "lat": 28.6137133, "lon": 77.0384009}, {"type": "node", "id": 9214583878, "lat": 28.6098787, "lon": 77.0398636}, {"type": "node", "id": 9214583879, "lat": 28.6097595, "lon": 77.0393958}, {"type": "node", "id": 10942165685, "lat": 28.6135225, "lon": 77.0381525}, {"type": "node", "id": 10942165686, "lat": 28.61343, "lon": 77.037763}, {"type": "node", "id": 10942165688, "lat": 28.6134419, "lon": 77.0381786}, {"type": "node", "id": 10942165689, "lat": 28.6133466, "lon": 77.0377894}, {"type": "node", "id": 10942165700, "lat": 28.6134826, "lon": 77.0381654}, {"type": "node", "id": 11942407006, "lat": 28.6165988, "lon": 77.0243106}, {"type": "node", "id": 11942419882, "lat": 28.6223155, "lon": 77.0229129}, {"type": "node", "id": 11942419883, "lat": 28.6222492, "lon": 77.0236106}, {"type": "node", "id": 11942419884, "lat": 28.6217285, "lon": 77.0237071}, {"type": "node", "id": 11942419885, "lat": 28.6214937, "lon": 77.0236987}, {"type": "node", "id": 11942419886, "lat": 28.6211121, "lon": 77.0237238}, {"type": "node", "id": 11942419887, "lat": 28.6208553, "lon": 77.0237238}, {"type": "node", "id": 11942419888, "lat": 28.6209375, "lon": 77.0234801}, {"type": "node", "id": 11942419889, "lat": 28.6209653, "lon": 77.0229798}, {"type": "node", "id": 11942419890, "lat": 28.6210974, "lon": 77.0229213}, {"type": "node", "id": 12319057895, "lat": 28.6227976, "lon": 77.0235668}, {"type": "node", "id": 12319057896, "lat": 28.622847, "lon": 77.0235829}, {"type": "node", "id": 12319057897, "lat": 28.6228517, "lon": 77.023607}, {"type": "node", "id": 12434902257, "lat": 28.6209258, "lon": 77.0235147}, {"type": "node", "id": 12434902264, "lat": 28.6209533, "lon": 77.0231954}, {"type": "node", "id": 2302117018, "lat": 28.6171336, "lon": 77.02639}, {"type": "node", "id": 2845728503, "lat": 28.6167151, "lon": 77.0266948}, {"type": "node", "id": 7382841994, "lat": 28.6189464, "lon": 77.0293254}, {"type": "node", "id": 7382841995, "lat": 28.6189299, "lon": 77.0294783}, {"type": "node", "id": 7382841996, "lat": 28.6189452, "lon": 77.0296526}, {"type": "node", "id": 7382841997, "lat": 28.6189311, "lon": 77.0296593}, {"type": "node", "id": 7382841998, "lat": 28.6186474, "lon": 77.0294045}, {"type": "node", "id": 7382841999, "lat": 28.6185732, "lon": 77.0293361}, {"type": "node", "id": 7382842000, "lat": 28.6185921, "lon": 77.0293213}, {"type": "node", "id": 7382842001, "lat": 28.6188605, "lon": 77.02932}, {"type": "node", "id": 7382842002, "lat": 28.6189029, "lon": 77.0293173}, {"type": "node", "id": 7382842003, "lat": 28.6189417, "lon": 77.029316}, {"type": "node", "id": 11930881404, "lat": 28.6171997, "lon": 77.0295963}, {"type": "node", "id": 11930881405, "lat": 28.6172032, "lon": 77.0292959}, {"type": "node", "id": 11930881406, "lat": 28.6175482, "lon": 77.029603}, {"type": "node", "id": 11930942468, "lat": 28.6182592, "lon": 77.0290612}, {"type": "node", "id": 11930960569, "lat": 28.6178849, "lon": 77.0287044}, {"type": "node", "id": 11930960570, "lat": 28.6182486, "lon": 77.0287245}, {"type": "node", "id": 11942407005, "lat": 28.616561, "lon": 77.0248091}, {"type": "node", "id": 11942520266, "lat": 28.616357, "lon": 77.0279782}, {"type": "node", "id": 12319057894, "lat": 28.6228941, "lon": 77.0230706}, {"type": "node", "id": 12319057898, "lat": 28.6229906, "lon": 77.0236231}, {"type": "node", "id": 12319057899, "lat": 28.623179, "lon": 77.0236285}, {"type": "node", "id": 12319057900, "lat": 28.6233697, "lon": 77.023607}, {"type": "node", "id": 12319070001, "lat": 28.6235651, "lon": 77.0236205}, {"type": "node", "id": 12319070002, "lat": 28.6236946, "lon": 77.0236285}, {"type": "node", "id": 12319070003, "lat": 28.6240631, "lon": 77.0236392}, {"type": "node", "id": 12319070004, "lat": 28.6242326, "lon": 77.0236553}, {"type": "node", "id": 12319070005, "lat": 28.6243974, "lon": 77.0236714}, {"type": "node", "id": 12319070006, "lat": 28.6244633, "lon": 77.0236687}, {"type": "node", "id": 12319070007, "lat": 28.6247741, "lon": 77.0237465}, {"type": "node", "id": 12319070008, "lat": 28.6249106, "lon": 77.0237787}, {"type": "node", "id": 12319070009, "lat": 28.625059, "lon": 77.0238189}, {"type": "node", "id": 12319070010, "lat": 28.625172, "lon": 77.0238458}, {"type": "node", "id": 12319070011, "lat": 28.6260101, "lon": 77.0239852}, {"type": "node", "id": 12319070012, "lat": 28.6263586, "lon": 77.0240603}, {"type": "node", "id": 12319070013, "lat": 28.6267682, "lon": 77.0241354}, {"type": "node", "id": 12319070014, "lat": 28.6272344, "lon": 77.0242642}, {"type": "node", "id": 12319070015, "lat": 28.6276582, "lon": 77.0243822}, {"type": "node", "id": 12319070016, "lat": 28.6277947, "lon": 77.0244144}, {"type": "node", "id": 12319070037, "lat": 28.6291178, "lon": 77.0233254}, {"type": "node", "id": 12319070038, "lat": 28.6286187, "lon": 77.0230035}, {"type": "node", "id": 12319070039, "lat": 28.6283645, "lon": 77.0228587}, {"type": "node", "id": 12319070040, "lat": 28.6282703, "lon": 77.0228533}, {"type": "node", "id": 12319070041, "lat": 28.6277194, "lon": 77.023084}, {"type": "node", "id": 12319070042, "lat": 28.6274227, "lon": 77.0231645}, {"type": "node", "id": 12319070043, "lat": 28.6270084, "lon": 77.0231323}, {"type": "node", "id": 12319070044, "lat": 28.6260843, "lon": 77.023084}, {"type": "node", "id": 12319070045, "lat": 28.6255899, "lon": 77.0230612}, {"type": "node", "id": 12319070046, "lat": 28.6245434, "lon": 77.0230961}, {"type": "node", "id": 12319070047, "lat": 28.6243844, "lon": 77.0230854}, {"type": "node", "id": 12319070048, "lat": 28.6240501, "lon": 77.0230854}, {"type": "node", "id": 12319070049, "lat": 28.6237652, "lon": 77.0230947}, {"type": "node", "id": 12319070050, "lat": 28.6235757, "lon": 77.0231014}, {"type": "node", "id": 12319070051, "lat": 28.6234203, "lon": 77.0230854}, {"type": "node", "id": 12319070052, "lat": 28.6231696, "lon": 77.0230505}, {"type": "node", "id": 12319070053, "lat": 28.6229553, "lon": 77.0229848}, {"type": "node", "id": 12319070054, "lat": 28.6228688, "lon": 77.0229472}, {"type": "node", "id": 12319070055, "lat": 28.6230256, "lon": 77.0230108}, {"type": "node", "id": 12319070056, "lat": 28.6231312, "lon": 77.0230528}, {"type": "node", "id": 12319070057, "lat": 28.62327, "lon": 77.0230644}, {"type": "node", "id": 12319070058, "lat": 28.6233487, "lon": 77.0230769}, {"type": "node", "id": 12319070059, "lat": 28.623511, "lon": 77.023098}, {"type": "node", "id": 12319070060, "lat": 28.6237017, "lon": 77.0230968}, {"type": "node", "id": 12319070061, "lat": 28.6239257, "lon": 77.0230904}, {"type": "node", "id": 12319070062, "lat": 28.6242035, "lon": 77.0230807}, {"type": "node", "id": 12319070063, "lat": 28.6243092, "lon": 77.0230852}, {"type": "node", "id": 12319070064, "lat": 28.6244735, "lon": 77.0230901}, {"type": "node", "id": 12319070065, "lat": 28.6246922, "lon": 77.0231041}, {"type": "node", "id": 12319070066, "lat": 28.6246184, "lon": 77.0231021}, {"type": "node", "id": 12319070067, "lat": 28.6248476, "lon": 77.0230986}, {"type": "node", "id": 12319070068, "lat": 28.6247971, "lon": 77.023098}, {"type": "node", "id": 12319070069, "lat": 28.6247382, "lon": 77.0231017}, {"type": "node", "id": 12319070070, "lat": 28.6252182, "lon": 77.0230793}, {"type": "node", "id": 12319070071, "lat": 28.6254996, "lon": 77.0230641}, {"type": "node", "id": 12319070072, "lat": 28.6257917, "lon": 77.0230697}, {"type": "node", "id": 12319070073, "lat": 28.6259398, "lon": 77.0230768}, {"type": "node", "id": 12319070017, "lat": 28.6283833, "lon": 77.0245646}, {"type": "node", "id": 12319070018, "lat": 28.6288118, "lon": 77.0246933}, {"type": "node", "id": 12319070019, "lat": 28.6292638, "lon": 77.0248221}, {"type": "node", "id": 12319070035, "lat": 28.6302432, "lon": 77.0241515}, {"type": "node", "id": 12319070036, "lat": 28.6296923, "lon": 77.0237438}, {"type": "node", "id": 12319070020, "lat": 28.6297723, "lon": 77.0249455}, {"type": "node", "id": 12319070021, "lat": 28.6302808, "lon": 77.0251118}, {"type": "node", "id": 12319070022, "lat": 28.6305586, "lon": 77.0251279}, {"type": "node", "id": 12319070023, "lat": 28.63094, "lon": 77.0252512}, {"type": "node", "id": 12319070024, "lat": 28.6312885, "lon": 77.0253424}, {"type": "node", "id": 12319070025, "lat": 28.6314203, "lon": 77.0253639}, {"type": "node", "id": 12319070026, "lat": 28.6315239, "lon": 77.0253693}, {"type": "node", "id": 12319070027, "lat": 28.6316981, "lon": 77.0254283}, {"type": "node", "id": 12319070028, "lat": 28.63199, "lon": 77.0255355}, {"type": "node", "id": 12319070029, "lat": 28.6320748, "lon": 77.0254014}, {"type": "node", "id": 12319070030, "lat": 28.6318535, "lon": 77.0253049}, {"type": "node", "id": 12319070031, "lat": 28.6317263, "lon": 77.0252459}, {"type": "node", "id": 12319070032, "lat": 28.6314344, "lon": 77.025042}, {"type": "node", "id": 12319070033, "lat": 28.6310813, "lon": 77.0247738}, {"type": "node", "id": 12319070034, "lat": 28.6307329, "lon": 77.0245217}]}