{"version": 0.6, "generator": "Overpass API 0.7.62.8 e802775f", "osm3s": {"timestamp_osm_base": "2025-11-22T14:26:00Z", "copyright": "The data included in this document is from www.openstreetmap.org. The data is made available under ODbL."}, "elements": [{"type": "node", "id": 248852574, "lat": 28.533492, "lon": 77.1518947, "tags": {"amenity": "cafe", "name": "Cafe Coffee Day"}}, {"type": "node", "id": 449452338, "lat": 28.5192021, "lon": 77.1611109, "tags": {"amenity": "restaurant"}}, {"type": "node", "id": 449453229, "lat": 28.522664, "lon": 77.1655706, "tags": {"amenity": "restaurant", "name": "Nirula's"}}, {"type": "node", "id": 1038392750, "lat": 28.5188931, "lon": 77.1888453, "tags": {"board_type": "history", "information": "board", "name": "Information Board for Balban's Tomb", "tourism": "information"}}, {"type": "node", "id": 1038392833, "lat": 28.5210119, "lon": 77.1832837, "tags": {"historic": "monument", "name": "Tombs"}}, {"type": "node", "id": 1038392872, "lat": 28.5205192, "lon": 77.1825491, "tags": {"historic": "monument", "name": "Tomb"}}, {"type": "node", "id": 1038392885, "lat": 28.5230419, "lon": 77.1863121, "tags": {"historic": "monument", "name": "Gateway Guest House (Metcalfe's Retreat)"}}, {"type": "node", "id": 1038392917, "lat": 28.5194708, "lon": 77.1873697, "tags": {"board_type": "history", "information": "board", "name": "Information Board for Jamali Kamali Mosque", "tourism": "information"}}, {"type": "node", "id": 1038392922, "lat": 28.5194881, "lon": 77.1876325, "tags": {"board_type": "history", "information": "board", "name": "Information Board for ruins around Balban's Tomb", "tourism": "information"}}, {"type": "node", "id": 1038392955, "lat": 28.5187218, "lon": 77.1879422, "tags": {"historic": "monument", "name": "Gumti"}}, {"type": "node", "id": 1038393170, "lat": 28.5198643, "lon": 77.1871761, "tags": {"historic": "monument", "name": "Jamali Kamali Tomb", "name:hi": "\u091c\u092e\u093e\u0932\u0940 \u0915\u092e\u093e\u0932\u0940 \u092e\u0915\u092c\u0930\u093e", "wikidata": "Q4292384", "wikimedia_commons": "Category:Jamali Kamali mosque and tomb", "wikipedia": "en:Jamali Kamali Mosque and Tomb"}}, {"type": "node", "id": 1486856990, "lat": 28.5254199, "lon": 77.1877269, "tags": {"information": "office", "name": "Qutub Minar Tickets", "name:ja": "\u30c1\u30b1\u30c3\u30c8\u58f2\u5834", "name:zh": "\u987e\u7279\u535c\u5854", "shop": "ticket", "tourism": "information"}}, {"type": "node", "id": 1486895412, "lat": 28.5247493, "lon": 77.1849651, "tags": {"height": "7", "historic": "monument", "name": "Iron Pillar", "name:ar": "\u0627\u0644\u0639\u0645\u0648\u062f \u0627\u0644\u062d\u062f\u064a\u062f\u064a", "name:de": "Eiserne S\u00e4ule", "name:fa": "\u0633\u062a\u0648\u0646 \u0622\u0647\u0646\u06cc \u062f\u0647\u0644\u06cc", "name:he": "\u05e2\u05de\u05d5\u05d3 \u05d4\u05d1\u05e8\u05d6\u05dc \u05e9\u05dc \u05d3\u05dc\u05d4\u05d9", "name:hi": "\u0932\u094c\u0939 \u0938\u094d\u0924\u0902\u092d", "name:ja": "\uff71\uff7c\uff6e\uff76\uff65\uff8b\uff9f\uff97\uff70", "name:ml": "\u0d07\u0d30\u0d41\u0d2e\u0d4d\u0d2a\u0d4d \u0d38\u0d4d\u0d24\u0d02\u0d2d\u0d02", "name:pt": "Pilar de ferro", "name:ru": "\u0416\u0435\u043b\u0435\u0437\u043d\u0430\u044f \u043a\u043e\u043b\u043e\u043d\u043d\u0430 \u0432 \u0414\u0435\u043b\u0438", "wikidata": "Q543419", "wikimedia_commons": "Category:Iron pillar", "wikipedia": "en:Iron pillar of Dehli"}}, {"type": "node", "id": 2990876410, "lat": 28.5020221, "lon": 77.177619, "tags": {"historic": "memorial"}}, {"type": "node", "id": 3577977213, "lat": 28.5148108, "lon": 77.1861527, "tags": {"name": "Sadhana Kendra Terapanth", "tourism": "Place of worship/Dharamshala"}}, {"type": "node", "id": 3635886968, "lat": 28.5467058, "lon": 77.1862798, "tags": {"name": "Zanskar Hostel", "tourism": "hostel"}}, {"type": "node", "id": 3635907905, "lat": 28.5454865, "lon": 77.1836133, "tags": {"name": "Faculty Guest House", "tourism": "guest_house"}}, {"type": "node", "id": 3635907906, "lat": 28.5459401, "lon": 77.1833417, "tags": {"name": "Nalanda Hostel", "tourism": "hostel"}}, {"type": "node", "id": 3636354670, "lat": 28.5482531, "lon": 77.1842325, "tags": {"amenity": "restaurant", "name": "Rakesh Cafeteria"}}, {"type": "node", "id": 3636354671, "lat": 28.5481648, "lon": 77.1842381, "tags": {"amenity": "restaurant", "name": "Southy"}}, {"type": "node", "id": 4138055091, "lat": 28.5006053, "lon": 77.1857471, "tags": {"addr:street": "100 Feet Road", "amenity": "cafe", "cuisine": "burger;regional;ice_cream;cake;coffee_shop;asian;pasta;noodles;pancake;donut;pizza;diner;indian;curry;fish;breakfast;tea;chinese;deli;barbecue", "diet:vegan": "yes", "internet_access": "wlan", "name": "subway, lavazza"}}, {"type": "node", "id": 5083177569, "lat": 28.5335951, "lon": 77.1805164, "tags": {"name": "Mayur Pahari", "name:en": "Peacock Hill", "name:hi": "\u092e\u092f\u0942\u0930 \u092a\u0939\u093e\u0921\u093c\u0940", "tourism": "viewpoint"}}, {"type": "node", "id": 5099590521, "lat": 28.5415537, "lon": 77.1552717, "tags": {"amenity": "restaurant", "name": "Food Court!", "name:en": "Food Court!"}}, {"type": "node", "id": 5205802423, "lat": 28.5143722, "lon": 77.1785585, "tags": {"historic": "monument", "name": "Jahaz Mahal", "name:en": "Jahaz Mahal", "name:hi": "\u091c\u0939\u093e\u091c\u093c \u092e\u0939\u0932", "wikidata": "Q6123216", "wikimedia_commons": "Category:Jahaz Mahal, Delhi", "wikipedia": "en:Jahaz Mahal"}}, {"type": "node", "id": 5371750021, "lat": 28.5268034, "lon": 77.1881657, "tags": {"amenity": "restaurant", "cuisine": "noodles;indian", "name": "Qutab Restaurant"}}, {"type": "node", "id": 5371750121, "lat": 28.5222274, "lon": 77.1818239, "tags": {"amenity": "restaurant", "cuisine": "noodles;indian;pizza", "name": "Cafe Twist"}}, {"type": "node", "id": 5516245321, "lat": 28.5285458, "lon": 77.1667015, "tags": {"addr:housenumber": "30", "addr:postcode": "110067", "addr:street": "Aruna Asif Ali Marg", "name": "30 Kamadhenu", "name:en": "Kamadhenu, IUAC", "tourism": "apartment"}}, {"type": "node", "id": 5516245621, "lat": 28.5284327, "lon": 77.1666122, "tags": {"addr:housenumber": "29", "addr:postcode": "110067", "addr:street": "Aruna Asif Ali Marg", "name": "Kamadhenu, IUAC", "tourism": "apartment"}}, {"type": "node", "id": 6071159158, "lat": 28.5014001, "lon": 77.1671574, "tags": {"amenity": "cafe", "brand": "Barista", "brand:wikidata": "Q644735", "cuisine": "coffee_shop", "name": "Barista", "takeaway": "yes"}}, {"type": "node", "id": 6417808142, "lat": 28.5277694, "lon": 77.1895212, "tags": {"alcohol": "yes", "amenity": "cafe", "name": "Chonas", "outdoor_seating": "yes"}}, {"type": "node", "id": 6444720686, "lat": 28.5261275, "lon": 77.1480966, "tags": {"addr:housenumber": "6067", "addr:postcode": "110070", "addr:street": "Abdul Gaffar Khan Marg", "name": "6067 Santusthi Apartment", "tourism": "apartment"}}, {"type": "node", "id": 6447238754, "lat": 28.5258116, "lon": 77.1439806, "tags": {"name": "Narmada", "tourism": "apartment"}}, {"type": "node", "id": 6447240233, "lat": 28.5263966, "lon": 77.1528343, "tags": {"amenity": "marketplace", "name": "Masoodpur market"}}, {"type": "node", "id": 6466155022, "lat": 28.5406405, "lon": 77.1852509, "tags": {"alcohol": "yes", "amenity": "restaurant", "cuisine": "chinese;indian", "name": "Dalchini"}}, {"type": "node", "id": 6709527685, "lat": 28.5265942, "lon": 77.1875219, "tags": {"amenity": "cafe", "name": "caf\u00e9 coffee day"}}, {"type": "node", "id": 6875344855, "lat": 28.5373025, "lon": 77.1473347, "tags": {"description": "Small, basic hostel. 4 bed dorm w/bathroom starting from 500 INR p.P. Poor WiFi. On demand snacks.", "name": "Delhi tales", "tourism": "hostel"}}, {"type": "node", "id": 6988161550, "lat": 28.5070388, "lon": 77.1751014, "tags": {"amenity": "cafe", "drink:tea": "yes", "level": "1", "name": "Chai Thela", "opening_hours": "Mo-Su 08:00-23:00"}}, {"type": "node", "id": 6988161553, "lat": 28.506973, "lon": 77.1752152, "tags": {"amenity": "cafe", "drink:tea": "yes", "level": "1", "name": "WHSmith", "opening_hours": "Mo-Su 08:00-23:00", "shop": "convenience"}}, {"type": "node", "id": 7041540685, "lat": 28.5033421, "lon": 77.1853988, "tags": {"amenity": "cafe", "name": "Quick Brown Fox Coffee Roasters"}}, {"type": "node", "id": 7041608385, "lat": 28.5037101, "lon": 77.1854284, "tags": {"amenity": "cafe", "name": "Greenr Cafe"}}, {"type": "node", "id": 8973694010, "lat": 28.5141111, "lon": 77.1674716, "tags": {"name": "Dinosaur Grass Structure", "tourism": "artwork"}}, {"type": "node", "id": 8973694011, "lat": 28.5140518, "lon": 77.1674619, "tags": {"name": "Lion Grass Structure", "tourism": "artwork"}}, {"type": "node", "id": 8973694012, "lat": 28.5141519, "lon": 77.1675155, "tags": {"name": "Elephant Grass Structure", "tourism": "artwork"}}, {"type": "node", "id": 9597425986, "lat": 28.5468313, "lon": 77.1815576, "tags": {"addr:city": "New Delhi", "addr:postcode": "110016", "guest_house": "apartment", "internet_access": "yes", "name": "Indraprasth Apartment 1", "operator": "IIT Delhi", "rooms": "54", "tourism": "hostel"}}, {"type": "node", "id": 10047592016, "lat": 28.5421331, "lon": 77.1861903, "tags": {"amenity": "restaurant", "cuisine": "bengali", "name": "Aahar"}}, {"type": "node", "id": 10047612517, "lat": 28.5421683, "lon": 77.1862089, "tags": {"amenity": "restaurant", "cuisine": "bengali", "name": "Sumona"}}, {"type": "node", "id": 10047612518, "lat": 28.5428668, "lon": 77.1849989, "tags": {"historic": "archaeological_site", "name": "Katwaria Sarai Gumbad"}}, {"type": "node", "id": 10266667809, "lat": 28.5459516, "lon": 77.1662223, "tags": {"internet_access": "wlan", "name": "Periyar Hostel", "tourism": "hostel"}}, {"type": "node", "id": 10266667909, "lat": 28.5447835, "lon": 77.1658856, "tags": {"internet_access": "wlan", "name": "Godawari Hostel", "tourism": "hostel"}}, {"type": "node", "id": 10266668009, "lat": 28.5451286, "lon": 77.1668574, "tags": {"internet_access": "wlan", "name": "Kaveri Hostel", "tourism": "hostel"}}, {"type": "node", "id": 10601652378, "lat": 28.5293484, "lon": 77.149021, "tags": {"amenity": "restaurant", "name": "Boulder Box Cafe"}}, {"type": "node", "id": 10873301706, "lat": 28.5244706, "lon": 77.1877559, "tags": {"name": "Spiral building", "tourism": "attraction"}}, {"type": "node", "id": 10873301707, "lat": 28.5223909, "lon": 77.1863754, "tags": {"name": "Rotunda", "tourism": "attraction"}}, {"type": "node", "id": 10873308805, "lat": 28.5248326, "lon": 77.187069, "tags": {"name": "Step pyramid", "tourism": "attraction"}}, {"type": "node", "id": 10873308806, "lat": 28.5231667, "lon": 77.1868527, "tags": {"name": "Locked gate blocks this path. One side is in Met", "name:en": "Locked gate blocks this path. One side is in Mehrauli (free) and the other in Qutab Minar", "tourism": "information"}}, {"type": "node", "id": 10873308905, "lat": 28.5235533, "lon": 77.1888021, "tags": {"name": "Walking entrance only", "tourism": "information"}}, {"type": "node", "id": 10873416506, "lat": 28.5183221, "lon": 77.186387, "tags": {"name": "Lodi gate, wall", "tourism": "attraction"}}, {"type": "node", "id": 10873417005, "lat": 28.5189199, "lon": 77.1843775, "tags": {"name": "Lodi era tombs", "tourism": "attraction"}}, {"type": "node", "id": 10873417006, "lat": 28.5195174, "lon": 77.1893225, "tags": {"name": "Hole in the fence, access to tomb", "tourism": "information"}}, {"type": "node", "id": 10873417007, "lat": 28.5198441, "lon": 77.1893483, "tags": {"name": "Hole in fence, access to tomb", "tourism": "information"}}, {"type": "node", "id": 10873417105, "lat": 28.5187402, "lon": 77.1863, "tags": {"name": "Ancient horse stable", "tourism": "attraction"}}, {"type": "node", "id": 10873417106, "lat": 28.5186122, "lon": 77.1889138, "tags": {"name": "Locked gate blocks path", "tourism": "information"}}, {"type": "node", "id": 10873417305, "lat": 28.5194548, "lon": 77.1874834, "tags": {"name": "This path blocked by a locked gate", "tourism": "information"}}, {"type": "node", "id": 11096935405, "lat": 28.5186597, "lon": 77.1816395, "tags": {"name": "Qutub Green Appartments", "tourism": "apartment"}}, {"type": "node", "id": 11242142955, "lat": 28.5485756, "lon": 77.1672137, "tags": {"amenity": "cafe", "check_date": "2023-10-06", "internet_access": "wlan", "internet_access:fee": "no", "name": "Tibetan food stop", "opening_hours": "Mo-Fr 11:00-23:00; Sa-Su off", "outdoor_seating": "yes", "payment:debit_cards": "yes", "payment:mastercard": "yes", "payment:visa": "yes", "wheelchair": "yes"}}, {"type": "node", "id": 11242142962, "lat": 28.5450618, "lon": 77.1665492, "tags": {"amenity": "cafe", "check_date": "2023-10-06", "internet_access": "wlan", "internet_access:fee": "no", "name": "godavari cafe", "opening_hours": "Mo-Fr 09:00-20:00; Sa-Su off", "outdoor_seating": "yes", "payment:mastercard": "yes", "payment:visa": "yes"}}, {"type": "node", "id": 11242142964, "lat": 28.5451565, "lon": 77.1638562, "tags": {"amenity": "cafe", "check_date": "2023-10-06", "internet_access": "wlan", "internet_access:fee": "no", "name": "sabarmati dhaba", "opening_hours": "Mo-Fr 09:00-20:00; Sa-Su off", "outdoor_seating": "yes", "payment:mastercard": "yes", "payment:visa": "yes", "wheelchair": "yes"}}, {"type": "node", "id": 11242142965, "lat": 28.5451985, "lon": 77.1634213, "tags": {"amenity": "cafe", "check_date": "2023-10-06", "internet_access": "wlan", "internet_access:fee": "no", "name": "24\u00d77 cafe", "opening_hours": "Mo-Fr 09:00-20:00; Sa-Su off", "outdoor_seating": "yes", "payment:mastercard": "yes", "payment:visa": "yes", "wheelchair": "yes"}}, {"type": "node", "id": 11242142971, "lat": 28.5428694, "lon": 77.1600819, "tags": {"amenity": "cafe", "check_date": "2023-10-06", "internet_access": "wlan", "internet_access:fee": "no", "name": "mugal darbar", "opening_hours": "Mo-Fr 11:00-20:00", "outdoor_seating": "no", "payment:mastercard": "yes", "payment:visa": "yes", "wheelchair": "yes"}}, {"type": "node", "id": 11242142972, "lat": 28.5334719, "lon": 77.1692917, "tags": {"check_date": "2023-10-06", "internet_access": "wlan", "internet_access:fee": "no", "name": "bharmputra hostel", "opening_hours": "24/7", "tourism": "hostel"}}, {"type": "node", "id": 11242142973, "lat": 28.5335432, "lon": 77.1692029, "tags": {"amenity": "cafe", "check_date": "2023-10-06", "internet_access": "wlan", "internet_access:fee": "no", "name": "paratha wala", "outdoor_seating": "no", "payment:mastercard": "yes", "payment:visa": "yes", "wheelchair": "no"}}, {"type": "node", "id": 11773137248, "lat": 28.524862, "lon": 77.1859801, "tags": {"information": "board", "name": "Braille map of Qutub Minar", "tourism": "information"}}, {"type": "node", "id": 11773137249, "lat": 28.5255329, "lon": 77.1854152, "tags": {"information": "board", "name": "Alai Minar", "tourism": "information"}}, {"type": "node", "id": 11773137251, "lat": 28.5244981, "lon": 77.1855419, "tags": {"information": "board", "name": "Qutb Minar", "tourism": "information"}}, {"type": "node", "id": 11773137255, "lat": 28.5244872, "lon": 77.1852029, "tags": {"information": "board", "name": "Iron Pillar", "tourism": "information"}}, {"type": "node", "id": 11773137262, "lat": 28.5248704, "lon": 77.1860381, "tags": {"information": "board", "name": "Map of Qutub Minar", "tourism": "information"}}, {"type": "node", "id": 11773168174, "lat": 28.5250786, "lon": 77.1847178, "tags": {"information": "board", "name": "Tomb of Shamsuddin Iltutmish", "tourism": "information"}}, {"type": "node", "id": 11773168177, "lat": 28.5243031, "lon": 77.1861364, "tags": {"information": "board", "name": "Sanderson\u2019s Sundial", "tourism": "information"}}, {"type": "node", "id": 12134919466, "lat": 28.5020662, "lon": 77.1858433, "tags": {"addr:street": "100 Feet Road", "amenity": "restaurant", "name": "Haldiram's"}}, {"type": "node", "id": 12134955139, "lat": 28.5035982, "lon": 77.1896185, "tags": {"addr:housenumber": "C16", "addr:street": "Street no. 10", "name": "AmigosIndia", "tourism": "hostel"}}, {"type": "node", "id": 12183551783, "lat": 28.5292523, "lon": 77.1440096, "tags": {"addr:city": "New Delhi", "addr:housenumber": "D-8", "addr:postcode": "110070", "addr:street": "Vasant Kunj", "leisure": "park", "name": "D-8 Park", "operator": "DDA", "operator:type": "public"}}, {"type": "node", "id": 12229128501, "lat": 28.5369689, "lon": 77.1818893, "tags": {"leisure": "park", "name": "Sanjay Van gate (near IIFT)"}}, {"type": "node", "id": 12285034807, "lat": 28.5272343, "lon": 77.1832682, "tags": {"description": "Remnants of a water tank", "historic": "ruins", "name": "Anangtal"}}, {"type": "node", "id": 12285038430, "lat": 28.5276529, "lon": 77.1813592, "tags": {"alt_name": "Qila Rai Pithora", "castle_type": "fortress", "historic": "castle", "name": "Lal Kot", "name:hi": "\u0932\u093e\u0932 \u0915\u094b\u091f", "wikipedia": "en:Qila_Rai_Pithora"}}, {"type": "node", "id": 12285047834, "lat": 28.5234721, "lon": 77.1874417, "tags": {"alt_name": "Lal Kot Gate", "historic": "monument", "name": "Chaumukha Darwaza"}}, {"type": "node", "id": 12285090581, "lat": 28.5290611, "lon": 77.1790045, "tags": {"alt_name": "Ghazni Gate", "historic": "ruins", "name": "Ranjit Gate"}}, {"type": "node", "id": 12285090590, "lat": 28.5311808, "lon": 77.1809561, "tags": {"historic": "tomb", "name": "Tomb Of Haji Rozbith"}}, {"type": "node", "id": 12851629041, "lat": 28.5416723, "lon": 77.1609499, "tags": {"name": "Barak Hostel", "tourism": "hostel"}}, {"type": "way", "id": 31565334, "nodes": [353198148, 353198149, 353198151, 353198152, 353198153, 353198155, 353198156, 353198158, 353198148], "tags": {"building": "yes", "building:levels": "4", "building:material": "brick", "roof:shape": "flat", "tourism": "guest_house"}}, {"type": "way", "id": 31658481, "nodes": [354260569, 354260570, 354260571, 354260572, 354260569], "tags": {"access": "private", "leisure": "park"}}, {"type": "way", "id": 31658491, "nodes": [354261569, 354261571, 354261573, 354261575, 354261569], "tags": {"access": "customers", "amenity": "restaurant", "building": "yes", "building:levels": "3", "building:material": "brick", "level": "0", "name": "Students' Mess", "operator": "Indian Statistical Institute, Delhi", "roof:shape": "flat", "self_service": "yes"}}, {"type": "way", "id": 38170389, "nodes": [449453525, 5291753409, 5291753408, 2008921256, 449453526, 2008921286, 449453527, 449453529, 449453525], "tags": {"barrier": "wall", "leisure": "park", "name": "Vasant Vatika"}}, {"type": "way", "id": 44408529, "nodes": [564483458, 564483351, 3579771595, 3579771598, 564483458], "tags": {"building": "yes", "name": "Nalanda", "tourism": "hostel"}}, {"type": "way", "id": 89583596, "nodes": [1038392610, 1038392648, 1038392711, 1038392785, 1038392802, 1038392859, 1038392831, 1038393059, 1038393131, 1038392610], "tags": {"amenity": "place_of_worship", "historic": "monument", "name": "Jamali Kamali Mosque", "name:hi": "\u091c\u092e\u093e\u0932\u0940 \u0915\u092e\u093e\u0932\u0940 \u092e\u0938\u094d\u091c\u093f\u0926", "religion": "muslim"}}, {"type": "way", "id": 89583599, "nodes": [1038393061, 1038392968, 1038392976, 1038393047, 1038393061], "tags": {"building": "tomb", "historic": "monument", "name": "Tomb Of Balban", "name:hi": "\u092c\u0932\u092c\u0928 \u0915\u093e \u092e\u0915\u092c\u0930\u093e", "wikidata": "Q7818610", "wikimedia_commons": "Category:Tomb of Balban", "wikipedia": "en:Tomb of Balban"}}, {"type": "way", "id": 89583601, "nodes": [1038392632, 1038392676, 1038392739, 1038392813, 1038392759, 1038393059, 1038392831, 1038392859, 1038392632], "tags": {"historic": "monument", "name": "Jamali Kamali Tomb Precinct", "name:hi": "\u091c\u092e\u093e\u0932\u0940 \u0915\u092e\u093e\u0932\u0940 \u092e\u0915\u092c\u0930\u093e \u0915\u094d\u0937\u0947\u0924\u094d\u0930"}}, {"type": "way", "id": 89583605, "nodes": [1038392883, 1038393110, 1038393182, 1038392643, 1038392850, 1038392912, 1038392966, 1038393011, 1038393191, 1038392647, 1038392710, 1038392784, 1038392972, 1038393012, 1038393044, 1038393114, 1038392730, 1038392883], "tags": {"historic": "ruins", "name": "Ruins of 18th C settlement around Balban's Tomb"}}, {"type": "way", "id": 89583606, "nodes": [1038392666, 1038392938, 1038392983, 1038393017, 1038393214, 1038392675, 1038392736, 1038392811, 1038392991, 1038393028, 1038393072, 1038393142, 1038392748, 1038392827, 1038392887, 1038392943, 1038392666], "tags": {"building": "yes", "historic": "tomb", "name": "Khan Shahid Tomb", "name:hi": "\u0916\u093e\u0928 \u0936\u093e\u0939\u093f\u0926 \u092e\u0915\u092c\u0930\u093e"}}, {"type": "way", "id": 89583607, "nodes": [1038392708, 1038393082, 13132333401, 13132333402, 1038393148, 1038393217, 1038392829, 1038392889, 1038392946, 2507400444, 9536890787, 9536890780, 1038392993, 2507400460, 2507400419, 2507400432, 1038392623, 2507400458, 2975859140, 4217073504, 2975859142, 2975859146, 2975859152, 2975859143, 939328653, 2975859144, 2975859151, 939328745, 1038392953, 1038392998, 1038393036, 1038393092, 1038392701, 1038392762, 1038392708], "tags": {"historic": "archaeological_site", "leisure": "park", "name": "Mehrauli Archaeological Park", "name:hi": "\u092e\u0939\u0930\u094c\u0932\u0940 \u092a\u0941\u0930\u093e\u0924\u0924\u094d\u0935 \u092a\u093e\u0930\u094d\u0915"}}, {"type": "way", "id": 97228608, "nodes": [1126274666, 1126274755, 1126274710, 1126274718, 1126274675, 1126274686, 1126274629, 1126274649, 1126274790, 1126274666], "tags": {"alt_name": "Bhoolbhulaiya", "historic": "monument", "name": "Adham Khan's Tomb", "name:en": "Adham Khan's Tomb", "wikidata": "Q4150017", "wikimedia_commons": "Category:Tomb of Adham Khan", "wikipedia": "en:Tomb of Adham Khan"}}, {"type": "way", "id": 190293838, "nodes": [2008955297, 2008955321, 2008955315, 2008955285, 2008955297], "tags": {"leisure": "park"}}, {"type": "way", "id": 190293839, "nodes": [2008955224, 2008955181, 2008955159, 2008955209, 2008955224], "tags": {"leisure": "park"}}, {"type": "way", "id": 190293840, "nodes": [2008955175, 2008955147, 2008955139, 2008955156, 2008955175], "tags": {"leisure": "park"}}, {"type": "way", "id": 190293841, "nodes": [2008955115, 2008955100, 2008955094, 2008955073, 2008955070, 2008955081, 2008955079, 2008955113, 2008955115], "tags": {"leisure": "park"}}, {"type": "way", "id": 190293842, "nodes": [2008955234, 2008955260, 2008955245, 2008955198, 2008955121, 2008955127, 2008955194, 2008955207, 2008955232, 2008955234], "tags": {"leisure": "park"}}, {"type": "way", "id": 190296297, "nodes": [2008989758, 2009111791, 12389550089, 2009111794, 12389550088, 2008990010, 2008989960, 2008989926, 2008989849, 2008989758], "tags": {"addr:city": "New Delhi", "addr:country": "IN", "addr:housename": "The Grand", "addr:postcode": "110070", "addr:street": "Nelson Mandela Road", "barrier": "wall", "landuse": "commercial", "name": "The Grand New Delhi", "tourism": "hotel", "website": "https://www.thegrandnewdelhi.com/", "wikidata": "Q19458671"}}, {"type": "way", "id": 190323353, "nodes": [2009302597, 2009302632, 2669986384, 2009302607, 2009302588, 2009302580, 2669986383, 2009302557, 2009302561, 2009302515, 2009302571, 2009302590, 2009302597], "tags": {"leisure": "park"}}, {"type": "way", "id": 190323354, "nodes": [2009302602, 2669986392, 2009302624, 2009302637, 2009302615, 2009302602], "tags": {"leisure": "park"}}, {"type": "way", "id": 190323357, "nodes": [2009302400, 2009302393, 2009302412, 2009302417, 2009302456, 2009302400], "tags": {"leisure": "park"}}, {"type": "way", "id": 190333711, "nodes": [2009502897, 2009502794, 2009502775, 2009502842, 2009502897], "tags": {"leisure": "park"}}, {"type": "way", "id": 190333716, "nodes": [2009502614, 2009502558, 2009502603, 2009502617, 2009502637, 2009502678, 2009502614], "tags": {"barrier": "wall", "leisure": "park"}}, {"type": "way", "id": 190333718, "nodes": [2009502834, 2009502778, 2009502763, 2009502780, 2009502781, 2009502819, 2009502834], "tags": {"leisure": "park"}}, {"type": "way", "id": 190342551, "nodes": [2009601954, 2009601938, 2009601893, 2009601906, 2009601917, 2009601927, 2009601929, 2009601931, 2009601925, 2009601950, 2009601948, 2009601952, 2009601954], "tags": {"leisure": "park"}}, {"type": "way", "id": 260125961, "nodes": [2656099944, 2656099914, 2656099937, 2009111881, 2656099944], "tags": {"building": "yes", "landuse": "commercial", "name": "Madhyanchal", "tourism": "guest_house"}}, {"type": "way", "id": 265034163, "nodes": [2706856536, 2706856546, 2706856561, 2706856564, 2706856536], "tags": {"barrier": "wall", "tourism": "hotel"}}, {"type": "way", "id": 275406656, "nodes": [2800367394, 2800367393, 2706856536, 2706856564, 352904291, 352904287, 2800367397, 2800367395, 2800367396, 2800367394], "tags": {"barrier": "wall", "leisure": "park"}}, {"type": "way", "id": 280018227, "nodes": [12942042710, 2841942705, 2841942708, 2841942714, 2841942716, 2841942719, 2841942710, 2841942706, 2008570349, 2008570362, 2008570357, 2841942712, 2841942715, 2841942713, 2008989758, 2009111791, 2656033347, 2841942727, 2841942728, 2841942729, 2841942726, 2841942725, 12942042711, 12942042712, 12942042710], "tags": {"barrier": "wall", "leisure": "park"}}, {"type": "way", "id": 294018586, "nodes": [2975859167, 2975859173, 2975859172, 2975859169, 2975859168, 2975859162, 2975859164, 2975859175, 2975859176, 2975859174, 2975859171, 2975859167], "tags": {"barrier": "wall", "leisure": "park"}}, {"type": "way", "id": 294018588, "nodes": [2975859178, 2975859190, 2975859192, 2975859177, 2975859178], "tags": {"barrier": "wall", "leisure": "park"}}, {"type": "way", "id": 297693704, "nodes": [3015896888, 3015896889, 3015896890, 3015896921, 3015896919, 3015896920, 3015896918, 3015896891, 3015896892, 3015896893, 3015896888], "tags": {"leisure": "park", "name": "Central Park, Sector B, Pocket 7, Vasant Kunj"}}, {"type": "way", "id": 297693706, "nodes": [3015896894, 3015896895, 3015896896, 3015896897, 3015896894], "tags": {"leisure": "park", "name": "Children's Park, Sector B, Pocket 7"}}, {"type": "way", "id": 300596290, "nodes": [3046744877, 3046744878, 3046744879, 3046744880, 3046744881, 3046744882, 3046744883, 3046744877], "tags": {"leisure": "park"}}, {"type": "way", "id": 340381516, "nodes": [3476029082, 3476029083, 3476029084, 3476029087, 3476029082], "tags": {"addr:city": "Delhi", "addr:postcode": "110067", "addr:street": "Jawaharlal Nehru University", "amenity": "cafe", "building": "yes", "cuisine": "Tea,_coffee,_shakes,_banta,_nimbu_pani,_samosa,_bread_roll,_rolls,_etc.", "internet_access": "no", "name": "Ganga Dhaba", "opening_hours": "10:00-24:00", "smoking": "yes"}}, {"type": "way", "id": 340387312, "nodes": [3476094084, 3476094085, 3476094086, 3476094087, 3476094084], "tags": {"addr:postcode": "110067", "addr:street": "Jawaharlal Nehru University", "amenity": "cafe", "building": "yes", "cuisine": "roti;chawal;dal;sabji;chicken", "internet_access": "no", "name": "Ram Singh's Dhaba", "opening_hours": "17:00-23:00", "smoking": "yes"}}, {"type": "way", "id": 340391149, "nodes": [3476121928, 3476121929, 3476121930, 3476121931, 3476121932, 3476121933, 3476121934, 3476121935, 3476121936, 3476121937, 3476121938, 3476121939, 3476121940, 3476121941, 3476121942, 3476121943, 3476121928], "tags": {"addr:postcode": "110067", "addr:street": "Jawaharlal Nehru University", "building": "yes", "ele": "3", "name": "Sutlej Hostel (Men's)", "operator": "Jawaharlal Nehru University", "tourism": "hostel"}}, {"type": "way", "id": 340394166, "nodes": [3476174929, 3476174930, 3476174931, 3476174932, 3476174933, 3476174934, 3476174935, 3476174936, 3476174937, 3476174938, 3476174939, 3476174940, 3476174941, 3476174942, 3476174943, 3476174944, 3476174929], "tags": {"building": "yes", "ele": "3", "name": "Jhelum Hostel (Men's)", "operator": "Jawaharlal Nehru University", "tourism": "hostel"}}, {"type": "way", "id": 340397724, "nodes": [3476212526, 3476212527, 3476212528, 3476212529, 3476212526], "tags": {"addr:street": "Jawaharlal Nehru University", "amenity": "cafe", "building": "yes", "cuisine": "Tea,_coffee,_momo,_sandwich,_etc.", "name": "Food Shop"}}, {"type": "way", "id": 340398004, "nodes": [3476217505, 3476217506, 3476217507, 3476217508, 3476217505], "tags": {"addr:postcode": "110067", "addr:street": "Jawaharlal Nehru University", "amenity": "cafe", "building": "yes", "name": "Amul Shop"}}, {"type": "way", "id": 340398416, "nodes": [3476223993, 3476223994, 3476223995, 3476223996, 3476223997, 3476223998, 3476223993], "tags": {"addr:postcode": "110067", "addr:street": "Jawaharlal Nehru University", "building": "yes", "ele": "3", "name": "Yamuna Hostel (Women's)", "tourism": "hostel"}}, {"type": "way", "id": 340398522, "nodes": [3476225711, 3476225712, 3476225713, 3476225714, 3476225711], "tags": {"addr:street": "Jawaharlal Nehru University", "building": "yes", "ele": "2", "name": "Aravalli International Guest House", "operator": "Jawaharlal Nehru University", "tourism": "guest_house"}}, {"type": "way", "id": 340400594, "nodes": [3476246382, 3476246383, 3476246384, 3476246385, 3476246386, 3476246387, 3476246388, 4362407098, 3476246382], "tags": {"leisure": "park", "name": "D 6 Park"}}, {"type": "way", "id": 340402608, "nodes": [3476267380, 3476267381, 3476267382, 3476267383, 3476267380], "tags": {"addr:street": "Jawaharlal Nehru University", "building": "yes", "ele": "3", "name": "Sabarmati Hostel (Co-Ed)", "operator": "Jawaharlal Nehru University", "tourism": "hostel"}}, {"type": "way", "id": 350005094, "nodes": [3557683611, 3557683249, 3557682951, 3557683200, 3557683611], "tags": {"building": "yes", "name": "Mayas Nest-A Bed & Breakfast", "tourism": "hostel"}}, {"type": "way", "id": 350751627, "nodes": [3565023385, 3574037400, 3574037707, 3574037401, 3574037708, 3565023403, 3565023399, 3565023365, 3565023385], "tags": {"designation": "Hostel", "name": "Mahi-Mandavi Hostel", "source": "JNU", "tourism": "hostel"}}, {"type": "way", "id": 350751659, "nodes": [3565024027, 3565023831, 3565023561, 3565023840, 3565024027], "tags": {"building": "yes", "name": "Narmada Hostel", "tourism": "hostel"}}, {"type": "way", "id": 350751676, "nodes": [3565023275, 3565023326, 3565023312, 3565023267, 3565023275], "tags": {"designation": "Hostel", "name": "Chandrabhaga Hostel", "source": "JNU", "tourism": "hostel"}}, {"type": "way", "id": 350751687, "nodes": [3565023345, 3565023395, 3565023390, 3565023334, 3565023345], "tags": {"designation": "hostel", "name": "Koyna Hostel", "source": "JNU", "tourism": "hostel"}}, {"type": "way", "id": 350751697, "nodes": [3565023348, 3565023394, 3565023389, 3565023335, 3565023348], "tags": {"designation": "Hostel", "name": "Lohit Hostel", "source": "JNU", "tourism": "hostel"}}, {"type": "way", "id": 350751702, "nodes": [3565023287, 3565023338, 3565023327, 3565023277, 3565023287], "tags": {"designation": "hostel", "name": "Shipra Hostel", "source": "JNU", "tourism": "hostel"}}, {"type": "way", "id": 358699046, "nodes": [3635886956, 3635886957, 3635886958, 3635886959, 3635886960, 3635886961, 3635886962, 3635886963, 3635886964, 3635886965, 3635886966, 3635886967, 3635886956], "tags": {"building": "yes", "name": "Shivalik Hostel", "tourism": "hostel"}}, {"type": "way", "id": 358870958, "nodes": [3636960444, 3636960445, 3636960446, 3636960447, 3636960448, 3636960449, 3636960450, 3636960451, 3636960452, 3636960453, 3636960454, 3636960455, 3636960456, 3636960457, 3636960458, 3636960459, 3636960460, 3636960461, 3636960462, 3636960463, 3636960464, 3636960478, 3636960465, 3636960466, 3636960467, 3636960468, 3636960444], "tags": {"building": "yes", "check_date": "2025-08-25", "name": "Udaigiri", "tourism": "hostel"}}, {"type": "way", "id": 358870959, "nodes": [3636960469, 3636960470, 3636960471, 3636960472, 3636960473, 3636960474, 3636960475, 3636960476, 3636960477, 10804327741, 3636960479, 3636960480, 3636960481, 3636960482, 3636960483, 5527920791, 3636960485, 3636960486, 3636960487, 3636960488, 3636960489, 3636960490, 3636960491, 3636960492, 3636985293, 3636960469], "tags": {"building": "yes", "check_date": "2025-08-25", "name": "Girnar", "tourism": "hostel"}}, {"type": "way", "id": 358870961, "nodes": [3636985314, 3636985315, 3636985316, 3636985317, 3636985318, 3636985319, 3636985320, 3636985321, 3636985322, 3636985323, 3636985324, 10051442720, 10051442719, 3636985325, 3636985326, 3636985327, 3636985328, 3636985329, 3636985330, 3636985331, 3636985332, 3636985333, 3636985334, 3636985314], "tags": {"building": "yes", "building:levels": "4", "name": "Aravali Hostel", "toilets:wheelchair": "yes", "tourism": "hostel", "wheelchair": "limited"}}, {"type": "way", "id": 358870962, "nodes": [3636985335, 3636985336, 3636985337, 3636985338, 3636985339, 3636985340, 3636985341, 3636985342, 3636985343, 3636985344, 3636985345, 13294675736, 13294675737, 3636985346, 3636985347, 3636985348, 3636985349, 3636985350, 3636985351, 3636985352, 3636985353, 3636985354, 3636985335], "tags": {"building": "yes", "building:levels": "4", "check_date": "2025-08-25", "name": "Karakoram", "tourism": "hostel"}}, {"type": "way", "id": 358870963, "nodes": [3636985355, 3636985356, 3636985357, 3636985358, 3636985359, 3636985360, 3636985361, 3636985362, 3636985363, 3636985364, 3636985365, 11430045096, 11430045097, 11430045095, 11430045094, 3636985366, 3636985367, 3636985368, 3636985369, 3636985370, 3636985371, 3636985372, 3636985373, 3636985374, 3636985375, 3636985376, 3636985355], "tags": {"addr:city": "New Delhi", "addr:postcode": "110016", "addr:street": "JC Bose Marg", "building": "yes", "building:levels": "4", "internet_access": "wlan", "name": "Nilgiri", "operator": "IIT delhi", "rooms": "300", "tourism": "hostel"}}, {"type": "way", "id": 369140381, "nodes": [3729556779, 3729556773, 3729556774, 3729556775, 3729556776, 3729556777, 7645753116, 3729556780, 3729556781, 7645753117, 7645753118, 7645753119, 3729556782, 3729556764, 3729556765, 3729556769, 3729556770, 3729556771, 3729556766, 3729556767, 3729556768, 3729556779], "tags": {"access": "yes", "alt_name": "Qutub Minar", "building": "yes", "height": "72.5", "historic": "monument", "historic:civilization": "medieval", "name": "Qutb Minar", "name:ar": "\u0642\u0637\u0628 \u0645\u064a\u0646\u0627\u0631", "name:fa": "\u0642\u0637\u0628 \u0645\u064a\u0646\u0627\u0631", "name:he": "\u05e7\u05d5\u05d8\u05d5\u05d1 \u05de\u05d9\u05e0\u05d0\u05e8", "name:hi": "\u0915\u0941\u0924\u0941\u092c \u092e\u0940\u0928\u093e\u0930", "name:ml": "\u0d15\u0d41\u0d24\u0d4d\u0d24\u0d2c\u0d4d \u0d2e\u0d3f\u0d28\u0d3e\u0d7c", "name:ru": "\u041a\u0443\u0442\u0431-\u041c\u0438\u043d\u0430\u0440", "name:te": "\u0c15\u0c41\u0c24\u0c41\u0c2c\u0c4d \u0c2e\u0c3f\u0c28\u0c3e\u0c30\u0c4d", "name:ur": "\u0642\u0637\u0628 \u0645\u06cc\u0646\u0627\u0631", "wikidata": "Q187635", "wikimedia_commons": "Category:Qutb Minar", "wikipedia": "en:Qutb Minar"}}, {"type": "way", "id": 370543234, "nodes": [3742396935, 3742396934, 3742396937, 3742396939, 3742396941, 3742396943, 3742396945, 3742396944, 3742396942, 3742396940, 3742396938, 3742396936, 3742396935], "tags": {"leisure": "park", "name": "Qutab Park", "name:hi": "\u0915\u0941\u0924\u0941\u092c \u092a\u093e\u0930\u094d\u0915"}}, {"type": "way", "id": 370543235, "nodes": [1486857007, 3742396930, 3742396929, 3742396927, 3742396928, 3742396932, 3742396946, 3742396949, 7013729012, 7013728994, 7013728990, 3742396952, 3742396953, 3742396951, 3742396950, 3742396933, 1486857009, 3742396931, 1486857007], "tags": {"barrier": "wall", "leisure": "park", "name": "Tara Vala Park"}}, {"type": "way", "id": 415208849, "nodes": [4162591445, 4162591446, 4162591447, 4162591448, 6364676348, 4162591445], "tags": {"leisure": "park", "name": "Walking Track and Park"}}, {"type": "way", "id": 470225063, "nodes": [4644341344, 4644341345, 4644341349, 4644341350, 4644341348, 4644341347, 4644341346, 4644341344], "tags": {"leisure": "park", "name": "Shamshi park"}}, {"type": "way", "id": 470226662, "nodes": [4644350467, 4644350468, 4644350469, 4644350472, 4644350473, 4644350471, 4644350470, 4644350467], "tags": {"leisure": "park", "name": "Picnic hut Ground"}}, {"type": "way", "id": 476004361, "nodes": [2654012009, 4696725595, 4696725368, 4696725381, 4696725311, 4696725590, 2654012009], "tags": {"historic": "monument", "name": "Ala'i Darwaza", "name:ar": "\u0639\u0644\u0627\u0621 \u062f\u0631\u0648\u0632\u0629", "name:fa": "\u0639\u0644\u0627\u0621 \u062f\u0631\u0648\u0627\u0632\u0647", "name:hi": "\u0905\u0932\u093e\u0908 \u0926\u0930\u0935\u093e\u091c\u093e", "name:ml": "\u0d05\u0d32\u0d3e\u0d2f\u0d4d \u0d26\u0d7c\u0d35\u0d3e\u0d38", "name:ur": "\u062f\u0631\u0648\u0627\u0632\u0647 \u0639\u0644\u0627\u06cc\u06cc", "wikidata": "Q61638119", "wikimedia_commons": "Category:Alai Gate", "wikipedia": "en:Alai Darwaza"}}, {"type": "way", "id": 476004365, "nodes": [4696725350, 4696725330, 4696725360, 4696725320, 4696725352, 4696725306, 4696725594, 4696725312, 4696725338, 4696725333, 4696725341, 4696725365, 4696725344, 4696725355, 4696725331, 4696725350], "tags": {"building": "yes", "historic": "building", "name": "Alai Minar", "name:ar": "\u0639\u0644\u0627\u0621 \u0645\u0646\u0627\u0631", "name:fa": "\u0645\u0646\u0627\u0631 \u0639\u0644\u0627\u06cc\u06cc", "name:hi": "\u0905\u0932\u093e\u0908 \u092e\u0940\u0928\u093e\u0930", "name:ml": "\u0d05\u0d32\u0d3e\u0d2f\u0d4d \u0d2e\u0d3f\u0d28\u0d3e\u0d7c", "wikidata": "Q62915972", "wikimedia_commons": "Category:Alai Minar"}}, {"type": "way", "id": 479830744, "nodes": [4728741059, 4728741060, 4728741061, 4728741062, 4728741063, 4728741064, 4728741065, 4728741066, 4728741067, 4728741068, 4728741069, 4728741059], "tags": {"amenity": "restaurant", "building": "yes", "name": "Library Canteen"}}, {"type": "way", "id": 542443914, "nodes": [5244426484, 5244426485, 5244426486, 5244426487, 5244426484], "tags": {"leisure": "park"}}, {"type": "way", "id": 543282135, "nodes": [3576437835, 5251925069, 3576437807, 3576437799, 3576437809, 3576437800, 10051442724, 3576437798, 3576437802, 10051442726, 10051442727, 10051442725, 3576437822, 3576437833, 3576437823, 10051442723, 10051442722, 10051442721, 3576437841, 3576437846, 3576437835], "tags": {"building": "yes", "name": "Kumaon Hostel", "tourism": "hostel", "wheelchair": "yes"}}, {"type": "way", "id": 545592957, "nodes": [5272999806, 5272999807, 4218568028, 2990876412, 2990876414, 2990876413, 5907499576, 9869567376, 5579857870, 5272999806], "tags": {"landuse": "recreation_ground", "leisure": "park", "playground": "yes"}}, {"type": "way", "id": 547679447, "nodes": [2008921536, 5291753396, 5291753397, 3563327433, 5291753400, 5291753399, 5291753401, 5291753398, 2008921536], "tags": {"leisure": "park", "name": "C-6 Vasant Kunj Park"}}, {"type": "way", "id": 547679448, "nodes": [2008921579, 2008921562, 5291753402, 5291753403, 2008921579], "tags": {"leisure": "park", "name": "Central Park C-6"}}, {"type": "way", "id": 547679449, "nodes": [5291753404, 5291753405, 5291753406, 5291753407, 5291753404], "tags": {"leisure": "park", "name": "Back Park C-6"}}, {"type": "way", "id": 554909507, "nodes": [5354777953, 5354777954, 5354777955, 5354777956, 5354777953], "tags": {"leisure": "park"}}, {"type": "way", "id": 601727519, "nodes": [5717922156, 5717922157, 5717922158, 5717922159, 5717922156], "tags": {"addr:city": "Delhi", "addr:housenumber": "Ward Number 7", "addr:postcode": "110030", "addr:street": "Mehrauli, New Delhi", "building": "yes", "historic": "tomb", "name": "Dargah Hazrat Khwaja Qutbuddin Bakhtiyar Kaki", "name:bn": "\u09a6\u09b0\u0997\u09be\u09b9 \u09b9\u09af\u09b0\u09a4 \u0996\u09be\u099c\u09be \u0995\u09c1\u09a4\u09c1\u09ac\u0989\u09a6\u09cd\u09a6\u09c0\u09a8 \u09ac\u0996\u09a4\u09bf\u09af\u09bc\u09be\u09b0 \u0995\u09be\u0995\u09bf", "name:hi": "\u0926\u0930\u0917\u093e\u0939 \u0939\u095b\u0930\u0924 \u0916\u094d\u0935\u093e\u091c\u093e \u0915\u0941\u0924\u092c\u0941\u0926\u094d\u0926\u0940\u0928 \u092c\u0916\u094d\u0924\u093f\u092f\u093e\u0930 \u0915\u093e\u0915\u0940", "name:ur": "\u062f\u0631\u06af\u0627\u06c1 \u062d\u0636\u0631\u062a \u062e\u0648\u0627\u062c\u06c1 \u0633\u06cc\u0651\u062f \u0645\u062d\u0645\u062f \u0642\u0637\u0628 \u0627\u0644\u062f\u06cc\u0646 \u0628\u062e\u062a\u06cc\u0627\u0631 \u06a9\u0627\u06a9\u06cc", "tomb": "yes", "website": "http://www.hazratbakhtiyarkaki.com/", "wikidata": "Q7546362", "wikipedia": "en:Qutbuddin_Bakhtiar_Kaki"}}, {"type": "way", "id": 601731295, "nodes": [5717949804, 5717949805, 5717949806, 5717949807, 5717949808, 5717949809, 5717949791, 5717949792, 5717949793, 5717949794, 5717949799, 5717949800, 5717949801, 5717949802, 5717949803, 5717949795, 5717949796, 5717949797, 5717949798, 5717949804], "tags": {"addr:city": "Delhi", "addr:housenumber": "Seth Sarai", "addr:postcode": "110030", "addr:street": "Mehrauli, New Delhi", "building": "yes", "historic": "tomb", "name": "Tomb of Mohammad Quli Khan", "name:bn": "\u09ae\u09c1\u09b9\u09ae\u09cd\u09ae\u09a6 \u0995\u09c1\u09b2\u09bf \u0996\u09be\u09a8 \u098f\u09b0 \u09b8\u09ae\u09be\u09a7\u09bf", "name:hi": "\u092e\u094b\u0939\u092e\u094d\u092e\u0926 \u0915\u0941\u0932\u0940 \u0916\u093e\u0928 \u0915\u093e \u092e\u0915\u092c\u0930\u093e", "name:ur": "\u0645\u062d\u0645\u062f \u0642\u0644\u06cc \u062e\u0627\u0646 \u06a9\u0627 \u0642\u0628\u0631", "tomb": "mausoleum", "wikidata": "Q3634642", "wikipedia": "en:Murshid Quli Khan"}}, {"type": "way", "id": 632857886, "nodes": [5974787323, 5974787322, 7640428536, 7640428535, 7640428534, 7640428533, 2149473523, 5974787319, 5974787318, 5974787317, 5974787316, 5755942895, 5974787315, 5974787314, 5974787313, 5974787312, 5974787311, 5974787310, 5974787309, 5974787308, 5974787328, 5974787307, 5974787306, 5974787305, 5974787304, 5974787303, 5974787302, 5974787301, 5974787300, 5974787299, 5974787298, 5974787297, 5974787323], "tags": {"historic": "fort", "leisure": "park", "name": "Qila Rai Pithora", "name:ar": "\u0642\u0644\u0639\u0629 \u0631\u0627\u064a \u0628\u064a\u062b\u0648\u0631\u0627", "name:hi": "\u0915\u093f\u0932\u093e \u0930\u093e\u092f \u092a\u093f\u0925\u094c\u0930\u093e", "name:ml": "\u0d15\u0d3f\u0d32 \u0d31\u0d3e\u0d2f\u0d4d \u0d2a\u0d3f\u0d24\u0d4d\u0d24\u0d4b\u0d30", "wikidata": "Q14512138", "wikimedia_commons": "Category:Qila Rai Pithora", "wikipedia": "en:Qila Rai Pithora"}}, {"type": "way", "id": 632926842, "nodes": [5975248128, 5975220466, 5975220465, 5975220464, 5975247067, 5975248293, 5975248602, 5975248153, 5975248338, 5975248093, 5975248285, 5975248595, 5975248145, 5975247050, 5975248358, 5975248109, 5975248301, 5975248610, 5975248162, 5975248348, 5975248100, 5975248126, 5975248318, 5975220470, 5975248117, 5975247056, 5975248308, 5975247061, 5975248364, 5975248617, 5975248593, 5975248369, 5975247079, 5975248326, 5975248381, 5975220478, 5975248133, 5975248588, 5975247071, 5975248322, 5975248139, 5975248605, 5975248096, 5975248151, 5975248288, 5975248157, 5975248336, 5975248598, 5975248091, 5975248341, 5975248331, 5975248303, 5975248356, 5975248614, 5975248107, 5975248362, 5975247044, 5975248299, 5975248353, 5975248113, 5975248160, 5975248124, 5975247064, 5975248316, 5975248372, 5975247069, 5975220469, 5975248120, 5975247059, 5975248375, 5975248621, 5975248287, 5975248335, 5975247055, 5975248597, 5975248090, 5975248148, 5975248095, 5975248592, 5975248613, 5975248106, 5975247043, 5975248143, 5975248298, 5975248352, 5975248608, 5975248104, 5975248587, 5975248346, 5975248315, 5975248371, 5975220468, 5975248098, 5975248119, 5975247058, 5975248310, 5975248367, 5975248291, 5975247054, 5975248302, 5975247077, 5975248327, 5975248361, 5975248586, 5975220480, 5975248136, 5975248112, 5975248379, 5975220472, 5975248123, 5975247063, 5975248155, 5975248131, 5975248289, 5975248340, 5975248599, 5975248320, 5975248286, 5975248330, 5975248591, 5975248596, 5975248085, 5975248142, 5975248110, 5975247047, 5975248147, 5975248612, 5975248102, 5975248159, 5975248295, 5975247042, 5975248344, 5975248603, 5975248097, 5975220471, 5975248350, 5975248314, 5975248366, 5975248619, 5975248115, 5975220467, 5975247052, 5975248306, 5975248360, 5975247057, 5975220484, 5975248135, 5975247073, 5975248324, 5975247076, 5975248378, 5975220476, 5975248129, 5975248384, 5975248374, 5975248087, 5975248146, 5975247081, 5975248329, 5975248150, 5975248589, 5975220483, 5975248140, 5975248333, 5975248383, 5975248349, 5975248607, 5975248101, 5975248611, 5975248158, 5975248294, 5975248343, 5975248163, 5975248154, 5975248339, 5975248309, 5975248365, 5975248618, 5975248114, 5975248370, 5975247051, 5975248305, 5975248359, 5975248118, 5975247046, 5975248134, 5975247072, 5975248323, 5975248377, 5975248354, 5975220475, 5975248127, 5975247066, 5975248319, 5975248382, 5975248122, 5975248092, 5975248149, 5975247084, 5975248332, 5975248313, 5975248594, 5975248086, 5975248144, 5975247080, 5975248337, 5975220482, 5975248609, 5975248105, 5975248161, 5975247075, 5975248297, 5975248347, 5975248606, 5975248300, 5975248292, 5975247060, 5975248312, 5975248368, 5975248601, 5975248622, 5975248116, 5975247053, 5975248152, 5975248616, 5975248108, 5975220481, 5975248138, 5975247074, 5975248325, 5975247049, 5975248380, 5975220477, 5975248132, 5975247070, 5975248357, 5975220474, 5975248296, 5975248345, 5975248604, 5975248099, 5975248156, 5975247065, 5975248290, 5975248342, 5975248600, 5975248094, 5975248373, 5975248334, 5975248307, 5975248363, 5975248615, 5975248089, 5975248111, 5975247048, 5975248304, 5975248355, 5975247083, 5975247045, 5975248130, 5975247068, 5975248321, 5975248376, 5975248351, 5975220473, 5975248125, 5975247062, 5975248317, 5975248103, 5975248121, 5975248311, 5975248620, 5975248088, 5975248141, 5975247078, 5975248328, 5975247082, 5975248585, 5975220479, 5975248137, 5975248590, 5975248128], "tags": {"barrier": "city_wall", "historic": "yes", "name": "Wall of Qila Lal Kot"}}, {"type": "way", "id": 694276497, "nodes": [6518293503, 6518293501, 6518293502, 6518293499, 6518293503], "tags": {"leisure": "park"}}, {"type": "way", "id": 729487043, "nodes": [6834036203, 6834036224, 6834036202, 6834036198, 6834036201, 6834036213, 6834036203], "tags": {"barrier": "fence", "leisure": "park", "name": "Maa Yogmaya Park", "name:hi": "\u092e\u093e\u0901 \u092f\u094b\u0917\u092e\u093e\u092f\u093e \u092a\u093e\u0930\u094d\u0915"}}, {"type": "way", "id": 750097939, "nodes": [7014122000, 7014122001, 11549332835, 7014122002, 7014122003, 7014122004, 7014122000], "tags": {"leisure": "park"}}, {"type": "way", "id": 790002600, "nodes": [7386102233, 7386102234, 273289420, 273289419, 8639464224, 8639464225, 8639464223, 8971820793, 7386102235, 7386102236, 8593072134, 2669942451, 8593072135, 8593072136, 7386102237, 2669942407, 8676679672, 9869921908, 7386102239, 8971820723, 7386102240, 7386102241, 7386102242, 7386102243, 8655728601, 7386102244, 8972611138, 8971820786, 8639445300, 8655728600, 8639445301, 7386102233], "tags": {"addr:city": "Delhi", "addr:postcode": "110070", "leisure": "park", "name": "Vasant Kunj Sec A Children Park", "opening_hours": "Mo-Su 05:00-21:30", "operator": "Delhi Development Authority (D.D.A.)"}}, {"type": "way", "id": 815248050, "nodes": [7614965809, 7614965810, 7614965811, 7614965812, 7614965809], "tags": {"leisure": "park"}}, {"type": "way", "id": 818709473, "nodes": [7645753098, 7645753099, 7645753100, 7645753101, 7645753102, 7645753103, 7645753104, 7645753098], "tags": {"barrier": "wall", "leisure": "park"}}, {"type": "way", "id": 818709474, "nodes": [939328725, 939328677, 939328627, 939328570, 939328486, 12285358594, 12285358599, 12285360601, 939328798, 939328481, 939328795, 939328745, 2975859151, 2975859144, 939328653, 2975859143, 7645753157, 939328813, 939328654, 939328601, 939328526, 939328824, 10232148727, 939328725], "tags": {"area": "yes", "name": "Qutub Minar Complex", "name:ar": "\u0645\u062c\u0645\u0639 \u0642\u0637\u0628 \u0645\u0646\u0627\u0631", "name:fa": "\u0645\u062c\u062a\u0645\u0639 \u0642\u0637\u0628 \u0645\u0646\u0627\u0631", "name:hi": "\u0915\u0941\u0924\u0941\u092c \u092e\u0940\u0928\u093e\u0930 \u092a\u0930\u093f\u0938\u0930", "name:ru": "\u041a\u043e\u043c\u043f\u043b\u0435\u043a\u0441 \u041a\u0443\u0442\u0443\u0431 \u041c\u0438\u043d\u0430\u0440", "tourism": "attraction", "wikidata": "Q1074330", "wikipedia": "en:Qutb Minar complex"}}, {"type": "way", "id": 818709476, "nodes": [7645753112, 7645753113, 7645753114, 7645753115, 12979272383, 12979272385, 12979272382, 12979272384, 7645753112], "tags": {"leisure": "park", "name": "Rose Garden"}}, {"type": "way", "id": 818709479, "nodes": [2654012040, 7645753137, 7645753138, 7645753142, 11773168180, 11773168182, 2654012040], "tags": {"building": "yes", "historic": "tomb", "name": "Alauddin Khalji's Tomb and Madrassa", "name:ar": "\u0642\u0628\u0631 \u0648\u0645\u062f\u0631\u0633\u0629 \u062e\u0627\u0644\u062c\u064a", "name:hi": "\u0916\u093f\u0932\u091c\u0940 \u0915\u093e \u092e\u0915\u092c\u0930\u093e \u0914\u0930 \u092e\u0926\u0930\u0938\u093e"}}, {"type": "way", "id": 820303291, "nodes": [7659640155, 7659640156, 7659640157, 7659640158, 7659640155], "tags": {"addr:city": "Delhi", "leisure": "park", "name": "Children's Park", "opening_hours": "24/7", "residential": "areas"}}, {"type": "way", "id": 820303293, "nodes": [7659640163, 7659640164, 7659640165, 7659640166, 7659640163], "tags": {"leisure": "park"}}, {"type": "way", "id": 820303294, "nodes": [7659640167, 7659640168, 7659640169, 7659640170, 7659640171, 7659640172, 7659640167], "tags": {"leisure": "park"}}, {"type": "way", "id": 820303295, "nodes": [7659640173, 7659640174, 7659640175, 7659640176, 7659640177, 7659640178, 7659640179, 7659640180, 7659640181, 7659640182, 7659640183, 7659640173], "tags": {"addr:city": "Delhi", "leisure": "park", "name": "Community Centre Park", "opening_hours": "24/7"}}, {"type": "way", "id": 820303296, "nodes": [3563328311, 7659640184, 7659675285, 7659675286, 3563328311], "tags": {"addr:city": "Delhi", "leisure": "park", "opening_hours": "24/7"}}, {"type": "way", "id": 902789793, "nodes": [8385042501, 8385042502, 8385042503, 8385042504, 8385042501], "tags": {"leisure": "park", "name": "B-3, Community Park"}}, {"type": "way", "id": 910889839, "nodes": [8458236839, 8458236840, 8458236841, 8458236842, 8458236843, 8458236844, 8458236839], "tags": {"leisure": "park", "name": "B-4 Jogging Track and Park", "operator": "B-4 RWA"}}, {"type": "way", "id": 910890073, "nodes": [8458250129, 8458250130, 8458250131, 8458250132, 8458250129], "tags": {"leisure": "park", "name": "Small Park/ Cricket Strip", "operator": "B-3 RWA"}}, {"type": "way", "id": 925955182, "nodes": [9854911085, 8593092201, 8593092202, 8593092203, 8593092204, 8593092205, 8944155391, 8593092206, 9854911086, 9854911085], "tags": {"addr:city": "Delhi", "addr:postcode": "110070", "leisure": "park", "name": "Children's (Chaudhary) park", "opening_hours": "24/7", "operator": "South Delhi Municipal Corporation", "operator:short": "SDMC", "operator:type": "government", "operator:wikidata": "Q17083576"}}, {"type": "way", "id": 926335536, "nodes": [8596330584, 8596330585, 8596330586, 8684225925, 8684251542, 8686520845, 8686520844, 8686520843, 8684225927, 8684225926, 8596330587, 9854911089, 8596330584], "tags": {"addr:city": "Delhi", "addr:postcode": "110070", "leisure": "park", "name": "Mandir Park", "opening_hours": "24/7", "operator": "South Delhi Municipal Corporation", "operator:short": "SDMC", "operator:type": "government", "operator:wikidata": "Q17083576"}}, {"type": "way", "id": 926341622, "nodes": [8596394315, 8596394316, 8596410717, 8596410718, 8596394315], "tags": {"addr:city": "Delhi", "addr:postcode": "110070", "leisure": "park", "name": "Meeting Point Park", "opening_hours": "24/7", "operator": "South Delhi Municipal Corporation", "operator:short": "SDMC", "operator:type": "government", "operator:wikidata": "Q17083576"}}, {"type": "way", "id": 926341624, "nodes": [3565242053, 8596410724, 8905141447, 8596410725, 8596410726, 3565242053], "tags": {"addr:city": "Delhi", "addr:postcode": "110070", "leisure": "park", "name": "R.W.A Park", "opening_hours": "24/7", "operator": "Resident's Welfare Association (R.W.A.) of Sector A, Pocket B & C, Vasant Kunj"}}, {"type": "way", "id": 933891452, "nodes": [8655728595, 8890060960, 8905141450, 8655728596, 8655728597, 8655728598, 8655728595], "tags": {"addr:city": "Delhi", "addr:postcode": "110070", "leisure": "park", "name": "Gazebo Park", "opening_hours": "24/7", "operator": "South Delhi Municipal Corporation", "operator:short": "SDMC", "operator:type": "government", "operator:wikidata": "Q17083576"}}, {"type": "way", "id": 945692715, "nodes": [8754897333, 8754897334, 8754897335, 8754897336, 8905141453, 8754897333], "tags": {"addr:city": "Delhi", "addr:postcode": "110070", "addr:street": "Sector A, Vasant Kunj", "leisure": "park", "name": "Picnic Park", "opening_hours": "24/7", "operator": "South Delhi Municipal Corporation", "operator:short": "SDMC", "operator:type": "government", "operator:wikidata": "Q17083576"}}, {"type": "way", "id": 961029737, "nodes": [8890077513, 8890077514, 8905141461, 8890077515, 8890077516, 8890077513], "tags": {"addr:city": "Delhi", "addr:street": "Sector A, Vasant Kunj", "leisure": "park", "name": "Onix Park", "opening_hours": "24/7", "operator": "South Delhi Municipal Corporation", "operator:short": "SDMC", "operator:type": "government", "operator:wikidata": "Q17083576"}}, {"type": "way", "id": 961612374, "nodes": [8895134945, 8895134946, 8905141459, 8895134947, 8941664484, 8941664483, 8895134948, 8895134945], "tags": {"addr:city": "Delhi", "addr:street": "Sector A, Vasant Kunj", "leisure": "park", "name": "Champa Park", "opening_hours": "24/7", "operator": "South Delhi Municipal Corporation", "operator:short": "SDMC", "operator:type": "government", "operator:wikidata": "Q17083576"}}, {"type": "way", "id": 961849428, "nodes": [8897338010, 8897338011, 8897338012, 8905141464, 8897338013, 8897338014, 8897355019, 8897338015, 8897355018, 8897338016, 8897355017, 8897338010], "tags": {"addr:city": "Delhi", "addr:postcode": "110070", "leisure": "park", "name": "Hasty Park", "opening_hours": "Mo-Su 05:30-23:00", "operator": "South Delhi Municipal Corporation", "operator:short": "SDMC", "operator:type": "government", "operator:wikidata": "Q17083576"}}, {"type": "way", "id": 961855802, "nodes": [8897406015, 8905141466, 8897406016, 8897407027, 8897407026, 8897407017, 8897407018, 8897407019, 8897407020, 8897407021, 8897407022, 8897407028, 8897407029, 8897407023, 8897407031, 8897407030, 8897407024, 8897407025, 8897406015], "tags": {"addr:city": "Delhi", "addr:postcode": "110070", "leisure": "park", "name": "Smriti Van", "opening_hours": "24/7", "operator": "South Delhi Municipal Corporation", "operator:short": "SDMC", "operator:type": "government", "operator:wikidata": "Q17083576"}}, {"type": "way", "id": 961860257, "nodes": [8897429867, 8897429868, 8897429869, 8897429873, 8905141468, 8897429874, 8897429875, 8897429876, 8897429870, 8897429879, 8897429878, 8897429877, 8897429872, 8897429871, 8897429882, 8897429881, 8897429880, 8897429867], "tags": {"addr:city": "Delhi", "addr:postcode": "110070", "leisure": "park", "name": "Machhli Park , Mehrauli , Ward No 8", "opening_hours": "24/7", "operator": "South Delhi Municipal Corporation", "operator:short": "SDMC", "operator:type": "government", "operator:wikidata": "Q17083576"}}, {"type": "way", "id": 961949534, "nodes": [8898263212, 8898263213, 8898263214, 8898263215, 8898263216, 8898280217, 8898280218, 8898280254, 8898280256, 8898280257, 8898280261, 8898280253, 8898280260, 8898280259, 8898280258, 8898280262, 8898280263, 8898280255, 8898280264, 8898280219, 8898280265, 8898280220, 8898280221, 8898280222, 8898280223, 8898280224, 8898280225, 8898280226, 8898280227, 8898280228, 8898280229, 8898280230, 8898280231, 8898280232, 8898280268, 8898280267, 8898280266, 8898280269, 8898280270, 8898280272, 8898280233, 8898280271, 8898280234, 8898280235, 8898280236, 8898280237, 8898280238, 8898280239, 8898280241, 8898280242, 8898280244, 8898280245, 8898280247, 8898280248, 8898280249, 8898280251, 8898280252, 8898263212], "tags": {"addr:city": "Delhi", "leisure": "park", "name": "Forest Area"}}, {"type": "way", "id": 961998450, "nodes": [8898702577, 8898702578, 8898702579, 8898702580, 8898702577], "tags": {"addr:city": "Delhi", "leisure": "park"}}, {"type": "way", "id": 961998451, "nodes": [8898702581, 8898702582, 8898702583, 8898702584, 8898702581], "tags": {"addr:city": "Delhi", "leisure": "park"}}, {"type": "way", "id": 961998452, "nodes": [8898702585, 8898702586, 8898702587, 8898702588, 8898702585], "tags": {"addr:city": "Delhi", "leisure": "park"}}, {"type": "way", "id": 961998453, "nodes": [8898702589, 8898702590, 8898702591, 8898702592, 8898702593, 8898702594, 8898702589], "tags": {"addr:city": "Delhi", "leisure": "park"}}, {"type": "way", "id": 961998454, "nodes": [8898702595, 8898702596, 8898702597, 8898702598, 8898702600, 8898702599, 8898702595], "tags": {"addr:city": "Delhi", "leisure": "park"}}, {"type": "way", "id": 961998455, "nodes": [8898702601, 8898702602, 8898702603, 8898702605, 8898702606, 8898702604, 8898702601], "tags": {"addr:city": "Delhi", "leisure": "park"}}, {"type": "way", "id": 962002881, "nodes": [8898741807, 8898741808, 8898741809, 8898741810, 8898741811, 8898741812, 8944184539, 8944184544, 8944184541, 8944184543, 8944184540, 8944184538, 8944184542, 8898741813, 8898741814, 8898741815, 8898741816, 8898766617, 8898766618, 8898766619, 8898741807], "tags": {"addr:city": "Delhi", "leisure": "park", "name": "Mango Orchard D.D.A. Park", "opening_hours": "24/7", "operator": "Delhi Development Authority (D.D.A.)"}}, {"type": "way", "id": 962692643, "nodes": [8905135346, 8905135347, 8905135348, 8908105467, 8905135349, 8905135346], "tags": {"addr:city": "Delhi", "leisure": "park"}}, {"type": "way", "id": 982729135, "nodes": [9087508976, 9087508977, 9087508997, 9087508978, 9087508979, 9087508980, 9087508981, 9087508982, 9087508992, 9087508983, 9087508984, 9087508985, 9087508986, 9087508976], "tags": {"addr:city": "New Delhi", "addr:postcode": "110070", "addr:street": "Nelson Mandela Marg", "dog": "leashed", "entrance": "gate", "leisure": "park", "name": "Childrens Park", "opening_hours": "24/7", "operator": "RWA"}}, {"type": "way", "id": 1035319982, "nodes": [9536768459, 9536768460, 9538891060, 9538891061, 9538891062, 9536768457, 9536768459], "tags": {"barrier": "wall", "leisure": "park"}}, {"type": "way", "id": 1097311615, "nodes": [10047591985, 10047591986, 10047591987, 10047591988, 10047591989, 10047591990, 10047591991, 10047591992, 10047591993, 10047591994, 10047591995, 10047591996, 10047591997, 10047592009, 10047592011, 10047592010, 10047592013, 10047592015, 10047592014, 10047592012, 10047591998, 10047592005, 10047591999, 10047592008, 10047592006, 10047592007, 10047592004, 10047592000, 10047592001, 10047592002, 10047592003, 10047612525, 10047612526, 10047591985], "tags": {"amenity": "marketplace"}}, {"type": "way", "id": 1097311617, "nodes": [10047612527, 10047612528, 10047612529, 10047612530, 10047612531, 10047612532, 10047612533, 10047612534, 10047612535, 10047612536, 10047612545, 10047612537, 10047612538, 10047612540, 10047612541, 10047612543, 10047612544, 10047612542, 10047612539, 10047612527], "tags": {"amenity": "marketplace"}}, {"type": "way", "id": 1097550738, "nodes": [10049646653, 10049646654, 10049646655, 10049646656, 10049646657, 10049646658, 10049646659, 10049646660, 10049646653], "tags": {"amenity": "restaurant", "building": "yes", "name": "Rakesh Cafeteria"}}, {"type": "way", "id": 1121872245, "nodes": [10260853454, 10260853455, 10260853456, 10260853457, 10260853458, 10260853459, 10260853454], "tags": {"historic": "yes", "man_made": "water_well"}}, {"type": "way", "id": 1267633671, "nodes": [11773137261, 11773168175, 11773137252, 11773137254, 11773137250, 11773137247, 11773168178, 11773137264, 11773137268, 11773137266, 11773137256, 11773137260, 11773137267, 11773168176, 11773137263, 11773168172, 11773168179, 11773168181, 11773137261], "tags": {"alt_name": "Major Smith\u2019s Cupola", "area": "yes", "artwork_type": "sculpture", "name": "Smith\u2019s Folly", "tourism": "artwork"}}, {"type": "way", "id": 1267633674, "nodes": [11773137265, 11773168170, 11773137259, 11773168169, 11773137265], "tags": {"addr:city": "Delhi", "addr:housenumber": "Qutub Minar Complex", "addr:postcode": "110030", "addr:street": "Qutub Minar Complex Rd, Seth Sarai, Mehrauli, New Delhi", "historic": "tomb", "name": "Tomb of Shamsuddin Iltutmish", "name:ar": "\u0642\u0628\u0631 \u0634\u0645\u0633 \u0627\u0644\u062f\u064a\u0646 \u0627\u0644\u062a\u0648\u0645\u064a\u0634", "name:bn": "\u09b6\u09be\u09ae\u09b8\u09c1\u09a6\u09cd\u09a6\u09c0\u09a8 \u0987\u09b2\u09a4\u09c1\u09a4\u09ae\u09bf\u09b6 \u098f\u09b0 \u0995\u09cd\u09ac\u09ac\u09b0", "name:hi": "\u0936\u092e\u094d\u0938\u0941\u0926\u094d\u0926\u0940\u0928 \u0907\u0932\u094d\u0924\u0941\u0924\u092e\u093f\u0936 \u0915\u093e \u092e\u0915\u092c\u0930\u093e", "name:ml": "\u0d37\u0d02\u0d38\u0d41\u0d26\u0d4d\u0d26\u0d40\u0d7b \u0d07\u0d7d\u0d24\u0d4d\u0d24\u0d41\u0d2e\u0d3f\u0d37\u0d3f\u0d28\u0d4d\u0d31\u0d46 \u0d36\u0d35\u0d15\u0d41\u0d1f\u0d40\u0d30\u0d02", "name:ur": "\u0634\u0645\u0633 \u0627\u0644\u062f\u06cc\u0646 \u0627\u0644\u062a\u062a\u0645\u0634 \u06a9\u06cc \u0642\u0628\u0631", "tomb": "mausoleum", "wikidata": "Q336312", "wikimedia_commons": "Category:Iltutmish", "wikipedia": "en:Iltutmish"}}, {"type": "way", "id": 1267633676, "nodes": [11773137253, 11773137246, 11773168184, 11773137258, 11773137253], "tags": {"building": "yes", "historic": "tomb", "name": "Tomb of Imam Zamin", "tomb": "mausoleum", "wikipedia": "en:Tomb_of_Imam_Zamin"}}, {"type": "way", "id": 1292851641, "nodes": [11985443933, 11985443934, 11985443935, 11985443936, 11985443933], "tags": {"access": "residents", "leisure": "park", "operator": "Ganga Apartments", "operator:type": "private"}}, {"type": "way", "id": 1314421235, "nodes": [12165965625, 12165965627, 12165965624, 12165965629, 12165965628, 12165965626, 12165965625], "tags": {"amenity": "marketplace"}}, {"type": "way", "id": 1327859455, "nodes": [12285358587, 12285358595, 12285360604, 12285358589, 12285358588, 12285360605, 12285358587], "tags": {"historic": "yes", "man_made": "water_well"}}, {"type": "way", "id": 1327864113, "nodes": [12285399710, 12285399713, 12285399712, 12285399711, 12285399710], "tags": {"historic": "monument", "name": "Gandhak Ki Baoli"}}, {"type": "way", "id": 1385697211, "nodes": [12829586608, 4233527074, 12829586641, 12829575572, 12829575551, 12829575553, 12829586605, 2870612286, 12829586644, 12829586602, 10049646641, 10049646644, 10049646643, 12829586608], "tags": {"air_conditioning": "yes", "bar": "no", "female": "no", "male": "yes", "name": "Jwalamukhi Hostel", "operator": "Indian Institute of Technology Delhi", "smoking": "no", "start_date": "1965", "swimming_pool": "no", "tourism": "hostel", "website": "https://bhm.iitd.ac.in/hostel/jwalamukhi/"}}, {"type": "way", "id": 1425219683, "nodes": [13099811096, 13099811097, 13099811098, 13099811099, 13099811096], "tags": {"historic": "monument"}}, {"type": "way", "id": 1425219689, "nodes": [13099843483, 13099843484, 13099843485, 13099843486, 13099843483], "tags": {"historic": "monument"}}, {"type": "way", "id": 1425219690, "nodes": [13099843502, 13099843503, 13099843504, 13099843505, 13099843487, 13099843488, 13099843489, 13099843490, 13099843491, 13099843497, 13099843498, 13099843499, 13099843500, 13099843501, 13099843492, 13099843493, 13099843494, 13099843495, 13099843496, 13099843502], "tags": {"historic": "monument"}}, {"type": "node", "id": 3563328311, "lat": 28.5112406, "lon": 77.1652423}, {"type": "node", "id": 7659640155, "lat": 28.5106121, "lon": 77.1642191}, {"type": "node", "id": 7659640156, "lat": 28.5108251, "lon": 77.1645701}, {"type": "node", "id": 7659640157, "lat": 28.5104771, "lon": 77.1648437}, {"type": "node", "id": 7659640158, "lat": 28.510264, "lon": 77.1644927}, {"type": "node", "id": 7659640163, "lat": 28.5093568, "lon": 77.1652144}, {"type": "node", "id": 7659640164, "lat": 28.5094423, "lon": 77.1653491}, {"type": "node", "id": 7659640165, "lat": 28.5091561, "lon": 77.1655844}, {"type": "node", "id": 7659640166, "lat": 28.5090706, "lon": 77.1654497}, {"type": "node", "id": 7659640167, "lat": 28.5097027, "lon": 77.1657622}, {"type": "node", "id": 7659640168, "lat": 28.50949, "lon": 77.1659263}, {"type": "node", "id": 7659640169, "lat": 28.509503, "lon": 77.165948}, {"type": "node", "id": 7659640170, "lat": 28.509413, "lon": 77.1660174}, {"type": "node", "id": 7659640171, "lat": 28.509518, "lon": 77.1661937}, {"type": "node", "id": 7659640172, "lat": 28.5098207, "lon": 77.1659602}, {"type": "node", "id": 7659640173, "lat": 28.5104001, "lon": 77.166351}, {"type": "node", "id": 7659640174, "lat": 28.5101667, "lon": 77.1665104}, {"type": "node", "id": 7659640175, "lat": 28.5100867, "lon": 77.1664155}, {"type": "node", "id": 7659640176, "lat": 28.5099134, "lon": 77.1665673}, {"type": "node", "id": 7659640177, "lat": 28.5098367, "lon": 77.1665976}, {"type": "node", "id": 7659640178, "lat": 28.5096334, "lon": 77.1667911}, {"type": "node", "id": 7659640179, "lat": 28.5096867, "lon": 77.1668783}, {"type": "node", "id": 7659640180, "lat": 28.5094534, "lon": 77.1670452}, {"type": "node", "id": 7659640181, "lat": 28.5095434, "lon": 77.1672045}, {"type": "node", "id": 7659640182, "lat": 28.5103267, "lon": 77.1674625}, {"type": "node", "id": 7659640183, "lat": 28.5108667, "lon": 77.1669959}, {"type": "node", "id": 7659675285, "lat": 28.5111765, "lon": 77.1660508}, {"type": "node", "id": 7659675286, "lat": 28.5108635, "lon": 77.1655439}, {"type": "node", "id": 8676679672, "lat": 28.5111595, "lon": 77.1680532}, {"type": "node", "id": 8898702577, "lat": 28.5112382, "lon": 77.1662027}, {"type": "node", "id": 8898702578, "lat": 28.5111475, "lon": 77.1660717}, {"type": "node", "id": 8898702579, "lat": 28.5108372, "lon": 77.1663058}, {"type": "node", "id": 8898702580, "lat": 28.5109476, "lon": 77.1664738}, {"type": "node", "id": 8898702581, "lat": 28.5108736, "lon": 77.1655804}, {"type": "node", "id": 8898702582, "lat": 28.5107935, "lon": 77.1654423}, {"type": "node", "id": 8898702583, "lat": 28.5104846, "lon": 77.1657068}, {"type": "node", "id": 8898702584, "lat": 28.5105792, "lon": 77.16584}, {"type": "node", "id": 8898702587, "lat": 28.5112163, "lon": 77.1651123}, {"type": "node", "id": 8898702588, "lat": 28.5113174, "lon": 77.1652106}, {"type": "node", "id": 8898702595, "lat": 28.5104379, "lon": 77.1650187}, {"type": "node", "id": 8898702596, "lat": 28.510341, "lon": 77.1648569}, {"type": "node", "id": 8898702597, "lat": 28.5101091, "lon": 77.1650645}, {"type": "node", "id": 8898702598, "lat": 28.5101441, "lon": 77.1651478}, {"type": "node", "id": 8898702599, "lat": 28.5102194, "lon": 77.1652146}, {"type": "node", "id": 8898702600, "lat": 28.5101818, "lon": 77.1651835}, {"type": "node", "id": 8898702601, "lat": 28.5112459, "lon": 77.1644088}, {"type": "node", "id": 8898702602, "lat": 28.511152, "lon": 77.1642577}, {"type": "node", "id": 8898702603, "lat": 28.5109092, "lon": 77.1644226}, {"type": "node", "id": 8898702604, "lat": 28.5109535, "lon": 77.1646485}, {"type": "node", "id": 8898702605, "lat": 28.5108737, "lon": 77.1644958}, {"type": "node", "id": 8898702606, "lat": 28.5108767, "lon": 77.1645775}, {"type": "node", "id": 9869921908, "lat": 28.5112927, "lon": 77.1681469}, {"type": "node", "id": 2669942407, "lat": 28.5108725, "lon": 77.1689811}, {"type": "node", "id": 2669942451, "lat": 28.5113231, "lon": 77.1693292}, {"type": "node", "id": 5244426484, "lat": 28.5112809, "lon": 77.1703831}, {"type": "node", "id": 5244426485, "lat": 28.5110916, "lon": 77.1711116}, {"type": "node", "id": 5244426486, "lat": 28.5109111, "lon": 77.1710509}, {"type": "node", "id": 5244426487, "lat": 28.5111006, "lon": 77.1703224}, {"type": "node", "id": 7386102237, "lat": 28.5108233, "lon": 77.16915}, {"type": "node", "id": 8593072135, "lat": 28.5110433, "lon": 77.1692286}, {"type": "node", "id": 8593072136, "lat": 28.5108739, "lon": 77.1691681}, {"type": "node", "id": 8898263215, "lat": 28.5113273, "lon": 77.1751672}, {"type": "node", "id": 8898263216, "lat": 28.5114394, "lon": 77.1747193}, {"type": "node", "id": 8898280220, "lat": 28.5092193, "lon": 77.1735216}, {"type": "node", "id": 8898280221, "lat": 28.5103142, "lon": 77.1708857}, {"type": "node", "id": 8898280265, "lat": 28.5094914, "lon": 77.1735997}, {"type": "node", "id": 2009601893, "lat": 28.5232593, "lon": 77.1395483}, {"type": "node", "id": 2009601906, "lat": 28.5233017, "lon": 77.1398914}, {"type": "node", "id": 2009601917, "lat": 28.5233729, "lon": 77.1403051}, {"type": "node", "id": 2009601925, "lat": 28.523435, "lon": 77.1423686}, {"type": "node", "id": 2009601927, "lat": 28.5234456, "lon": 77.1407206}, {"type": "node", "id": 2009601929, "lat": 28.523485, "lon": 77.141205}, {"type": "node", "id": 2009601931, "lat": 28.5235047, "lon": 77.141636}, {"type": "node", "id": 2009601938, "lat": 28.5236432, "lon": 77.1364196}, {"type": "node", "id": 2009601948, "lat": 28.5238198, "lon": 77.1405671}, {"type": "node", "id": 2009601950, "lat": 28.5238319, "lon": 77.1424083}, {"type": "node", "id": 2009601952, "lat": 28.5238349, "lon": 77.1383416}, {"type": "node", "id": 2009601954, "lat": 28.52385, "lon": 77.136433}, {"type": "node", "id": 9087508979, "lat": 28.5244247, "lon": 77.1488916}, {"type": "node", "id": 9087508980, "lat": 28.5238014, "lon": 77.1486198}, {"type": "node", "id": 9087508981, "lat": 28.5238983, "lon": 77.1483319}, {"type": "node", "id": 9087508982, "lat": 28.5242643, "lon": 77.1484915}, {"type": "node", "id": 9087508992, "lat": 28.5245409, "lon": 77.1486106}, {"type": "node", "id": 11985443934, "lat": 28.5243669, "lon": 77.1460152}, {"type": "node", "id": 11985443935, "lat": 28.5242726, "lon": 77.1464893}, {"type": "node", "id": 2008955070, "lat": 28.5307144, "lon": 77.1486498}, {"type": "node", "id": 2008955073, "lat": 28.5308486, "lon": 77.1485237}, {"type": "node", "id": 2008955079, "lat": 28.5310388, "lon": 77.1489407}, {"type": "node", "id": 2008955081, "lat": 28.5310913, "lon": 77.1488105}, {"type": "node", "id": 3476246382, "lat": 28.526819, "lon": 77.1467951}, {"type": "node", "id": 3476246383, "lat": 28.5265833, "lon": 77.1472457}, {"type": "node", "id": 3476246384, "lat": 28.526145, "lon": 77.1469292}, {"type": "node", "id": 3476246385, "lat": 28.5259329, "lon": 77.1467898}, {"type": "node", "id": 3476246386, "lat": 28.5258245, "lon": 77.146999}, {"type": "node", "id": 3476246387, "lat": 28.5253579, "lon": 77.1469185}, {"type": "node", "id": 3476246388, "lat": 28.5253532, "lon": 77.1463392}, {"type": "node", "id": 4362407098, "lat": 28.5261104, "lon": 77.1464988}, {"type": "node", "id": 9087508976, "lat": 28.524832, "lon": 77.148975}, {"type": "node", "id": 9087508983, "lat": 28.5245793, "lon": 77.1486271}, {"type": "node", "id": 9087508984, "lat": 28.5246258, "lon": 77.1484732}, {"type": "node", "id": 9087508985, "lat": 28.5247293, "lon": 77.1485184}, {"type": "node", "id": 9087508986, "lat": 28.5246083, "lon": 77.1488774}, {"type": "node", "id": 11985443933, "lat": 28.5250874, "lon": 77.1462322}, {"type": "node", "id": 11985443936, "lat": 28.5250055, "lon": 77.1467737}, {"type": "node", "id": 449453525, "lat": 28.5321525, "lon": 77.1449607}, {"type": "node", "id": 449453526, "lat": 28.5336726, "lon": 77.1449295}, {"type": "node", "id": 449453527, "lat": 28.5365562, "lon": 77.1470845}, {"type": "node", "id": 449453529, "lat": 28.5360866, "lon": 77.1478986}, {"type": "node", "id": 2008921256, "lat": 28.5334857, "lon": 77.1447933}, {"type": "node", "id": 2008921286, "lat": 28.5345207, "lon": 77.1455633}, {"type": "node", "id": 2008921536, "lat": 28.536823, "lon": 77.1462241}, {"type": "node", "id": 2008921562, "lat": 28.5370328, "lon": 77.1458602}, {"type": "node", "id": 2008921579, "lat": 28.5372212, "lon": 77.1455335}, {"type": "node", "id": 2008955100, "lat": 28.5318696, "lon": 77.148954}, {"type": "node", "id": 2008955139, "lat": 28.5328527, "lon": 77.1483104}, {"type": "node", "id": 2008955147, "lat": 28.5330403, "lon": 77.1484501}, {"type": "node", "id": 2008955156, "lat": 28.5330814, "lon": 77.1479126}, {"type": "node", "id": 2008955159, "lat": 28.5331174, "lon": 77.1478771}, {"type": "node", "id": 2008955175, "lat": 28.533269, "lon": 77.1480523}, {"type": "node", "id": 2008955181, "lat": 28.5333265, "lon": 77.1480273}, {"type": "node", "id": 2008955209, "lat": 28.5337532, "lon": 77.1467311}, {"type": "node", "id": 2008955224, "lat": 28.5339622, "lon": 77.1468813}, {"type": "node", "id": 3563327433, "lat": 28.5370268, "lon": 77.1470731}, {"type": "node", "id": 5291753396, "lat": 28.5364818, "lon": 77.1468704}, {"type": "node", "id": 5291753397, "lat": 28.5369457, "lon": 77.1472153}, {"type": "node", "id": 5291753398, "lat": 28.5373131, "lon": 77.1465672}, {"type": "node", "id": 5291753399, "lat": 28.5374668, "lon": 77.1469918}, {"type": "node", "id": 5291753400, "lat": 28.537195, "lon": 77.1468071}, {"type": "node", "id": 5291753401, "lat": 28.5376145, "lon": 77.1467782}, {"type": "node", "id": 5291753402, "lat": 28.5362638, "lon": 77.1453046}, {"type": "node", "id": 5291753403, "lat": 28.5364649, "lon": 77.1449539}, {"type": "node", "id": 5291753404, "lat": 28.535954, "lon": 77.1462739}, {"type": "node", "id": 5291753405, "lat": 28.5361213, "lon": 77.1459949}, {"type": "node", "id": 5291753406, "lat": 28.536509, "lon": 77.1462984}, {"type": "node", "id": 5291753407, "lat": 28.5363448, "lon": 77.146581}, {"type": "node", "id": 5291753408, "lat": 28.5331405, "lon": 77.1453405}, {"type": "node", "id": 5291753409, "lat": 28.5323179, "lon": 77.1447034}, {"type": "node", "id": 12165965624, "lat": 28.5320699, "lon": 77.1451666}, {"type": "node", "id": 12165965625, "lat": 28.5328135, "lon": 77.1455632}, {"type": "node", "id": 12165965626, "lat": 28.5320819, "lon": 77.1449687}, {"type": "node", "id": 12165965627, "lat": 28.5327272, "lon": 77.1457007}, {"type": "node", "id": 12165965628, "lat": 28.5317988, "lon": 77.14542}, {"type": "node", "id": 12165965629, "lat": 28.5318731, "lon": 77.1454804}, {"type": "node", "id": 4162591445, "lat": 28.5177002, "lon": 77.1619286}, {"type": "node", "id": 4162591448, "lat": 28.5174692, "lon": 77.1615692}, {"type": "node", "id": 6364676348, "lat": 28.5175091, "lon": 77.1616312}, {"type": "node", "id": 9087508978, "lat": 28.524301, "lon": 77.1492589}, {"type": "node", "id": 9087508997, "lat": 28.5243635, "lon": 77.1492862}, {"type": "node", "id": 2009502558, "lat": 28.5230936, "lon": 77.1571381}, {"type": "node", "id": 2009502603, "lat": 28.5236275, "lon": 77.1580753}, {"type": "node", "id": 2009502614, "lat": 28.5238207, "lon": 77.1566211}, {"type": "node", "id": 2009502617, "lat": 28.5239466, "lon": 77.1583771}, {"type": "node", "id": 7014122000, "lat": 28.5226443, "lon": 77.1614353}, {"type": "node", "id": 7014122001, "lat": 28.5223581, "lon": 77.1616488}, {"type": "node", "id": 7014122002, "lat": 28.5223164, "lon": 77.1617433}, {"type": "node", "id": 7014122003, "lat": 28.5227624, "lon": 77.1614506}, {"type": "node", "id": 7014122004, "lat": 28.5227227, "lon": 77.1613742}, {"type": "node", "id": 11549332835, "lat": 28.5223355, "lon": 77.1617001}, {"type": "node", "id": 3565242053, "lat": 28.5135085, "lon": 77.1675567}, {"type": "node", "id": 4162591446, "lat": 28.5164982, "lon": 77.162921}, {"type": "node", "id": 4162591447, "lat": 28.516371, "lon": 77.1626528}, {"type": "node", "id": 7386102239, "lat": 28.5116289, "lon": 77.1683835}, {"type": "node", "id": 7386102240, "lat": 28.5119289, "lon": 77.1675238}, {"type": "node", "id": 7386102241, "lat": 28.5120393, "lon": 77.1675641}, {"type": "node", "id": 7386102242, "lat": 28.5122248, "lon": 77.1669981}, {"type": "node", "id": 7386102243, "lat": 28.5124622, "lon": 77.1671348}, {"type": "node", "id": 7386102244, "lat": 28.5120426, "lon": 77.1686018}, {"type": "node", "id": 7659640184, "lat": 28.5115537, "lon": 77.1657492}, {"type": "node", "id": 8593092201, "lat": 28.5146262, "lon": 77.1684967}, {"type": "node", "id": 8593092202, "lat": 28.5146521, "lon": 77.1684108}, {"type": "node", "id": 8593092203, "lat": 28.5146097, "lon": 77.1684001}, {"type": "node", "id": 8593092204, "lat": 28.5147252, "lon": 77.1680729}, {"type": "node", "id": 8593092205, "lat": 28.5141996, "lon": 77.1678503}, {"type": "node", "id": 8593092206, "lat": 28.5140123, "lon": 77.1684347}, {"type": "node", "id": 8596330586, "lat": 28.5135926, "lon": 77.1686329}, {"type": "node", "id": 8596394315, "lat": 28.5143112, "lon": 77.167421}, {"type": "node", "id": 8596394316, "lat": 28.5142138, "lon": 77.1677235}, {"type": "node", "id": 8596410717, "lat": 28.5139019, "lon": 77.1676035}, {"type": "node", "id": 8596410718, "lat": 28.5139953, "lon": 77.1672966}, {"type": "node", "id": 8596410724, "lat": 28.5131745, "lon": 77.167411}, {"type": "node", "id": 8596410725, "lat": 28.512994, "lon": 77.1679659}, {"type": "node", "id": 8596410726, "lat": 28.5133367, "lon": 77.1680898}, {"type": "node", "id": 8639445301, "lat": 28.5124005, "lon": 77.1686097}, {"type": "node", "id": 8655728595, "lat": 28.5130501, "lon": 77.1677376}, {"type": "node", "id": 8655728596, "lat": 28.5127421, "lon": 77.1674958}, {"type": "node", "id": 8655728597, "lat": 28.5126356, "lon": 77.167853}, {"type": "node", "id": 8655728598, "lat": 28.5129703, "lon": 77.1679815}, {"type": "node", "id": 8655728601, "lat": 28.5120651, "lon": 77.1685231}, {"type": "node", "id": 8684225925, "lat": 28.5137123, "lon": 77.1685726}, {"type": "node", "id": 8684225926, "lat": 28.5139777, "lon": 77.1685448}, {"type": "node", "id": 8684225927, "lat": 28.5137841, "lon": 77.168467}, {"type": "node", "id": 8684251542, "lat": 28.5137354, "lon": 77.1685607}, {"type": "node", "id": 8686520843, "lat": 28.5137624, "lon": 77.1685161}, {"type": "node", "id": 8686520844, "lat": 28.5137489, "lon": 77.1685384}, {"type": "node", "id": 8686520845, "lat": 28.5137422, "lon": 77.1685497}, {"type": "node", "id": 8754897333, "lat": 28.5142717, "lon": 77.1669434}, {"type": "node", "id": 8754897334, "lat": 28.5144466, "lon": 77.1664145}, {"type": "node", "id": 8754897335, "lat": 28.514132, "lon": 77.1662864}, {"type": "node", "id": 8754897336, "lat": 28.5139611, "lon": 77.1668186}, {"type": "node", "id": 8890060960, "lat": 28.512974, "lon": 77.1676927}, {"type": "node", "id": 8890077513, "lat": 28.5156993, "lon": 77.1675577}, {"type": "node", "id": 8890077514, "lat": 28.5157409, "lon": 77.1674207}, {"type": "node", "id": 8890077515, "lat": 28.5150399, "lon": 77.1665308}, {"type": "node", "id": 8890077516, "lat": 28.5148054, "lon": 77.1671534}, {"type": "node", "id": 8895134945, "lat": 28.5135966, "lon": 77.1656503}, {"type": "node", "id": 8895134946, "lat": 28.5134378, "lon": 77.1655761}, {"type": "node", "id": 8895134947, "lat": 28.5122656, "lon": 77.1665498}, {"type": "node", "id": 8895134948, "lat": 28.5132888, "lon": 77.1665878}, {"type": "node", "id": 8897338010, "lat": 28.5158128, "lon": 77.1684995}, {"type": "node", "id": 8897338011, "lat": 28.5153421, "lon": 77.1682989}, {"type": "node", "id": 8897338013, "lat": 28.5149026, "lon": 77.1686153}, {"type": "node", "id": 8898702585, "lat": 28.5116733, "lon": 77.1650868}, {"type": "node", "id": 8898702586, "lat": 28.5115354, "lon": 77.1648565}, {"type": "node", "id": 8898702589, "lat": 28.5120251, "lon": 77.1656216}, {"type": "node", "id": 8898702590, "lat": 28.5119133, "lon": 77.1654642}, {"type": "node", "id": 8898702591, "lat": 28.511647, "lon": 77.1656986}, {"type": "node", "id": 8898702592, "lat": 28.5116308, "lon": 77.1657488}, {"type": "node", "id": 8898702593, "lat": 28.5116794, "lon": 77.1658292}, {"type": "node", "id": 8898702594, "lat": 28.5117529, "lon": 77.1658329}, {"type": "node", "id": 8905141447, "lat": 28.5131687, "lon": 77.1674287}, {"type": "node", "id": 8905141450, "lat": 28.5128065, "lon": 77.1675505}, {"type": "node", "id": 8905141453, "lat": 28.5141701, "lon": 77.1669026}, {"type": "node", "id": 8905141459, "lat": 28.5130216, "lon": 77.1659306}, {"type": "node", "id": 8905141461, "lat": 28.5156475, "lon": 77.1673021}, {"type": "node", "id": 8905141464, "lat": 28.5149287, "lon": 77.1686277}, {"type": "node", "id": 8941664483, "lat": 28.5126178, "lon": 77.1663636}, {"type": "node", "id": 8941664484, "lat": 28.5125279, "lon": 77.1666552}, {"type": "node", "id": 8944155391, "lat": 28.5141056, "lon": 77.1681435}, {"type": "node", "id": 8971820723, "lat": 28.5118197, "lon": 77.1678367}, {"type": "node", "id": 8972611138, "lat": 28.5120588, "lon": 77.1686089}, {"type": "node", "id": 9854911085, "lat": 28.5148745, "lon": 77.1685998}, {"type": "node", "id": 273289419, "lat": 28.5127383, "lon": 77.1697171}, {"type": "node", "id": 273289420, "lat": 28.5129602, "lon": 77.1691149}, {"type": "node", "id": 7386102233, "lat": 28.5134594, "lon": 77.1690225}, {"type": "node", "id": 7386102234, "lat": 28.5133822, "lon": 77.1692877}, {"type": "node", "id": 7386102235, "lat": 28.5117185, "lon": 77.1692919}, {"type": "node", "id": 7386102236, "lat": 28.5116636, "lon": 77.1694503}, {"type": "node", "id": 8593072134, "lat": 28.5115194, "lon": 77.1693988}, {"type": "node", "id": 8596330584, "lat": 28.5136824, "lon": 77.1693944}, {"type": "node", "id": 8596330585, "lat": 28.5133959, "lon": 77.1692823}, {"type": "node", "id": 8596330587, "lat": 28.5139253, "lon": 77.1686946}, {"type": "node", "id": 8639445300, "lat": 28.5123536, "lon": 77.1687375}, {"type": "node", "id": 8639464223, "lat": 28.5121794, "lon": 77.1694984}, {"type": "node", "id": 8639464224, "lat": 28.5125221, "lon": 77.1698266}, {"type": "node", "id": 8639464225, "lat": 28.5121256, "lon": 77.1696475}, {"type": "node", "id": 8655728600, "lat": 28.5123718, "lon": 77.1686849}, {"type": "node", "id": 8897338012, "lat": 28.5152124, "lon": 77.1687626}, {"type": "node", "id": 8897338014, "lat": 28.5147977, "lon": 77.168964}, {"type": "node", "id": 8897338015, "lat": 28.5151218, "lon": 77.1691085}, {"type": "node", "id": 8897338016, "lat": 28.515115, "lon": 77.1692523}, {"type": "node", "id": 8897355017, "lat": 28.5155372, "lon": 77.1694037}, {"type": "node", "id": 8897355018, "lat": 28.5151335, "lon": 77.1691664}, {"type": "node", "id": 8897355019, "lat": 28.5150898, "lon": 77.1690613}, {"type": "node", "id": 8897406015, "lat": 28.5174972, "lon": 77.1704028}, {"type": "node", "id": 8897406016, "lat": 28.5166689, "lon": 77.169193}, {"type": "node", "id": 8897407017, "lat": 28.5159575, "lon": 77.1692089}, {"type": "node", "id": 8897407018, "lat": 28.5156087, "lon": 77.1695026}, {"type": "node", "id": 8897407019, "lat": 28.5155041, "lon": 77.169828}, {"type": "node", "id": 8897407020, "lat": 28.5154902, "lon": 77.1699709}, {"type": "node", "id": 8897407021, "lat": 28.5154971, "lon": 77.1700106}, {"type": "node", "id": 8897407022, "lat": 28.5163202, "lon": 77.1712727}, {"type": "node", "id": 8897407023, "lat": 28.5167212, "lon": 77.1714222}, {"type": "node", "id": 8897407024, "lat": 28.5168851, "lon": 77.1711854}, {"type": "node", "id": 8897407025, "lat": 28.5170775, "lon": 77.1708556}, {"type": "node", "id": 8897407026, "lat": 28.516455, "lon": 77.1691587}, {"type": "node", "id": 8897407027, "lat": 28.5166004, "lon": 77.1691574}, {"type": "node", "id": 8897407028, "lat": 28.5165763, "lon": 77.1713683}, {"type": "node", "id": 8897407029, "lat": 28.516661, "lon": 77.1713999}, {"type": "node", "id": 8897407030, "lat": 28.5168154, "lon": 77.1713084}, {"type": "node", "id": 8897407031, "lat": 28.5167792, "lon": 77.17137}, {"type": "node", "id": 8897429867, "lat": 28.5167599, "lon": 77.1714703}, {"type": "node", "id": 8897429868, "lat": 28.5175427, "lon": 77.1704004}, {"type": "node", "id": 8897429880, "lat": 28.5173956, "lon": 77.171801}, {"type": "node", "id": 8897429881, "lat": 28.5176382, "lon": 77.1720709}, {"type": "node", "id": 8897429882, "lat": 28.5178724, "lon": 77.1722574}, {"type": "node", "id": 8898263213, "lat": 28.5117055, "lon": 77.1751475}, {"type": "node", "id": 8898280217, "lat": 28.5122533, "lon": 77.1749947}, {"type": "node", "id": 8898280218, "lat": 28.5125554, "lon": 77.1740732}, {"type": "node", "id": 8898280219, "lat": 28.5117315, "lon": 77.1735325}, {"type": "node", "id": 8898280222, "lat": 28.511738, "lon": 77.1713795}, {"type": "node", "id": 8898280223, "lat": 28.5119623, "lon": 77.1718823}, {"type": "node", "id": 8898280224, "lat": 28.5133809, "lon": 77.1727325}, {"type": "node", "id": 8898280225, "lat": 28.5134442, "lon": 77.1726775}, {"type": "node", "id": 8898280226, "lat": 28.5137069, "lon": 77.1716865}, {"type": "node", "id": 8898280227, "lat": 28.5131974, "lon": 77.1714077}, {"type": "node", "id": 8898280228, "lat": 28.5134851, "lon": 77.1702865}, {"type": "node", "id": 8898280229, "lat": 28.5143845, "lon": 77.1706388}, {"type": "node", "id": 8898280230, "lat": 28.514402, "lon": 77.1706605}, {"type": "node", "id": 8898280231, "lat": 28.5148081, "lon": 77.1693772}, {"type": "node", "id": 8898280232, "lat": 28.5155174, "lon": 77.169698}, {"type": "node", "id": 8898280233, "lat": 28.5167448, "lon": 77.1715146}, {"type": "node", "id": 8898280234, "lat": 28.517819, "lon": 77.1723465}, {"type": "node", "id": 8898280235, "lat": 28.5171273, "lon": 77.1732693}, {"type": "node", "id": 8898280236, "lat": 28.5171076, "lon": 77.1737082}, {"type": "node", "id": 8898280237, "lat": 28.5167815, "lon": 77.1742829}, {"type": "node", "id": 8898280238, "lat": 28.5168941, "lon": 77.1743763}, {"type": "node", "id": 8898280239, "lat": 28.5168939, "lon": 77.1744471}, {"type": "node", "id": 8898280241, "lat": 28.5174182, "lon": 77.1750134}, {"type": "node", "id": 8898280242, "lat": 28.5172938, "lon": 77.1751549}, {"type": "node", "id": 8898280244, "lat": 28.5164479, "lon": 77.17507}, {"type": "node", "id": 8898280245, "lat": 28.5162738, "lon": 77.1751125}, {"type": "node", "id": 8898280249, "lat": 28.5148557, "lon": 77.1751833}, {"type": "node", "id": 8898280253, "lat": 28.5120359, "lon": 77.1739894}, {"type": "node", "id": 8898280254, "lat": 28.5125184, "lon": 77.174049}, {"type": "node", "id": 8898280255, "lat": 28.511838, "lon": 77.1739741}, {"type": "node", "id": 8898280256, "lat": 28.5122772, "lon": 77.1739057}, {"type": "node", "id": 8898280257, "lat": 28.5122154, "lon": 77.1738738}, {"type": "node", "id": 8898280258, "lat": 28.5120145, "lon": 77.1736732}, {"type": "node", "id": 8898280259, "lat": 28.5120653, "lon": 77.1737304}, {"type": "node", "id": 8898280260, "lat": 28.5120907, "lon": 77.173759}, {"type": "node", "id": 8898280261, "lat": 28.5121785, "lon": 77.1740267}, {"type": "node", "id": 8898280262, "lat": 28.5119637, "lon": 77.173616}, {"type": "node", "id": 8898280263, "lat": 28.5119384, "lon": 77.1735874}, {"type": "node", "id": 8898280264, "lat": 28.5116787, "lon": 77.1739263}, {"type": "node", "id": 8898280266, "lat": 28.5156603, "lon": 77.1702846}, {"type": "node", "id": 8898280267, "lat": 28.5155053, "lon": 77.1700414}, {"type": "node", "id": 8898280268, "lat": 28.5154936, "lon": 77.1698721}, {"type": "node", "id": 8898280269, "lat": 28.516135, "lon": 77.1710705}, {"type": "node", "id": 8898280270, "lat": 28.5164624, "lon": 77.1713837}, {"type": "node", "id": 8898280271, "lat": 28.5172919, "lon": 77.171875}, {"type": "node", "id": 8898280272, "lat": 28.5166812, "lon": 77.171472}, {"type": "node", "id": 8898741807, "lat": 28.5123771, "lon": 77.1743073}, {"type": "node", "id": 8898741808, "lat": 28.5122113, "lon": 77.174143}, {"type": "node", "id": 8898741809, "lat": 28.5120929, "lon": 77.1741403}, {"type": "node", "id": 8898741810, "lat": 28.5120787, "lon": 77.1740325}, {"type": "node", "id": 8898741811, "lat": 28.5120053, "lon": 77.1740729}, {"type": "node", "id": 8898741812, "lat": 28.5119106, "lon": 77.1743666}, {"type": "node", "id": 8898741813, "lat": 28.5116843, "lon": 77.1743362}, {"type": "node", "id": 8898741814, "lat": 28.5116856, "lon": 77.1744528}, {"type": "node", "id": 8898741815, "lat": 28.5119319, "lon": 77.174496}, {"type": "node", "id": 8898741816, "lat": 28.5119603, "lon": 77.1744097}, {"type": "node", "id": 8898766617, "lat": 28.5121403, "lon": 77.1744367}, {"type": "node", "id": 8898766618, "lat": 28.5120692, "lon": 77.1746846}, {"type": "node", "id": 8898766619, "lat": 28.512235, "lon": 77.1747654}, {"type": "node", "id": 8905135346, "lat": 28.5126376, "lon": 77.1704328}, {"type": "node", "id": 8905135347, "lat": 28.5123391, "lon": 77.1703294}, {"type": "node", "id": 8905135348, "lat": 28.5121061, "lon": 77.1710829}, {"type": "node", "id": 8905135349, "lat": 28.5124045, "lon": 77.1711897}, {"type": "node", "id": 8905141466, "lat": 28.5174291, "lon": 77.1703034}, {"type": "node", "id": 8908105467, "lat": 28.5122474, "lon": 77.1711335}, {"type": "node", "id": 8944184538, "lat": 28.5116274, "lon": 77.1741471}, {"type": "node", "id": 8944184539, "lat": 28.5117491, "lon": 77.174342}, {"type": "node", "id": 8944184540, "lat": 28.5116713, "lon": 77.1739413}, {"type": "node", "id": 8944184541, "lat": 28.5117767, "lon": 77.1740311}, {"type": "node", "id": 8944184542, "lat": 28.5116086, "lon": 77.1742355}, {"type": "node", "id": 8944184543, "lat": 28.5117354, "lon": 77.1739572}, {"type": "node", "id": 8944184544, "lat": 28.5117843, "lon": 77.1740626}, {"type": "node", "id": 8971820786, "lat": 28.5123, "lon": 77.1687141}, {"type": "node", "id": 8971820793, "lat": 28.5120873, "lon": 77.1694571}, {"type": "node", "id": 9854911086, "lat": 28.5148232, "lon": 77.1687699}, {"type": "node", "id": 9854911089, "lat": 28.5138971, "lon": 77.1687759}, {"type": "node", "id": 8385042501, "lat": 28.5242169, "lon": 77.1651338}, {"type": "node", "id": 8385042502, "lat": 28.5239841, "lon": 77.1649531}, {"type": "node", "id": 8385042503, "lat": 28.5238064, "lon": 77.1652831}, {"type": "node", "id": 8385042504, "lat": 28.5240392, "lon": 77.1654396}, {"type": "node", "id": 8458236839, "lat": 28.5238466, "lon": 77.165635}, {"type": "node", "id": 8458236840, "lat": 28.5234356, "lon": 77.1653392}, {"type": "node", "id": 8458236841, "lat": 28.5232689, "lon": 77.1657362}, {"type": "node", "id": 8458236842, "lat": 28.5234116, "lon": 77.1658472}, {"type": "node", "id": 8458236843, "lat": 28.5232972, "lon": 77.1660401}, {"type": "node", "id": 8458236844, "lat": 28.5235641, "lon": 77.1661831}, {"type": "node", "id": 8458250129, "lat": 28.5235457, "lon": 77.1645226}, {"type": "node", "id": 8458250130, "lat": 28.5234963, "lon": 77.1644776}, {"type": "node", "id": 8458250131, "lat": 28.5232816, "lon": 77.1648682}, {"type": "node", "id": 8458250132, "lat": 28.5233381, "lon": 77.1649148}, {"type": "node", "id": 8897429869, "lat": 28.5189276, "lon": 77.1723005}, {"type": "node", "id": 8897429870, "lat": 28.5187016, "lon": 77.1725951}, {"type": "node", "id": 8897429871, "lat": 28.5180313, "lon": 77.1721331}, {"type": "node", "id": 8897429872, "lat": 28.5183585, "lon": 77.1723775}, {"type": "node", "id": 8897429873, "lat": 28.5187679, "lon": 77.1724028}, {"type": "node", "id": 8897429874, "lat": 28.5186959, "lon": 77.1724489}, {"type": "node", "id": 8897429875, "lat": 28.5186599, "lon": 77.1724719}, {"type": "node", "id": 8897429876, "lat": 28.5186609, "lon": 77.1725293}, {"type": "node", "id": 8897429877, "lat": 28.5185266, "lon": 77.1724903}, {"type": "node", "id": 8897429878, "lat": 28.5186015, "lon": 77.1725623}, {"type": "node", "id": 8897429879, "lat": 28.5186812, "lon": 77.1726229}, {"type": "node", "id": 8905141468, "lat": 28.5187183, "lon": 77.1724346}, {"type": "node", "id": 2009302400, "lat": 28.5272619, "lon": 77.1550822}, {"type": "node", "id": 2009302456, "lat": 28.5283613, "lon": 77.1553874}, {"type": "node", "id": 2009302515, "lat": 28.5290018, "lon": 77.1552159}, {"type": "node", "id": 2009302571, "lat": 28.5300201, "lon": 77.1546081}, {"type": "node", "id": 2009302590, "lat": 28.5306194, "lon": 77.1550517}, {"type": "node", "id": 2009302597, "lat": 28.5307815, "lon": 77.154754}, {"type": "node", "id": 9087508977, "lat": 28.5246806, "lon": 77.1494245}, {"type": "node", "id": 2009302393, "lat": 28.5271154, "lon": 77.1560567}, {"type": "node", "id": 2009302412, "lat": 28.5276854, "lon": 77.1564849}, {"type": "node", "id": 2009302417, "lat": 28.5277665, "lon": 77.1563926}, {"type": "node", "id": 2009302557, "lat": 28.5294863, "lon": 77.1557022}, {"type": "node", "id": 2009302561, "lat": 28.5295515, "lon": 77.1555902}, {"type": "node", "id": 2009302580, "lat": 28.5302254, "lon": 77.1562389}, {"type": "node", "id": 2009302588, "lat": 28.5305201, "lon": 77.1557403}, {"type": "node", "id": 2009302602, "lat": 28.5310239, "lon": 77.1570758}, {"type": "node", "id": 2009502637, "lat": 28.5246339, "lon": 77.1587542}, {"type": "node", "id": 2009502678, "lat": 28.5251051, "lon": 77.1576283}, {"type": "node", "id": 2009502778, "lat": 28.5269126, "lon": 77.1617695}, {"type": "node", "id": 2669986383, "lat": 28.5300257, "lon": 77.1560939}, {"type": "node", "id": 3015896888, "lat": 28.5268531, "lon": 77.1563497}, {"type": "node", "id": 3015896889, "lat": 28.5264511, "lon": 77.1570744}, {"type": "node", "id": 3015896890, "lat": 28.5263318, "lon": 77.1569876}, {"type": "node", "id": 3015896891, "lat": 28.5264718, "lon": 77.1563998}, {"type": "node", "id": 3015896892, "lat": 28.5266072, "lon": 77.1564972}, {"type": "node", "id": 3015896893, "lat": 28.5267358, "lon": 77.1562654}, {"type": "node", "id": 3015896894, "lat": 28.5266196, "lon": 77.1574862}, {"type": "node", "id": 3015896895, "lat": 28.5264695, "lon": 77.1577618}, {"type": "node", "id": 3015896896, "lat": 28.5262922, "lon": 77.1576298}, {"type": "node", "id": 3015896897, "lat": 28.5264423, "lon": 77.1573581}, {"type": "node", "id": 3015896918, "lat": 28.5262392, "lon": 77.1568166}, {"type": "node", "id": 3015896919, "lat": 28.5262883, "lon": 77.156892}, {"type": "node", "id": 3015896920, "lat": 28.5263038, "lon": 77.1568622}, {"type": "node", "id": 3015896921, "lat": 28.5263571, "lon": 77.1569412}, {"type": "node", "id": 2008570349, "lat": 28.5359497, "lon": 77.1518765}, {"type": "node", "id": 2008570357, "lat": 28.5364072, "lon": 77.1533219}, {"type": "node", "id": 2008570362, "lat": 28.53685, "lon": 77.1525233}, {"type": "node", "id": 2008955094, "lat": 28.531537, "lon": 77.1490098}, {"type": "node", "id": 2008955113, "lat": 28.5324519, "lon": 77.1494839}, {"type": "node", "id": 2008955115, "lat": 28.5324986, "lon": 77.1494016}, {"type": "node", "id": 2008955121, "lat": 28.5325754, "lon": 77.1495564}, {"type": "node", "id": 2008955127, "lat": 28.5327012, "lon": 77.1493154}, {"type": "node", "id": 2008955194, "lat": 28.5334609, "lon": 77.1498664}, {"type": "node", "id": 2008955198, "lat": 28.5335005, "lon": 77.1500035}, {"type": "node", "id": 2008955207, "lat": 28.5335681, "lon": 77.1496616}, {"type": "node", "id": 2008955232, "lat": 28.5340929, "lon": 77.1499171}, {"type": "node", "id": 2008955234, "lat": 28.534281, "lon": 77.1495808}, {"type": "node", "id": 2008955245, "lat": 28.5344757, "lon": 77.1499659}, {"type": "node", "id": 2008955260, "lat": 28.5345731, "lon": 77.1497987}, {"type": "node", "id": 2008955285, "lat": 28.5347751, "lon": 77.1499123}, {"type": "node", "id": 2008955297, "lat": 28.5350655, "lon": 77.1494183}, {"type": "node", "id": 2008955315, "lat": 28.5355144, "lon": 77.1499029}, {"type": "node", "id": 2008955321, "lat": 28.5355655, "lon": 77.1498015}, {"type": "node", "id": 2008989758, "lat": 28.5375581, "lon": 77.1522244}, {"type": "node", "id": 2009302632, "lat": 28.5318415, "lon": 77.155472}, {"type": "node", "id": 2841942705, "lat": 28.5361922, "lon": 77.1496576}, {"type": "node", "id": 2841942706, "lat": 28.536219, "lon": 77.1514069}, {"type": "node", "id": 2841942708, "lat": 28.5365814, "lon": 77.1495813}, {"type": "node", "id": 2841942710, "lat": 28.5368398, "lon": 77.1518308}, {"type": "node", "id": 2841942712, "lat": 28.5369565, "lon": 77.1537533}, {"type": "node", "id": 2841942713, "lat": 28.5370039, "lon": 77.1531807}, {"type": "node", "id": 2841942714, "lat": 28.5371686, "lon": 77.1499861}, {"type": "node", "id": 2841942715, "lat": 28.5372744, "lon": 77.1533806}, {"type": "node", "id": 2841942716, "lat": 28.537333, "lon": 77.1497111}, {"type": "node", "id": 3557682951, "lat": 28.5356366, "lon": 77.1495181}, {"type": "node", "id": 3557683200, "lat": 28.5357016, "lon": 77.1494025}, {"type": "node", "id": 3557683249, "lat": 28.5357492, "lon": 77.1496002}, {"type": "node", "id": 3557683611, "lat": 28.5358142, "lon": 77.1494846}, {"type": "node", "id": 12942042710, "lat": 28.5362819, "lon": 77.1495149}, {"type": "node", "id": 2009302607, "lat": 28.5313485, "lon": 77.1562969}, {"type": "node", "id": 2009302615, "lat": 28.5315423, "lon": 77.1574606}, {"type": "node", "id": 2009302624, "lat": 28.531632, "lon": 77.1560145}, {"type": "node", "id": 2009302637, "lat": 28.5321504, "lon": 77.1563993}, {"type": "node", "id": 2669986384, "lat": 28.53156, "lon": 77.1559431}, {"type": "node", "id": 2669986392, "lat": 28.5314359, "lon": 77.1563568}, {"type": "node", "id": 2009502763, "lat": 28.5266638, "lon": 77.1621863}, {"type": "node", "id": 2009502775, "lat": 28.526847, "lon": 77.1640795}, {"type": "node", "id": 2009502780, "lat": 28.527084, "lon": 77.1625024}, {"type": "node", "id": 2009502781, "lat": 28.5271415, "lon": 77.1624034}, {"type": "node", "id": 2009502794, "lat": 28.5274271, "lon": 77.1645215}, {"type": "node", "id": 2009502819, "lat": 28.5275212, "lon": 77.162689}, {"type": "node", "id": 2009502834, "lat": 28.5277079, "lon": 77.1623676}, {"type": "node", "id": 2009502842, "lat": 28.5277906, "lon": 77.1624296}, {"type": "node", "id": 2009502897, "lat": 28.528394, "lon": 77.1628774}, {"type": "node", "id": 2656033347, "lat": 28.5403, "lon": 77.147463}, {"type": "node", "id": 2841942725, "lat": 28.5394049, "lon": 77.14782}, {"type": "node", "id": 2841942726, "lat": 28.5400621, "lon": 77.1467262}, {"type": "node", "id": 2841942727, "lat": 28.5402163, "lon": 77.1473366}, {"type": "node", "id": 2841942728, "lat": 28.5402638, "lon": 77.1472123}, {"type": "node", "id": 2841942729, "lat": 28.5403729, "lon": 77.1470287}, {"type": "node", "id": 12942042711, "lat": 28.5392555, "lon": 77.1477021}, {"type": "node", "id": 2009111881, "lat": 28.5462819, "lon": 77.1475203}, {"type": "node", "id": 2656099914, "lat": 28.5457211, "lon": 77.1467927}, {"type": "node", "id": 2656099937, "lat": 28.5462584, "lon": 77.1467555}, {"type": "node", "id": 2656099944, "lat": 28.5457777, "lon": 77.1473345}, {"type": "node", "id": 2008989849, "lat": 28.5389008, "lon": 77.1531395}, {"type": "node", "id": 2008989926, "lat": 28.5392051, "lon": 77.1527652}, {"type": "node", "id": 2008989960, "lat": 28.5396492, "lon": 77.1523993}, {"type": "node", "id": 2008990010, "lat": 28.5402037, "lon": 77.1519798}, {"type": "node", "id": 2009111791, "lat": 28.5385265, "lon": 77.1505175}, {"type": "node", "id": 2009111794, "lat": 28.5400751, "lon": 77.1516976}, {"type": "node", "id": 2841942719, "lat": 28.5378229, "lon": 77.1500663}, {"type": "node", "id": 12389550088, "lat": 28.5401001, "lon": 77.1517524}, {"type": "node", "id": 12389550089, "lat": 28.5385792, "lon": 77.1505577}, {"type": "node", "id": 12942042712, "lat": 28.5384835, "lon": 77.149037}, {"type": "node", "id": 3565023267, "lat": 28.5417533, "lon": 77.159893}, {"type": "node", "id": 3565023275, "lat": 28.5419776, "lon": 77.1595011}, {"type": "node", "id": 3565023277, "lat": 28.5420093, "lon": 77.1613005}, {"type": "node", "id": 3565023287, "lat": 28.5422249, "lon": 77.1609022}, {"type": "node", "id": 3565023312, "lat": 28.5426585, "lon": 77.1605644}, {"type": "node", "id": 3565023326, "lat": 28.5428829, "lon": 77.1601724}, {"type": "node", "id": 3565023327, "lat": 28.5429293, "lon": 77.1619455}, {"type": "node", "id": 3565023335, "lat": 28.5431136, "lon": 77.1601447}, {"type": "node", "id": 3565023338, "lat": 28.5431448, "lon": 77.1615472}, {"type": "node", "id": 3565023345, "lat": 28.5433122, "lon": 77.1617427}, {"type": "node", "id": 3565023348, "lat": 28.5433323, "lon": 77.159731}, {"type": "node", "id": 3565023365, "lat": 28.5436888, "lon": 77.1612643}, {"type": "node", "id": 3565023385, "lat": 28.5439196, "lon": 77.1608875}, {"type": "node", "id": 3565023389, "lat": 28.5439708, "lon": 77.160732}, {"type": "node", "id": 3565023394, "lat": 28.5441895, "lon": 77.1603183}, {"type": "node", "id": 3565023399, "lat": 28.544423, "lon": 77.1618471}, {"type": "node", "id": 3565023403, "lat": 28.5446538, "lon": 77.1614703}, {"type": "node", "id": 3574037400, "lat": 28.5443414, "lon": 77.1612223}, {"type": "node", "id": 3574037401, "lat": 28.5443913, "lon": 77.1613224}, {"type": "node", "id": 3574037707, "lat": 28.5443165, "lon": 77.161263}, {"type": "node", "id": 3574037708, "lat": 28.5444162, "lon": 77.1612817}, {"type": "node", "id": 7614965809, "lat": 28.5498516, "lon": 77.159242}, {"type": "node", "id": 7614965810, "lat": 28.5497526, "lon": 77.1594512}, {"type": "node", "id": 7614965811, "lat": 28.5502969, "lon": 77.1597946}, {"type": "node", "id": 7614965812, "lat": 28.5504052, "lon": 77.1595934}, {"type": "node", "id": 3565023334, "lat": 28.5431107, "lon": 77.1621504}, {"type": "node", "id": 3565023390, "lat": 28.5440522, "lon": 77.1627536}, {"type": "node", "id": 4728741059, "lat": 28.5406934, "lon": 77.1690578}, {"type": "node", "id": 4728741060, "lat": 28.5406307, "lon": 77.1691035}, {"type": "node", "id": 4728741061, "lat": 28.5405931, "lon": 77.1690749}, {"type": "node", "id": 4728741062, "lat": 28.5405555, "lon": 77.1691235}, {"type": "node", "id": 4728741063, "lat": 28.5405405, "lon": 77.1691634}, {"type": "node", "id": 4728741064, "lat": 28.540538, "lon": 77.1692719}, {"type": "node", "id": 4728741065, "lat": 28.5405756, "lon": 77.1693433}, {"type": "node", "id": 4728741066, "lat": 28.5406032, "lon": 77.1693661}, {"type": "node", "id": 4728741067, "lat": 28.540716, "lon": 77.1692662}, {"type": "node", "id": 4728741068, "lat": 28.5406659, "lon": 77.1691863}, {"type": "node", "id": 4728741069, "lat": 28.540726, "lon": 77.1691263}, {"type": "node", "id": 3476029082, "lat": 28.549673, "lon": 77.1679096}, {"type": "node", "id": 3476029083, "lat": 28.5496492, "lon": 77.1679444}, {"type": "node", "id": 3476029084, "lat": 28.5495899, "lon": 77.1678919}, {"type": "node", "id": 3476029087, "lat": 28.5496137, "lon": 77.1678571}, {"type": "node", "id": 3476094084, "lat": 28.5497784, "lon": 77.168085}, {"type": "node", "id": 3476094085, "lat": 28.5497508, "lon": 77.1681317}, {"type": "node", "id": 3476094086, "lat": 28.5497165, "lon": 77.1681055}, {"type": "node", "id": 3476094087, "lat": 28.5497441, "lon": 77.1680587}, {"type": "node", "id": 3476121928, "lat": 28.5482504, "lon": 77.1678533}, {"type": "node", "id": 3476121929, "lat": 28.5487687, "lon": 77.168273}, {"type": "node", "id": 3476121931, "lat": 28.5479146, "lon": 77.1684273}, {"type": "node", "id": 3476121932, "lat": 28.5480666, "lon": 77.1681658}, {"type": "node", "id": 3476121933, "lat": 28.5481196, "lon": 77.1682114}, {"type": "node", "id": 3476121934, "lat": 28.5480383, "lon": 77.1683495}, {"type": "node", "id": 3476121936, "lat": 28.5485013, "lon": 77.1685882}, {"type": "node", "id": 3476121937, "lat": 28.5483799, "lon": 77.1684903}, {"type": "node", "id": 3476121938, "lat": 28.5484412, "lon": 77.168383}, {"type": "node", "id": 3476121939, "lat": 28.5485696, "lon": 77.1684809}, {"type": "node", "id": 3476121940, "lat": 28.5486156, "lon": 77.1684005}, {"type": "node", "id": 3476121941, "lat": 28.5482056, "lon": 77.1680638}, {"type": "node", "id": 3476121942, "lat": 28.5481502, "lon": 77.1681577}, {"type": "node", "id": 3476121943, "lat": 28.5480972, "lon": 77.1681135}, {"type": "node", "id": 3476212526, "lat": 28.5483594, "lon": 77.1669218}, {"type": "node", "id": 3476212527, "lat": 28.5483924, "lon": 77.1668722}, {"type": "node", "id": 3476212528, "lat": 28.548357, "lon": 77.1668387}, {"type": "node", "id": 3476212529, "lat": 28.5483229, "lon": 77.166891}, {"type": "node", "id": 3476217505, "lat": 28.5484045, "lon": 77.1668423}, {"type": "node", "id": 3476217506, "lat": 28.5483689, "lon": 77.1668124}, {"type": "node", "id": 3476217507, "lat": 28.5483956, "lon": 77.1667711}, {"type": "node", "id": 3476217508, "lat": 28.5484313, "lon": 77.166801}, {"type": "node", "id": 3476267380, "lat": 28.5458305, "lon": 77.1636398}, {"type": "node", "id": 3476267381, "lat": 28.5464289, "lon": 77.1641167}, {"type": "node", "id": 3476267382, "lat": 28.5461036, "lon": 77.1646457}, {"type": "node", "id": 3476267383, "lat": 28.5455052, "lon": 77.1641688}, {"type": "node", "id": 3565023395, "lat": 28.5442537, "lon": 77.1623459}, {"type": "node", "id": 3565023561, "lat": 28.5462883, "lon": 77.1651028}, {"type": "node", "id": 3565023831, "lat": 28.5466849, "lon": 77.165438}, {"type": "node", "id": 3565023840, "lat": 28.5466606, "lon": 77.1645319}, {"type": "node", "id": 3565024027, "lat": 28.5470572, "lon": 77.1648671}, {"type": "node", "id": 3476121930, "lat": 28.54844, "lon": 77.1688578}, {"type": "node", "id": 3476121935, "lat": 28.5484542, "lon": 77.1686714}, {"type": "node", "id": 3476174929, "lat": 28.5481767, "lon": 77.1689047}, {"type": "node", "id": 3476174930, "lat": 28.5487163, "lon": 77.1693399}, {"type": "node", "id": 3476174931, "lat": 28.5483581, "lon": 77.1699695}, {"type": "node", "id": 3476174932, "lat": 28.5478162, "lon": 77.1695297}, {"type": "node", "id": 3476174933, "lat": 28.5479977, "lon": 77.1692078}, {"type": "node", "id": 3476174934, "lat": 28.5480613, "lon": 77.1692614}, {"type": "node", "id": 3476174935, "lat": 28.5479859, "lon": 77.1693956}, {"type": "node", "id": 3476174936, "lat": 28.5484189, "lon": 77.1697436}, {"type": "node", "id": 3476174937, "lat": 28.548466, "lon": 77.1696604}, {"type": "node", "id": 3476174938, "lat": 28.5483446, "lon": 77.1695625}, {"type": "node", "id": 3476174939, "lat": 28.5484059, "lon": 77.1694552}, {"type": "node", "id": 3476174940, "lat": 28.5485343, "lon": 77.1695531}, {"type": "node", "id": 3476174941, "lat": 28.5485803, "lon": 77.1694727}, {"type": "node", "id": 3476174942, "lat": 28.5481367, "lon": 77.1691139}, {"type": "node", "id": 3476174943, "lat": 28.5480872, "lon": 77.1692078}, {"type": "node", "id": 3476174944, "lat": 28.548033, "lon": 77.1691595}, {"type": "node", "id": 3476223993, "lat": 28.5475518, "lon": 77.170052}, {"type": "node", "id": 3476223994, "lat": 28.5474199, "lon": 77.1703551}, {"type": "node", "id": 3476223995, "lat": 28.5471819, "lon": 77.1702746}, {"type": "node", "id": 3476223996, "lat": 28.5471937, "lon": 77.1702236}, {"type": "node", "id": 3476223997, "lat": 28.5468591, "lon": 77.1700949}, {"type": "node", "id": 3476223998, "lat": 28.546977, "lon": 77.1697784}, {"type": "node", "id": 3476225711, "lat": 28.5458643, "lon": 77.1692206}, {"type": "node", "id": 3476225712, "lat": 28.5456889, "lon": 77.169502}, {"type": "node", "id": 3476225713, "lat": 28.5455515, "lon": 77.169391}, {"type": "node", "id": 3476225714, "lat": 28.5457269, "lon": 77.1691096}, {"type": "node", "id": 2990876412, "lat": 28.5029862, "lon": 77.1779432}, {"type": "node", "id": 2990876413, "lat": 28.5011779, "lon": 77.1792473}, {"type": "node", "id": 2990876414, "lat": 28.5025866, "lon": 77.1797003}, {"type": "node", "id": 4218568028, "lat": 28.5032511, "lon": 77.1769362}, {"type": "node", "id": 5272999806, "lat": 28.5008841, "lon": 77.1785817}, {"type": "node", "id": 5272999807, "lat": 28.5009533, "lon": 77.1761069}, {"type": "node", "id": 5354777953, "lat": 28.5016477, "lon": 77.1788986}, {"type": "node", "id": 5354777954, "lat": 28.5013209, "lon": 77.1788133}, {"type": "node", "id": 5354777955, "lat": 28.5012298, "lon": 77.1791729}, {"type": "node", "id": 5354777956, "lat": 28.5015673, "lon": 77.1792826}, {"type": "node", "id": 5579857870, "lat": 28.5009432, "lon": 77.1785828}, {"type": "node", "id": 5907499576, "lat": 28.501277, "lon": 77.1787431}, {"type": "node", "id": 9869567376, "lat": 28.5013072, "lon": 77.1785893}, {"type": "node", "id": 4644350469, "lat": 28.511232, "lon": 77.1814573}, {"type": "node", "id": 4644350472, "lat": 28.5098019, "lon": 77.1795637}, {"type": "node", "id": 4644350473, "lat": 28.5110577, "lon": 77.1798237}, {"type": "node", "id": 4644341344, "lat": 28.5144807, "lon": 77.1772362}, {"type": "node", "id": 4644341345, "lat": 28.5144971, "lon": 77.177988}, {"type": "node", "id": 4644341346, "lat": 28.5146777, "lon": 77.1772408}, {"type": "node", "id": 4644341347, "lat": 28.5146777, "lon": 77.1782963}, {"type": "node", "id": 4644341348, "lat": 28.5141278, "lon": 77.1784013}, {"type": "node", "id": 4644341349, "lat": 28.5131861, "lon": 77.17812}, {"type": "node", "id": 4644341350, "lat": 28.5137616, "lon": 77.1786763}, {"type": "node", "id": 4644350471, "lat": 28.5129842, "lon": 77.1810511}, {"type": "node", "id": 8898263212, "lat": 28.5129027, "lon": 77.1755797}, {"type": "node", "id": 8898263214, "lat": 28.5115894, "lon": 77.1752677}, {"type": "node", "id": 8898280247, "lat": 28.5157762, "lon": 77.1754522}, {"type": "node", "id": 8898280248, "lat": 28.5154403, "lon": 77.1752257}, {"type": "node", "id": 8898280251, "lat": 28.5140969, "lon": 77.1754098}, {"type": "node", "id": 8898280252, "lat": 28.5140969, "lon": 77.1756787}, {"type": "node", "id": 4644350467, "lat": 28.5135875, "lon": 77.1831105}, {"type": "node", "id": 4644350468, "lat": 28.511864, "lon": 77.1840445}, {"type": "node", "id": 4644350470, "lat": 28.5139486, "lon": 77.1823633}, {"type": "node", "id": 5717922156, "lat": 28.5192476, "lon": 77.1802289}, {"type": "node", "id": 5717922157, "lat": 28.5190827, "lon": 77.1802544}, {"type": "node", "id": 5717922158, "lat": 28.5190956, "lon": 77.1804207}, {"type": "node", "id": 5717922159, "lat": 28.5193266, "lon": 77.1803845}, {"type": "node", "id": 5975220464, "lat": 28.5232965, "lon": 77.1801864}, {"type": "node", "id": 5975220465, "lat": 28.5231723, "lon": 77.1816775}, {"type": "node", "id": 5975220466, "lat": 28.523104, "lon": 77.1816507}, {"type": "node", "id": 5975220479, "lat": 28.523218, "lon": 77.1801086}, {"type": "node", "id": 5975247078, "lat": 28.5232796, "lon": 77.1800802}, {"type": "node", "id": 5975247082, "lat": 28.5232447, "lon": 77.1800829}, {"type": "node", "id": 5975248088, "lat": 28.523309, "lon": 77.1801017}, {"type": "node", "id": 5975248121, "lat": 28.5244979, "lon": 77.1796028}, {"type": "node", "id": 5975248128, "lat": 28.5232195, "lon": 77.1802157}, {"type": "node", "id": 5975248137, "lat": 28.5232113, "lon": 77.1801272}, {"type": "node", "id": 5975248141, "lat": 28.5232958, "lon": 77.1800883}, {"type": "node", "id": 5975248311, "lat": 28.5244414, "lon": 77.1796538}, {"type": "node", "id": 5975248328, "lat": 28.523262, "lon": 77.1800784}, {"type": "node", "id": 5975248585, "lat": 28.5232296, "lon": 77.1800933}, {"type": "node", "id": 5975248590, "lat": 28.52321, "lon": 77.1801473}, {"type": "node", "id": 5975248620, "lat": 28.5243294, "lon": 77.1797155}, {"type": "node", "id": 9536768457, "lat": 28.5204805, "lon": 77.1812724}, {"type": "node", "id": 9536768459, "lat": 28.5203396, "lon": 77.1815779}, {"type": "node", "id": 9536768460, "lat": 28.5206757, "lon": 77.1815311}, {"type": "node", "id": 9538891060, "lat": 28.5205882, "lon": 77.1813262}, {"type": "node", "id": 9538891061, "lat": 28.5205629, "lon": 77.1812537}, {"type": "node", "id": 9538891062, "lat": 28.5205111, "lon": 77.1812383}, {"type": "node", "id": 12285399710, "lat": 28.5207807, "lon": 77.1815976}, {"type": "node", "id": 12285399711, "lat": 28.5207777, "lon": 77.1817}, {"type": "node", "id": 12285399712, "lat": 28.5209206, "lon": 77.1817054}, {"type": "node", "id": 12285399713, "lat": 28.5209235, "lon": 77.181603}, {"type": "node", "id": 13099843483, "lat": 28.5223059, "lon": 77.1812699}, {"type": "node", "id": 13099843484, "lat": 28.5221995, "lon": 77.1812721}, {"type": "node", "id": 13099843485, "lat": 28.5222013, "lon": 77.1813918}, {"type": "node", "id": 13099843486, "lat": 28.5223077, "lon": 77.1813896}, {"type": "node", "id": 13099843487, "lat": 28.5222332, "lon": 77.1813047}, {"type": "node", "id": 13099843488, "lat": 28.5222408, "lon": 77.1812978}, {"type": "node", "id": 13099843489, "lat": 28.5222499, "lon": 77.1812939}, {"type": "node", "id": 13099843490, "lat": 28.5222597, "lon": 77.1812936}, {"type": "node", "id": 13099843491, "lat": 28.522269, "lon": 77.1812966}, {"type": "node", "id": 13099843492, "lat": 28.5222776, "lon": 77.1813528}, {"type": "node", "id": 13099843493, "lat": 28.522269, "lon": 77.1813597}, {"type": "node", "id": 13099843494, "lat": 28.5222589, "lon": 77.1813629}, {"type": "node", "id": 13099843495, "lat": 28.5222484, "lon": 77.1813621}, {"type": "node", "id": 13099843496, "lat": 28.5222388, "lon": 77.1813572}, {"type": "node", "id": 13099843497, "lat": 28.522277, "lon": 77.1813029}, {"type": "node", "id": 13099843498, "lat": 28.5222829, "lon": 77.1813117}, {"type": "node", "id": 13099843499, "lat": 28.5222861, "lon": 77.1813222}, {"type": "node", "id": 13099843500, "lat": 28.5222862, "lon": 77.1813333}, {"type": "node", "id": 13099843501, "lat": 28.5222833, "lon": 77.1813438}, {"type": "node", "id": 13099843502, "lat": 28.5222312, "lon": 77.181349}, {"type": "node", "id": 13099843503, "lat": 28.5222265, "lon": 77.1813383}, {"type": "node", "id": 13099843504, "lat": 28.5222252, "lon": 77.1813264}, {"type": "node", "id": 13099843505, "lat": 28.5222276, "lon": 77.1813148}, {"type": "node", "id": 939328601, "lat": 28.524371, "lon": 77.1837697}, {"type": "node", "id": 939328653, "lat": 28.5231484, "lon": 77.1869833}, {"type": "node", "id": 939328654, "lat": 28.5239631, "lon": 77.1834537}, {"type": "node", "id": 939328813, "lat": 28.5237462, "lon": 77.1838148}, {"type": "node", "id": 1038392610, "lat": 28.5194564, "lon": 77.1873704}, {"type": "node", "id": 1038392623, "lat": 28.5214925, "lon": 77.1846741}, {"type": "node", "id": 1038392632, "lat": 28.5196895, "lon": 77.1870385}, {"type": "node", "id": 1038392643, "lat": 28.5189105, "lon": 77.1873003}, {"type": "node", "id": 1038392648, "lat": 28.5193456, "lon": 77.187317}, {"type": "node", "id": 1038392666, "lat": 28.5184245, "lon": 77.1873907}, {"type": "node", "id": 1038392675, "lat": 28.5182087, "lon": 77.1875529}, {"type": "node", "id": 1038392676, "lat": 28.5199948, "lon": 77.1870987}, {"type": "node", "id": 1038392711, "lat": 28.5192505, "lon": 77.1872562}, {"type": "node", "id": 1038392730, "lat": 28.5194318, "lon": 77.1877132}, {"type": "node", "id": 1038392736, "lat": 28.5181537, "lon": 77.1875529}, {"type": "node", "id": 1038392739, "lat": 28.5199572, "lon": 77.1873294}, {"type": "node", "id": 1038392748, "lat": 28.5181964, "lon": 77.1872539}, {"type": "node", "id": 1038392759, "lat": 28.5196149, "lon": 77.1874471}, {"type": "node", "id": 1038392785, "lat": 28.5192298, "lon": 77.1869794}, {"type": "node", "id": 1038392802, "lat": 28.5196736, "lon": 77.1869971}, {"type": "node", "id": 1038392811, "lat": 28.518117, "lon": 77.1875274}, {"type": "node", "id": 1038392813, "lat": 28.5199164, "lon": 77.1875186}, {"type": "node", "id": 1038392827, "lat": 28.5182677, "lon": 77.1872632}, {"type": "node", "id": 1038392829, "lat": 28.5193081, "lon": 77.1822836}, {"type": "node", "id": 1038392831, "lat": 28.5196388, "lon": 77.1872028}, {"type": "node", "id": 1038392850, "lat": 28.5188157, "lon": 77.1873715}, {"type": "node", "id": 1038392859, "lat": 28.5196707, "lon": 77.1870995}, {"type": "node", "id": 1038392883, "lat": 28.5194318, "lon": 77.1874961}, {"type": "node", "id": 1038392887, "lat": 28.5183329, "lon": 77.1872841}, {"type": "node", "id": 1038392889, "lat": 28.5201283, "lon": 77.1819724}, {"type": "node", "id": 1038392912, "lat": 28.5188125, "lon": 77.1876812}, {"type": "node", "id": 1038392938, "lat": 28.5184184, "lon": 77.1874695}, {"type": "node", "id": 1038392943, "lat": 28.5183899, "lon": 77.1873304}, {"type": "node", "id": 1038392946, "lat": 28.5206174, "lon": 77.1822165}, {"type": "node", "id": 1038392966, "lat": 28.5188032, "lon": 77.1880015}, {"type": "node", "id": 1038392983, "lat": 28.5183858, "lon": 77.1875112}, {"type": "node", "id": 1038392991, "lat": 28.5180926, "lon": 77.1874857}, {"type": "node", "id": 1038392993, "lat": 28.5214328, "lon": 77.1822967}, {"type": "node", "id": 1038393011, "lat": 28.5187959, "lon": 77.1882269}, {"type": "node", "id": 1038393017, "lat": 28.518343, "lon": 77.187532}, {"type": "node", "id": 1038393028, "lat": 28.5180845, "lon": 77.1874185}, {"type": "node", "id": 1038393044, "lat": 28.5194474, "lon": 77.1882685}, {"type": "node", "id": 1038393059, "lat": 28.5196177, "lon": 77.1874186}, {"type": "node", "id": 1038393072, "lat": 28.5180906, "lon": 77.1873605}, {"type": "node", "id": 1038393082, "lat": 28.5180385, "lon": 77.187342}, {"type": "node", "id": 1038393110, "lat": 28.5192285, "lon": 77.187349}, {"type": "node", "id": 1038393114, "lat": 28.519413, "lon": 77.1879268}, {"type": "node", "id": 1038393131, "lat": 28.5194981, "lon": 77.1873882}, {"type": "node", "id": 1038393142, "lat": 28.5181272, "lon": 77.187291}, {"type": "node", "id": 1038393148, "lat": 28.5180902, "lon": 77.183804}, {"type": "node", "id": 1038393182, "lat": 28.5190596, "lon": 77.1872991}, {"type": "node", "id": 1038393214, "lat": 28.5182596, "lon": 77.1875506}, {"type": "node", "id": 1038393217, "lat": 28.5182828, "lon": 77.182029}, {"type": "node", "id": 1126274629, "lat": 28.5230621, "lon": 77.1821403}, {"type": "node", "id": 1126274649, "lat": 28.5231678, "lon": 77.1821002}, {"type": "node", "id": 1126274666, "lat": 28.5232097, "lon": 77.1818666}, {"type": "node", "id": 1126274675, "lat": 28.5229053, "lon": 77.1819822}, {"type": "node", "id": 1126274686, "lat": 28.5229584, "lon": 77.1820938}, {"type": "node", "id": 1126274710, "lat": 28.5230149, "lon": 77.181779}, {"type": "node", "id": 1126274718, "lat": 28.5229276, "lon": 77.1818579}, {"type": "node", "id": 1126274755, "lat": 28.5231263, "lon": 77.1817824}, {"type": "node", "id": 1126274790, "lat": 28.5232261, "lon": 77.181992}, {"type": "node", "id": 2507400419, "lat": 28.5227027, "lon": 77.1828288}, {"type": "node", "id": 2507400432, "lat": 28.522368, "lon": 77.1829996}, {"type": "node", "id": 2507400444, "lat": 28.5209345, "lon": 77.1823847}, {"type": "node", "id": 2507400458, "lat": 28.5216784, "lon": 77.1847851}, {"type": "node", "id": 2507400460, "lat": 28.5225967, "lon": 77.182421}, {"type": "node", "id": 2654012009, "lat": 28.5241589, "lon": 77.1857764}, {"type": "node", "id": 2654012040, "lat": 28.5243169, "lon": 77.1842568}, {"type": "node", "id": 2975859140, "lat": 28.5223027, "lon": 77.1849393}, {"type": "node", "id": 2975859142, "lat": 28.5230764, "lon": 77.184894}, {"type": "node", "id": 2975859143, "lat": 28.5231134, "lon": 77.1853806}, {"type": "node", "id": 2975859144, "lat": 28.5232742, "lon": 77.1874294}, {"type": "node", "id": 2975859146, "lat": 28.5233868, "lon": 77.1837676}, {"type": "node", "id": 2975859151, "lat": 28.5236289, "lon": 77.1875833}, {"type": "node", "id": 2975859152, "lat": 28.5236775, "lon": 77.183835}, {"type": "node", "id": 2975859162, "lat": 28.5245134, "lon": 77.1836746}, {"type": "node", "id": 3729556764, "lat": 28.5243639, "lon": 77.1854101}, {"type": "node", "id": 3729556765, "lat": 28.5243751, "lon": 77.1853955}, {"type": "node", "id": 3729556766, "lat": 28.5244394, "lon": 77.185382}, {"type": "node", "id": 3729556767, "lat": 28.5244545, "lon": 77.1853912}, {"type": "node", "id": 3729556768, "lat": 28.5244669, "lon": 77.1854045}, {"type": "node", "id": 3729556769, "lat": 28.5243894, "lon": 77.1853847}, {"type": "node", "id": 3729556770, "lat": 28.5244057, "lon": 77.1853787}, {"type": "node", "id": 3729556771, "lat": 28.5244227, "lon": 77.1853778}, {"type": "node", "id": 3729556773, "lat": 28.5244809, "lon": 77.1854438}, {"type": "node", "id": 3729556774, "lat": 28.5244794, "lon": 77.1854671}, {"type": "node", "id": 3729556775, "lat": 28.5244715, "lon": 77.1854886}, {"type": "node", "id": 3729556776, "lat": 28.524458, "lon": 77.1855062}, {"type": "node", "id": 3729556777, "lat": 28.5244403, "lon": 77.1855181}, {"type": "node", "id": 3729556779, "lat": 28.5244758, "lon": 77.1854212}, {"type": "node", "id": 3729556780, "lat": 28.5243999, "lon": 77.1855203}, {"type": "node", "id": 3729556781, "lat": 28.5243813, "lon": 77.1855104}, {"type": "node", "id": 3729556782, "lat": 28.5243565, "lon": 77.1854276}, {"type": "node", "id": 4217073504, "lat": 28.5225806, "lon": 77.1848793}, {"type": "node", "id": 4696725311, "lat": 28.5242982, "lon": 77.1856771}, {"type": "node", "id": 4696725368, "lat": 28.5241421, "lon": 77.1856132}, {"type": "node", "id": 4696725381, "lat": 28.5242896, "lon": 77.1855935}, {"type": "node", "id": 4696725590, "lat": 28.5243065, "lon": 77.1857567}, {"type": "node", "id": 4696725595, "lat": 28.5241508, "lon": 77.1856984}, {"type": "node", "id": 5717949791, "lat": 28.52242, "lon": 77.1868056}, {"type": "node", "id": 5717949792, "lat": 28.5224722, "lon": 77.1867928}, {"type": "node", "id": 5717949793, "lat": 28.5225252, "lon": 77.1868009}, {"type": "node", "id": 5717949794, "lat": 28.5225726, "lon": 77.186829}, {"type": "node", "id": 5717949795, "lat": 28.5225408, "lon": 77.1871313}, {"type": "node", "id": 5717949796, "lat": 28.5224933, "lon": 77.1871454}, {"type": "node", "id": 5717949797, "lat": 28.5224444, "lon": 77.187142}, {"type": "node", "id": 5717949798, "lat": 28.5223988, "lon": 77.1871213}, {"type": "node", "id": 5717949799, "lat": 28.5226088, "lon": 77.1868737}, {"type": "node", "id": 5717949800, "lat": 28.5226296, "lon": 77.1869298}, {"type": "node", "id": 5717949801, "lat": 28.5226325, "lon": 77.1869905}, {"type": "node", "id": 5717949802, "lat": 28.5226171, "lon": 77.1870487}, {"type": "node", "id": 5717949803, "lat": 28.5225853, "lon": 77.1870976}, {"type": "node", "id": 5717949804, "lat": 28.5223611, "lon": 77.1870855}, {"type": "node", "id": 5717949805, "lat": 28.5223352, "lon": 77.1870382}, {"type": "node", "id": 5717949806, "lat": 28.5223235, "lon": 77.186984}, {"type": "node", "id": 5717949807, "lat": 28.5223272, "lon": 77.1869283}, {"type": "node", "id": 5717949808, "lat": 28.522346, "lon": 77.1868767}, {"type": "node", "id": 5717949809, "lat": 28.522378, "lon": 77.1868344}, {"type": "node", "id": 6834036198, "lat": 28.5215139, "lon": 77.1827835}, {"type": "node", "id": 6834036201, "lat": 28.5220835, "lon": 77.1830091}, {"type": "node", "id": 6834036202, "lat": 28.5222931, "lon": 77.1825602}, {"type": "node", "id": 6834036203, "lat": 28.5225059, "lon": 77.1824424}, {"type": "node", "id": 6834036213, "lat": 28.5225233, "lon": 77.1824673}, {"type": "node", "id": 6834036224, "lat": 28.5223869, "lon": 77.1825265}, {"type": "node", "id": 7645753099, "lat": 28.5240012, "lon": 77.183007}, {"type": "node", "id": 7645753100, "lat": 28.5241379, "lon": 77.1832108}, {"type": "node", "id": 7645753101, "lat": 28.5243547, "lon": 77.1835863}, {"type": "node", "id": 7645753102, "lat": 28.5244913, "lon": 77.1835542}, {"type": "node", "id": 7645753112, "lat": 28.5217633, "lon": 77.1878697}, {"type": "node", "id": 7645753115, "lat": 28.5227908, "lon": 77.1882774}, {"type": "node", "id": 7645753116, "lat": 28.5244203, "lon": 77.1855229}, {"type": "node", "id": 7645753117, "lat": 28.5243664, "lon": 77.1854943}, {"type": "node", "id": 7645753118, "lat": 28.5243567, "lon": 77.1854737}, {"type": "node", "id": 7645753119, "lat": 28.5243533, "lon": 77.1854507}, {"type": "node", "id": 7645753137, "lat": 28.5237981, "lon": 77.1843097}, {"type": "node", "id": 7645753138, "lat": 28.5237852, "lon": 77.1847508}, {"type": "node", "id": 7645753142, "lat": 28.5240112, "lon": 77.1847105}, {"type": "node", "id": 7645753157, "lat": 28.5233614, "lon": 77.1847505}, {"type": "node", "id": 9536890780, "lat": 28.5210426, "lon": 77.1823209}, {"type": "node", "id": 9536890787, "lat": 28.5209753, "lon": 77.1823113}, {"type": "node", "id": 11773137246, "lat": 28.5242376, "lon": 77.18592}, {"type": "node", "id": 11773137247, "lat": 28.5239995, "lon": 77.1865364}, {"type": "node", "id": 11773137250, "lat": 28.5240045, "lon": 77.1865428}, {"type": "node", "id": 11773137252, "lat": 28.5240096, "lon": 77.1865655}, {"type": "node", "id": 11773137253, "lat": 28.5242327, "lon": 77.1858376}, {"type": "node", "id": 11773137254, "lat": 28.5240088, "lon": 77.1865537}, {"type": "node", "id": 11773137256, "lat": 28.5239556, "lon": 77.1865417}, {"type": "node", "id": 11773137258, "lat": 28.5241636, "lon": 77.1858429}, {"type": "node", "id": 11773137260, "lat": 28.5239509, "lon": 77.1865524}, {"type": "node", "id": 11773137261, "lat": 28.5240006, "lon": 77.1865865}, {"type": "node", "id": 11773137263, "lat": 28.5239587, "lon": 77.1865865}, {"type": "node", "id": 11773137264, "lat": 28.5239803, "lon": 77.1865279}, {"type": "node", "id": 11773137266, "lat": 28.5239609, "lon": 77.1865355}, {"type": "node", "id": 11773137267, "lat": 28.5239497, "lon": 77.1865641}, {"type": "node", "id": 11773137268, "lat": 28.52397, "lon": 77.1865297}, {"type": "node", "id": 11773168172, "lat": 28.5239673, "lon": 77.1865932}, {"type": "node", "id": 11773168175, "lat": 28.5240067, "lon": 77.1865769}, {"type": "node", "id": 11773168176, "lat": 28.5239522, "lon": 77.1865757}, {"type": "node", "id": 11773168178, "lat": 28.5239905, "lon": 77.1865302}, {"type": "node", "id": 11773168179, "lat": 28.5239774, "lon": 77.1865961}, {"type": "node", "id": 11773168180, "lat": 28.5239986, "lon": 77.1843702}, {"type": "node", "id": 11773168181, "lat": 28.5239877, "lon": 77.186595}, {"type": "node", "id": 11773168182, "lat": 28.5243217, "lon": 77.1843363}, {"type": "node", "id": 11773168184, "lat": 28.5241686, "lon": 77.1859254}, {"type": "node", "id": 12979272382, "lat": 28.5223079, "lon": 77.1882034}, {"type": "node", "id": 12979272383, "lat": 28.5225363, "lon": 77.188175}, {"type": "node", "id": 12979272384, "lat": 28.5222536, "lon": 77.1880642}, {"type": "node", "id": 12979272385, "lat": 28.5224714, "lon": 77.1882691}, {"type": "node", "id": 13099811096, "lat": 28.5187297, "lon": 77.1852773}, {"type": "node", "id": 13099811097, "lat": 28.5187676, "lon": 77.1855896}, {"type": "node", "id": 13099811098, "lat": 28.5186054, "lon": 77.18564}, {"type": "node", "id": 13099811099, "lat": 28.5185733, "lon": 77.1853156}, {"type": "node", "id": 13132333401, "lat": 28.518254, "lon": 77.1869859}, {"type": "node", "id": 13132333402, "lat": 28.5183012, "lon": 77.1863714}, {"type": "node", "id": 5974787304, "lat": 28.5161163, "lon": 77.1947238}, {"type": "node", "id": 5974787305, "lat": 28.5158759, "lon": 77.1944958}, {"type": "node", "id": 5974787306, "lat": 28.5162483, "lon": 77.1934068}, {"type": "node", "id": 5974787307, "lat": 28.5164321, "lon": 77.1934712}, {"type": "node", "id": 5974787308, "lat": 28.5176105, "lon": 77.1893728}, {"type": "node", "id": 5974787328, "lat": 28.5172664, "lon": 77.1904778}, {"type": "node", "id": 5974787302, "lat": 28.5176576, "lon": 77.1960193}, {"type": "node", "id": 5974787303, "lat": 28.5170637, "lon": 77.1953031}, {"type": "node", "id": 939328745, "lat": 28.5243682, "lon": 77.1883159}, {"type": "node", "id": 1038392647, "lat": 28.5188136, "lon": 77.1886505}, {"type": "node", "id": 1038392701, "lat": 28.5193329, "lon": 77.1892918}, {"type": "node", "id": 1038392708, "lat": 28.5180665, "lon": 77.1889747}, {"type": "node", "id": 1038392710, "lat": 28.5189793, "lon": 77.1886992}, {"type": "node", "id": 1038392762, "lat": 28.5186198, "lon": 77.1892054}, {"type": "node", "id": 1038392784, "lat": 28.5191024, "lon": 77.1887336}, {"type": "node", "id": 1038392953, "lat": 28.5231368, "lon": 77.1891}, {"type": "node", "id": 1038392968, "lat": 28.5196007, "lon": 77.1888957}, {"type": "node", "id": 1038392972, "lat": 28.5193202, "lon": 77.1887264}, {"type": "node", "id": 1038392976, "lat": 28.5197444, "lon": 77.1888997}, {"type": "node", "id": 1038392998, "lat": 28.5230549, "lon": 77.1897868}, {"type": "node", "id": 1038393012, "lat": 28.5194996, "lon": 77.1886861}, {"type": "node", "id": 1038393036, "lat": 28.5215139, "lon": 77.1894332}, {"type": "node", "id": 1038393047, "lat": 28.5197492, "lon": 77.1886767}, {"type": "node", "id": 1038393061, "lat": 28.5196055, "lon": 77.1886727}, {"type": "node", "id": 1038393092, "lat": 28.5202401, "lon": 77.1893484}, {"type": "node", "id": 1038393191, "lat": 28.5188084, "lon": 77.1884678}, {"type": "node", "id": 3742396927, "lat": 28.5242147, "lon": 77.1896392}, {"type": "node", "id": 3742396928, "lat": 28.5242624, "lon": 77.1897015}, {"type": "node", "id": 3742396929, "lat": 28.5243719, "lon": 77.1886205}, {"type": "node", "id": 3742396930, "lat": 28.5244147, "lon": 77.188504}, {"type": "node", "id": 5755942895, "lat": 28.5223558, "lon": 77.1933968}, {"type": "node", "id": 5974787309, "lat": 28.5180441, "lon": 77.1895605}, {"type": "node", "id": 5974787310, "lat": 28.5181761, "lon": 77.1895981}, {"type": "node", "id": 5974787311, "lat": 28.5216405, "lon": 77.1899253}, {"type": "node", "id": 5974787312, "lat": 28.5226963, "lon": 77.1901184}, {"type": "node", "id": 5974787313, "lat": 28.5228188, "lon": 77.1902257}, {"type": "node", "id": 5974787314, "lat": 28.522932, "lon": 77.1904296}, {"type": "node", "id": 5974787315, "lat": 28.5229932, "lon": 77.1907353}, {"type": "node", "id": 5974787316, "lat": 28.5222202, "lon": 77.193734}, {"type": "node", "id": 5974787317, "lat": 28.5221401, "lon": 77.1941632}, {"type": "node", "id": 7645753113, "lat": 28.5215088, "lon": 77.1887709}, {"type": "node", "id": 7645753114, "lat": 28.5223572, "lon": 77.189141}, {"type": "node", "id": 2149473523, "lat": 28.5210231, "lon": 77.1973282}, {"type": "node", "id": 5974787297, "lat": 28.5200191, "lon": 77.1997502}, {"type": "node", "id": 5974787298, "lat": 28.5194205, "lon": 77.1987712}, {"type": "node", "id": 5974787299, "lat": 28.5185438, "lon": 77.1982267}, {"type": "node", "id": 5974787300, "lat": 28.5181785, "lon": 77.1970788}, {"type": "node", "id": 5974787301, "lat": 28.5180488, "lon": 77.1966684}, {"type": "node", "id": 5974787318, "lat": 28.5221967, "lon": 77.1967059}, {"type": "node", "id": 5974787319, "lat": 28.521649, "lon": 77.197029}, {"type": "node", "id": 5974787322, "lat": 28.5202241, "lon": 77.2000748}, {"type": "node", "id": 5974787323, "lat": 28.5200214, "lon": 77.1999782}, {"type": "node", "id": 7640428533, "lat": 28.5205881, "lon": 77.1983184}, {"type": "node", "id": 7640428534, "lat": 28.5204678, "lon": 77.1989052}, {"type": "node", "id": 7640428535, "lat": 28.5202804, "lon": 77.199186}, {"type": "node", "id": 7640428536, "lat": 28.5205932, "lon": 77.1996027}, {"type": "node", "id": 5975220467, "lat": 28.5303808, "lon": 77.1800498}, {"type": "node", "id": 5975220471, "lat": 28.5304857, "lon": 77.180317}, {"type": "node", "id": 5975220472, "lat": 28.5308686, "lon": 77.1809822}, {"type": "node", "id": 5975220473, "lat": 28.5246467, "lon": 77.1795082}, {"type": "node", "id": 5975220474, "lat": 28.5252862, "lon": 77.1792273}, {"type": "node", "id": 5975220475, "lat": 28.5267457, "lon": 77.1787148}, {"type": "node", "id": 5975220476, "lat": 28.5301534, "lon": 77.1797107}, {"type": "node", "id": 5975220477, "lat": 28.5254996, "lon": 77.1790769}, {"type": "node", "id": 5975220480, "lat": 28.5310416, "lon": 77.1811675}, {"type": "node", "id": 5975220481, "lat": 28.5255718, "lon": 77.1790694}, {"type": "node", "id": 5975220482, "lat": 28.5261865, "lon": 77.1789309}, {"type": "node", "id": 5975220483, "lat": 28.5298469, "lon": 77.1795268}, {"type": "node", "id": 5975220484, "lat": 28.5302161, "lon": 77.1798415}, {"type": "node", "id": 5975247042, "lat": 28.5305339, "lon": 77.1803672}, {"type": "node", "id": 5975247045, "lat": 28.5247195, "lon": 77.1795237}, {"type": "node", "id": 5975247046, "lat": 28.5268086, "lon": 77.1787432}, {"type": "node", "id": 5975247047, "lat": 28.5306126, "lon": 77.1806221}, {"type": "node", "id": 5975247048, "lat": 28.5249205, "lon": 77.1793886}, {"type": "node", "id": 5975247049, "lat": 28.52552, "lon": 77.1790548}, {"type": "node", "id": 5975247051, "lat": 28.5270913, "lon": 77.1786275}, {"type": "node", "id": 5975247052, "lat": 28.53037, "lon": 77.1800335}, {"type": "node", "id": 5975247053, "lat": 28.5257934, "lon": 77.1790229}, {"type": "node", "id": 5975247054, "lat": 28.5310763, "lon": 77.1812645}, {"type": "node", "id": 5975247057, "lat": 28.5303198, "lon": 77.1800186}, {"type": "node", "id": 5975247060, "lat": 28.5258729, "lon": 77.179002}, {"type": "node", "id": 5975247062, "lat": 28.5246361, "lon": 77.1795391}, {"type": "node", "id": 5975247063, "lat": 28.5308692, "lon": 77.1809446}, {"type": "node", "id": 5975247065, "lat": 28.5252024, "lon": 77.179198}, {"type": "node", "id": 5975247066, "lat": 28.5267295, "lon": 77.1787378}, {"type": "node", "id": 5975247067, "lat": 28.5247301, "lon": 77.1796417}, {"type": "node", "id": 5975247068, "lat": 28.5247008, "lon": 77.1794982}, {"type": "node", "id": 5975247070, "lat": 28.5254956, "lon": 77.1791088}, {"type": "node", "id": 5975247072, "lat": 28.5267949, "lon": 77.1787181}, {"type": "node", "id": 5975247073, "lat": 28.530223, "lon": 77.1797849}, {"type": "node", "id": 5975247074, "lat": 28.5255482, "lon": 77.1790518}, {"type": "node", "id": 5975247075, "lat": 28.5261256, "lon": 77.1788992}, {"type": "node", "id": 5975247076, "lat": 28.5301989, "lon": 77.1797348}, {"type": "node", "id": 5975247077, "lat": 28.5310841, "lon": 77.1812258}, {"type": "node", "id": 5975247080, "lat": 28.5263837, "lon": 77.1788573}, {"type": "node", "id": 5975247081, "lat": 28.5299262, "lon": 77.1795467}, {"type": "node", "id": 5975247083, "lat": 28.5249151, "lon": 77.1794419}, {"type": "node", "id": 5975247084, "lat": 28.5264375, "lon": 77.1788122}, {"type": "node", "id": 5975248085, "lat": 28.5306678, "lon": 77.1806518}, {"type": "node", "id": 5975248086, "lat": 28.5263906, "lon": 77.1788288}, {"type": "node", "id": 5975248087, "lat": 28.5299424, "lon": 77.1795917}, {"type": "node", "id": 5975248089, "lat": 28.5249464, "lon": 77.179367}, {"type": "node", "id": 5975248092, "lat": 28.5264574, "lon": 77.1788312}, {"type": "node", "id": 5975248093, "lat": 28.5301737, "lon": 77.179918}, {"type": "node", "id": 5975248094, "lat": 28.5251856, "lon": 77.1792683}, {"type": "node", "id": 5975248097, "lat": 28.5305028, "lon": 77.1803216}, {"type": "node", "id": 5975248099, "lat": 28.5252341, "lon": 77.1791851}, {"type": "node", "id": 5975248101, "lat": 28.5296026, "lon": 77.179415}, {"type": "node", "id": 5975248102, "lat": 28.5305163, "lon": 77.1804213}, {"type": "node", "id": 5975248103, "lat": 28.5246452, "lon": 77.1795706}, {"type": "node", "id": 5975248105, "lat": 28.5261607, "lon": 77.1789033}, {"type": "node", "id": 5975248108, "lat": 28.5255786, "lon": 77.1790838}, {"type": "node", "id": 5975248110, "lat": 28.5306336, "lon": 77.1806247}, {"type": "node", "id": 5975248111, "lat": 28.5249318, "lon": 77.1793754}, {"type": "node", "id": 5975248112, "lat": 28.5310067, "lon": 77.1811692}, {"type": "node", "id": 5975248114, "lat": 28.5271279, "lon": 77.1786207}, {"type": "node", "id": 5975248115, "lat": 28.5303862, "lon": 77.1800693}, {"type": "node", "id": 5975248116, "lat": 28.5258013, "lon": 77.179007}, {"type": "node", "id": 5975248118, "lat": 28.5270607, "lon": 77.1786788}, {"type": "node", "id": 5975248122, "lat": 28.5264622, "lon": 77.1788451}, {"type": "node", "id": 5975248123, "lat": 28.5308715, "lon": 77.1809635}, {"type": "node", "id": 5975248125, "lat": 28.524639, "lon": 77.1795226}, {"type": "node", "id": 5975248127, "lat": 28.526736, "lon": 77.1787248}, {"type": "node", "id": 5975248129, "lat": 28.530128, "lon": 77.179712}, {"type": "node", "id": 5975248130, "lat": 28.5247121, "lon": 77.1795091}, {"type": "node", "id": 5975248131, "lat": 28.5308503, "lon": 77.1809139}, {"type": "node", "id": 5975248132, "lat": 28.5254952, "lon": 77.1790925}, {"type": "node", "id": 5975248134, "lat": 28.5268035, "lon": 77.1787294}, {"type": "node", "id": 5975248135, "lat": 28.5302236, "lon": 77.1798139}, {"type": "node", "id": 5975248136, "lat": 28.531024, "lon": 77.1811653}, {"type": "node", "id": 5975248138, "lat": 28.5255613, "lon": 77.1790583}, {"type": "node", "id": 5975248140, "lat": 28.5298289, "lon": 77.1795405}, {"type": "node", "id": 5975248142, "lat": 28.5306527, "lon": 77.180635}, {"type": "node", "id": 5975248144, "lat": 28.5263851, "lon": 77.1788424}, {"type": "node", "id": 5975248145, "lat": 28.5310975, "lon": 77.1815541}, {"type": "node", "id": 5975248146, "lat": 28.5299375, "lon": 77.1795677}, {"type": "node", "id": 5975248147, "lat": 28.530592, "lon": 77.1806274}, {"type": "node", "id": 5975248149, "lat": 28.5264488, "lon": 77.1788198}, {"type": "node", "id": 5975248150, "lat": 28.5298894, "lon": 77.1795217}, {"type": "node", "id": 5975248152, "lat": 28.5257905, "lon": 77.1790409}, {"type": "node", "id": 5975248153, "lat": 28.5281047, "lon": 77.1788102}, {"type": "node", "id": 5975248154, "lat": 28.5280929, "lon": 77.178711}, {"type": "node", "id": 5975248155, "lat": 28.5308619, "lon": 77.1809275}, {"type": "node", "id": 5975248156, "lat": 28.5252173, "lon": 77.1791886}, {"type": "node", "id": 5975248158, "lat": 28.5295651, "lon": 77.1794001}, {"type": "node", "id": 5975248159, "lat": 28.5305275, "lon": 77.1804059}, {"type": "node", "id": 5975248161, "lat": 28.5261435, "lon": 77.178898}, {"type": "node", "id": 5975248163, "lat": 28.5295151, "lon": 77.1794339}, {"type": "node", "id": 5975248285, "lat": 28.5306215, "lon": 77.1808326}, {"type": "node", "id": 5975248286, "lat": 28.530665, "lon": 77.1807414}, {"type": "node", "id": 5975248289, "lat": 28.5308355, "lon": 77.180905}, {"type": "node", "id": 5975248290, "lat": 28.5251908, "lon": 77.1792123}, {"type": "node", "id": 5975248292, "lat": 28.5258825, "lon": 77.1790168}, {"type": "node", "id": 5975248293, "lat": 28.5255761, "lon": 77.1791992}, {"type": "node", "id": 5975248294, "lat": 28.5295453, "lon": 77.1794044}, {"type": "node", "id": 5975248295, "lat": 28.5305336, "lon": 77.1803872}, {"type": "node", "id": 5975248296, "lat": 28.5252785, "lon": 77.17921}, {"type": "node", "id": 5975248297, "lat": 28.526109, "lon": 77.1789069}, {"type": "node", "id": 5975248300, "lat": 28.5260828, "lon": 77.1789578}, {"type": "node", "id": 5975248302, "lat": 28.5310828, "lon": 77.1812458}, {"type": "node", "id": 5975248304, "lat": 28.5249135, "lon": 77.1794054}, {"type": "node", "id": 5975248305, "lat": 28.5270763, "lon": 77.1786405}, {"type": "node", "id": 5975248306, "lat": 28.5303551, "lon": 77.1800222}, {"type": "node", "id": 5975248307, "lat": 28.5249927, "lon": 77.179377}, {"type": "node", "id": 5975248309, "lat": 28.5271712, "lon": 77.1786582}, {"type": "node", "id": 5975248312, "lat": 28.5258597, "lon": 77.1789916}, {"type": "node", "id": 5975248313, "lat": 28.5264115, "lon": 77.1788113}, {"type": "node", "id": 5975248314, "lat": 28.5303681, "lon": 77.1801245}, {"type": "node", "id": 5975248317, "lat": 28.5246382, "lon": 77.1795558}, {"type": "node", "id": 5975248319, "lat": 28.5267269, "lon": 77.1787525}, {"type": "node", "id": 5975248320, "lat": 28.5307876, "lon": 77.1809131}, {"type": "node", "id": 5975248321, "lat": 28.5246869, "lon": 77.1794923}, {"type": "node", "id": 5975248323, "lat": 28.5267836, "lon": 77.1787105}, {"type": "node", "id": 5975248324, "lat": 28.5302145, "lon": 77.1797576}, {"type": "node", "id": 5975248325, "lat": 28.5255339, "lon": 77.1790506}, {"type": "node", "id": 5975248327, "lat": 28.53108, "lon": 77.1812062}, {"type": "node", "id": 5975248329, "lat": 28.5299096, "lon": 77.1795308}, {"type": "node", "id": 5975248330, "lat": 28.5306758, "lon": 77.1807207}, {"type": "node", "id": 5975248332, "lat": 28.5264245, "lon": 77.1788093}, {"type": "node", "id": 5975248333, "lat": 28.5298155, "lon": 77.1795599}, {"type": "node", "id": 5975248334, "lat": 28.5250034, "lon": 77.1793909}, {"type": "node", "id": 5975248337, "lat": 28.5263868, "lon": 77.1788719}, {"type": "node", "id": 5975248338, "lat": 28.5298674, "lon": 77.1796712}, {"type": "node", "id": 5975248339, "lat": 28.5271762, "lon": 77.1786788}, {"type": "node", "id": 5975248340, "lat": 28.5308191, "lon": 77.1809018}, {"type": "node", "id": 5975248342, "lat": 28.5251837, "lon": 77.17923}, {"type": "node", "id": 5975248343, "lat": 28.5295279, "lon": 77.1794161}, {"type": "node", "id": 5975248344, "lat": 28.5305283, "lon": 77.1803483}, {"type": "node", "id": 5975248345, "lat": 28.5252663, "lon": 77.1791963}, {"type": "node", "id": 5975248347, "lat": 28.5260955, "lon": 77.1789202}, {"type": "node", "id": 5975248349, "lat": 28.5296231, "lon": 77.1794538}, {"type": "node", "id": 5975248350, "lat": 28.5304683, "lon": 77.180319}, {"type": "node", "id": 5975248351, "lat": 28.5246582, "lon": 77.1794976}, {"type": "node", "id": 5975248354, "lat": 28.5267577, "lon": 77.1787087}, {"type": "node", "id": 5975248355, "lat": 28.5249116, "lon": 77.1794238}, {"type": "node", "id": 5975248357, "lat": 28.5255007, "lon": 77.1791241}, {"type": "node", "id": 5975248359, "lat": 28.5270658, "lon": 77.1786582}, {"type": "node", "id": 5975248360, "lat": 28.5303377, "lon": 77.180017}, {"type": "node", "id": 5975248361, "lat": 28.5310709, "lon": 77.181189}, {"type": "node", "id": 5975248363, "lat": 28.5249785, "lon": 77.1793679}, {"type": "node", "id": 5975248365, "lat": 28.5271607, "lon": 77.1786405}, {"type": "node", "id": 5975248366, "lat": 28.5303796, "lon": 77.1801088}, {"type": "node", "id": 5975248368, "lat": 28.5258442, "lon": 77.1789867}, {"type": "node", "id": 5975248370, "lat": 28.5271091, "lon": 77.1786207}, {"type": "node", "id": 5975248373, "lat": 28.5251943, "lon": 77.179285}, {"type": "node", "id": 5975248374, "lat": 28.5299404, "lon": 77.1796162}, {"type": "node", "id": 5975248376, "lat": 28.5246721, "lon": 77.1794921}, {"type": "node", "id": 5975248377, "lat": 28.5267708, "lon": 77.1787072}, {"type": "node", "id": 5975248378, "lat": 28.5301779, "lon": 77.1797186}, {"type": "node", "id": 5975248379, "lat": 28.5308606, "lon": 77.1809989}, {"type": "node", "id": 5975248380, "lat": 28.5255081, "lon": 77.1790639}, {"type": "node", "id": 5975248382, "lat": 28.5267285, "lon": 77.1787673}, {"type": "node", "id": 5975248383, "lat": 28.5296235, "lon": 77.1794768}, {"type": "node", "id": 5975248384, "lat": 28.5301042, "lon": 77.1797222}, {"type": "node", "id": 5975248586, "lat": 28.5310577, "lon": 77.1811757}, {"type": "node", "id": 5975248589, "lat": 28.5298678, "lon": 77.1795203}, {"type": "node", "id": 5975248591, "lat": 28.53068, "lon": 77.1806972}, {"type": "node", "id": 5975248594, "lat": 28.5263998, "lon": 77.1788181}, {"type": "node", "id": 5975248595, "lat": 28.531081, "lon": 77.1814013}, {"type": "node", "id": 5975248596, "lat": 28.5306772, "lon": 77.1806733}, {"type": "node", "id": 5975248599, "lat": 28.5308025, "lon": 77.1809046}, {"type": "node", "id": 5975248600, "lat": 28.5251819, "lon": 77.1792493}, {"type": "node", "id": 5975248601, "lat": 28.5258282, "lon": 77.1789878}, {"type": "node", "id": 5975248602, "lat": 28.5271173, "lon": 77.1787673}, {"type": "node", "id": 5975248603, "lat": 28.5305176, "lon": 77.1803325}, {"type": "node", "id": 5975248604, "lat": 28.525251, "lon": 77.1791877}, {"type": "node", "id": 5975248606, "lat": 28.5260864, "lon": 77.1789378}, {"type": "node", "id": 5975248607, "lat": 28.5296159, "lon": 77.1794323}, {"type": "node", "id": 5975248609, "lat": 28.5261756, "lon": 77.1789147}, {"type": "node", "id": 5975248611, "lat": 28.529585, "lon": 77.1794038}, {"type": "node", "id": 5975248612, "lat": 28.5305013, "lon": 77.1804316}, {"type": "node", "id": 5975248615, "lat": 28.5249625, "lon": 77.1793644}, {"type": "node", "id": 5975248616, "lat": 28.5255808, "lon": 77.1790999}, {"type": "node", "id": 5975248618, "lat": 28.5271457, "lon": 77.1786275}, {"type": "node", "id": 5975248619, "lat": 28.5303858, "lon": 77.1800897}, {"type": "node", "id": 5975248622, "lat": 28.5258133, "lon": 77.1789948}, {"type": "node", "id": 939328481, "lat": 28.5255078, "lon": 77.1871714}, {"type": "node", "id": 939328486, "lat": 28.5264465, "lon": 77.1869509}, {"type": "node", "id": 939328526, "lat": 28.524644, "lon": 77.1843099}, {"type": "node", "id": 939328570, "lat": 28.5263701, "lon": 77.1861261}, {"type": "node", "id": 939328627, "lat": 28.526335, "lon": 77.1855359}, {"type": "node", "id": 939328677, "lat": 28.5262914, "lon": 77.1847644}, {"type": "node", "id": 939328725, "lat": 28.5262303, "lon": 77.1844527}, {"type": "node", "id": 939328795, "lat": 28.5248214, "lon": 77.1879418}, {"type": "node", "id": 939328798, "lat": 28.5262568, "lon": 77.1871126}, {"type": "node", "id": 939328824, "lat": 28.524749, "lon": 77.1844768}, {"type": "node", "id": 1486857007, "lat": 28.5246684, "lon": 77.1882033}, {"type": "node", "id": 2975859164, "lat": 28.5246966, "lon": 77.1833619}, {"type": "node", "id": 2975859167, "lat": 28.5248238, "lon": 77.1842653}, {"type": "node", "id": 2975859168, "lat": 28.524834, "lon": 77.1836573}, {"type": "node", "id": 2975859169, "lat": 28.5248492, "lon": 77.1840395}, {"type": "node", "id": 2975859171, "lat": 28.524932, "lon": 77.1843386}, {"type": "node", "id": 2975859172, "lat": 28.5249612, "lon": 77.1840395}, {"type": "node", "id": 2975859173, "lat": 28.5249663, "lon": 77.1842595}, {"type": "node", "id": 2975859174, "lat": 28.5250222, "lon": 77.184358}, {"type": "node", "id": 2975859175, "lat": 28.525531, "lon": 77.1832924}, {"type": "node", "id": 2975859176, "lat": 28.525587, "lon": 77.1842943}, {"type": "node", "id": 2975859177, "lat": 28.5265944, "lon": 77.1847112}, {"type": "node", "id": 2975859178, "lat": 28.5266351, "lon": 77.1851571}, {"type": "node", "id": 2975859190, "lat": 28.5275509, "lon": 77.1850992}, {"type": "node", "id": 2975859192, "lat": 28.5275764, "lon": 77.1846302}, {"type": "node", "id": 3742396934, "lat": 28.525616, "lon": 77.1873003}, {"type": "node", "id": 3742396935, "lat": 28.5256177, "lon": 77.1873329}, {"type": "node", "id": 3742396936, "lat": 28.5256446, "lon": 77.1873635}, {"type": "node", "id": 3742396937, "lat": 28.5256547, "lon": 77.1872562}, {"type": "node", "id": 3742396938, "lat": 28.5257069, "lon": 77.1874267}, {"type": "node", "id": 3742396939, "lat": 28.5262943, "lon": 77.1872237}, {"type": "node", "id": 3742396940, "lat": 28.5263398, "lon": 77.1878501}, {"type": "node", "id": 3742396941, "lat": 28.5263667, "lon": 77.1872351}, {"type": "node", "id": 3742396942, "lat": 28.5263869, "lon": 77.1878501}, {"type": "node", "id": 3742396943, "lat": 28.5263987, "lon": 77.1872754}, {"type": "node", "id": 3742396944, "lat": 28.5264054, "lon": 77.1878233}, {"type": "node", "id": 3742396945, "lat": 28.5264222, "lon": 77.1873731}, {"type": "node", "id": 4696725306, "lat": 28.5258507, "lon": 77.185436}, {"type": "node", "id": 4696725312, "lat": 28.5258952, "lon": 77.1853534}, {"type": "node", "id": 4696725320, "lat": 28.525774, "lon": 77.1854451}, {"type": "node", "id": 4696725330, "lat": 28.5257264, "lon": 77.1854025}, {"type": "node", "id": 4696725331, "lat": 28.5257149, "lon": 77.1853208}, {"type": "node", "id": 4696725333, "lat": 28.5258665, "lon": 77.1852704}, {"type": "node", "id": 4696725338, "lat": 28.5258887, "lon": 77.1853071}, {"type": "node", "id": 4696725341, "lat": 28.5258398, "lon": 77.1852505}, {"type": "node", "id": 4696725344, "lat": 28.5257645, "lon": 77.1852522}, {"type": "node", "id": 4696725350, "lat": 28.5257131, "lon": 77.1853623}, {"type": "node", "id": 4696725352, "lat": 28.5258142, "lon": 77.1854501}, {"type": "node", "id": 4696725355, "lat": 28.5257272, "lon": 77.1852891}, {"type": "node", "id": 4696725360, "lat": 28.5257434, "lon": 77.185425}, {"type": "node", "id": 4696725365, "lat": 28.5258117, "lon": 77.1852425}, {"type": "node", "id": 4696725594, "lat": 28.5258788, "lon": 77.1854064}, {"type": "node", "id": 5975220469, "lat": 28.5311019, "lon": 77.1825953}, {"type": "node", "id": 5975220470, "lat": 28.5302998, "lon": 77.1835873}, {"type": "node", "id": 5975220478, "lat": 28.530586, "lon": 77.183772}, {"type": "node", "id": 5975247050, "lat": 28.5309773, "lon": 77.1817875}, {"type": "node", "id": 5975247055, "lat": 28.5310445, "lon": 77.182064}, {"type": "node", "id": 5975247056, "lat": 28.5303052, "lon": 77.1836264}, {"type": "node", "id": 5975247059, "lat": 28.5310695, "lon": 77.1825844}, {"type": "node", "id": 5975247061, "lat": 28.5303295, "lon": 77.1836547}, {"type": "node", "id": 5975247071, "lat": 28.5306449, "lon": 77.1837671}, {"type": "node", "id": 5975247079, "lat": 28.5305484, "lon": 77.18372}, {"type": "node", "id": 5975248090, "lat": 28.5310457, "lon": 77.1820147}, {"type": "node", "id": 5975248091, "lat": 28.5309709, "lon": 77.1835235}, {"type": "node", "id": 5975248095, "lat": 28.5310197, "lon": 77.1819752}, {"type": "node", "id": 5975248096, "lat": 28.5308582, "lon": 77.1837194}, {"type": "node", "id": 5975248100, "lat": 28.5295705, "lon": 77.1835497}, {"type": "node", "id": 5975248109, "lat": 28.5309631, "lon": 77.1826056}, {"type": "node", "id": 5975248117, "lat": 28.5302998, "lon": 77.1836073}, {"type": "node", "id": 5975248120, "lat": 28.5310865, "lon": 77.1825869}, {"type": "node", "id": 5975248126, "lat": 28.529594, "lon": 77.1836597}, {"type": "node", "id": 5975248133, "lat": 28.5306057, "lon": 77.1837777}, {"type": "node", "id": 5975248139, "lat": 28.5306709, "lon": 77.1837321}, {"type": "node", "id": 5975248148, "lat": 28.5310356, "lon": 77.1819925}, {"type": "node", "id": 5975248151, "lat": 28.5308985, "lon": 77.1837126}, {"type": "node", "id": 5975248157, "lat": 28.5309622, "lon": 77.183657}, {"type": "node", "id": 5975248160, "lat": 28.5311022, "lon": 77.1826954}, {"type": "node", "id": 5975248162, "lat": 28.5305696, "lon": 77.1836382}, {"type": "node", "id": 5975248287, "lat": 28.5310166, "lon": 77.1821017}, {"type": "node", "id": 5975248288, "lat": 28.5309345, "lon": 77.183691}, {"type": "node", "id": 5975248301, "lat": 28.5310433, "lon": 77.1829757}, {"type": "node", "id": 5975248308, "lat": 28.5303154, "lon": 77.1836427}, {"type": "node", "id": 5975248318, "lat": 28.5301572, "lon": 77.1835189}, {"type": "node", "id": 5975248322, "lat": 28.5306604, "lon": 77.183752}, {"type": "node", "id": 5975248326, "lat": 28.5305558, "lon": 77.1837417}, {"type": "node", "id": 5975248335, "lat": 28.5310334, "lon": 77.1820855}, {"type": "node", "id": 5975248336, "lat": 28.5309785, "lon": 77.1836145}, {"type": "node", "id": 5975248341, "lat": 28.5309478, "lon": 77.1834853}, {"type": "node", "id": 5975248348, "lat": 28.5301313, "lon": 77.1834075}, {"type": "node", "id": 5975248358, "lat": 28.530916, "lon": 77.1821415}, {"type": "node", "id": 5975248364, "lat": 28.5303461, "lon": 77.1836612}, {"type": "node", "id": 5975248369, "lat": 28.5303952, "lon": 77.1836449}, {"type": "node", "id": 5975248375, "lat": 28.5310527, "lon": 77.1825881}, {"type": "node", "id": 5975248381, "lat": 28.5305687, "lon": 77.1837596}, {"type": "node", "id": 5975248588, "lat": 28.5306261, "lon": 77.183776}, {"type": "node", "id": 5975248592, "lat": 28.5310739, "lon": 77.1818532}, {"type": "node", "id": 5975248593, "lat": 28.5303806, "lon": 77.1836561}, {"type": "node", "id": 5975248597, "lat": 28.5310488, "lon": 77.1820394}, {"type": "node", "id": 5975248598, "lat": 28.5309815, "lon": 77.1835683}, {"type": "node", "id": 5975248605, "lat": 28.5308182, "lon": 77.1837106}, {"type": "node", "id": 5975248610, "lat": 28.5307817, "lon": 77.1836168}, {"type": "node", "id": 5975248613, "lat": 28.5310925, "lon": 77.1818579}, {"type": "node", "id": 5975248617, "lat": 28.5303637, "lon": 77.1836617}, {"type": "node", "id": 5975248621, "lat": 28.5309961, "lon": 77.1821107}, {"type": "node", "id": 7645753098, "lat": 28.5247176, "lon": 77.1828782}, {"type": "node", "id": 7645753103, "lat": 28.5245668, "lon": 77.1835005}, {"type": "node", "id": 7645753104, "lat": 28.5247317, "lon": 77.183243}, {"type": "node", "id": 10232148727, "lat": 28.5260805, "lon": 77.1843662}, {"type": "node", "id": 10260853454, "lat": 28.5253008, "lon": 77.1850841}, {"type": "node", "id": 10260853455, "lat": 28.5253173, "lon": 77.1851163}, {"type": "node", "id": 10260853456, "lat": 28.5253067, "lon": 77.1851472}, {"type": "node", "id": 10260853457, "lat": 28.5252785, "lon": 77.1851552}, {"type": "node", "id": 10260853458, "lat": 28.5252539, "lon": 77.1851302}, {"type": "node", "id": 10260853459, "lat": 28.5252645, "lon": 77.1850886}, {"type": "node", "id": 11773137259, "lat": 28.5251184, "lon": 77.1846317}, {"type": "node", "id": 11773137265, "lat": 28.525231, "lon": 77.1844796}, {"type": "node", "id": 11773168169, "lat": 28.5251028, "lon": 77.1844993}, {"type": "node", "id": 11773168170, "lat": 28.5252467, "lon": 77.1846121}, {"type": "node", "id": 12285358587, "lat": 28.5252397, "lon": 77.1859329}, {"type": "node", "id": 12285358588, "lat": 28.5251928, "lon": 77.185979}, {"type": "node", "id": 12285358589, "lat": 28.5252174, "lon": 77.186004}, {"type": "node", "id": 12285358594, "lat": 28.5264289, "lon": 77.1870047}, {"type": "node", "id": 12285358595, "lat": 28.5252562, "lon": 77.1859651}, {"type": "node", "id": 12285358599, "lat": 28.5263726, "lon": 77.1870663}, {"type": "node", "id": 12285360601, "lat": 28.5263261, "lon": 77.1870914}, {"type": "node", "id": 12285360604, "lat": 28.5252456, "lon": 77.185996}, {"type": "node", "id": 12285360605, "lat": 28.5252034, "lon": 77.1859374}, {"type": "node", "id": 5975220468, "lat": 28.5312192, "lon": 77.1815332}, {"type": "node", "id": 5975247058, "lat": 28.5312176, "lon": 77.181462}, {"type": "node", "id": 5975248098, "lat": 28.5312256, "lon": 77.1815097}, {"type": "node", "id": 5975248119, "lat": 28.5312251, "lon": 77.1814851}, {"type": "node", "id": 5975248291, "lat": 28.5311646, "lon": 77.1814241}, {"type": "node", "id": 5975248310, "lat": 28.5312039, "lon": 77.1814429}, {"type": "node", "id": 5975248315, "lat": 28.5311889, "lon": 77.1815673}, {"type": "node", "id": 5975248346, "lat": 28.5311682, "lon": 77.1815743}, {"type": "node", "id": 5975248367, "lat": 28.5311856, "lon": 77.1814298}, {"type": "node", "id": 5975248371, "lat": 28.5312065, "lon": 77.1815531}, {"type": "node", "id": 5975248587, "lat": 28.531121, "lon": 77.1817365}, {"type": "node", "id": 2800367393, "lat": 28.5367007, "lon": 77.186988}, {"type": "node", "id": 2800367394, "lat": 28.5367101, "lon": 77.1852058}, {"type": "node", "id": 5975247043, "lat": 28.5311285, "lon": 77.1818456}, {"type": "node", "id": 5975247044, "lat": 28.531186, "lon": 77.1829357}, {"type": "node", "id": 5975247064, "lat": 28.5311223, "lon": 77.1826645}, {"type": "node", "id": 5975247069, "lat": 28.5311142, "lon": 77.1826088}, {"type": "node", "id": 5975248104, "lat": 28.5311363, "lon": 77.1817496}, {"type": "node", "id": 5975248106, "lat": 28.5311115, "lon": 77.1818553}, {"type": "node", "id": 5975248107, "lat": 28.5311861, "lon": 77.1829734}, {"type": "node", "id": 5975248113, "lat": 28.5311505, "lon": 77.1828979}, {"type": "node", "id": 5975248124, "lat": 28.5311144, "lon": 77.1826818}, {"type": "node", "id": 5975248143, "lat": 28.5311418, "lon": 77.18183}, {"type": "node", "id": 5975248298, "lat": 28.5311498, "lon": 77.1818103}, {"type": "node", "id": 5975248299, "lat": 28.5311781, "lon": 77.1829188}, {"type": "node", "id": 5975248303, "lat": 28.5311507, "lon": 77.1830113}, {"type": "node", "id": 5975248316, "lat": 28.5311249, "lon": 77.1826453}, {"type": "node", "id": 5975248331, "lat": 28.531134, "lon": 77.1830133}, {"type": "node", "id": 5975248352, "lat": 28.5311515, "lon": 77.1817887}, {"type": "node", "id": 5975248353, "lat": 28.5311658, "lon": 77.1829058}, {"type": "node", "id": 5975248356, "lat": 28.531166, "lon": 77.1830034}, {"type": "node", "id": 5975248362, "lat": 28.5311888, "lon": 77.1829545}, {"type": "node", "id": 5975248372, "lat": 28.5311221, "lon": 77.1826261}, {"type": "node", "id": 5975248608, "lat": 28.5311469, "lon": 77.1817676}, {"type": "node", "id": 5975248614, "lat": 28.5311782, "lon": 77.1829903}, {"type": "node", "id": 1486857009, "lat": 28.5255317, "lon": 77.1886208}, {"type": "node", "id": 3742396931, "lat": 28.5250003, "lon": 77.1884119}, {"type": "node", "id": 3742396932, "lat": 28.5251264, "lon": 77.1898695}, {"type": "node", "id": 3742396933, "lat": 28.5255145, "lon": 77.188718}, {"type": "node", "id": 3742396946, "lat": 28.5264688, "lon": 77.189931}, {"type": "node", "id": 3742396949, "lat": 28.5265784, "lon": 77.1899122}, {"type": "node", "id": 3742396950, "lat": 28.5270712, "lon": 77.1887451}, {"type": "node", "id": 3742396951, "lat": 28.5272283, "lon": 77.188821}, {"type": "node", "id": 3742396952, "lat": 28.5272593, "lon": 77.1892328}, {"type": "node", "id": 3742396953, "lat": 28.5272997, "lon": 77.1890242}, {"type": "node", "id": 7013728990, "lat": 28.5271499, "lon": 77.1895048}, {"type": "node", "id": 7013728994, "lat": 28.5267827, "lon": 77.1898104}, {"type": "node", "id": 7013729012, "lat": 28.5267083, "lon": 77.1898631}, {"type": "node", "id": 2706856546, "lat": 28.537501, "lon": 77.1887317}, {"type": "node", "id": 352904287, "lat": 28.5378649, "lon": 77.1865921}, {"type": "node", "id": 352904291, "lat": 28.5397448, "lon": 77.1874703}, {"type": "node", "id": 353198148, "lat": 28.5393008, "lon": 77.1860193}, {"type": "node", "id": 353198149, "lat": 28.5391791, "lon": 77.1859764}, {"type": "node", "id": 353198151, "lat": 28.5391367, "lon": 77.1858939}, {"type": "node", "id": 353198152, "lat": 28.5391838, "lon": 77.1856911}, {"type": "node", "id": 353198153, "lat": 28.5392574, "lon": 77.1857195}, {"type": "node", "id": 353198155, "lat": 28.5392215, "lon": 77.1858423}, {"type": "node", "id": 353198156, "lat": 28.5392168, "lon": 77.1858971}, {"type": "node", "id": 353198158, "lat": 28.5393281, "lon": 77.1859341}, {"type": "node", "id": 354260569, "lat": 28.539451, "lon": 77.1851752}, {"type": "node", "id": 354260570, "lat": 28.5390952, "lon": 77.1854412}, {"type": "node", "id": 354260571, "lat": 28.5386718, "lon": 77.1852564}, {"type": "node", "id": 354260572, "lat": 28.5387955, "lon": 77.1848891}, {"type": "node", "id": 354261569, "lat": 28.5397827, "lon": 77.1863505}, {"type": "node", "id": 354261571, "lat": 28.5397264, "lon": 77.1865235}, {"type": "node", "id": 354261573, "lat": 28.5395961, "lon": 77.1864685}, {"type": "node", "id": 354261575, "lat": 28.5396524, "lon": 77.1862955}, {"type": "node", "id": 2706856536, "lat": 28.5378356, "lon": 77.1877446}, {"type": "node", "id": 2800367395, "lat": 28.5378265, "lon": 77.1861654}, {"type": "node", "id": 2800367396, "lat": 28.5379451, "lon": 77.1857502}, {"type": "node", "id": 2800367397, "lat": 28.5379879, "lon": 77.1862111}, {"type": "node", "id": 10047591985, "lat": 28.5407972, "lon": 77.1847123}, {"type": "node", "id": 10047591986, "lat": 28.5410129, "lon": 77.1848738}, {"type": "node", "id": 10047591987, "lat": 28.5408149, "lon": 77.185378}, {"type": "node", "id": 10047591988, "lat": 28.5412727, "lon": 77.1855404}, {"type": "node", "id": 10047591989, "lat": 28.5416474, "lon": 77.185567}, {"type": "node", "id": 10047591990, "lat": 28.5420477, "lon": 77.1855501}, {"type": "node", "id": 10047591991, "lat": 28.5420541, "lon": 77.1851695}, {"type": "node", "id": 10047591992, "lat": 28.5422692, "lon": 77.1848326}, {"type": "node", "id": 10047591993, "lat": 28.5422968, "lon": 77.184709}, {"type": "node", "id": 10047591994, "lat": 28.5424736, "lon": 77.1847623}, {"type": "node", "id": 10047591995, "lat": 28.5424182, "lon": 77.1851211}, {"type": "node", "id": 10047591996, "lat": 28.5423841, "lon": 77.1853368}, {"type": "node", "id": 10047591997, "lat": 28.5422713, "lon": 77.1853392}, {"type": "node", "id": 10047591998, "lat": 28.5426752, "lon": 77.1864143}, {"type": "node", "id": 10047591999, "lat": 28.5414795, "lon": 77.1862376}, {"type": "node", "id": 10047592000, "lat": 28.5412013, "lon": 77.1857779}, {"type": "node", "id": 10047592001, "lat": 28.5406343, "lon": 77.1856519}, {"type": "node", "id": 10047592002, "lat": 28.540515, "lon": 77.1859985}, {"type": "node", "id": 10047592003, "lat": 28.5403404, "lon": 77.18595}, {"type": "node", "id": 10047592004, "lat": 28.5413658, "lon": 77.1857537}, {"type": "node", "id": 10047592005, "lat": 28.5415543, "lon": 77.1859238}, {"type": "node", "id": 10047592006, "lat": 28.5416104, "lon": 77.1872896}, {"type": "node", "id": 10047592007, "lat": 28.5412831, "lon": 77.1863464}, {"type": "node", "id": 10047592008, "lat": 28.5417428, "lon": 77.1871834}, {"type": "node", "id": 10047592009, "lat": 28.5426584, "lon": 77.1854965}, {"type": "node", "id": 10047592010, "lat": 28.5428868, "lon": 77.1857056}, {"type": "node", "id": 10047592011, "lat": 28.5427926, "lon": 77.185588}, {"type": "node", "id": 10047592012, "lat": 28.5427391, "lon": 77.1862005}, {"type": "node", "id": 10047592013, "lat": 28.5428206, "lon": 77.1859271}, {"type": "node", "id": 10047592014, "lat": 28.543585, "lon": 77.1865901}, {"type": "node", "id": 10047592015, "lat": 28.5436592, "lon": 77.1863607}, {"type": "node", "id": 10047612525, "lat": 28.5403195, "lon": 77.1859415}, {"type": "node", "id": 10047612526, "lat": 28.5405243, "lon": 77.1852741}, {"type": "node", "id": 6518293499, "lat": 28.5473426, "lon": 77.1799102}, {"type": "node", "id": 6518293501, "lat": 28.5476556, "lon": 77.180372}, {"type": "node", "id": 6518293502, "lat": 28.5477423, "lon": 77.1800495}, {"type": "node", "id": 6518293503, "lat": 28.5472559, "lon": 77.1802327}, {"type": "node", "id": 10047612527, "lat": 28.5495763, "lon": 77.1806683}, {"type": "node", "id": 10047612528, "lat": 28.549712, "lon": 77.1807854}, {"type": "node", "id": 10047612529, "lat": 28.5494778, "lon": 77.1811517}, {"type": "node", "id": 10047612530, "lat": 28.5493836, "lon": 77.1810869}, {"type": "node", "id": 10047612531, "lat": 28.5491196, "lon": 77.1815099}, {"type": "node", "id": 10047612532, "lat": 28.5488227, "lon": 77.1812827}, {"type": "node", "id": 10047612533, "lat": 28.5486345, "lon": 77.1815168}, {"type": "node", "id": 10047612534, "lat": 28.5485321, "lon": 77.1814084}, {"type": "node", "id": 10047612535, "lat": 28.5491188, "lon": 77.1805013}, {"type": "node", "id": 10047612536, "lat": 28.5492525, "lon": 77.1805928}, {"type": "node", "id": 10047612537, "lat": 28.5489546, "lon": 77.1810371}, {"type": "node", "id": 10047612538, "lat": 28.5490903, "lon": 77.1811642}, {"type": "node", "id": 10047612539, "lat": 28.5494581, "lon": 77.1805736}, {"type": "node", "id": 10047612540, "lat": 28.5493478, "lon": 77.1807506}, {"type": "node", "id": 10047612541, "lat": 28.5492261, "lon": 77.1806719}, {"type": "node", "id": 10047612542, "lat": 28.549272, "lon": 77.1804671}, {"type": "node", "id": 10047612543, "lat": 28.5492768, "lon": 77.1805897}, {"type": "node", "id": 10047612544, "lat": 28.549216, "lon": 77.1805442}, {"type": "node", "id": 10047612545, "lat": 28.5492232, "lon": 77.1806428}, {"type": "node", "id": 564483351, "lat": 28.5453598, "lon": 77.1830601}, {"type": "node", "id": 564483458, "lat": 28.5461561, "lon": 77.183474}, {"type": "node", "id": 2870612286, "lat": 28.550356, "lon": 77.1837842}, {"type": "node", "id": 3576437798, "lat": 28.5489535, "lon": 77.1859052}, {"type": "node", "id": 3576437799, "lat": 28.548959, "lon": 77.1852238}, {"type": "node", "id": 3576437800, "lat": 28.5489479, "lon": 77.1856069}, {"type": "node", "id": 3576437802, "lat": 28.5490003, "lon": 77.1859297}, {"type": "node", "id": 3576437807, "lat": 28.5490535, "lon": 77.1849904}, {"type": "node", "id": 3576437809, "lat": 28.5490778, "lon": 77.1852861}, {"type": "node", "id": 3576437822, "lat": 28.5492184, "lon": 77.1860656}, {"type": "node", "id": 3576437823, "lat": 28.5492294, "lon": 77.1856471}, {"type": "node", "id": 3576437833, "lat": 28.54936, "lon": 77.1857156}, {"type": "node", "id": 3576437835, "lat": 28.549399, "lon": 77.1849697}, {"type": "node", "id": 3576437841, "lat": 28.549488, "lon": 77.1854001}, {"type": "node", "id": 3576437846, "lat": 28.5496162, "lon": 77.1850836}, {"type": "node", "id": 3579771595, "lat": 28.5454059, "lon": 77.1829448}, {"type": "node", "id": 3579771598, "lat": 28.5461962, "lon": 77.1833862}, {"type": "node", "id": 3635886956, "lat": 28.5478436, "lon": 77.1858346}, {"type": "node", "id": 3635886957, "lat": 28.5478481, "lon": 77.1860073}, {"type": "node", "id": 3635886958, "lat": 28.547812, "lon": 77.1860085}, {"type": "node", "id": 3635886959, "lat": 28.5478128, "lon": 77.186041}, {"type": "node", "id": 3635886960, "lat": 28.5478891, "lon": 77.1860384}, {"type": "node", "id": 3635886961, "lat": 28.5478886, "lon": 77.1860193}, {"type": "node", "id": 3635886962, "lat": 28.5479359, "lon": 77.1860177}, {"type": "node", "id": 3635886963, "lat": 28.5479381, "lon": 77.1861003}, {"type": "node", "id": 3635886964, "lat": 28.5476279, "lon": 77.1861107}, {"type": "node", "id": 3635886965, "lat": 28.5476266, "lon": 77.1860607}, {"type": "node", "id": 3635886966, "lat": 28.547579, "lon": 77.1860623}, {"type": "node", "id": 3635886967, "lat": 28.5475733, "lon": 77.1858437}, {"type": "node", "id": 3636985314, "lat": 28.5491856, "lon": 77.1835643}, {"type": "node", "id": 3636985315, "lat": 28.5490864, "lon": 77.1832512}, {"type": "node", "id": 3636985316, "lat": 28.5488038, "lon": 77.1833673}, {"type": "node", "id": 3636985317, "lat": 28.5487542, "lon": 77.1832106}, {"type": "node", "id": 3636985318, "lat": 28.5489641, "lon": 77.1831244}, {"type": "node", "id": 3636985319, "lat": 28.5489244, "lon": 77.1829993}, {"type": "node", "id": 3636985320, "lat": 28.548609, "lon": 77.1831289}, {"type": "node", "id": 3636985321, "lat": 28.5487396, "lon": 77.1835409}, {"type": "node", "id": 3636985322, "lat": 28.5486357, "lon": 77.1835836}, {"type": "node", "id": 3636985323, "lat": 28.548501, "lon": 77.183642}, {"type": "node", "id": 3636985324, "lat": 28.5483865, "lon": 77.1832668}, {"type": "node", "id": 3636985325, "lat": 28.5482542, "lon": 77.1835279}, {"type": "node", "id": 3636985326, "lat": 28.5484195, "lon": 77.1839791}, {"type": "node", "id": 3636985327, "lat": 28.5486473, "lon": 77.1838856}, {"type": "node", "id": 3636985328, "lat": 28.5485977, "lon": 77.1837289}, {"type": "node", "id": 3636985329, "lat": 28.5488118, "lon": 77.1836409}, {"type": "node", "id": 3636985330, "lat": 28.5488721, "lon": 77.1838311}, {"type": "node", "id": 3636985331, "lat": 28.5489575, "lon": 77.183796}, {"type": "node", "id": 3636985332, "lat": 28.5488587, "lon": 77.1834839}, {"type": "node", "id": 3636985333, "lat": 28.549051, "lon": 77.183405}, {"type": "node", "id": 3636985334, "lat": 28.5491112, "lon": 77.1835948}, {"type": "node", "id": 3636985335, "lat": 28.5480987, "lon": 77.1830875}, {"type": "node", "id": 3636985336, "lat": 28.5479967, "lon": 77.1827575}, {"type": "node", "id": 3636985337, "lat": 28.5477153, "lon": 77.1828716}, {"type": "node", "id": 3636985338, "lat": 28.5476787, "lon": 77.1827549}, {"type": "node", "id": 3636985339, "lat": 28.5478817, "lon": 77.1826758}, {"type": "node", "id": 3636985340, "lat": 28.5478453, "lon": 77.1825581}, {"type": "node", "id": 3636985341, "lat": 28.5475599, "lon": 77.182671}, {"type": "node", "id": 3636985342, "lat": 28.547666, "lon": 77.1830011}, {"type": "node", "id": 3636985343, "lat": 28.5474716, "lon": 77.1830788}, {"type": "node", "id": 3636985344, "lat": 28.5473388, "lon": 77.1826492}, {"type": "node", "id": 3636985345, "lat": 28.547278, "lon": 77.1826735}, {"type": "node", "id": 3636985346, "lat": 28.5473595, "lon": 77.1834782}, {"type": "node", "id": 3636985347, "lat": 28.5475317, "lon": 77.1834105}, {"type": "node", "id": 3636985348, "lat": 28.5474813, "lon": 77.1832475}, {"type": "node", "id": 3636985349, "lat": 28.5477133, "lon": 77.1831532}, {"type": "node", "id": 3636985350, "lat": 28.5477737, "lon": 77.1833483}, {"type": "node", "id": 3636985351, "lat": 28.5478586, "lon": 77.1833136}, {"type": "node", "id": 3636985352, "lat": 28.547756, "lon": 77.1829818}, {"type": "node", "id": 3636985353, "lat": 28.5479539, "lon": 77.1829022}, {"type": "node", "id": 3636985354, "lat": 28.5480211, "lon": 77.1831198}, {"type": "node", "id": 3636985355, "lat": 28.5470194, "lon": 77.1821485}, {"type": "node", "id": 3636985356, "lat": 28.5471243, "lon": 77.1824787}, {"type": "node", "id": 3636985357, "lat": 28.5470524, "lon": 77.1825083}, {"type": "node", "id": 3636985358, "lat": 28.546983, "lon": 77.1822901}, {"type": "node", "id": 3636985359, "lat": 28.5467682, "lon": 77.1823786}, {"type": "node", "id": 3636985360, "lat": 28.5468632, "lon": 77.1826774}, {"type": "node", "id": 3636985361, "lat": 28.5467758, "lon": 77.1827134}, {"type": "node", "id": 3636985362, "lat": 28.5467116, "lon": 77.1825114}, {"type": "node", "id": 3636985363, "lat": 28.5465445, "lon": 77.1825802}, {"type": "node", "id": 3636985364, "lat": 28.546606, "lon": 77.1827737}, {"type": "node", "id": 3636985365, "lat": 28.5464975, "lon": 77.1828214}, {"type": "node", "id": 3636985366, "lat": 28.5462107, "lon": 77.1823887}, {"type": "node", "id": 3636985367, "lat": 28.5463271, "lon": 77.1823408}, {"type": "node", "id": 3636985368, "lat": 28.5462405, "lon": 77.1820681}, {"type": "node", "id": 3636985369, "lat": 28.5463352, "lon": 77.1820291}, {"type": "node", "id": 3636985370, "lat": 28.5464455, "lon": 77.1823761}, {"type": "node", "id": 3636985371, "lat": 28.5466686, "lon": 77.1822842}, {"type": "node", "id": 3636985372, "lat": 28.5465863, "lon": 77.1820251}, {"type": "node", "id": 3636985373, "lat": 28.5468383, "lon": 77.1819214}, {"type": "node", "id": 3636985374, "lat": 28.5468683, "lon": 77.1820155}, {"type": "node", "id": 3636985375, "lat": 28.54669, "lon": 77.1820889}, {"type": "node", "id": 3636985376, "lat": 28.5467448, "lon": 77.1822615}, {"type": "node", "id": 4233527074, "lat": 28.5491405, "lon": 77.1843508}, {"type": "node", "id": 5251925069, "lat": 28.5493315, "lon": 77.1851364}, {"type": "node", "id": 10049646641, "lat": 28.549221, "lon": 77.1836317}, {"type": "node", "id": 10049646643, "lat": 28.5491039, "lon": 77.1837823}, {"type": "node", "id": 10049646644, "lat": 28.5490748, "lon": 77.1836944}, {"type": "node", "id": 10049646653, "lat": 28.5482464, "lon": 77.1842238}, {"type": "node", "id": 10049646654, "lat": 28.548315, "lon": 77.1843883}, {"type": "node", "id": 10049646655, "lat": 28.5482338, "lon": 77.1844341}, {"type": "node", "id": 10049646656, "lat": 28.54822, "lon": 77.1843905}, {"type": "node", "id": 10049646657, "lat": 28.5482695, "lon": 77.184359}, {"type": "node", "id": 10049646658, "lat": 28.5482437, "lon": 77.1842861}, {"type": "node", "id": 10049646659, "lat": 28.5481619, "lon": 77.1843192}, {"type": "node", "id": 10049646660, "lat": 28.5481448, "lon": 77.1842568}, {"type": "node", "id": 10051442719, "lat": 28.5483538, "lon": 77.1834878}, {"type": "node", "id": 10051442720, "lat": 28.5483042, "lon": 77.1832988}, {"type": "node", "id": 10051442721, "lat": 28.5492602, "lon": 77.1852806}, {"type": "node", "id": 10051442722, "lat": 28.5492274, "lon": 77.1853617}, {"type": "node", "id": 10051442723, "lat": 28.5493243, "lon": 77.1854126}, {"type": "node", "id": 10051442724, "lat": 28.5490521, "lon": 77.1856616}, {"type": "node", "id": 10051442725, "lat": 28.5490965, "lon": 77.1860017}, {"type": "node", "id": 10051442726, "lat": 28.5490938, "lon": 77.1856987}, {"type": "node", "id": 10051442727, "lat": 28.5491971, "lon": 77.1857529}, {"type": "node", "id": 11430045094, "lat": 28.5463078, "lon": 77.1826943}, {"type": "node", "id": 11430045095, "lat": 28.5464136, "lon": 77.1826409}, {"type": "node", "id": 11430045096, "lat": 28.5464857, "lon": 77.1827627}, {"type": "node", "id": 11430045097, "lat": 28.5464525, "lon": 77.1827856}, {"type": "node", "id": 12829575551, "lat": 28.5494243, "lon": 77.1845625}, {"type": "node", "id": 12829575553, "lat": 28.5497439, "lon": 77.1847473}, {"type": "node", "id": 12829575572, "lat": 28.5494067, "lon": 77.1846016}, {"type": "node", "id": 12829586602, "lat": 28.5492973, "lon": 77.183599}, {"type": "node", "id": 12829586605, "lat": 28.5498939, "lon": 77.1848346}, {"type": "node", "id": 12829586608, "lat": 28.5491099, "lon": 77.1842868}, {"type": "node", "id": 12829586641, "lat": 28.5492099, "lon": 77.184485}, {"type": "node", "id": 12829586644, "lat": 28.5495372, "lon": 77.1833649}, {"type": "node", "id": 13294675736, "lat": 28.5473688, "lon": 77.1829671}, {"type": "node", "id": 13294675737, "lat": 28.5472196, "lon": 77.1830257}, {"type": "node", "id": 2706856561, "lat": 28.5390544, "lon": 77.1894411}, {"type": "node", "id": 2706856564, "lat": 28.5393113, "lon": 77.1887159}, {"type": "node", "id": 3046744877, "lat": 28.5397198, "lon": 77.1898933}, {"type": "node", "id": 3046744878, "lat": 28.5395315, "lon": 77.1899885}, {"type": "node", "id": 3046744879, "lat": 28.5395985, "lon": 77.1901956}, {"type": "node", "id": 3046744880, "lat": 28.5396821, "lon": 77.1902766}, {"type": "node", "id": 3046744881, "lat": 28.5395838, "lon": 77.1903408}, {"type": "node", "id": 3046744882, "lat": 28.5396612, "lon": 77.1905527}, {"type": "node", "id": 3046744883, "lat": 28.5399059, "lon": 77.1904289}, {"type": "node", "id": 3636960444, "lat": 28.547932, "lon": 77.1893206}, {"type": "node", "id": 3636960445, "lat": 28.5479311, "lon": 77.1893684}, {"type": "node", "id": 3636960446, "lat": 28.5478757, "lon": 77.1894883}, {"type": "node", "id": 3636960447, "lat": 28.5477293, "lon": 77.1894883}, {"type": "node", "id": 3636960448, "lat": 28.5477293, "lon": 77.1897038}, {"type": "node", "id": 3636960449, "lat": 28.547665, "lon": 77.189657}, {"type": "node", "id": 3636960450, "lat": 28.5476697, "lon": 77.1894872}, {"type": "node", "id": 3636960451, "lat": 28.5476542, "lon": 77.1894866}, {"type": "node", "id": 3636960452, "lat": 28.5476554, "lon": 77.1894405}, {"type": "node", "id": 3636960453, "lat": 28.5476106, "lon": 77.1894389}, {"type": "node", "id": 3636960454, "lat": 28.5476116, "lon": 77.1894034}, {"type": "node", "id": 3636960455, "lat": 28.5474703, "lon": 77.1893984}, {"type": "node", "id": 3636960456, "lat": 28.5474651, "lon": 77.1895899}, {"type": "node", "id": 3636960457, "lat": 28.5476834, "lon": 77.1898138}, {"type": "node", "id": 3636960458, "lat": 28.5476272, "lon": 77.1898848}, {"type": "node", "id": 3636960459, "lat": 28.5473615, "lon": 77.1896123}, {"type": "node", "id": 3636960460, "lat": 28.5473674, "lon": 77.1893169}, {"type": "node", "id": 3636960461, "lat": 28.5475963, "lon": 77.1893228}, {"type": "node", "id": 3636960462, "lat": 28.5476003, "lon": 77.1891247}, {"type": "node", "id": 3636960463, "lat": 28.5476471, "lon": 77.1891259}, {"type": "node", "id": 3636960464, "lat": 28.5476482, "lon": 77.189072}, {"type": "node", "id": 3636960465, "lat": 28.5477329, "lon": 77.1890742}, {"type": "node", "id": 3636960466, "lat": 28.5477272, "lon": 77.189367}, {"type": "node", "id": 3636960467, "lat": 28.5478908, "lon": 77.1893712}, {"type": "node", "id": 3636960468, "lat": 28.5478918, "lon": 77.1893196}, {"type": "node", "id": 3636960469, "lat": 28.548131, "lon": 77.1886413}, {"type": "node", "id": 3636960470, "lat": 28.548129, "lon": 77.1887352}, {"type": "node", "id": 3636960471, "lat": 28.5480933, "lon": 77.1888734}, {"type": "node", "id": 3636960472, "lat": 28.5478697, "lon": 77.1888676}, {"type": "node", "id": 3636960473, "lat": 28.5478713, "lon": 77.1887888}, {"type": "node", "id": 3636960474, "lat": 28.5477581, "lon": 77.1887859}, {"type": "node", "id": 3636960475, "lat": 28.547754, "lon": 77.1889846}, {"type": "node", "id": 3636960476, "lat": 28.5479978, "lon": 77.188991}, {"type": "node", "id": 3636960477, "lat": 28.5479964, "lon": 77.1890632}, {"type": "node", "id": 3636960478, "lat": 28.5476874, "lon": 77.1890621}, {"type": "node", "id": 3636960479, "lat": 28.5476909, "lon": 77.1889559}, {"type": "node", "id": 3636960480, "lat": 28.5474627, "lon": 77.1889498}, {"type": "node", "id": 3636960481, "lat": 28.5474571, "lon": 77.1892138}, {"type": "node", "id": 3636960482, "lat": 28.5473627, "lon": 77.1892112}, {"type": "node", "id": 3636960483, "lat": 28.5473682, "lon": 77.1889494}, {"type": "node", "id": 3636960485, "lat": 28.5472626, "lon": 77.1885165}, {"type": "node", "id": 3636960486, "lat": 28.5475126, "lon": 77.1884948}, {"type": "node", "id": 3636960487, "lat": 28.547506, "lon": 77.1888047}, {"type": "node", "id": 3636960488, "lat": 28.5476878, "lon": 77.1888098}, {"type": "node", "id": 3636960489, "lat": 28.5476909, "lon": 77.1886605}, {"type": "node", "id": 3636960490, "lat": 28.5477575, "lon": 77.1886624}, {"type": "node", "id": 3636960491, "lat": 28.547756, "lon": 77.1887322}, {"type": "node", "id": 3636960492, "lat": 28.5479943, "lon": 77.1887388}, {"type": "node", "id": 3636985293, "lat": 28.5479965, "lon": 77.1886375}, {"type": "node", "id": 5527920791, "lat": 28.5472403, "lon": 77.188923}, {"type": "node", "id": 10804327741, "lat": 28.5476889, "lon": 77.189055}]}