{"version": 0.6, "generator": "Overpass API 0.7.62.8 e802775f", "osm3s": {"timestamp_osm_base": "2025-11-21T17:59:07Z", "copyright": "The data included in this document is from www.openstreetmap.org. The data is made available under ODbL."}, "elements": [{"type": "node", "id": 249221479, "lat": 28.4623384, "lon": 77.0658862, "tags": {"barrier": "gate", "created_by": "JOSM", "material": "metal", "name": "South City - I Gate", "tourism": "attraction"}}, {"type": "node", "id": 266732634, "lat": 28.4684904, "lon": 77.0644002, "tags": {"amenity": "restaurant", "cuisine": "afghan", "name": "Park Baluchi"}}, {"type": "node", "id": 271336428, "lat": 28.4808629, "lon": 77.0848883, "tags": {"amenity": "bank", "brand": "Kotak Mahindra Bank", "brand:wikidata": "Q2040404", "check_date": "2025-02-23", "leisure": "park", "name": "Kotak Mahindra Bank;india", "name:en": "Kotak Mahindra Bank", "website": "http://www.kotak.com"}}, {"type": "node", "id": 416361396, "lat": 28.4649041, "lon": 77.0789762, "tags": {"amenity": "restaurant", "check_date": "2025-02-23", "cuisine": "South Indian", "name": "Naveidyam"}}, {"type": "node", "id": 438033023, "lat": 28.4771721, "lon": 77.0682208, "tags": {"name": "IFFCO Chowk", "tourism": "attraction"}}, {"type": "node", "id": 620511563, "lat": 28.4687432, "lon": 77.0640834, "tags": {"name": "Vatika Grand", "tourism": "guest_house"}}, {"type": "node", "id": 1371226152, "lat": 28.4675603, "lon": 77.0814521, "tags": {"amenity": "cafe", "name": "CCD"}}, {"type": "node", "id": 1396171342, "lat": 28.4679809, "lon": 77.0648274, "tags": {"name": "Lemon Tree", "tourism": "hotel"}}, {"type": "node", "id": 1396171347, "lat": 28.4675847, "lon": 77.0652242, "tags": {"name": "Leon Tree Premier II", "tourism": "hotel"}}, {"type": "node", "id": 1671713469, "lat": 28.4600672, "lon": 77.0518464, "tags": {"amenity": "cafe", "brand": "Cafe Coffee Day", "brand:wikidata": "Q5017235", "check_date": "2025-02-23", "cuisine": "coffee_shop", "name": "Caf\u00e9 Coffee Day", "name:en": "Caf\u00e9 Coffee Day", "takeaway": "yes"}}, {"type": "node", "id": 1835582790, "lat": 28.4684035, "lon": 77.0624832, "tags": {"amenity": "restaurant", "brand": "Pizza Hut", "brand:wikidata": "Q191615", "cuisine": "pizza", "name": "Pizza Hut"}}, {"type": "node", "id": 1835582815, "lat": 28.4692697, "lon": 77.0623996, "tags": {"amenity": "restaurant", "cuisine": "korean", "name": "Gung the palace"}}, {"type": "node", "id": 1835582875, "lat": 28.4684555, "lon": 77.0624238, "tags": {"amenity": "restaurant", "name": "Spaghetti Kitchen & Bar"}}, {"type": "node", "id": 1835582941, "lat": 28.4683891, "lon": 77.0635176, "tags": {"amenity": "restaurant", "name": "The Oriental Bloom (Chinese and Thai)"}}, {"type": "node", "id": 1835582984, "lat": 28.4684189, "lon": 77.0635414, "tags": {"amenity": "restaurant", "name": "Gola Sizzles"}}, {"type": "node", "id": 1835583103, "lat": 28.4692239, "lon": 77.063481, "tags": {"name": "Kshitij", "tourism": "hotel"}}, {"type": "node", "id": 1835583172, "lat": 28.4691571, "lon": 77.0635519, "tags": {"name": "Quality inn", "tourism": "hotel"}}, {"type": "node", "id": 1835583219, "lat": 28.4698181, "lon": 77.0627594, "tags": {"amenity": "restaurant", "check_date": "2025-02-23", "name": "Swagath"}}, {"type": "node", "id": 2337256378, "lat": 28.4678859, "lon": 77.06805, "tags": {"artwork_type": "statue", "tourism": "artwork"}}, {"type": "node", "id": 2337256405, "lat": 28.4680974, "lon": 77.0682188, "tags": {"artwork_type": "statue", "tourism": "artwork"}}, {"type": "node", "id": 2345064572, "lat": 28.4736151, "lon": 77.0786935, "tags": {"amenity": "restaurant", "name": "Barbecue Grill", "source:amenity": "survey", "source:name": "survey"}}, {"type": "node", "id": 3642197067, "lat": 28.4937673, "lon": 77.0859232, "tags": {"addr:city": "Gurgaon", "addr:street": "Service Road", "amenity": "restaurant", "cuisine": "regional", "name": "Mukesh Dhaba"}}, {"type": "node", "id": 3749005711, "lat": 28.4976333, "lon": 77.0865213, "tags": {"amenity": "restaurant", "cuisine": "pizza"}}, {"type": "node", "id": 3998179871, "lat": 28.4694883, "lon": 77.0683104, "tags": {"amenity": "cafe", "name": "Roots"}}, {"type": "node", "id": 4130121820, "lat": 28.4557419, "lon": 77.0702666, "tags": {"air_conditioning": "yes", "bar": "yes", "brand": "Taj", "brand:wikidata": "Q1521893", "check_date": "2025-10-05", "internet_access": "wlan", "internet_access:fee": "customers", "name": "Taj City Centre Gurugram", "name:en": "Taj City Centre Gurugram", "official_name": "Taj Hotels", "payment:cash": "yes", "payment:credit_cards": "yes", "payment:debit_cards": "yes", "reservation": "yes", "tourism": "hotel", "wheelchair": "yes"}}, {"type": "node", "id": 4417125694, "lat": 28.4717096, "lon": 77.0837746, "tags": {"name": "\u0e1a\u0e49\u0e32\u0e19\u0e42\u0e1a\u0e27\u0e4c", "name:hi": "\u0e1a\u0e49\u0e32\u0e19\u0e42\u0e1a\u0e27\u0e4c", "tourism": "hotel"}}, {"type": "node", "id": 4417155992, "lat": 28.477114, "lon": 77.0670443, "tags": {"name": "MG road", "name:hi": "MG road", "tourism": "caravan_site"}}, {"type": "node", "id": 4588218292, "lat": 28.4516527, "lon": 77.0503208, "tags": {"name:en": "Rajju's Palace", "tourism": "hostel"}}, {"type": "node", "id": 4794650067, "lat": 28.4702492, "lon": 77.068123, "tags": {"description": "equestrian_statue", "historic": "memorial", "memorial": "statue"}}, {"type": "node", "id": 4873994623, "lat": 28.4506005, "lon": 77.0871826, "tags": {"internet_access": "wlan", "name:en": "Bawa residency", "opening_hours": "24/7", "tourism": "guest_house"}}, {"type": "node", "id": 4907724190, "lat": 28.4505716, "lon": 77.0861767, "tags": {"internet_access": "yes", "internet_access:fee": "no", "name": "MyAdvo", "name:en": "New Bawa", "rooms": "12", "smoking": "no", "tourism": "guest_house"}}, {"type": "node", "id": 5199569421, "lat": 28.4509658, "lon": 77.0654694, "tags": {"name": "\u0641\u0646\u062f\u0642\u0646\u0647", "tourism": "guest_house"}}, {"type": "node", "id": 5200609425, "lat": 28.4509419, "lon": 77.0654705, "tags": {"name": "\u0628\u064a\u062a", "tourism": "viewpoint"}}, {"type": "node", "id": 5297862222, "lat": 28.4502456, "lon": 77.0871344, "tags": {"internet_access": "wlan", "name:en": "Infinity Nest", "opening_hours": "24/7", "tourism": "guest_house"}}, {"type": "node", "id": 5350937424, "lat": 28.4962947, "lon": 77.0891919, "tags": {"name": "DLF Cyber Hub", "tourism": "attraction"}}, {"type": "node", "id": 5517629522, "lat": 28.4676414, "lon": 77.0816279, "tags": {"amenity": "cafe", "name:en": "Belgian Waffle"}}, {"type": "node", "id": 5517650722, "lat": 28.4676069, "lon": 77.0816003, "tags": {"addr:street": "DLF Galleria Road", "amenity": "cafe", "cuisine": "burger;sandwich;breakfast;ice_cream;coffee_shop;american;pasta;chicken", "name:en": "Drunken Monkey", "opening_hours": "Mo-Su 07:30-23:59"}}, {"type": "node", "id": 5517695021, "lat": 28.4676141, "lon": 77.0824177, "tags": {"amenity": "cafe", "check_date": "2025-02-23", "cuisine": "american;bagel;breakfast;coffee_shop", "email": "getcoffee@bluetokaicoffee.com", "name:en": "Blue Tokai Coffee Roasters", "opening_hours": "Mo-Su 09:00-22:00", "phone": "+91 98211 26015", "website": "https://bluetokaicoffee.com/"}}, {"type": "node", "id": 5613382921, "lat": 28.4609473, "lon": 77.0813594, "tags": {"internet_access": "wlan", "name:en": "Friendz inn", "name:ru": "Friendz inn", "opening_hours": "24/7", "tourism": "hostel"}}, {"type": "node", "id": 6952063399, "lat": 28.4682689, "lon": 77.0834511, "tags": {"amenity": "restaurant", "name": "Fat Lulu\u2019s"}}, {"type": "node", "id": 6952063400, "lat": 28.4682859, "lon": 77.0836684, "tags": {"amenity": "cafe", "amenity_1": "coworking_space", "bar": "yes", "internet_access": "yes", "name": "Nowhere Brewpub and cafe", "outdoor_seating": "yes", "smoking": "outside"}}, {"type": "node", "id": 6952063401, "lat": 28.4682936, "lon": 77.0830397, "tags": {"amenity": "cafe", "check_date": "2025-02-23", "internet_access": "yes", "name": "Di Ghent", "name:en": "Di Ghent", "outdoor_seating": "no"}}, {"type": "node", "id": 6952063402, "lat": 28.4675277, "lon": 77.0822417, "tags": {"amenity": "cafe", "brand": "Starbucks", "brand:pa": "\u0a38\u0a1f\u0a3e\u0a30\u0a2c\u0a15\u0a38", "brand:ur": "\u0627\u0633\u0679\u0627\u0631\u0628\u06a9\u0633", "brand:wikidata": "Q37158", "brand:wikipedia": "en:Starbucks", "check_date": "2025-02-23", "cuisine": "coffee_shop", "internet_access": "wlan", "name": "Starbucks", "name:pa": "\u0a38\u0a1f\u0a3e\u0a30\u0a2c\u0a15\u0a38", "name:ur": "\u0627\u0633\u0679\u0627\u0631\u0628\u06a9\u0633", "official_name": "Starbucks Coffee", "official_name:pa": "\u0a38\u0a1f\u0a3e\u0a30\u0a2c\u0a15\u0a38 \u0a15\u0a4c\u0a2b\u0a40", "official_name:ur": "\u0627\u0633\u0679\u0627\u0631\u0628\u06a9\u0633 \u06a9\u0627\u0641\u06cc", "outdoor_seating": "no", "takeaway": "yes"}}, {"type": "node", "id": 7008505642, "lat": 28.4690914, "lon": 77.0621736, "tags": {"amenity": "restaurant", "cuisine": "indian;italian", "name": "ADDA", "outdoor_seating": "yes", "smoking": "outside", "wheelchair": "no"}}, {"type": "node", "id": 7558352957, "lat": 28.468584, "lon": 77.0743315, "tags": {"amenity": "restaurant", "name": "Pizza Hut"}}, {"type": "node", "id": 7883419544, "lat": 28.4628028, "lon": 77.080404, "tags": {"amenity": "restaurant", "name": "The Chicken Boat"}}, {"type": "node", "id": 8012330500, "lat": 28.461903, "lon": 77.0652412, "tags": {"leisure": "park"}}, {"type": "node", "id": 8015897408, "lat": 28.4674223, "lon": 77.0570352, "tags": {"amenity": "restaurant"}}, {"type": "node", "id": 8184671579, "lat": 28.460803, "lon": 77.078831, "tags": {"addr:full": "H12, Sushant Shopping Arcade Shushant Marg Sushant Lok Phase I Gurgaon Haryana 122002 IN, Shushant Marg, Sushant Lok Phase I, Sector 43, Gurugram, Haryana", "amenity": "restaurant", "diet:vegetarian": "only", "name": "Balaji Vegetarian Paradise"}}, {"type": "node", "id": 8499424058, "lat": 28.4691501, "lon": 77.0636443, "tags": {"addr:city": "Gurugram", "addr:housenumber": "SCO 6/7, 3 Floor", "addr:postcode": "122007", "addr:street": "Sector 29", "air_conditioning": "yes", "amenity": "restaurant", "bar": "yes", "cuisine": "italian;indian;chinese;pizza;chicken", "diet:non-vegetarian": "yes", "diet:vegetarian": "yes", "ele": "3", "microbrewery": "yes", "name": "Black Mambaa", "opening_hours": "Everyday 12:00 PM to 1:00 AM", "reservation": "yes", "smoking": "isolated", "stars": "4.5", "wheelchair": "yes"}}, {"type": "node", "id": 9082402998, "lat": 28.455053, "lon": 77.0822501, "tags": {"addr:city": "Gurgaon", "addr:postcode": "122001", "addr:street": "Sector 43", "name": "Sailors CASA Guest House", "tourism": "guest_house"}}, {"type": "node", "id": 9213699811, "lat": 28.4806344, "lon": 77.0804255, "tags": {"amenity": "restaurant", "cuisine": "thai", "name": "Pan Bangkok"}}, {"type": "node", "id": 9244846230, "lat": 28.4777464, "lon": 77.0461429, "tags": {"amenity": "cafe", "brand": "Cafe Coffee Day", "brand:wikidata": "Q5017235", "cuisine": "coffee_shop", "name": "Cafe Coffee Day", "takeaway": "yes"}}, {"type": "node", "id": 9246966086, "lat": 28.4845807, "lon": 77.0847884, "tags": {"addr:city": "Gurgaon", "addr:housenumber": "39E", "addr:postcode": "122002", "addr:street": "Akashneem Marg", "contact:email": "ktaneja@sunstarhospitality.com", "internet_access": "wlan", "name": "Sun Villa Gurgaon", "phone": "+91-1244148104", "tourism": "hotel", "website": "http://www.sunvillagurgaon.com"}}, {"type": "node", "id": 9622605917, "lat": 28.4999728, "lon": 77.0814781, "tags": {"name:en": "SPICE JET", "tourism": "apartment"}}, {"type": "node", "id": 11013629305, "lat": 28.4694718, "lon": 77.080202, "tags": {"name:en": "Camera Museum", "tourism": "museum"}}, {"type": "node", "id": 11146205605, "lat": 28.4743587, "lon": 77.0870027, "tags": {"name": "Tharu Apartment", "tourism": "apartment"}}, {"type": "node", "id": 11246165564, "lat": 28.4620388, "lon": 77.0502404, "tags": {"amenity": "restaurant", "level": "1", "name": "Manny's Waffle"}}, {"type": "node", "id": 11246201390, "lat": 28.462018, "lon": 77.0497928, "tags": {"amenity": "restaurant", "cuisine": "ramen", "level": "1", "name": "Long Finish", "opening_hours": "Mo, We-Su 12:30-16:00, 18:00-23:00"}}, {"type": "node", "id": 11246222553, "lat": 28.4620161, "lon": 77.0502074, "tags": {"amenity": "restaurant", "cuisine": "himalayan", "level": "1", "name": "Boju's"}}, {"type": "node", "id": 11929097599, "lat": 28.4509594, "lon": 77.0815414, "tags": {"air_conditioning": "yes", "amenity": "cafe", "bar": "no", "brand": "Third Wave Coffee", "changing_table": "no", "check_date": "2025-08-31", "cuisine": "coffee_shop", "delivery": "yes", "drive_through": "no", "highchair": "no", "internet_access": "wlan", "internet_access:fee": "customers", "name": "Third Wave Coffee", "name:en": "Third Wave Coffee", "outdoor_seating": "no", "payment:cash": "yes", "payment:coins": "yes", "payment:credit_cards": "yes", "payment:debit_cards": "yes", "payment:mastercard": "yes", "payment:notes": "yes", "payment:upi": "yes", "payment:visa": "yes", "reservation": "no", "smoking": "no", "takeaway": "yes", "toilets": "no", "toilets:wheelchair": "no", "wheelchair": "yes"}}, {"type": "node", "id": 11929097633, "lat": 28.4529086, "lon": 77.082331, "tags": {"air_conditioning": "yes", "amenity": "cafe", "bar": "no", "brand": "Chaayos", "changing_table": "no", "check_date": "2025-08-31", "cuisine": "indian", "delivery": "yes", "diet:dairy": "yes", "diet:vegetarian": "yes", "drive_through": "no", "highchair": "no", "internet_access": "wlan", "internet_access:fee": "customers", "name": "Chaayos", "name:en": "Chaayos", "outdoor_seating": "no", "payment:cash": "yes", "payment:credit_cards": "yes", "payment:debit_cards": "yes", "payment:google_pay": "yes", "payment:mastercard": "yes", "payment:paytm": "yes", "payment:phonepe": "yes", "payment:visa": "yes", "reservation": "no", "smoking": "no", "takeaway": "yes", "toilets": "no", "toilets:wheelchair": "no", "wheelchair": "no"}}, {"type": "node", "id": 11929097635, "lat": 28.4530925, "lon": 77.0824427, "tags": {"air_conditioning": "yes", "amenity": "restaurant", "bar": "no", "brewery": "no", "changing_table": "no", "check_date": "2025-08-31", "cuisine": "chinese", "delivery": "yes", "diet:chicken": "yes", "diet:meat": "yes", "diet:non-vegetarian": "yes", "diet:vegetarian": "yes", "highchair": "no", "internet_access": "no", "microbrewery": "no", "name": "Hong\u2019s Kitchen", "name:en": "Hong\u2019s Kitchen", "outdoor_seating": "no", "payment:cash": "yes", "payment:credit_cards": "yes", "payment:debit_cards": "yes", "payment:google_pay": "yes", "payment:mastercard": "yes", "payment:paytm": "yes", "payment:phonepe": "yes", "payment:upi": "yes", "payment:visa": "yes", "reservation": "no", "smoking": "no", "takeaway": "yes", "toilets": "no", "toilets:wheelchair": "no", "wheelchair": "no"}}, {"type": "node", "id": 12091637027, "lat": 28.4604243, "lon": 77.0792568, "tags": {"addr:floor": "0", "addr:housenumber": "-", "addr:street": "Sushant Shopping Arcade, Sushant Lok 1", "addr:unit": "G-103", "amenity": "restaurant", "check_date": "2024-08-04", "level": "0", "name": "Al-Bake", "name:en": "Al-Bake"}}, {"type": "node", "id": 12091644968, "lat": 28.460532, "lon": 77.0789591, "tags": {"addr:housenumber": "Sushant Shopping Arcade", "addr:unit": "D9", "amenity": "restaurant", "level": "-1", "name": "Mom In the kitchen", "takeaway": "yes", "wheelchair": "yes"}}, {"type": "node", "id": 12091656878, "lat": 28.4606439, "lon": 77.0791436, "tags": {"addr:city": "Gurugram", "addr:country": "IN", "addr:district": "Gurugram", "addr:place": "Sushant Shopping Arcade", "addr:postcode": "122009", "addr:state": "Haryana", "addr:unit": "G-23", "amenity": "restaurant", "check_date": "2024-08-04", "level": "-1", "name": "The Divine Dining", "wheelchair": "yes"}}, {"type": "node", "id": 12091656879, "lat": 28.460619, "lon": 77.0791424, "tags": {"addr:place": "Sushant Shopping Arcade", "addr:unit": "G-24", "amenity": "cafe", "check_date": "2024-08-04", "level": "-1", "name": "Flavours - All Time Snacks", "phone": "+91 96342 61042", "wheelchair": "yes"}}, {"type": "node", "id": 12091656881, "lat": 28.4605966, "lon": 77.0791415, "tags": {"addr:unit": "G-25", "amenity": "restaurant", "check_date": "2024-08-04", "delivery": "yes", "level": "-1", "name": "Chow Time", "phone": "+91 79999 43663", "takeaway": "yes", "wheelchair": "yes"}}, {"type": "node", "id": 12091656882, "lat": 28.4606607, "lon": 77.0791442, "tags": {"addr:place": "Sushant Shopping Arcade", "addr:unit": "G-22", "amenity": "restaurant", "check_date": "2024-08-04", "level": "-1", "name": "Rolls King", "wheelchair": "yes"}}, {"type": "node", "id": 12091656884, "lat": 28.460578, "lon": 77.0791392, "tags": {"addr:place": "Sushant Shopping Arcade", "addr:unit": "G-26", "amenity": "cafe", "check_date": "2024-08-04", "cuisine": "Snacks", "level": "-1", "name": "Ninis Snacks"}}, {"type": "node", "id": 12091690473, "lat": 28.4605003, "lon": 77.0789801, "tags": {"air_conditioning": "no", "amenity": "restaurant", "cuisine": "indian", "level": "-1", "name": "Bucks", "wheelchair": "yes"}}, {"type": "node", "id": 12639413109, "lat": 28.4628618, "lon": 77.0631406, "tags": {"addr:city": "Gurugram", "addr:district": "Gurugram", "addr:housenumber": "26/7/2", "addr:postcode": "122001", "addr:street": "SOUTH CITY 1, SECTOR 30", "amenity": "restaurant", "cuisine": "indian;chinese;italian;pasta", "name": "LAILA BY EBOWLA", "opening_hours": "14:00 - 04:00", "phone": "+919053222227", "website": "www.instagram.com/lailabyebowla"}}, {"type": "node", "id": 12640705503, "lat": 28.4599618, "lon": 77.083366, "tags": {"amenity": "restaurant", "check_date": "2025-03-06", "cuisine": "japanese", "name": "Hasora", "phone": "+91 93546 41211", "website": "https://hasora.in/"}}, {"type": "node", "id": 12710533943, "lat": 28.4780428, "lon": 77.0607624, "tags": {"amenity": "restaurant", "name": "Kaku Pizza & Restaurant", "name:en": "Kaku Pizza & Restaurant", "name:hi": "\u0915\u093e\u0915\u0942 \u092a\u093f\u091c\u094d\u091c\u093e & \u0930\u0947\u0938\u094d\u091f\u094b\u0930\u0947\u0902\u091f"}}, {"type": "node", "id": 13176763098, "lat": 28.4623628, "lon": 77.0870847, "tags": {"amenity": "restaurant", "changing_table": "no", "level": "1", "name": "Paltan", "takeaway": "yes", "wheelchair": "no"}}, {"type": "node", "id": 13176763099, "lat": 28.4625125, "lon": 77.0869904, "tags": {"air_conditioning": "yes", "amenity": "restaurant", "changing_table": "no", "cuisine": "indian;awadhi;kebab", "diet:vegan": "on_demand", "diet:vegetarian": "limited", "image:menu": "49b9e999-edc4-4882-afb5-8059a5167fbd", "image:menu:0": "607cef04-d51b-4477-aa13-19057ab4f617", "level": "1", "name": "Kitchen of Awadh", "panoramax": "c2cb38ce-9f2b-4306-8b11-de6b100d470d", "takeaway": "yes", "toilets": "no", "wheelchair": "no", "wikimedia_commons": "Category:Kitchen_of_Awadh,_DLF_Phase_4,_Gurgaon"}}, {"type": "node", "id": 13238895997, "lat": 28.4698378, "lon": 77.0858667, "tags": {"addr:city": "Gurgaon", "addr:district": "Gurgaon", "addr:housenumber": "17", "addr:postcode": "122009", "addr:street": "Inside Lotus Villas, DLF IV", "amenity": "restaurant", "cuisine": "mughlai;indian;north_indian", "diet:chicken": "yes", "diet:fish": "yes", "diet:halal": "yes", "diet:healthy": "yes", "diet:vegetarian": "yes", "name": "Kashgar", "opening_hours": "Mo-Su 11:00-23:00", "phone": "+919980851233"}}, {"type": "node", "id": 13283972699, "lat": 28.4603842, "lon": 77.0798764, "tags": {"amenity": "cafe", "cuisine": "tea", "indoor_seating": "yes", "level": "0", "name": "Pehle Chai", "outdoor_seating": "yes", "strapline": "Phir Sab Kuch..."}}, {"type": "node", "id": 13284004601, "lat": 28.4604837, "lon": 77.0798764, "tags": {"amenity": "restaurant", "level": "0", "name": "Karim's", "website": "https://karimsushantlok.com/", "wikidata": "Q17064086", "wikipedia": "en:Karim's"}}, {"type": "node", "id": 13293400504, "lat": 28.4947426, "lon": 77.0879293, "tags": {"amenity": "cafe", "brand": "Tim Hortons", "brand:wikidata": "Q175106", "cuisine": "coffee_shop", "fixme": "Building part needs to be added or existing outline needs to be extended", "level": "0", "name": "Tim Hortons", "outdoor_seating": "yes", "takeaway": "yes", "wheelchair": "limited"}}, {"type": "node", "id": 13293400515, "lat": 28.4950817, "lon": 77.088333, "tags": {"amenity": "restaurant", "level": "0", "name": "P. F. Chang's", "wheelchair": "limited", "wikidata": "Q5360181", "wikipedia": "en:P. F. Chang's"}}, {"type": "node", "id": 13293400518, "lat": 28.4951954, "lon": 77.0883936, "tags": {"amenity": "restaurant", "level": "0", "name": "Farzi Cafe", "wheelchair": "limited"}}, {"type": "node", "id": 13293400521, "lat": 28.4952809, "lon": 77.0884382, "tags": {"amenity": "restaurant", "brand": "Chili's", "brand:wikidata": "Q1072948", "cuisine": "tex-mex", "level": "0", "name": "Chili's", "official_name": "Chili's Grill & Bar", "wheelchair": "limited"}}, {"type": "node", "id": 13293400524, "lat": 28.4953369, "lon": 77.0884677, "tags": {"amenity": "restaurant", "level": "0", "name": "Cafe Delhi Heights", "wheelchair": "limited"}}, {"type": "node", "id": 13293400527, "lat": 28.4954279, "lon": 77.0884272, "tags": {"amenity": "restaurant", "cuisine": "indian", "level": "0", "name": "Made In Punjab", "wheelchair": "limited"}}, {"type": "node", "id": 13293400528, "lat": 28.4953569, "lon": 77.0885925, "tags": {"amenity": "restaurant", "level": "0", "name": "Laid Back Cafe", "wheelchair": "limited"}}, {"type": "node", "id": 13293400534, "lat": 28.4960196, "lon": 77.0887417, "tags": {"amenity": "restaurant", "cuisine": "mediterranean;lebanese", "level": "0", "name": "Cafe Mez", "outdoor_seating": "yes", "wheelchair": "limited"}}, {"type": "node", "id": 13293400537, "lat": 28.4959602, "lon": 77.0887101, "tags": {"amenity": "restaurant", "cuisine": "italian", "level": "0", "name": "Tablespoon", "opening_hours": "Mo-Su 12:00-23:00", "operator:website": "http://www.yumyumtree.in/", "outdoor_seating": "yes", "strapline": "tbsp.", "website": "https://tbsp.in/", "wheelchair": "limited"}}, {"type": "node", "id": 13293400540, "lat": 28.4959159, "lon": 77.088684, "tags": {"amenity": "cafe", "contact:mobile": "+91 8448776748", "cuisine": "coffee_shop", "level": "0", "name": "Blue Tokai Coffee Roasters", "opening_hours": "Mo-Su 08:00-23:45", "outdoor_seating": "yes", "wheelchair": "limited"}}, {"type": "node", "id": 13293400543, "lat": 28.4958595, "lon": 77.0886567, "tags": {"amenity": "restaurant", "brand": "Punjab Grill", "brand:wikidata": "Q124374761", "cuisine": "north_indian", "delivery": "yes", "level": "0", "name": "Punjab Grill", "outdoor_seating": "yes", "takeaway": "yes", "wheelchair": "limited"}}, {"type": "node", "id": 13293400546, "lat": 28.4957585, "lon": 77.0886032, "tags": {"amenity": "restaurant", "cuisine": "vietnamese", "level": "0", "name": "Vietnom", "outdoor_seating": "yes", "wheelchair": "limited"}}, {"type": "node", "id": 13293400549, "lat": 28.4956716, "lon": 77.0885626, "tags": {"amenity": "restaurant", "contact:mobile": "+91 8976792319;+91 8976792315", "cuisine": "indian", "level": "0", "name": "Copper Chimney", "opening_hours": "Mo-Fr 12:00-16:00; Mo-Fi 18:30-23:00; Sa-Su 12:00-23:00", "outdoor_seating": "yes", "wheelchair": "limited"}}, {"type": "node", "id": 13293400552, "lat": 28.4956156, "lon": 77.0885331, "tags": {"amenity": "restaurant", "level": "0", "name": "Cafeteria & Co", "outdoor_seating": "yes", "wheelchair": "limited"}}, {"type": "node", "id": 13293400555, "lat": 28.4955579, "lon": 77.0885026, "tags": {"amenity": "restaurant", "brand": "Nando's", "brand:wikidata": "Q3472954", "cuisine": "chicken;portuguese", "level": "0", "name": "Nando's", "outdoor_seating": "yes", "wheelchair": "limited"}}, {"type": "node", "id": 13295285679, "lat": 28.4956427, "lon": 77.08891, "tags": {"amenity": "cafe", "brand": "Starbucks", "brand:wikidata": "Q37158", "cuisine": "coffee_shop", "level": "0", "name": "Starbucks", "official_name": "Starbucks Coffee", "outdoor_seating": "yes", "takeaway": "yes", "wheelchair": "limited"}}, {"type": "way", "id": 24501701, "nodes": [266436314, 266436315, 266436316, 266436317, 266436318, 266436492, 266436493, 266436319, 266436314], "tags": {"barrier": "wall", "leisure": "park", "name": "Leisure Valley Park", "tourism": "attraction"}}, {"type": "way", "id": 24636425, "nodes": [267805490, 267805492, 267805496, 267805498, 267805490], "tags": {"landuse": "grass", "leisure": "park"}}, {"type": "way", "id": 24636576, "nodes": [267807876, 267807877, 267807878, 2008318590, 267807879, 267807876], "tags": {"leisure": "park"}}, {"type": "way", "id": 24636578, "nodes": [267807888, 2008318596, 267807889, 267807890, 267807891, 11003294770, 11003294773, 11003294776, 267807888], "tags": {"barrier": "wall", "leisure": "park"}}, {"type": "way", "id": 24636579, "nodes": [267807892, 267807893, 267807894, 267807895, 267807892], "tags": {"created_by": "Potlatch 0.9c", "leisure": "park"}}, {"type": "way", "id": 24636597, "nodes": [267808398, 6093410303, 267808399, 267808400, 267808402, 267808403, 267808404, 267808398], "tags": {"leisure": "park", "name": "HUDA Garden"}}, {"type": "way", "id": 24636676, "nodes": [267810473, 267810474, 267810475, 267810476, 267810473], "tags": {"created_by": "Potlatch 0.9c", "leisure": "park"}}, {"type": "way", "id": 24636700, "nodes": [267810730, 267810731, 267810732, 267810733, 267810730], "tags": {"created_by": "Potlatch 0.9c", "leisure": "park"}}, {"type": "way", "id": 24636726, "nodes": [267810953, 267810954, 267810955, 267810956, 267810953], "tags": {"created_by": "Potlatch 0.9c", "leisure": "park"}}, {"type": "way", "id": 24636733, "nodes": [267810976, 267810977, 267810978, 267810979, 267810976], "tags": {"created_by": "Potlatch 0.9c", "leisure": "park"}}, {"type": "way", "id": 24636744, "nodes": [267811061, 267811062, 267811063, 6226753942, 6226753941, 267811064, 267811061], "tags": {"leisure": "park"}}, {"type": "way", "id": 24636745, "nodes": [267811065, 6226753934, 267811066, 6226753935, 267811067, 6226753936, 6226753937, 6226753940, 6226753938, 6226753939, 267811068, 267811065], "tags": {"leisure": "park"}}, {"type": "way", "id": 24636783, "nodes": [267811935, 267811936, 267811937, 267811938, 267811939, 267811940, 267812014, 267811941, 267811935], "tags": {"created_by": "Potlatch 0.9c", "leisure": "park"}}, {"type": "way", "id": 24636817, "nodes": [267812206, 267812207, 267812208, 267812209, 267812206], "tags": {"created_by": "Potlatch 0.9c", "leisure": "park"}}, {"type": "way", "id": 24636830, "nodes": [267812637, 267812638, 267812639, 267812640, 267812637], "tags": {"created_by": "Potlatch 0.9c", "leisure": "park"}}, {"type": "way", "id": 24672087, "nodes": [268159562, 268159563, 268159564, 268159565, 268159566, 268159562], "tags": {"created_by": "Potlatch 0.9c", "leisure": "park"}}, {"type": "way", "id": 24672091, "nodes": [268159573, 268159574, 268159575, 268159576, 268159573], "tags": {"created_by": "Potlatch 0.9c", "leisure": "park"}}, {"type": "way", "id": 24672094, "nodes": [268159609, 268159610, 268159611, 268159612, 268159609], "tags": {"created_by": "Potlatch 0.9c", "leisure": "park"}}, {"type": "way", "id": 24672095, "nodes": [268159613, 268159614, 268159615, 268159616, 268159617, 268159613], "tags": {"fixme": "Footpath and entrance to map", "leisure": "park"}}, {"type": "way", "id": 28534423, "nodes": [1987622230, 313444886, 313444887, 2331734340, 2331734338, 313444888, 2331734336, 1987622229, 1987622230], "tags": {"building": "yes", "check_date": "2025-02-23", "name": "Hotel Crowne Plaza", "tourism": "hotel"}}, {"type": "way", "id": 35538101, "nodes": [416361398, 556598827, 416361400, 416361401, 416361398], "tags": {"building": "yes", "landuse": "commercial", "name": "Galaxy Mall and Hotel", "tourism": "hotel"}}, {"type": "way", "id": 40102992, "nodes": [482664035, 482664036, 482664039, 2721766916, 482664035], "tags": {"addr:city": "Gurugram", "addr:district": "Haryana", "addr:housenumber": "B-BLOCK", "addr:postcode": "122002", "addr:street": "Sushant Lok Phase I, Sector 43,", "air_conditioning": "yes", "barrier": "wall", "brand": "Park Plaza", "brand:wikidata": "Q2052550", "building": "hotel", "check_date": "2025-02-23", "internet_access": "wlan", "internet_access:fee": "customers", "name": "Park Plaza", "name:en": "Park Plaza", "phone": "+91-0124 415 0000", "reservation": "yes", "stars": "3", "tourism": "hotel", "website": "https://www.radissonhotels.com/en-us/hotels/park-plaza-gurugram"}}, {"type": "way", "id": 43022515, "nodes": [538954269, 538954270, 538954271, 6321800520, 6321800519, 538954272, 538954269], "tags": {"brand": "Marriott", "brand:wikidata": "Q3918608", "building": "hotel", "building:levels": "4", "check_date": "2025-02-23", "internet_access": "wlan", "name": "Marriott Courtyard", "tourism": "hotel"}}, {"type": "way", "id": 44172143, "nodes": [561142338, 561142342, 561142341, 561142340, 561142338], "tags": {"building": "yes", "check_date": "2025-02-23", "name": "Lemon Tree", "tourism": "hotel"}}, {"type": "way", "id": 75437811, "nodes": [890710205, 890710209, 890710212, 890710218, 4055858029, 890710219, 890710205], "tags": {"air_conditioning": "yes", "bar": "yes", "barrier": "wall", "check_date": "2024-05-20", "internet_access": "wlan", "internet_access:fee": "customers", "landuse": "commercial", "name": "Westin", "name:en": "Westin", "payment:cash": "yes", "payment:credit_cards": "yes", "payment:debit_cards": "yes", "reservation": "yes", "smoking": "isolated", "tourism": "hotel", "wheelchair": "yes"}}, {"type": "way", "id": 120110600, "nodes": [1347506446, 1347506451, 1347506458, 1347506488, 1347506447, 1347506490, 1347506494, 1347506481, 1347506460, 1347506442, 1347506475, 1347506484, 1347506446], "tags": {"amenity": "restaurant", "building": "yes", "name": "Canteen"}}, {"type": "way", "id": 151814287, "nodes": [1646596555, 1646596554, 1646596551, 1646596553, 1646596555], "tags": {"tourism": "hotel"}}, {"type": "way", "id": 151814289, "nodes": [1646596552, 1646596550, 1646596548, 1646596549, 1646596552], "tags": {"check_date": "2025-02-23", "name": "The Pride Plaza", "tourism": "hotel"}}, {"type": "way", "id": 224881350, "nodes": [2337256390, 2337256410, 2337256381, 2337256399, 2337256390], "tags": {"tourism": "attraction"}}, {"type": "way", "id": 266156904, "nodes": [2717372041, 2717372057, 2717372060, 2717372088, 2717372041], "tags": {"leisure": "park"}}, {"type": "way", "id": 266156912, "nodes": [2717372049, 2717372059, 2717372075, 2717372069, 2717372049], "tags": {"leisure": "park"}}, {"type": "way", "id": 266639968, "nodes": [2721729384, 11949884713, 2721729470, 2721729412, 2721729335, 2721729401, 2721729384], "tags": {"air_conditioning": "yes", "building": "yes", "check_date": "2025-08-31", "currency:INR": "yes", "layer": "1", "name": "Gold Souk", "name:en": "Gold Souk", "payment:american_express": "yes", "payment:cash": "yes", "payment:coins": "yes", "payment:credit_cards": "yes", "payment:debit_cards": "yes", "payment:mastercard": "yes", "payment:notes": "yes", "payment:upi": "yes", "payment:visa": "yes", "shop": "mall", "stroller": "yes", "toilets": "yes", "tourism": "attraction", "wheelchair": "yes"}}, {"type": "way", "id": 349977983, "nodes": [3557536350, 3557536348, 13195267823, 3557536334, 3557536339, 13195267824, 3557536350], "tags": {"addr:street": "Sector 44", "building": "office", "roof:shape": "flat", "tourism": "hotel"}}, {"type": "way", "id": 378421813, "nodes": [3818332141, 3818332142, 3818332143, 3818332144, 3818332141], "tags": {"addr:city": "gurugram", "amenity": "restaurant", "building": "yes", "cuisine": "burger;regional;sandwich", "name": "Bikaner Sweet", "outdoor_seating": "no"}}, {"type": "way", "id": 414381107, "nodes": [4155363530, 4155363528, 4155363527, 4155363529, 4155363530], "tags": {"addr:city": "Gurgaon", "addr:district": "Gurgaon", "addr:housenumber": "#17", "addr:postcode": "122009", "addr:street": "Inside Lotus Villas", "air_conditioning": "yes", "amenity": "restaurant", "building": "yes", "cuisine": "barbecue;south_african;german;argentinian;african;burger;sandwich", "delivery": "yes", "diet:chicken": "yes", "diet:gluten_free": "yes", "diet:healthy": "yes", "diet:lactose_free": "yes", "diet:meat": "yes", "diet:mediterranean": "yes", "diet:non-vegetarian": "yes", "name": "BraaiCraft Smokehouse", "operator": "ELSH Ventures LLP", "phone": "+919980851233", "takeaway": "only", "website": "https://www.smokehousebybraaicraft.com/"}}, {"type": "way", "id": 418072718, "nodes": [4185282646, 4185282650, 4185282649, 4185282643, 4185282646], "tags": {"amenity": "restaurant"}}, {"type": "way", "id": 420981892, "nodes": [4206298300, 4206298304, 4206298303, 4206298293, 4206298300], "tags": {"landuse": "grass", "leisure": "park"}}, {"type": "way", "id": 423061730, "nodes": [4227740638, 4227740642, 4227740641, 4227740637, 4227740638], "tags": {"leisure": "park"}}, {"type": "way", "id": 423067661, "nodes": [4227780582, 4227780573, 4227780572, 4227780583, 4227780582], "tags": {"leisure": "park"}}, {"type": "way", "id": 423594856, "nodes": [4231666980, 4231666974, 4231666989, 4231666996, 4231666980], "tags": {"landuse": "grass", "leisure": "park"}}, {"type": "way", "id": 423594857, "nodes": [4231667023, 4231667021, 4231667024, 4231667025, 4231667023], "tags": {"landuse": "grass", "leisure": "park"}}, {"type": "way", "id": 423594858, "nodes": [4231667029, 4231667026, 4231667028, 4231667027, 4231667031, 4231667030, 11003294768, 4231667029], "tags": {"barrier": "wall", "leisure": "park"}}, {"type": "way", "id": 423734334, "nodes": [4233011877, 4233011875, 4233011878, 4233011879, 4233011877], "tags": {"landuse": "grass", "leisure": "park"}}, {"type": "way", "id": 423734335, "nodes": [4233011881, 4233011880, 5259829112, 4233011888, 4233011989, 4233011881], "tags": {"barrier": "wall", "leisure": "park", "name": "Silver Jubilee Park"}}, {"type": "way", "id": 423734336, "nodes": [4233011887, 4233011886, 4233011885, 11313863384, 4233011883, 4233011884, 4233011887], "tags": {"landuse": "grass", "leisure": "park"}}, {"type": "way", "id": 423734337, "nodes": [4233011870, 4233011867, 4233011869, 4233011868, 4233011874, 4233011876, 4233011870], "tags": {"landuse": "grass", "leisure": "park"}}, {"type": "way", "id": 423742697, "nodes": [4233066861, 4233066859, 4233066862, 4233066863, 4233066861], "tags": {"landuse": "grass", "leisure": "park"}}, {"type": "way", "id": 442956526, "nodes": [4406062010, 4406062011, 4406062012, 4406062013, 4406062010], "tags": {"leisure": "park"}}, {"type": "way", "id": 442957603, "nodes": [4406070159, 4406070160, 4406070161, 4406070162, 4406070159], "tags": {"leisure": "park"}}, {"type": "way", "id": 442957606, "nodes": [4406070167, 4406070168, 4406070169, 4146677513, 4406070167], "tags": {"leisure": "park"}}, {"type": "way", "id": 442969479, "nodes": [4406184917, 2720603876, 2720603931, 4406184918, 11013376372, 4406184917], "tags": {"leisure": "park"}}, {"type": "way", "id": 442969480, "nodes": [268159242, 1360855145, 10931500319, 4406184919, 268159242], "tags": {"leisure": "park"}}, {"type": "way", "id": 473960925, "nodes": [4679917395, 4679917396, 4679917397, 4679917398, 4679917399, 4679917400, 4679917401, 4679917395], "tags": {"leisure": "park"}}, {"type": "way", "id": 473960926, "nodes": [4679917402, 4679917403, 4679917404, 4679917405, 4679917402], "tags": {"leisure": "park"}}, {"type": "way", "id": 473960927, "nodes": [4679917406, 4679917407, 4679917408, 4679917409, 4679917406], "tags": {"leisure": "park"}}, {"type": "way", "id": 473960928, "nodes": [4679917410, 4679917411, 4679917412, 4679917413, 4679917410], "tags": {"leisure": "park"}}, {"type": "way", "id": 473960929, "nodes": [4679917414, 4679917415, 4679917416, 4679917417, 4679917414], "tags": {"addr:city": "gurgaon", "addr:housenumber": "1076420", "addr:postcode": "12001", "addr:street": "Mehrauli-Gurgaon Road", "leisure": "park", "opening_hours": "24/7"}}, {"type": "way", "id": 473960930, "nodes": [4679917418, 4679917419, 4679917420, 4679917421, 4679917418], "tags": {"leisure": "park"}}, {"type": "way", "id": 473960931, "nodes": [4679917422, 4679917423, 4679917424, 4679917425, 4679917422], "tags": {"leisure": "park"}}, {"type": "way", "id": 544127170, "nodes": [5259858043, 5259866490, 5259858044, 5259858045, 5259858046, 5259858043], "tags": {"barrier": "wall", "leisure": "park", "name": "Radha Krishna Park"}}, {"type": "way", "id": 742628572, "nodes": [6952063403, 6952063404, 6952063405, 2721690610, 2721690596, 2721690557, 7285132249, 2721690653, 12272827462, 9914374117, 2507510509, 6952063403], "tags": {"leisure": "park", "name": "samadhan hub park", "opening_hours": "24/7", "operator": "MCG"}}, {"type": "way", "id": 754941764, "nodes": [291486124, 6952063404, 6952063405, 7285132247, 3543888636, 7052402494, 2853336814, 2853336815, 2853336816, 7052402495, 6952063403, 291486124], "tags": {"dog": "yes", "leisure": "park", "name": "Warizabad Ecorestoration Park"}}, {"type": "way", "id": 754941765, "nodes": [13237235294, 7285089781, 11093572461, 2721729484, 2721729352, 7285132198, 7052402497, 7052402498, 4185041740, 4185041738, 2507510515, 13237235294], "tags": {"dog": "yes", "leisure": "park", "name": "Warizabad Ecorestoration Park"}}, {"type": "way", "id": 859812484, "nodes": [8014187229, 8014187230, 8014187231, 8014187232, 8014187229], "tags": {"leisure": "park"}}, {"type": "way", "id": 860021400, "nodes": [8015920995, 8015920996, 8015920997, 8015920998, 8015920999, 8015920995], "tags": {"leisure": "park"}}, {"type": "way", "id": 982039384, "nodes": [268159534, 268159535, 268159532, 268159533, 11024204503, 268159534], "tags": {"addr:city": "Gurgaon", "addr:postcode": "122001", "addr:street": "Sector 43", "dog": "no", "leisure": "park", "name": "Gulab Park", "opening_hours": "sunrise-sunset", "opening_hours:covid19": "restricted", "smoking": "no"}}, {"type": "way", "id": 982040103, "nodes": [9082433344, 9082433345, 3543399658, 9082433346, 9082433344], "tags": {"addr:city": "Gurgaon", "addr:postcode": "122001", "addr:street": "Sector 43", "building": "yes", "check_date": "2024-05-26", "internet_access": "yes", "internet_access:fee": "customers", "name": "Raj\u2019s Haveli", "name:en": "Raj\u2019s Haveli", "tourism": "apartment"}}, {"type": "way", "id": 1108051690, "nodes": [10138598065, 10138598066, 10138598067, 10138598068, 10138598069, 10138598065], "tags": {"leisure": "park"}}, {"type": "way", "id": 1195171935, "nodes": [11092830712, 11092830713, 11092830714, 11092830715, 11092830716, 11092830717, 11092830712], "tags": {"leisure": "park"}}, {"type": "way", "id": 1217686711, "nodes": [11282712564, 11282712565, 11282712566, 11282712567, 11282712564], "tags": {"leisure": "park"}}, {"type": "way", "id": 1220968499, "nodes": [11313818155, 11313818156, 11313818157, 11313818158, 11313818155], "tags": {"leisure": "park"}}, {"type": "way", "id": 1220968628, "nodes": [11313842258, 11313842259, 11313842260, 11313842261, 11313842258], "tags": {"leisure": "park"}}, {"type": "way", "id": 1220968972, "nodes": [11313859732, 11313859733, 11313859734, 11313859735, 11313859732], "tags": {"leisure": "park"}}, {"type": "way", "id": 1220969274, "nodes": [11313861022, 11313861023, 11313861024, 11313861025, 11313861022], "tags": {"leisure": "park"}}, {"type": "way", "id": 1224672242, "nodes": [12712157084, 11357405970, 11357405971, 11357405972, 11357405973, 11357405974, 11357405975, 1648252024, 12712157084], "tags": {"addr:city": "DLF CITY, Phase 2", "addr:district": "Gurgaon", "addr:housenumber": "8-9", "addr:postcode": "122002", "addr:street": "Gulmohar Marg Extention", "leisure": "park", "name": "Gulmohar Marg Park"}}, {"type": "way", "id": 1236528030, "nodes": [11481660764, 11481660765, 11481660766, 1376471728, 11481660767, 11481660764], "tags": {"addr:city": "DLF City, Phase-2", "addr:district": "Gurugram", "addr:postcode": "122002", "addr:street": "M1", "amenity": "cafe", "building": "yes", "cuisine": "indian;chinese;muglai;burger;pizza;italian", "internet_access": "yes", "internet_access:fee": "no", "layer": "1", "name": "\u0926: NUKKAD", "opening_hours": "Mo-Su 08:00-22:00", "outdoor_seating": "yes", "phone": "+919821261643", "website": "https://"}}, {"type": "way", "id": 1271124852, "nodes": [11804515670, 11804515671, 11804515672, 11804515673, 11804515670], "tags": {"leisure": "park"}}, {"type": "way", "id": 1305388327, "nodes": [12090296901, 12090296889, 12090296896, 12090296897, 12090296890, 12090296902, 12090296895, 12090296901], "tags": {"access": "yes", "leisure": "park", "noname": "yes", "operator": "Powergrid"}}, {"type": "way", "id": 1422826989, "nodes": [13075859791, 13075859792, 13075859793, 13075859794, 13075859795, 13075859796, 13075859797, 13075859798, 13075859799, 13075859791], "tags": {"leisure": "park"}}, {"type": "way", "id": 1422826990, "nodes": [13075859800, 13075885201, 13075885202, 13075885203, 13075885204, 13075885205, 13075859800], "tags": {"leisure": "park"}}, {"type": "way", "id": 1422826991, "nodes": [13075885206, 13075885207, 13075885208, 13075885209, 13075885206], "tags": {"leisure": "park"}}, {"type": "way", "id": 1423287504, "nodes": [13081609063, 13081609064, 13081609065, 13081609063], "tags": {"leisure": "park"}}, {"type": "way", "id": 1427641008, "nodes": [13124474408, 13124474409, 13124474410, 13124474411, 13124474408], "tags": {"leisure": "park"}}, {"type": "way", "id": 1433746741, "nodes": [13176742252, 13176742251, 13176742253, 13176742250, 13176742252], "tags": {"leisure": "park"}}, {"type": "way", "id": 1433748812, "nodes": [13176759748, 13176759744, 13176759747, 13176759746, 13176759748], "tags": {"air_conditioning": "yes", "amenity": "restaurant", "bar": "yes", "contact:mobile": "+91-73997-99799", "cuisine": "chinese;japanese;sushi", "level": "0", "name": "Oishii Wok", "wheelchair": "no"}}, {"type": "node", "id": 267807876, "lat": 28.4503454, "lon": 77.038929}, {"type": "node", "id": 267807877, "lat": 28.4498926, "lon": 77.0394783}, {"type": "node", "id": 267807878, "lat": 28.4519361, "lon": 77.0413689}, {"type": "node", "id": 2008318590, "lat": 28.4521448, "lon": 77.041406}, {"type": "node", "id": 4233011867, "lat": 28.4518684, "lon": 77.0433307}, {"type": "node", "id": 4233011868, "lat": 28.4519769, "lon": 77.043615}, {"type": "node", "id": 4233011869, "lat": 28.4520524, "lon": 77.0434702}, {"type": "node", "id": 4233011870, "lat": 28.4523118, "lon": 77.0427621}, {"type": "node", "id": 267807879, "lat": 28.4525641, "lon": 77.0409632}, {"type": "node", "id": 267807888, "lat": 28.4529908, "lon": 77.0411992}, {"type": "node", "id": 267807889, "lat": 28.4526971, "lon": 77.042036}, {"type": "node", "id": 2008318596, "lat": 28.4524944, "lon": 77.0418463}, {"type": "node", "id": 4206298293, "lat": 28.4581103, "lon": 77.0413541}, {"type": "node", "id": 4206298300, "lat": 28.4585347, "lon": 77.0418879}, {"type": "node", "id": 4206298303, "lat": 28.4589686, "lon": 77.0410993}, {"type": "node", "id": 4231666974, "lat": 28.4542119, "lon": 77.0413445}, {"type": "node", "id": 4231666980, "lat": 28.4543864, "lon": 77.0411045}, {"type": "node", "id": 4231666989, "lat": 28.4545716, "lon": 77.0416647}, {"type": "node", "id": 4231666996, "lat": 28.4547342, "lon": 77.0414394}, {"type": "node", "id": 4231667021, "lat": 28.4569226, "lon": 77.0401147}, {"type": "node", "id": 4231667023, "lat": 28.4571018, "lon": 77.0398733}, {"type": "node", "id": 4231667024, "lat": 28.4571443, "lon": 77.0403454}, {"type": "node", "id": 4231667025, "lat": 28.4573235, "lon": 77.0400879}, {"type": "node", "id": 11003294773, "lat": 28.454636, "lon": 77.042792}, {"type": "node", "id": 11003294776, "lat": 28.4540651, "lon": 77.0422393}, {"type": "node", "id": 4233066859, "lat": 28.4505199, "lon": 77.0510118}, {"type": "node", "id": 4233066861, "lat": 28.4507241, "lon": 77.0507272}, {"type": "node", "id": 4233066862, "lat": 28.4509517, "lon": 77.0514246}, {"type": "node", "id": 4233066863, "lat": 28.4511486, "lon": 77.0511524}, {"type": "node", "id": 267807890, "lat": 28.4576228, "lon": 77.0467796}, {"type": "node", "id": 267807891, "lat": 28.4581317, "lon": 77.0461767}, {"type": "node", "id": 267807894, "lat": 28.4588125, "lon": 77.0460694}, {"type": "node", "id": 4185282643, "lat": 28.4556894, "lon": 77.0474305}, {"type": "node", "id": 4185282646, "lat": 28.4557406, "lon": 77.047361}, {"type": "node", "id": 4185282649, "lat": 28.4558146, "lon": 77.0475502}, {"type": "node", "id": 4185282650, "lat": 28.4558659, "lon": 77.0474807}, {"type": "node", "id": 4231667026, "lat": 28.4578104, "lon": 77.0465688}, {"type": "node", "id": 4231667027, "lat": 28.4581689, "lon": 77.0473896}, {"type": "node", "id": 4231667028, "lat": 28.4583528, "lon": 77.0471026}, {"type": "node", "id": 4231667029, "lat": 28.4581359, "lon": 77.0461799}, {"type": "node", "id": 4233011874, "lat": 28.453788, "lon": 77.0453048}, {"type": "node", "id": 4233011875, "lat": 28.4538965, "lon": 77.0454443}, {"type": "node", "id": 4233011876, "lat": 28.4542738, "lon": 77.0446504}, {"type": "node", "id": 4233011877, "lat": 28.4543917, "lon": 77.0447898}, {"type": "node", "id": 4233011878, "lat": 28.4548256, "lon": 77.0463455}, {"type": "node", "id": 4233011879, "lat": 28.4553209, "lon": 77.045616}, {"type": "node", "id": 4233011880, "lat": 28.455651, "lon": 77.0471234}, {"type": "node", "id": 4233011881, "lat": 28.4561556, "lon": 77.0464367}, {"type": "node", "id": 5259829112, "lat": 28.4577784, "lon": 77.0490965}, {"type": "node", "id": 5259858043, "lat": 28.4554162, "lon": 77.0483557}, {"type": "node", "id": 5259858044, "lat": 28.4559806, "lon": 77.0489122}, {"type": "node", "id": 5259858045, "lat": 28.455825, "lon": 77.0491511}, {"type": "node", "id": 5259858046, "lat": 28.4552509, "lon": 77.048599}, {"type": "node", "id": 5259866490, "lat": 28.4556206, "lon": 77.0485576}, {"type": "node", "id": 11003294770, "lat": 28.4576409, "lon": 77.0457014}, {"type": "node", "id": 267805490, "lat": 28.4551108, "lon": 77.0524209}, {"type": "node", "id": 267805492, "lat": 28.455657, "lon": 77.0529406}, {"type": "node", "id": 267805496, "lat": 28.4561395, "lon": 77.0522963}, {"type": "node", "id": 267805498, "lat": 28.4556061, "lon": 77.0517679}, {"type": "node", "id": 4233011883, "lat": 28.4564581, "lon": 77.0551433}, {"type": "node", "id": 4233011884, "lat": 28.4564367, "lon": 77.0552553}, {"type": "node", "id": 4233011885, "lat": 28.4566455, "lon": 77.0546715}, {"type": "node", "id": 4233011886, "lat": 28.4570062, "lon": 77.0534818}, {"type": "node", "id": 4233011887, "lat": 28.457429, "lon": 77.0538906}, {"type": "node", "id": 11313863384, "lat": 28.4565551, "lon": 77.0549355}, {"type": "node", "id": 4406062010, "lat": 28.4512044, "lon": 77.0583049}, {"type": "node", "id": 4406062013, "lat": 28.4512128, "lon": 77.0585822}, {"type": "node", "id": 4406070159, "lat": 28.4500021, "lon": 77.0613936}, {"type": "node", "id": 4406070160, "lat": 28.4507252, "lon": 77.0621491}, {"type": "node", "id": 4406070161, "lat": 28.4506159, "lon": 77.0623021}, {"type": "node", "id": 4406070162, "lat": 28.449876, "lon": 77.0615753}, {"type": "node", "id": 4227780573, "lat": 28.4536284, "lon": 77.0633771}, {"type": "node", "id": 4227780582, "lat": 28.4546919, "lon": 77.0633529}, {"type": "node", "id": 4227780583, "lat": 28.4547108, "lon": 77.0637284}, {"type": "node", "id": 4406062011, "lat": 28.4525749, "lon": 77.0596914}, {"type": "node", "id": 4406062012, "lat": 28.4524908, "lon": 77.0598158}, {"type": "node", "id": 3557536334, "lat": 28.4552846, "lon": 77.0701417}, {"type": "node", "id": 3557536339, "lat": 28.4554713, "lon": 77.0698672}, {"type": "node", "id": 4146677513, "lat": 28.4536384, "lon": 77.0653278}, {"type": "node", "id": 4227740637, "lat": 28.4527791, "lon": 77.069388}, {"type": "node", "id": 4227740638, "lat": 28.4531706, "lon": 77.0688945}, {"type": "node", "id": 4227780572, "lat": 28.4535718, "lon": 77.0638143}, {"type": "node", "id": 4406070167, "lat": 28.4526458, "lon": 77.0643668}, {"type": "node", "id": 4406070168, "lat": 28.4525235, "lon": 77.0646166}, {"type": "node", "id": 4406070169, "lat": 28.4534605, "lon": 77.0655636}, {"type": "node", "id": 13195267824, "lat": 28.4557774, "lon": 77.0701578}, {"type": "node", "id": 4206298304, "lat": 28.4592752, "lon": 77.0416679}, {"type": "node", "id": 4679917395, "lat": 28.4632764, "lon": 77.0434921}, {"type": "node", "id": 4679917396, "lat": 28.463159, "lon": 77.0437217}, {"type": "node", "id": 4679917397, "lat": 28.46089, "lon": 77.04188}, {"type": "node", "id": 4679917398, "lat": 28.4608671, "lon": 77.0417872}, {"type": "node", "id": 4679917399, "lat": 28.4609401, "lon": 77.041709}, {"type": "node", "id": 4679917400, "lat": 28.4619752, "lon": 77.0424467}, {"type": "node", "id": 4679917401, "lat": 28.4629071, "lon": 77.0431957}, {"type": "node", "id": 4679917406, "lat": 28.4633781, "lon": 77.0435702}, {"type": "node", "id": 4679917407, "lat": 28.4632621, "lon": 77.0437852}, {"type": "node", "id": 4679917414, "lat": 28.4635991, "lon": 77.0430663}, {"type": "node", "id": 4679917415, "lat": 28.4633528, "lon": 77.0434082}, {"type": "node", "id": 4679917416, "lat": 28.4628976, "lon": 77.0430614}, {"type": "node", "id": 4679917417, "lat": 28.4632068, "lon": 77.0426429}, {"type": "node", "id": 4679917418, "lat": 28.4641459, "lon": 77.041845}, {"type": "node", "id": 4679917419, "lat": 28.4639083, "lon": 77.0421918}, {"type": "node", "id": 4679917420, "lat": 28.4636034, "lon": 77.0418906}, {"type": "node", "id": 4679917421, "lat": 28.463841, "lon": 77.0415437}, {"type": "node", "id": 4679917422, "lat": 28.4634831, "lon": 77.0424524}, {"type": "node", "id": 4679917423, "lat": 28.46334, "lon": 77.0426266}, {"type": "node", "id": 4679917424, "lat": 28.4631295, "lon": 77.0424247}, {"type": "node", "id": 4679917425, "lat": 28.4632541, "lon": 77.0421886}, {"type": "node", "id": 267807892, "lat": 28.4595761, "lon": 77.0462576}, {"type": "node", "id": 267807893, "lat": 28.4593337, "lon": 77.0465786}, {"type": "node", "id": 267807895, "lat": 28.459055, "lon": 77.0457484}, {"type": "node", "id": 416361398, "lat": 28.4632923, "lon": 77.0486774}, {"type": "node", "id": 416361400, "lat": 28.4624315, "lon": 77.0491528}, {"type": "node", "id": 416361401, "lat": 28.463001, "lon": 77.0491393}, {"type": "node", "id": 556598827, "lat": 28.4624232, "lon": 77.0486978}, {"type": "node", "id": 4231667030, "lat": 28.460343, "lon": 77.0482371}, {"type": "node", "id": 4231667031, "lat": 28.4604138, "lon": 77.0494951}, {"type": "node", "id": 4233011888, "lat": 28.4590384, "lon": 77.0502651}, {"type": "node", "id": 4233011989, "lat": 28.4595397, "lon": 77.0496287}, {"type": "node", "id": 4679917402, "lat": 28.4632106, "lon": 77.044614}, {"type": "node", "id": 4679917403, "lat": 28.4638376, "lon": 77.04521}, {"type": "node", "id": 4679917404, "lat": 28.46361, "lon": 77.0455292}, {"type": "node", "id": 4679917405, "lat": 28.4629744, "lon": 77.0449104}, {"type": "node", "id": 4679917408, "lat": 28.4641525, "lon": 77.0445587}, {"type": "node", "id": 4679917409, "lat": 28.464247, "lon": 77.0444382}, {"type": "node", "id": 4679917410, "lat": 28.4633124, "lon": 77.0459578}, {"type": "node", "id": 4679917411, "lat": 28.4630877, "lon": 77.0462981}, {"type": "node", "id": 4679917412, "lat": 28.4629459, "lon": 77.0461776}, {"type": "node", "id": 4679917413, "lat": 28.4631721, "lon": 77.0458275}, {"type": "node", "id": 11003294768, "lat": 28.4599417, "lon": 77.0478631}, {"type": "node", "id": 8015920995, "lat": 28.4619478, "lon": 77.0541395}, {"type": "node", "id": 8015920999, "lat": 28.4605458, "lon": 77.0542147}, {"type": "node", "id": 267812206, "lat": 28.4714702, "lon": 77.0446855}, {"type": "node", "id": 267812207, "lat": 28.4718852, "lon": 77.0449259}, {"type": "node", "id": 267812208, "lat": 28.471523, "lon": 77.0456383}, {"type": "node", "id": 267812209, "lat": 28.4711231, "lon": 77.0453808}, {"type": "node", "id": 8015920996, "lat": 28.4620076, "lon": 77.0608331}, {"type": "node", "id": 8015920997, "lat": 28.4605194, "lon": 77.0606103}, {"type": "node", "id": 8015920998, "lat": 28.4605189, "lon": 77.0576351}, {"type": "node", "id": 561142338, "lat": 28.4650987, "lon": 77.0646838}, {"type": "node", "id": 561142340, "lat": 28.4648875, "lon": 77.0644778}, {"type": "node", "id": 561142341, "lat": 28.4647667, "lon": 77.0646237}, {"type": "node", "id": 561142342, "lat": 28.4649629, "lon": 77.0648297}, {"type": "node", "id": 1646596548, "lat": 28.4642998, "lon": 77.0641725}, {"type": "node", "id": 1646596549, "lat": 28.4644206, "lon": 77.0640266}, {"type": "node", "id": 1646596550, "lat": 28.464496, "lon": 77.0643785}, {"type": "node", "id": 1646596551, "lat": 28.4645279, "lon": 77.064428}, {"type": "node", "id": 1646596552, "lat": 28.4646318, "lon": 77.0642326}, {"type": "node", "id": 1646596553, "lat": 28.4646487, "lon": 77.0642821}, {"type": "node", "id": 1646596554, "lat": 28.4647241, "lon": 77.064634}, {"type": "node", "id": 1646596555, "lat": 28.4648599, "lon": 77.0644881}, {"type": "node", "id": 266436317, "lat": 28.4701345, "lon": 77.0629772}, {"type": "node", "id": 313444886, "lat": 28.4682477, "lon": 77.0600921}, {"type": "node", "id": 313444887, "lat": 28.4687095, "lon": 77.0597092}, {"type": "node", "id": 313444888, "lat": 28.4682659, "lon": 77.0598099}, {"type": "node", "id": 1987622229, "lat": 28.4678938, "lon": 77.0594796}, {"type": "node", "id": 1987622230, "lat": 28.4678944, "lon": 77.0596364}, {"type": "node", "id": 2331734336, "lat": 28.4679733, "lon": 77.0594122}, {"type": "node", "id": 2331734338, "lat": 28.4685693, "lon": 77.0595319}, {"type": "node", "id": 2331734340, "lat": 28.4686211, "lon": 77.059599}, {"type": "node", "id": 266436314, "lat": 28.4713976, "lon": 77.0670805}, {"type": "node", "id": 266436315, "lat": 28.4696996, "lon": 77.0649769}, {"type": "node", "id": 266436316, "lat": 28.4708113, "lon": 77.0638157}, {"type": "node", "id": 266436318, "lat": 28.4669958, "lon": 77.0662558}, {"type": "node", "id": 266436319, "lat": 28.4693707, "lon": 77.0691978}, {"type": "node", "id": 266436492, "lat": 28.4680543, "lon": 77.0675684}, {"type": "node", "id": 266436493, "lat": 28.468484, "lon": 77.068098}, {"type": "node", "id": 2337256381, "lat": 28.4682658, "lon": 77.0682473}, {"type": "node", "id": 2337256390, "lat": 28.4682355, "lon": 77.0680304}, {"type": "node", "id": 2337256399, "lat": 28.4683437, "lon": 77.0681682}, {"type": "node", "id": 2337256410, "lat": 28.4681576, "lon": 77.0681095}, {"type": "node", "id": 8014187232, "lat": 28.4699218, "lon": 77.0693338}, {"type": "node", "id": 267811935, "lat": 28.4764531, "lon": 77.0471258}, {"type": "node", "id": 267811936, "lat": 28.4770944, "lon": 77.0482502}, {"type": "node", "id": 267811937, "lat": 28.4774716, "lon": 77.0479584}, {"type": "node", "id": 267811938, "lat": 28.4773358, "lon": 77.0477266}, {"type": "node", "id": 267811939, "lat": 28.4775923, "lon": 77.0475121}, {"type": "node", "id": 267811940, "lat": 28.4772528, "lon": 77.0471859}, {"type": "node", "id": 267811941, "lat": 28.4767171, "lon": 77.0468168}, {"type": "node", "id": 267812014, "lat": 28.4767481, "lon": 77.0468381}, {"type": "node", "id": 267812637, "lat": 28.4752157, "lon": 77.0471773}, {"type": "node", "id": 267812638, "lat": 28.4748461, "lon": 77.0474777}, {"type": "node", "id": 267812639, "lat": 28.4744764, "lon": 77.0467567}, {"type": "node", "id": 267812640, "lat": 28.4747555, "lon": 77.046525}, {"type": "node", "id": 267808398, "lat": 28.4730881, "lon": 77.0539829}, {"type": "node", "id": 267808399, "lat": 28.4735193, "lon": 77.0547414}, {"type": "node", "id": 267808400, "lat": 28.4736775, "lon": 77.0548171}, {"type": "node", "id": 267808402, "lat": 28.4764783, "lon": 77.0524218}, {"type": "node", "id": 267808403, "lat": 28.4760381, "lon": 77.0517255}, {"type": "node", "id": 267808404, "lat": 28.4738425, "lon": 77.0536052}, {"type": "node", "id": 267810473, "lat": 28.4768454, "lon": 77.0552282}, {"type": "node", "id": 267810474, "lat": 28.4772603, "lon": 77.0560436}, {"type": "node", "id": 267810475, "lat": 28.4776979, "lon": 77.0557604}, {"type": "node", "id": 267810476, "lat": 28.4770038, "lon": 77.0551166}, {"type": "node", "id": 267810730, "lat": 28.4741218, "lon": 77.0556145}, {"type": "node", "id": 267810731, "lat": 28.4739689, "lon": 77.0554503}, {"type": "node", "id": 267810732, "lat": 28.4753855, "lon": 77.0543549}, {"type": "node", "id": 267810733, "lat": 28.4755024, "lon": 77.0545587}, {"type": "node", "id": 6093410303, "lat": 28.4733454, "lon": 77.0545633}, {"type": "node", "id": 267810976, "lat": 28.4786787, "lon": 77.0684547}, {"type": "node", "id": 267811061, "lat": 28.4757973, "lon": 77.0647592}, {"type": "node", "id": 267811062, "lat": 28.4763995, "lon": 77.0655719}, {"type": "node", "id": 267811063, "lat": 28.4766248, "lon": 77.0655372}, {"type": "node", "id": 267811064, "lat": 28.4766002, "lon": 77.0648827}, {"type": "node", "id": 267811065, "lat": 28.4767041, "lon": 77.0655807}, {"type": "node", "id": 267811066, "lat": 28.4762926, "lon": 77.0656267}, {"type": "node", "id": 267811067, "lat": 28.4764331, "lon": 77.0660587}, {"type": "node", "id": 267811068, "lat": 28.476753, "lon": 77.0656971}, {"type": "node", "id": 890710205, "lat": 28.4769525, "lon": 77.0695377}, {"type": "node", "id": 890710209, "lat": 28.4763428, "lon": 77.07013}, {"type": "node", "id": 890710219, "lat": 28.4772902, "lon": 77.0697317}, {"type": "node", "id": 6226753934, "lat": 28.4763321, "lon": 77.0656615}, {"type": "node", "id": 6226753935, "lat": 28.4762087, "lon": 77.0657558}, {"type": "node", "id": 6226753936, "lat": 28.4763666, "lon": 77.0661242}, {"type": "node", "id": 6226753937, "lat": 28.4764769, "lon": 77.0661663}, {"type": "node", "id": 6226753938, "lat": 28.476725, "lon": 77.066023}, {"type": "node", "id": 6226753939, "lat": 28.4767757, "lon": 77.0658548}, {"type": "node", "id": 6226753940, "lat": 28.4765872, "lon": 77.0661364}, {"type": "node", "id": 6226753941, "lat": 28.4766577, "lon": 77.0651816}, {"type": "node", "id": 6226753942, "lat": 28.4766706, "lon": 77.0654054}, {"type": "node", "id": 8014187229, "lat": 28.4727103, "lon": 77.0662585}, {"type": "node", "id": 8014187230, "lat": 28.4755308, "lon": 77.0699484}, {"type": "node", "id": 267810953, "lat": 28.4806596, "lon": 77.0669821}, {"type": "node", "id": 267810954, "lat": 28.4803201, "lon": 77.066694}, {"type": "node", "id": 267810955, "lat": 28.4808554, "lon": 77.0659651}, {"type": "node", "id": 267810956, "lat": 28.4811521, "lon": 77.0662121}, {"type": "node", "id": 267810977, "lat": 28.4791766, "lon": 77.0690212}, {"type": "node", "id": 267810978, "lat": 28.4794332, "lon": 77.0686951}, {"type": "node", "id": 267810979, "lat": 28.4788598, "lon": 77.0681887}, {"type": "node", "id": 3818332141, "lat": 28.4888899, "lon": 77.056023}, {"type": "node", "id": 3818332142, "lat": 28.488763, "lon": 77.0559258}, {"type": "node", "id": 3818332143, "lat": 28.4887144, "lon": 77.0560078}, {"type": "node", "id": 3818332144, "lat": 28.4888413, "lon": 77.0561051}, {"type": "node", "id": 1347506442, "lat": 28.4952715, "lon": 77.0646318}, {"type": "node", "id": 1347506446, "lat": 28.4957963, "lon": 77.0641325}, {"type": "node", "id": 1347506447, "lat": 28.495533, "lon": 77.0646866}, {"type": "node", "id": 1347506451, "lat": 28.4958015, "lon": 77.0646261}, {"type": "node", "id": 1347506458, "lat": 28.4955581, "lon": 77.0646287}, {"type": "node", "id": 1347506460, "lat": 28.4952728, "lon": 77.0646912}, {"type": "node", "id": 1347506475, "lat": 28.4950152, "lon": 77.0646345}, {"type": "node", "id": 1347506481, "lat": 28.4953028, "lon": 77.0646907}, {"type": "node", "id": 1347506484, "lat": 28.495002, "lon": 77.0641486}, {"type": "node", "id": 1347506488, "lat": 28.4955596, "lon": 77.0646861}, {"type": "node", "id": 1347506490, "lat": 28.495489, "lon": 77.0646874}, {"type": "node", "id": 1347506494, "lat": 28.495343, "lon": 77.06469}, {"type": "node", "id": 13081609063, "lat": 28.4514989, "lon": 77.0756349}, {"type": "node", "id": 13081609064, "lat": 28.4507122, "lon": 77.0756907}, {"type": "node", "id": 13081609065, "lat": 28.4507405, "lon": 77.0761949}, {"type": "node", "id": 2721729335, "lat": 28.4510036, "lon": 77.0792252}, {"type": "node", "id": 2721729384, "lat": 28.4504919, "lon": 77.0781359}, {"type": "node", "id": 2721729401, "lat": 28.4510159, "lon": 77.0781464}, {"type": "node", "id": 2721729412, "lat": 28.4506711, "lon": 77.0793003}, {"type": "node", "id": 2721729470, "lat": 28.450473, "lon": 77.0788926}, {"type": "node", "id": 11949884713, "lat": 28.4504817, "lon": 77.0785434}, {"type": "node", "id": 268159609, "lat": 28.4556771, "lon": 77.0759063}, {"type": "node", "id": 268159610, "lat": 28.4563487, "lon": 77.0758805}, {"type": "node", "id": 268159611, "lat": 28.4563563, "lon": 77.0764556}, {"type": "node", "id": 268159612, "lat": 28.4556771, "lon": 77.076447}, {"type": "node", "id": 3557536348, "lat": 28.4558317, "lon": 77.0706997}, {"type": "node", "id": 3557536350, "lat": 28.4560527, "lon": 77.0703623}, {"type": "node", "id": 4227740641, "lat": 28.4545006, "lon": 77.0710402}, {"type": "node", "id": 4227740642, "lat": 28.4548968, "lon": 77.0705145}, {"type": "node", "id": 12090296889, "lat": 28.4548292, "lon": 77.0744258}, {"type": "node", "id": 12090296890, "lat": 28.4568116, "lon": 77.0746515}, {"type": "node", "id": 12090296895, "lat": 28.454886, "lon": 77.0747271}, {"type": "node", "id": 12090296896, "lat": 28.4580531, "lon": 77.074353}, {"type": "node", "id": 12090296897, "lat": 28.4586209, "lon": 77.0745804}, {"type": "node", "id": 12090296901, "lat": 28.454834, "lon": 77.0747291}, {"type": "node", "id": 12090296902, "lat": 28.4556782, "lon": 77.074696}, {"type": "node", "id": 13195267823, "lat": 28.4555164, "lon": 77.0703767}, {"type": "node", "id": 268159532, "lat": 28.4547262, "lon": 77.0818219}, {"type": "node", "id": 268159533, "lat": 28.4546509, "lon": 77.0814252}, {"type": "node", "id": 268159534, "lat": 28.4556847, "lon": 77.0812192}, {"type": "node", "id": 268159535, "lat": 28.4557375, "lon": 77.0815969}, {"type": "node", "id": 3543399658, "lat": 28.4546347, "lon": 77.0824861}, {"type": "node", "id": 9082433344, "lat": 28.4547645, "lon": 77.0823647}, {"type": "node", "id": 9082433345, "lat": 28.4547801, "lon": 77.0824609}, {"type": "node", "id": 9082433346, "lat": 28.4546098, "lon": 77.0823947}, {"type": "node", "id": 11024204503, "lat": 28.4550063, "lon": 77.0813544}, {"type": "node", "id": 11804515670, "lat": 28.4544251, "lon": 77.0781506}, {"type": "node", "id": 11804515671, "lat": 28.4544449, "lon": 77.0784401}, {"type": "node", "id": 11804515672, "lat": 28.455328, "lon": 77.0782742}, {"type": "node", "id": 11804515673, "lat": 28.4553225, "lon": 77.0781606}, {"type": "node", "id": 268159562, "lat": 28.4586729, "lon": 77.0840087}, {"type": "node", "id": 268159563, "lat": 28.4587106, "lon": 77.0842404}, {"type": "node", "id": 268159564, "lat": 28.4574806, "lon": 77.0845151}, {"type": "node", "id": 268159565, "lat": 28.4573222, "lon": 77.0844293}, {"type": "node", "id": 268159566, "lat": 28.4572995, "lon": 77.0843005}, {"type": "node", "id": 268159573, "lat": 28.4556071, "lon": 77.0857231}, {"type": "node", "id": 268159574, "lat": 28.4554788, "lon": 77.0857231}, {"type": "node", "id": 268159575, "lat": 28.4552223, "lon": 77.0861866}, {"type": "node", "id": 268159576, "lat": 28.4556298, "lon": 77.0863926}, {"type": "node", "id": 291486124, "lat": 28.4561653, "lon": 77.0893497}, {"type": "node", "id": 2507510509, "lat": 28.4561295, "lon": 77.0897942}, {"type": "node", "id": 2507510515, "lat": 28.4542073, "lon": 77.0897032}, {"type": "node", "id": 2721690557, "lat": 28.4549914, "lon": 77.0888167}, {"type": "node", "id": 2721690596, "lat": 28.4552178, "lon": 77.0881408}, {"type": "node", "id": 2721690610, "lat": 28.45568, "lon": 77.0883929}, {"type": "node", "id": 2721690653, "lat": 28.4547226, "lon": 77.0887041}, {"type": "node", "id": 2721729352, "lat": 28.4535883, "lon": 77.0888154}, {"type": "node", "id": 2721729484, "lat": 28.4540338, "lon": 77.0886022}, {"type": "node", "id": 2853336814, "lat": 28.4545685, "lon": 77.0891249}, {"type": "node", "id": 2853336815, "lat": 28.4546473, "lon": 77.0894384}, {"type": "node", "id": 2853336816, "lat": 28.4549511, "lon": 77.089592}, {"type": "node", "id": 3543888636, "lat": 28.4545592, "lon": 77.0887962}, {"type": "node", "id": 4185041738, "lat": 28.453772, "lon": 77.0896423}, {"type": "node", "id": 4185041740, "lat": 28.4538277, "lon": 77.0894864}, {"type": "node", "id": 6952063403, "lat": 28.4561649, "lon": 77.0894047}, {"type": "node", "id": 6952063404, "lat": 28.4559657, "lon": 77.0893282}, {"type": "node", "id": 6952063405, "lat": 28.455513, "lon": 77.0890397}, {"type": "node", "id": 7052402494, "lat": 28.4544924, "lon": 77.0890578}, {"type": "node", "id": 7052402495, "lat": 28.4561631, "lon": 77.089619}, {"type": "node", "id": 7052402497, "lat": 28.4536025, "lon": 77.088998}, {"type": "node", "id": 7052402498, "lat": 28.4537709, "lon": 77.0894366}, {"type": "node", "id": 7285089781, "lat": 28.4544475, "lon": 77.0887521}, {"type": "node", "id": 7285132198, "lat": 28.4535953, "lon": 77.0889053}, {"type": "node", "id": 7285132247, "lat": 28.4548239, "lon": 77.0888638}, {"type": "node", "id": 7285132249, "lat": 28.454841, "lon": 77.0887537}, {"type": "node", "id": 11093572461, "lat": 28.4543099, "lon": 77.0887042}, {"type": "node", "id": 12272827462, "lat": 28.4546219, "lon": 77.0887153}, {"type": "node", "id": 13237235294, "lat": 28.4545592, "lon": 77.0887962}, {"type": "node", "id": 9914374117, "lat": 28.4543183, "lon": 77.0903156}, {"type": "node", "id": 268159613, "lat": 28.4628683, "lon": 77.0751681}, {"type": "node", "id": 268159614, "lat": 28.4628683, "lon": 77.075666}, {"type": "node", "id": 268159615, "lat": 28.4614724, "lon": 77.075666}, {"type": "node", "id": 268159616, "lat": 28.4614573, "lon": 77.0753398}, {"type": "node", "id": 268159617, "lat": 28.4619629, "lon": 77.0753055}, {"type": "node", "id": 482664035, "lat": 28.459324, "lon": 77.075433}, {"type": "node", "id": 482664036, "lat": 28.4596385, "lon": 77.075418}, {"type": "node", "id": 482664039, "lat": 28.4596668, "lon": 77.0760642}, {"type": "node", "id": 2721766916, "lat": 28.4594893, "lon": 77.0760701}, {"type": "node", "id": 268159242, "lat": 28.464942, "lon": 77.0832202}, {"type": "node", "id": 538954269, "lat": 28.4607947, "lon": 77.0807546}, {"type": "node", "id": 538954270, "lat": 28.4605103, "lon": 77.0802149}, {"type": "node", "id": 538954271, "lat": 28.4613801, "lon": 77.0802163}, {"type": "node", "id": 538954272, "lat": 28.4614321, "lon": 77.0807417}, {"type": "node", "id": 6321800519, "lat": 28.4614269, "lon": 77.0804057}, {"type": "node", "id": 6321800520, "lat": 28.4613825, "lon": 77.0804066}, {"type": "node", "id": 8014187231, "lat": 28.471081, "lon": 77.0708234}, {"type": "node", "id": 13075885202, "lat": 28.4715768, "lon": 77.0740261}, {"type": "node", "id": 13075885203, "lat": 28.4715725, "lon": 77.0740746}, {"type": "node", "id": 13075885204, "lat": 28.4713914, "lon": 77.074077}, {"type": "node", "id": 13075885205, "lat": 28.4713935, "lon": 77.0738661}, {"type": "node", "id": 1360855145, "lat": 28.4644122, "lon": 77.0836431}, {"type": "node", "id": 2720603876, "lat": 28.464999, "lon": 77.0868051}, {"type": "node", "id": 2720603931, "lat": 28.4655366, "lon": 77.0867568}, {"type": "node", "id": 4406184917, "lat": 28.4645588, "lon": 77.0864957}, {"type": "node", "id": 4406184918, "lat": 28.465549, "lon": 77.0866215}, {"type": "node", "id": 4406184919, "lat": 28.4651999, "lon": 77.083688}, {"type": "node", "id": 10931500319, "lat": 28.4646566, "lon": 77.0839505}, {"type": "node", "id": 11013376372, "lat": 28.4650487, "lon": 77.0863976}, {"type": "node", "id": 11282712564, "lat": 28.4639627, "lon": 77.0898215}, {"type": "node", "id": 11282712565, "lat": 28.4636758, "lon": 77.0899272}, {"type": "node", "id": 13124474408, "lat": 28.462165, "lon": 77.0861737}, {"type": "node", "id": 13124474409, "lat": 28.4619085, "lon": 77.0863247}, {"type": "node", "id": 13124474410, "lat": 28.4620805, "lon": 77.0867026}, {"type": "node", "id": 13124474411, "lat": 28.462337, "lon": 77.0865515}, {"type": "node", "id": 13176759744, "lat": 28.4614701, "lon": 77.0886704}, {"type": "node", "id": 13176759746, "lat": 28.4614711, "lon": 77.0887933}, {"type": "node", "id": 13176759747, "lat": 28.4614415, "lon": 77.0887836}, {"type": "node", "id": 13176759748, "lat": 28.4614997, "lon": 77.0886801}, {"type": "node", "id": 11282712566, "lat": 28.4637422, "lon": 77.0903246}, {"type": "node", "id": 11282712567, "lat": 28.4640411, "lon": 77.0902657}, {"type": "node", "id": 4155363527, "lat": 28.4698489, "lon": 77.0859124}, {"type": "node", "id": 4155363528, "lat": 28.4698704, "lon": 77.0859258}, {"type": "node", "id": 4155363529, "lat": 28.4698848, "lon": 77.0858306}, {"type": "node", "id": 4155363530, "lat": 28.4699064, "lon": 77.0858447}, {"type": "node", "id": 11092830712, "lat": 28.4707053, "lon": 77.0875291}, {"type": "node", "id": 11092830713, "lat": 28.470407, "lon": 77.0878035}, {"type": "node", "id": 11092830714, "lat": 28.4707524, "lon": 77.0886885}, {"type": "node", "id": 11092830715, "lat": 28.4713805, "lon": 77.0881705}, {"type": "node", "id": 11092830716, "lat": 28.4713805, "lon": 77.0880975}, {"type": "node", "id": 11092830717, "lat": 28.4713448, "lon": 77.0880309}, {"type": "node", "id": 13176742251, "lat": 28.4668526, "lon": 77.0898069}, {"type": "node", "id": 13176742252, "lat": 28.4671531, "lon": 77.0897511}, {"type": "node", "id": 13176742250, "lat": 28.4671567, "lon": 77.0901892}, {"type": "node", "id": 13176742253, "lat": 28.4669131, "lon": 77.0902324}, {"type": "node", "id": 890710212, "lat": 28.4766416, "lon": 77.0714896}, {"type": "node", "id": 890710218, "lat": 28.4775972, "lon": 77.0713371}, {"type": "node", "id": 4055858029, "lat": 28.4775293, "lon": 77.070947}, {"type": "node", "id": 13075859791, "lat": 28.4740685, "lon": 77.0742354}, {"type": "node", "id": 13075859792, "lat": 28.4740903, "lon": 77.0747942}, {"type": "node", "id": 13075859793, "lat": 28.4735208, "lon": 77.0748273}, {"type": "node", "id": 13075859794, "lat": 28.4735263, "lon": 77.0744506}, {"type": "node", "id": 13075859795, "lat": 28.4735063, "lon": 77.074432}, {"type": "node", "id": 13075859796, "lat": 28.4734571, "lon": 77.0744299}, {"type": "node", "id": 13075859797, "lat": 28.473448, "lon": 77.0742995}, {"type": "node", "id": 13075859798, "lat": 28.473479, "lon": 77.0743161}, {"type": "node", "id": 13075859799, "lat": 28.4735427, "lon": 77.0743223}, {"type": "node", "id": 13075859800, "lat": 28.4721564, "lon": 77.0737691}, {"type": "node", "id": 13075885201, "lat": 28.4721543, "lon": 77.0740285}, {"type": "node", "id": 11313818155, "lat": 28.4731317, "lon": 77.0771196}, {"type": "node", "id": 11313818156, "lat": 28.4726059, "lon": 77.0771269}, {"type": "node", "id": 11313818157, "lat": 28.4726107, "lon": 77.0776501}, {"type": "node", "id": 11313818158, "lat": 28.4731317, "lon": 77.077619}, {"type": "node", "id": 11313842258, "lat": 28.4733528, "lon": 77.0818266}, {"type": "node", "id": 11313842259, "lat": 28.4732842, "lon": 77.0819953}, {"type": "node", "id": 11313842260, "lat": 28.4737007, "lon": 77.0822483}, {"type": "node", "id": 11313842261, "lat": 28.4737872, "lon": 77.0820698}, {"type": "node", "id": 11313859732, "lat": 28.4748515, "lon": 77.0794406}, {"type": "node", "id": 11313859733, "lat": 28.4746423, "lon": 77.0794046}, {"type": "node", "id": 11313859734, "lat": 28.4745245, "lon": 77.0797426}, {"type": "node", "id": 11313859735, "lat": 28.4747011, "lon": 77.0798456}, {"type": "node", "id": 11313861022, "lat": 28.4742828, "lon": 77.0804803}, {"type": "node", "id": 11313861023, "lat": 28.4740763, "lon": 77.0809564}, {"type": "node", "id": 11313861024, "lat": 28.4742683, "lon": 77.0810626}, {"type": "node", "id": 11313861025, "lat": 28.4744704, "lon": 77.0805906}, {"type": "node", "id": 13075885206, "lat": 28.4740944, "lon": 77.0769633}, {"type": "node", "id": 13075885207, "lat": 28.4740944, "lon": 77.0775567}, {"type": "node", "id": 13075885208, "lat": 28.4734979, "lon": 77.0775595}, {"type": "node", "id": 13075885209, "lat": 28.4734991, "lon": 77.0769682}, {"type": "node", "id": 1648252024, "lat": 28.4811373, "lon": 77.0741658}, {"type": "node", "id": 11357405970, "lat": 28.4813888, "lon": 77.073682}, {"type": "node", "id": 11357405971, "lat": 28.4810192, "lon": 77.0737173}, {"type": "node", "id": 11357405972, "lat": 28.4810331, "lon": 77.0733278}, {"type": "node", "id": 11357405973, "lat": 28.4809738, "lon": 77.0733016}, {"type": "node", "id": 11357405974, "lat": 28.480642, "lon": 77.073721}, {"type": "node", "id": 11357405975, "lat": 28.481124, "lon": 77.0741716}, {"type": "node", "id": 12712157084, "lat": 28.4814593, "lon": 77.0737522}, {"type": "node", "id": 2717372041, "lat": 28.4750832, "lon": 77.0897888}, {"type": "node", "id": 2717372049, "lat": 28.4754321, "lon": 77.0886087}, {"type": "node", "id": 2717372057, "lat": 28.4749842, "lon": 77.0899873}, {"type": "node", "id": 2717372059, "lat": 28.4753143, "lon": 77.0885658}, {"type": "node", "id": 2717372069, "lat": 28.4750973, "lon": 77.0893812}, {"type": "node", "id": 2717372075, "lat": 28.4749969, "lon": 77.0893227}, {"type": "node", "id": 10138598066, "lat": 28.477145, "lon": 77.0899842}, {"type": "node", "id": 2717372060, "lat": 28.4753708, "lon": 77.0902877}, {"type": "node", "id": 2717372088, "lat": 28.475484, "lon": 77.090041}, {"type": "node", "id": 10138598065, "lat": 28.477471, "lon": 77.0900813}, {"type": "node", "id": 10138598067, "lat": 28.4765726, "lon": 77.0912315}, {"type": "node", "id": 10138598068, "lat": 28.4769614, "lon": 77.0915284}, {"type": "node", "id": 10138598069, "lat": 28.4771886, "lon": 77.09086}, {"type": "node", "id": 1376471728, "lat": 28.4901355, "lon": 77.0828744}, {"type": "node", "id": 11481660764, "lat": 28.4903233, "lon": 77.0826501}, {"type": "node", "id": 11481660765, "lat": 28.4904033, "lon": 77.0827284}, {"type": "node", "id": 11481660766, "lat": 28.4904409, "lon": 77.0831709}, {"type": "node", "id": 11481660767, "lat": 28.4902203, "lon": 77.0827731}]}