{"version": 0.6, "generator": "Overpass API 0.7.62.8 e802775f", "osm3s": {"timestamp_osm_base": "2025-11-22T14:26:00Z", "copyright": "The data included in this document is from www.openstreetmap.org. The data is made available under ODbL."}, "elements": [{"type": "node", "id": 438040050, "lat": 28.5431492, "lon": 77.1195279, "tags": {"brand": "Radisson Blu", "brand:wikidata": "Q7281341", "name": "Radisson Blu Plaza Delhi Airport", "operator": "Radisson", "tourism": "hotel"}}, {"type": "node", "id": 821201866, "lat": 28.5426758, "lon": 77.1190259, "tags": {"name": "Vishal Residency Hotel", "tourism": "hotel"}}, {"type": "node", "id": 1582385446, "lat": 28.5384129, "lon": 77.1328702, "tags": {"amenity": "restaurant", "cuisine": "regional"}}, {"type": "node", "id": 1801156437, "lat": 28.5058141, "lon": 77.0962567, "tags": {"name": "The Leela", "opening_hours": "24/7", "source": "local knowledge", "tourism": "hotel", "website": "https://www.theleela.com/"}}, {"type": "node", "id": 2008756209, "lat": 28.5391092, "lon": 77.1322417, "tags": {"amenity": "cafe", "name": "Cheela Cafe"}}, {"type": "node", "id": 2511126226, "lat": 28.5273495, "lon": 77.1005457, "tags": {"name": "the umbro", "source:name": "survey", "tourism": "hotel"}}, {"type": "node", "id": 2654012113, "lat": 28.5466864, "lon": 77.1264606, "tags": {"name": "Airport City", "tourism": "hotel"}}, {"type": "node", "id": 4505472993, "lat": 28.5492941, "lon": 77.1285424, "tags": {"addr:city": "Mahipalpur Extn,New Delh,India", "addr:housenumber": "A-74", "addr:postcode": "110037", "addr:street": "Road No. 4, A-Block", "email": "info@hotelarch.co.in", "internet_access": "wlan", "internet_access:fee": "no", "name": "Hotel Arch", "name:en": "Hotel Arch", "phone": "7290099602", "rooms": "50", "stars": "3", "tourism": "hotel", "website": "https://www.hotelarch.co.in/"}}, {"type": "node", "id": 4690513890, "lat": 28.5472586, "lon": 77.1261787, "tags": {"name": "hotel Anupam palace", "name:en": "hotel Anupam palace", "name:hi": "Delhi hotel", "tourism": "hotel"}}, {"type": "node", "id": 4895711068, "lat": 28.525761, "lon": 77.091328, "tags": {"name": "Atrio A Boutique Hotel", "tourism": "hotel"}}, {"type": "node", "id": 5306242322, "lat": 28.5491265, "lon": 77.1275375, "tags": {"internet_access": "wlan", "name": "Shanti Palace", "opening_hours": "24/7", "tourism": "hotel"}}, {"type": "node", "id": 5351323421, "lat": 28.549904, "lon": 77.1284921, "tags": {"addr:housenumber": "A-78", "addr:street": "Highway No 8", "name": "International Inn", "phone": "+919811388666", "tourism": "hotel"}}, {"type": "node", "id": 5699933523, "lat": 28.5484213, "lon": 77.127785, "tags": {"name": "Hotel asian", "tourism": "hostel"}}, {"type": "node", "id": 5874697788, "lat": 28.5440968, "lon": 77.1284557, "tags": {"name": "Kelvish hotel", "tourism": "guest_house"}}, {"type": "node", "id": 5993580494, "lat": 28.5496346, "lon": 77.1293556, "tags": {"amenity": "restaurant", "cuisine": "indian", "name": "very good restaurant and no expensive", "name:fr": "resto excellent et pas cher", "opening_hours": "Mo-Su 11:00-21:00"}}, {"type": "node", "id": 6261321485, "lat": 28.5491998, "lon": 77.1289083, "tags": {"internet_access": "wlan", "name": "Hotel CityLite 2019", "tourism": "hotel"}}, {"type": "node", "id": 6267340051, "lat": 28.5255432, "lon": 77.0988151, "tags": {"addr:place": "Samalkha", "addr:street": "National Highway 48", "email": "info@theumrao.com", "name": "The Umrao", "phone": "+91-11-4770-7070", "tourism": "hotel", "website": "https://theumrao.com/"}}, {"type": "node", "id": 6311067879, "lat": 28.5478153, "lon": 77.1260083, "tags": {"alcohol": "yes", "amenity": "restaurant", "check_date": "2019-02-23", "name": "Classic Diplomat"}}, {"type": "node", "id": 6311069095, "lat": 28.5476869, "lon": 77.1258178, "tags": {"amenity": "restaurant", "check_date": "2019-02-23", "name": "Metropolitan Express", "tourism": "hotel"}}, {"type": "node", "id": 6324610190, "lat": 28.5476848, "lon": 77.1256073, "tags": {"addr:postcode": "110037", "email": "mairporthotel@gmail.com", "internet_access": "wlan", "name": "Airport Hotell Metropolitan Express", "name:en": "Metropolitan Express", "phone": "+919953355999", "tourism": "hotel"}}, {"type": "node", "id": 6444603685, "lat": 28.5441879, "lon": 77.1283964, "tags": {"name": "Gracious Oyo 38425", "tourism": "hotel"}}, {"type": "node", "id": 6481797785, "lat": 28.5494408, "lon": 77.1298413, "tags": {"name": "fab", "name:en": "Aries", "tourism": "hotel"}}, {"type": "node", "id": 6705210685, "lat": 28.5448901, "lon": 77.1232405, "tags": {"name": "H\u00f4tel viva palace", "tourism": "hotel"}}, {"type": "node", "id": 6901871085, "lat": 28.5397285, "lon": 77.1173562, "tags": {"name": "Hotel Delhi Aerocity (Purple Orchid)", "tourism": "hotel"}}, {"type": "node", "id": 6964176786, "lat": 28.5470823, "lon": 77.1259791, "tags": {"name": "Continental Plaza or Daya Continental", "tourism": "hotel"}}, {"type": "node", "id": 9910771017, "lat": 28.5255891, "lon": 77.1333929, "tags": {"tourism": "guest_house"}}, {"type": "node", "id": 9910772517, "lat": 28.5255167, "lon": 77.133225, "tags": {"name": "Jerry House", "phone": "+919711364052", "tourism": "hotel"}}, {"type": "node", "id": 10223622517, "lat": 28.5427905, "lon": 77.1283298, "tags": {"name": "Dev Residency", "tourism": "hotel"}}, {"type": "node", "id": 10223877817, "lat": 28.5434693, "lon": 77.1242076, "tags": {"addr:housenumber": "#2", "addr:postcode": "110037", "addr:street": "Mahipalpur", "amenity": "restaurant", "cuisine": "breakfast;burger;coffee_shop;indian;pizza", "name": "Pizza O\u2019bello", "phone": "+919205418659", "website": "https://pizzaobello.com/"}}, {"type": "node", "id": 10970131905, "lat": 28.5457525, "lon": 77.1230261, "tags": {"amenity": "restaurant", "name": "Satya Om Pure Veg"}}, {"type": "node", "id": 11688160087, "lat": 28.5139659, "lon": 77.1305507, "tags": {"amenity": "restaurant", "name": "House Of pie"}}, {"type": "node", "id": 11688160129, "lat": 28.5155598, "lon": 77.1040658, "tags": {"name": "Kailash Hotal", "tourism": "motel"}}, {"type": "node", "id": 11688160131, "lat": 28.517384, "lon": 77.1028755, "tags": {"amenity": "restaurant", "name": "Manish Dhaba"}}, {"type": "node", "id": 11688160145, "lat": 28.5160926, "lon": 77.1038287, "tags": {"amenity": "restaurant", "name": "Delhi-38"}}, {"type": "node", "id": 11688160146, "lat": 28.515916, "lon": 77.1035991, "tags": {"name": "Yes & No Art Gallery", "tourism": "gallery"}}, {"type": "node", "id": 11688160152, "lat": 28.5171772, "lon": 77.1039853, "tags": {"name": "Pradhan Apartments", "tourism": "apartment"}}, {"type": "node", "id": 11688160153, "lat": 28.516863, "lon": 77.104348, "tags": {"name": "Megha Apartments", "tourism": "apartment"}}, {"type": "node", "id": 11688160156, "lat": 28.517168, "lon": 77.104763, "tags": {"name": "Deep Apartment", "tourism": "apartment"}}, {"type": "node", "id": 11688160157, "lat": 28.5168515, "lon": 77.1048021, "tags": {"name": "Rao Apartment", "tourism": "apartment"}}, {"type": "node", "id": 11688160171, "lat": 28.5157879, "lon": 77.1077945, "tags": {"amenity": "restaurant", "cuisine": "pizza", "name": "The Pizza Club"}}, {"type": "node", "id": 11688160173, "lat": 28.5164925, "lon": 77.1083002, "tags": {"amenity": "restaurant", "name": "The Punjabi's Kitchen"}}, {"type": "node", "id": 11694035169, "lat": 28.5144387, "lon": 77.1098178, "tags": {"amenity": "restaurant", "name": "Mukesh Family Friendly restaurant"}}, {"type": "node", "id": 11882034340, "lat": 28.5463554, "lon": 77.1239908, "tags": {"name": "Hotel Portview", "tourism": "hotel"}}, {"type": "node", "id": 12584379622, "lat": 28.5182189, "lon": 77.1022216, "tags": {"name": "Air Force Station Rajokri", "tourism": "guest_house"}}, {"type": "node", "id": 12595995301, "lat": 28.5371949, "lon": 77.1156343, "tags": {"addr:postcode": "110076", "addr:street": "Delhi-Gurugram Expressway", "email": "hotelgrandregency932@gmail.com", "internet_access": "wlan", "name": "\u0939\u094b\u091f\u0932 \u0917\u094d\u0930\u093e\u0928\u094d\u0921 \u0930\u093f\u091c\u0947\u0928\u094d\u0938\u0940 (\u092e\u0939\u093f\u092a\u093e\u0932\u092a\u0941\u0930)", "name:en": "Hotel Grand Regency (Mahipalpur)", "opening_hours": "24/7", "phone": "+91 9319366279;+91 7303566279", "self_service": "no", "tourism": "hotel"}}, {"type": "node", "id": 12645300903, "lat": 28.5488852, "lon": 77.1298864, "tags": {"name": "Olive hotel", "tourism": "hotel"}}, {"type": "node", "id": 13039150406, "lat": 28.5003672, "lon": 77.0922239, "tags": {"artwork_type": "statue", "name": "Mahatma Gandhi", "tourism": "artwork"}}, {"type": "node", "id": 13165169272, "lat": 28.5474511, "lon": 77.1268211, "tags": {"name": "Dream World", "tourism": "hotel"}}, {"type": "node", "id": 13165188907, "lat": 28.5466624, "lon": 77.1274254, "tags": {"amenity": "restaurant", "cuisine": "indian", "name": "M. Keerthana South Indian Restaurant"}}, {"type": "node", "id": 13296605614, "lat": 28.5028947, "lon": 77.0970544, "tags": {"amenity": "restaurant", "level": "4", "name": "Breaking Brew"}}, {"type": "node", "id": 13296605616, "lat": 28.5025851, "lon": 77.097066, "tags": {"amenity": "restaurant", "brand": "Barbeque Nation", "cuisine": "barbecue", "level": "4", "name": "Barbeque Nation"}}, {"type": "node", "id": 13296605617, "lat": 28.5027784, "lon": 77.0970553, "tags": {"amenity": "restaurant", "diet:vegetarian": "only", "level": "4", "name": "Indus Flavour"}}, {"type": "node", "id": 13296605620, "lat": 28.503173, "lon": 77.0971048, "tags": {"amenity": "restaurant", "level": "4", "name": "Punjabi By Nature", "note": "closed for renovation"}}, {"type": "node", "id": 13296605622, "lat": 28.5030176, "lon": 77.0970667, "tags": {"amenity": "restaurant", "level": "4", "name": "Themis Barbeque House"}}, {"type": "node", "id": 13296605625, "lat": 28.503105, "lon": 77.097088, "tags": {"amenity": "restaurant", "diet:vegetarian": "only", "level": "4", "name": "Manbhavan"}}, {"type": "node", "id": 13296673490, "lat": 28.5037879, "lon": 77.0970667, "tags": {"amenity": "restaurant", "brand": "Pizza Hut", "cuisine": "pizza", "level": "3", "name": "Pizza Hut"}}, {"type": "node", "id": 13296673492, "lat": 28.5025524, "lon": 77.0976567, "tags": {"amenity": "restaurant", "level": "3", "name": "Jamie Oliver Kitchen"}}, {"type": "node", "id": 13296673493, "lat": 28.5040986, "lon": 77.0970203, "tags": {"amenity": "restaurant", "level": "3", "name": "In The Punjab"}}, {"type": "node", "id": 13296673497, "lat": 28.5036914, "lon": 77.0970911, "tags": {"amenity": "restaurant", "level": "3", "name": "Spezia Bistro"}}, {"type": "node", "id": 13296673498, "lat": 28.5031004, "lon": 77.0975969, "tags": {"amenity": "restaurant", "level": "3", "name": "YouMee"}}, {"type": "node", "id": 13296673499, "lat": 28.502709, "lon": 77.0976396, "tags": {"amenity": "restaurant", "level": "3", "name": "Sagar Ratna"}}, {"type": "node", "id": 13296680501, "lat": 28.5027873, "lon": 77.0976311, "tags": {"amenity": "restaurant", "level": "3", "name": "Swagat Restro Bar"}}, {"type": "node", "id": 13296680504, "lat": 28.5031787, "lon": 77.0975883, "tags": {"amenity": "restaurant", "brand": "Punjab Grill", "cuisine": "north_indian", "delivery": "yes", "level": "3", "name": "Punjab Grill", "takeaway": "yes"}}, {"type": "node", "id": 13296680505, "lat": 28.5024962, "lon": 77.0970399, "tags": {"amenity": "restaurant", "brand": "Nando's", "cuisine": "chicken;portuguese", "level": "3", "name": "Nando's"}}, {"type": "node", "id": 13296680507, "lat": 28.5040033, "lon": 77.09703, "tags": {"amenity": "restaurant", "level": "3", "name": "Andrea's Eatery"}}, {"type": "node", "id": 13296680509, "lat": 28.5044188, "lon": 77.0969981, "tags": {"amenity": "restaurant", "level": "3", "name": "Cafe Delhi Heights"}}, {"type": "node", "id": 13296680510, "lat": 28.5041904, "lon": 77.0970107, "tags": {"amenity": "restaurant", "level": "3", "name": "Mamagoto"}}, {"type": "node", "id": 13296680514, "lat": 28.5030221, "lon": 77.0976054, "tags": {"amenity": "restaurant", "level": "3", "name": "Daryaganj"}}, {"type": "node", "id": 13296680516, "lat": 28.5029439, "lon": 77.097614, "tags": {"amenity": "restaurant", "level": "3", "name": "Shalom Cafe"}}, {"type": "node", "id": 13296680517, "lat": 28.5026307, "lon": 77.0976482, "tags": {"amenity": "restaurant", "brand": "TGI Fridays", "cuisine": "american", "level": "3", "name": "TGI Fridays"}}, {"type": "node", "id": 13296680520, "lat": 28.5026487, "lon": 77.0970522, "tags": {"amenity": "restaurant", "level": "3", "name": "Gola Sizzlers"}}, {"type": "node", "id": 13296680521, "lat": 28.5028013, "lon": 77.0970644, "tags": {"amenity": "restaurant", "diet:vegetarian": "only", "level": "3", "name": "Zambar"}}, {"type": "node", "id": 13296680523, "lat": 28.5043058, "lon": 77.097005, "tags": {"amenity": "restaurant", "level": "3", "name": "Dhaba"}}, {"type": "node", "id": 13296680525, "lat": 28.50245, "lon": 77.0975801, "tags": {"amenity": "restaurant", "brand": "Chili's", "cuisine": "tex-mex", "level": "3", "name": "Chili's", "official_name": "Chili's Grill & Bar"}}, {"type": "node", "id": 13296680526, "lat": 28.5028656, "lon": 77.0976225, "tags": {"amenity": "restaurant", "brand": "PizzaExpress", "cuisine": "pizza", "level": "3", "name": "PizzaExpress"}}, {"type": "node", "id": 13296721120, "lat": 28.5032258, "lon": 77.0973346, "tags": {"amenity": "cafe", "brand": "Barista", "cuisine": "coffee_shop", "level": "2", "name": "Barista", "takeaway": "yes"}}, {"type": "way", "id": 51419124, "nodes": [656396233, 10991370101, 656396238, 1800474389, 1800474299, 1800474309, 1800474266, 656396240, 10991370096, 10991370097, 656396250, 656396255, 1800474372, 656396285, 656396293, 656396299, 656396305, 10991370095, 656396314, 656396321, 1800474312, 1800474379, 1800474369, 656396328, 656396338, 656396344, 656396350, 656396361, 656396370, 1800474387, 656396379, 656396392, 1800474410, 1800474413, 656396401, 10991370102, 656396411, 10991370094, 10991370093, 656396233], "tags": {"building": "yes", "name": "Centaur Hotel", "tourism": "hotel"}}, {"type": "way", "id": 128836890, "nodes": [1422672282, 1422672246, 1422672254, 1422672274, 1422672245, 1422672282], "tags": {"amenity": "place_of_worship", "denomination": "sufi", "historic": "monument", "name": "Sultan Garhi Tomb", "opening_hours": "10:00-18:00", "place_of_worship": "shrine", "religion": "muslim"}}, {"type": "way", "id": 190342551, "nodes": [2009601954, 2009601938, 2009601893, 2009601906, 2009601917, 2009601927, 2009601929, 2009601931, 2009601925, 2009601950, 2009601948, 2009601952, 2009601954], "tags": {"leisure": "park"}}, {"type": "way", "id": 190342552, "nodes": [2009602317, 2009602323, 2009602319, 2009602321, 2009631873, 2009602313, 2009602315, 2009602317], "tags": {"amenity": "place_of_worship", "leisure": "park", "religion": "hindu"}}, {"type": "way", "id": 190345949, "nodes": [2009631873, 2009602321, 2009631889, 2009631897, 2009631887, 2009631871, 2009631873], "tags": {"addr:city": "New Delhi", "addr:postcode": "110037", "check_date": "2025-01-20", "email": "info@deemarks.com", "name": "DeeMarks", "phone": "+91 11 25060720", "tourism": "hotel", "website": "https://www.deemarks.com/"}}, {"type": "way", "id": 190358332, "nodes": [2009753147, 2009753156, 2009753154, 2009753159, 2009753158, 2009753150, 2009753152, 2009753142, 2009753147], "tags": {"name": "Mapple Emerald Hotel", "tourism": "hotel", "website": "https://www.mapplehotels.com/city-newdelhi/overview"}}, {"type": "way", "id": 267003268, "nodes": [2724843231, 2724843281, 2724843312, 2724843365, 2724843356, 2724843270, 2724843393, 2724843232, 2724843231], "tags": {"leisure": "park"}}, {"type": "way", "id": 505667468, "nodes": [4955499915, 4955499914, 4955499913, 4955499912, 4955499911, 4955499910, 4955499909, 4955499908, 4955499907, 4955499906, 4955499905, 4955499904, 4955499915], "tags": {"brand": "Holiday Inn", "brand:wikidata": "Q2717882", "brand:wikipedia": "en:Holiday Inn", "building": "yes", "name": "Holiday Inn New Delhi Int'l Airport", "tourism": "hotel"}}, {"type": "way", "id": 673905190, "nodes": [3838673058, 3838673059, 6311069105, 6311069104, 3838673058], "tags": {"amenity": "restaurant", "building": "yes", "check_date": "2019-02-23", "name": "Le Seasons", "tourism": "hotel"}}, {"type": "way", "id": 758379945, "nodes": [9868138233, 9868138234, 1191281980, 7082528227, 9868138233], "tags": {"leisure": "park", "name": "Chaupal Chowk"}}, {"type": "way", "id": 758582430, "nodes": [9867712789, 9867712790, 9867712791, 9867712788, 9867712789], "tags": {"leisure": "park"}}, {"type": "way", "id": 758583845, "nodes": [9869577688, 7084710782, 7084744487, 7084744488, 4211841398, 9869501931, 9869577688], "tags": {"leisure": "park"}}, {"type": "way", "id": 1126657144, "nodes": [10302152361, 10302152360, 10302152359, 10302152358, 10302152361], "tags": {"artwork_subject": "Shiva", "artwork_type": "statue", "height": "65'", "tourism": "artwork"}}, {"type": "way", "id": 1183594102, "nodes": [10991370098, 10991370099, 10991370100, 10991370101, 656396233, 10991370093, 10991370094, 656396411, 10991370102, 10991370103, 10991370104, 10991389105, 10991370098], "tags": {"building": "yes", "tourism": "hotel"}}, {"type": "way", "id": 1211582154, "nodes": [4153357609, 9864919062, 11224896976, 9916409393, 11224896975, 4153357612, 4153357609], "tags": {"addr:city": "Delhi", "addr:full": "Plot No 9, National Highway - 8, Samalka, New Delhi, India, 110037", "addr:street": "Samalkha", "brand": "Four Points by Sheraton", "brand:wikidata": "Q1439966", "name": "Four Points by Sheraton", "phone": "+91 11-45740000", "short_name": "Four Points", "tourism": "hotel", "website": "https://www.marriott.com/en-us/hotels/delfn-four-points-new-delhi-airport-highway/overview/", "wikimedia_commons": "File:Four Points hotel, Delhi.jpg"}}, {"type": "way", "id": 1257188599, "nodes": [11688160072, 11688160073, 11688160074, 11688160075, 11688160072], "tags": {"leisure": "park", "name": "Vijay Singh Park"}}, {"type": "way", "id": 1257188610, "nodes": [11688160190, 11688160191, 11688160192, 11688160193, 11688160194, 11688160190], "tags": {"amenity": "marketplace", "name": "Shani Bazaar & Mangal Bazaar"}}, {"type": "way", "id": 1362333174, "nodes": [12613103384, 12613103385, 12613103386, 12613103387, 12613103388, 12613103389, 12613103390, 12613103391, 12613103392, 12613103398, 12613103384], "tags": {"addr:city": "Delhi", "addr:district": "Samalkha", "addr:street": "NH-8", "barrier": "fence", "name": "The Roseate Hotel New Delhi", "tourism": "hotel", "website": "https://www.roseatehotels.com/newdelhi/theroseate/"}}, {"type": "way", "id": 1362333177, "nodes": [12613116801, 12613116818, 12613116802, 12613116803, 12613116804, 12613116805, 12613116806, 12613116801], "tags": {"amenity": "restaurant", "building": "yes"}}, {"type": "way", "id": 1420164521, "nodes": [13049915252, 13049915253, 13049915254, 13049915255, 13049915256, 13049915257, 13049915252], "tags": {"leisure": "park"}}, {"type": "way", "id": 1430856186, "nodes": [13152748596, 13152748750, 13152748815, 13152748597, 13152748598, 13152748599, 13152748600, 13152748601, 13152748602, 13152748603, 13152748604, 13152748605, 13152748606, 13152748607, 13152748608, 13152748682, 13152748609, 13152748610, 13152748611, 13152748612, 13152748613, 13152748614, 13152748615, 13152748616, 13152748617, 13152748618, 13152748619, 13152748620, 13152748621, 13152748622, 13152748623, 13152748624, 13152748625, 13152748626, 13152748627, 13152748628, 13152748629, 13152748630, 13152748631, 13152748632, 13152748633, 13152748634, 13152748635, 13152748636, 13152748637, 13152748638, 13152748639, 13152748640, 13152748641, 13152748642, 13152748643, 13152748644, 13152748645, 13152748646, 13152748647, 13152748648, 13152748649, 13152748650, 13152748651, 13152748652, 13152748653, 13152748654, 13152748655, 13152748656, 13152748596], "tags": {"leisure": "park"}}, {"type": "node", "id": 13049915252, "lat": 28.500616, "lon": 77.0928383}, {"type": "node", "id": 13049915253, "lat": 28.5009005, "lon": 77.093093}, {"type": "node", "id": 13049915254, "lat": 28.5010288, "lon": 77.0929097}, {"type": "node", "id": 13049915255, "lat": 28.5008297, "lon": 77.0927205}, {"type": "node", "id": 13049915256, "lat": 28.5008964, "lon": 77.0926201}, {"type": "node", "id": 13049915257, "lat": 28.5008071, "lon": 77.0925372}, {"type": "node", "id": 2724843231, "lat": 28.4997283, "lon": 77.0975487}, {"type": "node", "id": 2724843232, "lat": 28.5001384, "lon": 77.0978705}, {"type": "node", "id": 2724843270, "lat": 28.4997707, "lon": 77.0980636}, {"type": "node", "id": 2724843281, "lat": 28.4988184, "lon": 77.0990132}, {"type": "node", "id": 2724843312, "lat": 28.4991626, "lon": 77.0992975}, {"type": "node", "id": 2724843356, "lat": 28.499601, "lon": 77.0983748}, {"type": "node", "id": 2724843365, "lat": 28.4997142, "lon": 77.0985143}, {"type": "node", "id": 2724843393, "lat": 28.499931, "lon": 77.0981548}, {"type": "node", "id": 9916409393, "lat": 28.5300524, "lon": 77.0962559}, {"type": "node", "id": 11224896975, "lat": 28.5294322, "lon": 77.0961847}, {"type": "node", "id": 2009753142, "lat": 28.5211961, "lon": 77.0997627}, {"type": "node", "id": 2009753147, "lat": 28.5216438, "lon": 77.0986628}, {"type": "node", "id": 2009753150, "lat": 28.5221001, "lon": 77.1015321}, {"type": "node", "id": 2009753152, "lat": 28.5221192, "lon": 77.1008291}, {"type": "node", "id": 2009753154, "lat": 28.5225759, "lon": 77.100165}, {"type": "node", "id": 2009753156, "lat": 28.522631, "lon": 77.0993539}, {"type": "node", "id": 2009753158, "lat": 28.5227265, "lon": 77.1015518}, {"type": "node", "id": 2009753159, "lat": 28.522744, "lon": 77.1001903}, {"type": "node", "id": 11688160190, "lat": 28.5158515, "lon": 77.1144183}, {"type": "node", "id": 11688160191, "lat": 28.5151528, "lon": 77.1144129}, {"type": "node", "id": 11688160192, "lat": 28.515081, "lon": 77.1144946}, {"type": "node", "id": 11688160193, "lat": 28.5151432, "lon": 77.1146852}, {"type": "node", "id": 11688160194, "lat": 28.5158467, "lon": 77.1146906}, {"type": "node", "id": 11688160072, "lat": 28.5135621, "lon": 77.120754}, {"type": "node", "id": 11688160073, "lat": 28.5135303, "lon": 77.1211924}, {"type": "node", "id": 11688160074, "lat": 28.5130726, "lon": 77.1211872}, {"type": "node", "id": 11688160075, "lat": 28.5131225, "lon": 77.1206818}, {"type": "node", "id": 4153357609, "lat": 28.5265499, "lon": 77.1010397}, {"type": "node", "id": 4153357612, "lat": 28.526621, "lon": 77.1010524}, {"type": "node", "id": 9864919062, "lat": 28.5274281, "lon": 77.1015424}, {"type": "node", "id": 11224896976, "lat": 28.5301212, "lon": 77.1015454}, {"type": "node", "id": 12613103387, "lat": 28.5324653, "lon": 77.102123}, {"type": "node", "id": 12613103388, "lat": 28.5314579, "lon": 77.1020311}, {"type": "node", "id": 12613103389, "lat": 28.5314175, "lon": 77.1020327}, {"type": "node", "id": 12613103384, "lat": 28.5322942, "lon": 77.1048927}, {"type": "node", "id": 12613103385, "lat": 28.5323999, "lon": 77.1044718}, {"type": "node", "id": 12613103386, "lat": 28.5324291, "lon": 77.1037829}, {"type": "node", "id": 12613103390, "lat": 28.5313563, "lon": 77.1031858}, {"type": "node", "id": 12613103391, "lat": 28.5313479, "lon": 77.1039112}, {"type": "node", "id": 12613103392, "lat": 28.5313405, "lon": 77.1043359}, {"type": "node", "id": 12613103398, "lat": 28.5314496, "lon": 77.1044283}, {"type": "node", "id": 12613116801, "lat": 28.5316791, "lon": 77.1038684}, {"type": "node", "id": 12613116802, "lat": 28.5315539, "lon": 77.1038636}, {"type": "node", "id": 12613116803, "lat": 28.5315483, "lon": 77.1039064}, {"type": "node", "id": 12613116804, "lat": 28.5314899, "lon": 77.1039016}, {"type": "node", "id": 12613116805, "lat": 28.5314815, "lon": 77.104163}, {"type": "node", "id": 12613116806, "lat": 28.5316735, "lon": 77.1041661}, {"type": "node", "id": 12613116818, "lat": 28.5315748, "lon": 77.1038644}, {"type": "node", "id": 2009602313, "lat": 28.5344107, "lon": 77.1133071}, {"type": "node", "id": 2009602315, "lat": 28.5344455, "lon": 77.1122107}, {"type": "node", "id": 2009602317, "lat": 28.5353603, "lon": 77.1119417}, {"type": "node", "id": 2009602319, "lat": 28.5358116, "lon": 77.1131071}, {"type": "node", "id": 2009602321, "lat": 28.5358131, "lon": 77.113345}, {"type": "node", "id": 2009602323, "lat": 28.5359661, "lon": 77.1130968}, {"type": "node", "id": 2009631871, "lat": 28.5349319, "lon": 77.1140138}, {"type": "node", "id": 2009631873, "lat": 28.5349487, "lon": 77.1133216}, {"type": "node", "id": 2009631887, "lat": 28.5360216, "lon": 77.1140254}, {"type": "node", "id": 2009631889, "lat": 28.5360912, "lon": 77.113348}, {"type": "node", "id": 2009631897, "lat": 28.5363449, "lon": 77.113823}, {"type": "node", "id": 10302152358, "lat": 28.5350324, "lon": 77.1129508}, {"type": "node", "id": 10302152359, "lat": 28.5349631, "lon": 77.1129901}, {"type": "node", "id": 10302152360, "lat": 28.5349228, "lon": 77.1128981}, {"type": "node", "id": 10302152361, "lat": 28.5349921, "lon": 77.1128588}, {"type": "node", "id": 2009601893, "lat": 28.5232593, "lon": 77.1395483}, {"type": "node", "id": 2009601906, "lat": 28.5233017, "lon": 77.1398914}, {"type": "node", "id": 2009601917, "lat": 28.5233729, "lon": 77.1403051}, {"type": "node", "id": 2009601925, "lat": 28.523435, "lon": 77.1423686}, {"type": "node", "id": 2009601927, "lat": 28.5234456, "lon": 77.1407206}, {"type": "node", "id": 2009601929, "lat": 28.523485, "lon": 77.141205}, {"type": "node", "id": 2009601931, "lat": 28.5235047, "lon": 77.141636}, {"type": "node", "id": 2009601938, "lat": 28.5236432, "lon": 77.1364196}, {"type": "node", "id": 2009601948, "lat": 28.5238198, "lon": 77.1405671}, {"type": "node", "id": 2009601950, "lat": 28.5238319, "lon": 77.1424083}, {"type": "node", "id": 2009601952, "lat": 28.5238349, "lon": 77.1383416}, {"type": "node", "id": 2009601954, "lat": 28.52385, "lon": 77.136433}, {"type": "node", "id": 1422672245, "lat": 28.5334257, "lon": 77.1371861}, {"type": "node", "id": 1422672246, "lat": 28.5334778, "lon": 77.1368995}, {"type": "node", "id": 1422672254, "lat": 28.5332631, "lon": 77.1369596}, {"type": "node", "id": 1422672274, "lat": 28.5333234, "lon": 77.1372082}, {"type": "node", "id": 1422672282, "lat": 28.5335418, "lon": 77.1371611}, {"type": "node", "id": 656396233, "lat": 28.5488766, "lon": 77.1025615}, {"type": "node", "id": 656396238, "lat": 28.5489504, "lon": 77.1026021}, {"type": "node", "id": 656396240, "lat": 28.5494662, "lon": 77.1026139}, {"type": "node", "id": 656396250, "lat": 28.5491686, "lon": 77.1028539}, {"type": "node", "id": 656396255, "lat": 28.5491405, "lon": 77.1029431}, {"type": "node", "id": 656396361, "lat": 28.5485418, "lon": 77.1030167}, {"type": "node", "id": 656396370, "lat": 28.5485989, "lon": 77.102964}, {"type": "node", "id": 656396379, "lat": 28.5486714, "lon": 77.1028003}, {"type": "node", "id": 656396392, "lat": 28.5486818, "lon": 77.1027057}, {"type": "node", "id": 656396401, "lat": 28.5485412, "lon": 77.1023444}, {"type": "node", "id": 656396411, "lat": 28.5486754, "lon": 77.1022549}, {"type": "node", "id": 1800474266, "lat": 28.5493882, "lon": 77.1024551}, {"type": "node", "id": 1800474299, "lat": 28.5491038, "lon": 77.1026144}, {"type": "node", "id": 1800474309, "lat": 28.5491989, "lon": 77.1025805}, {"type": "node", "id": 1800474372, "lat": 28.5491289, "lon": 77.1030409}, {"type": "node", "id": 1800474387, "lat": 28.5486414, "lon": 77.1028931}, {"type": "node", "id": 1800474389, "lat": 28.5490242, "lon": 77.1026214}, {"type": "node", "id": 1800474410, "lat": 28.5486675, "lon": 77.1026106}, {"type": "node", "id": 1800474413, "lat": 28.5486346, "lon": 77.1025237}, {"type": "node", "id": 10991370093, "lat": 28.5488115, "lon": 77.1025078}, {"type": "node", "id": 10991370094, "lat": 28.5487582, "lon": 77.1024295}, {"type": "node", "id": 10991370096, "lat": 28.5492803, "lon": 77.1027284}, {"type": "node", "id": 10991370097, "lat": 28.5492157, "lon": 77.1027837}, {"type": "node", "id": 10991370098, "lat": 28.5496323, "lon": 77.1012592}, {"type": "node", "id": 10991370099, "lat": 28.5495109, "lon": 77.1017083}, {"type": "node", "id": 10991370100, "lat": 28.5491406, "lon": 77.1015926}, {"type": "node", "id": 10991370101, "lat": 28.5489018, "lon": 77.1025753}, {"type": "node", "id": 10991370102, "lat": 28.548649, "lon": 77.1022725}, {"type": "node", "id": 10991370103, "lat": 28.5488978, "lon": 77.1011296}, {"type": "node", "id": 10991370104, "lat": 28.5490845, "lon": 77.1011883}, {"type": "node", "id": 10991389105, "lat": 28.5491057, "lon": 77.1011002}, {"type": "node", "id": 656396285, "lat": 28.5491462, "lon": 77.103145}, {"type": "node", "id": 656396293, "lat": 28.5491765, "lon": 77.1032238}, {"type": "node", "id": 656396299, "lat": 28.5492866, "lon": 77.1034144}, {"type": "node", "id": 656396305, "lat": 28.5491463, "lon": 77.1035111}, {"type": "node", "id": 656396314, "lat": 28.5489915, "lon": 77.1032435}, {"type": "node", "id": 656396321, "lat": 28.5489343, "lon": 77.1031861}, {"type": "node", "id": 656396328, "lat": 28.5486595, "lon": 77.1031454}, {"type": "node", "id": 656396338, "lat": 28.5486005, "lon": 77.1031816}, {"type": "node", "id": 656396344, "lat": 28.5484312, "lon": 77.1033042}, {"type": "node", "id": 656396350, "lat": 28.5483524, "lon": 77.1031427}, {"type": "node", "id": 1800474312, "lat": 28.5488656, "lon": 77.1031462}, {"type": "node", "id": 1800474369, "lat": 28.5487191, "lon": 77.103131}, {"type": "node", "id": 1800474379, "lat": 28.5487968, "lon": 77.1031314}, {"type": "node", "id": 10991370095, "lat": 28.5490472, "lon": 77.1033152}, {"type": "node", "id": 13152748598, "lat": 28.5497107, "lon": 77.1159877}, {"type": "node", "id": 13152748599, "lat": 28.5498374, "lon": 77.1154479}, {"type": "node", "id": 13152748600, "lat": 28.5499231, "lon": 77.1150495}, {"type": "node", "id": 13152748601, "lat": 28.5499856, "lon": 77.1147792}, {"type": "node", "id": 13152748602, "lat": 28.550039, "lon": 77.1145504}, {"type": "node", "id": 13152748603, "lat": 28.5500637, "lon": 77.1144109}, {"type": "node", "id": 13152748604, "lat": 28.5500885, "lon": 77.1142352}, {"type": "node", "id": 13152748605, "lat": 28.5501132, "lon": 77.1140542}, {"type": "node", "id": 13152748606, "lat": 28.5501391, "lon": 77.1139026}, {"type": "node", "id": 13152748607, "lat": 28.5501618, "lon": 77.113786}, {"type": "node", "id": 13152748608, "lat": 28.5502049, "lon": 77.1135791}, {"type": "node", "id": 13152748609, "lat": 28.5504972, "lon": 77.1136664}, {"type": "node", "id": 13152748610, "lat": 28.5504806, "lon": 77.1137479}, {"type": "node", "id": 13152748611, "lat": 28.5504591, "lon": 77.113825}, {"type": "node", "id": 13152748612, "lat": 28.5504324, "lon": 77.1138986}, {"type": "node", "id": 13152748613, "lat": 28.5503596, "lon": 77.114076}, {"type": "node", "id": 13152748614, "lat": 28.5502796, "lon": 77.1142628}, {"type": "node", "id": 13152748615, "lat": 28.5502375, "lon": 77.1143679}, {"type": "node", "id": 13152748616, "lat": 28.5501883, "lon": 77.1145045}, {"type": "node", "id": 13152748617, "lat": 28.5501606, "lon": 77.114592}, {"type": "node", "id": 13152748618, "lat": 28.5501327, "lon": 77.1146803}, {"type": "node", "id": 13152748619, "lat": 28.550104, "lon": 77.1147912}, {"type": "node", "id": 13152748620, "lat": 28.5500691, "lon": 77.1149418}, {"type": "node", "id": 13152748621, "lat": 28.5499627, "lon": 77.1154476}, {"type": "node", "id": 13152748622, "lat": 28.5499119, "lon": 77.1156653}, {"type": "node", "id": 13152748623, "lat": 28.5498647, "lon": 77.1158503}, {"type": "node", "id": 13152748624, "lat": 28.5497999, "lon": 77.1161038}, {"type": "node", "id": 13152748682, "lat": 28.5503337, "lon": 77.1136176}, {"type": "node", "id": 4955499910, "lat": 28.5500027, "lon": 77.1223851}, {"type": "node", "id": 4955499911, "lat": 28.5501892, "lon": 77.1224441}, {"type": "node", "id": 4955499912, "lat": 28.5501625, "lon": 77.1225536}, {"type": "node", "id": 4955499913, "lat": 28.5503805, "lon": 77.1226224}, {"type": "node", "id": 4955499914, "lat": 28.5504023, "lon": 77.122533}, {"type": "node", "id": 4955499915, "lat": 28.5506004, "lon": 77.1225956}, {"type": "node", "id": 13152748596, "lat": 28.549263, "lon": 77.1172537}, {"type": "node", "id": 13152748597, "lat": 28.5494319, "lon": 77.1173065}, {"type": "node", "id": 13152748625, "lat": 28.5497516, "lon": 77.1162849}, {"type": "node", "id": 13152748626, "lat": 28.5496904, "lon": 77.1165048}, {"type": "node", "id": 13152748627, "lat": 28.5496237, "lon": 77.1167523}, {"type": "node", "id": 13152748628, "lat": 28.5495329, "lon": 77.1171271}, {"type": "node", "id": 13152748629, "lat": 28.5494437, "lon": 77.1174735}, {"type": "node", "id": 13152748630, "lat": 28.5494184, "lon": 77.1175704}, {"type": "node", "id": 13152748631, "lat": 28.5493887, "lon": 77.1176913}, {"type": "node", "id": 13152748632, "lat": 28.5493548, "lon": 77.11784}, {"type": "node", "id": 13152748633, "lat": 28.5493007, "lon": 77.1180932}, {"type": "node", "id": 13152748634, "lat": 28.5492576, "lon": 77.118294}, {"type": "node", "id": 13152748635, "lat": 28.5492146, "lon": 77.1184668}, {"type": "node", "id": 13152748636, "lat": 28.5491756, "lon": 77.1185766}, {"type": "node", "id": 13152748637, "lat": 28.5491018, "lon": 77.1187132}, {"type": "node", "id": 13152748638, "lat": 28.5489033, "lon": 77.1190566}, {"type": "node", "id": 13152748639, "lat": 28.5488862, "lon": 77.1190807}, {"type": "node", "id": 13152748640, "lat": 28.5488697, "lon": 77.1190941}, {"type": "node", "id": 13152748641, "lat": 28.548845, "lon": 77.1191001}, {"type": "node", "id": 13152748642, "lat": 28.5488232, "lon": 77.1190968}, {"type": "node", "id": 13152748643, "lat": 28.5488055, "lon": 77.1190894}, {"type": "node", "id": 13152748644, "lat": 28.5487872, "lon": 77.119074}, {"type": "node", "id": 13152748645, "lat": 28.5487778, "lon": 77.1190519}, {"type": "node", "id": 13152748646, "lat": 28.5487754, "lon": 77.119013}, {"type": "node", "id": 13152748647, "lat": 28.5487778, "lon": 77.1189372}, {"type": "node", "id": 13152748648, "lat": 28.548786, "lon": 77.1188983}, {"type": "node", "id": 13152748649, "lat": 28.548802, "lon": 77.1188406}, {"type": "node", "id": 13152748650, "lat": 28.5488461, "lon": 77.1187159}, {"type": "node", "id": 13152748651, "lat": 28.5488881, "lon": 77.1185921}, {"type": "node", "id": 13152748652, "lat": 28.5489609, "lon": 77.1183668}, {"type": "node", "id": 13152748653, "lat": 28.5490163, "lon": 77.1181858}, {"type": "node", "id": 13152748654, "lat": 28.549074, "lon": 77.1179956}, {"type": "node", "id": 13152748655, "lat": 28.5491258, "lon": 77.1178132}, {"type": "node", "id": 13152748656, "lat": 28.5491611, "lon": 77.1176751}, {"type": "node", "id": 13152748750, "lat": 28.5492913, "lon": 77.1172626}, {"type": "node", "id": 13152748815, "lat": 28.5493654, "lon": 77.1172857}, {"type": "node", "id": 4211841398, "lat": 28.5425149, "lon": 77.1270632}, {"type": "node", "id": 7084710782, "lat": 28.5428912, "lon": 77.1270813}, {"type": "node", "id": 7084744487, "lat": 28.5428887, "lon": 77.1271513}, {"type": "node", "id": 7084744488, "lat": 28.5425118, "lon": 77.127146}, {"type": "node", "id": 9869501931, "lat": 28.5425151, "lon": 77.1265589}, {"type": "node", "id": 9869577688, "lat": 28.5428979, "lon": 77.1265584}, {"type": "node", "id": 3838673058, "lat": 28.5474313, "lon": 77.1254656}, {"type": "node", "id": 3838673059, "lat": 28.5473442, "lon": 77.1258049}, {"type": "node", "id": 4955499904, "lat": 28.5504401, "lon": 77.1232532}, {"type": "node", "id": 4955499905, "lat": 28.5502623, "lon": 77.123197}, {"type": "node", "id": 4955499906, "lat": 28.5503227, "lon": 77.1229493}, {"type": "node", "id": 4955499907, "lat": 28.5501187, "lon": 77.1228849}, {"type": "node", "id": 4955499908, "lat": 28.5500613, "lon": 77.1231202}, {"type": "node", "id": 4955499909, "lat": 28.5498405, "lon": 77.1230505}, {"type": "node", "id": 6311069104, "lat": 28.5475668, "lon": 77.1256408}, {"type": "node", "id": 6311069105, "lat": 28.5474914, "lon": 77.1258473}, {"type": "node", "id": 1191281980, "lat": 28.5453337, "lon": 77.1296106}, {"type": "node", "id": 7082528227, "lat": 28.5454717, "lon": 77.1296673}, {"type": "node", "id": 9867712788, "lat": 28.5473353, "lon": 77.1311522}, {"type": "node", "id": 9867712789, "lat": 28.5474636, "lon": 77.1311724}, {"type": "node", "id": 9867712790, "lat": 28.5474264, "lon": 77.1312826}, {"type": "node", "id": 9867712791, "lat": 28.5472997, "lon": 77.1312521}, {"type": "node", "id": 9868138233, "lat": 28.5455233, "lon": 77.1295542}, {"type": "node", "id": 9868138234, "lat": 28.5453766, "lon": 77.1294672}]}