{"version": 0.6, "generator": "Overpass API 0.7.62.8 e802775f", "osm3s": {"timestamp_osm_base": "2025-11-22T14:28:04Z", "copyright": "The data included in this document is from www.openstreetmap.org. The data is made available under ODbL."}, "elements": [{"type": "node", "id": 566200829, "lat": 28.6396119, "lon": 77.2528353, "tags": {"historic": "memorial", "name": "Kisan Ghat", "name:hi": "\u0915\u093f\u0938\u093e\u0928 \u0918\u093e\u091f", "wikidata": "Q125577728", "wikipedia": "en:Kisan Ghat"}}, {"type": "node", "id": 2722906932, "lat": 28.6464247, "lon": 77.2450052, "tags": {"historic": "archaeological_site", "name": "Ghata Masjid"}}, {"type": "node", "id": 2934400029, "lat": 28.6303917, "lon": 77.2416988, "tags": {"fee": "yes", "name": "Shanker's International Doll Museum", "opening_hours": "Tu-Su 10:00-18:00; Mo off", "tourism": "museum", "website": "https://www.childrensbooktrust.com/dm.htm", "wikidata": "Q2721827", "wikipedia": "en:Shankar's International Dolls Museum"}}, {"type": "node", "id": 2959083272, "lat": 28.6414568, "lon": 77.2414435, "tags": {"name": "Hotel Arina Inn", "tourism": "hotel"}}, {"type": "node", "id": 3424254864, "lat": 28.6025805, "lon": 77.2409575, "tags": {"amenity": "restaurant", "name": "Nathu Sweets"}}, {"type": "node", "id": 4208743593, "lat": 28.636957, "lon": 77.2850794, "tags": {"addr:housenumber": "B21", "addr:postcode": "110092", "addr:street": "Vikas Marg", "email": "sales@maharajaresidency.com", "internet_access": "wlan", "name": "Maharaja Residency ", "phone": "+911122041111", "tourism": "hotel", "website": "https://www.maharajaresidency.com/"}}, {"type": "node", "id": 4408646222, "lat": 28.6171984, "lon": 77.2818179, "tags": {"name": "shiv mandir", "name:en": "shiv mandir", "name:hi": "\u0936\u093f\u0935 \u092e\u0902\u0926\u093f\u0930", "tourism": "attraction"}}, {"type": "node", "id": 4478855889, "lat": 28.6389443, "lon": 77.2460725, "tags": {"addr:postcode": "110002", "addr:street": "Mahatma Gandhi Marg", "name": "National Gandhi Museum", "name:hi": "\u0930\u093e\u0937\u094d\u091f\u094d\u0930\u0940\u092f \u0917\u093e\u0901\u0927\u0940 \u0938\u0902\u0917\u094d\u0930\u0939\u093e\u0932\u092f", "name:ko": "\uac04\ub514 \ubc15\ubb3c\uad00", "name:zh": "\u7518\u5730\u535a\u7269\u9986", "opening_hours": "Mo-Su 09:30-17:30", "phone": "23310168", "tourism": "museum", "website": "http://gandhimuseum.org/site/"}}, {"type": "node", "id": 4690608489, "lat": 28.6118511, "lon": 77.2784654, "tags": {"name": "Water Show", "name:en": "Water Show", "tourism": "attraction"}}, {"type": "node", "id": 4858070723, "lat": 28.6050274, "lon": 77.2412834, "tags": {"name": "Devna Bed & breakfast", "name:en": "Devna Bed & breakfast", "name:fr": "Devna Chambre d'h\u00f4te", "tourism": "hotel"}}, {"type": "node", "id": 4881470724, "lat": 28.630524, "lon": 77.2415496, "tags": {"fee": "yes", "name": "Shankar's Doll Museum", "name:en": "Shankar's Doll Museum", "opening_hours": "Tu-Su 10:00-18:00", "tourism": "museum"}}, {"type": "node", "id": 4910109422, "lat": 28.6177243, "lon": 77.2796696, "tags": {"amenity": "restaurant", "brand": "Pizza Hut", "brand:wikidata": "Q191615", "brand:wikipedia": "en:Pizza Hut", "cuisine": "pizza", "name": "Pizza Hut", "name:en": "Pizza Hut"}}, {"type": "node", "id": 5060224921, "lat": 28.6442596, "lon": 77.2403488, "tags": {"historic": "monument"}}, {"type": "node", "id": 5269340185, "lat": 28.6119427, "lon": 77.2887478, "tags": {"amenity": "restaurant", "cuisine": "Indian;Mughlai;Chinese", "name": "Indian Curry", "name:fa": "\u06a9\u0627\u0631\u06cc \u0647\u0646\u062f\u06cc", "phone": "+91-99994-97326;+91-99994-97327;+91-011-6502-0332"}}, {"type": "node", "id": 5273128897, "lat": 28.6118764, "lon": 77.2888106, "tags": {"amenity": "restaurant", "delivery": "yes", "name": "Shanghai Kitchen", "phone": "+91-99991-00369;+91-99991-00859"}}, {"type": "node", "id": 5297002821, "lat": 28.6026965, "lon": 77.2410926, "tags": {"amenity": "restaurant", "name": "Masala House"}}, {"type": "node", "id": 5301853070, "lat": 28.6117937, "lon": 77.2872019, "tags": {"amenity": "restaurant", "cuisine": "indian", "delivery": "yes", "name": "Chawlas Food Express", "phone": "+91-99116-68918;+91-99116-68918"}}, {"type": "node", "id": 5382858924, "lat": 28.615296, "lon": 77.2782886, "tags": {"amenity": "restaurant", "name": "Haldram\u2019s"}}, {"type": "node", "id": 5437048621, "lat": 28.630345, "lon": 77.2776021, "tags": {"amenity": "restaurant", "cuisine": "south_indian", "name": "House of Anna"}}, {"type": "node", "id": 5437048721, "lat": 28.6329164, "lon": 77.2808368, "tags": {"amenity": "restaurant", "name": "Priyanshi South Indian Restaurant"}}, {"type": "node", "id": 5612013246, "lat": 28.6131498, "lon": 77.2426321, "tags": {"amenity": "cafe", "name": "Cafe Lota", "name:fa": "\u06a9\u0627\u0641\u0647 \u0644\u0648\u062a\u0627", "opening_hours": "Mo-Su 08:00-21:30"}}, {"type": "node", "id": 5732543220, "lat": 28.64467, "lon": 77.2402214, "tags": {"amenity": "cafe", "brand": "Cafe Coffee Day", "brand:wikidata": "Q5017235", "cuisine": "coffee_shop", "name": "Cafe Coffee Day", "takeaway": "yes"}}, {"type": "node", "id": 5841372887, "lat": 28.6288361, "lon": 77.2406835, "tags": {"addr:housenumber": "2", "addr:postcode": "110002", "addr:street": "Bahadur Shah Zafar Marg", "name": "\u092d\u093e\u0930\u0924\u0940\u092f \u0930\u093e\u0937\u094d\u091f\u094d\u0930\u0940\u092f \u0935\u093f\u091c\u094d\u091e\u093e\u0928 \u0905\u0915\u093e\u0926\u092e\u0940", "name:en": "Indian National Science Academy", "phone": "+91 11 2322 1947", "tourism": "attraction", "website": "https://www.insaindia.res.in/", "wikidata": "Q2095524", "wikipedia": "en:Indian National Science Academy"}}, {"type": "node", "id": 6103746787, "lat": 28.6361281, "lon": 77.2855466, "tags": {"amenity": "cafe", "name": "Qd's"}}, {"type": "node", "id": 6793251785, "lat": 28.6013446, "lon": 77.2410517, "tags": {"addr:housenumber": "28", "addr:street": "Sunder Nagar", "amenity": "restaurant", "cuisine": "italian", "name:ru": "\u0420\u0435\u0441\u0442\u043e\u0440\u0430\u043d Basil and Thyme", "opening_hours": "Mo-Su 11:00-23:00"}}, {"type": "node", "id": 6817191932, "lat": 28.6333197, "lon": 77.2803943, "tags": {"addr:city": "New Delhi", "addr:housenumber": "G-40", "addr:place": "Laxmi Nagar", "addr:postcode": "110092", "name": "Tirupati Balaji Girls Hostel", "tourism": "hostel"}}, {"type": "node", "id": 6992113685, "lat": 28.630052, "lon": 77.2732845, "tags": {"amenity": "restaurant", "name": "Tasty Muradabadi Chicken Biryani"}}, {"type": "node", "id": 7040366285, "lat": 28.6024564, "lon": 77.2454237, "tags": {"historic": "milestone", "name": "Kos Minar", "wikimedia_commons": "File:Mughal-era Kos Minar in the Delhi National Zoo.jpg"}}, {"type": "node", "id": 9209513163, "lat": 28.631962, "lon": 77.2802101, "tags": {"level": "1", "name": "Solitaire Hotel", "tourism": "hotel", "wheelchair": "no"}}, {"type": "node", "id": 9238938944, "lat": 28.6353058, "lon": 77.2842479, "tags": {"amenity": "restaurant", "cuisine": "pizza", "name": "Chicago Pizza"}}, {"type": "node", "id": 10027880529, "lat": 28.6300714, "lon": 77.2732351, "tags": {"amenity": "restaurant", "name": "Manakamana Restaurant"}}, {"type": "node", "id": 10027880539, "lat": 28.6352913, "lon": 77.270571, "tags": {"leisure": "park", "name": "Ramesh Park"}}, {"type": "node", "id": 10027880559, "lat": 28.6384387, "lon": 77.2702894, "tags": {"leisure": "park", "name": "Chota Vishwa Karma Park"}}, {"type": "node", "id": 10212513769, "lat": 28.6180076, "lon": 77.279524, "tags": {"amenity": "cafe", "brand": "Cafe Coffee Day", "brand:wikidata": "Q5017235", "cuisine": "coffee_shop", "name": "Cafe Coffee Day", "takeaway": "yes"}}, {"type": "node", "id": 10607988849, "lat": 28.6084113, "lon": 77.2448048, "tags": {"board_type": "history", "information": "board", "name": "Hammam", "tourism": "information"}}, {"type": "node", "id": 10607993179, "lat": 28.6096044, "lon": 77.2433009, "tags": {"board_type": "history", "information": "board", "tourism": "information"}}, {"type": "node", "id": 10607997916, "lat": 28.6088955, "lon": 77.2447173, "tags": {"board_type": "history", "information": "board", "name": "Sher Mandal", "tourism": "information"}}, {"type": "node", "id": 10607998822, "lat": 28.6087534, "lon": 77.2424545, "tags": {"fee": "yes", "name": "Archaeological museum", "opening_hours": "Mo-Th, Sa, Su 09:00-17:00", "tourism": "museum", "wheelchair": "yes"}}, {"type": "node", "id": 10608005577, "lat": 28.6093434, "lon": 77.2436159, "tags": {"board_type": "history", "information": "board", "name": "Purana Qila", "tourism": "information"}}, {"type": "node", "id": 10608005578, "lat": 28.6071307, "lon": 77.2438919, "tags": {"fee": "no", "name": "Gallery of confiscated and retrieved antiquities", "tourism": "museum"}}, {"type": "node", "id": 10608006211, "lat": 28.6079469, "lon": 77.2450382, "tags": {"board_type": "history", "information": "board", "name": "Excavations at Purana Qila", "tourism": "information"}}, {"type": "node", "id": 10608014164, "lat": 28.6095015, "lon": 77.2449652, "tags": {"board_type": "history", "information": "board", "name": "Qila-E-Kuhna Masjid", "tourism": "information"}}, {"type": "node", "id": 10608014165, "lat": 28.6088494, "lon": 77.2425385, "tags": {"board_type": "history", "information": "board", "name": "Archaeological museum", "tourism": "information"}}, {"type": "node", "id": 10608017204, "lat": 28.6086534, "lon": 77.2417634, "tags": {"name": "Purana Qila", "tourism": "information"}}, {"type": "node", "id": 10608020477, "lat": 28.6089886, "lon": 77.2423353, "tags": {"board_type": "history", "information": "board", "name": "Bada Darwaza", "tourism": "information"}}, {"type": "node", "id": 10608026013, "lat": 28.6114905, "lon": 77.2417939, "tags": {"board_type": "history", "information": "board", "name": "Talaqi Darwaza", "tourism": "information"}}, {"type": "node", "id": 10763672532, "lat": 28.6370268, "lon": 77.2849056, "tags": {"amenity": "restaurant", "name": "Barbeque Nation"}}, {"type": "node", "id": 10910601905, "lat": 28.6337082, "lon": 77.2779655, "tags": {"amenity": "restaurant", "name": "Good Morning Caf\u00e9"}}, {"type": "node", "id": 11212429994, "lat": 28.6310806, "lon": 77.2781194, "tags": {"amenity": "cafe", "name": "Chai Chulha"}}, {"type": "node", "id": 11215970326, "lat": 28.6293935, "lon": 77.2729733, "tags": {"internet_access": "wlan", "name": "Ambitious PG", "tourism": "hostel", "wheelchair": "no"}}, {"type": "node", "id": 11227522438, "lat": 28.6295758, "lon": 77.2757035, "tags": {"amenity": "restaurant", "name": "City hearts sweets & restaurant"}}, {"type": "node", "id": 11236680831, "lat": 28.6309852, "lon": 77.2777773, "tags": {"air_conditioning": "yes", "amenity": "restaurant", "check_date": "2024-05-18", "cuisine": "south_indian", "diet:vegetarian": "yes", "level": "0", "name": "Southvala", "name:ta": "\u0ba4\u0bc6\u0ba9\u0bcd\u0ba9\u0bbf\u0ba8\u0bcd\u0ba4\u0bbf\u0baf \u0b9a\u0bc6\u0b9f\u0bcd\u0b9f\u0bbf\u0ba8\u0bbe\u0b9f\u0bc1 \u0b89\u0ba3\u0bb5\u0b95\u0bae\u0bcd", "payment:cash": "yes", "payment:credit_cards": "yes", "payment:debit_cards": "yes", "source": "survey", "wheelchair": "limited"}}, {"type": "node", "id": 11236741487, "lat": 28.6308822, "lon": 77.2775978, "tags": {"air_conditioning": "yes", "amenity": "restaurant", "check_date": "2024-05-18", "diet:vegetarian": "yes", "level": "0;1", "name": "Foodie Beach"}}, {"type": "node", "id": 11236741764, "lat": 28.629098, "lon": 77.2745485, "tags": {"addr:city": "Delhi", "addr:housenumber": "1/49", "addr:place": "Lalita Park", "addr:postcode": "110092", "addr:street": "Vikas Marg", "internet_access": "yes", "internet_access:fee": "no", "level": "1;2;3", "mobile": "+91 - 8527-222938", "name": "Joey's Hostel", "phone": "+91-11 - 40845678", "tourism": "hostel"}}, {"type": "node", "id": 11236756113, "lat": 28.6309666, "lon": 77.2777035, "tags": {"amenity": "restaurant", "name": "The mb cafe"}}, {"type": "node", "id": 11236764625, "lat": 28.6295294, "lon": 77.273274, "tags": {"name": "Toppers Girl's Hostel", "tourism": "hostel"}}, {"type": "node", "id": 11238427467, "lat": 28.6320246, "lon": 77.2800687, "tags": {"name": "Solitaire Hotel and Restaurant", "tourism": "hotel"}}, {"type": "node", "id": 11262730928, "lat": 28.634958, "lon": 77.2774691, "tags": {"leisure": "park", "name": "Jagat ram park"}}, {"type": "node", "id": 11684777097, "lat": 28.6355424, "lon": 77.2454861, "tags": {"name": "Jami Masjid", "tourism": "information"}}, {"type": "node", "id": 11684791313, "lat": 28.6355936, "lon": 77.245096, "tags": {"name": "The pyramidal structure and Asokan pillar", "tourism": "information"}}, {"type": "node", "id": 11684793885, "lat": 28.6349693, "lon": 77.2434766, "tags": {"name": "Ruins of palace", "tourism": "information"}}, {"type": "node", "id": 11684804668, "lat": 28.634972, "lon": 77.2432084, "tags": {"name": "Kotla Firoz Shah", "tourism": "information"}}, {"type": "node", "id": 11684986917, "lat": 28.6357803, "lon": 77.2453544, "tags": {"name": "Delhi-Topra Pillar", "name:hi": "\u0926\u093f\u0932\u094d\u0932\u0940-\u091f\u094b\u092a\u0930\u093e \u0938\u094d\u0924\u0902\u092d", "tourism": "attraction", "wikidata": "Q22806981", "wikipedia": "en:Delhi-Topra pillar"}}, {"type": "node", "id": 11685013859, "lat": 28.635739, "lon": 77.2422991, "tags": {"artwork_type": "statue", "tourism": "artwork"}}, {"type": "node", "id": 11738938312, "lat": 28.6320309, "lon": 77.2793095, "tags": {"amenity": "restaurant", "name": "Big Bites"}}, {"type": "node", "id": 11755533259, "lat": 28.6297079, "lon": 77.2862104, "tags": {"name": "Mona Grand Hotel and Banquet", "tourism": "hotel"}}, {"type": "node", "id": 11755533264, "lat": 28.6291815, "lon": 77.2862025, "tags": {"brand": "Fab Hotels", "name": "Mona International Hotel and Banquet", "tourism": "hotel"}}, {"type": "node", "id": 11799217174, "lat": 28.6023804, "lon": 77.2533994, "tags": {"amenity": "place_of_worship", "name": "Vishwa Shanti Stupa", "religion": "buddhist"}}, {"type": "node", "id": 11817968227, "lat": 28.626092, "lon": 77.2856785, "tags": {"addr:city": "Delhi", "addr:district": "East Delhi", "addr:housenumber": "South Ganesh Nagar", "addr:postcode": "110092", "addr:street": "Patparganj Road", "amenity": "restaurant", "name": "Nazeer Foods"}}, {"type": "node", "id": 11914764461, "lat": 28.6293532, "lon": 77.276336, "tags": {"amenity": "restaurant", "check_date": "2024-05-18", "cuisine": "Mughlai", "diet:halal": "yes", "diet:non-vegetarian": "yes", "level": "0", "name": "Karim\u2019s", "outdoor_seating": "no", "payment:cash": "yes", "payment:credit_cards": "yes", "payment:debit_cards": "yes", "wheelchair": "no"}}, {"type": "node", "id": 11914851182, "lat": 28.6282509, "lon": 77.2763357, "tags": {"amenity": "restaurant", "bar": "no", "check_date": "2024-05-18", "level": "0", "name": "Radha Krishna Dhaba", "name:hi": "\u0930\u093e\u0927\u093e \u0915\u0943\u0937\u094d\u0923 \u0922\u093e\u092c\u093e"}}, {"type": "node", "id": 11914851237, "lat": 28.6308108, "lon": 77.2774683, "tags": {"amenity": "cafe", "check_date": "2024-05-18", "cuisine": "coffee_shop", "name": "Parichai"}}, {"type": "node", "id": 11914919424, "lat": 28.6365898, "lon": 77.2876065, "tags": {"name": "East Inn", "tourism": "hotel"}}, {"type": "node", "id": 12066209254, "lat": 28.6368494, "lon": 77.2861536, "tags": {"air_conditioning": "no", "amenity": "restaurant", "check_date": "2024-07-21", "cuisine": "chinese", "highchair": "no", "level": "0", "name": "Chinese Bowl", "outdoor_seating": "no"}}, {"type": "node", "id": 12066219413, "lat": 28.6367447, "lon": 77.2860242, "tags": {"amenity": "restaurant", "check_date": "2024-07-21", "cuisine": "indian", "level": "0", "name": "Nazeer Foods", "wheelchair": "no"}}, {"type": "node", "id": 12066219415, "lat": 28.6367427, "lon": 77.285939, "tags": {"amenity": "restaurant", "check_date": "2024-07-21", "cuisine": "indian", "level": "0", "name": "The Yellow Chili"}}, {"type": "node", "id": 12066219416, "lat": 28.6367371, "lon": 77.2858911, "tags": {"amenity": "cafe", "check_date": "2024-07-21", "cuisine": "tea", "level": "0", "takeaway": "only", "toilets": "no"}}, {"type": "node", "id": 12105834057, "lat": 28.6329547, "lon": 77.2821179, "tags": {"air_conditioning": "no", "amenity": "cafe", "indoor_seating": "yes", "level": "0", "name": "Chaiorama", "outdoor_seating": "no", "seats": "9"}}, {"type": "node", "id": 12403375196, "lat": 28.6396679, "lon": 77.2520909, "tags": {"historic": "memorial", "name": "Sangarsh Sthala", "name:hi": "\u0938\u0902\u0918\u0930\u094d\u0937 \u0938\u094d\u0925\u0932"}}, {"type": "node", "id": 12409604217, "lat": 28.6166999, "lon": 77.240566, "tags": {"name": "Laser Cut Steel Structure", "note": "What's it's official name?", "tourism": "attraction"}}, {"type": "node", "id": 12409628331, "lat": 28.6192692, "lon": 77.2406037, "tags": {"name": "Angels Wing Steel Structure", "tourism": "attraction"}}, {"type": "node", "id": 12440467190, "lat": 28.6447128, "lon": 77.2401573, "tags": {"check_date": "2024-12-22", "name": "Five Star Guest House", "tourism": "hotel"}}, {"type": "node", "id": 12440473687, "lat": 28.6441692, "lon": 77.2401768, "tags": {"addr:floor": "G", "amenity": "restaurant", "check_date": "2024-12-22", "level": "0", "name": "Nazeer Foods"}}, {"type": "node", "id": 12440977090, "lat": 28.6472128, "lon": 77.2400088, "tags": {"check_date": "2024-12-22", "name": "Rang Mahal Hotel", "tourism": "hotel"}}, {"type": "node", "id": 12441100411, "lat": 28.6460456, "lon": 77.2400966, "tags": {"check_date": "2024-12-22", "name": "Wall Street", "tourism": "hotel"}}, {"type": "node", "id": 12441100412, "lat": 28.6459521, "lon": 77.2401008, "tags": {"check_date": "2024-12-22", "name": "Royal Afghan", "tourism": "hotel"}}, {"type": "node", "id": 13201561554, "lat": 28.6072468, "lon": 77.2453714, "tags": {"board_type": "history", "information": "board", "name": "Humayun Darwaza", "tourism": "information"}}, {"type": "way", "id": 80429793, "nodes": [938522487, 938523220, 938522392, 938524682, 938524408, 938522487], "tags": {"leisure": "park", "name": "Hindi Park", "name:fa": "\u067e\u0627\u0631\u06a9 \u0647\u0646\u062f\u06cc"}}, {"type": "way", "id": 80429795, "nodes": [938523970, 938523306, 938524744, 938523075, 938524092, 938522617, 938523930, 938522852, 938522455, 938522785, 938524553, 938524662, 938523136, 938524384, 938523970], "tags": {"leisure": "park"}}, {"type": "way", "id": 80429811, "nodes": [938524635, 938523271, 938524506, 938524435, 938522520, 938524714, 938523043, 938522474, 938524635], "tags": {"leisure": "park"}}, {"type": "way", "id": 80429893, "nodes": [938524684, 938522804, 938522462, 938523901, 938523228, 938524497, 938524178, 938522396, 938522554, 1863520522, 1863520475, 938523994, 938523129, 938524469, 938524401, 938522472, 938524673, 938522934, 938522431, 938523872, 938522869, 938524358, 938524127, 938524684], "tags": {"addr:street": "Gandi Smriti", "leisure": "park", "name": "Raj Ghat", "name:ar": "\u0631\u0627\u062c \u063a\u0627\u062a", "name:es": "Memorial de Ghandi", "name:fa": "\u0631\u0627\u062c \u06af\u0627\u062a", "name:hi": "\u0930\u093e\u091c \u0918\u093e\u091f", "name:zh": "\u7518\u5730\u9675", "wikidata": "Q1210083", "wikimedia_commons": "Category:Rajghat", "wikipedia": "en:Raj Ghat and associated memorials"}}, {"type": "way", "id": 80439675, "nodes": [938622251, 938622322, 938622456, 938622343, 938622314, 938622703, 938622373, 938622244, 938622733, 11833381894, 11833381895, 11833381896, 938622495, 11833381897, 938622666, 938622434, 11833381898, 938622406, 938622287, 11833381899, 938622469, 11833381900, 11833381901, 11833381903, 938622349, 11135234379, 11135234362, 11833381892, 938622323, 11808663942, 11808663943, 11833381881, 11833381884, 11808665424, 938622748, 13290316404, 938622710, 938622464, 13290316402, 13290316403, 938622253, 938622251], "tags": {"leisure": "park", "name": "Indraprastha Park", "name:hi": "\u0907\u0902\u0926\u094d\u0930\u092a\u094d\u0930\u0938\u094d\u0925 \u092a\u093e\u0930\u094d\u0915", "wikidata": "Q6026969", "wikimedia_commons": "Category:Indraprastha Park", "wikipedia": "en:Indraprastha Park"}}, {"type": "way", "id": 80439679, "nodes": [938622354, 938622325, 938622385, 938622682, 938622781, 938622443, 938622412, 938622290, 938622541, 938622397, 938622362, 2416119654, 938622783, 938622424, 2416119509, 938622312, 938622390, 938622723, 938622354], "tags": {"leisure": "park"}}, {"type": "way", "id": 80439684, "nodes": [3746050626, 5555220766, 3746050632, 3746050633, 3746050627, 3746043823, 3746043815, 3746050305, 3746050304, 3746050303, 3746050300, 3746050298, 3746050289, 3746050290, 3746050282, 3746050281, 3746050280, 3746050277, 3746050278, 3746050271, 9006482443, 9006482442, 9006482441, 9006482440, 9006482444, 3746050257, 9006482471, 9006482469, 9006482470, 9006482472, 3746050255, 3746050254, 3746050252, 9006482473, 9006482474, 9006482462, 9006482447, 9006482463, 3746050245, 9006482461, 9006482459, 9006482460, 9006482464, 9006482465, 3746050242, 9006482475, 9006482466, 3746050232, 938622403, 938622285, 3746050239, 3746050240, 3746050241, 3746050243, 3746050244, 938622247, 938622559, 3746050256, 938622282, 9006482467, 9006482468, 3746050263, 938622660, 938622552, 3746050283, 938622400, 938622708, 3746050291, 3746050292, 938622459, 938622430, 938622411, 938622381, 938622255, 938622441, 3746050634, 3746050636, 3746050638, 938622324, 3746050637, 3746050635, 938622645, 938622449, 3746050626], "tags": {"building": "yes", "historic": "yes"}}, {"type": "way", "id": 80439686, "nodes": [938622758, 938622528, 938622774, 938622267, 938622390, 938622723, 938622354, 938622325, 938622385, 938622682, 938622781, 938622270, 938622471, 938622407, 938622562, 938622667, 938622288, 938622758], "tags": {"fee": "yes", "name": "National Zoological Park", "name:hi": "\u0930\u093e\u0937\u094d\u091f\u094d\u0930\u0940\u092f \u092a\u094d\u0930\u093e\u0923\u0940 \u0909\u0926\u094d\u092f\u093e\u0928", "opening_hours": "Apr 01-Oct 15 08:30-17:30; Oct 16-Mar 31 09:00-17:00; Fr closed", "tourism": "zoo", "website": "https://nzpnewdelhi.gov.in", "wheelchair": "yes", "wikidata": "Q3364809", "wikimedia_commons": "Category:National Zoological Park Delhi", "wikipedia": "en:National Zoological Park Delhi", "zoo": "enclosure"}}, {"type": "way", "id": 97230893, "nodes": [1126295175, 1126295071, 1126295235, 1126295301, 1126295152, 1126295232, 1126295120, 1126295191, 1126295343, 13299039324, 1126295414, 1126295409, 1126295107, 1126295263, 1126295334, 1126295329, 1126295392, 1126295178, 1126295255, 1126295175], "tags": {"barrier": "city_wall", "fee": "yes", "historic": "fort", "material": "mixed", "name": "Kotla Firoz Shah Ruins", "name:ar": "\u0641\u064a\u0631\u0648\u0632 \u0634\u0627\u0647 \u0643\u0648\u062a\u0644\u0627", "name:fa": "\u0641\u06cc\u0631\u0648\u0632 \u0634\u0627\u0647 \u06a9\u0648\u062a\u0644\u0627", "name:hi": "\u0915\u094b\u091f\u0932\u093e \u092b\u093f\u0930\u094b\u091c \u0936\u093e\u0939 \u0915\u0947 \u0916\u0902\u0921\u0939\u0930", "opening_hours": "Sunrise - Sunset", "tourism": "attraction", "wikidata": "Q1187568", "wikipedia": "en:Feroz Shah Kotla"}}, {"type": "way", "id": 97230898, "nodes": [1126295267, 1126295149, 1126295457, 1126295195, 1126295128, 1126295340, 1126295271, 1126295290, 1126295204, 1126295420, 1126295350, 1126295354, 1126295291, 1126295134, 1126295427, 1126295267], "tags": {"barrier": "wall", "historic": "ruins", "name": "Kotla Firoz Shah Palace", "name:hi": "\u0915\u094b\u091f\u0932\u093e \u092b\u093f\u0930\u094b\u091c \u0936\u093e\u0939 \u0915\u093e \u092e\u0939\u0932"}}, {"type": "way", "id": 97230899, "nodes": [1126295292, 1614302119, 1126295164, 1614302169, 1126295093, 1614302161, 1126295098, 1614302126, 1126295386, 1614302151, 1126295239, 1614302168, 1126295173, 1614302122, 1126295293, 1614302163, 1126295210, 1614302124, 1614302167, 1126295292], "tags": {"barrier": "wall", "historic": "ruins", "name": "Baoli"}}, {"type": "way", "id": 111698134, "nodes": [1271995865, 1271995872, 1271995875, 1271995852, 1271995879, 1271995871, 1271995854, 1271995880, 1271995878, 1271995856, 1271995868, 1271995863, 1271995853, 1271995858, 1271995866, 1271995864, 1271995870, 1271995876, 1271995857, 1271995865], "tags": {"building": "yes", "name": "Gol Hostel", "tourism": "hostel"}}, {"type": "way", "id": 192704213, "nodes": [2032422219, 2032422228, 2032422222, 12787794389, 2032422219], "tags": {"addr:housename": "School of Planning and Architecture", "addr:housenumber": "4, Block B, IP Estate", "addr:postcode": "110002", "addr:street": "Indraprastha Marg", "designation": "University", "name": "Girls Hostel", "tourism": "hostel"}}, {"type": "way", "id": 213847283, "nodes": [939091145, 939091204, 939091117, 2234809646, 939091170, 2234812017, 2234812023, 2234812035, 7973098615, 939091145], "tags": {"leisure": "park"}}, {"type": "way", "id": 224253330, "nodes": [2330734906, 2330734873, 2330734817, 2330734864, 2330734838, 2330734910, 2330734830, 2330734814, 2330734906], "tags": {"leisure": "park", "surface": "grass"}}, {"type": "way", "id": 224253343, "nodes": [2330734788, 2330734912, 2330734794, 2330734792, 2330734834, 2330734821, 2330734907, 2330734819, 2330734788], "tags": {"leisure": "park", "surface": "grass"}}, {"type": "way", "id": 224253743, "nodes": [2330737951, 2330737979, 2330737965, 2330737975, 2330737981, 2330737958, 2330737982, 2330737978, 2330737951], "tags": {"leisure": "park", "surface": "grass"}}, {"type": "way", "id": 224253744, "nodes": [2330737950, 2330737972, 2330737970, 2330737984, 2330737959, 2330737949, 2330737966, 2330737969, 2330737950], "tags": {"leisure": "park", "surface": "grass"}}, {"type": "way", "id": 224253745, "nodes": [2330737974, 2330737961, 2330737954, 2330737980, 2330737974], "tags": {"historic": "mon", "tourism": "attraction"}}, {"type": "way", "id": 224253749, "nodes": [2330737968, 2330737962, 2330737973, 2330737955, 2330737968], "tags": {"tourism": "attraction"}}, {"type": "way", "id": 233262400, "nodes": [2416119532, 2416119526, 2416119521, 2416119514, 2416119512, 2416119517, 2416119524, 2416119529, 2416119532], "tags": {"building": "yes", "historic": "monument", "name": "Sher Mandal", "name:hi": "\u0936\u0947\u0930 \u092e\u0902\u0921\u0932", "wikidata": "Q63929741", "wikimedia_commons": "Category:Sher Mandal", "wikipedia": "en:Sher Mandal"}}, {"type": "way", "id": 260508111, "nodes": [2660062109, 11903565530, 2660062110, 2660062111, 11903578483, 2660062112, 2660062114, 2660062115, 2660062116, 2660062117, 2660062118, 11903565481, 2660062109], "tags": {"leisure": "park", "name": "Sanjay Park", "name:hi": "\u0938\u0902\u091c\u092f \u092a\u093e\u0930\u094d\u0915"}}, {"type": "way", "id": 265972476, "nodes": [2715722884, 2715722894, 2722854268, 2722854261, 2720403241, 2720403243, 938524003, 938522432, 2722861706, 9880366645, 9880357078, 9880357076, 938523938, 2722854270, 2722854242, 2722854245, 2722854264, 9880357051, 2722903110, 2722854256], "tags": {"barrier": "city_wall", "historic": "archaeological_site", "name": "City Wall South of Daryaganj"}}, {"type": "way", "id": 266768779, "nodes": [2722843635, 2722843630, 2722843613, 2722843644, 2722843615, 2722843620, 2722843635], "tags": {"leisure": "park", "name": "Purdah Bagh", "name:hi": "\u092a\u0930\u094d\u0926\u093e \u092c\u093e\u0917"}}, {"type": "way", "id": 289694487, "nodes": [2932455610, 2932455611, 2932455612, 2932455613, 2932455614, 2932455615, 2932455616, 2932455610], "tags": {"barrier": "wall", "leisure": "park"}}, {"type": "way", "id": 289912655, "nodes": [2934450324, 2934450320, 2934450319, 2934450322, 2934450321, 4594175954, 2934450323, 2934450324], "tags": {"barrier": "wall", "landuse": "commercial", "name": "Gandhi Darshan", "name:hi": "\u0917\u093e\u0902\u0927\u0940 \u0926\u0930\u094d\u0936\u0928", "tourism": "museum"}}, {"type": "way", "id": 292194582, "nodes": [2957312885, 2957312887, 2957312894, 2957312892, 2957312885], "tags": {"barrier": "wall", "leisure": "park"}}, {"type": "way", "id": 292194583, "nodes": [2957312632, 2957312833, 2957312837, 2957312835, 2957312632], "tags": {"barrier": "wall", "leisure": "park"}}, {"type": "way", "id": 292194586, "nodes": [2957312879, 2957312880, 2957312886, 2957312883, 2957312879], "tags": {"barrier": "wall", "leisure": "park"}}, {"type": "way", "id": 292194588, "nodes": [2957312834, 2957312836, 2957312839, 2957312838, 2957312834], "tags": {"barrier": "wall", "leisure": "park"}}, {"type": "way", "id": 292194589, "nodes": [2957312871, 2957312873, 2957312877, 2957312876, 2957312871], "tags": {"barrier": "wall", "leisure": "park"}}, {"type": "way", "id": 292194590, "nodes": [2957312858, 2957312859, 2957312856, 2957312855, 2957312858], "tags": {"barrier": "wall", "leisure": "park"}}, {"type": "way", "id": 292194591, "nodes": [2957312867, 2957312869, 2957312874, 2957312870, 2957312867], "tags": {"barrier": "wall", "leisure": "park"}}, {"type": "way", "id": 292194592, "nodes": [2957312897, 2957312899, 2957312904, 2957312903, 2957312897], "tags": {"barrier": "wall", "leisure": "park"}}, {"type": "way", "id": 292194593, "nodes": [2957312841, 2957312843, 2957312849, 2957312847, 2957312841], "tags": {"barrier": "wall", "leisure": "park"}}, {"type": "way", "id": 302531236, "nodes": [3067802059, 3067802060, 3067802061, 3067802062, 4862004821, 3067802063, 3067802064, 3067802065, 3067802066, 3067802059], "tags": {"leisure": "park", "name": "Bhonga Park"}}, {"type": "way", "id": 302531237, "nodes": [3067802067, 3067802068, 3067802069, 3067802070, 3067802067], "tags": {"leisure": "park"}}, {"type": "way", "id": 302531245, "nodes": [3067802132, 3067810433, 3067810434, 3067810435, 3067802132], "tags": {"leisure": "park"}}, {"type": "way", "id": 302531257, "nodes": [3067810419, 3067810420, 3067810421, 3067810422, 3067810423, 3067810424, 3067810425, 3067810426, 3067810419], "tags": {"leisure": "park", "name": "Ramleela Ground"}}, {"type": "way", "id": 302531398, "nodes": [3067813010, 3067813011, 3067813012, 3067813013, 3067813010], "tags": {"leisure": "park"}}, {"type": "way", "id": 302531539, "nodes": [3067804604, 3067804605, 3067804606, 3067804607, 3067804604], "tags": {"leisure": "park"}}, {"type": "way", "id": 302531756, "nodes": [3067817941, 3067817942, 3067817943, 3067817944, 3067817941], "tags": {"leisure": "park", "name": "Tikona Park"}}, {"type": "way", "id": 302532282, "nodes": [3067823433, 12065436400, 3067823434, 12065436396, 12065436384, 12065425278, 12065425320, 3067823435, 12065425356, 3067823436, 3067823437, 3067823438, 11755533218, 3067823433], "tags": {"alt_name": "Madhuvan Park", "leisure": "park", "name": "Madhuban Park"}}, {"type": "way", "id": 302532430, "nodes": [3067807873, 3067807874, 3067807875, 3067807876, 3067807877, 3067807878, 3067807879, 3067807880, 3067807881, 3067807873], "tags": {"leisure": "park", "name": "D Park MCD Park"}}, {"type": "way", "id": 302533023, "nodes": [3067823817, 3067823818, 3067831154, 3067823817], "tags": {"leisure": "park"}}, {"type": "way", "id": 302533488, "nodes": [11903565503, 11903565540, 11903565488, 11903578490, 11903565555, 11903565480, 3067838009, 9835017358, 11903565559, 11903578511, 11903578507, 11903565541, 11903578510, 11903578491, 11903578522, 11903565524, 11903578476, 11903565554, 11903565512, 11903578524, 11903565556, 6664927318, 9835373879, 11903565523, 11903565503], "tags": {"alt_name": "Seed-Bed Park", "leisure": "park", "name": "DDA Park", "opening_hours": "Mar-Sep 05:00-21:30; Oct-Feb 05:30-21:00", "operator": "Delhi Development Authority"}}, {"type": "way", "id": 302534627, "nodes": [3067849933, 3067849934, 3067849935, 3067849936, 3067849937, 9833276045, 3067849938, 3067849933], "tags": {"leisure": "park", "name": "Lalita Park"}}, {"type": "way", "id": 335305070, "nodes": [3424252666, 3424252667, 3424252668, 3424252669, 3424252670, 3424252666], "tags": {"leisure": "park"}}, {"type": "way", "id": 335305071, "nodes": [3424252671, 3424252672, 3424252673, 3424252674, 3424252671], "tags": {"leisure": "park"}}, {"type": "way", "id": 335305072, "nodes": [3424252675, 3424252676, 3424252677, 3424252678, 3424252675], "tags": {"leisure": "park"}}, {"type": "way", "id": 348167517, "nodes": [3543561510, 3543561513, 3543561346, 3543561340, 3543561510], "tags": {"addr:city": "Delhi", "addr:housenumber": "3", "addr:postcode": "110003", "addr:street": "Sunder nagar", "building": "yes", "name": "Ahuja Residency", "tourism": "hotel", "website": "http://www.ahujaresidency.com/sunder-nagar-guest-house/"}}, {"type": "way", "id": 351418933, "nodes": [3571787504, 3571787502, 3571787503, 3571787501, 3571787497, 3571787498, 3571787499, 3571787500, 3571787504], "tags": {"building": "yes", "tourism": "museum"}}, {"type": "way", "id": 370944282, "nodes": [938622403, 3746050232, 9006482450, 2592537224, 9006482454, 3746048719, 938622744, 3746048715, 3746048717, 9006482458, 3746048718, 3746048720, 3746048724, 3746048721, 3746048722, 3746050226, 3746050228, 938622403], "tags": {"building": "yes", "historic": "city_gate", "name": "Humayun Darwaza", "name:hi": "\u0939\u0941\u092e\u093e\u092f\u0942\u0901 \u0926\u0930\u0935\u093e\u091c\u093e"}}, {"type": "way", "id": 370944284, "nodes": [3746050259, 3746050258, 3746050260, 3746050261, 3746050264, 3746050267, 3746050265, 3746050266, 3746050268, 3746050269, 938622725, 3746050270, 5247558835, 3746050262, 3746050259], "tags": {"building": "yes", "historic": "city_gate", "name": "Bada Darwaza", "name:hi": "\u092c\u0921\u093c\u093e \u0926\u0930\u0935\u093e\u091c\u093e"}}, {"type": "way", "id": 370944286, "nodes": [3746043817, 3746043816, 3746050626, 938622449, 3746050630, 3746050631, 3746050629, 3746050628, 3746050625, 3746043824, 10608422629, 3746043821, 3746043822, 3746043820, 3746043819, 3746043818, 3746043817], "tags": {"alt_name": "Forbidden Gate", "building": "yes", "historic": "city_gate", "name": "Talaqi Darwaza", "name:hi": "\u0924\u0932\u093e\u0915\u0940 \u0926\u0930\u0935\u093e\u091c\u093e"}}, {"type": "way", "id": 370944288, "nodes": [3746043816, 3746043817, 938622335, 3746050302, 3746050301, 3746050299, 3746050296, 3746050294, 938622474, 3746050293, 3746050288, 3746050287, 3746050286, 3746050284, 3746050285, 3746050276, 3746050274, 3746050273, 3746050272, 938622327, 938622725, 3746050270, 3746050275, 3746050279, 3746050295, 3746050297, 3746043816], "tags": {"building": "yes", "historic": "yes"}}, {"type": "way", "id": 370944290, "nodes": [3746050259, 3746050251, 3746050250, 3746050249, 3746050247, 3746050246, 3746050248, 3746050237, 3746050236, 3746050234, 3746050233, 938622776, 938622533, 3746050230, 3746050227, 3746050225, 3746048723, 938622514, 3746048713, 938622376, 3746048707, 3746048706, 938622345, 938622744, 3746048719, 9006482455, 9006482456, 9006482457, 3746048711, 3746048709, 9006482445, 3746048708, 3746048716, 3746048714, 3746050229, 3746050231, 10608417004, 3746050238, 3746050253, 3746050262, 3746050259], "tags": {"building": "yes", "historic": "yes"}}, {"type": "way", "id": 402580234, "nodes": [4049760348, 4049760349, 4049760350, 4049760351, 4049760352, 4049760353, 4049760354, 4049760355, 4049760356, 4049760357, 4049760358, 4049760348], "tags": {"building": "yes", "tourism": "museum"}}, {"type": "way", "id": 464253914, "nodes": [4593883386, 4593883383, 4593883384, 4593883385, 4593883386], "tags": {"historic": "city_gate", "memorial": "yes", "name": "Khooni Darwaza", "tourism": "attraction", "wikidata": "Q3535259", "wikimedia_commons": "Category:Khooni Darwaza", "wikipedia": "en:Khooni Darwaza"}}, {"type": "way", "id": 464253915, "nodes": [4593883896, 11685013899, 11685013903, 4593883895, 4593883894, 4593883382, 4593883381, 4593883380, 4593883379, 4593883896], "tags": {"leisure": "park"}}, {"type": "way", "id": 464283153, "nodes": [4594175953, 4594175950, 4594175951, 4594175952, 4594175953], "tags": {"building": "yes", "tourism": "museum"}}, {"type": "way", "id": 469368618, "nodes": [4637037078, 4637037079, 4637037084, 4637037080, 4637037078], "tags": {"leisure": "park"}}, {"type": "way", "id": 471698541, "nodes": [4637037598, 4637037599, 4637037600, 4637037601, 6126125875, 4659348849, 4637037603, 4637037598], "tags": {"leisure": "park", "name": "Banjar Park"}}, {"type": "way", "id": 471698542, "nodes": [4658609934, 4658609935, 4658609936, 4658609937, 4658609938, 4658609934], "tags": {"leisure": "park", "name": "Madhuban Park 2"}}, {"type": "way", "id": 471698544, "nodes": [4658609946, 4658609947, 4658609948, 4658609949, 4658609946], "tags": {"leisure": "park", "name": "Jhoole wala park"}}, {"type": "way", "id": 471702108, "nodes": [4658645252, 4658645253, 4658645254, 12498109222, 4658645255, 4658645256, 4658645252], "tags": {"leisure": "park", "name": "Sanatam Dharam Mandir park"}}, {"type": "way", "id": 471779333, "nodes": [4659347692, 4659347693, 4659347694, 4659347695, 4659347696, 4659347692], "tags": {"leisure": "park", "name": "Madhuban Park 3"}}, {"type": "way", "id": 471782757, "nodes": [4659381888, 12065425353, 4659386789, 12065425319, 12065425315, 4659386790, 12065436412, 12065425363, 4659386791, 12065425282, 12065436417, 4659381888], "tags": {"leisure": "park", "name": "Nirman Vihar Park"}}, {"type": "way", "id": 479651152, "nodes": [4727170290, 4727170291, 4211847978, 4727170292, 4727170290], "tags": {"leisure": "park"}}, {"type": "way", "id": 479651154, "nodes": [4727170303, 4727170304, 4727170305, 4727170306, 4727170307, 4727170308, 4727170303], "tags": {"leisure": "park", "name": "Swasthya Vihar Park"}}, {"type": "way", "id": 479651155, "nodes": [4727170310, 4727170311, 4727170312, 4727170313, 4727170314, 4727170315, 4727170316, 4727170310], "tags": {"leisure": "park", "name": "Swasth Vihar Park 2"}}, {"type": "way", "id": 500402197, "nodes": [4914656096, 4914656097, 4914656098, 4914656099, 4914656100, 4914656101, 4914656102, 4914656103, 4914656104, 4914656105, 4914656096], "tags": {"leisure": "park"}}, {"type": "way", "id": 500403267, "nodes": [4914665495, 7313049696, 7313049697, 7313049698, 4914665496, 7313049692, 7313049693, 4914665497, 4914665498, 7313049691, 7313049690, 4914665499, 4914665500, 7313049689, 7313049695, 7313049694, 4914665495], "tags": {"leisure": "park", "name": "Bank Enclave Playground"}}, {"type": "way", "id": 500403674, "nodes": [4914668363, 4914668364, 4914668365, 4914668366, 4914668367, 4914668368, 4914668363], "tags": {"leisure": "park", "name": "Bank Enclave Park"}}, {"type": "way", "id": 500405027, "nodes": [4914677112, 6611865953, 4914677114, 4914677115, 4914677112], "tags": {"leisure": "park"}}, {"type": "way", "id": 500405028, "nodes": [4914677116, 4914677117, 4914677118, 4914677119, 4914677116], "tags": {"leisure": "park"}}, {"type": "way", "id": 503980550, "nodes": [6838075765, 6838075766, 6838075771, 4942475564, 4942061713, 6838075765], "tags": {"leisure": "park", "name": "Ramlila Park"}}, {"type": "way", "id": 503980552, "nodes": [6488001934, 6488001935, 6488001932, 6488001933, 6488001934], "tags": {"leisure": "park", "name": "Govt Park"}}, {"type": "way", "id": 504043105, "nodes": [2904429095, 9468185241, 2812855115, 3614951928, 2812855120, 2812855121, 2812855117, 2812855116, 3614951926, 2812855113, 9570916542, 9645634942, 9645634947, 2904429093, 12140545316, 2904429091, 3874868666, 3614951925, 2904429089, 2904429086, 2903684702, 2904429085, 2904429084, 7215941135, 9572170184, 2903684593, 9572170183, 2903684588, 2904429082, 9572196125, 2904429083, 3614951924, 2903684596, 2903684598, 9572170185, 2903684701, 2903684703, 2903684705, 2903684704, 2903684600, 906416291, 2903684595, 2903684592, 3614951923, 906416248, 906416511, 906416375, 2903684584, 906416546, 906416410, 2903684587, 2903684589, 2903684583, 2903684586, 4942573339, 4942573340, 4942573341, 4942573342, 4942573343, 4942573344, 4942573345, 4942573346, 4942573347, 4942573348, 4942573349, 4942573350, 4942573351, 4942573352, 905280982, 3579648964, 905280507, 2904438105, 2904438103, 2904438107, 2904437600, 905282499, 905284050, 905283553, 13070850133, 3579590143, 905281798, 2904437584, 2904437589, 12185761707, 3573673671, 2904437580, 2904437577, 12185761780, 2904437581, 4942573354, 2904437579, 11501886699, 12618432266, 905281832, 905280435, 905284022, 905283533, 2904437590, 2904437582, 2904437588, 2904437592, 2904437594, 2904437591, 2904437593, 2904437586, 12162043397, 4942573355, 2904437597, 2904437598, 2904438106, 4942573358, 2904438110, 4942573359, 7222102753, 2904438112, 7222102763, 7222102727, 7222102728, 2904438113, 2904438114, 7222102741, 9529768305, 9529768303, 9529768304, 9529768306, 2904438115, 2904430907, 905283399, 7214263638, 4942573362, 9568785946, 9568785954, 2904429095], "tags": {"leisure": "park", "name": "Sanjay Lake Park", "name:etymology:wikidata": "Q7418449", "name:fa": "\u067e\u0627\u0631\u06a9 \u062f\u0631\u06cc\u0627\u0686\u0647 \u0633\u0627\u0646\u062c\u06cc", "opening_hours": "Mo-Su 05:00-21:00 \"summer\"; Oct-Jan Mo-Su 06:00-19:00 \"winter\""}}, {"type": "way", "id": 544368137, "nodes": [5335657635, 5335658970, 5262316863, 5262316864, 5262316865, 5262316866, 5262316867, 5262316868, 6126125812, 5335657635], "tags": {"leisure": "park", "name": "Master Block Park"}}, {"type": "way", "id": 545405140, "nodes": [5271351458, 5271351459, 5271351460, 5271351461, 5271351458], "tags": {"description": "stepwell", "historic": "archaeological_site", "name": "Purana Qila Baoli", "name:hi": "\u092a\u0941\u0930\u093e\u0928\u093e \u0915\u093f\u0932\u093e \u092c\u093e\u0935\u0932\u0940"}}, {"type": "way", "id": 653702731, "nodes": [6126125863, 6126125866, 6126125865, 6126125864, 6126125874, 6126125863], "tags": {"leisure": "park", "name": "DDA Park"}}, {"type": "way", "id": 653702734, "nodes": [6126125867, 6126125868, 6126125869, 6126125870, 6126125867], "tags": {"leisure": "park"}}, {"type": "way", "id": 653705098, "nodes": [6126147508, 6126147509, 6126147510, 6126147511, 12064267246, 6126147512, 6126147513, 6126147514, 6126147515, 6126147516, 6126147517, 6126147508], "tags": {"leisure": "park", "name": "Park behind V3S Mall", "operator": "Municipal Corporation of Delhi"}}, {"type": "way", "id": 690915846, "nodes": [6482584913, 6482584914, 6482584915, 6482584916, 6482584917, 6482584918, 6482584919, 6482584920, 6482584913], "tags": {"leisure": "park"}}, {"type": "way", "id": 690916370, "nodes": [6482590496, 6482590497, 6482590498, 6482590499, 6482590501, 6482590502, 6482590496], "tags": {"leisure": "park"}}, {"type": "way", "id": 690916372, "nodes": [6482590509, 6482590510, 6482590511, 6482590512, 6482590513, 6482590514, 6482590515, 6482590516, 6482590509], "tags": {"leisure": "park", "name": "DDA Park"}}, {"type": "way", "id": 690918052, "nodes": [6482607480, 6482607481, 6482607482, 6482607484, 6482609686, 6482609687, 6482609689, 6482609690, 6482607480], "tags": {"amenity": "place_of_worship", "building": "yes", "name": "Buddha Mandir", "religion": "buddhist"}}, {"type": "way", "id": 690924149, "nodes": [6482673662, 6482673663, 6482673664, 6482673665, 6482673662], "tags": {"leisure": "park"}}, {"type": "way", "id": 704129790, "nodes": [6611505383, 6611505384, 6611561785, 6611561786, 6611505383], "tags": {"leisure": "park", "name": "Vishwakarma Park"}}, {"type": "way", "id": 704129793, "nodes": [6611561799, 6611561800, 6611561801, 6611561802, 6611561803, 6611561804, 6611561805, 6611561799], "tags": {"leisure": "park"}}, {"type": "way", "id": 704131535, "nodes": [6611508280, 6611508281, 6611508282, 6611508283, 6611508284, 6611580285, 6611580286, 6611580287, 6611580288, 6611580289, 6611580290, 6611580291, 6611508280], "tags": {"leisure": "park", "name": "Bhagat Singh Park", "name:etymology:wikidata": "Q377808"}}, {"type": "way", "id": 704166131, "nodes": [6611878991, 6611878992, 6611878993, 6611878994, 6611878995, 6611878991], "tags": {"leisure": "park"}}, {"type": "way", "id": 704168463, "nodes": [6611865933, 6611865934, 6611865935, 6611865936, 6611865933], "tags": {"leisure": "park"}}, {"type": "way", "id": 704168464, "nodes": [6611865937, 6611865938, 6611865939, 6611865940, 6611865941, 6611865942, 6611865937], "tags": {"leisure": "park"}}, {"type": "way", "id": 704168465, "nodes": [6611865943, 6611865944, 6611865945, 6611865946, 6611865947, 6611865943], "tags": {"leisure": "park"}}, {"type": "way", "id": 706989995, "nodes": [6643775463, 6643775464, 6643775465, 6643775466, 6643775463], "tags": {"leisure": "park"}}, {"type": "way", "id": 706989996, "nodes": [6643775467, 6643775468, 6643775469, 6643775470, 6643775471, 6643775472, 6643775467], "tags": {"leisure": "park"}}, {"type": "way", "id": 765889583, "nodes": [7153077550, 7153077549, 7153077548, 7153077547, 7153077550], "tags": {"leisure": "park"}}, {"type": "way", "id": 819779806, "nodes": [7655631123, 7655631124, 7655631125, 7655631126, 7655631123], "tags": {"leisure": "park"}}, {"type": "way", "id": 819779809, "nodes": [7655631134, 7655631135, 9850225825, 7655631137, 7655631134], "tags": {"leisure": "park"}}, {"type": "way", "id": 819779842, "nodes": [7655633738, 7655633739, 7655633740, 7655633741, 7655633738], "tags": {"leisure": "park"}}, {"type": "way", "id": 819779843, "nodes": [7655633742, 7655633743, 7655633744, 7655633745, 7655633742], "tags": {"leisure": "park"}}, {"type": "way", "id": 819779850, "nodes": [7655633756, 7655633757, 7655633758, 7655633756], "tags": {"leisure": "park"}}, {"type": "way", "id": 822454256, "nodes": [7679473500, 7679473501, 7679473502, 7679473503, 7679473500], "tags": {"leisure": "park"}}, {"type": "way", "id": 822454257, "nodes": [7679473504, 7679473505, 7679473506, 7679473507, 7679473504], "tags": {"leisure": "park"}}, {"type": "way", "id": 822454258, "nodes": [7679473508, 7679473509, 7679473510, 7679473511, 7679473508], "tags": {"leisure": "park"}}, {"type": "way", "id": 822590584, "nodes": [7680670890, 7680670891, 7680670892, 7680670893, 7680670890], "tags": {"leisure": "park"}}, {"type": "way", "id": 822590585, "nodes": [7680670894, 7680670895, 7680670896, 7680670897, 7680670898, 7680670899, 7680670894], "tags": {"leisure": "park"}}, {"type": "way", "id": 822590595, "nodes": [7680670931, 7680670932, 7680670933, 7680670934, 7680670931], "tags": {"leisure": "park"}}, {"type": "way", "id": 827121462, "nodes": [7722073369, 7722073370, 7722073371, 7722073372, 7722073373, 7722073374, 7722073369], "tags": {"leisure": "park"}}, {"type": "way", "id": 827121463, "nodes": [7722073375, 7722073376, 7722073377, 7722073378, 7722073375], "tags": {"leisure": "park"}}, {"type": "way", "id": 827121464, "nodes": [7722073379, 7722073380, 7722073381, 7722073382, 7722073379], "tags": {"leisure": "park"}}, {"type": "way", "id": 827121468, "nodes": [7722075089, 7722075090, 7722075091, 7722075092, 7722075089], "tags": {"leisure": "park"}}, {"type": "way", "id": 827121469, "nodes": [7722075094, 7722075095, 7722075096, 7722075097, 7722075094], "tags": {"leisure": "park"}}, {"type": "way", "id": 827121470, "nodes": [7722075098, 7722075099, 7722075100, 7722075101, 7722075098], "tags": {"leisure": "park"}}, {"type": "way", "id": 827121471, "nodes": [7722075102, 7722075103, 7722075104, 7722075105, 7722075102], "tags": {"leisure": "park"}}, {"type": "way", "id": 827121472, "nodes": [7722075106, 7722075107, 7722075108, 7722075109, 7722075106], "tags": {"leisure": "park"}}, {"type": "way", "id": 827121473, "nodes": [7722075110, 7722075111, 7722075112, 7722075113, 7722075110], "tags": {"leisure": "park"}}, {"type": "way", "id": 827127826, "nodes": [7722108003, 7722108004, 7722108005, 7722108006, 7722108003], "tags": {"leisure": "park", "name": "Mother Teresa Park", "name:etymology:wikidata": "Q30547"}}, {"type": "way", "id": 827127833, "nodes": [7722108024, 7722108025, 7722108026, 7722108027, 7722108024], "tags": {"leisure": "park"}}, {"type": "way", "id": 827127836, "nodes": [7722108034, 7722108035, 7722108036, 7722108037, 7722108038, 7722108039, 7722108034], "tags": {"leisure": "park"}}, {"type": "way", "id": 870335653, "nodes": [8108126508, 8108126507, 8108126511, 8108126510, 8108126509, 8108126508], "tags": {"leisure": "park"}}, {"type": "way", "id": 870335654, "nodes": [8108126515, 8108126514, 8108126513, 8108126512, 8108126515], "tags": {"leisure": "park"}}, {"type": "way", "id": 873021769, "nodes": [8129615739, 8129615738, 8129615737, 8129615736, 8129615735, 8129615734, 8129615733, 8129615739], "tags": {"leisure": "park", "name": "Hindustan Times Apartments"}}, {"type": "way", "id": 895122216, "nodes": [8320362376, 8320363590, 11601558192, 2416119458, 8320362350, 8320362351, 8320363588, 8320362352, 8320362377, 11602030690, 11602030689, 8320362376], "tags": {"alt_name": "Crafts Museum", "name": "National Handicrafts Museum", "name:en": "National Handicrafts Museum", "name:hi": "\u0930\u093e\u0937\u094d\u091f\u094d\u0930\u0940\u092f \u0939\u0938\u094d\u0924\u0936\u093f\u0932\u094d\u092a \u090f\u0935\u0902 \u0939\u0925\u0915\u0930\u0918\u093e \u0938\u0902\u0917\u094d\u0930\u0939\u093e\u0932\u092f", "tourism": "museum", "website": "https://nationalcraftsmuseum.nic.in/", "wikidata": "Q3630755", "wikimedia_commons": "Category:Crafts Museum, New Delhi", "wikipedia": "en:National Handicrafts and Handlooms Museum, New Delhi"}}, {"type": "way", "id": 973075080, "nodes": [938622645, 938622449, 3746050630, 3746050631, 3746050629, 3746050628, 3746050625, 3746043824, 10608422629, 3746043821, 3746043822, 3746043820, 3746043819, 3746043818, 3746043817, 938622335, 3746050302, 3746050301, 3746050299, 3746050296, 3746050294, 938622474, 3746050293, 3746050288, 3746050287, 3746050286, 3746050284, 3746050285, 3746050276, 3746050274, 3746050273, 3746050272, 938622327, 938622725, 3746050269, 3746050268, 3746050266, 3746050265, 3746050267, 3746050264, 3746050261, 3746050260, 3746050258, 3746050259, 3746050251, 3746050250, 3746050249, 3746050247, 3746050246, 3746050248, 3746050237, 3746050236, 3746050234, 3746050233, 938622776, 938622533, 3746050230, 3746050227, 3746050225, 3746048723, 938622514, 3746048713, 938622376, 3746048707, 3746048706, 938622345, 938622744, 3746048715, 3746048717, 9006482458, 3746048718, 3746048720, 3746048724, 3746048721, 3746048722, 3746050226, 3746050228, 938622403, 938622285, 3746050239, 3746050240, 3746050241, 3746050243, 3746050244, 938622247, 938622559, 3746050256, 938622282, 9006482467, 9006482468, 3746050263, 938622660, 938622552, 3746050283, 938622400, 938622708, 3746050291, 3746050292, 938622459, 938622430, 938622411, 938622381, 938622255, 938622441, 3746050634, 3746050636, 3746050638, 938622324, 3746050637, 3746050635, 938622645], "tags": {"barrier": "city_wall", "historic": "citywalls"}}, {"type": "way", "id": 973075081, "nodes": [938622645, 938622449, 3746050630, 3746050631, 3746050629, 3746050628, 3746050625, 3746043824, 10608422629, 3746043821, 3746043822, 3746043820, 3746043819, 3746043818, 3746043817, 938622335, 3746050302, 3746050301, 3746050299, 3746050296, 3746050294, 938622474, 3746050293, 3746050288, 3746050287, 3746050286, 3746050284, 3746050285, 3746050276, 3746050274, 3746050273, 3746050272, 938622327, 938622725, 3746050269, 3746050268, 3746050266, 3746050265, 3746050267, 3746050264, 3746050261, 3746050260, 3746050258, 3746050259, 3746050251, 3746050250, 3746050249, 3746050247, 3746050246, 3746050248, 3746050237, 3746050236, 3746050234, 3746050233, 938622776, 938622533, 3746050230, 3746050227, 3746050225, 3746048723, 938622514, 3746048713, 938622376, 3746048707, 3746048706, 938622345, 938622744, 3746048715, 3746048717, 9006482458, 3746048718, 3746048720, 3746048724, 3746048721, 3746048722, 3746050226, 3746050228, 938622403, 938622285, 3746050239, 3746050240, 3746050241, 3746050243, 3746050244, 938622247, 938622559, 3746050256, 938622282, 9006482467, 9006482468, 3746050263, 938622660, 938622552, 3746050283, 938622400, 938622708, 3746050291, 3746050292, 938622459, 938622430, 938622411, 938622381, 938622255, 938622441, 3746050634, 3746050636, 3746050638, 938622324, 3746050637, 3746050635, 938622645], "tags": {"castle_type": "fortress", "historic": "castle", "name": "\u092a\u0941\u0930\u093e\u0928\u093e \u0915\u093f\u0932\u093e", "name:en": "Purana Qila", "name:hi": "\u092a\u0941\u0930\u093e\u0928\u093e \u0915\u093f\u0932\u093e", "tourism": "attraction", "wheelchair": "yes", "wikidata": "Q1151529", "wikimedia_commons": "Category:Purana Qila", "wikipedia": "hi:\u092a\u0941\u0930\u093e\u0928\u093e \u0915\u093f\u0932\u093e, \u0926\u093f\u0932\u094d\u0932\u0940"}}, {"type": "way", "id": 973086052, "nodes": [9006586549, 9006586548, 9006586547, 9006586546, 9006586545, 9006586544, 9006586543, 9006586542, 9006586541, 9006586540, 9006586539, 9006586538, 9006586537, 9006586536, 9006586535, 9006586534, 9006586533], "tags": {"barrier": "city_wall", "historic": "citywalls"}}, {"type": "way", "id": 973086054, "nodes": [9006586549, 9006586548, 9006586547, 9006586546, 9006586545, 9006586544, 9006586543, 9006586542, 9006586541, 9006586540, 9006586539, 9006586538, 9006586537, 9006586536, 9006586535, 9006586534, 9006586533, 9006586549], "tags": {"building": "yes", "historic": "city_gate", "name": "\u0926\u093f\u0932\u094d\u0932\u0940 \u0917\u0947\u091f", "operator": "ASI", "tourism": "attraction", "wikidata": "Q5253759", "wikimedia_commons": "Category:Delhi Gate, Delhi", "wikipedia": "en:Delhi Gate, Delhi"}}, {"type": "way", "id": 1171536855, "nodes": [10886159413, 10893806056, 11148213463, 10886159417, 11148213557, 4442163708, 4442163709, 4442163710, 4442163711, 11148213503, 10911422989, 10911422976, 10886159413], "tags": {"alt_name": "Cactus Garden", "barrier": "wall", "leisure": "park", "name": "Xeriscape"}}, {"type": "way", "id": 1182839787, "nodes": [10983736820, 10983736824, 10983736816, 10983736815, 10983736810, 10983736807, 10983736809, 10983736806, 10983736826, 10983683004, 10983736811, 10983736814, 10983172670, 10983736808, 10983736823, 10983736805, 7222335595, 10983172672, 7222335588, 10983172677, 10983172671, 10983172669, 10983172667, 10983172675, 10983736819, 10983736812, 10983736822, 10983683003, 10983736827, 10983683001, 10983683000, 10983736821, 10983736818, 10983683002, 10983736825, 10983172668, 10983172676, 9833721303, 10773265995, 7153083705, 11137697909, 7153083703, 10983736813, 10983736820], "tags": {"amenity": "marketplace", "name": "Buddh Bazar", "name:hi": "\u092c\u0941\u0926\u094d\u0927 \u092c\u093e\u091c\u093c\u093e\u0930", "opening_hours": "We 16:30-22:30"}}, {"type": "way", "id": 1193827485, "nodes": [11081616316, 11810413151, 11081616317, 11081616315, 11081616312, 11081616313, 11081616316], "tags": {"leisure": "park"}}, {"type": "way", "id": 1202535522, "nodes": [11148213552, 11148213499, 11148213544, 11148213615, 11148213645, 11148213646, 11148213609, 11148213428, 2211538220, 11148213620, 11148213569, 11148213552], "tags": {"barrier": "wall", "leisure": "park"}}, {"type": "way", "id": 1215512975, "nodes": [11261969138, 11261969143, 11261969144, 11261969142, 11998490340, 11261969138], "tags": {"leisure": "park"}}, {"type": "way", "id": 1232377497, "nodes": [11431609466, 11431609465, 11431609464, 11431609463, 11431609466], "tags": {"leisure": "park", "name": "Trikona park"}}, {"type": "way", "id": 1248079160, "nodes": [11601887513, 11601887512, 11601887511, 8320362387, 8320362388, 8320362389, 11601887513], "tags": {"leisure": "park"}}, {"type": "way", "id": 1248079161, "nodes": [11601887534, 11601887533, 11601887532, 11601887531, 11601887530, 11601887529, 11601887528, 11601887527, 11601887526, 11601887525, 11601887524, 11601887523, 11601887522, 11601887519, 11601887521, 11601887518, 11601887517, 11601887520, 11601887516, 11601887515, 11601887514, 11601887534], "tags": {"leisure": "park"}}, {"type": "way", "id": 1248079181, "nodes": [11601893994, 11601893692, 11601893690, 11601893691, 11601893689, 11601893688, 11601893687, 11601893686, 11601893683, 11601893685, 11601893682, 11601893684, 11601893681, 11601893680, 11601893994], "tags": {"amenity": "cafe", "building:part": "retail"}}, {"type": "way", "id": 1248096979, "nodes": [8320362375, 8320362372, 11601558179, 8320362373, 8320362374, 8320362375], "tags": {"addr:city": "Near Gate No.1, Pragati Maidan, New Delhi, Delhi", "addr:housenumber": "National Science Center", "addr:postcode": "110001", "addr:street": "Bhairon Marg", "fee": "yes", "name": "National Science Center", "name:hi": "\u0930\u093e\u0937\u094d\u091f\u094d\u0930\u0940\u092f \u0935\u093f\u091c\u094d\u091e\u093e\u0928 \u0915\u0947\u0902\u0926\u094d\u0930", "opening_hours": "Mo-Su 09:30-18:00", "tourism": "museum", "wikidata": "Q6978272", "wikimedia_commons": "Category:National Science Centre, Delhi", "wikipedia": "en:National Science Centre, Delhi"}}, {"type": "way", "id": 1256902981, "nodes": [11684986949, 11684986950, 11684986951, 11684986952, 11684986953, 11684986954, 11684986955, 11684986956, 11684986949], "tags": {"historic": "ruins", "ruins": "building"}}, {"type": "way", "id": 1256902982, "nodes": [11684986957, 11684986958, 11684986959, 11684986960, 11684986957], "tags": {"historic": "ruins", "ruins": "fort"}}, {"type": "way", "id": 1270584506, "nodes": [11799231543, 11799231544, 11799231545, 11799231546, 11799231547, 11799231543], "tags": {"access": "yes", "addr:city": "new delhi", "addr:district": "delhi", "addr:postcode": "110091", "addr:street": "Chatan Jain Marg", "leisure": "park", "name": "DDA park", "opening_hours": "Mo-Sa 07:00-21:00", "operator": "East Delhi Municipal Corporation", "operator:type": "government"}}, {"type": "way", "id": 1270585071, "nodes": [11799231546, 11799295528, 11799295531, 13107967224, 11799262446, 11799262447, 11799231545, 11799231546], "tags": {"addr:city": "new delhi", "addr:district": "delhi", "addr:postcode": "110091", "addr:street": "Chatan Jain Marg", "leisure": "park", "name": "DDA Park", "opening_hours": "Mo-Sa 07:00-21:00", "operator": "East Delhi Municipal Corporation", "operator:type": "government"}}, {"type": "way", "id": 1270585601, "nodes": [11799231547, 5242159811, 11799287588, 11799287585, 11799288801, 11799288802, 11799288803, 11799231547], "tags": {"addr:city": "new delhi", "addr:district": "delhi", "addr:postcode": "110091", "addr:street": "Chatan Jain Marg", "leisure": "park", "name": "DDA Park", "opening_hours": "Mo-Sa 07:00-21:00", "operator": "East Delhi municipal Corporation", "operator:type": "government"}}, {"type": "way", "id": 1270586081, "nodes": [11799287585, 13107967292, 11799287586, 5242160232, 11799287588, 11799287585], "tags": {"addr:city": "new delhi", "addr:district": "delhi", "addr:postcode": "110091", "addr:street": "Chatan Jain Marg", "leisure": "park", "name": "DDA Park", "opening_hours": "Mo-Sa 07:00-21:00", "operator": "East Delhi Municipal Corporation", "operator:type": "government"}}, {"type": "way", "id": 1270586364, "nodes": [11799295528, 11799295529, 5242160235, 11799295531, 11799295528], "tags": {"addr:city": "new delhi", "addr:district": "delhi", "addr:postcode": "110091", "addr:street": "Anand Lok DDA Park Walkway", "leisure": "park", "name": "DDA Park", "opening_hours": "Mo-Sa 07:00-21:00", "operator": "East Delhi Municipal Corporation", "operator:type": "government"}}, {"type": "way", "id": 1289022275, "nodes": [11952924101, 11952924155, 11952924091, 11952924130, 11952924221, 11952924089, 11952924117, 11952924174, 11952924101], "tags": {"leisure": "park"}}, {"type": "way", "id": 1289424814, "nodes": [11956304455, 11956304452, 11956351600, 11956351601, 11956351610, 11956351594, 11956304455], "tags": {"leisure": "park"}}, {"type": "way", "id": 1289426910, "nodes": [3247320280, 11998510469, 11956344857, 11956344856, 11956344853, 11956344858, 11956344850, 11956344852, 13062180913, 11956344846, 11956344854, 11956344848, 11956344849, 7155468162, 3247320280], "tags": {"leisure": "park"}}, {"type": "way", "id": 1302778091, "nodes": [12065425314, 12065425329, 12065425346, 12065436374, 12065436405, 12065425314], "tags": {"leisure": "park"}}, {"type": "way", "id": 1366077821, "nodes": [12650783525, 12650783540, 12596444619, 12650783510, 12650783525], "tags": {"leisure": "park", "name": "Swasthya Vihar Neighbourhood Park"}}, {"type": "way", "id": 1425950203, "nodes": [13107980832, 13107967238, 13107967281, 13107967212, 13107980832], "tags": {"leisure": "park"}}, {"type": "way", "id": 1425950208, "nodes": [13107967242, 13107967278, 13107967263, 13107980830, 13107980824, 13107967298, 13107980816, 13107980842, 13107980844, 13107967255, 13107967222, 13107967231, 13107967293, 13107980829, 13107967228, 13107967287, 13107967242], "tags": {"alt_name": "Patparganj Main Bazar", "amenity": "marketplace", "name": "Patparganj Main Market"}}, {"type": "way", "id": 1448399385, "nodes": [13288958114, 13288958115, 13288958116, 13288958117, 13288958114], "tags": {"building": "yes", "historic": "monument", "name": "Raj Ghat", "name:ar": "\u0631\u0627\u062c \u063a\u0627\u062a", "name:fa": "\u0631\u0627\u062c \u06af\u0627\u062a", "name:hi": "\u0930\u093e\u091c\u0918\u093e\u091f", "wikidata": "Q1001", "wikipedia": "en:Mahatma Gandhi"}}, {"type": "way", "id": 1448399387, "nodes": [13288958122, 13288958123, 13288958124, 13288958125, 13288958122], "tags": {"building": "yes", "historic": "monument", "name": "Kisan Ghat", "name:hi": "\u0915\u093f\u0938\u093e\u0928 \u0918\u093e\u091f", "wikidata": "Q319824", "wikipedia": "en:Charan Singh"}}, {"type": "way", "id": 1448399388, "nodes": [13288958126, 13288958127, 13288958128, 13288958129, 13288958126], "tags": {"building": "yes", "historic": "monument", "name": "Veer Bhumi", "name:hi": "\u0935\u0940\u0930 \u092d\u0942\u092e\u093f", "wikidata": "Q4593", "wikipedia": "en:Rajiv Gandhi"}}, {"type": "way", "id": 1448399390, "nodes": [13288958136, 13288958137, 13288958138, 13288958139, 13288958136], "tags": {"building": "yes", "historic": "monument", "name": "Shakti Sthal", "name:hi": "\u0936\u0915\u094d\u0924\u093f \u0938\u094d\u0925\u0932", "wikidata": "Q1149", "wikipedia": "en:Indira Gandhi"}}, {"type": "way", "id": 1448399391, "nodes": [13288958140, 13288958141, 13288958142, 13288958143, 13288958140], "tags": {"building": "yes", "historic": "monument", "name": "Shantivan", "name:hi": "\u0936\u093e\u0902\u0924\u093f\u0935\u0928", "wikidata": "Q1047", "wikipedia": "en:Jawaharlal Nehru"}}, {"type": "node", "id": 2957312858, "lat": 28.6024213, "lon": 77.2407281}, {"type": "node", "id": 3424252666, "lat": 28.6021089, "lon": 77.2395883}, {"type": "node", "id": 3424252667, "lat": 28.6016977, "lon": 77.2396006}, {"type": "node", "id": 3424252668, "lat": 28.6017031, "lon": 77.240186}, {"type": "node", "id": 3424252669, "lat": 28.6021359, "lon": 77.2401428}, {"type": "node", "id": 3424252670, "lat": 28.6021251, "lon": 77.2399272}, {"type": "node", "id": 3424252671, "lat": 28.6024497, "lon": 77.2397916}, {"type": "node", "id": 3424252672, "lat": 28.6022495, "lon": 77.2397916}, {"type": "node", "id": 3424252673, "lat": 28.6022712, "lon": 77.2400689}, {"type": "node", "id": 3424252674, "lat": 28.6024605, "lon": 77.2400566}, {"type": "node", "id": 938622758, "lat": 28.5993693, "lon": 77.2436227}, {"type": "node", "id": 2957312632, "lat": 28.5998435, "lon": 77.2426104}, {"type": "node", "id": 2957312833, "lat": 28.599867, "lon": 77.2429736}, {"type": "node", "id": 2957312834, "lat": 28.6001288, "lon": 77.2413327}, {"type": "node", "id": 2957312835, "lat": 28.6001326, "lon": 77.2425862}, {"type": "node", "id": 2957312836, "lat": 28.6001523, "lon": 77.2416959}, {"type": "node", "id": 2957312837, "lat": 28.6001561, "lon": 77.2429494}, {"type": "node", "id": 2957312838, "lat": 28.6004179, "lon": 77.2413084}, {"type": "node", "id": 2957312839, "lat": 28.6004414, "lon": 77.2416717}, {"type": "node", "id": 2957312841, "lat": 28.6005571, "lon": 77.2417317}, {"type": "node", "id": 2957312843, "lat": 28.6006373, "lon": 77.243376}, {"type": "node", "id": 2957312847, "lat": 28.6011497, "lon": 77.2416942}, {"type": "node", "id": 2957312849, "lat": 28.6012299, "lon": 77.2433386}, {"type": "node", "id": 2957312855, "lat": 28.6014471, "lon": 77.2407899}, {"type": "node", "id": 2957312856, "lat": 28.6014726, "lon": 77.2413131}, {"type": "node", "id": 2957312859, "lat": 28.6024469, "lon": 77.2412514}, {"type": "node", "id": 2957312867, "lat": 28.6028195, "lon": 77.2415903}, {"type": "node", "id": 2957312869, "lat": 28.6028996, "lon": 77.2432346}, {"type": "node", "id": 938622244, "lat": 28.6028332, "lon": 77.252237}, {"type": "node", "id": 938622288, "lat": 28.5996363, "lon": 77.2487376}, {"type": "node", "id": 938622407, "lat": 28.5984165, "lon": 77.2523457}, {"type": "node", "id": 938622434, "lat": 28.5986029, "lon": 77.2536106}, {"type": "node", "id": 938622495, "lat": 28.6007082, "lon": 77.2528733}, {"type": "node", "id": 938622562, "lat": 28.5980221, "lon": 77.2496016}, {"type": "node", "id": 938622666, "lat": 28.5995065, "lon": 77.2532608}, {"type": "node", "id": 938622667, "lat": 28.5991387, "lon": 77.2485717}, {"type": "node", "id": 938622733, "lat": 28.6028901, "lon": 77.252561}, {"type": "node", "id": 11833381894, "lat": 28.602512, "lon": 77.2525209}, {"type": "node", "id": 11833381895, "lat": 28.6016041, "lon": 77.252657}, {"type": "node", "id": 11833381896, "lat": 28.6009395, "lon": 77.2527997}, {"type": "node", "id": 11833381897, "lat": 28.600181, "lon": 77.2530159}, {"type": "node", "id": 938622267, "lat": 28.6073602, "lon": 77.2403409}, {"type": "node", "id": 938622424, "lat": 28.6076128, "lon": 77.2403127}, {"type": "node", "id": 938622774, "lat": 28.6057533, "lon": 77.2405192}, {"type": "node", "id": 938622783, "lat": 28.6092754, "lon": 77.2402159}, {"type": "node", "id": 2957312885, "lat": 28.6041975, "lon": 77.2406816}, {"type": "node", "id": 2957312892, "lat": 28.6047998, "lon": 77.2406386}, {"type": "node", "id": 3424252675, "lat": 28.6047598, "lon": 77.2397731}, {"type": "node", "id": 3424252676, "lat": 28.604143, "lon": 77.2397731}, {"type": "node", "id": 3424252677, "lat": 28.6041539, "lon": 77.2400258}, {"type": "node", "id": 3424252678, "lat": 28.6047598, "lon": 77.2399703}, {"type": "node", "id": 3543561340, "lat": 28.6049124, "lon": 77.2406454}, {"type": "node", "id": 3543561510, "lat": 28.6051816, "lon": 77.2406339}, {"type": "node", "id": 938622362, "lat": 28.6123944, "lon": 77.2403127}, {"type": "node", "id": 938622397, "lat": 28.6126007, "lon": 77.2405892}, {"type": "node", "id": 2416119654, "lat": 28.612163, "lon": 77.2403055}, {"type": "node", "id": 938622282, "lat": 28.6084416, "lon": 77.2471271}, {"type": "node", "id": 938622312, "lat": 28.6084441, "lon": 77.241543}, {"type": "node", "id": 938622327, "lat": 28.609413, "lon": 77.2417847}, {"type": "node", "id": 938622345, "lat": 28.6063992, "lon": 77.2447129}, {"type": "node", "id": 938622354, "lat": 28.6060507, "lon": 77.244466}, {"type": "node", "id": 938622376, "lat": 28.6063342, "lon": 77.2443849}, {"type": "node", "id": 938622390, "lat": 28.6083263, "lon": 77.2416597}, {"type": "node", "id": 938622403, "lat": 28.6069661, "lon": 77.2456808}, {"type": "node", "id": 938622514, "lat": 28.6068754, "lon": 77.2439621}, {"type": "node", "id": 938622528, "lat": 28.605899, "lon": 77.2432149}, {"type": "node", "id": 938622533, "lat": 28.606975, "lon": 77.2438817}, {"type": "node", "id": 938622552, "lat": 28.6096983, "lon": 77.2457839}, {"type": "node", "id": 938622660, "lat": 28.6087162, "lon": 77.2467356}, {"type": "node", "id": 938622723, "lat": 28.6073675, "lon": 77.2432149}, {"type": "node", "id": 938622725, "lat": 28.6089883, "lon": 77.242111}, {"type": "node", "id": 938622744, "lat": 28.6067808, "lon": 77.2453207}, {"type": "node", "id": 938622776, "lat": 28.6074798, "lon": 77.243479}, {"type": "node", "id": 2416119509, "lat": 28.608412, "lon": 77.2414954}, {"type": "node", "id": 2416119512, "lat": 28.608581, "lon": 77.2450484}, {"type": "node", "id": 2416119514, "lat": 28.6085967, "lon": 77.245114}, {"type": "node", "id": 2416119517, "lat": 28.6086106, "lon": 77.2449894}, {"type": "node", "id": 2416119521, "lat": 28.6086485, "lon": 77.2451477}, {"type": "node", "id": 2416119524, "lat": 28.6086681, "lon": 77.2449716}, {"type": "node", "id": 2416119526, "lat": 28.608706, "lon": 77.2451298}, {"type": "node", "id": 2416119529, "lat": 28.6087199, "lon": 77.2450053}, {"type": "node", "id": 2416119532, "lat": 28.6087356, "lon": 77.2450708}, {"type": "node", "id": 2592537224, "lat": 28.6068927, "lon": 77.2454295}, {"type": "node", "id": 2957312870, "lat": 28.6034121, "lon": 77.2415528}, {"type": "node", "id": 2957312871, "lat": 28.6034866, "lon": 77.2410858}, {"type": "node", "id": 2957312873, "lat": 28.6035101, "lon": 77.241449}, {"type": "node", "id": 2957312874, "lat": 28.6034922, "lon": 77.2431972}, {"type": "node", "id": 2957312876, "lat": 28.6037757, "lon": 77.2410616}, {"type": "node", "id": 2957312877, "lat": 28.6037992, "lon": 77.2414248}, {"type": "node", "id": 2957312879, "lat": 28.6038898, "lon": 77.2423186}, {"type": "node", "id": 2957312880, "lat": 28.6039133, "lon": 77.2426819}, {"type": "node", "id": 2957312883, "lat": 28.6041789, "lon": 77.2422944}, {"type": "node", "id": 2957312886, "lat": 28.6042024, "lon": 77.2426576}, {"type": "node", "id": 2957312887, "lat": 28.6042825, "lon": 77.2422323}, {"type": "node", "id": 2957312894, "lat": 28.6048751, "lon": 77.2421948}, {"type": "node", "id": 2957312897, "lat": 28.6049856, "lon": 77.2422454}, {"type": "node", "id": 2957312899, "lat": 28.6050091, "lon": 77.2426087}, {"type": "node", "id": 2957312903, "lat": 28.6052747, "lon": 77.2422212}, {"type": "node", "id": 2957312904, "lat": 28.6052982, "lon": 77.2425844}, {"type": "node", "id": 3543561346, "lat": 28.6049208, "lon": 77.2409037}, {"type": "node", "id": 3543561513, "lat": 28.60519, "lon": 77.2408922}, {"type": "node", "id": 3746048706, "lat": 28.6062628, "lon": 77.2445877}, {"type": "node", "id": 3746048707, "lat": 28.6062682, "lon": 77.2444788}, {"type": "node", "id": 3746048708, "lat": 28.606446, "lon": 77.2445064}, {"type": "node", "id": 3746048709, "lat": 28.6065536, "lon": 77.2447422}, {"type": "node", "id": 3746048711, "lat": 28.606509, "lon": 77.2447894}, {"type": "node", "id": 3746048713, "lat": 28.6065913, "lon": 77.2441568}, {"type": "node", "id": 3746048714, "lat": 28.6066962, "lon": 77.2442113}, {"type": "node", "id": 3746048715, "lat": 28.6067485, "lon": 77.2453701}, {"type": "node", "id": 3746048716, "lat": 28.6067286, "lon": 77.2442612}, {"type": "node", "id": 3746048717, "lat": 28.6067525, "lon": 77.245416}, {"type": "node", "id": 3746048718, "lat": 28.6068157, "lon": 77.2454875}, {"type": "node", "id": 3746048719, "lat": 28.6068676, "lon": 77.2452296}, {"type": "node", "id": 3746048720, "lat": 28.6068467, "lon": 77.2454683}, {"type": "node", "id": 3746048721, "lat": 28.6068717, "lon": 77.2455876}, {"type": "node", "id": 3746048722, "lat": 28.6068675, "lon": 77.2456322}, {"type": "node", "id": 3746048723, "lat": 28.6068619, "lon": 77.2439237}, {"type": "node", "id": 3746048724, "lat": 28.6069016, "lon": 77.2455617}, {"type": "node", "id": 3746050225, "lat": 28.606874, "lon": 77.2438716}, {"type": "node", "id": 3746050226, "lat": 28.6068901, "lon": 77.2456824}, {"type": "node", "id": 3746050227, "lat": 28.6069117, "lon": 77.243847}, {"type": "node", "id": 3746050228, "lat": 28.6069343, "lon": 77.2456936}, {"type": "node", "id": 3746050229, "lat": 28.6069266, "lon": 77.2440357}, {"type": "node", "id": 3746050230, "lat": 28.6069508, "lon": 77.2438593}, {"type": "node", "id": 3746050231, "lat": 28.606959, "lon": 77.2440747}, {"type": "node", "id": 3746050232, "lat": 28.6070168, "lon": 77.245653}, {"type": "node", "id": 3746050233, "lat": 28.6074637, "lon": 77.2434177}, {"type": "node", "id": 3746050234, "lat": 28.6074771, "lon": 77.2433655}, {"type": "node", "id": 3746050236, "lat": 28.6075269, "lon": 77.2433456}, {"type": "node", "id": 3746050237, "lat": 28.6075687, "lon": 77.2433701}, {"type": "node", "id": 3746050238, "lat": 28.6075777, "lon": 77.2435716}, {"type": "node", "id": 3746050242, "lat": 28.6074476, "lon": 77.2462048}, {"type": "node", "id": 3746050245, "lat": 28.6076568, "lon": 77.2467204}, {"type": "node", "id": 3746050246, "lat": 28.6080412, "lon": 77.2428749}, {"type": "node", "id": 3746050247, "lat": 28.6080452, "lon": 77.2428334}, {"type": "node", "id": 3746050248, "lat": 28.6080533, "lon": 77.2429209}, {"type": "node", "id": 3746050249, "lat": 28.6080802, "lon": 77.2427951}, {"type": "node", "id": 3746050250, "lat": 28.6081274, "lon": 77.2427951}, {"type": "node", "id": 3746050251, "lat": 28.6081556, "lon": 77.2428043}, {"type": "node", "id": 3746050253, "lat": 28.6081984, "lon": 77.2429882}, {"type": "node", "id": 3746050254, "lat": 28.6082576, "lon": 77.247238}, {"type": "node", "id": 3746050255, "lat": 28.6082735, "lon": 77.2472721}, {"type": "node", "id": 3746050256, "lat": 28.6084022, "lon": 77.2471866}, {"type": "node", "id": 3746050257, "lat": 28.6085458, "lon": 77.2468756}, {"type": "node", "id": 3746050258, "lat": 28.6086497, "lon": 77.2423566}, {"type": "node", "id": 3746050259, "lat": 28.6086551, "lon": 77.2424118}, {"type": "node", "id": 3746050260, "lat": 28.608678, "lon": 77.2422983}, {"type": "node", "id": 3746050261, "lat": 28.6087291, "lon": 77.2422845}, {"type": "node", "id": 3746050262, "lat": 28.6087391, "lon": 77.2425229}, {"type": "node", "id": 3746050263, "lat": 28.6087448, "lon": 77.2467681}, {"type": "node", "id": 3746050264, "lat": 28.6087749, "lon": 77.2423105}, {"type": "node", "id": 3746050265, "lat": 28.6088489, "lon": 77.2421741}, {"type": "node", "id": 3746050266, "lat": 28.6088597, "lon": 77.2421296}, {"type": "node", "id": 3746050267, "lat": 28.6088664, "lon": 77.2422231}, {"type": "node", "id": 3746050268, "lat": 28.6088893, "lon": 77.2421035}, {"type": "node", "id": 3746050269, "lat": 28.6089391, "lon": 77.2420928}, {"type": "node", "id": 3746050270, "lat": 28.6090722, "lon": 77.2422205}, {"type": "node", "id": 3746050271, "lat": 28.6093171, "lon": 77.2461036}, {"type": "node", "id": 3746050272, "lat": 28.6094035, "lon": 77.241737}, {"type": "node", "id": 3746050273, "lat": 28.6094359, "lon": 77.2416719}, {"type": "node", "id": 3746050274, "lat": 28.6094721, "lon": 77.2416567}, {"type": "node", "id": 3746050275, "lat": 28.6095063, "lon": 77.2418757}, {"type": "node", "id": 3746050276, "lat": 28.609512, "lon": 77.2416719}, {"type": "node", "id": 3746050277, "lat": 28.6096051, "lon": 77.2456981}, {"type": "node", "id": 3746050278, "lat": 28.609658, "lon": 77.2457699}, {"type": "node", "id": 3746050279, "lat": 28.6096529, "lon": 77.2417131}, {"type": "node", "id": 3746050280, "lat": 28.6097127, "lon": 77.2455288}, {"type": "node", "id": 5247558835, "lat": 28.6089253, "lon": 77.2423539}, {"type": "node", "id": 5271351458, "lat": 28.60913, "lon": 77.244193}, {"type": "node", "id": 5271351459, "lat": 28.6093501, "lon": 77.2443499}, {"type": "node", "id": 5271351460, "lat": 28.6093183, "lon": 77.2444076}, {"type": "node", "id": 5271351461, "lat": 28.6090994, "lon": 77.2442547}, {"type": "node", "id": 9006482440, "lat": 28.6089997, "lon": 77.2463348}, {"type": "node", "id": 9006482441, "lat": 28.6090844, "lon": 77.2462437}, {"type": "node", "id": 9006482442, "lat": 28.609108, "lon": 77.2461364}, {"type": "node", "id": 9006482443, "lat": 28.6092563, "lon": 77.2459996}, {"type": "node", "id": 9006482444, "lat": 28.6089785, "lon": 77.2464368}, {"type": "node", "id": 9006482445, "lat": 28.6065201, "lon": 77.2446048}, {"type": "node", "id": 9006482447, "lat": 28.607794, "lon": 77.2470255}, {"type": "node", "id": 9006482450, "lat": 28.606959, "lon": 77.2455495}, {"type": "node", "id": 9006482454, "lat": 28.6069651, "lon": 77.24538}, {"type": "node", "id": 9006482455, "lat": 28.6069027, "lon": 77.2451828}, {"type": "node", "id": 9006482456, "lat": 28.6068306, "lon": 77.2450909}, {"type": "node", "id": 9006482457, "lat": 28.606716, "lon": 77.2451259}, {"type": "node", "id": 9006482458, "lat": 28.6067768, "lon": 77.2454631}, {"type": "node", "id": 9006482459, "lat": 28.6075597, "lon": 77.2464247}, {"type": "node", "id": 9006482460, "lat": 28.607507, "lon": 77.2463261}, {"type": "node", "id": 9006482461, "lat": 28.6075446, "lon": 77.2465085}, {"type": "node", "id": 9006482462, "lat": 28.6078223, "lon": 77.2470027}, {"type": "node", "id": 9006482463, "lat": 28.6076339, "lon": 77.2467533}, {"type": "node", "id": 9006482464, "lat": 28.6074667, "lon": 77.2463617}, {"type": "node", "id": 9006482465, "lat": 28.6074337, "lon": 77.2462866}, {"type": "node", "id": 9006482466, "lat": 28.6072195, "lon": 77.2460505}, {"type": "node", "id": 9006482467, "lat": 28.6084498, "lon": 77.2470684}, {"type": "node", "id": 9006482468, "lat": 28.6084637, "lon": 77.2470211}, {"type": "node", "id": 9006482469, "lat": 28.6084204, "lon": 77.2470537}, {"type": "node", "id": 9006482470, "lat": 28.6084169, "lon": 77.247106}, {"type": "node", "id": 9006482471, "lat": 28.608431, "lon": 77.2470094}, {"type": "node", "id": 9006482472, "lat": 28.6083851, "lon": 77.247161}, {"type": "node", "id": 9006482474, "lat": 28.6079542, "lon": 77.2472602}, {"type": "node", "id": 9006482475, "lat": 28.6073843, "lon": 77.2460854}, {"type": "node", "id": 10608417004, "lat": 28.6071914, "lon": 77.2438857}, {"type": "node", "id": 938622247, "lat": 28.6080518, "lon": 77.2474772}, {"type": "node", "id": 938622285, "lat": 28.6078614, "lon": 77.2473666}, {"type": "node", "id": 938622314, "lat": 28.6068345, "lon": 77.2516214}, {"type": "node", "id": 938622322, "lat": 28.6095462, "lon": 77.2508545}, {"type": "node", "id": 938622325, "lat": 28.6079937, "lon": 77.2478136}, {"type": "node", "id": 938622343, "lat": 28.607631, "lon": 77.2514918}, {"type": "node", "id": 938622373, "lat": 28.605289, "lon": 77.2514702}, {"type": "node", "id": 938622385, "lat": 28.6084737, "lon": 77.2473422}, {"type": "node", "id": 938622456, "lat": 28.6083705, "lon": 77.2512973}, {"type": "node", "id": 938622471, "lat": 28.608745, "lon": 77.248945}, {"type": "node", "id": 938622559, "lat": 28.6081603, "lon": 77.2474295}, {"type": "node", "id": 938622682, "lat": 28.6086917, "lon": 77.2474502}, {"type": "node", "id": 938622703, "lat": 28.6055355, "lon": 77.2514162}, {"type": "node", "id": 3746050239, "lat": 28.6078443, "lon": 77.2474577}, {"type": "node", "id": 3746050240, "lat": 28.6078652, "lon": 77.2475228}, {"type": "node", "id": 3746050241, "lat": 28.6079166, "lon": 77.2475596}, {"type": "node", "id": 3746050243, "lat": 28.6079699, "lon": 77.2475553}, {"type": "node", "id": 3746050244, "lat": 28.6080099, "lon": 77.2474946}, {"type": "node", "id": 3746050252, "lat": 28.6081383, "lon": 77.2473247}, {"type": "node", "id": 9006482473, "lat": 28.608046, "lon": 77.2473407}, {"type": "node", "id": 13290316402, "lat": 28.6035147, "lon": 77.2537524}, {"type": "node", "id": 13290316403, "lat": 28.6065613, "lon": 77.2527866}, {"type": "node", "id": 938622255, "lat": 28.6118975, "lon": 77.2429449}, {"type": "node", "id": 938622290, "lat": 28.6116905, "lon": 77.2433609}, {"type": "node", "id": 938622324, "lat": 28.6124781, "lon": 77.2423355}, {"type": "node", "id": 938622335, "lat": 28.6109608, "lon": 77.241082}, {"type": "node", "id": 938622381, "lat": 28.6118175, "lon": 77.2431162}, {"type": "node", "id": 938622400, "lat": 28.610378, "lon": 77.2448715}, {"type": "node", "id": 938622411, "lat": 28.6114863, "lon": 77.2433721}, {"type": "node", "id": 938622412, "lat": 28.6108228, "lon": 77.2445498}, {"type": "node", "id": 938622430, "lat": 28.6111353, "lon": 77.2438927}, {"type": "node", "id": 938622441, "lat": 28.6123201, "lon": 77.2424895}, {"type": "node", "id": 938622443, "lat": 28.611114, "lon": 77.2449714}, {"type": "node", "id": 938622449, "lat": 28.6118899, "lon": 77.2417608}, {"type": "node", "id": 938622459, "lat": 28.6111353, "lon": 77.2439536}, {"type": "node", "id": 938622474, "lat": 28.6106962, "lon": 77.2410018}, {"type": "node", "id": 938622541, "lat": 28.6124975, "lon": 77.2425315}, {"type": "node", "id": 938622645, "lat": 28.6123392, "lon": 77.2422552}, {"type": "node", "id": 938622708, "lat": 28.6104799, "lon": 77.2448438}, {"type": "node", "id": 938622781, "lat": 28.6100353, "lon": 77.2460753}, {"type": "node", "id": 2416119458, "lat": 28.613822, "lon": 77.2414559}, {"type": "node", "id": 3746043815, "lat": 28.6114292, "lon": 77.2432918}, {"type": "node", "id": 3746043816, "lat": 28.6115061, "lon": 77.2416455}, {"type": "node", "id": 3746043817, "lat": 28.6115738, "lon": 77.2415049}, {"type": "node", "id": 3746043818, "lat": 28.6116119, "lon": 77.2414637}, {"type": "node", "id": 3746043819, "lat": 28.6116557, "lon": 77.2414377}, {"type": "node", "id": 3746043820, "lat": 28.611709, "lon": 77.2414594}, {"type": "node", "id": 3746043821, "lat": 28.6117185, "lon": 77.2415938}, {"type": "node", "id": 3746043822, "lat": 28.6117452, "lon": 77.2415223}, {"type": "node", "id": 3746043823, "lat": 28.6117528, "lon": 77.2430294}, {"type": "node", "id": 3746043824, "lat": 28.6117795, "lon": 77.2416329}, {"type": "node", "id": 3746050281, "lat": 28.6097783, "lon": 77.2455862}, {"type": "node", "id": 3746050282, "lat": 28.6099137, "lon": 77.2453303}, {"type": "node", "id": 3746050283, "lat": 28.6099747, "lon": 77.245339}, {"type": "node", "id": 3746050284, "lat": 28.6100489, "lon": 77.2412729}, {"type": "node", "id": 3746050285, "lat": 28.6100489, "lon": 77.2413531}, {"type": "node", "id": 3746050286, "lat": 28.6100813, "lon": 77.2412338}, {"type": "node", "id": 3746050287, "lat": 28.6101346, "lon": 77.2412273}, {"type": "node", "id": 3746050288, "lat": 28.6101822, "lon": 77.2412815}, {"type": "node", "id": 3746050289, "lat": 28.6103154, "lon": 77.24476}, {"type": "node", "id": 3746050290, "lat": 28.6103402, "lon": 77.2448337}, {"type": "node", "id": 3746050291, "lat": 28.6105458, "lon": 77.2447578}, {"type": "node", "id": 3746050292, "lat": 28.6105629, "lon": 77.2446689}, {"type": "node", "id": 3746050293, "lat": 28.6106905, "lon": 77.2410994}, {"type": "node", "id": 3746050294, "lat": 28.610721, "lon": 77.2409085}, {"type": "node", "id": 3746050295, "lat": 28.6107704, "lon": 77.2411861}, {"type": "node", "id": 3746050296, "lat": 28.6107933, "lon": 77.240837}, {"type": "node", "id": 3746050297, "lat": 28.6108276, "lon": 77.2411883}, {"type": "node", "id": 3746050298, "lat": 28.6108523, "lon": 77.2440769}, {"type": "node", "id": 3746050299, "lat": 28.6108904, "lon": 77.2408457}, {"type": "node", "id": 3746050300, "lat": 28.6109132, "lon": 77.2440812}, {"type": "node", "id": 3746050301, "lat": 28.6109399, "lon": 77.2409064}, {"type": "node", "id": 3746050302, "lat": 28.6109532, "lon": 77.2409714}, {"type": "node", "id": 3746050303, "lat": 28.6109856, "lon": 77.2439836}, {"type": "node", "id": 3746050304, "lat": 28.6109951, "lon": 77.2439077}, {"type": "node", "id": 3746050305, "lat": 28.6113492, "lon": 77.2434046}, {"type": "node", "id": 3746050625, "lat": 28.6118232, "lon": 77.2415873}, {"type": "node", "id": 3746050626, "lat": 28.6118288, "lon": 77.2418711}, {"type": "node", "id": 3746050627, "lat": 28.611848, "lon": 77.2428473}, {"type": "node", "id": 3746050628, "lat": 28.6118613, "lon": 77.2415765}, {"type": "node", "id": 3746050629, "lat": 28.6119051, "lon": 77.2415982}, {"type": "node", "id": 3746050630, "lat": 28.6119203, "lon": 77.2416979}, {"type": "node", "id": 3746050631, "lat": 28.611928, "lon": 77.241648}, {"type": "node", "id": 3746050632, "lat": 28.6121697, "lon": 77.2423116}, {"type": "node", "id": 3746050633, "lat": 28.6121754, "lon": 77.2424873}, {"type": "node", "id": 3746050634, "lat": 28.6123601, "lon": 77.2424764}, {"type": "node", "id": 3746050635, "lat": 28.612383, "lon": 77.2422509}, {"type": "node", "id": 3746050636, "lat": 28.6124248, "lon": 77.2424764}, {"type": "node", "id": 3746050637, "lat": 28.6124496, "lon": 77.2422813}, {"type": "node", "id": 3746050638, "lat": 28.6124724, "lon": 77.2424244}, {"type": "node", "id": 5555220766, "lat": 28.6121267, "lon": 77.2421912}, {"type": "node", "id": 8320362350, "lat": 28.6144578, "lon": 77.2412386}, {"type": "node", "id": 8320362351, "lat": 28.6145873, "lon": 77.241464}, {"type": "node", "id": 8320362352, "lat": 28.6139963, "lon": 77.2432208}, {"type": "node", "id": 8320362372, "lat": 28.612719, "lon": 77.2465283}, {"type": "node", "id": 8320362373, "lat": 28.6131192, "lon": 77.2464998}, {"type": "node", "id": 8320362374, "lat": 28.6137373, "lon": 77.2452432}, {"type": "node", "id": 8320362375, "lat": 28.6127883, "lon": 77.2445895}, {"type": "node", "id": 8320362376, "lat": 28.6128702, "lon": 77.2427554}, {"type": "node", "id": 8320362377, "lat": 28.6131769, "lon": 77.2427112}, {"type": "node", "id": 8320363588, "lat": 28.6148425, "lon": 77.2416256}, {"type": "node", "id": 8320363590, "lat": 28.6128896, "lon": 77.2417348}, {"type": "node", "id": 10608422629, "lat": 28.6117522, "lon": 77.2416154}, {"type": "node", "id": 11601558179, "lat": 28.613012, "lon": 77.2464542}, {"type": "node", "id": 11601558192, "lat": 28.6129414, "lon": 77.2416852}, {"type": "node", "id": 11602030689, "lat": 28.6130271, "lon": 77.2427558}, {"type": "node", "id": 11602030690, "lat": 28.6131164, "lon": 77.2428359}, {"type": "node", "id": 938622251, "lat": 28.6104185, "lon": 77.2513837}, {"type": "node", "id": 938622253, "lat": 28.6104754, "lon": 77.2515458}, {"type": "node", "id": 938622270, "lat": 28.6108515, "lon": 77.2481652}, {"type": "node", "id": 938622287, "lat": 28.5961771, "lon": 77.2541642}, {"type": "node", "id": 938622323, "lat": 28.5916885, "lon": 77.2558196}, {"type": "node", "id": 938622349, "lat": 28.5915121, "lon": 77.2547302}, {"type": "node", "id": 938622406, "lat": 28.5966145, "lon": 77.2541122}, {"type": "node", "id": 938622469, "lat": 28.594502, "lon": 77.2545181}, {"type": "node", "id": 938622748, "lat": 28.5956646, "lon": 77.256179}, {"type": "node", "id": 11135234362, "lat": 28.5915882, "lon": 77.255217}, {"type": "node", "id": 11135234379, "lat": 28.5915721, "lon": 77.2550975}, {"type": "node", "id": 11808663942, "lat": 28.5925736, "lon": 77.2555013}, {"type": "node", "id": 11808663943, "lat": 28.5927681, "lon": 77.2563924}, {"type": "node", "id": 11808665424, "lat": 28.5928934, "lon": 77.2569308}, {"type": "node", "id": 11833381881, "lat": 28.5928244, "lon": 77.2566342}, {"type": "node", "id": 11833381884, "lat": 28.5928274, "lon": 77.2566473}, {"type": "node", "id": 11833381892, "lat": 28.5915967, "lon": 77.2552797}, {"type": "node", "id": 11833381899, "lat": 28.5950032, "lon": 77.2543927}, {"type": "node", "id": 11833381900, "lat": 28.5940346, "lon": 77.2546154}, {"type": "node", "id": 11833381901, "lat": 28.5928219, "lon": 77.2546582}, {"type": "node", "id": 11833381903, "lat": 28.5923172, "lon": 77.254686}, {"type": "node", "id": 938622464, "lat": 28.6017098, "lon": 77.2543245}, {"type": "node", "id": 938622710, "lat": 28.6010032, "lon": 77.2544834}, {"type": "node", "id": 11833381898, "lat": 28.5975899, "lon": 77.2538668}, {"type": "node", "id": 13290316404, "lat": 28.6009296, "lon": 77.2545068}, {"type": "node", "id": 2330734814, "lat": 28.6129412, "lon": 77.2795452}, {"type": "node", "id": 2330734817, "lat": 28.6133742, "lon": 77.2797987}, {"type": "node", "id": 2330734873, "lat": 28.6135016, "lon": 77.2797171}, {"type": "node", "id": 2330734906, "lat": 28.6133026, "lon": 77.2793137}, {"type": "node", "id": 2330737949, "lat": 28.614295, "lon": 77.279936}, {"type": "node", "id": 2330737950, "lat": 28.6144931, "lon": 77.2797418}, {"type": "node", "id": 2330737951, "lat": 28.6140689, "lon": 77.2788432}, {"type": "node", "id": 2330737955, "lat": 28.6137955, "lon": 77.2796951}, {"type": "node", "id": 2330737958, "lat": 28.6138668, "lon": 77.2790536}, {"type": "node", "id": 2330737962, "lat": 28.6136369, "lon": 77.2794973}, {"type": "node", "id": 2330737965, "lat": 28.6141104, "lon": 77.2798848}, {"type": "node", "id": 2330737966, "lat": 28.614189, "lon": 77.2800036}, {"type": "node", "id": 2330737968, "lat": 28.6136751, "lon": 77.2794707}, {"type": "node", "id": 2330737969, "lat": 28.6141637, "lon": 77.279952}, {"type": "node", "id": 2330737973, "lat": 28.6137573, "lon": 77.2797217}, {"type": "node", "id": 2330737975, "lat": 28.6139227, "lon": 77.2795031}, {"type": "node", "id": 2330737978, "lat": 28.6137303, "lon": 77.2790592}, {"type": "node", "id": 2330737979, "lat": 28.6144687, "lon": 77.2796562}, {"type": "node", "id": 2330737981, "lat": 28.6140483, "lon": 77.2794229}, {"type": "node", "id": 2330737982, "lat": 28.6137608, "lon": 77.2791212}, {"type": "node", "id": 939091117, "lat": 28.6243825, "lon": 77.2403097}, {"type": "node", "id": 939091145, "lat": 28.624524, "lon": 77.2400065}, {"type": "node", "id": 939091170, "lat": 28.6244785, "lon": 77.2405841}, {"type": "node", "id": 939091204, "lat": 28.6244055, "lon": 77.2401948}, {"type": "node", "id": 2234809646, "lat": 28.6244179, "lon": 77.240448}, {"type": "node", "id": 2234812017, "lat": 28.6247875, "lon": 77.2404437}, {"type": "node", "id": 2234812023, "lat": 28.624856, "lon": 77.2403462}, {"type": "node", "id": 2234812035, "lat": 28.6248028, "lon": 77.2402334}, {"type": "node", "id": 7973098615, "lat": 28.6247395, "lon": 77.2401819}, {"type": "node", "id": 8320362387, "lat": 28.6225667, "lon": 77.2429553}, {"type": "node", "id": 11601887511, "lat": 28.6223412, "lon": 77.2431538}, {"type": "node", "id": 11601887514, "lat": 28.622098, "lon": 77.2429321}, {"type": "node", "id": 11601887515, "lat": 28.6220437, "lon": 77.2429193}, {"type": "node", "id": 11601887516, "lat": 28.6220044, "lon": 77.2429236}, {"type": "node", "id": 11601887517, "lat": 28.6217982, "lon": 77.2430657}, {"type": "node", "id": 11601887518, "lat": 28.6217767, "lon": 77.243078}, {"type": "node", "id": 11601887519, "lat": 28.6217284, "lon": 77.2430883}, {"type": "node", "id": 11601887520, "lat": 28.6218173, "lon": 77.2430493}, {"type": "node", "id": 11601887521, "lat": 28.6217537, "lon": 77.2430856}, {"type": "node", "id": 11601887522, "lat": 28.6217032, "lon": 77.2430856}, {"type": "node", "id": 11601887523, "lat": 28.6213027, "lon": 77.2428042}, {"type": "node", "id": 11601887524, "lat": 28.6211512, "lon": 77.2430813}, {"type": "node", "id": 11601887525, "lat": 28.6211736, "lon": 77.2431794}, {"type": "node", "id": 11601887526, "lat": 28.6216396, "lon": 77.2434693}, {"type": "node", "id": 11601887527, "lat": 28.6216976, "lon": 77.2434479}, {"type": "node", "id": 11601887528, "lat": 28.6217574, "lon": 77.2434991}, {"type": "node", "id": 11601887529, "lat": 28.6217986, "lon": 77.2435652}, {"type": "node", "id": 11601887530, "lat": 28.6218734, "lon": 77.2435737}, {"type": "node", "id": 11601887531, "lat": 28.6220699, "lon": 77.2434181}, {"type": "node", "id": 11601887532, "lat": 28.6221429, "lon": 77.2432646}, {"type": "node", "id": 11601887533, "lat": 28.6221485, "lon": 77.2431858}, {"type": "node", "id": 11601887534, "lat": 28.6222346, "lon": 77.2430323}, {"type": "node", "id": 11601893680, "lat": 28.6183024, "lon": 77.2420806}, {"type": "node", "id": 11601893681, "lat": 28.6183732, "lon": 77.2422238}, {"type": "node", "id": 11601893682, "lat": 28.6185293, "lon": 77.2422871}, {"type": "node", "id": 11601893683, "lat": 28.6185529, "lon": 77.2423067}, {"type": "node", "id": 11601893684, "lat": 28.6185166, "lon": 77.242282}, {"type": "node", "id": 11601893685, "lat": 28.6185409, "lon": 77.2422947}, {"type": "node", "id": 11601893686, "lat": 28.6185624, "lon": 77.2423214}, {"type": "node", "id": 11601893687, "lat": 28.6186831, "lon": 77.2425985}, {"type": "node", "id": 11601893688, "lat": 28.6187477, "lon": 77.2425143}, {"type": "node", "id": 11601893689, "lat": 28.6186219, "lon": 77.2422115}, {"type": "node", "id": 11601893690, "lat": 28.6185979, "lon": 77.2421824}, {"type": "node", "id": 11601893691, "lat": 28.6186092, "lon": 77.2421924}, {"type": "node", "id": 11601893692, "lat": 28.6185849, "lon": 77.2421754}, {"type": "node", "id": 11601893994, "lat": 28.618481, "lon": 77.2421413}, {"type": "node", "id": 2032422219, "lat": 28.6287604, "lon": 77.245421}, {"type": "node", "id": 2032422222, "lat": 28.6291496, "lon": 77.2456329}, {"type": "node", "id": 2032422228, "lat": 28.629117, "lon": 77.2453648}, {"type": "node", "id": 8320362388, "lat": 28.6234049, "lon": 77.2413862}, {"type": "node", "id": 8320362389, "lat": 28.6232801, "lon": 77.2413218}, {"type": "node", "id": 11601887512, "lat": 28.6231252, "lon": 77.2417363}, {"type": "node", "id": 11601887513, "lat": 28.6231955, "lon": 77.2413017}, {"type": "node", "id": 12787794389, "lat": 28.628793, "lon": 77.2456892}, {"type": "node", "id": 9006586533, "lat": 28.6412475, "lon": 77.2406305}, {"type": "node", "id": 9006586534, "lat": 28.6411674, "lon": 77.2406365}, {"type": "node", "id": 9006586535, "lat": 28.6411627, "lon": 77.2406492}, {"type": "node", "id": 9006586536, "lat": 28.6411515, "lon": 77.2406573}, {"type": "node", "id": 9006586537, "lat": 28.6411327, "lon": 77.2406539}, {"type": "node", "id": 9006586538, "lat": 28.6411192, "lon": 77.2406378}, {"type": "node", "id": 9006586539, "lat": 28.6411198, "lon": 77.2406177}, {"type": "node", "id": 9006586540, "lat": 28.6411268, "lon": 77.2406016}, {"type": "node", "id": 9006586541, "lat": 28.6411486, "lon": 77.2405949}, {"type": "node", "id": 9006586542, "lat": 28.6411462, "lon": 77.2405285}, {"type": "node", "id": 9006586543, "lat": 28.6411233, "lon": 77.2405252}, {"type": "node", "id": 9006586544, "lat": 28.6411139, "lon": 77.2405051}, {"type": "node", "id": 9006586545, "lat": 28.6411168, "lon": 77.2404816}, {"type": "node", "id": 9006586546, "lat": 28.6411351, "lon": 77.2404709}, {"type": "node", "id": 9006586547, "lat": 28.6411527, "lon": 77.2404769}, {"type": "node", "id": 9006586548, "lat": 28.6411633, "lon": 77.2404937}, {"type": "node", "id": 9006586549, "lat": 28.6412428, "lon": 77.2404917}, {"type": "node", "id": 1126295071, "lat": 28.6346829, "lon": 77.2429225}, {"type": "node", "id": 1126295093, "lat": 28.6359176, "lon": 77.2445298}, {"type": "node", "id": 1126295098, "lat": 28.6358509, "lon": 77.2446176}, {"type": "node", "id": 1126295107, "lat": 28.6357255, "lon": 77.2459336}, {"type": "node", "id": 1126295120, "lat": 28.6340162, "lon": 77.245464}, {"type": "node", "id": 1126295128, "lat": 28.6351803, "lon": 77.2444238}, {"type": "node", "id": 1126295134, "lat": 28.6342753, "lon": 77.2445425}, {"type": "node", "id": 1126295149, "lat": 28.6345168, "lon": 77.2442326}, {"type": "node", "id": 1126295152, "lat": 28.6343192, "lon": 77.2440828}, {"type": "node", "id": 1126295175, "lat": 28.6349739, "lon": 77.2427292}, {"type": "node", "id": 1126295178, "lat": 28.6352527, "lon": 77.2430192}, {"type": "node", "id": 1126295191, "lat": 28.6339071, "lon": 77.2458369}, {"type": "node", "id": 1126295195, "lat": 28.6349007, "lon": 77.2443601}, {"type": "node", "id": 1126295204, "lat": 28.6349261, "lon": 77.2453681}, {"type": "node", "id": 1126295232, "lat": 28.6341859, "lon": 77.2446767}, {"type": "node", "id": 1126295235, "lat": 28.6345375, "lon": 77.2429225}, {"type": "node", "id": 1126295239, "lat": 28.6359083, "lon": 77.244822}, {"type": "node", "id": 1126295255, "lat": 28.6351193, "lon": 77.2428259}, {"type": "node", "id": 1126295267, "lat": 28.6343973, "lon": 77.2441834}, {"type": "node", "id": 1126295271, "lat": 28.6350888, "lon": 77.2448843}, {"type": "node", "id": 1126295290, "lat": 28.6350278, "lon": 77.2451624}, {"type": "node", "id": 1126295291, "lat": 28.6341024, "lon": 77.2452204}, {"type": "node", "id": 1126295301, "lat": 28.6344647, "lon": 77.2433645}, {"type": "node", "id": 1126295329, "lat": 28.6354467, "lon": 77.2433783}, {"type": "node", "id": 1126295340, "lat": 28.6351447, "lon": 77.2446613}, {"type": "node", "id": 1126295343, "lat": 28.6342101, "lon": 77.2458921}, {"type": "node", "id": 1126295350, "lat": 28.6344329, "lon": 77.2453246}, {"type": "node", "id": 1126295354, "lat": 28.6341812, "lon": 77.2452493}, {"type": "node", "id": 1126295386, "lat": 28.6358487, "lon": 77.2447336}, {"type": "node", "id": 1126295392, "lat": 28.6354951, "lon": 77.2430607}, {"type": "node", "id": 1126295409, "lat": 28.6353618, "lon": 77.2459336}, {"type": "node", "id": 1126295414, "lat": 28.6348042, "lon": 77.2459059}, {"type": "node", "id": 1126295420, "lat": 28.6347431, "lon": 77.2453623}, {"type": "node", "id": 1126295427, "lat": 28.6343515, "lon": 77.244279}, {"type": "node", "id": 1126295457, "lat": 28.6347024, "lon": 77.2443166}, {"type": "node", "id": 1614302126, "lat": 28.6358409, "lon": 77.2446754}, {"type": "node", "id": 1614302151, "lat": 28.6358733, "lon": 77.2447854}, {"type": "node", "id": 1614302161, "lat": 28.6358775, "lon": 77.244567}, {"type": "node", "id": 1614302168, "lat": 28.6359515, "lon": 77.2448443}, {"type": "node", "id": 1614302169, "lat": 28.6359664, "lon": 77.2445102}, {"type": "node", "id": 2932455610, "lat": 28.63366, "lon": 77.241272}, {"type": "node", "id": 2932455611, "lat": 28.6337355, "lon": 77.242795}, {"type": "node", "id": 2932455612, "lat": 28.6343256, "lon": 77.2429301}, {"type": "node", "id": 2932455613, "lat": 28.634748, "lon": 77.2426633}, {"type": "node", "id": 2932455614, "lat": 28.6347663, "lon": 77.2425378}, {"type": "node", "id": 2932455615, "lat": 28.63495, "lon": 77.2423547}, {"type": "node", "id": 2932455616, "lat": 28.6351015, "lon": 77.2412982}, {"type": "node", "id": 4593883383, "lat": 28.6359151, "lon": 77.2410636}, {"type": "node", "id": 4593883384, "lat": 28.6359598, "lon": 77.2409214}, {"type": "node", "id": 4593883894, "lat": 28.6352211, "lon": 77.2428158}, {"type": "node", "id": 4593883895, "lat": 28.6351269, "lon": 77.2427058}, {"type": "node", "id": 4593883896, "lat": 28.6353082, "lon": 77.2413218}, {"type": "node", "id": 11684986957, "lat": 28.6349932, "lon": 77.243263}, {"type": "node", "id": 11684986958, "lat": 28.6349824, "lon": 77.2433213}, {"type": "node", "id": 11684986959, "lat": 28.6348099, "lon": 77.2432798}, {"type": "node", "id": 11684986960, "lat": 28.6348207, "lon": 77.2432214}, {"type": "node", "id": 11685013899, "lat": 28.6352247, "lon": 77.2419595}, {"type": "node", "id": 11685013903, "lat": 28.6352147, "lon": 77.2420355}, {"type": "node", "id": 13299039324, "lat": 28.6348032, "lon": 77.2459057}, {"type": "node", "id": 1271995852, "lat": 28.6306271, "lon": 77.2489156}, {"type": "node", "id": 1271995853, "lat": 28.6303092, "lon": 77.2485329}, {"type": "node", "id": 1271995854, "lat": 28.630393, "lon": 77.2489673}, {"type": "node", "id": 1271995856, "lat": 28.6302445, "lon": 77.2487651}, {"type": "node", "id": 1271995857, "lat": 28.6306834, "lon": 77.2486117}, {"type": "node", "id": 1271995858, "lat": 28.6303752, "lon": 77.2484806}, {"type": "node", "id": 1271995863, "lat": 28.6302722, "lon": 77.2485876}, {"type": "node", "id": 1271995864, "lat": 28.6304958, "lon": 77.2484575}, {"type": "node", "id": 1271995865, "lat": 28.6307027, "lon": 77.2486954}, {"type": "node", "id": 1271995866, "lat": 28.6304528, "lon": 77.2484571}, {"type": "node", "id": 1271995868, "lat": 28.6302446, "lon": 77.2486736}, {"type": "node", "id": 1271995870, "lat": 28.6305731, "lon": 77.2484825}, {"type": "node", "id": 1271995871, "lat": 28.6304804, "lon": 77.2489831}, {"type": "node", "id": 1271995872, "lat": 28.6306961, "lon": 77.2487866}, {"type": "node", "id": 1271995875, "lat": 28.6306625, "lon": 77.2488697}, {"type": "node", "id": 1271995876, "lat": 28.6306382, "lon": 77.248536}, {"type": "node", "id": 1271995878, "lat": 28.6302719, "lon": 77.2488512}, {"type": "node", "id": 1271995879, "lat": 28.6305589, "lon": 77.2489641}, {"type": "node", "id": 1271995880, "lat": 28.6303235, "lon": 77.2489214}, {"type": "node", "id": 2934450319, "lat": 28.635673, "lon": 77.2519814}, {"type": "node", "id": 2934450320, "lat": 28.6357918, "lon": 77.2476114}, {"type": "node", "id": 938522432, "lat": 28.6422059, "lon": 77.2455758}, {"type": "node", "id": 938522455, "lat": 28.6406397, "lon": 77.2458429}, {"type": "node", "id": 938522462, "lat": 28.6399628, "lon": 77.2472363}, {"type": "node", "id": 938522487, "lat": 28.6422981, "lon": 77.2414913}, {"type": "node", "id": 938522617, "lat": 28.6398247, "lon": 77.2464746}, {"type": "node", "id": 938522785, "lat": 28.6409714, "lon": 77.2458537}, {"type": "node", "id": 938522852, "lat": 28.6406562, "lon": 77.245515}, {"type": "node", "id": 938523075, "lat": 28.640218, "lon": 77.2466744}, {"type": "node", "id": 938523306, "lat": 28.6406065, "lon": 77.246534}, {"type": "node", "id": 938523930, "lat": 28.6397528, "lon": 77.2462513}, {"type": "node", "id": 938524003, "lat": 28.6419633, "lon": 77.245567}, {"type": "node", "id": 938524092, "lat": 28.6399953, "lon": 77.2466096}, {"type": "node", "id": 938524408, "lat": 28.6422981, "lon": 77.2414967}, {"type": "node", "id": 938524553, "lat": 28.641014, "lon": 77.2456054}, {"type": "node", "id": 938524662, "lat": 28.6414263, "lon": 77.2456162}, {"type": "node", "id": 938524682, "lat": 28.6423294, "lon": 77.2423316}, {"type": "node", "id": 938524744, "lat": 28.6405781, "lon": 77.2466906}, {"type": "node", "id": 1126295164, "lat": 28.6360182, "lon": 77.2445107}, {"type": "node", "id": 1126295173, "lat": 28.6359987, "lon": 77.2448501}, {"type": "node", "id": 1126295210, "lat": 28.6361367, "lon": 77.2447219}, {"type": "node", "id": 1126295263, "lat": 28.6366347, "lon": 77.2458369}, {"type": "node", "id": 1126295292, "lat": 28.6361063, "lon": 77.244569}, {"type": "node", "id": 1126295293, "lat": 28.6360861, "lon": 77.2448118}, {"type": "node", "id": 1126295334, "lat": 28.6365862, "lon": 77.2435993}, {"type": "node", "id": 1614302119, "lat": 28.6360667, "lon": 77.2445311}, {"type": "node", "id": 1614302122, "lat": 28.6360451, "lon": 77.2448389}, {"type": "node", "id": 1614302124, "lat": 28.6361411, "lon": 77.2446681}, {"type": "node", "id": 1614302163, "lat": 28.6361177, "lon": 77.2447715}, {"type": "node", "id": 1614302167, "lat": 28.6361306, "lon": 77.2446154}, {"type": "node", "id": 2715722884, "lat": 28.6410802, "lon": 77.2420887}, {"type": "node", "id": 2715722894, "lat": 28.6408595, "lon": 77.2453466}, {"type": "node", "id": 2720403241, "lat": 28.6409429, "lon": 77.2458064}, {"type": "node", "id": 2720403243, "lat": 28.6410182, "lon": 77.2455328}, {"type": "node", "id": 2722854261, "lat": 28.6406615, "lon": 77.245801}, {"type": "node", "id": 2722854268, "lat": 28.6406669, "lon": 77.2454129}, {"type": "node", "id": 2722861706, "lat": 28.64245, "lon": 77.2455857}, {"type": "node", "id": 4593883379, "lat": 28.6365865, "lon": 77.2413647}, {"type": "node", "id": 4593883380, "lat": 28.636643, "lon": 77.2414827}, {"type": "node", "id": 4593883381, "lat": 28.6364735, "lon": 77.2426093}, {"type": "node", "id": 4593883382, "lat": 28.6364923, "lon": 77.243253}, {"type": "node", "id": 4593883385, "lat": 28.6360732, "lon": 77.2409677}, {"type": "node", "id": 4593883386, "lat": 28.6360285, "lon": 77.2411099}, {"type": "node", "id": 11684986949, "lat": 28.6364407, "lon": 77.2445263}, {"type": "node", "id": 11684986950, "lat": 28.6364468, "lon": 77.2447461}, {"type": "node", "id": 11684986951, "lat": 28.6362818, "lon": 77.2447521}, {"type": "node", "id": 11684986952, "lat": 28.6362856, "lon": 77.2448916}, {"type": "node", "id": 11684986953, "lat": 28.636224, "lon": 77.2448938}, {"type": "node", "id": 11684986954, "lat": 28.6362213, "lon": 77.2447965}, {"type": "node", "id": 11684986955, "lat": 28.6361729, "lon": 77.2447983}, {"type": "node", "id": 11684986956, "lat": 28.6361656, "lon": 77.2445363}, {"type": "node", "id": 938522804, "lat": 28.6396633, "lon": 77.2473548}, {"type": "node", "id": 938522869, "lat": 28.6401841, "lon": 77.2534796}, {"type": "node", "id": 938523872, "lat": 28.64138, "lon": 77.2526916}, {"type": "node", "id": 938524127, "lat": 28.6386554, "lon": 77.2535862}, {"type": "node", "id": 938524358, "lat": 28.6399865, "lon": 77.2538232}, {"type": "node", "id": 938524684, "lat": 28.639501, "lon": 77.2475444}, {"type": "node", "id": 2934450321, "lat": 28.636747, "lon": 77.2526076}, {"type": "node", "id": 2934450322, "lat": 28.6367529, "lon": 77.2522177}, {"type": "node", "id": 2934450323, "lat": 28.6385208, "lon": 77.2525461}, {"type": "node", "id": 2934450324, "lat": 28.6391907, "lon": 77.2476046}, {"type": "node", "id": 3571787497, "lat": 28.6368853, "lon": 77.251686}, {"type": "node", "id": 3571787498, "lat": 28.6369329, "lon": 77.2514225}, {"type": "node", "id": 3571787499, "lat": 28.6369441, "lon": 77.2514251}, {"type": "node", "id": 3571787500, "lat": 28.6369695, "lon": 77.2512842}, {"type": "node", "id": 3571787501, "lat": 28.6370983, "lon": 77.2517359}, {"type": "node", "id": 3571787502, "lat": 28.6371251, "lon": 77.251475}, {"type": "node", "id": 3571787503, "lat": 28.6371446, "lon": 77.2514796}, {"type": "node", "id": 3571787504, "lat": 28.6371518, "lon": 77.2513269}, {"type": "node", "id": 4049760348, "lat": 28.6368417, "lon": 77.2499549}, {"type": "node", "id": 4049760349, "lat": 28.6368363, "lon": 77.2501644}, {"type": "node", "id": 4049760350, "lat": 28.6369283, "lon": 77.2501737}, {"type": "node", "id": 4049760351, "lat": 28.6369175, "lon": 77.2503154}, {"type": "node", "id": 4049760352, "lat": 28.636812, "lon": 77.2503123}, {"type": "node", "id": 4049760353, "lat": 28.6368174, "lon": 77.2503462}, {"type": "node", "id": 4049760354, "lat": 28.6368823, "lon": 77.2504202}, {"type": "node", "id": 4049760355, "lat": 28.6368471, "lon": 77.2504602}, {"type": "node", "id": 4049760356, "lat": 28.6367525, "lon": 77.2503832}, {"type": "node", "id": 4049760357, "lat": 28.6364442, "lon": 77.2503616}, {"type": "node", "id": 4049760358, "lat": 28.6364605, "lon": 77.2499426}, {"type": "node", "id": 4594175950, "lat": 28.6375295, "lon": 77.2487731}, {"type": "node", "id": 4594175951, "lat": 28.6380968, "lon": 77.2487919}, {"type": "node", "id": 4594175952, "lat": 28.6380789, "lon": 77.2494945}, {"type": "node", "id": 4594175953, "lat": 28.6375116, "lon": 77.2494757}, {"type": "node", "id": 4594175954, "lat": 28.6384497, "lon": 77.2525831}, {"type": "node", "id": 13288958114, "lat": 28.6406436, "lon": 77.2494571}, {"type": "node", "id": 13288958115, "lat": 28.6405587, "lon": 77.2494515}, {"type": "node", "id": 13288958116, "lat": 28.6405536, "lon": 77.2495514}, {"type": "node", "id": 13288958117, "lat": 28.6406385, "lon": 77.249557}, {"type": "node", "id": 13288958122, "lat": 28.639623, "lon": 77.2528036}, {"type": "node", "id": 13288958123, "lat": 28.6395688, "lon": 77.2527977}, {"type": "node", "id": 13288958124, "lat": 28.6395632, "lon": 77.2528652}, {"type": "node", "id": 13288958125, "lat": 28.6396173, "lon": 77.252871}, {"type": "node", "id": 3067802059, "lat": 28.6233012, "lon": 77.2769634}, {"type": "node", "id": 3067802060, "lat": 28.6233812, "lon": 77.2771136}, {"type": "node", "id": 3067802061, "lat": 28.6237909, "lon": 77.2769741}, {"type": "node", "id": 3067802062, "lat": 28.6241158, "lon": 77.2779826}, {"type": "node", "id": 3067802063, "lat": 28.6255614, "lon": 77.2767703}, {"type": "node", "id": 3067802064, "lat": 28.6254437, "lon": 77.2765503}, {"type": "node", "id": 3067802065, "lat": 28.6247468, "lon": 77.2769848}, {"type": "node", "id": 3067802066, "lat": 28.6243795, "lon": 77.2762445}, {"type": "node", "id": 3067802067, "lat": 28.6257925, "lon": 77.2762814}, {"type": "node", "id": 3067802068, "lat": 28.6258866, "lon": 77.2765255}, {"type": "node", "id": 3067802069, "lat": 28.6263151, "lon": 77.2762975}, {"type": "node", "id": 3067802070, "lat": 28.626221, "lon": 77.2760508}, {"type": "node", "id": 3067802132, "lat": 28.6259063, "lon": 77.2766509}, {"type": "node", "id": 3067810419, "lat": 28.6250028, "lon": 77.2761614}, {"type": "node", "id": 3067810420, "lat": 28.6255585, "lon": 77.2758476}, {"type": "node", "id": 3067810421, "lat": 28.6257233, "lon": 77.2762392}, {"type": "node", "id": 3067810422, "lat": 28.6256644, "lon": 77.2762767}, {"type": "node", "id": 3067810423, "lat": 28.6257798, "lon": 77.2765584}, {"type": "node", "id": 3067810424, "lat": 28.6255938, "lon": 77.2767327}, {"type": "node", "id": 3067810425, "lat": 28.6254125, "lon": 77.2763331}, {"type": "node", "id": 3067810426, "lat": 28.6251629, "lon": 77.2764859}, {"type": "node", "id": 3067810433, "lat": 28.6259769, "lon": 77.2768132}, {"type": "node", "id": 3067810434, "lat": 28.6256779, "lon": 77.2770586}, {"type": "node", "id": 3067810435, "lat": 28.6255944, "lon": 77.2768883}, {"type": "node", "id": 3067823817, "lat": 28.6247017, "lon": 77.2779925}, {"type": "node", "id": 3067823818, "lat": 28.6247692, "lon": 77.2781677}, {"type": "node", "id": 3067831154, "lat": 28.6252802, "lon": 77.277761}, {"type": "node", "id": 3067838009, "lat": 28.6279008, "lon": 77.276508}, {"type": "node", "id": 4862004821, "lat": 28.6250743, "lon": 77.2771484}, {"type": "node", "id": 6664927318, "lat": 28.6285409, "lon": 77.2753939}, {"type": "node", "id": 9835017358, "lat": 28.6278335, "lon": 77.2763595}, {"type": "node", "id": 9835373879, "lat": 28.6286813, "lon": 77.2756205}, {"type": "node", "id": 11903565480, "lat": 28.6282547, "lon": 77.2762602}, {"type": "node", "id": 11903565488, "lat": 28.628353, "lon": 77.2762542}, {"type": "node", "id": 11903565503, "lat": 28.6285681, "lon": 77.2761462}, {"type": "node", "id": 11903565512, "lat": 28.6278649, "lon": 77.2744507}, {"type": "node", "id": 11903565523, "lat": 28.6283719, "lon": 77.2758702}, {"type": "node", "id": 11903565524, "lat": 28.6270027, "lon": 77.2748209}, {"type": "node", "id": 11903565540, "lat": 28.6283882, "lon": 77.2763129}, {"type": "node", "id": 11903565541, "lat": 28.6271639, "lon": 77.2755987}, {"type": "node", "id": 11903565554, "lat": 28.6277954, "lon": 77.2743465}, {"type": "node", "id": 11903565555, "lat": 28.6282767, "lon": 77.276245}, {"type": "node", "id": 11903565556, "lat": 28.628179, "lon": 77.2748895}, {"type": "node", "id": 11903565559, "lat": 28.6276171, "lon": 77.2760527}, {"type": "node", "id": 11903578476, "lat": 28.6274093, "lon": 77.2745644}, {"type": "node", "id": 11903578490, "lat": 28.6283006, "lon": 77.2762937}, {"type": "node", "id": 11903578491, "lat": 28.6268054, "lon": 77.2750311}, {"type": "node", "id": 11903578507, "lat": 28.6272973, "lon": 77.2758126}, {"type": "node", "id": 11903578510, "lat": 28.6269173, "lon": 77.2752044}, {"type": "node", "id": 11903578511, "lat": 28.6275107, "lon": 77.2761289}, {"type": "node", "id": 11903578522, "lat": 28.6270365, "lon": 77.2748844}, {"type": "node", "id": 11903578524, "lat": 28.6281598, "lon": 77.2748665}, {"type": "node", "id": 3067849933, "lat": 28.6330249, "lon": 77.2707225}, {"type": "node", "id": 3067849934, "lat": 28.632135, "lon": 77.2713072}, {"type": "node", "id": 3067849935, "lat": 28.6312592, "lon": 77.2718061}, {"type": "node", "id": 3067849936, "lat": 28.6314369, "lon": 77.2722398}, {"type": "node", "id": 3067849937, "lat": 28.6317818, "lon": 77.2720261}, {"type": "node", "id": 3067849938, "lat": 28.6330625, "lon": 77.2720153}, {"type": "node", "id": 9833276045, "lat": 28.6321722, "lon": 77.2719991}, {"type": "node", "id": 6482607480, "lat": 28.6326183, "lon": 77.2759016}, {"type": "node", "id": 6482607481, "lat": 28.6328067, "lon": 77.2758989}, {"type": "node", "id": 6482607482, "lat": 28.6328184, "lon": 77.2760303}, {"type": "node", "id": 6482607484, "lat": 28.6328444, "lon": 77.276194}, {"type": "node", "id": 6482609686, "lat": 28.6324182, "lon": 77.276269}, {"type": "node", "id": 6482609687, "lat": 28.6322557, "lon": 77.2758399}, {"type": "node", "id": 6482609689, "lat": 28.6323641, "lon": 77.2758801}, {"type": "node", "id": 6482609690, "lat": 28.6324912, "lon": 77.2759069}, {"type": "node", "id": 7655631123, "lat": 28.6348633, "lon": 77.2767778}, {"type": "node", "id": 7655631124, "lat": 28.6350657, "lon": 77.2767725}, {"type": "node", "id": 7655631125, "lat": 28.6350375, "lon": 77.2776791}, {"type": "node", "id": 7655631126, "lat": 28.6348539, "lon": 77.2777005}, {"type": "node", "id": 4914665498, "lat": 28.6414386, "lon": 77.2725895}, {"type": "node", "id": 4914665499, "lat": 28.6408945, "lon": 77.2713663}, {"type": "node", "id": 4914665500, "lat": 28.6407486, "lon": 77.2708632}, {"type": "node", "id": 4914668363, "lat": 28.6412413, "lon": 77.2722213}, {"type": "node", "id": 4914668364, "lat": 28.6413225, "lon": 77.2726388}, {"type": "node", "id": 4914668365, "lat": 28.6399532, "lon": 77.2728921}, {"type": "node", "id": 4914668366, "lat": 28.6399532, "lon": 77.2723229}, {"type": "node", "id": 4914668367, "lat": 28.6410415, "lon": 77.2723676}, {"type": "node", "id": 4914668368, "lat": 28.641045, "lon": 77.2722457}, {"type": "node", "id": 6611505383, "lat": 28.6396122, "lon": 77.2706497}, {"type": "node", "id": 6611505384, "lat": 28.6388778, "lon": 77.2707248}, {"type": "node", "id": 6611561785, "lat": 28.6388589, "lon": 77.2715616}, {"type": "node", "id": 6611561786, "lat": 28.6397535, "lon": 77.2715294}, {"type": "node", "id": 6611878991, "lat": 28.6423195, "lon": 77.2733496}, {"type": "node", "id": 6611878992, "lat": 28.6420794, "lon": 77.2734193}, {"type": "node", "id": 6611878993, "lat": 28.6419947, "lon": 77.2734622}, {"type": "node", "id": 7313049689, "lat": 28.6413252, "lon": 77.2708154}, {"type": "node", "id": 7313049690, "lat": 28.6411812, "lon": 77.2713586}, {"type": "node", "id": 7313049691, "lat": 28.6413252, "lon": 77.2719298}, {"type": "node", "id": 7313049694, "lat": 28.6425069, "lon": 77.27081}, {"type": "node", "id": 7313049695, "lat": 28.6424916, "lon": 77.2707121}, {"type": "node", "id": 7655631134, "lat": 28.6383474, "lon": 77.2708823}, {"type": "node", "id": 7655631135, "lat": 28.6388417, "lon": 77.2709038}, {"type": "node", "id": 7655631137, "lat": 28.6383803, "lon": 77.2705819}, {"type": "node", "id": 7722108005, "lat": 28.6414582, "lon": 77.2733322}, {"type": "node", "id": 7722108006, "lat": 28.6407755, "lon": 77.2734717}, {"type": "node", "id": 9850225825, "lat": 28.6389118, "lon": 77.2705447}, {"type": "node", "id": 4914677118, "lat": 28.6422751, "lon": 77.2797998}, {"type": "node", "id": 4914677119, "lat": 28.6422409, "lon": 77.2792351}, {"type": "node", "id": 6482584913, "lat": 28.640276, "lon": 77.2792358}, {"type": "node", "id": 6482584914, "lat": 28.6402971, "lon": 77.2798902}, {"type": "node", "id": 6482584919, "lat": 28.6398216, "lon": 77.279504}, {"type": "node", "id": 6482584920, "lat": 28.6398028, "lon": 77.2792277}, {"type": "node", "id": 6482590496, "lat": 28.6396616, "lon": 77.2776946}, {"type": "node", "id": 6482590497, "lat": 28.6396616, "lon": 77.2779242}, {"type": "node", "id": 6482590498, "lat": 28.6392402, "lon": 77.2779215}, {"type": "node", "id": 6482590499, "lat": 28.6392449, "lon": 77.2776694}, {"type": "node", "id": 6482590501, "lat": 28.6394753, "lon": 77.2776674}, {"type": "node", "id": 6482590502, "lat": 28.6395037, "lon": 77.277681}, {"type": "node", "id": 6482590509, "lat": 28.6404174, "lon": 77.2746646}, {"type": "node", "id": 6482590510, "lat": 28.640401, "lon": 77.2751367}, {"type": "node", "id": 6482590511, "lat": 28.6399961, "lon": 77.2751394}, {"type": "node", "id": 6482590512, "lat": 28.6400078, "lon": 77.2748926}, {"type": "node", "id": 6482590513, "lat": 28.6399513, "lon": 77.2748604}, {"type": "node", "id": 6482590514, "lat": 28.6399678, "lon": 77.2743776}, {"type": "node", "id": 6482590515, "lat": 28.6401255, "lon": 77.274391}, {"type": "node", "id": 6482590516, "lat": 28.6401232, "lon": 77.2746592}, {"type": "node", "id": 6482673662, "lat": 28.6374352, "lon": 77.2777643}, {"type": "node", "id": 6482673663, "lat": 28.6374163, "lon": 77.2781371}, {"type": "node", "id": 6482673664, "lat": 28.6370915, "lon": 77.2781398}, {"type": "node", "id": 6482673665, "lat": 28.6371032, "lon": 77.2777696}, {"type": "node", "id": 6611865933, "lat": 28.6420888, "lon": 77.2750823}, {"type": "node", "id": 6611865934, "lat": 28.6420935, "lon": 77.2754471}, {"type": "node", "id": 6611865935, "lat": 28.6417075, "lon": 77.2754471}, {"type": "node", "id": 6611865936, "lat": 28.6416886, "lon": 77.2750662}, {"type": "node", "id": 6611865937, "lat": 28.6416321, "lon": 77.2798405}, {"type": "node", "id": 6611865938, "lat": 28.6413751, "lon": 77.2798527}, {"type": "node", "id": 6611865939, "lat": 28.6412433, "lon": 77.27985}, {"type": "node", "id": 6611865942, "lat": 28.6416505, "lon": 77.279842}, {"type": "node", "id": 6611878994, "lat": 28.6419758, "lon": 77.274401}, {"type": "node", "id": 6611878995, "lat": 28.6423478, "lon": 77.2744278}, {"type": "node", "id": 7722108003, "lat": 28.6407896, "lon": 77.2736005}, {"type": "node", "id": 7722108004, "lat": 28.6414582, "lon": 77.2736005}, {"type": "node", "id": 7722108024, "lat": 28.6385456, "lon": 77.2785962}, {"type": "node", "id": 7722108025, "lat": 28.6387292, "lon": 77.2785935}, {"type": "node", "id": 7722108026, "lat": 28.638741, "lon": 77.2790817}, {"type": "node", "id": 7722108027, "lat": 28.6385621, "lon": 77.279087}, {"type": "node", "id": 5242159811, "lat": 28.6092708, "lon": 77.2884092}, {"type": "node", "id": 5242160235, "lat": 28.6080914, "lon": 77.2877871}, {"type": "node", "id": 8108126507, "lat": 28.6049748, "lon": 77.289902}, {"type": "node", "id": 8108126508, "lat": 28.6049483, "lon": 77.289914}, {"type": "node", "id": 8108126509, "lat": 28.6046139, "lon": 77.290075}, {"type": "node", "id": 8108126510, "lat": 28.6045762, "lon": 77.289965}, {"type": "node", "id": 8108126511, "lat": 28.6049365, "lon": 77.289796}, {"type": "node", "id": 8108126512, "lat": 28.6050118, "lon": 77.289906}, {"type": "node", "id": 8108126513, "lat": 28.6049506, "lon": 77.2897357}, {"type": "node", "id": 8108126514, "lat": 28.6051738, "lon": 77.2895883}, {"type": "node", "id": 8108126515, "lat": 28.6052366, "lon": 77.2897468}, {"type": "node", "id": 8129615733, "lat": 28.6064188, "lon": 77.2903486}, {"type": "node", "id": 8129615734, "lat": 28.6063294, "lon": 77.2901367}, {"type": "node", "id": 8129615735, "lat": 28.6063988, "lon": 77.2900911}, {"type": "node", "id": 8129615736, "lat": 28.60644, "lon": 77.2901729}, {"type": "node", "id": 8129615737, "lat": 28.6064589, "lon": 77.2901648}, {"type": "node", "id": 8129615738, "lat": 28.6068168, "lon": 77.2899637}, {"type": "node", "id": 8129615739, "lat": 28.6068698, "lon": 77.2901045}, {"type": "node", "id": 11799231543, "lat": 28.6093946, "lon": 77.2891827}, {"type": "node", "id": 11799231544, "lat": 28.6091856, "lon": 77.289295}, {"type": "node", "id": 11799231545, "lat": 28.6089615, "lon": 77.2887387}, {"type": "node", "id": 11799231546, "lat": 28.6089194, "lon": 77.2885957}, {"type": "node", "id": 11799231547, "lat": 28.6091172, "lon": 77.2884933}, {"type": "node", "id": 11799262446, "lat": 28.6068846, "lon": 77.2896274}, {"type": "node", "id": 11799262447, "lat": 28.6069464, "lon": 77.2897739}, {"type": "node", "id": 11799288803, "lat": 28.6091994, "lon": 77.2887107}, {"type": "node", "id": 11799295528, "lat": 28.6086077, "lon": 77.2887538}, {"type": "node", "id": 11799295529, "lat": 28.6082162, "lon": 77.2877002}, {"type": "node", "id": 11799295531, "lat": 28.6084941, "lon": 77.2888251}, {"type": "node", "id": 13107967212, "lat": 28.6096392, "lon": 77.2873736}, {"type": "node", "id": 13107967224, "lat": 28.6081188, "lon": 77.2890161}, {"type": "node", "id": 13107967238, "lat": 28.6094761, "lon": 77.2878249}, {"type": "node", "id": 13107967281, "lat": 28.6093548, "lon": 77.2875208}, {"type": "node", "id": 2330734788, "lat": 28.6137479, "lon": 77.2802299}, {"type": "node", "id": 2330734792, "lat": 28.6139934, "lon": 77.2810671}, {"type": "node", "id": 2330734794, "lat": 28.6138203, "lon": 77.2807163}, {"type": "node", "id": 2330734819, "lat": 28.6133852, "lon": 77.2804622}, {"type": "node", "id": 2330734821, "lat": 28.6141611, "lon": 77.2810495}, {"type": "node", "id": 2330734830, "lat": 28.613347, "lon": 77.2803675}, {"type": "node", "id": 2330734834, "lat": 28.6141275, "lon": 77.2809813}, {"type": "node", "id": 2330734838, "lat": 28.6136822, "lon": 77.2800652}, {"type": "node", "id": 2330734864, "lat": 28.6135481, "lon": 77.280151}, {"type": "node", "id": 2330734907, "lat": 28.6137918, "lon": 77.281286}, {"type": "node", "id": 2330734910, "lat": 28.6137151, "lon": 77.2801318}, {"type": "node", "id": 2330734912, "lat": 28.6139477, "lon": 77.2806347}, {"type": "node", "id": 2330737954, "lat": 28.6142123, "lon": 77.2806504}, {"type": "node", "id": 2330737959, "lat": 28.6144817, "lon": 77.2803157}, {"type": "node", "id": 2330737961, "lat": 28.6140861, "lon": 77.2804152}, {"type": "node", "id": 2330737970, "lat": 28.6145386, "lon": 77.2807672}, {"type": "node", "id": 2330737972, "lat": 28.6148877, "lon": 77.2805444}, {"type": "node", "id": 2330737974, "lat": 28.6141337, "lon": 77.280382}, {"type": "node", "id": 2330737980, "lat": 28.6142599, "lon": 77.2806172}, {"type": "node", "id": 2330737984, "lat": 28.614356, "lon": 77.2803959}, {"type": "node", "id": 2812855113, "lat": 28.6146892, "lon": 77.2904003}, {"type": "node", "id": 2812855115, "lat": 28.6148244, "lon": 77.2891477}, {"type": "node", "id": 2812855116, "lat": 28.6148025, "lon": 77.2901246}, {"type": "node", "id": 2812855117, "lat": 28.6148238, "lon": 77.2900166}, {"type": "node", "id": 2812855120, "lat": 28.6148388, "lon": 77.2894973}, {"type": "node", "id": 2812855121, "lat": 28.6148435, "lon": 77.2898803}, {"type": "node", "id": 2903684702, "lat": 28.6139891, "lon": 77.2931284}, {"type": "node", "id": 2904429086, "lat": 28.6140956, "lon": 77.2927539}, {"type": "node", "id": 2904429089, "lat": 28.6142084, "lon": 77.2919786}, {"type": "node", "id": 2904429091, "lat": 28.6143813, "lon": 77.2912347}, {"type": "node", "id": 2904429093, "lat": 28.6145168, "lon": 77.2906961}, {"type": "node", "id": 3614951925, "lat": 28.6142238, "lon": 77.2919004}, {"type": "node", "id": 3614951926, "lat": 28.6147692, "lon": 77.2902055}, {"type": "node", "id": 3614951928, "lat": 28.6148285, "lon": 77.2892475}, {"type": "node", "id": 3874868666, "lat": 28.6142889, "lon": 77.2915593}, {"type": "node", "id": 5242160232, "lat": 28.6097996, "lon": 77.2867921}, {"type": "node", "id": 9570916542, "lat": 28.6145852, "lon": 77.2905788}, {"type": "node", "id": 9645634942, "lat": 28.614562, "lon": 77.2906186}, {"type": "node", "id": 9645634947, "lat": 28.6145461, "lon": 77.2906458}, {"type": "node", "id": 11799287585, "lat": 28.6104992, "lon": 77.2877729}, {"type": "node", "id": 11799287586, "lat": 28.6100107, "lon": 77.2866676}, {"type": "node", "id": 11799287588, "lat": 28.6102872, "lon": 77.2878834}, {"type": "node", "id": 11799288801, "lat": 28.6112652, "lon": 77.2873517}, {"type": "node", "id": 11799288802, "lat": 28.6113505, "lon": 77.2875834}, {"type": "node", "id": 12140545316, "lat": 28.6144208, "lon": 77.2910778}, {"type": "node", "id": 13107967222, "lat": 28.611017, "lon": 77.2904538}, {"type": "node", "id": 13107967228, "lat": 28.6125438, "lon": 77.2896733}, {"type": "node", "id": 13107967231, "lat": 28.611637, "lon": 77.2901275}, {"type": "node", "id": 13107967242, "lat": 28.61329, "lon": 77.2896055}, {"type": "node", "id": 13107967255, "lat": 28.6106301, "lon": 77.2907269}, {"type": "node", "id": 13107967263, "lat": 28.6123079, "lon": 77.2898569}, {"type": "node", "id": 13107967278, "lat": 28.6125821, "lon": 77.2897765}, {"type": "node", "id": 13107967287, "lat": 28.6132504, "lon": 77.2894947}, {"type": "node", "id": 13107967292, "lat": 28.6102526, "lon": 77.2872149}, {"type": "node", "id": 13107967293, "lat": 28.6118001, "lon": 77.2899678}, {"type": "node", "id": 13107967298, "lat": 28.6110796, "lon": 77.2905514}, {"type": "node", "id": 13107980816, "lat": 28.6106909, "lon": 77.2908214}, {"type": "node", "id": 13107980824, "lat": 28.6117125, "lon": 77.2902202}, {"type": "node", "id": 13107980829, "lat": 28.612277, "lon": 77.2897337}, {"type": "node", "id": 13107980830, "lat": 28.6118636, "lon": 77.2900688}, {"type": "node", "id": 13107980832, "lat": 28.6097605, "lon": 77.2876778}, {"type": "node", "id": 13107980842, "lat": 28.6100694, "lon": 77.291385}, {"type": "node", "id": 13107980844, "lat": 28.6100355, "lon": 77.2912757}, {"type": "node", "id": 905280435, "lat": 28.6155671, "lon": 77.2959777}, {"type": "node", "id": 905281832, "lat": 28.6149502, "lon": 77.2972653}, {"type": "node", "id": 905283533, "lat": 28.6162071, "lon": 77.294645}, {"type": "node", "id": 905284022, "lat": 28.6158851, "lon": 77.295314}, {"type": "node", "id": 2903684588, "lat": 28.6131778, "lon": 77.2967408}, {"type": "node", "id": 2903684593, "lat": 28.6132845, "lon": 77.2960119}, {"type": "node", "id": 2903684596, "lat": 28.6131196, "lon": 77.2986794}, {"type": "node", "id": 2903684598, "lat": 28.6133128, "lon": 77.2991689}, {"type": "node", "id": 2903684701, "lat": 28.6134552, "lon": 77.299589}, {"type": "node", "id": 2904429082, "lat": 28.6129521, "lon": 77.2977446}, {"type": "node", "id": 2904429083, "lat": 28.612953, "lon": 77.2979904}, {"type": "node", "id": 2904429084, "lat": 28.6136199, "lon": 77.2941509}, {"type": "node", "id": 2904429085, "lat": 28.6137133, "lon": 77.2938079}, {"type": "node", "id": 2904437579, "lat": 28.6149891, "lon": 77.2979655}, {"type": "node", "id": 2904437581, "lat": 28.6151899, "lon": 77.2988287}, {"type": "node", "id": 2904437582, "lat": 28.6159809, "lon": 77.2943299}, {"type": "node", "id": 2904437586, "lat": 28.6162113, "lon": 77.2934493}, {"type": "node", "id": 2904437588, "lat": 28.6162223, "lon": 77.293862}, {"type": "node", "id": 2904437590, "lat": 28.6162372, "lon": 77.2944875}, {"type": "node", "id": 3614951924, "lat": 28.6131044, "lon": 77.2986164}, {"type": "node", "id": 4942573354, "lat": 28.615082, "lon": 77.2986788}, {"type": "node", "id": 7215941135, "lat": 28.6135187, "lon": 77.2947123}, {"type": "node", "id": 9572170183, "lat": 28.6132624, "lon": 77.2961628}, {"type": "node", "id": 9572170184, "lat": 28.6134637, "lon": 77.2950174}, {"type": "node", "id": 9572170185, "lat": 28.6134112, "lon": 77.2994592}, {"type": "node", "id": 9572196125, "lat": 28.6129529, "lon": 77.2979566}, {"type": "node", "id": 11501886699, "lat": 28.6148767, "lon": 77.2977118}, {"type": "node", "id": 12185761780, "lat": 28.6153498, "lon": 77.2996972}, {"type": "node", "id": 12618432266, "lat": 28.6149231, "lon": 77.2974298}, {"type": "node", "id": 905281798, "lat": 28.6162398, "lon": 77.3015088}, {"type": "node", "id": 906416248, "lat": 28.6131356, "lon": 77.3036182}, {"type": "node", "id": 906416291, "lat": 28.6133359, "lon": 77.301682}, {"type": "node", "id": 906416375, "lat": 28.6129676, "lon": 77.3042071}, {"type": "node", "id": 906416511, "lat": 28.613155, "lon": 77.3041887}, {"type": "node", "id": 2903684592, "lat": 28.6129827, "lon": 77.3029275}, {"type": "node", "id": 2903684595, "lat": 28.6131145, "lon": 77.3023293}, {"type": "node", "id": 2903684600, "lat": 28.6134324, "lon": 77.3011474}, {"type": "node", "id": 2903684703, "lat": 28.6135443, "lon": 77.299925}, {"type": "node", "id": 2903684704, "lat": 28.6135519, "lon": 77.3006955}, {"type": "node", "id": 2903684705, "lat": 28.6135621, "lon": 77.3002842}, {"type": "node", "id": 2904437577, "lat": 28.6150589, "lon": 77.3003322}, {"type": "node", "id": 2904437580, "lat": 28.6151714, "lon": 77.3004072}, {"type": "node", "id": 2904437584, "lat": 28.6161983, "lon": 77.3014813}, {"type": "node", "id": 2904437589, "lat": 28.6160411, "lon": 77.3013451}, {"type": "node", "id": 3573673671, "lat": 28.615374, "lon": 77.300787}, {"type": "node", "id": 3614951923, "lat": 28.6129515, "lon": 77.3034448}, {"type": "node", "id": 12185761707, "lat": 28.616001, "lon": 77.3014094}, {"type": "node", "id": 906416410, "lat": 28.6128254, "lon": 77.3077813}, {"type": "node", "id": 906416546, "lat": 28.6128028, "lon": 77.3072991}, {"type": "node", "id": 2903684583, "lat": 28.6127474, "lon": 77.3089868}, {"type": "node", "id": 2903684584, "lat": 28.6127719, "lon": 77.307007}, {"type": "node", "id": 2903684586, "lat": 28.6127771, "lon": 77.3110414}, {"type": "node", "id": 2903684587, "lat": 28.6128423, "lon": 77.3079594}, {"type": "node", "id": 2903684589, "lat": 28.6128734, "lon": 77.3084227}, {"type": "node", "id": 4942573339, "lat": 28.6128646, "lon": 77.3112436}, {"type": "node", "id": 4942573340, "lat": 28.6151062, "lon": 77.3103907}, {"type": "node", "id": 4942573341, "lat": 28.6150732, "lon": 77.3101922}, {"type": "node", "id": 4942573342, "lat": 28.6152003, "lon": 77.3101225}, {"type": "node", "id": 4942573343, "lat": 28.6152474, "lon": 77.3102941}, {"type": "node", "id": 4942573344, "lat": 28.6153557, "lon": 77.3102673}, {"type": "node", "id": 4942573345, "lat": 28.6152992, "lon": 77.3100796}, {"type": "node", "id": 4942573346, "lat": 28.6156995, "lon": 77.3099293}, {"type": "node", "id": 4942573347, "lat": 28.6157654, "lon": 77.3101171}, {"type": "node", "id": 3067807873, "lat": 28.6188254, "lon": 77.2841638}, {"type": "node", "id": 3067807874, "lat": 28.6181779, "lon": 77.2845822}, {"type": "node", "id": 3067807875, "lat": 28.6181402, "lon": 77.2844695}, {"type": "node", "id": 3067807876, "lat": 28.6181308, "lon": 77.2843301}, {"type": "node", "id": 3067807877, "lat": 28.6181637, "lon": 77.2841772}, {"type": "node", "id": 3067807878, "lat": 28.6182414, "lon": 77.2840592}, {"type": "node", "id": 3067807879, "lat": 28.6183733, "lon": 77.2839787}, {"type": "node", "id": 3067807880, "lat": 28.6185781, "lon": 77.2839492}, {"type": "node", "id": 3067807881, "lat": 28.6187265, "lon": 77.284035}, {"type": "node", "id": 4942061713, "lat": 28.6174105, "lon": 77.2858091}, {"type": "node", "id": 4942475564, "lat": 28.6174971, "lon": 77.2859924}, {"type": "node", "id": 6488001932, "lat": 28.618312, "lon": 77.282325}, {"type": "node", "id": 6488001933, "lat": 28.6180536, "lon": 77.2817763}, {"type": "node", "id": 6488001934, "lat": 28.6185878, "lon": 77.2813861}, {"type": "node", "id": 6488001935, "lat": 28.6188441, "lon": 77.2818142}, {"type": "node", "id": 6838075765, "lat": 28.6176319, "lon": 77.2856715}, {"type": "node", "id": 6838075766, "lat": 28.617796, "lon": 77.2860279}, {"type": "node", "id": 6838075771, "lat": 28.6175812, "lon": 77.2861706}, {"type": "node", "id": 2904429095, "lat": 28.6168009, "lon": 77.2879353}, {"type": "node", "id": 2904437597, "lat": 28.6168082, "lon": 77.2925481}, {"type": "node", "id": 2904437598, "lat": 28.6167256, "lon": 77.2922582}, {"type": "node", "id": 2904438106, "lat": 28.6174909, "lon": 77.2919811}, {"type": "node", "id": 2904438110, "lat": 28.617847, "lon": 77.2923738}, {"type": "node", "id": 3247320280, "lat": 28.6187689, "lon": 77.2896169}, {"type": "node", "id": 4442163709, "lat": 28.6227246, "lon": 77.2885513}, {"type": "node", "id": 4442163710, "lat": 28.6226567, "lon": 77.2891499}, {"type": "node", "id": 4442163711, "lat": 28.622452, "lon": 77.2892836}, {"type": "node", "id": 4942573355, "lat": 28.6166076, "lon": 77.292586}, {"type": "node", "id": 4942573358, "lat": 28.6176022, "lon": 77.2924457}, {"type": "node", "id": 4942573359, "lat": 28.6179547, "lon": 77.2928599}, {"type": "node", "id": 7153077547, "lat": 28.6213749, "lon": 77.2895614}, {"type": "node", "id": 7153077548, "lat": 28.6214731, "lon": 77.2897633}, {"type": "node", "id": 7153077549, "lat": 28.6216914, "lon": 77.2896257}, {"type": "node", "id": 7153077550, "lat": 28.6215932, "lon": 77.2894237}, {"type": "node", "id": 7153083703, "lat": 28.6218969, "lon": 77.2887399}, {"type": "node", "id": 7153083705, "lat": 28.6223625, "lon": 77.2897048}, {"type": "node", "id": 7155468162, "lat": 28.6185787, "lon": 77.289148}, {"type": "node", "id": 7222335588, "lat": 28.6227667, "lon": 77.292884}, {"type": "node", "id": 7222335595, "lat": 28.6223531, "lon": 77.2925572}, {"type": "node", "id": 9468185241, "lat": 28.6165311, "lon": 77.2880936}, {"type": "node", "id": 9833721303, "lat": 28.622501, "lon": 77.290025}, {"type": "node", "id": 10773265995, "lat": 28.6224708, "lon": 77.2899596}, {"type": "node", "id": 10886159413, "lat": 28.6226658, "lon": 77.2897557}, {"type": "node", "id": 10893806056, "lat": 28.6226957, "lon": 77.2897806}, {"type": "node", "id": 10911422976, "lat": 28.6225882, "lon": 77.289587}, {"type": "node", "id": 10911422989, "lat": 28.622515, "lon": 77.289426}, {"type": "node", "id": 10983172667, "lat": 28.6222536, "lon": 77.292603}, {"type": "node", "id": 10983172668, "lat": 28.6220861, "lon": 77.292866}, {"type": "node", "id": 10983172669, "lat": 28.6226602, "lon": 77.2927099}, {"type": "node", "id": 10983172670, "lat": 28.6224396, "lon": 77.2915799}, {"type": "node", "id": 10983172671, "lat": 28.6226923, "lon": 77.2927381}, {"type": "node", "id": 10983172672, "lat": 28.622735, "lon": 77.2926594}, {"type": "node", "id": 10983172675, "lat": 28.6222033, "lon": 77.2928881}, {"type": "node", "id": 10983172676, "lat": 28.6223139, "lon": 77.291555}, {"type": "node", "id": 10983172677, "lat": 28.6227123, "lon": 77.2928978}, {"type": "node", "id": 10983683004, "lat": 28.6225536, "lon": 77.2906051}, {"type": "node", "id": 10983736805, "lat": 28.6223653, "lon": 77.292497}, {"type": "node", "id": 10983736806, "lat": 28.6228467, "lon": 77.2911762}, {"type": "node", "id": 10983736807, "lat": 28.622705, "lon": 77.290724}, {"type": "node", "id": 10983736808, "lat": 28.6223955, "lon": 77.2920772}, {"type": "node", "id": 10983736810, "lat": 28.6225524, "lon": 77.2904146}, {"type": "node", "id": 10983736811, "lat": 28.6225335, "lon": 77.2906159}, {"type": "node", "id": 10983736813, "lat": 28.6217592, "lon": 77.2888266}, {"type": "node", "id": 10983736814, "lat": 28.6225084, "lon": 77.290926}, {"type": "node", "id": 10983736815, "lat": 28.6225879, "lon": 77.2898108}, {"type": "node", "id": 10983736816, "lat": 28.6220223, "lon": 77.2885824}, {"type": "node", "id": 10983736820, "lat": 28.6217152, "lon": 77.2887282}, {"type": "node", "id": 10983736823, "lat": 28.6223166, "lon": 77.2924888}, {"type": "node", "id": 10983736824, "lat": 28.6219615, "lon": 77.2885719}, {"type": "node", "id": 10983736826, "lat": 28.6227061, "lon": 77.2908574}, {"type": "node", "id": 11081616312, "lat": 28.6223883, "lon": 77.289933}, {"type": "node", "id": 11081616313, "lat": 28.6223822, "lon": 77.2899191}, {"type": "node", "id": 11081616315, "lat": 28.6224025, "lon": 77.2899503}, {"type": "node", "id": 11081616316, "lat": 28.6224075, "lon": 77.2899027}, {"type": "node", "id": 11081616317, "lat": 28.6224158, "lon": 77.2899614}, {"type": "node", "id": 11137697909, "lat": 28.6223481, "lon": 77.2896772}, {"type": "node", "id": 11148213503, "lat": 28.6225058, "lon": 77.289407}, {"type": "node", "id": 11261969138, "lat": 28.6193271, "lon": 77.2892201}, {"type": "node", "id": 11261969142, "lat": 28.6193617, "lon": 77.2893049}, {"type": "node", "id": 11261969143, "lat": 28.6191077, "lon": 77.2893355}, {"type": "node", "id": 11261969144, "lat": 28.6191422, "lon": 77.2894205}, {"type": "node", "id": 11810413151, "lat": 28.6224368, "lon": 77.2899686}, {"type": "node", "id": 11952924089, "lat": 28.6194974, "lon": 77.2901616}, {"type": "node", "id": 11952924091, "lat": 28.6188612, "lon": 77.2899317}, {"type": "node", "id": 11952924101, "lat": 28.6196044, "lon": 77.2903417}, {"type": "node", "id": 11952924117, "lat": 28.6195183, "lon": 77.2902145}, {"type": "node", "id": 11952924130, "lat": 28.6189402, "lon": 77.289891}, {"type": "node", "id": 11952924155, "lat": 28.6191227, "lon": 77.2905901}, {"type": "node", "id": 11952924174, "lat": 28.6195478, "lon": 77.2901993}, {"type": "node", "id": 11952924221, "lat": 28.6191241, "lon": 77.290354}, {"type": "node", "id": 11956304452, "lat": 28.6194751, "lon": 77.2894905}, {"type": "node", "id": 11956304455, "lat": 28.6194176, "lon": 77.2893344}, {"type": "node", "id": 11956344846, "lat": 28.6191314, "lon": 77.2884588}, {"type": "node", "id": 11956344848, "lat": 28.6189383, "lon": 77.2887417}, {"type": "node", "id": 11956344849, "lat": 28.6190042, "lon": 77.2889241}, {"type": "node", "id": 11956344850, "lat": 28.6179885, "lon": 77.287449}, {"type": "node", "id": 11956344852, "lat": 28.6184747, "lon": 77.2887783}, {"type": "node", "id": 11956344853, "lat": 28.6179949, "lon": 77.2880454}, {"type": "node", "id": 11956344854, "lat": 28.619197, "lon": 77.2886136}, {"type": "node", "id": 11956344856, "lat": 28.6179337, "lon": 77.2882242}, {"type": "node", "id": 11956344857, "lat": 28.6185351, "lon": 77.2897386}, {"type": "node", "id": 11956344858, "lat": 28.6178042, "lon": 77.2875611}, {"type": "node", "id": 11956351594, "lat": 28.6191653, "lon": 77.2894548}, {"type": "node", "id": 11956351600, "lat": 28.6193168, "lon": 77.2895661}, {"type": "node", "id": 11956351601, "lat": 28.6194362, "lon": 77.2898907}, {"type": "node", "id": 11956351610, "lat": 28.6193422, "lon": 77.2899356}, {"type": "node", "id": 11998490340, "lat": 28.6193335, "lon": 77.2892365}, {"type": "node", "id": 11998510469, "lat": 28.6185663, "lon": 77.2897224}, {"type": "node", "id": 12162043397, "lat": 28.6165605, "lon": 77.2926887}, {"type": "node", "id": 13062180913, "lat": 28.6187282, "lon": 77.2886544}, {"type": "node", "id": 2211538220, "lat": 28.6250254, "lon": 77.2864302}, {"type": "node", "id": 3067804604, "lat": 28.6253701, "lon": 77.2805119}, {"type": "node", "id": 3067804605, "lat": 28.6253065, "lon": 77.280693}, {"type": "node", "id": 3067804606, "lat": 28.6254466, "lon": 77.2807453}, {"type": "node", "id": 3067804607, "lat": 28.625595, "lon": 77.2806004}, {"type": "node", "id": 3067813010, "lat": 28.6257551, "lon": 77.2804529}, {"type": "node", "id": 3067813011, "lat": 28.6253854, "lon": 77.2802705}, {"type": "node", "id": 3067813012, "lat": 28.6253324, "lon": 77.2804435}, {"type": "node", "id": 3067813013, "lat": 28.6256244, "lon": 77.2805803}, {"type": "node", "id": 3067817941, "lat": 28.6258704, "lon": 77.2809089}, {"type": "node", "id": 3067817942, "lat": 28.626034, "lon": 77.2812026}, {"type": "node", "id": 3067817943, "lat": 28.6255067, "lon": 77.2814869}, {"type": "node", "id": 3067817944, "lat": 28.6254313, "lon": 77.2813702}, {"type": "node", "id": 4442163708, "lat": 28.623027, "lon": 77.2883496}, {"type": "node", "id": 10886159417, "lat": 28.6230208, "lon": 77.2886328}, {"type": "node", "id": 10983736809, "lat": 28.6228971, "lon": 77.2911459}, {"type": "node", "id": 11148213428, "lat": 28.6231032, "lon": 77.2876805}, {"type": "node", "id": 11148213463, "lat": 28.6229672, "lon": 77.2888221}, {"type": "node", "id": 11148213499, "lat": 28.6238708, "lon": 77.2888666}, {"type": "node", "id": 11148213544, "lat": 28.6236932, "lon": 77.2890875}, {"type": "node", "id": 11148213552, "lat": 28.6240379, "lon": 77.2886588}, {"type": "node", "id": 11148213557, "lat": 28.6230221, "lon": 77.2885726}, {"type": "node", "id": 11148213569, "lat": 28.6248666, "lon": 77.2885864}, {"type": "node", "id": 11148213609, "lat": 28.6233311, "lon": 77.2881538}, {"type": "node", "id": 11148213615, "lat": 28.6232182, "lon": 77.2888316}, {"type": "node", "id": 11148213620, "lat": 28.6250608, "lon": 77.2885694}, {"type": "node", "id": 11148213645, "lat": 28.6231274, "lon": 77.2887827}, {"type": "node", "id": 11148213646, "lat": 28.6232077, "lon": 77.2882333}, {"type": "node", "id": 905283399, "lat": 28.6208807, "lon": 77.299441}, {"type": "node", "id": 2904437591, "lat": 28.6163287, "lon": 77.293658}, {"type": "node", "id": 2904437592, "lat": 28.6163417, "lon": 77.2939477}, {"type": "node", "id": 2904437593, "lat": 28.6163728, "lon": 77.2935663}, {"type": "node", "id": 2904437594, "lat": 28.6164481, "lon": 77.2937319}, {"type": "node", "id": 2904438112, "lat": 28.618433, "lon": 77.2948242}, {"type": "node", "id": 2904438113, "lat": 28.6187568, "lon": 77.2960276}, {"type": "node", "id": 2904438114, "lat": 28.6192849, "lon": 77.2958577}, {"type": "node", "id": 4942573362, "lat": 28.6196858, "lon": 77.2958451}, {"type": "node", "id": 7214263638, "lat": 28.6203357, "lon": 77.2978049}, {"type": "node", "id": 7222102727, "lat": 28.6186527, "lon": 77.2950396}, {"type": "node", "id": 7222102728, "lat": 28.6185021, "lon": 77.2950932}, {"type": "node", "id": 7222102741, "lat": 28.6198256, "lon": 77.2978643}, {"type": "node", "id": 7222102753, "lat": 28.6181606, "lon": 77.2937556}, {"type": "node", "id": 7222102763, "lat": 28.6185747, "lon": 77.2947727}, {"type": "node", "id": 9529768303, "lat": 28.6202224, "lon": 77.2991545}, {"type": "node", "id": 9529768304, "lat": 28.6202569, "lon": 77.2992663}, {"type": "node", "id": 9529768305, "lat": 28.6201711, "lon": 77.2991704}, {"type": "node", "id": 9529768306, "lat": 28.620202, "lon": 77.2992897}, {"type": "node", "id": 9568785946, "lat": 28.6188742, "lon": 77.2936199}, {"type": "node", "id": 9568785954, "lat": 28.6187558, "lon": 77.2933142}, {"type": "node", "id": 10983683000, "lat": 28.6218499, "lon": 77.2940261}, {"type": "node", "id": 10983683001, "lat": 28.6215981, "lon": 77.2941351}, {"type": "node", "id": 10983683002, "lat": 28.6219195, "lon": 77.293957}, {"type": "node", "id": 10983683003, "lat": 28.6218722, "lon": 77.2941864}, {"type": "node", "id": 10983736812, "lat": 28.6219627, "lon": 77.294104}, {"type": "node", "id": 10983736818, "lat": 28.6219046, "lon": 77.2939853}, {"type": "node", "id": 10983736819, "lat": 28.6219818, "lon": 77.2940581}, {"type": "node", "id": 10983736821, "lat": 28.6218789, "lon": 77.2940078}, {"type": "node", "id": 10983736822, "lat": 28.6219265, "lon": 77.2941467}, {"type": "node", "id": 10983736825, "lat": 28.6219333, "lon": 77.2939304}, {"type": "node", "id": 10983736827, "lat": 28.6216493, "lon": 77.2942919}, {"type": "node", "id": 905280507, "lat": 28.6166486, "lon": 77.3055208}, {"type": "node", "id": 905282499, "lat": 28.6166663, "lon": 77.3030157}, {"type": "node", "id": 905283553, "lat": 28.6177995, "lon": 77.3026476}, {"type": "node", "id": 905284050, "lat": 28.6173444, "lon": 77.3027758}, {"type": "node", "id": 2904430907, "lat": 28.6209204, "lon": 77.2997871}, {"type": "node", "id": 2904437600, "lat": 28.6169395, "lon": 77.3041387}, {"type": "node", "id": 2904438103, "lat": 28.6170589, "lon": 77.3052482}, {"type": "node", "id": 2904438105, "lat": 28.617116, "lon": 77.3054123}, {"type": "node", "id": 2904438107, "lat": 28.6172432, "lon": 77.3051581}, {"type": "node", "id": 2904438115, "lat": 28.6203981, "lon": 77.3000328}, {"type": "node", "id": 3579590143, "lat": 28.6175067, "lon": 77.3023241}, {"type": "node", "id": 13070850133, "lat": 28.6178106, "lon": 77.3023109}, {"type": "node", "id": 2660062109, "lat": 28.6309852, "lon": 77.2808659}, {"type": "node", "id": 2660062110, "lat": 28.6310839, "lon": 77.2810107}, {"type": "node", "id": 2660062111, "lat": 28.6312002, "lon": 77.2809014}, {"type": "node", "id": 2660062112, "lat": 28.6313657, "lon": 77.2810813}, {"type": "node", "id": 2660062114, "lat": 28.6312141, "lon": 77.2812291}, {"type": "node", "id": 2660062115, "lat": 28.6312611, "lon": 77.2812983}, {"type": "node", "id": 2660062116, "lat": 28.6311079, "lon": 77.2814755}, {"type": "node", "id": 2660062117, "lat": 28.6308001, "lon": 77.2813385}, {"type": "node", "id": 2660062118, "lat": 28.6305649, "lon": 77.2812369}, {"type": "node", "id": 3067823433, "lat": 28.6323387, "lon": 77.2862535}, {"type": "node", "id": 3067823436, "lat": 28.6306433, "lon": 77.2865883}, {"type": "node", "id": 3067823437, "lat": 28.6310541, "lon": 77.2865833}, {"type": "node", "id": 3067823438, "lat": 28.6310517, "lon": 77.2862932}, {"type": "node", "id": 4637037078, "lat": 28.6312061, "lon": 77.2860478}, {"type": "node", "id": 4637037079, "lat": 28.6309679, "lon": 77.2860541}, {"type": "node", "id": 4637037080, "lat": 28.6312141, "lon": 77.2858517}, {"type": "node", "id": 4637037084, "lat": 28.6309834, "lon": 77.2858959}, {"type": "node", "id": 4658645253, "lat": 28.6334539, "lon": 77.2865817}, {"type": "node", "id": 4658645254, "lat": 28.6331618, "lon": 77.2863475}, {"type": "node", "id": 4658645255, "lat": 28.632586, "lon": 77.28622}, {"type": "node", "id": 4658645256, "lat": 28.6327886, "lon": 77.2864461}, {"type": "node", "id": 5262316863, "lat": 28.6320601, "lon": 77.2845713}, {"type": "node", "id": 5262316864, "lat": 28.6320554, "lon": 77.2849522}, {"type": "node", "id": 5262316865, "lat": 28.6319094, "lon": 77.2849468}, {"type": "node", "id": 5262316866, "lat": 28.6318435, "lon": 77.2856549}, {"type": "node", "id": 5262316867, "lat": 28.6322437, "lon": 77.2856013}, {"type": "node", "id": 5262316868, "lat": 28.6322484, "lon": 77.2851399}, {"type": "node", "id": 5335657635, "lat": 28.6322437, "lon": 77.2846142}, {"type": "node", "id": 5335658970, "lat": 28.632202, "lon": 77.2845564}, {"type": "node", "id": 6126125812, "lat": 28.6322467, "lon": 77.284954}, {"type": "node", "id": 6126125867, "lat": 28.6315976, "lon": 77.2857516}, {"type": "node", "id": 6126125868, "lat": 28.6315593, "lon": 77.2860597}, {"type": "node", "id": 6126125869, "lat": 28.6312255, "lon": 77.2860612}, {"type": "node", "id": 6126125870, "lat": 28.6312474, "lon": 77.2858299}, {"type": "node", "id": 11755533218, "lat": 28.6311222, "lon": 77.2862906}, {"type": "node", "id": 11903565481, "lat": 28.6307424, "lon": 77.2810803}, {"type": "node", "id": 11903565530, "lat": 28.6310665, "lon": 77.2809852}, {"type": "node", "id": 11903578483, "lat": 28.6312172, "lon": 77.2809198}, {"type": "node", "id": 12498109222, "lat": 28.6331257, "lon": 77.2861603}, {"type": "node", "id": 3067823434, "lat": 28.6323818, "lon": 77.2870223}, {"type": "node", "id": 3067823435, "lat": 28.6306408, "lon": 77.2871061}, {"type": "node", "id": 4211847978, "lat": 28.6356568, "lon": 77.288797}, {"type": "node", "id": 4637037598, "lat": 28.6309088, "lon": 77.2871132}, {"type": "node", "id": 4637037599, "lat": 28.6305569, "lon": 77.2871304}, {"type": "node", "id": 4637037600, "lat": 28.6305341, "lon": 77.2875929}, {"type": "node", "id": 4637037601, "lat": 28.630215, "lon": 77.2879795}, {"type": "node", "id": 4637037603, "lat": 28.6309648, "lon": 77.2881022}, {"type": "node", "id": 4658609934, "lat": 28.6323061, "lon": 77.2881858}, {"type": "node", "id": 4658609935, "lat": 28.6326385, "lon": 77.2885928}, {"type": "node", "id": 4658609936, "lat": 28.6324086, "lon": 77.2889184}, {"type": "node", "id": 4658609937, "lat": 28.6320452, "lon": 77.2884123}, {"type": "node", "id": 4658609938, "lat": 28.6321632, "lon": 77.2883026}, {"type": "node", "id": 4658609946, "lat": 28.6313242, "lon": 77.2880632}, {"type": "node", "id": 4658609947, "lat": 28.6313242, "lon": 77.2882457}, {"type": "node", "id": 4658609948, "lat": 28.6312765, "lon": 77.2882379}, {"type": "node", "id": 4658609949, "lat": 28.6310381, "lon": 77.2880623}, {"type": "node", "id": 4658645252, "lat": 28.6331131, "lon": 77.2867912}, {"type": "node", "id": 4659347692, "lat": 28.63167, "lon": 77.2894242}, {"type": "node", "id": 4659347693, "lat": 28.6317821, "lon": 77.2895647}, {"type": "node", "id": 4659347694, "lat": 28.6316139, "lon": 77.289718}, {"type": "node", "id": 4659347695, "lat": 28.6314756, "lon": 77.289603}, {"type": "node", "id": 4659347696, "lat": 28.6314943, "lon": 77.2895732}, {"type": "node", "id": 4659348849, "lat": 28.6305986, "lon": 77.2884936}, {"type": "node", "id": 4659381888, "lat": 28.6346672, "lon": 77.2868257}, {"type": "node", "id": 4659386789, "lat": 28.6351251, "lon": 77.2876975}, {"type": "node", "id": 4659386790, "lat": 28.6347553, "lon": 77.2881309}, {"type": "node", "id": 4659386791, "lat": 28.6340927, "lon": 77.2872562}, {"type": "node", "id": 4727170292, "lat": 28.6354239, "lon": 77.2890187}, {"type": "node", "id": 6126125863, "lat": 28.6302228, "lon": 77.2873549}, {"type": "node", "id": 6126125864, "lat": 28.63022, "lon": 77.2874946}, {"type": "node", "id": 6126125865, "lat": 28.6300146, "lon": 77.2877286}, {"type": "node", "id": 6126125866, "lat": 28.6297323, "lon": 77.2873647}, {"type": "node", "id": 6126125874, "lat": 28.6302215, "lon": 77.2874174}, {"type": "node", "id": 6126125875, "lat": 28.6302422, "lon": 77.288016}, {"type": "node", "id": 12065425278, "lat": 28.6313695, "lon": 77.287071}, {"type": "node", "id": 12065425282, "lat": 28.6343611, "lon": 77.286947}, {"type": "node", "id": 12065425314, "lat": 28.6351041, "lon": 77.2868144}, {"type": "node", "id": 12065425315, "lat": 28.6349717, "lon": 77.2879281}, {"type": "node", "id": 12065425319, "lat": 28.634931, "lon": 77.2878716}, {"type": "node", "id": 12065425320, "lat": 28.6313477, "lon": 77.2870721}, {"type": "node", "id": 12065425329, "lat": 28.6348332, "lon": 77.286993}, {"type": "node", "id": 12065425346, "lat": 28.6347426, "lon": 77.2868308}, {"type": "node", "id": 12065425353, "lat": 28.634903, "lon": 77.2872776}, {"type": "node", "id": 12065425356, "lat": 28.6306416, "lon": 77.2869306}, {"type": "node", "id": 12065425363, "lat": 28.63427, "lon": 77.2874902}, {"type": "node", "id": 12065436374, "lat": 28.6348994, "lon": 77.2868122}, {"type": "node", "id": 12065436384, "lat": 28.6317942, "lon": 77.2870506}, {"type": "node", "id": 12065436396, "lat": 28.6318151, "lon": 77.2870496}, {"type": "node", "id": 12065436400, "lat": 28.6323771, "lon": 77.286938}, {"type": "node", "id": 12065436405, "lat": 28.6350822, "lon": 77.2867906}, {"type": "node", "id": 12065436412, "lat": 28.6343646, "lon": 77.2876151}, {"type": "node", "id": 12065436417, "lat": 28.6344993, "lon": 77.2868696}, {"type": "node", "id": 6126147508, "lat": 28.6385119, "lon": 77.2855112}, {"type": "node", "id": 6126147509, "lat": 28.6385632, "lon": 77.2857673}, {"type": "node", "id": 6126147510, "lat": 28.6387263, "lon": 77.2862133}, {"type": "node", "id": 6126147511, "lat": 28.6389248, "lon": 77.2865228}, {"type": "node", "id": 6126147514, "lat": 28.6381221, "lon": 77.2865743}, {"type": "node", "id": 6126147515, "lat": 28.6379283, "lon": 77.2861237}, {"type": "node", "id": 6126147516, "lat": 28.6376982, "lon": 77.285977}, {"type": "node", "id": 6126147517, "lat": 28.6376493, "lon": 77.2858453}, {"type": "node", "id": 6482584915, "lat": 28.6403066, "lon": 77.2801236}, {"type": "node", "id": 6482584916, "lat": 28.6399252, "lon": 77.2801531}, {"type": "node", "id": 6482584917, "lat": 28.6399064, "lon": 77.2801182}, {"type": "node", "id": 6482584918, "lat": 28.6398593, "lon": 77.2801236}, {"type": "node", "id": 6611865940, "lat": 28.6412644, "lon": 77.2802631}, {"type": "node", "id": 6611865941, "lat": 28.6416458, "lon": 77.2802336}, {"type": "node", "id": 6611865943, "lat": 28.6417494, "lon": 77.2814513}, {"type": "node", "id": 6611865944, "lat": 28.6412197, "lon": 77.2815291}, {"type": "node", "id": 6611865945, "lat": 28.6412715, "lon": 77.2821192}, {"type": "node", "id": 6611865946, "lat": 28.6416788, "lon": 77.2818724}, {"type": "node", "id": 6611865947, "lat": 28.6418341, "lon": 77.2817758}, {"type": "node", "id": 7722073369, "lat": 28.640597, "lon": 77.2816657}, {"type": "node", "id": 7722073370, "lat": 28.6407288, "lon": 77.281655}, {"type": "node", "id": 7722073371, "lat": 28.64079, "lon": 77.2824168}, {"type": "node", "id": 7722073372, "lat": 28.6404463, "lon": 77.2826474}, {"type": "node", "id": 7722073373, "lat": 28.640451, "lon": 77.2823417}, {"type": "node", "id": 7722073374, "lat": 28.6406017, "lon": 77.2823095}, {"type": "node", "id": 7722073375, "lat": 28.6404699, "lon": 77.2814565}, {"type": "node", "id": 7722073376, "lat": 28.6406252, "lon": 77.2814619}, {"type": "node", "id": 7722073377, "lat": 28.6405876, "lon": 77.280963}, {"type": "node", "id": 7722073378, "lat": 28.6404369, "lon": 77.2809576}, {"type": "node", "id": 7722075089, "lat": 28.6413592, "lon": 77.2844781}, {"type": "node", "id": 7722075090, "lat": 28.6411874, "lon": 77.2844754}, {"type": "node", "id": 7722075091, "lat": 28.6411874, "lon": 77.2846954}, {"type": "node", "id": 7722075092, "lat": 28.6413569, "lon": 77.2846954}, {"type": "node", "id": 7722075094, "lat": 28.641863, "lon": 77.2832416}, {"type": "node", "id": 7722075095, "lat": 28.6416841, "lon": 77.2832497}, {"type": "node", "id": 7722075096, "lat": 28.6416911, "lon": 77.2834535}, {"type": "node", "id": 7722075097, "lat": 28.64187, "lon": 77.2834455}, {"type": "node", "id": 7722075098, "lat": 28.6416417, "lon": 77.2835072}, {"type": "node", "id": 7722075099, "lat": 28.641411, "lon": 77.2835098}, {"type": "node", "id": 7722075100, "lat": 28.641411, "lon": 77.2836842}, {"type": "node", "id": 7722075101, "lat": 28.6416346, "lon": 77.2836842}, {"type": "node", "id": 7722075102, "lat": 28.6418818, "lon": 77.2837083}, {"type": "node", "id": 7722075103, "lat": 28.6416911, "lon": 77.283703}, {"type": "node", "id": 7722075104, "lat": 28.6416864, "lon": 77.2839202}, {"type": "node", "id": 7722075105, "lat": 28.6418677, "lon": 77.2839068}, {"type": "node", "id": 7722075106, "lat": 28.6420937, "lon": 77.2832872}, {"type": "node", "id": 7722075107, "lat": 28.6419101, "lon": 77.2832819}, {"type": "node", "id": 7722075108, "lat": 28.6419195, "lon": 77.2834642}, {"type": "node", "id": 7722075109, "lat": 28.6420913, "lon": 77.283475}, {"type": "node", "id": 7722075110, "lat": 28.6420984, "lon": 77.2837244}, {"type": "node", "id": 7722075111, "lat": 28.6419265, "lon": 77.283711}, {"type": "node", "id": 7722075112, "lat": 28.6419195, "lon": 77.2839202}, {"type": "node", "id": 7722075113, "lat": 28.6421031, "lon": 77.283931}, {"type": "node", "id": 4727170290, "lat": 28.63606, "lon": 77.289773}, {"type": "node", "id": 4727170291, "lat": 28.6362642, "lon": 77.2895511}, {"type": "node", "id": 4727170303, "lat": 28.6394365, "lon": 77.2899687}, {"type": "node", "id": 4727170304, "lat": 28.6392251, "lon": 77.290156}, {"type": "node", "id": 4727170305, "lat": 28.6396348, "lon": 77.2907566}, {"type": "node", "id": 4727170306, "lat": 28.6399984, "lon": 77.2904346}, {"type": "node", "id": 4727170307, "lat": 28.6398015, "lon": 77.2901458}, {"type": "node", "id": 4727170308, "lat": 28.6396843, "lon": 77.2903316}, {"type": "node", "id": 4727170310, "lat": 28.6413981, "lon": 77.2882432}, {"type": "node", "id": 4727170311, "lat": 28.6410676, "lon": 77.2885727}, {"type": "node", "id": 4727170312, "lat": 28.6415633, "lon": 77.2891729}, {"type": "node", "id": 4727170313, "lat": 28.6416873, "lon": 77.2890434}, {"type": "node", "id": 4727170314, "lat": 28.6418525, "lon": 77.2893141}, {"type": "node", "id": 4727170315, "lat": 28.6420591, "lon": 77.2890434}, {"type": "node", "id": 4727170316, "lat": 28.6414291, "lon": 77.2881491}, {"type": "node", "id": 6126147512, "lat": 28.6381579, "lon": 77.2870739}, {"type": "node", "id": 6126147513, "lat": 28.638088, "lon": 77.2869172}, {"type": "node", "id": 7722073379, "lat": 28.6421412, "lon": 77.2870892}, {"type": "node", "id": 7722073380, "lat": 28.6424096, "lon": 77.2867995}, {"type": "node", "id": 7722073381, "lat": 28.6424708, "lon": 77.2874003}, {"type": "node", "id": 7722073382, "lat": 28.6424331, "lon": 77.2874539}, {"type": "node", "id": 12064267246, "lat": 28.638795, "lon": 77.2866161}, {"type": "node", "id": 12596444619, "lat": 28.639882, "lon": 77.2870597}, {"type": "node", "id": 12650783510, "lat": 28.640319, "lon": 77.2866566}, {"type": "node", "id": 12650783525, "lat": 28.6408138, "lon": 77.2873529}, {"type": "node", "id": 12650783540, "lat": 28.6403768, "lon": 77.287756}, {"type": "node", "id": 905280982, "lat": 28.617399, "lon": 77.3081642}, {"type": "node", "id": 3579648964, "lat": 28.6171214, "lon": 77.3071379}, {"type": "node", "id": 4942573348, "lat": 28.6167026, "lon": 77.3097738}, {"type": "node", "id": 4942573349, "lat": 28.6166225, "lon": 77.309173}, {"type": "node", "id": 4942573350, "lat": 28.6174136, "lon": 77.3088672}, {"type": "node", "id": 4942573351, "lat": 28.6174937, "lon": 77.3090818}, {"type": "node", "id": 4942573352, "lat": 28.6175832, "lon": 77.3090603}, {"type": "node", "id": 2722843635, "lat": 28.6486985, "lon": 77.2402255}, {"type": "node", "id": 2722843615, "lat": 28.6496306, "lon": 77.2398232}, {"type": "node", "id": 2722843620, "lat": 28.6495741, "lon": 77.2396086}, {"type": "node", "id": 2722843644, "lat": 28.6497012, "lon": 77.2399573}, {"type": "node", "id": 938522392, "lat": 28.6436609, "lon": 77.2422669}, {"type": "node", "id": 938522474, "lat": 28.6462839, "lon": 77.2464233}, {"type": "node", "id": 938523136, "lat": 28.6459939, "lon": 77.2457728}, {"type": "node", "id": 938523220, "lat": 28.6436296, "lon": 77.241432}, {"type": "node", "id": 938523271, "lat": 28.6466961, "lon": 77.2455649}, {"type": "node", "id": 938523938, "lat": 28.6439292, "lon": 77.2456404}, {"type": "node", "id": 938523970, "lat": 28.6455154, "lon": 77.246588}, {"type": "node", "id": 938524384, "lat": 28.646084, "lon": 77.2464908}, {"type": "node", "id": 938524497, "lat": 28.6471066, "lon": 77.2471344}, {"type": "node", "id": 938524506, "lat": 28.6470135, "lon": 77.2452679}, {"type": "node", "id": 938524635, "lat": 28.6462033, "lon": 77.2456027}, {"type": "node", "id": 2722843630, "lat": 28.6485808, "lon": 77.2417704}, {"type": "node", "id": 2722854242, "lat": 28.6462121, "lon": 77.2455864}, {"type": "node", "id": 2722854245, "lat": 28.6466923, "lon": 77.2455274}, {"type": "node", "id": 2722854264, "lat": 28.6470179, "lon": 77.2452198}, {"type": "node", "id": 2722854270, "lat": 28.6459673, "lon": 77.2457527}, {"type": "node", "id": 2722903110, "lat": 28.647913, "lon": 77.244909}, {"type": "node", "id": 9880357051, "lat": 28.6472989, "lon": 77.2451223}, {"type": "node", "id": 9880357076, "lat": 28.6436593, "lon": 77.2456304}, {"type": "node", "id": 9880357078, "lat": 28.6430586, "lon": 77.2456082}, {"type": "node", "id": 9880366645, "lat": 28.6427258, "lon": 77.2455959}, {"type": "node", "id": 938522431, "lat": 28.6432415, "lon": 77.2522591}, {"type": "node", "id": 938522472, "lat": 28.646811, "lon": 77.2523855}, {"type": "node", "id": 938522934, "lat": 28.6450665, "lon": 77.2524191}, {"type": "node", "id": 938523228, "lat": 28.6465948, "lon": 77.2473103}, {"type": "node", "id": 938523901, "lat": 28.6461561, "lon": 77.2473843}, {"type": "node", "id": 938524401, "lat": 28.6473938, "lon": 77.2520515}, {"type": "node", "id": 938524469, "lat": 28.6483315, "lon": 77.2516794}, {"type": "node", "id": 938524673, "lat": 28.6462883, "lon": 77.2524902}, {"type": "node", "id": 13288958126, "lat": 28.6428501, "lon": 77.2502934}, {"type": "node", "id": 13288958127, "lat": 28.6427707, "lon": 77.2502928}, {"type": "node", "id": 13288958128, "lat": 28.6427701, "lon": 77.250382}, {"type": "node", "id": 13288958129, "lat": 28.6428495, "lon": 77.2503826}, {"type": "node", "id": 13288958136, "lat": 28.644088, "lon": 77.2489494}, {"type": "node", "id": 13288958137, "lat": 28.6440564, "lon": 77.2489484}, {"type": "node", "id": 13288958138, "lat": 28.644056, "lon": 77.2489651}, {"type": "node", "id": 13288958139, "lat": 28.6440876, "lon": 77.248966}, {"type": "node", "id": 13288958140, "lat": 28.6489162, "lon": 77.2480335}, {"type": "node", "id": 13288958141, "lat": 28.6488427, "lon": 77.2479514}, {"type": "node", "id": 13288958142, "lat": 28.6487679, "lon": 77.2480384}, {"type": "node", "id": 13288958143, "lat": 28.6488414, "lon": 77.2481205}, {"type": "node", "id": 938522396, "lat": 28.6508013, "lon": 77.2457125}, {"type": "node", "id": 938522520, "lat": 28.6503633, "lon": 77.2447982}, {"type": "node", "id": 938523043, "lat": 28.6493068, "lon": 77.2453759}, {"type": "node", "id": 938524178, "lat": 28.6497615, "lon": 77.2462042}, {"type": "node", "id": 938524435, "lat": 28.6501975, "lon": 77.2441773}, {"type": "node", "id": 938524714, "lat": 28.6503159, "lon": 77.2449386}, {"type": "node", "id": 2722843613, "lat": 28.6498801, "lon": 77.2418134}, {"type": "node", "id": 2722854256, "lat": 28.6501391, "lon": 77.2441361}, {"type": "node", "id": 938522554, "lat": 28.6508208, "lon": 77.2487637}, {"type": "node", "id": 938523129, "lat": 28.6491246, "lon": 77.2516634}, {"type": "node", "id": 938523994, "lat": 28.6497295, "lon": 77.2504538}, {"type": "node", "id": 1863520475, "lat": 28.6503173, "lon": 77.2498878}, {"type": "node", "id": 1863520522, "lat": 28.6507198, "lon": 77.2493676}, {"type": "node", "id": 4914656096, "lat": 28.6434862, "lon": 77.270881}, {"type": "node", "id": 4914656097, "lat": 28.6435005, "lon": 77.2714998}, {"type": "node", "id": 4914656098, "lat": 28.6433489, "lon": 77.2715348}, {"type": "node", "id": 4914656099, "lat": 28.6433591, "lon": 77.2718757}, {"type": "node", "id": 4914656100, "lat": 28.6429001, "lon": 77.2719551}, {"type": "node", "id": 4914656101, "lat": 28.6428366, "lon": 77.2718827}, {"type": "node", "id": 4914656102, "lat": 28.6428161, "lon": 77.271439}, {"type": "node", "id": 4914656103, "lat": 28.6429186, "lon": 77.2712149}, {"type": "node", "id": 4914656104, "lat": 28.6431173, "lon": 77.2710211}, {"type": "node", "id": 4914656105, "lat": 28.6433387, "lon": 77.270895}, {"type": "node", "id": 4914665495, "lat": 28.6429482, "lon": 77.2707633}, {"type": "node", "id": 4914665496, "lat": 28.6426122, "lon": 77.2713229}, {"type": "node", "id": 4914665497, "lat": 28.6426869, "lon": 77.2723466}, {"type": "node", "id": 7313049692, "lat": 28.6425716, "lon": 77.271498}, {"type": "node", "id": 7313049693, "lat": 28.642581, "lon": 77.2717689}, {"type": "node", "id": 7313049696, "lat": 28.6429812, "lon": 77.2708409}, {"type": "node", "id": 7313049697, "lat": 28.6428541, "lon": 77.2709039}, {"type": "node", "id": 7313049698, "lat": 28.6427211, "lon": 77.271038}, {"type": "node", "id": 7680670931, "lat": 28.647965, "lon": 77.2715314}, {"type": "node", "id": 7680670932, "lat": 28.6476213, "lon": 77.2715422}, {"type": "node", "id": 7680670933, "lat": 28.6476166, "lon": 77.2725453}, {"type": "node", "id": 7680670934, "lat": 28.6479697, "lon": 77.2724488}, {"type": "node", "id": 4914677116, "lat": 28.6430581, "lon": 77.2792571}, {"type": "node", "id": 4914677117, "lat": 28.6430822, "lon": 77.27975}, {"type": "node", "id": 6611508280, "lat": 28.6462728, "lon": 77.2755683}, {"type": "node", "id": 6611508281, "lat": 28.6466165, "lon": 77.2757185}, {"type": "node", "id": 6611508282, "lat": 28.6470072, "lon": 77.2758955}, {"type": "node", "id": 6611508283, "lat": 28.6473462, "lon": 77.2754824}, {"type": "node", "id": 6611508284, "lat": 28.6474262, "lon": 77.2753859}, {"type": "node", "id": 6611561799, "lat": 28.6454124, "lon": 77.275719}, {"type": "node", "id": 6611561800, "lat": 28.6450358, "lon": 77.2756547}, {"type": "node", "id": 6611561801, "lat": 28.6449181, "lon": 77.2756466}, {"type": "node", "id": 6611561802, "lat": 28.644824, "lon": 77.2762609}, {"type": "node", "id": 6611561803, "lat": 28.6447016, "lon": 77.2767276}, {"type": "node", "id": 6611561804, "lat": 28.6447157, "lon": 77.2767812}, {"type": "node", "id": 6611561805, "lat": 28.6451959, "lon": 77.2768402}, {"type": "node", "id": 6611580285, "lat": 28.6475392, "lon": 77.2746831}, {"type": "node", "id": 6611580286, "lat": 28.6471955, "lon": 77.2747261}, {"type": "node", "id": 6611580287, "lat": 28.6469695, "lon": 77.2747582}, {"type": "node", "id": 6611580288, "lat": 28.6467907, "lon": 77.2748602}, {"type": "node", "id": 6611580289, "lat": 28.6465788, "lon": 77.2750157}, {"type": "node", "id": 6611580290, "lat": 28.6464234, "lon": 77.275241}, {"type": "node", "id": 6611580291, "lat": 28.6463199, "lon": 77.2754234}, {"type": "node", "id": 7679473500, "lat": 28.6472272, "lon": 77.2779724}, {"type": "node", "id": 7679473501, "lat": 28.6474014, "lon": 77.2780475}, {"type": "node", "id": 7679473502, "lat": 28.6472225, "lon": 77.2788575}, {"type": "node", "id": 7679473503, "lat": 28.6470624, "lon": 77.2788038}, {"type": "node", "id": 7679473504, "lat": 28.6479663, "lon": 77.2786214}, {"type": "node", "id": 7679473505, "lat": 28.6478157, "lon": 77.2786}, {"type": "node", "id": 7679473506, "lat": 28.6476226, "lon": 77.2791096}, {"type": "node", "id": 7679473507, "lat": 28.6480558, "lon": 77.2791472}, {"type": "node", "id": 7680670890, "lat": 28.6480097, "lon": 77.2756138}, {"type": "node", "id": 7680670891, "lat": 28.6482969, "lon": 77.2756835}, {"type": "node", "id": 7680670892, "lat": 28.6482545, "lon": 77.2758713}, {"type": "node", "id": 7680670893, "lat": 28.6479673, "lon": 77.2757854}, {"type": "node", "id": 7680670894, "lat": 28.648367, "lon": 77.2756769}, {"type": "node", "id": 7680670895, "lat": 28.6487648, "lon": 77.2757761}, {"type": "node", "id": 7680670896, "lat": 28.6488472, "lon": 77.2758083}, {"type": "node", "id": 7680670897, "lat": 28.6489249, "lon": 77.2759987}, {"type": "node", "id": 7680670898, "lat": 28.6487931, "lon": 77.2760148}, {"type": "node", "id": 7680670899, "lat": 28.6483247, "lon": 77.2758915}, {"type": "node", "id": 7722108034, "lat": 28.6450389, "lon": 77.2769652}, {"type": "node", "id": 7722108035, "lat": 28.6452366, "lon": 77.2769706}, {"type": "node", "id": 7722108036, "lat": 28.6455144, "lon": 77.2777914}, {"type": "node", "id": 7722108037, "lat": 28.6453825, "lon": 77.2778128}, {"type": "node", "id": 7722108038, "lat": 28.6452084, "lon": 77.277491}, {"type": "node", "id": 7722108039, "lat": 28.6450907, "lon": 77.2771423}, {"type": "node", "id": 4914677112, "lat": 28.6427595, "lon": 77.2802627}, {"type": "node", "id": 4914677114, "lat": 28.6431343, "lon": 77.2808154}, {"type": "node", "id": 4914677115, "lat": 28.6431069, "lon": 77.2802549}, {"type": "node", "id": 6611865953, "lat": 28.6427979, "lon": 77.2809472}, {"type": "node", "id": 7655633738, "lat": 28.6433826, "lon": 77.2863104}, {"type": "node", "id": 7655633739, "lat": 28.6429495, "lon": 77.2863372}, {"type": "node", "id": 7679473508, "lat": 28.6477403, "lon": 77.2825965}, {"type": "node", "id": 7679473509, "lat": 28.6478816, "lon": 77.2825965}, {"type": "node", "id": 7679473510, "lat": 28.647891, "lon": 77.2830417}, {"type": "node", "id": 7679473511, "lat": 28.6477309, "lon": 77.2830364}, {"type": "node", "id": 6643775463, "lat": 28.6455047, "lon": 77.2872672}, {"type": "node", "id": 6643775464, "lat": 28.6458955, "lon": 77.287294}, {"type": "node", "id": 6643775465, "lat": 28.6459049, "lon": 77.2868434}, {"type": "node", "id": 6643775466, "lat": 28.6455094, "lon": 77.2868434}, {"type": "node", "id": 6643775467, "lat": 28.6456413, "lon": 77.2878894}, {"type": "node", "id": 6643775468, "lat": 28.6456554, "lon": 77.2883025}, {"type": "node", "id": 6643775469, "lat": 28.6456554, "lon": 77.2885117}, {"type": "node", "id": 6643775470, "lat": 28.6458202, "lon": 77.2883669}, {"type": "node", "id": 6643775471, "lat": 28.6461544, "lon": 77.2880128}, {"type": "node", "id": 6643775472, "lat": 28.6461874, "lon": 77.2879002}, {"type": "node", "id": 7655633740, "lat": 28.6429495, "lon": 77.2866752}, {"type": "node", "id": 7655633741, "lat": 28.6434015, "lon": 77.2866376}, {"type": "node", "id": 7655633742, "lat": 28.6434156, "lon": 77.2871526}, {"type": "node", "id": 7655633743, "lat": 28.642973, "lon": 77.2871902}, {"type": "node", "id": 7655633744, "lat": 28.6429824, "lon": 77.2875174}, {"type": "node", "id": 7655633745, "lat": 28.6434203, "lon": 77.287512}, {"type": "node", "id": 7655633756, "lat": 28.6434956, "lon": 77.2883435}, {"type": "node", "id": 7655633757, "lat": 28.6431425, "lon": 77.288365}, {"type": "node", "id": 7655633758, "lat": 28.6435239, "lon": 77.2888585}, {"type": "node", "id": 11431609463, "lat": 28.6466029, "lon": 77.289191}, {"type": "node", "id": 11431609464, "lat": 28.646693, "lon": 77.2891232}, {"type": "node", "id": 11431609465, "lat": 28.6466981, "lon": 77.2883486}, {"type": "node", "id": 11431609466, "lat": 28.6463004, "lon": 77.2887746}]}