{"version": 0.6, "generator": "Overpass API 0.7.62.8 e802775f", "osm3s": {"timestamp_osm_base": "2025-11-22T14:27:02Z", "copyright": "The data included in this document is from www.openstreetmap.org. The data is made available under ODbL."}, "elements": [{"type": "node", "id": 1179282274, "lat": 28.6361048, "lon": 77.0652214, "tags": {"amenity": "restaurant", "name": "Aangan Restuarant"}}, {"type": "node", "id": 2715609613, "lat": 28.6338063, "lon": 77.0572483, "tags": {"alt_name": "Hatsal Minar", "historic": "monument", "name": "Chhota Qutub Minar", "wikidata": "Q60744808", "wikimedia_commons": "Category:Hashtsal Minar", "wikipedia": "en:Mini Qutub Minar"}}, {"type": "node", "id": 2715609618, "lat": 28.6333756, "lon": 77.0560871, "tags": {"historic": "archaeological_site", "name": "Dalans"}}, {"type": "node", "id": 2715609623, "lat": 28.6332343, "lon": 77.056012, "tags": {"alt_name": "Barat Ghar", "historic": "archaeological_site", "name": "Hathi Khana"}}, {"type": "node", "id": 2803462740, "lat": 28.6244588, "lon": 77.0689789, "tags": {"email": "contact@shantihome.com", "internet_access": "wlan", "internet_access:fee": "no", "name": "Shanti Home", "phone": "+91-11-4157-336", "tourism": "hotel", "website": "https://www.shantihome.com/index.html"}}, {"type": "node", "id": 4197303866, "lat": 28.6328321, "lon": 77.0867027, "tags": {"amenity": "restaurant", "diet:vegetarian": "yes", "name": "Hira Sweets"}}, {"type": "node", "id": 4470999317, "lat": 28.6289565, "lon": 77.0767263, "tags": {"addr:housenumber": "GF22 Unity One", "addr:postcode": "110058", "addr:street": "Shivaji Road", "amenity": "cafe", "name": "Keventers", "name:en": "Keventers", "name:hi": "\u0915\u0947\u0935\u0947\u0902\u091f\u0930\u094d\u0938", "opening_hours": "Mo-Su 09:00-23:55", "phone": "+91 92053 45002", "website": "https://www.keventers.com/"}}, {"type": "node", "id": 4470999592, "lat": 28.629042, "lon": 77.076916, "tags": {"addr:housenumber": "710", "addr:postcode": "110058", "addr:street": "Shivaji Road", "amenity": "restaurant", "cuisine": "indian", "name": "Khan Chacha", "name:en": "Khan Chacha", "name:hi": "\u0916\u093e\u0928 \u091a\u093e\u091a\u093e", "opening_hours": "Mo-Su 11:00-23:00", "website": "https://www.khanchacha.in/"}}, {"type": "node", "id": 4616780336, "lat": 28.6205702, "lon": 77.0827759, "tags": {"addr:city": "New Delhi", "addr:housename": "C2", "addr:housenumber": "57", "ele": "3", "name": "ASR Guest House", "operator": "oyo rooms", "smoking": "separated", "tourism": "hotel"}}, {"type": "node", "id": 5402775125, "lat": 28.6177552, "lon": 77.0655295, "tags": {"addr:housenumber": "A57-A", "addr:postcode": "110059", "addr:street": "Shish Ram Park", "name": "A57-A", "tourism": "apartment"}}, {"type": "node", "id": 5841894911, "lat": 28.6329087, "lon": 77.086855, "tags": {"amenity": "cafe", "brand": "Cafe Coffee Day", "brand:wikidata": "Q5017235", "cuisine": "coffee_shop", "level": "0", "name": "Cafe Coffee Day", "takeaway": "yes"}}, {"type": "node", "id": 6482347585, "lat": 28.605232, "lon": 77.0681814, "tags": {"name": "Delight Delhi Hotel", "tourism": "hotel"}}, {"type": "node", "id": 9378798600, "lat": 28.6292748, "lon": 77.0827141, "tags": {"addr:city": "new Delhi", "addr:housenumber": "G-38 to 42,", "addr:postcode": "110058", "addr:street": "ground floor, Suneja Tower-1-Plot-7, Janakpuri District Center, Janakpuri", "air_conditioning": "yes", "amenity": "restaurant", "bar": "yes", "brand": "Talli station", "capacity": "50", "cuisine": "indian;chinese;italian", "delivery": "yes", "diet:halal": "yes", "diet:vegan": "yes", "diet:vegetarian": "yes", "name": "Talli Station Janakpuri", "opening_hours": "Mo-Su 12:00-23:00", "opening_hours:covid19": "Mo-Su 12:00-20:00", "phone": "+91 9911054940", "takeaway": "yes", "website": "https://tallistation.in"}}, {"type": "node", "id": 10812590719, "lat": 28.6048453, "lon": 77.0541367, "tags": {"addr:city": "New Delhi", "addr:district": "South West Delhi", "addr:housenumber": "Indian Oil Petrol Pump", "addr:postcode": "110059", "addr:street": "S-Vidya Service Station Lock No 355 Dwarka Sec 3", "amenity": "cafe", "brand": "BAR OF BURGER", "cafe": "yes", "cuisine": "burger;coffee_shop;sandwich;ice_cream;cold_coffee;italian;shake;24/7", "drive_through": "yes", "is_in": "Dwarka Sector-3", "name": "BAR OF BURGER", "opening_hours": "24/7", "phone": "+918882310448"}}, {"type": "node", "id": 11697668180, "lat": 28.600239, "lon": 77.0562837, "tags": {"leisure": "park", "name": "Public park"}}, {"type": "node", "id": 11697714435, "lat": 28.6057094, "lon": 77.0526107, "tags": {"leisure": "park", "name": "Driving Park"}}, {"type": "node", "id": 11697752295, "lat": 28.6035043, "lon": 77.0491504, "tags": {"leisure": "park", "name": "Sector 4 park"}}, {"type": "node", "id": 11697772379, "lat": 28.603058, "lon": 77.0536207, "tags": {"leisure": "park", "name": "Jogger's park"}}, {"type": "node", "id": 11697872222, "lat": 28.6010039, "lon": 77.0581819, "tags": {"amenity": "restaurant", "name": "The kaafal"}}, {"type": "node", "id": 11697908069, "lat": 28.6017683, "lon": 77.0588374, "tags": {"amenity": "restaurant", "name": "Raj chauhan restraunt"}}, {"type": "node", "id": 11698041126, "lat": 28.602301, "lon": 77.0583885, "tags": {"amenity": "restaurant", "name": "Swaad"}}, {"type": "node", "id": 11698345648, "lat": 28.605538, "lon": 77.0526847, "tags": {"amenity": "marketplace", "name": "Sector 3 Market"}}, {"type": "node", "id": 11698419487, "lat": 28.6045172, "lon": 77.0450117, "tags": {"name": "sahu palace", "tourism": "hotel"}}, {"type": "node", "id": 11698577838, "lat": 28.6037944, "lon": 77.0498332, "tags": {"amenity": "cafe", "name": "cafe"}}, {"type": "node", "id": 12295741301, "lat": 28.6300526, "lon": 77.0814155, "tags": {"addr:housenumber": "G14", "addr:street": "Shivaji Marg", "amenity": "restaurant", "name": "PizzaExpress", "opening_hours": "Mo-Su 11:30-23:30"}}, {"type": "node", "id": 12905881446, "lat": 28.6133086, "lon": 77.086796, "tags": {"artwork_type": "statue", "material": "stone", "name": "Bhimrao Ramji Ambedkar", "tourism": "artwork"}}, {"type": "way", "id": 55207539, "nodes": [694018719, 694018696, 694018733, 694018718, 694018719], "tags": {"leisure": "park"}}, {"type": "way", "id": 150881456, "nodes": [1637466479, 1637466480, 1999317625, 1999317682, 1637466479], "tags": {"addr:city": "Sector 4 Dwarka, New Delhi", "addr:postcode": "110078", "barrier": "wall", "designation": "Sec 4 Park", "leisure": "park", "name": "Sector 4 Public Park"}}, {"type": "way", "id": 150882095, "nodes": [1637471074, 8815664794, 1637471075, 1637471076, 1637471071, 2000516934, 2000516928, 2000516935, 1637471072, 1637471074], "tags": {"barrier": "wall", "leisure": "park"}}, {"type": "way", "id": 151572182, "nodes": [1643989003, 1643989012, 1097653650, 1097653669, 1097653658, 265607002, 1097653647, 1643989015, 2000517036, 2000517034, 2000517030, 2000516998, 2000516968, 2000516942, 1643989003], "tags": {"barrier": "wall", "leisure": "park", "name": "Public Park"}}, {"type": "way", "id": 151572768, "nodes": [9921295899, 9921295898, 1999317664, 1999317634, 8815608384, 8815608382, 8815608383, 1643993267, 1643993275, 1643993265, 1999317621, 1999317666, 1999317680, 9921295899], "tags": {"leisure": "park"}}, {"type": "way", "id": 154324500, "nodes": [1668703465, 1668703466, 1668703464, 2304531253, 12716220008, 1668703468, 1668703467, 12716220017, 1668703469, 12716220033, 12716220025, 12716220036, 12716220004, 1668703465], "tags": {"alt_name": "Maharishi Dayanand Saraswati Vatika", "leisure": "park", "name": "Maharishi Dayanand Saraswati Park"}}, {"type": "way", "id": 154329213, "nodes": [1668745706, 2682257703, 1668745705, 1668745708, 1668745711, 2682257715, 11568723377, 11568584347, 12945125892, 12945125886, 1668745706], "tags": {"designation": "M-BLOCK", "leisure": "park", "name": "Vikaspuri M Blocck District Park"}}, {"type": "way", "id": 202256177, "nodes": [1637467916, 1637466716, 1637466720, 1637466717, 1637466718, 1637466715, 1637467914, 1637467916], "tags": {"barrier": "wall", "leisure": "park", "name": "Appatment Park"}}, {"type": "way", "id": 202256415, "nodes": [2122317574, 2122317582, 2122317590, 2122317584, 2122317574], "tags": {"barrier": "wall", "leisure": "park", "name": "Public Park"}}, {"type": "way", "id": 202256416, "nodes": [2122317576, 2122317568, 2122317586, 2122317572, 2122317588, 2122317592, 2122317576], "tags": {"barrier": "wall", "leisure": "park", "name": "Public Park"}}, {"type": "way", "id": 202947328, "nodes": [2128976351, 2128976332, 2128976215, 2128976293, 2128976368, 2128976351], "tags": {"barrier": "wall", "leisure": "park"}}, {"type": "way", "id": 202947336, "nodes": [2128976345, 2128976252, 2128976340, 2128976345], "tags": {"leisure": "park"}}, {"type": "way", "id": 202947339, "nodes": [2128976295, 1643982737, 1643982738, 2122321858, 2128976328, 2128976258, 2128976174, 2128976200, 2128976268, 2128976170, 2128976309, 2128976315, 2128976295], "tags": {"barrier": "wall", "leisure": "park", "name": "Public Park"}}, {"type": "way", "id": 202948163, "nodes": [2128985284, 2128985285, 2128985287, 2128976347, 2128976280, 2128976374, 2128976370, 2128976372, 2128976344, 2128976202, 2128985288, 2128985286, 2128985284], "tags": {"barrier": "wall", "leisure": "park"}}, {"type": "way", "id": 202949252, "nodes": [2129002377, 12507284362, 12507284457, 2129002346, 2129002330, 2129002333, 2129002377], "tags": {"barrier": "wall", "leisure": "park"}}, {"type": "way", "id": 202949254, "nodes": [2129002351, 2129002387, 2129002388, 2129002391, 2129002351], "tags": {"barrier": "wall", "leisure": "park"}}, {"type": "way", "id": 209297829, "nodes": [2195225155, 2195225158, 2195225177, 2195225134, 2195225150, 2195225155], "tags": {"leisure": "park", "name": "Public Park"}}, {"type": "way", "id": 209297844, "nodes": [2195225176, 2195225132, 2195225189, 2195225145, 2195225176], "tags": {"leisure": "park", "name": "Public Park"}}, {"type": "way", "id": 209297847, "nodes": [2195225166, 2195225192, 2195225167, 2195225153, 2195225193, 2195225202, 7306012358, 2195225144, 2195225149, 2195225196, 2195225182, 2195225198, 2195225197, 2195225166], "tags": {"addr:city": "Sector 5 Dwarka, New Delhi", "addr:postcode": "110075", "barrier": "wall", "leisure": "park", "name": "DDA Park", "operator": "DDA"}}, {"type": "way", "id": 209501274, "nodes": [2197106261, 1191281934, 2197091867, 2197091868, 2197106262, 12507381776, 12507381819, 12507381706, 12507381750, 12507381761, 12507381631, 12507381738, 12507381660, 10607650987, 2197106263, 2197106261], "tags": {"barrier": "wall", "leisure": "park"}}, {"type": "way", "id": 221182451, "nodes": [2302369924, 2302369925, 2302369929, 2302369931, 2302369933, 2302369935, 2302369937, 2302369939, 2302369942, 2304471347, 2302369945, 2304471344, 2302369924], "tags": {"addr:city": "New Delhi", "addr:postcode": "110058", "leisure": "park", "name": "Janakpur B Block District Park"}}, {"type": "way", "id": 221183214, "nodes": [2302372212, 2302372213, 2302372214, 2302372215, 2302372216, 2302372217, 2302372218, 2302372212], "tags": {"addr:city": "Janakpuri", "addr:postcode": "110058", "leisure": "park", "name": "Rose Park"}}, {"type": "way", "id": 221183349, "nodes": [2302373503, 9936590381, 9936590382, 2302373504, 2302373506, 2302373508, 2302373511, 2302373512, 2302373513, 9936590369, 9936590372, 9936590371, 9936590370, 2302373516, 2302373517, 2302373503], "tags": {"addr:city": "New Delhi", "addr:postcode": "110058", "addr:street": "C Block, Janakpuri", "leisure": "park"}}, {"type": "way", "id": 221327725, "nodes": [2303619310, 2303484263, 2303619293, 2303619358, 2303619310], "tags": {"leisure": "park"}}, {"type": "way", "id": 221327726, "nodes": [2303619345, 2303619326, 2303486705, 2303484268, 2303438791, 2303619345], "tags": {"leisure": "park"}}, {"type": "way", "id": 221327727, "nodes": [2303619347, 2303619301, 2303619339, 2303619308, 2303619347], "tags": {"leisure": "park"}}, {"type": "way", "id": 221327729, "nodes": [2303619316, 2303619306, 2303619359, 2303486709, 2303619316], "tags": {"leisure": "park"}}, {"type": "way", "id": 221327733, "nodes": [2303619350, 2303619343, 2303486711, 2303602332, 2303619318, 2303619311, 2303619356, 2303619295, 2303619350], "tags": {"leisure": "park"}}, {"type": "way", "id": 221340535, "nodes": [2303712126, 2303661770, 2303661767, 2303661783, 2302375586, 2302375587, 2302375588, 2302375589, 2302375590, 2303712116, 2303657068, 2303657069, 2303712123, 2303712126], "tags": {"leisure": "park"}}, {"type": "way", "id": 221428711, "nodes": [2304531252, 2304492064, 2304492055, 2304531257, 2304531252], "tags": {"leisure": "park"}}, {"type": "way", "id": 221428712, "nodes": [2304531262, 2304531258, 2304531253, 1668703464, 2304492061, 2304492056, 2304531262], "tags": {"leisure": "park"}}, {"type": "way", "id": 221428713, "nodes": [2304531263, 2304492065, 2304531256, 2304531255, 2304531260, 2304531263], "tags": {"leisure": "park"}}, {"type": "way", "id": 221440943, "nodes": [2304709440, 2304709460, 2304709445, 2304709465, 2304709440], "tags": {"leisure": "park"}}, {"type": "way", "id": 257886429, "nodes": [2633388511, 2633388516, 2633388515, 2633388514, 2633388511], "tags": {"leisure": "park"}}, {"type": "way", "id": 257886430, "nodes": [2633388512, 2633388513, 3199431041, 2633388512], "tags": {"leisure": "park"}}, {"type": "way", "id": 257887956, "nodes": [2633393951, 2633393945, 2633393961, 2633393944, 2633393951], "tags": {"leisure": "park"}}, {"type": "way", "id": 257887957, "nodes": [2633393939, 2633393962, 2633393947, 2633393955, 2633393939], "tags": {"leisure": "park"}}, {"type": "way", "id": 258918948, "nodes": [2642263505, 2642263493, 2642263502, 2642263501, 2642263498, 2642263495, 2642263503, 2642263504, 2642263505], "tags": {"leisure": "park"}}, {"type": "way", "id": 260275680, "nodes": [2657503556, 2657503545, 2657503532, 2657503546, 2657503535, 2657503544, 2657503555, 2303619355, 2303619302, 2657503553, 2657503556], "tags": {"leisure": "park"}}, {"type": "way", "id": 260304405, "nodes": [2657755424, 2657755451, 2657755443, 2657755425, 2657755424], "tags": {"leisure": "park"}}, {"type": "way", "id": 260304408, "nodes": [2657755432, 2657755429, 2657755456, 2657755434, 2657755432], "tags": {"leisure": "park"}}, {"type": "way", "id": 260463353, "nodes": [2659477044, 2659476954, 2659476927, 2659476971, 2659477003, 2659477047, 2659477044], "tags": {"name": "Old Age Home", "tourism": "guest_house"}}, {"type": "way", "id": 260463367, "nodes": [2659477052, 2659476967, 2659477046, 2659476958, 2659477003, 2659476971, 2659476927, 2659476944, 2659477034, 2659476991, 2659477053, 2659476910, 2659476985, 2659477040, 2659476950, 2659476957, 2659477052], "tags": {"leisure": "park"}}, {"type": "way", "id": 260946313, "nodes": [2665405920, 2665405927, 2665405955, 2665405954, 2665405928, 2665405980, 2665406010, 2665406008, 2665405958, 2665405971, 2665406000, 2665406005, 2665406002, 2665405920], "tags": {"leisure": "park"}}, {"type": "way", "id": 260946315, "nodes": [2665405989, 2665405942, 2665405929, 2665405957, 2665406006, 2665405959, 2665405993, 2665406004, 2665405944, 2665405982, 2665405943, 2665405981, 2665455535, 2665455553, 2665405939, 2665405923, 2665405967, 2665405979, 2665405978, 2665406018, 2665406003, 2665405949, 2665405932, 2665405960, 2665405987, 2665405965, 2665405976, 2665405989], "tags": {"leisure": "park"}}, {"type": "way", "id": 260946318, "nodes": [2665405934, 2665406012, 2665405956, 2665405961, 2665405986, 2665405941, 2687968167, 2665405940, 2665405930, 2665405968, 2665405963, 2665405950, 2665405934], "tags": {"leisure": "park"}}, {"type": "way", "id": 260950185, "nodes": [2665455566, 2665455565, 2665455557, 2665455548, 2665455543, 2665455549, 2689461752, 2665455550, 2665455566], "tags": {"leisure": "park"}}, {"type": "way", "id": 262560714, "nodes": [2682191702, 2682191710, 2682191699, 2682191691, 2682191698, 2682191669, 2682191718, 2682191702], "tags": {"leisure": "park"}}, {"type": "way", "id": 262560716, "nodes": [2682191655, 2682233994, 2682191705, 2682191682, 2682191670, 2682191672, 2682191679, 2682191674, 2682191655], "tags": {"leisure": "park"}}, {"type": "way", "id": 262560720, "nodes": [2682191667, 2642261346, 2642261344, 2682191721, 2682191667], "tags": {"leisure": "park"}}, {"type": "way", "id": 262560722, "nodes": [2682191715, 2642264942, 2642264946, 2642264951, 2682191717, 2682191693, 2682191715], "tags": {"leisure": "park"}}, {"type": "way", "id": 262560732, "nodes": [2682191694, 2682191677, 2682191661, 2682191720, 2682191694], "tags": {"leisure": "park"}}, {"type": "way", "id": 262560733, "nodes": [2682191680, 2682191671, 2682191665, 2682191662, 2682191716, 2682191704, 2682191673, 2682191687, 2682191686, 2682191654, 2682191688, 2682191663, 2682191657, 2682191692, 2682191682, 2682191713, 2682191711, 2682191680], "tags": {"leisure": "park"}}, {"type": "way", "id": 262562936, "nodes": [2682211336, 2682211205, 2682211269, 2682211221, 2682211192, 2682211208, 2682211195, 2682211144, 12945127153, 12945127154, 2682211246, 2682211336], "tags": {"leisure": "park"}}, {"type": "way", "id": 262562937, "nodes": [2682211212, 12133488466, 2682191658, 2682191684, 2682191664, 2682191707, 2682191703, 2682211314, 2682211333, 2682211272, 2682211291, 2682211237, 2682211180, 2682211279, 2682211157, 2682211212], "tags": {"leisure": "park"}}, {"type": "way", "id": 262565100, "nodes": [2682231612, 2682231581, 2682231565, 2682231555, 2682231540, 2682231546, 2682231612], "tags": {"leisure": "park"}}, {"type": "way", "id": 262565108, "nodes": [2682231568, 2682231533, 2682231532, 2682231539, 2682231568], "tags": {"leisure": "park"}}, {"type": "way", "id": 262565114, "nodes": [2682231528, 2682231524, 2682231564, 2682231567, 2682231528], "tags": {"leisure": "park", "name": "Shankar Garden"}}, {"type": "way", "id": 262565115, "nodes": [2682231559, 2682231602, 2682231618, 2682231559], "tags": {"leisure": "park"}}, {"type": "way", "id": 262565116, "nodes": [2682231534, 2682231526, 2682231531, 2682231590, 2682231534], "tags": {"leisure": "park"}}, {"type": "way", "id": 262565359, "nodes": [2682233955, 2682233987, 2682233989, 2682233970, 2682233985, 2682233979, 2682233983, 2682233968, 2682231563, 2682231544, 2682233955], "tags": {"leisure": "park"}}, {"type": "way", "id": 262568471, "nodes": [2682265150, 12946339980, 12946339991, 12946339989, 2682265158, 2682265156, 2682265163, 2682265151, 2682265150], "tags": {"leisure": "park"}}, {"type": "way", "id": 262569721, "nodes": [2682278268, 2682278258, 2682278276, 2682278283, 2682278265, 2682278255, 2682278268], "tags": {"leisure": "park"}}, {"type": "way", "id": 262569722, "nodes": [2682278259, 2682257707, 2682233959, 2682278251, 2682278249, 2682278257, 2682278260, 2682278259], "tags": {"leisure": "park"}}, {"type": "way", "id": 262572480, "nodes": [2682304259, 2207933832, 2207933831, 2207933825, 2207933834, 2207933837, 2207933828, 2682304240, 2682304259], "tags": {"leisure": "park"}}, {"type": "way", "id": 262572481, "nodes": [2682304237, 2682304279, 2682304245, 2682304251, 2682304247, 2682304269, 2682304239, 2682304267, 2682304261, 2682304264, 2682231535, 2682231549, 2682304253, 2682304241, 2682304237], "tags": {"leisure": "park"}}, {"type": "way", "id": 262572482, "nodes": [2682304273, 2682304263, 2682234000, 2682233964, 2682304235, 2682304273], "tags": {"leisure": "park"}}, {"type": "way", "id": 262572487, "nodes": [2682304275, 2682304242, 2682304257, 2682304238, 2682304275], "tags": {"leisure": "park"}}, {"type": "way", "id": 262719287, "nodes": [2683718461, 2683718466, 2683718455, 2683718464, 2962267426, 11951524715, 2962267430, 2683718460, 2962267428, 2962267429, 2962267432, 2683718462, 2683718461], "tags": {"alt_name": "Chowdhury Chaitram Subzi Mandi", "amenity": "marketplace", "name": "Keshavpur Sabzi Mandi", "wheelchair": "limited"}}, {"type": "way", "id": 263160023, "nodes": [2687942053, 2687942115, 2687942073, 2687942051, 2687942053], "tags": {"leisure": "park"}}, {"type": "way", "id": 263160026, "nodes": [2687942075, 2687942038, 2687942098, 2687941995, 2687942075], "tags": {"leisure": "park"}}, {"type": "way", "id": 263160027, "nodes": [2687942114, 2687942116, 2687942068, 2687942122, 2687942114], "tags": {"leisure": "park"}}, {"type": "way", "id": 263160028, "nodes": [2687942012, 2687942076, 2687942103, 2687942025, 2687942012], "tags": {"leisure": "park"}}, {"type": "way", "id": 263160030, "nodes": [2687942026, 2687942002, 2687942104, 2687941998, 2687942026], "tags": {"leisure": "park"}}, {"type": "way", "id": 263160033, "nodes": [2687942056, 10820375273, 10820375274, 2687942000, 2687942028, 2687942050, 2687942100, 2687942017, 2687942045, 2687942036, 2687942065, 2687942118, 2687942004, 2687942080, 2687942043, 2687941984, 2687942023, 2687942093, 2687942056], "tags": {"leisure": "park"}}, {"type": "way", "id": 263160065, "nodes": [2687945799, 2687945798, 2687945788, 2687945783, 2687945799], "tags": {"leisure": "park"}}, {"type": "way", "id": 263160066, "nodes": [2687945792, 2687945781, 2687945796, 2687945790, 2687945794, 2687945792], "tags": {"leisure": "park"}}, {"type": "way", "id": 263321224, "nodes": [2689461795, 2689461685, 2689461873, 2689461682, 2689461795], "tags": {"leisure": "park"}}, {"type": "way", "id": 263321225, "nodes": [2689461850, 2689461865, 2689461848, 2689461817, 2689461850], "tags": {"leisure": "park"}}, {"type": "way", "id": 263321226, "nodes": [2689461746, 2689461821, 2689461706, 2689461737, 2689461746], "tags": {"leisure": "park"}}, {"type": "way", "id": 263321229, "nodes": [2689461738, 2689461811, 2689461851, 2689461771, 2689461738], "tags": {"leisure": "park"}}, {"type": "way", "id": 263321231, "nodes": [2689461797, 2689461759, 2689461782, 2689461832, 2689461797], "tags": {"leisure": "park"}}, {"type": "way", "id": 263321232, "nodes": [2689461827, 2689461691, 2689461723, 2689461853, 2689461827], "tags": {"leisure": "park"}}, {"type": "way", "id": 263321234, "nodes": [2689461866, 2689461790, 2689461735, 2689461689, 2689461866], "tags": {"leisure": "park"}}, {"type": "way", "id": 263321236, "nodes": [2689461755, 2689461839, 2689461834, 2689461801, 2689461755], "tags": {"leisure": "park"}}, {"type": "way", "id": 263321237, "nodes": [2689461748, 2689461695, 2689461740, 2689461743, 2689461748], "tags": {"leisure": "park"}}, {"type": "way", "id": 263321238, "nodes": [2689461687, 2689461819, 2689461844, 2689461739, 2689461858, 2689461876, 2689461687], "tags": {"leisure": "park"}}, {"type": "way", "id": 263321239, "nodes": [2689461813, 2689461708, 2689461836, 2689461803, 2689461813], "tags": {"leisure": "park"}}, {"type": "way", "id": 263321240, "nodes": [2689461826, 2689461718, 2689461815, 2689461799, 2689461826], "tags": {"leisure": "park"}}, {"type": "way", "id": 263321241, "nodes": [2689461847, 2689461757, 2689461842, 2689461843, 2689461809, 2689461841, 2689461840, 2689461729, 2689461744, 2689461725, 2689461847], "tags": {"leisure": "park"}}, {"type": "way", "id": 263321242, "nodes": [2689461778, 2689461862, 2689461727, 2689461699, 2689461778], "tags": {"leisure": "park"}}, {"type": "way", "id": 263321243, "nodes": [2689461845, 2689461750, 2689461835, 2689461828, 2689461845], "tags": {"leisure": "park"}}, {"type": "way", "id": 263321245, "nodes": [2689461874, 2689461846, 2689461731, 2689461788, 2689461874], "tags": {"leisure": "park"}}, {"type": "way", "id": 263455245, "nodes": [2690755776, 1668720160, 1668720162, 2304491038, 2690755772, 2304491037, 1668713320, 2690755775, 1668728181, 2690755767, 2690755765, 1668762885, 1668762884, 1668762871, 2690755776], "tags": {"leisure": "park"}}, {"type": "way", "id": 263455247, "nodes": [2690755762, 2690755779, 2690755761, 2690755763, 2690755769, 2690755782, 2207933833, 2207933830, 9913750887, 2207923242, 2690755764, 2690755777, 2690755778, 2690755780, 2690755773, 2690755762], "tags": {"leisure": "park"}}, {"type": "way", "id": 263455248, "nodes": [2690755768, 2690755774, 2690755771, 2690755781, 1668718496, 2690755770, 2690755768], "tags": {"leisure": "park"}}, {"type": "way", "id": 263455945, "nodes": [2690761577, 2690761575, 2690761547, 2690761564, 2690761552, 2690761593, 2690761577], "tags": {"leisure": "park"}}, {"type": "way", "id": 263455947, "nodes": [2690761592, 2690761561, 2690761553, 2690761563, 2690761592], "tags": {"leisure": "park"}}, {"type": "way", "id": 263455948, "nodes": [2690761566, 2690761548, 2690761586, 2690761576, 2690761566], "tags": {"leisure": "park"}}, {"type": "way", "id": 263455949, "nodes": [2690761585, 2690761565, 2690761584, 2690761571, 2690761585], "tags": {"leisure": "park"}}, {"type": "way", "id": 263455951, "nodes": [2690761588, 2690761562, 2690761569, 2690761570, 2690761588], "tags": {"leisure": "park"}}, {"type": "way", "id": 263455952, "nodes": [2690761587, 2690761573, 2690761558, 2690761572, 2690761587], "tags": {"leisure": "park"}}, {"type": "way", "id": 263455954, "nodes": [2690761555, 2690761549, 2690761559, 2690761574, 2690761582, 2690761580, 2690761555], "tags": {"leisure": "park"}}, {"type": "way", "id": 263455955, "nodes": [2690761589, 2690761567, 2690761591, 2690761590, 2690761589], "tags": {"leisure": "park"}}, {"type": "way", "id": 263588216, "nodes": [11149951293, 11149951288, 2692176643, 2692176647, 11149951293], "tags": {"leisure": "park"}}, {"type": "way", "id": 263591232, "nodes": [2692185245, 2692185202, 2692185221, 2692185223, 2692185245], "tags": {"leisure": "park"}}, {"type": "way", "id": 263591234, "nodes": [2692185214, 2692185229, 2692185239, 2692185191, 2692185214], "tags": {"leisure": "park"}}, {"type": "way", "id": 263591235, "nodes": [2692185236, 2692185206, 2692185241, 2692185201, 2692185236], "tags": {"leisure": "park"}}, {"type": "way", "id": 263591236, "nodes": [2692185243, 2692185217, 2692185203, 2692185211, 2692185243], "tags": {"leisure": "park"}}, {"type": "way", "id": 263591237, "nodes": [2692185237, 2692185194, 2692185216, 2692185240, 2692185192, 2692185195, 2692185237], "tags": {"leisure": "park"}}, {"type": "way", "id": 263591238, "nodes": [2692185218, 2692185213, 2692185207, 2692185234, 2692185218], "tags": {"leisure": "park"}}, {"type": "way", "id": 263591240, "nodes": [2692185196, 2692185215, 2692185233, 2692185189, 2692185196], "tags": {"leisure": "park"}}, {"type": "way", "id": 263591241, "nodes": [2692185235, 2692185244, 2692185225, 12942261469, 12942261471, 2692176646, 2692185235], "tags": {"leisure": "park"}}, {"type": "way", "id": 263591242, "nodes": [2692185232, 2692185222, 2692185212, 2692185219, 2692185232], "tags": {"leisure": "park"}}, {"type": "way", "id": 263591243, "nodes": [2692185208, 2692185230, 2692185228, 2692185242, 2692185208], "tags": {"leisure": "park"}}, {"type": "way", "id": 263591244, "nodes": [2692185193, 2692185197, 2682278275, 2692185200, 2692185198, 2692185193], "tags": {"leisure": "park"}}, {"type": "way", "id": 263591245, "nodes": [2692185238, 2692185199, 2692185227, 2692185220, 2692185238], "tags": {"leisure": "park"}}, {"type": "way", "id": 263591246, "nodes": [2692185231, 2692185247, 2692185190, 2692185224, 2692185231], "tags": {"leisure": "park"}}, {"type": "way", "id": 290681556, "nodes": [2941878584, 2941878583, 2642116474, 2642116473, 2941878585, 2941878584], "tags": {"amenity": "marketplace"}}, {"type": "way", "id": 342553059, "nodes": [3495289977, 3495289978, 3495289979, 3495289980, 3495289981, 3495289977], "tags": {"leisure": "park", "name": "L-Shaped Park"}}, {"type": "way", "id": 342553115, "nodes": [3495289506, 3495289507, 3495289508, 3495289509, 3495289510, 3495289506], "tags": {"leisure": "park"}}, {"type": "way", "id": 342553175, "nodes": [3495291244, 3495291245, 3495291246, 3495291247, 3495291244], "tags": {"leisure": "park"}}, {"type": "way", "id": 342553343, "nodes": [3495291260, 3495291261, 3495291262, 3495291263, 3495291264, 3495291260], "tags": {"leisure": "park"}}, {"type": "way", "id": 342553388, "nodes": [3495289981, 3495294225, 3495294226, 3495289980, 3495289981], "tags": {"leisure": "park"}}, {"type": "way", "id": 342553498, "nodes": [3495295886, 3495295887, 3495295888, 3495295889, 3495295886], "tags": {"leisure": "park"}}, {"type": "way", "id": 373882596, "nodes": [3773127995, 3773128005, 3773126883, 3773126884, 3773126885, 3773126906, 3773126909, 3773126902, 3773126896, 3773128003, 3773127995], "tags": {"leisure": "park"}}, {"type": "way", "id": 373882597, "nodes": [3773127985, 3773127998, 3773126916, 3773126892, 3773127985], "tags": {"leisure": "park"}}, {"type": "way", "id": 373882598, "nodes": [3773127984, 3773127997, 3773128006, 3773127986, 3773127984], "tags": {"leisure": "park"}}, {"type": "way", "id": 373882599, "nodes": [3773128064, 3773128075, 3773128074, 3773128060, 3773128064], "tags": {"leisure": "park"}}, {"type": "way", "id": 373882600, "nodes": [3773126921, 3773126903, 3773126924, 3773126932, 3773126921], "tags": {"leisure": "park"}}, {"type": "way", "id": 373882601, "nodes": [3773127992, 3773127996, 3773126893, 3773126866, 3773127992], "tags": {"leisure": "park"}}, {"type": "way", "id": 373882602, "nodes": [3773126939, 3773126936, 3773126952, 3773126949, 3773126939], "tags": {"leisure": "park"}}, {"type": "way", "id": 373882603, "nodes": [3773126887, 3773126910, 3773126933, 3773126923, 3773126887], "tags": {"leisure": "park"}}, {"type": "way", "id": 373882604, "nodes": [3773126872, 3773128004, 3773126876, 3773126886, 3773126872], "tags": {"leisure": "park"}}, {"type": "way", "id": 373882605, "nodes": [3773126870, 3773128001, 3773127994, 3773128002, 3773126870], "tags": {"leisure": "park"}}, {"type": "way", "id": 373882606, "nodes": [3773127967, 3773127973, 3773127991, 3773127982, 3773127967], "tags": {"leisure": "park"}}, {"type": "way", "id": 373882607, "nodes": [3773126894, 3773126920, 3773126935, 3773126948, 3773126944, 3773126914, 3773126894], "tags": {"leisure": "park"}}, {"type": "way", "id": 373882608, "nodes": [3773126868, 3773126915, 3773126953, 3773128065, 3773126947, 3773126918, 3773126897, 3773126868], "tags": {"leisure": "park"}}, {"type": "way", "id": 644875852, "nodes": [6063438642, 6063438643, 6063438644, 6063438645, 6063438642], "tags": {"leisure": "park", "name": "Community Park"}}, {"type": "way", "id": 662185754, "nodes": [6199388674, 6199388667, 6199388666, 6199388665, 6199388664, 6199388663, 6199388662, 6199388661, 6199388660, 6199388659, 6199388658, 6199388674], "tags": {"leisure": "park", "name": "Senior Citizen's Park"}}, {"type": "way", "id": 662185755, "nodes": [6199388674, 6199388658, 6199388673, 6199388672, 6199388671, 6199388670, 6199388669, 6199388668, 6199388674], "tags": {"dog": "yes", "leisure": "park", "name": "Buddha Jayanti Park"}}, {"type": "way", "id": 814132781, "nodes": [7605226372, 7605226373, 7605226374, 7605226375, 7605226372], "tags": {"leisure": "park"}}, {"type": "way", "id": 814132782, "nodes": [7605226376, 7605226377, 7605226378, 7605226379, 7605226380, 7605226381, 7605226382, 7605226383, 7605226384, 7605226376], "tags": {"leisure": "park", "name": "DDA Park", "operator": "DDA"}}, {"type": "way", "id": 814132783, "nodes": [7605226385, 7605226386, 7605226387, 7605226388, 7605226389, 7605226390, 7605226391, 7605226385], "tags": {"leisure": "park"}}, {"type": "way", "id": 814132784, "nodes": [7605226392, 7605226393, 7605226394, 7605226395, 7605226396, 7605226397, 7605226398, 7605226399, 7605226400, 7605226401, 2304468471, 7605226402, 7605226403, 7605226404, 7605226405, 7605226406, 7605226407, 7605226408, 7605226409, 7605226392], "tags": {"leisure": "park", "name": "Central Park B1"}}, {"type": "way", "id": 814132785, "nodes": [7605226410, 7605226411, 7605226412, 7605226413, 7605226414, 7605226415, 7605226416, 7605226417, 7605226418, 7605226410], "tags": {"leisure": "park", "name": "B3A Park"}}, {"type": "way", "id": 814132786, "nodes": [7605226419, 7605226420, 7605226421, 7605226422, 7605226419], "tags": {"leisure": "park", "name": "B1B Park"}}, {"type": "way", "id": 814132787, "nodes": [7605226423, 7605226424, 7605226425, 7605226426, 7605226427, 7605226428, 7605226423], "tags": {"leisure": "park", "name": "B1C Park"}}, {"type": "way", "id": 817249278, "nodes": [7632653724, 7632653725, 7632653726, 7632653727, 7632653728, 7632653729, 7632653730, 7632653731, 7632653732, 7632653733, 7632653734, 7632653735, 7632653724], "tags": {"leisure": "park"}}, {"type": "way", "id": 817249279, "nodes": [7632653736, 7632653737, 7632653738, 7632653739, 7632653740, 7632653741, 7632653742, 7632653743, 7632653744, 7632653745, 7632653746, 7632653736], "tags": {"leisure": "park"}}, {"type": "way", "id": 817249280, "nodes": [7632653747, 7632653749, 12676778625, 9952749532, 7632653751, 7632653752, 9952749533, 9952749534, 9952749535, 9952749536, 9952749537, 9952749538, 7632653753, 7632653754, 7632653755, 7632653747], "tags": {"leisure": "park"}}, {"type": "way", "id": 817249281, "nodes": [7632653756, 7632653757, 7632653758, 7632653759, 7632653756], "tags": {"leisure": "park"}}, {"type": "way", "id": 817249282, "nodes": [7632653763, 7632653764, 7632653765, 7632653766, 7632653763], "tags": {"leisure": "park"}}, {"type": "way", "id": 817249283, "nodes": [7632653774, 7632653775, 7632653776, 7632653777, 7632653778, 7632653774], "tags": {"leisure": "park"}}, {"type": "way", "id": 817249284, "nodes": [7632653779, 7632653780, 7632653781, 7632653782, 7632653779], "tags": {"leisure": "park"}}, {"type": "way", "id": 817249285, "nodes": [7632653783, 7632653784, 7632655885, 7632655886, 7632653783], "tags": {"leisure": "park"}}, {"type": "way", "id": 817249286, "nodes": [7632655887, 7632655888, 7632655889, 7632655890, 7632655891, 7632655892, 7632655893, 7632655894, 7632655895, 7632655896, 7632655897, 7632655898, 7632655899, 7632655900, 7632655901, 7632655902, 7632655903, 7632655904, 7632655905, 7632655906, 7632655907, 7632655908, 7632655909, 7632655910, 7632655911, 7632655912, 7632655887], "tags": {"leisure": "park", "name": "Hastal Phase || District Park"}}, {"type": "way", "id": 817528595, "nodes": [7635182537, 7635182538, 7635182539, 7635182540, 7635182537], "tags": {"leisure": "park"}}, {"type": "way", "id": 817534198, "nodes": [7635226153, 7635226154, 7635226155, 7635226156, 7635226153], "tags": {"leisure": "park"}}, {"type": "way", "id": 817534199, "nodes": [7635226157, 7635226158, 7635226159, 7635226160, 7635226161, 7635226162, 7635226163, 7635226164, 7635226165, 7635226166, 7635226167, 7635226168, 7635226169, 7635226157], "tags": {"leisure": "park", "name": "Keshopur District Park"}}, {"type": "way", "id": 817534200, "nodes": [7635226170, 7635226171, 7635226172, 7635226173, 7635226174, 7635226175, 7635226176, 7635226177, 7635226170], "tags": {"leisure": "park", "name": "Bodella District Park"}}, {"type": "way", "id": 845710895, "nodes": [7890219979, 7890219980, 7890219981, 7890219982, 7890219979], "tags": {"addr:city": "delhi", "addr:housenumber": "c block", "addr:postcode": "110018", "addr:street": "near guru virjanand marg", "leisure": "park", "name": "Chota Park A", "opening_hours": "sunrise-sunset"}}, {"type": "way", "id": 845718406, "nodes": [7890278068, 7890278069, 7890278070, 7890278071, 7890278068], "tags": {"addr:city": "delhi", "addr:housenumber": "c block", "addr:postcode": "110018", "addr:street": "near guru virjanand marg", "leisure": "park", "name": "Chota Park B", "opening_hours": "sunrise-sunset"}}, {"type": "way", "id": 845719696, "nodes": [7890299244, 7890299245, 7890299246, 7890299247, 7890299244], "tags": {"addr:city": "delhi", "addr:housenumber": "c block", "addr:postcode": "110018", "addr:street": "near guru virjanand marg", "leisure": "park", "name": "Multi Gym Park", "opening_hours": "sunrise-sunset"}}, {"type": "way", "id": 846064273, "nodes": [7893480622, 7893480623, 7893480624, 7893480625, 7893480622], "tags": {"leisure": "park", "name": "Durga Vatika"}}, {"type": "way", "id": 952518423, "nodes": [8816082270, 8816082271, 8816082272, 8816082273, 8816082270], "tags": {"addr:city": "Delhi", "addr:postcode": "110059", "addr:street": "Uttam Vihar, Block E, Uttam Nagar, Bindapur", "leisure": "park", "name": "Bindapur Park", "opening_hours": "24/7"}}, {"type": "way", "id": 952523127, "nodes": [8816177633, 8816177634, 8816177635, 8816177636, 8816177633], "tags": {"addr:city": "New Delhi", "addr:housenumber": "E-506", "addr:postcode": "110059", "addr:street": "Street Number 78, Uttam Vihar, Block D, Uttam Nagar, Bindapur", "amenity": "cafe", "building": "yes", "name": "Coffee House Bindapur", "opening_hours": "closed \"temporarily closed\""}}, {"type": "way", "id": 997968123, "nodes": [9214583876, 9214583877, 9214583878, 9214583879, 9214583881, 9214583876], "tags": {"fitness_station": "yes", "leisure": "park", "name": "Shaheed Ashfaq Ullah Fitness Park", "name:etymology:wikidata": "Q1571670", "operator": "NSUT", "start_date": "2021-10-22"}}, {"type": "way", "id": 1012414575, "nodes": [9913691916, 9340252180, 9913692718, 9913692717, 9913691916], "tags": {"addr:postcode": "110059", "amenity": "cafe", "building": "commercial", "cuisine": "burger;pizza;regional;tex-mex", "name": "FLAVOURZ FACTOREE"}}, {"type": "way", "id": 1081542092, "nodes": [9912685187, 9912685188, 9912685189, 9912685191, 9912685190, 9912685187], "tags": {"leisure": "park"}}, {"type": "way", "id": 1258384792, "nodes": [11698557243, 11698557244, 11698557245, 11698557246, 11698557243], "tags": {"leisure": "park", "name": "Park"}}, {"type": "way", "id": 1259775415, "nodes": [12904084319, 12904084322, 12904084320, 12137650495, 9919227920, 12904084321, 12904084324, 12904084317, 12904078083, 12904084323, 12904084319], "tags": {"leisure": "park", "name": "Surya Upasana Park"}}, {"type": "way", "id": 1347533056, "nodes": [12464969163, 12464969160, 12464969153, 12464969161, 12464969151, 12464969164, 12464969156, 12464969162, 12464969154, 12464969155, 12464969159, 12464969157, 12464969158, 12464969152, 12464969163], "tags": {"leisure": "park"}}, {"type": "way", "id": 1368758856, "nodes": [12676778620, 12676778625, 9952749532, 1668761275, 2565024413, 11029672489, 12676778624, 12716259420, 12716259418, 12676778620], "tags": {"addr:city": "New Delhi", "addr:place": "Janakpuri District Centre", "addr:postcode": "110058", "addr:state": "Delhi", "air_conditioning": "yes", "bar": "no", "brand": "Hyatt Centric", "contact:mobile": "+91 11 4612 1234;+91 22 6122 0692", "contact:website": "https://www.hyatt.com/hyatt-centric/delct-hyatt-centric-janakpuri-new-delhi", "internet_access": "yes", "internet_access:fee": "no", "name": "Hyatt Centric", "rooms": "224", "smoking": "no", "stars": "5", "swimming_pool": "outdoor", "tourism": "hotel"}}, {"type": "way", "id": 1379328586, "nodes": [12772224524, 12772224543, 12772224531, 12772224539, 12772224540, 12772224524], "tags": {"leisure": "park"}}, {"type": "way", "id": 1394163108, "nodes": [12905881458, 12905881472, 12905881457, 12905881455, 12905872575, 12905872578, 12905881445, 12905872564, 12905881460, 12905872580, 12905872568, 12905872574, 12905881409, 12905881414, 12905872592, 12905872590, 12905872576, 12905872563, 12905881405, 12905881430, 12905881447, 12905872596, 12905872573, 12905881475, 12905881425, 12905881441, 12905881424, 12905881415, 12905872600, 12905881416, 12905881464, 12905881419, 12905872572, 12905881410, 12905881420, 12905881436, 12905872560, 12905872584, 12905881461, 12905881435, 12905872582, 12905881468, 12905881423, 12905881453, 12905881451, 12905881402, 12905881469, 12905872570, 12905881434, 12905872587, 12905872593, 12905881474, 12905881432, 12905881426, 12905872585, 12905881401, 12905881473, 12905881422, 12905881450, 12905881462, 12905881466, 12905872569, 12905881404, 12905881467, 12905872565, 12905881448, 12905872577, 12905872571, 12905872583, 12905881463, 12905881429, 12905881454, 12905881452, 12905872579, 12905881470, 12905881428, 12905881449, 12905881433, 12905872598, 12905872586, 12905881418, 12905881407, 12905881442, 12905881427, 12905881437, 12905881421, 12905872594, 12905872581, 12905872591, 12905881412, 12905872566, 12905881417, 12905881406, 12905872567, 12905881413, 12905881408, 12905881431, 12905872595, 12905881456, 12905872589, 12905881403, 12905872599, 12905881440, 12905881439, 12905872562, 12905881444, 12905872588, 12905872597, 12905881465, 12905881443, 12905881459, 12905872561, 12905881438, 12905881471, 12905881411, 12905881458], "tags": {"leisure": "park", "name": "Ambedkar Park"}}, {"type": "node", "id": 12772224524, "lat": 28.6011124, "lon": 77.0387759}, {"type": "node", "id": 12772224531, "lat": 28.6013656, "lon": 77.0405138}, {"type": "node", "id": 12772224539, "lat": 28.6008505, "lon": 77.0401016}, {"type": "node", "id": 12772224540, "lat": 28.6004775, "lon": 77.0396836}, {"type": "node", "id": 12772224543, "lat": 28.6020146, "lon": 77.0395672}, {"type": "node", "id": 1191281934, "lat": 28.6073776, "lon": 77.0419302}, {"type": "node", "id": 2129002330, "lat": 28.6059291, "lon": 77.0436322}, {"type": "node", "id": 2129002333, "lat": 28.6059444, "lon": 77.0428772}, {"type": "node", "id": 2129002346, "lat": 28.605006, "lon": 77.0436698}, {"type": "node", "id": 2129002351, "lat": 28.6036661, "lon": 77.0422011}, {"type": "node", "id": 2129002377, "lat": 28.6054864, "lon": 77.0428705}, {"type": "node", "id": 2129002387, "lat": 28.604086, "lon": 77.0415547}, {"type": "node", "id": 2129002388, "lat": 28.6053293, "lon": 77.0426025}, {"type": "node", "id": 2129002391, "lat": 28.6049094, "lon": 77.0432489}, {"type": "node", "id": 2197091867, "lat": 28.6068445, "lon": 77.0399027}, {"type": "node", "id": 2197091868, "lat": 28.6048464, "lon": 77.038184}, {"type": "node", "id": 2197106261, "lat": 28.6061245, "lon": 77.04164}, {"type": "node", "id": 2197106262, "lat": 28.6046423, "lon": 77.0384958}, {"type": "node", "id": 2197106263, "lat": 28.6068661, "lon": 77.0405616}, {"type": "node", "id": 9214583876, "lat": 28.6088881, "lon": 77.0394188}, {"type": "node", "id": 9214583877, "lat": 28.6090695, "lon": 77.0401309}, {"type": "node", "id": 9214583881, "lat": 28.6096973, "lon": 77.0391513}, {"type": "node", "id": 10607650987, "lat": 28.6068546, "lon": 77.0404069}, {"type": "node", "id": 12507284362, "lat": 28.6054065, "lon": 77.0430034}, {"type": "node", "id": 12507284457, "lat": 28.6053105, "lon": 77.0431631}, {"type": "node", "id": 12507381631, "lat": 28.6065636, "lon": 77.0401555}, {"type": "node", "id": 12507381660, "lat": 28.6067696, "lon": 77.0403335}, {"type": "node", "id": 12507381706, "lat": 28.6061452, "lon": 77.0397941}, {"type": "node", "id": 12507381738, "lat": 28.6067071, "lon": 77.0402795}, {"type": "node", "id": 12507381750, "lat": 28.6062957, "lon": 77.0399241}, {"type": "node", "id": 12507381761, "lat": 28.6064079, "lon": 77.040021}, {"type": "node", "id": 12507381776, "lat": 28.6047767, "lon": 77.0386119}, {"type": "node", "id": 12507381819, "lat": 28.6060033, "lon": 77.0396715}, {"type": "node", "id": 9214583878, "lat": 28.6098787, "lon": 77.0398636}, {"type": "node", "id": 9214583879, "lat": 28.6097595, "lon": 77.0393958}, {"type": "node", "id": 265607002, "lat": 28.6017684, "lon": 77.0450284}, {"type": "node", "id": 1097653647, "lat": 28.6031715, "lon": 77.0462514}, {"type": "node", "id": 1097653650, "lat": 28.6014207, "lon": 77.0450645}, {"type": "node", "id": 1097653658, "lat": 28.6016902, "lon": 77.0449956}, {"type": "node", "id": 1097653669, "lat": 28.6015388, "lon": 77.0449921}, {"type": "node", "id": 1637466480, "lat": 28.6029107, "lon": 77.0487652}, {"type": "node", "id": 1637471071, "lat": 28.5997398, "lon": 77.0486244}, {"type": "node", "id": 1637471074, "lat": 28.5987919, "lon": 77.0499521}, {"type": "node", "id": 1637471075, "lat": 28.5987225, "lon": 77.0496544}, {"type": "node", "id": 1637471076, "lat": 28.5994196, "lon": 77.0486459}, {"type": "node", "id": 1643982737, "lat": 28.6021025, "lon": 77.0452335}, {"type": "node", "id": 1643982738, "lat": 28.6022956, "lon": 77.0449305}, {"type": "node", "id": 1643989003, "lat": 28.6003422, "lon": 77.0469695}, {"type": "node", "id": 1643989012, "lat": 28.6002151, "lon": 77.0468439}, {"type": "node", "id": 1999317625, "lat": 28.6030235, "lon": 77.04958}, {"type": "node", "id": 2000516928, "lat": 28.5992265, "lon": 77.050084}, {"type": "node", "id": 2000516934, "lat": 28.6000082, "lon": 77.0488822}, {"type": "node", "id": 2000516942, "lat": 28.6009613, "lon": 77.0460127}, {"type": "node", "id": 2000516968, "lat": 28.6013714, "lon": 77.0463744}, {"type": "node", "id": 2000516998, "lat": 28.6019411, "lon": 77.0454421}, {"type": "node", "id": 2000517030, "lat": 28.6029477, "lon": 77.0463185}, {"type": "node", "id": 2000517034, "lat": 28.6031106, "lon": 77.0464526}, {"type": "node", "id": 2000517036, "lat": 28.603144, "lon": 77.0465197}, {"type": "node", "id": 2122317576, "lat": 28.6031647, "lon": 77.0461374}, {"type": "node", "id": 2122317584, "lat": 28.6029951, "lon": 77.0459711}, {"type": "node", "id": 2122317590, "lat": 28.6028444, "lon": 77.0458262}, {"type": "node", "id": 2122321858, "lat": 28.6015869, "lon": 77.0443296}, {"type": "node", "id": 2128976170, "lat": 28.6013795, "lon": 77.044968}, {"type": "node", "id": 2128976174, "lat": 28.6005129, "lon": 77.0445603}, {"type": "node", "id": 2128976200, "lat": 28.6012335, "lon": 77.0451664}, {"type": "node", "id": 2128976215, "lat": 28.5996133, "lon": 77.0481094}, {"type": "node", "id": 2128976258, "lat": 28.6006307, "lon": 77.0443832}, {"type": "node", "id": 2128976268, "lat": 28.6012994, "lon": 77.0450645}, {"type": "node", "id": 2128976293, "lat": 28.5993202, "lon": 77.0485767}, {"type": "node", "id": 2128976295, "lat": 28.6018081, "lon": 77.0450001}, {"type": "node", "id": 2128976309, "lat": 28.6015208, "lon": 77.0449089}, {"type": "node", "id": 2128976315, "lat": 28.6016621, "lon": 77.0449089}, {"type": "node", "id": 2128976328, "lat": 28.6012288, "lon": 77.0449175}, {"type": "node", "id": 2128976332, "lat": 28.6001832, "lon": 77.047221}, {"type": "node", "id": 2128976351, "lat": 28.6004093, "lon": 77.0474302}, {"type": "node", "id": 2128976368, "lat": 28.5997028, "lon": 77.0485299}, {"type": "node", "id": 8815664794, "lat": 28.598706, "lon": 77.0498086}, {"type": "node", "id": 11698557243, "lat": 28.6012961, "lon": 77.0487651}, {"type": "node", "id": 11698557244, "lat": 28.601478, "lon": 77.0489186}, {"type": "node", "id": 11698557245, "lat": 28.6013666, "lon": 77.0490829}, {"type": "node", "id": 11698557246, "lat": 28.6011832, "lon": 77.0489365}, {"type": "node", "id": 1637471072, "lat": 28.5999353, "lon": 77.0509781}, {"type": "node", "id": 1643993265, "lat": 28.6028135, "lon": 77.0534086}, {"type": "node", "id": 1643993267, "lat": 28.6012951, "lon": 77.0516762}, {"type": "node", "id": 1643993275, "lat": 28.6013419, "lon": 77.0520598}, {"type": "node", "id": 1999317621, "lat": 28.602954, "lon": 77.0533618}, {"type": "node", "id": 1999317634, "lat": 28.6030696, "lon": 77.0521154}, {"type": "node", "id": 2000516935, "lat": 28.6000488, "lon": 77.0508066}, {"type": "node", "id": 2128976202, "lat": 28.6021849, "lon": 77.0529824}, {"type": "node", "id": 2128976252, "lat": 28.5996934, "lon": 77.0522958}, {"type": "node", "id": 2128976280, "lat": 28.6025408, "lon": 77.0538046}, {"type": "node", "id": 2128976340, "lat": 28.6003434, "lon": 77.0521831}, {"type": "node", "id": 2128976344, "lat": 28.6016009, "lon": 77.0539051}, {"type": "node", "id": 2128976345, "lat": 28.6000325, "lon": 77.0525854}, {"type": "node", "id": 2128976347, "lat": 28.6029645, "lon": 77.0541396}, {"type": "node", "id": 2128976370, "lat": 28.6022838, "lon": 77.0531809}, {"type": "node", "id": 2128976372, "lat": 28.6017139, "lon": 77.054021}, {"type": "node", "id": 2128976374, "lat": 28.6027171, "lon": 77.0535403}, {"type": "node", "id": 2128985284, "lat": 28.602995, "lon": 77.0534598}, {"type": "node", "id": 2128985285, "lat": 28.6031928, "lon": 77.0531702}, {"type": "node", "id": 2128985286, "lat": 28.6028866, "lon": 77.0535081}, {"type": "node", "id": 2128985288, "lat": 28.6027783, "lon": 77.0535167}, {"type": "node", "id": 2195225132, "lat": 28.6016075, "lon": 77.0564688}, {"type": "node", "id": 2195225134, "lat": 28.6023224, "lon": 77.0551502}, {"type": "node", "id": 2195225144, "lat": 28.5989257, "lon": 77.0563189}, {"type": "node", "id": 2195225149, "lat": 28.5987509, "lon": 77.0562183}, {"type": "node", "id": 2195225150, "lat": 28.6019204, "lon": 77.0557674}, {"type": "node", "id": 2195225155, "lat": 28.601734, "lon": 77.0560536}, {"type": "node", "id": 2195225158, "lat": 28.6014414, "lon": 77.0558064}, {"type": "node", "id": 2195225166, "lat": 28.6015962, "lon": 77.0562438}, {"type": "node", "id": 2195225176, "lat": 28.6011299, "lon": 77.0571718}, {"type": "node", "id": 2195225177, "lat": 28.6020298, "lon": 77.054903}, {"type": "node", "id": 2195225182, "lat": 28.5999289, "lon": 77.0557181}, {"type": "node", "id": 2195225189, "lat": 28.6023081, "lon": 77.0570877}, {"type": "node", "id": 2195225193, "lat": 28.5997169, "lon": 77.056909}, {"type": "node", "id": 2195225196, "lat": 28.5989346, "lon": 77.0549845}, {"type": "node", "id": 2195225197, "lat": 28.6015585, "lon": 77.0560828}, {"type": "node", "id": 2195225198, "lat": 28.6003669, "lon": 77.055069}, {"type": "node", "id": 2195225202, "lat": 28.5998625, "lon": 77.0567011}, {"type": "node", "id": 7306012358, "lat": 28.5998321, "lon": 77.0566879}, {"type": "node", "id": 8815608382, "lat": 28.601441, "lon": 77.0519996}, {"type": "node", "id": 8815608383, "lat": 28.6013595, "lon": 77.0516689}, {"type": "node", "id": 8815608384, "lat": 28.6024714, "lon": 77.0529794}, {"type": "node", "id": 9912685188, "lat": 28.6031557, "lon": 77.051276}, {"type": "node", "id": 9912685189, "lat": 28.6027777, "lon": 77.0518745}, {"type": "node", "id": 9912685191, "lat": 28.603069, "lon": 77.0521119}, {"type": "node", "id": 2195225145, "lat": 28.6020149, "lon": 77.0575111}, {"type": "node", "id": 2195225153, "lat": 28.6001502, "lon": 77.0572845}, {"type": "node", "id": 2195225167, "lat": 28.5998601, "lon": 77.0577748}, {"type": "node", "id": 2195225192, "lat": 28.6003104, "lon": 77.058175}, {"type": "node", "id": 1637466479, "lat": 28.6038691, "lon": 77.0485931}, {"type": "node", "id": 1637466715, "lat": 28.6049865, "lon": 77.0493969}, {"type": "node", "id": 1637466716, "lat": 28.6040611, "lon": 77.049126}, {"type": "node", "id": 1637466717, "lat": 28.6044496, "lon": 77.049354}, {"type": "node", "id": 1637466718, "lat": 28.6048805, "lon": 77.049405}, {"type": "node", "id": 1637466720, "lat": 28.6044661, "lon": 77.0491609}, {"type": "node", "id": 1637467914, "lat": 28.6049915, "lon": 77.049525}, {"type": "node", "id": 1637467916, "lat": 28.604087, "lon": 77.0494532}, {"type": "node", "id": 1643989015, "lat": 28.6033343, "lon": 77.0464672}, {"type": "node", "id": 1999317682, "lat": 28.6039819, "lon": 77.0494079}, {"type": "node", "id": 2122317568, "lat": 28.6033154, "lon": 77.046293}, {"type": "node", "id": 2122317572, "lat": 28.6035038, "lon": 77.046352}, {"type": "node", "id": 2122317574, "lat": 28.6036606, "lon": 77.044954}, {"type": "node", "id": 2122317582, "lat": 28.6035523, "lon": 77.0447662}, {"type": "node", "id": 2122317586, "lat": 28.603452, "lon": 77.0462286}, {"type": "node", "id": 2122317588, "lat": 28.6041646, "lon": 77.0460161}, {"type": "node", "id": 2122317592, "lat": 28.6040642, "lon": 77.0457619}, {"type": "node", "id": 1999317664, "lat": 28.6036018, "lon": 77.0519721}, {"type": "node", "id": 1999317666, "lat": 28.6037529, "lon": 77.0521059}, {"type": "node", "id": 1999317680, "lat": 28.6039449, "lon": 77.051067}, {"type": "node", "id": 2128985287, "lat": 28.6034487, "lon": 77.0534067}, {"type": "node", "id": 9912685187, "lat": 28.6037097, "lon": 77.0513812}, {"type": "node", "id": 9912685190, "lat": 28.6035962, "lon": 77.0519664}, {"type": "node", "id": 9921295898, "lat": 28.6037203, "lon": 77.0513596}, {"type": "node", "id": 9921295899, "lat": 28.6037795, "lon": 77.0510352}, {"type": "node", "id": 2657755429, "lat": 28.6118534, "lon": 77.046294}, {"type": "node", "id": 2657755432, "lat": 28.6121974, "lon": 77.0463519}, {"type": "node", "id": 2657755434, "lat": 28.6121501, "lon": 77.0467124}, {"type": "node", "id": 2657755456, "lat": 28.6118206, "lon": 77.046486}, {"type": "node", "id": 8816082270, "lat": 28.6096735, "lon": 77.0661463}, {"type": "node", "id": 8816082272, "lat": 28.6092681, "lon": 77.0678853}, {"type": "node", "id": 8816082273, "lat": 28.608888, "lon": 77.0664097}, {"type": "node", "id": 8816177633, "lat": 28.6077155, "lon": 77.0662791}, {"type": "node", "id": 8816177634, "lat": 28.6079424, "lon": 77.0662069}, {"type": "node", "id": 8816177635, "lat": 28.6080281, "lon": 77.0665565}, {"type": "node", "id": 8816177636, "lat": 28.6078012, "lon": 77.0666287}, {"type": "node", "id": 8816082271, "lat": 28.6100694, "lon": 77.0676399}, {"type": "node", "id": 2657755424, "lat": 28.6180283, "lon": 77.0476606}, {"type": "node", "id": 2657755425, "lat": 28.6175316, "lon": 77.0476606}, {"type": "node", "id": 2657755443, "lat": 28.6175316, "lon": 77.0482693}, {"type": "node", "id": 2657755451, "lat": 28.6180283, "lon": 77.0482693}, {"type": "node", "id": 9340252180, "lat": 28.6199955, "lon": 77.044443}, {"type": "node", "id": 9913691916, "lat": 28.6200075, "lon": 77.0445222}, {"type": "node", "id": 9913692717, "lat": 28.6198866, "lon": 77.044528}, {"type": "node", "id": 9913692718, "lat": 28.6198804, "lon": 77.0444469}, {"type": "node", "id": 2665405920, "lat": 28.6276802, "lon": 77.0567428}, {"type": "node", "id": 2665405929, "lat": 28.6286596, "lon": 77.0565604}, {"type": "node", "id": 2665405930, "lat": 28.6253918, "lon": 77.0550476}, {"type": "node", "id": 2665405934, "lat": 28.6260039, "lon": 77.0533417}, {"type": "node", "id": 2665405939, "lat": 28.6292679, "lon": 77.0560596}, {"type": "node", "id": 2665405940, "lat": 28.6253918, "lon": 77.0552193}, {"type": "node", "id": 2665405941, "lat": 28.6249416, "lon": 77.0552053}, {"type": "node", "id": 2665405942, "lat": 28.6272564, "lon": 77.0565711}, {"type": "node", "id": 2665405950, "lat": 28.626051, "lon": 77.0558737}, {"type": "node", "id": 2665405956, "lat": 28.6249868, "lon": 77.0543073}, {"type": "node", "id": 2665405957, "lat": 28.6288008, "lon": 77.0565604}, {"type": "node", "id": 2665405959, "lat": 28.6291681, "lon": 77.057129}, {"type": "node", "id": 2665405960, "lat": 28.6285748, "lon": 77.056024}, {"type": "node", "id": 2665405961, "lat": 28.6248832, "lon": 77.0544146}, {"type": "node", "id": 2665405963, "lat": 28.6256272, "lon": 77.055863}, {"type": "node", "id": 2665405965, "lat": 28.6282283, "lon": 77.0559134}, {"type": "node", "id": 2665405968, "lat": 28.6256197, "lon": 77.0550981}, {"type": "node", "id": 2665405976, "lat": 28.6282264, "lon": 77.0553051}, {"type": "node", "id": 2665405986, "lat": 28.6248663, "lon": 77.054862}, {"type": "node", "id": 2665405987, "lat": 28.6285748, "lon": 77.0559167}, {"type": "node", "id": 2665405989, "lat": 28.6272564, "lon": 77.0553373}, {"type": "node", "id": 2665406000, "lat": 28.6289628, "lon": 77.0570292}, {"type": "node", "id": 2665406002, "lat": 28.6286878, "lon": 77.0566677}, {"type": "node", "id": 2665406005, "lat": 28.628831, "lon": 77.0568039}, {"type": "node", "id": 2665406006, "lat": 28.6289798, "lon": 77.0567428}, {"type": "node", "id": 2665406012, "lat": 28.6250075, "lon": 77.0533278}, {"type": "node", "id": 2665455553, "lat": 28.6292161, "lon": 77.0567645}, {"type": "node", "id": 2687968167, "lat": 28.6252203, "lon": 77.055214}, {"type": "node", "id": 2633388511, "lat": 28.6249495, "lon": 77.0611202}, {"type": "node", "id": 2633388512, "lat": 28.6267247, "lon": 77.0615869}, {"type": "node", "id": 2633388513, "lat": 28.6269338, "lon": 77.0614917}, {"type": "node", "id": 2633388514, "lat": 28.6264664, "lon": 77.0603174}, {"type": "node", "id": 2633388515, "lat": 28.6265081, "lon": 77.0604443}, {"type": "node", "id": 2633388516, "lat": 28.6249966, "lon": 77.0612597}, {"type": "node", "id": 2665405927, "lat": 28.6276915, "lon": 77.0579948}, {"type": "node", "id": 2665405928, "lat": 28.6288291, "lon": 77.0586311}, {"type": "node", "id": 2665405954, "lat": 28.6282452, "lon": 77.0587169}, {"type": "node", "id": 2665405955, "lat": 28.628217, "lon": 77.058041}, {"type": "node", "id": 2665405971, "lat": 28.6291304, "lon": 77.0574402}, {"type": "node", "id": 2665405980, "lat": 28.6288573, "lon": 77.0587598}, {"type": "node", "id": 2665405993, "lat": 28.6293941, "lon": 77.0581161}, {"type": "node", "id": 2665406008, "lat": 28.6292717, "lon": 77.0590388}, {"type": "node", "id": 2665406010, "lat": 28.6291869, "lon": 77.058674}, {"type": "node", "id": 3199431041, "lat": 28.6269407, "lon": 77.0620929}, {"type": "node", "id": 6063438642, "lat": 28.6265949, "lon": 77.0611361}, {"type": "node", "id": 6063438643, "lat": 28.6264973, "lon": 77.0609189}, {"type": "node", "id": 6063438644, "lat": 28.6262271, "lon": 77.0610766}, {"type": "node", "id": 6063438645, "lat": 28.6263247, "lon": 77.0612937}, {"type": "node", "id": 7632655907, "lat": 28.6278494, "lon": 77.0636529}, {"type": "node", "id": 7632655908, "lat": 28.6284734, "lon": 77.0636083}, {"type": "node", "id": 7632655909, "lat": 28.6289908, "lon": 77.0635433}, {"type": "node", "id": 7632655910, "lat": 28.6292126, "lon": 77.0635186}, {"type": "node", "id": 7632655911, "lat": 28.6292288, "lon": 77.0633461}, {"type": "node", "id": 694018696, "lat": 28.6270619, "lon": 77.0689794}, {"type": "node", "id": 694018718, "lat": 28.6278071, "lon": 77.0690132}, {"type": "node", "id": 694018719, "lat": 28.6276717, "lon": 77.0686685}, {"type": "node", "id": 694018733, "lat": 28.6271974, "lon": 77.0693242}, {"type": "node", "id": 2682231532, "lat": 28.6281086, "lon": 77.0696731}, {"type": "node", "id": 2682231533, "lat": 28.6282573, "lon": 77.0695983}, {"type": "node", "id": 2682231539, "lat": 28.6282736, "lon": 77.0700989}, {"type": "node", "id": 2682231568, "lat": 28.6284223, "lon": 77.0700241}, {"type": "node", "id": 2682231618, "lat": 28.6292641, "lon": 77.0691074}, {"type": "node", "id": 3495289506, "lat": 28.6259701, "lon": 77.069339}, {"type": "node", "id": 3495289507, "lat": 28.6260549, "lon": 77.0694221}, {"type": "node", "id": 3495289508, "lat": 28.6260408, "lon": 77.0695723}, {"type": "node", "id": 3495289509, "lat": 28.6256923, "lon": 77.0697601}, {"type": "node", "id": 3495289510, "lat": 28.6256076, "lon": 77.0695401}, {"type": "node", "id": 3495291244, "lat": 28.6250449, "lon": 77.0685021}, {"type": "node", "id": 3495291245, "lat": 28.6251932, "lon": 77.0689688}, {"type": "node", "id": 3495291246, "lat": 28.6248047, "lon": 77.0691297}, {"type": "node", "id": 3495291247, "lat": 28.6246281, "lon": 77.0686899}, {"type": "node", "id": 7632653756, "lat": 28.6277014, "lon": 77.0665298}, {"type": "node", "id": 7632653757, "lat": 28.6271834, "lon": 77.0667658}, {"type": "node", "id": 7632653758, "lat": 28.6273906, "lon": 77.0673505}, {"type": "node", "id": 7632653759, "lat": 28.6279321, "lon": 77.0670877}, {"type": "node", "id": 7632653763, "lat": 28.628984, "lon": 77.0681539}, {"type": "node", "id": 7632653764, "lat": 28.6286944, "lon": 77.0682988}, {"type": "node", "id": 7632653765, "lat": 28.6287745, "lon": 77.068508}, {"type": "node", "id": 7632653766, "lat": 28.6290641, "lon": 77.0683524}, {"type": "node", "id": 7632653779, "lat": 28.628233, "lon": 77.0702166}, {"type": "node", "id": 7632655894, "lat": 28.6292096, "lon": 77.0646256}, {"type": "node", "id": 7632655895, "lat": 28.628767, "lon": 77.0648107}, {"type": "node", "id": 7632655896, "lat": 28.6280489, "lon": 77.065323}, {"type": "node", "id": 7632655897, "lat": 28.6279618, "lon": 77.0653954}, {"type": "node", "id": 7632655898, "lat": 28.6273117, "lon": 77.065726}, {"type": "node", "id": 7632655899, "lat": 28.6268933, "lon": 77.0659626}, {"type": "node", "id": 7632655900, "lat": 28.6268132, "lon": 77.0657373}, {"type": "node", "id": 7632655901, "lat": 28.6266371, "lon": 77.0658147}, {"type": "node", "id": 7632655902, "lat": 28.6265456, "lon": 77.0655973}, {"type": "node", "id": 7632655903, "lat": 28.6270765, "lon": 77.0653626}, {"type": "node", "id": 7632655904, "lat": 28.6269729, "lon": 77.065132}, {"type": "node", "id": 7632655905, "lat": 28.6273783, "lon": 77.0646}, {"type": "node", "id": 7632655906, "lat": 28.627861, "lon": 77.0640419}, {"type": "node", "id": 2665405923, "lat": 28.6298791, "lon": 77.0559904}, {"type": "node", "id": 2665405932, "lat": 28.6294431, "lon": 77.05601}, {"type": "node", "id": 2665405949, "lat": 28.62946, "lon": 77.055348}, {"type": "node", "id": 2665405967, "lat": 28.6304076, "lon": 77.0560087}, {"type": "node", "id": 2665405978, "lat": 28.6299328, "lon": 77.0539608}, {"type": "node", "id": 2665405979, "lat": 28.6308914, "lon": 77.0539962}, {"type": "node", "id": 2665406003, "lat": 28.6297162, "lon": 77.0553448}, {"type": "node", "id": 2665406018, "lat": 28.6299403, "lon": 77.0545541}, {"type": "node", "id": 2665455535, "lat": 28.6298318, "lon": 77.0567943}, {"type": "node", "id": 2665455543, "lat": 28.6319275, "lon": 77.0566891}, {"type": "node", "id": 2665455548, "lat": 28.631565, "lon": 77.056657}, {"type": "node", "id": 2665455549, "lat": 28.6325585, "lon": 77.0557021}, {"type": "node", "id": 2665455550, "lat": 28.6323059, "lon": 77.0552751}, {"type": "node", "id": 2665455565, "lat": 28.6308837, "lon": 77.0566105}, {"type": "node", "id": 2665455566, "lat": 28.63213, "lon": 77.055112}, {"type": "node", "id": 2687942000, "lat": 28.6355673, "lon": 77.0566627}, {"type": "node", "id": 2687942028, "lat": 28.6356426, "lon": 77.0569363}, {"type": "node", "id": 2687942050, "lat": 28.635652, "lon": 77.0570382}, {"type": "node", "id": 2687942056, "lat": 28.6356542, "lon": 77.0541841}, {"type": "node", "id": 2687942100, "lat": 28.6356238, "lon": 77.0571294}, {"type": "node", "id": 2689461752, "lat": 28.6324073, "lon": 77.0554464}, {"type": "node", "id": 10820375273, "lat": 28.6355812, "lon": 77.0546991}, {"type": "node", "id": 10820375274, "lat": 28.6355247, "lon": 77.0548144}, {"type": "node", "id": 12464969151, "lat": 28.6342782, "lon": 77.0544211}, {"type": "node", "id": 12464969152, "lat": 28.6338148, "lon": 77.0543822}, {"type": "node", "id": 12464969153, "lat": 28.6341187, "lon": 77.0544231}, {"type": "node", "id": 12464969154, "lat": 28.6342294, "lon": 77.0541136}, {"type": "node", "id": 12464969155, "lat": 28.6341461, "lon": 77.054111}, {"type": "node", "id": 12464969156, "lat": 28.6342801, "lon": 77.0542307}, {"type": "node", "id": 12464969157, "lat": 28.6339346, "lon": 77.0541036}, {"type": "node", "id": 12464969158, "lat": 28.6338336, "lon": 77.0541018}, {"type": "node", "id": 12464969159, "lat": 28.6340469, "lon": 77.0541086}, {"type": "node", "id": 12464969160, "lat": 28.6340291, "lon": 77.0544125}, {"type": "node", "id": 12464969161, "lat": 28.6341971, "lon": 77.0544186}, {"type": "node", "id": 12464969162, "lat": 28.6342791, "lon": 77.054126}, {"type": "node", "id": 12464969163, "lat": 28.6338274, "lon": 77.0543858}, {"type": "node", "id": 12464969164, "lat": 28.6342786, "lon": 77.0543354}, {"type": "node", "id": 2687941984, "lat": 28.640864, "lon": 77.0556542}, {"type": "node", "id": 2687941998, "lat": 28.6409815, "lon": 77.0542536}, {"type": "node", "id": 2687942002, "lat": 28.641539, "lon": 77.0529977}, {"type": "node", "id": 2687942004, "lat": 28.6395928, "lon": 77.055858}, {"type": "node", "id": 2687942012, "lat": 28.6422461, "lon": 77.054065}, {"type": "node", "id": 2687942023, "lat": 28.640879, "lon": 77.0529167}, {"type": "node", "id": 2687942026, "lat": 28.6415142, "lon": 77.0542827}, {"type": "node", "id": 2687942036, "lat": 28.6379708, "lon": 77.0558671}, {"type": "node", "id": 2687942043, "lat": 28.6403979, "lon": 77.0556971}, {"type": "node", "id": 2687942045, "lat": 28.636137, "lon": 77.0571294}, {"type": "node", "id": 2687942065, "lat": 28.6385758, "lon": 77.0566466}, {"type": "node", "id": 2687942068, "lat": 28.642194, "lon": 77.0542846}, {"type": "node", "id": 2687942076, "lat": 28.6422455, "lon": 77.0542742}, {"type": "node", "id": 2687942080, "lat": 28.639953, "lon": 77.055792}, {"type": "node", "id": 2687942093, "lat": 28.6376295, "lon": 77.0528271}, {"type": "node", "id": 2687942104, "lat": 28.6410042, "lon": 77.0530169}, {"type": "node", "id": 2687942114, "lat": 28.6416008, "lon": 77.0540754}, {"type": "node", "id": 2687942116, "lat": 28.6416008, "lon": 77.0542846}, {"type": "node", "id": 2687942118, "lat": 28.639122, "lon": 77.0561477}, {"type": "node", "id": 2687942122, "lat": 28.642194, "lon": 77.0540754}, {"type": "node", "id": 2633393939, "lat": 28.6320235, "lon": 77.06181}, {"type": "node", "id": 2633393944, "lat": 28.6319284, "lon": 77.0607627}, {"type": "node", "id": 2633393945, "lat": 28.6317676, "lon": 77.0612597}, {"type": "node", "id": 2633393947, "lat": 28.6324874, "lon": 77.0620602}, {"type": "node", "id": 2633393951, "lat": 28.631631, "lon": 77.060911}, {"type": "node", "id": 2633393955, "lat": 28.6323462, "lon": 77.0616617}, {"type": "node", "id": 2633393961, "lat": 28.6320696, "lon": 77.0611167}, {"type": "node", "id": 2633393962, "lat": 28.6321647, "lon": 77.0622086}, {"type": "node", "id": 2665405943, "lat": 28.6298273, "lon": 77.058041}, {"type": "node", "id": 2665405944, "lat": 28.6303848, "lon": 77.0587566}, {"type": "node", "id": 2665405958, "lat": 28.6294224, "lon": 77.0590173}, {"type": "node", "id": 2665405981, "lat": 28.6298179, "lon": 77.0573865}, {"type": "node", "id": 2665405982, "lat": 28.6302793, "lon": 77.058041}, {"type": "node", "id": 2665406004, "lat": 28.6295278, "lon": 77.0589712}, {"type": "node", "id": 2665455557, "lat": 28.631529, "lon": 77.0574262}, {"type": "node", "id": 2682191703, "lat": 28.6356168, "lon": 77.0621919}, {"type": "node", "id": 2682191707, "lat": 28.6358974, "lon": 77.0629434}, {"type": "node", "id": 2682211314, "lat": 28.635426, "lon": 77.0622895}, {"type": "node", "id": 2682211333, "lat": 28.6356651, "lon": 77.0629132}, {"type": "node", "id": 2687942017, "lat": 28.635153, "lon": 77.057698}, {"type": "node", "id": 2689461682, "lat": 28.6342229, "lon": 77.0600146}, {"type": "node", "id": 2689461685, "lat": 28.6344213, "lon": 77.0597257}, {"type": "node", "id": 2689461687, "lat": 28.6346405, "lon": 77.0591728}, {"type": "node", "id": 2689461689, "lat": 28.6337845, "lon": 77.0594669}, {"type": "node", "id": 2689461691, "lat": 28.6350439, "lon": 77.0586492}, {"type": "node", "id": 2689461699, "lat": 28.6353272, "lon": 77.0584766}, {"type": "node", "id": 2689461706, "lat": 28.6351112, "lon": 77.0600702}, {"type": "node", "id": 2689461708, "lat": 28.6352856, "lon": 77.0592486}, {"type": "node", "id": 2689461718, "lat": 28.6354665, "lon": 77.0588563}, {"type": "node", "id": 2689461723, "lat": 28.6346309, "lon": 77.0588623}, {"type": "node", "id": 2689461727, "lat": 28.6351371, "lon": 77.0580112}, {"type": "node", "id": 2689461731, "lat": 28.6344765, "lon": 77.0606702}, {"type": "node", "id": 2689461735, "lat": 28.6337466, "lon": 77.0593665}, {"type": "node", "id": 2689461737, "lat": 28.6350484, "lon": 77.0599182}, {"type": "node", "id": 2689461738, "lat": 28.6356371, "lon": 77.0592955}, {"type": "node", "id": 2689461739, "lat": 28.6353815, "lon": 77.060889}, {"type": "node", "id": 2689461740, "lat": 28.6355957, "lon": 77.0612801}, {"type": "node", "id": 2689461743, "lat": 28.6355312, "lon": 77.0611184}, {"type": "node", "id": 2689461746, "lat": 28.6354496, "lon": 77.0597031}, {"type": "node", "id": 2689461748, "lat": 28.6359342, "lon": 77.0609098}, {"type": "node", "id": 2689461750, "lat": 28.6354423, "lon": 77.0604273}, {"type": "node", "id": 2689461755, "lat": 28.6348894, "lon": 77.0609862}, {"type": "node", "id": 2689461771, "lat": 28.6357636, "lon": 77.0596017}, {"type": "node", "id": 2689461778, "lat": 28.6355531, "lon": 77.0583569}, {"type": "node", "id": 2689461788, "lat": 28.6344089, "lon": 77.0605038}, {"type": "node", "id": 2689461790, "lat": 28.6341696, "lon": 77.0591595}, {"type": "node", "id": 2689461795, "lat": 28.6341617, "lon": 77.0598544}, {"type": "node", "id": 2689461801, "lat": 28.6346506, "lon": 77.0611163}, {"type": "node", "id": 2689461803, "lat": 28.6349663, "lon": 77.0592104}, {"type": "node", "id": 2689461811, "lat": 28.6357697, "lon": 77.0592243}, {"type": "node", "id": 2689461813, "lat": 28.6352187, "lon": 77.0590801}, {"type": "node", "id": 2689461815, "lat": 28.6355956, "lon": 77.0591856}, {"type": "node", "id": 2689461819, "lat": 28.6348792, "lon": 77.0597959}, {"type": "node", "id": 2689461821, "lat": 28.6355124, "lon": 77.0598551}, {"type": "node", "id": 2689461826, "lat": 28.6358872, "lon": 77.0586392}, {"type": "node", "id": 2689461827, "lat": 28.6349756, "lon": 77.0584774}, {"type": "node", "id": 2689461828, "lat": 28.6357638, "lon": 77.0604607}, {"type": "node", "id": 2689461834, "lat": 28.63478, "lon": 77.0614248}, {"type": "node", "id": 2689461835, "lat": 28.6356955, "lon": 77.0602933}, {"type": "node", "id": 2689461836, "lat": 28.6350333, "lon": 77.0593788}, {"type": "node", "id": 2689461839, "lat": 28.6350188, "lon": 77.0612947}, {"type": "node", "id": 2689461844, "lat": 28.6349494, "lon": 77.059761}, {"type": "node", "id": 2689461845, "lat": 28.6355106, "lon": 77.0605948}, {"type": "node", "id": 2689461846, "lat": 28.6347245, "lon": 77.0605395}, {"type": "node", "id": 2689461851, "lat": 28.6358963, "lon": 77.0595305}, {"type": "node", "id": 2689461853, "lat": 28.6345626, "lon": 77.0586905}, {"type": "node", "id": 2689461858, "lat": 28.6351141, "lon": 77.061022}, {"type": "node", "id": 2689461862, "lat": 28.635363, "lon": 77.0578914}, {"type": "node", "id": 2689461866, "lat": 28.6342075, "lon": 77.0592599}, {"type": "node", "id": 2689461873, "lat": 28.6344825, "lon": 77.0598859}, {"type": "node", "id": 2689461874, "lat": 28.6346569, "lon": 77.0603731}, {"type": "node", "id": 2689461876, "lat": 28.6344433, "lon": 77.0592709}, {"type": "node", "id": 7632655887, "lat": 28.6308128, "lon": 77.0633274}, {"type": "node", "id": 7632655888, "lat": 28.6312507, "lon": 77.0633542}, {"type": "node", "id": 7632655889, "lat": 28.6313755, "lon": 77.0633542}, {"type": "node", "id": 7632655890, "lat": 28.6314179, "lon": 77.0634266}, {"type": "node", "id": 7632655891, "lat": 28.630834, "lon": 77.0637324}, {"type": "node", "id": 7632655912, "lat": 28.6299752, "lon": 77.0633461}, {"type": "node", "id": 2207933837, "lat": 28.6358133, "lon": 77.0700858}, {"type": "node", "id": 2682211144, "lat": 28.6328132, "lon": 77.0659868}, {"type": "node", "id": 2682211180, "lat": 28.6355937, "lon": 77.06438}, {"type": "node", "id": 2682211192, "lat": 28.630986, "lon": 77.0650951}, {"type": "node", "id": 2682211195, "lat": 28.6310625, "lon": 77.0658557}, {"type": "node", "id": 2682211205, "lat": 28.6352141, "lon": 77.0639256}, {"type": "node", "id": 2682211208, "lat": 28.6309809, "lon": 77.0658306}, {"type": "node", "id": 2682211221, "lat": 28.6348281, "lon": 77.0653579}, {"type": "node", "id": 2682211237, "lat": 28.6355625, "lon": 77.0642797}, {"type": "node", "id": 2682211246, "lat": 28.6353507, "lon": 77.0653794}, {"type": "node", "id": 2682211269, "lat": 28.6348422, "lon": 77.06399}, {"type": "node", "id": 2682211291, "lat": 28.6357852, "lon": 77.0641667}, {"type": "node", "id": 2682211336, "lat": 28.6354072, "lon": 77.0643977}, {"type": "node", "id": 2682231524, "lat": 28.6317245, "lon": 77.0687556}, {"type": "node", "id": 2682231546, "lat": 28.6357141, "lon": 77.0662067}, {"type": "node", "id": 2682231559, "lat": 28.6300646, "lon": 77.0686675}, {"type": "node", "id": 2682231564, "lat": 28.6308259, "lon": 77.0686943}, {"type": "node", "id": 2682231581, "lat": 28.6354698, "lon": 77.0655561}, {"type": "node", "id": 2682231602, "lat": 28.6300646, "lon": 77.0690859}, {"type": "node", "id": 2682231612, "lat": 28.6345366, "lon": 77.0661469}, {"type": "node", "id": 2682304259, "lat": 28.6354872, "lon": 77.0689682}, {"type": "node", "id": 7632653783, "lat": 28.6301564, "lon": 77.070112}, {"type": "node", "id": 7632653784, "lat": 28.6297727, "lon": 77.0701066}, {"type": "node", "id": 7632655892, "lat": 28.6303067, "lon": 77.0640221}, {"type": "node", "id": 7632655893, "lat": 28.6298358, "lon": 77.064293}, {"type": "node", "id": 7893480622, "lat": 28.6346697, "lon": 77.0696155}, {"type": "node", "id": 7893480623, "lat": 28.6342603, "lon": 77.0695962}, {"type": "node", "id": 7893480624, "lat": 28.6342284, "lon": 77.0700198}, {"type": "node", "id": 7893480625, "lat": 28.6346171, "lon": 77.0700284}, {"type": "node", "id": 12945127153, "lat": 28.6337094, "lon": 77.0660462}, {"type": "node", "id": 12945127154, "lat": 28.6343924, "lon": 77.0660953}, {"type": "node", "id": 2682191661, "lat": 28.6382504, "lon": 77.0624557}, {"type": "node", "id": 2682191664, "lat": 28.6361855, "lon": 77.0637123}, {"type": "node", "id": 2682191677, "lat": 28.6380394, "lon": 77.0625712}, {"type": "node", "id": 2682191684, "lat": 28.636297, "lon": 77.0636735}, {"type": "node", "id": 2682191694, "lat": 28.6375319, "lon": 77.0612047}, {"type": "node", "id": 2682191720, "lat": 28.6377465, "lon": 77.0611204}, {"type": "node", "id": 2689461695, "lat": 28.6359987, "lon": 77.0610716}, {"type": "node", "id": 2689461725, "lat": 28.6369086, "lon": 77.0591966}, {"type": "node", "id": 2689461729, "lat": 28.6361163, "lon": 77.0585275}, {"type": "node", "id": 2689461744, "lat": 28.6365514, "lon": 77.058302}, {"type": "node", "id": 2689461757, "lat": 28.6362112, "lon": 77.0592178}, {"type": "node", "id": 2689461759, "lat": 28.6370498, "lon": 77.0593994}, {"type": "node", "id": 2689461782, "lat": 28.6377444, "lon": 77.0590493}, {"type": "node", "id": 2689461797, "lat": 28.6371564, "lon": 77.059674}, {"type": "node", "id": 2689461799, "lat": 28.636012, "lon": 77.0589718}, {"type": "node", "id": 2689461809, "lat": 28.6361179, "lon": 77.0589872}, {"type": "node", "id": 2689461817, "lat": 28.6360319, "lon": 77.0602992}, {"type": "node", "id": 2689461832, "lat": 28.637851, "lon": 77.0593239}, {"type": "node", "id": 2689461840, "lat": 28.6362114, "lon": 77.0587656}, {"type": "node", "id": 2689461841, "lat": 28.6360607, "lon": 77.0588437}, {"type": "node", "id": 2689461842, "lat": 28.6366421, "lon": 77.0589944}, {"type": "node", "id": 2689461843, "lat": 28.6365499, "lon": 77.0587634}, {"type": "node", "id": 2689461847, "lat": 28.6363238, "lon": 77.0594998}, {"type": "node", "id": 2689461848, "lat": 28.6362782, "lon": 77.0609275}, {"type": "node", "id": 2689461850, "lat": 28.6364711, "lon": 77.0600715}, {"type": "node", "id": 2689461865, "lat": 28.6367101, "lon": 77.0607121}, {"type": "node", "id": 2207933825, "lat": 28.6361431, "lon": 77.0697216}, {"type": "node", "id": 2207933831, "lat": 28.6361723, "lon": 77.0691106}, {"type": "node", "id": 2207933832, "lat": 28.6362999, "lon": 77.0685522}, {"type": "node", "id": 2207933834, "lat": 28.6360157, "lon": 77.0700754}, {"type": "node", "id": 2682191655, "lat": 28.6419515, "lon": 77.0694832}, {"type": "node", "id": 2682191658, "lat": 28.6362812, "lon": 77.0642804}, {"type": "node", "id": 2682191670, "lat": 28.6423375, "lon": 77.0698962}, {"type": "node", "id": 2682191672, "lat": 28.6423375, "lon": 77.069805}, {"type": "node", "id": 2682191674, "lat": 28.6422057, "lon": 77.06951}, {"type": "node", "id": 2682191679, "lat": 28.6421916, "lon": 77.0697836}, {"type": "node", "id": 2682191705, "lat": 28.641975, "lon": 77.0691237}, {"type": "node", "id": 2682211157, "lat": 28.636047, "lon": 77.0649879}, {"type": "node", "id": 2682211212, "lat": 28.6362405, "lon": 77.0650033}, {"type": "node", "id": 2682211272, "lat": 28.6360262, "lon": 77.0638219}, {"type": "node", "id": 2682211279, "lat": 28.6360738, "lon": 77.0644195}, {"type": "node", "id": 2682231535, "lat": 28.6397269, "lon": 77.067692}, {"type": "node", "id": 2682231540, "lat": 28.6366485, "lon": 77.066292}, {"type": "node", "id": 2682231544, "lat": 28.6412453, "lon": 77.0662198}, {"type": "node", "id": 2682231549, "lat": 28.6385005, "lon": 77.0667417}, {"type": "node", "id": 2682231555, "lat": 28.6378094, "lon": 77.0663792}, {"type": "node", "id": 2682231563, "lat": 28.6411653, "lon": 77.0674502}, {"type": "node", "id": 2682231565, "lat": 28.6378319, "lon": 77.0657546}, {"type": "node", "id": 2682233955, "lat": 28.6414524, "lon": 77.066243}, {"type": "node", "id": 2682233968, "lat": 28.6411391, "lon": 77.0679335}, {"type": "node", "id": 2682233979, "lat": 28.6413307, "lon": 77.0672601}, {"type": "node", "id": 2682233983, "lat": 28.641307, "lon": 77.0679586}, {"type": "node", "id": 2682233985, "lat": 28.6417726, "lon": 77.066758}, {"type": "node", "id": 2682233987, "lat": 28.6416122, "lon": 77.0662856}, {"type": "node", "id": 2682233994, "lat": 28.6419642, "lon": 77.0692895}, {"type": "node", "id": 2682304235, "lat": 28.6401143, "lon": 77.0695038}, {"type": "node", "id": 2682304237, "lat": 28.6383936, "lon": 77.0665378}, {"type": "node", "id": 2682304238, "lat": 28.6378999, "lon": 77.0665118}, {"type": "node", "id": 2682304239, "lat": 28.6393023, "lon": 77.0670904}, {"type": "node", "id": 2682304241, "lat": 28.6383606, "lon": 77.0671491}, {"type": "node", "id": 2682304242, "lat": 28.63837, "lon": 77.0660612}, {"type": "node", "id": 2682304245, "lat": 28.6387985, "lon": 77.0666934}, {"type": "node", "id": 2682304247, "lat": 28.6389021, "lon": 77.0668758}, {"type": "node", "id": 2682304251, "lat": 28.6389162, "lon": 77.0666934}, {"type": "node", "id": 2682304253, "lat": 28.6384786, "lon": 77.0671435}, {"type": "node", "id": 2682304257, "lat": 28.6379325, "lon": 77.0660233}, {"type": "node", "id": 2682304261, "lat": 28.6394247, "lon": 77.0673747}, {"type": "node", "id": 2682304264, "lat": 28.6397213, "lon": 77.0674283}, {"type": "node", "id": 2682304267, "lat": 28.63942, "lon": 77.0670796}, {"type": "node", "id": 2682304269, "lat": 28.6393117, "lon": 77.0669241}, {"type": "node", "id": 2682304273, "lat": 28.6392726, "lon": 77.0694775}, {"type": "node", "id": 2682304275, "lat": 28.6383374, "lon": 77.0665497}, {"type": "node", "id": 2682304279, "lat": 28.6388126, "lon": 77.0665754}, {"type": "node", "id": 12133488466, "lat": 28.6362464, "lon": 77.0648987}, {"type": "node", "id": 6199388658, "lat": 28.6011547, "lon": 77.085743}, {"type": "node", "id": 6199388659, "lat": 28.6013418, "lon": 77.0853245}, {"type": "node", "id": 6199388660, "lat": 28.6015255, "lon": 77.0851099}, {"type": "node", "id": 6199388661, "lat": 28.6023591, "lon": 77.0848954}, {"type": "node", "id": 6199388662, "lat": 28.6022979, "lon": 77.0845842}, {"type": "node", "id": 6199388663, "lat": 28.60129, "lon": 77.0849383}, {"type": "node", "id": 6199388664, "lat": 28.6011958, "lon": 77.0850187}, {"type": "node", "id": 6199388665, "lat": 28.6006165, "lon": 77.084654}, {"type": "node", "id": 6199388666, "lat": 28.6004563, "lon": 77.0850027}, {"type": "node", "id": 6199388667, "lat": 28.6010027, "lon": 77.0853031}, {"type": "node", "id": 6199388668, "lat": 28.6002915, "lon": 77.0872074}, {"type": "node", "id": 6199388669, "lat": 28.6003339, "lon": 77.0875293}, {"type": "node", "id": 6199388670, "lat": 28.6012806, "lon": 77.0873147}, {"type": "node", "id": 6199388671, "lat": 28.6015066, "lon": 77.0868695}, {"type": "node", "id": 6199388672, "lat": 28.6017233, "lon": 77.0863277}, {"type": "node", "id": 6199388673, "lat": 28.6017845, "lon": 77.0859897}, {"type": "node", "id": 6199388674, "lat": 28.6008944, "lon": 77.085641}, {"type": "node", "id": 9919227920, "lat": 28.6083929, "lon": 77.0813146}, {"type": "node", "id": 12137650495, "lat": 28.6085863, "lon": 77.0807259}, {"type": "node", "id": 12904078083, "lat": 28.6090604, "lon": 77.0817773}, {"type": "node", "id": 12904084317, "lat": 28.6086833, "lon": 77.081543}, {"type": "node", "id": 12904084319, "lat": 28.6093288, "lon": 77.0810533}, {"type": "node", "id": 12904084320, "lat": 28.6088197, "lon": 77.0809043}, {"type": "node", "id": 12904084321, "lat": 28.6081587, "lon": 77.0818027}, {"type": "node", "id": 12904084322, "lat": 28.6089975, "lon": 77.080654}, {"type": "node", "id": 12904084323, "lat": 28.6093069, "lon": 77.0812056}, {"type": "node", "id": 12904084324, "lat": 28.6084638, "lon": 77.0820024}, {"type": "node", "id": 2659476910, "lat": 28.6122069, "lon": 77.0739464}, {"type": "node", "id": 2659476927, "lat": 28.6111006, "lon": 77.0732487}, {"type": "node", "id": 2659476944, "lat": 28.6110907, "lon": 77.0737006}, {"type": "node", "id": 2659476950, "lat": 28.6125083, "lon": 77.0738069}, {"type": "node", "id": 2659476954, "lat": 28.6107077, "lon": 77.0732355}, {"type": "node", "id": 2659476957, "lat": 28.6126684, "lon": 77.0738123}, {"type": "node", "id": 2659476958, "lat": 28.6115335, "lon": 77.0731149}, {"type": "node", "id": 2659476967, "lat": 28.6119338, "lon": 77.073013}, {"type": "node", "id": 2659476971, "lat": 28.6112792, "lon": 77.073249}, {"type": "node", "id": 2659476985, "lat": 28.6123388, "lon": 77.0741556}, {"type": "node", "id": 2659476991, "lat": 28.6110814, "lon": 77.0743058}, {"type": "node", "id": 2659477003, "lat": 28.6114016, "lon": 77.0730506}, {"type": "node", "id": 2659477034, "lat": 28.6110772, "lon": 77.0742275}, {"type": "node", "id": 2659477040, "lat": 28.6124848, "lon": 77.0741664}, {"type": "node", "id": 2659477044, "lat": 28.6107094, "lon": 77.0729325}, {"type": "node", "id": 2659477046, "lat": 28.6118208, "lon": 77.0730184}, {"type": "node", "id": 2659477047, "lat": 28.6111803, "lon": 77.0729808}, {"type": "node", "id": 2659477052, "lat": 28.6126731, "lon": 77.0730766}, {"type": "node", "id": 2659477053, "lat": 28.6116983, "lon": 77.074338}, {"type": "node", "id": 2302373506, "lat": 28.6161436, "lon": 77.0856722}, {"type": "node", "id": 2302373508, "lat": 28.6154984, "lon": 77.085319}, {"type": "node", "id": 2302373511, "lat": 28.614701, "lon": 77.0848358}, {"type": "node", "id": 2302373512, "lat": 28.6147455, "lon": 77.0847347}, {"type": "node", "id": 2302373513, "lat": 28.6153422, "lon": 77.0850702}, {"type": "node", "id": 2303657069, "lat": 28.6157555, "lon": 77.0875522}, {"type": "node", "id": 2642116473, "lat": 28.6117922, "lon": 77.0861723}, {"type": "node", "id": 2642116474, "lat": 28.6115614, "lon": 77.0865907}, {"type": "node", "id": 2941878583, "lat": 28.6113315, "lon": 77.0862881}, {"type": "node", "id": 2941878584, "lat": 28.6113734, "lon": 77.0859626}, {"type": "node", "id": 2941878585, "lat": 28.6116323, "lon": 77.0860197}, {"type": "node", "id": 9936590369, "lat": 28.6156402, "lon": 77.0852076}, {"type": "node", "id": 9936590370, "lat": 28.6158539, "lon": 77.0849817}, {"type": "node", "id": 9936590371, "lat": 28.61582, "lon": 77.0850925}, {"type": "node", "id": 9936590372, "lat": 28.6156955, "lon": 77.0850417}, {"type": "node", "id": 12905872560, "lat": 28.6129776, "lon": 77.0868922}, {"type": "node", "id": 12905872561, "lat": 28.613413, "lon": 77.0864683}, {"type": "node", "id": 12905872562, "lat": 28.6135184, "lon": 77.0865455}, {"type": "node", "id": 12905872563, "lat": 28.6130634, "lon": 77.0865518}, {"type": "node", "id": 12905872564, "lat": 28.6132184, "lon": 77.0864525}, {"type": "node", "id": 12905872565, "lat": 28.6133602, "lon": 77.0871726}, {"type": "node", "id": 12905872566, "lat": 28.6136176, "lon": 77.0868018}, {"type": "node", "id": 12905872567, "lat": 28.6136117, "lon": 77.0867406}, {"type": "node", "id": 12905872568, "lat": 28.6131671, "lon": 77.0864717}, {"type": "node", "id": 12905872569, "lat": 28.6133066, "lon": 77.0871801}, {"type": "node", "id": 12905872570, "lat": 28.6130756, "lon": 77.0870843}, {"type": "node", "id": 12905872571, "lat": 28.6134119, "lon": 77.087155}, {"type": "node", "id": 12905872572, "lat": 28.6129702, "lon": 77.0868313}, {"type": "node", "id": 12905872573, "lat": 28.6130097, "lon": 77.0866338}, {"type": "node", "id": 12905872574, "lat": 28.6131507, "lon": 77.0864802}, {"type": "node", "id": 12905872575, "lat": 28.6132718, "lon": 77.0864432}, {"type": "node", "id": 12905872576, "lat": 28.6130764, "lon": 77.0865376}, {"type": "node", "id": 12905872577, "lat": 28.613395, "lon": 77.0871619}, {"type": "node", "id": 12905872578, "lat": 28.6132538, "lon": 77.0864452}, {"type": "node", "id": 12905872579, "lat": 28.6135042, "lon": 77.0870919}, {"type": "node", "id": 12905872580, "lat": 28.6131839, "lon": 77.0864642}, {"type": "node", "id": 12905872581, "lat": 28.6136145, "lon": 77.0868632}, {"type": "node", "id": 12905872582, "lat": 28.613001, "lon": 77.0869696}, {"type": "node", "id": 12905872583, "lat": 28.6134285, "lon": 77.0871469}, {"type": "node", "id": 12905872584, "lat": 28.612982, "lon": 77.0869121}, {"type": "node", "id": 12905872585, "lat": 28.6131828, "lon": 77.0871581}, {"type": "node", "id": 12905872586, "lat": 28.6135706, "lon": 77.087003}, {"type": "node", "id": 12905872587, "lat": 28.6131036, "lon": 77.0871102}, {"type": "node", "id": 12905872588, "lat": 28.6134911, "lon": 77.0865187}, {"type": "node", "id": 12905872589, "lat": 28.6135738, "lon": 77.0866259}, {"type": "node", "id": 12905872590, "lat": 28.6130901, "lon": 77.0865243}, {"type": "node", "id": 12905872591, "lat": 28.6136165, "lon": 77.0868428}, {"type": "node", "id": 12905872592, "lat": 28.6131045, "lon": 77.0865119}, {"type": "node", "id": 12905872593, "lat": 28.6131184, "lon": 77.0871217}, {"type": "node", "id": 12905872594, "lat": 28.6136114, "lon": 77.0868834}, {"type": "node", "id": 12905872595, "lat": 28.6135901, "lon": 77.0866625}, {"type": "node", "id": 12905872596, "lat": 28.6130188, "lon": 77.0866161}, {"type": "node", "id": 12905872597, "lat": 28.6134765, "lon": 77.0865067}, {"type": "node", "id": 12905872598, "lat": 28.6135637, "lon": 77.0870153}, {"type": "node", "id": 12905872599, "lat": 28.613554, "lon": 77.0865917}, {"type": "node", "id": 12905872600, "lat": 28.6129743, "lon": 77.0867495}, {"type": "node", "id": 12905881401, "lat": 28.6131999, "lon": 77.0871646}, {"type": "node", "id": 12905881402, "lat": 28.6130504, "lon": 77.087055}, {"type": "node", "id": 12905881403, "lat": 28.6135643, "lon": 77.0866085}, {"type": "node", "id": 12905881404, "lat": 28.6133246, "lon": 77.0871787}, {"type": "node", "id": 12905881405, "lat": 28.6130511, "lon": 77.0865668}, {"type": "node", "id": 12905881406, "lat": 28.6136146, "lon": 77.0867609}, {"type": "node", "id": 12905881407, "lat": 28.6135819, "lon": 77.0869799}, {"type": "node", "id": 12905881408, "lat": 28.6136028, "lon": 77.0867009}, {"type": "node", "id": 12905881409, "lat": 28.6131348, "lon": 77.0864898}, {"type": "node", "id": 12905881410, "lat": 28.6129717, "lon": 77.0868517}, {"type": "node", "id": 12905881411, "lat": 28.6133613, "lon": 77.0864505}, {"type": "node", "id": 12905881412, "lat": 28.6136175, "lon": 77.0868223}, {"type": "node", "id": 12905881413, "lat": 28.6136077, "lon": 77.0867206}, {"type": "node", "id": 12905881414, "lat": 28.6131194, "lon": 77.0865003}, {"type": "node", "id": 12905881415, "lat": 28.6129778, "lon": 77.0867294}, {"type": "node", "id": 12905881416, "lat": 28.6129718, "lon": 77.0867698}, {"type": "node", "id": 12905881417, "lat": 28.6136166, "lon": 77.0867813}, {"type": "node", "id": 12905881418, "lat": 28.6135732, "lon": 77.0869979}, {"type": "node", "id": 12905881419, "lat": 28.6129697, "lon": 77.0868107}, {"type": "node", "id": 12905881420, "lat": 28.6129741, "lon": 77.086872}, {"type": "node", "id": 12905881421, "lat": 28.6136074, "lon": 77.0869034}, {"type": "node", "id": 12905881422, "lat": 28.6132349, "lon": 77.0871743}, {"type": "node", "id": 12905881423, "lat": 28.6130182, "lon": 77.0870056}, {"type": "node", "id": 12905881424, "lat": 28.6129823, "lon": 77.0867095}, {"type": "node", "id": 12905881425, "lat": 28.6129942, "lon": 77.0866708}, {"type": "node", "id": 12905881426, "lat": 28.6131661, "lon": 77.0871506}, {"type": "node", "id": 12905881427, "lat": 28.6135965, "lon": 77.0869425}, {"type": "node", "id": 12905881428, "lat": 28.6135302, "lon": 77.0870636}, {"type": "node", "id": 12905881429, "lat": 28.6134604, "lon": 77.0871278}, {"type": "node", "id": 12905881430, "lat": 28.6130396, "lon": 77.0865825}, {"type": "node", "id": 12905881431, "lat": 28.6135969, "lon": 77.0866815}, {"type": "node", "id": 12905881432, "lat": 28.6131497, "lon": 77.087142}, {"type": "node", "id": 12905881433, "lat": 28.6135533, "lon": 77.0870321}, {"type": "node", "id": 12905881434, "lat": 28.6130893, "lon": 77.0870977}, {"type": "node", "id": 12905881435, "lat": 28.6129938, "lon": 77.0869508}, {"type": "node", "id": 12905881436, "lat": 28.6129759, "lon": 77.0868831}, {"type": "node", "id": 12905881437, "lat": 28.6136025, "lon": 77.0869231}, {"type": "node", "id": 12905881438, "lat": 28.6133961, "lon": 77.0864612}, {"type": "node", "id": 12905881439, "lat": 28.613531, "lon": 77.0865601}, {"type": "node", "id": 12905881440, "lat": 28.6135429, "lon": 77.0865755}, {"type": "node", "id": 12905881441, "lat": 28.6129878, "lon": 77.0866899}, {"type": "node", "id": 12905881442, "lat": 28.6135897, "lon": 77.0869614}, {"type": "node", "id": 12905881443, "lat": 28.6134457, "lon": 77.0864855}, {"type": "node", "id": 12905881444, "lat": 28.613505, "lon": 77.0865317}, {"type": "node", "id": 12905881445, "lat": 28.613236, "lon": 77.0864482}, {"type": "node", "id": 12905881447, "lat": 28.6130288, "lon": 77.086599}, {"type": "node", "id": 12905881448, "lat": 28.6133777, "lon": 77.0871678}, {"type": "node", "id": 12905881449, "lat": 28.6135422, "lon": 77.0870482}, {"type": "node", "id": 12905881450, "lat": 28.6132527, "lon": 77.0871775}, {"type": "node", "id": 12905881451, "lat": 28.6130389, "lon": 77.0870392}, {"type": "node", "id": 12905881452, "lat": 28.6134902, "lon": 77.0871048}, {"type": "node", "id": 12905881453, "lat": 28.6130281, "lon": 77.0870228}, {"type": "node", "id": 12905881454, "lat": 28.6134756, "lon": 77.0871168}, {"type": "node", "id": 12905881455, "lat": 28.6132898, "lon": 77.0864424}, {"type": "node", "id": 12905881456, "lat": 28.6135824, "lon": 77.086644}, {"type": "node", "id": 12905881457, "lat": 28.6133078, "lon": 77.0864427}, {"type": "node", "id": 12905881458, "lat": 28.6133436, "lon": 77.0864468}, {"type": "node", "id": 12905881459, "lat": 28.6134295, "lon": 77.0864764}, {"type": "node", "id": 12905881460, "lat": 28.613201, "lon": 77.0864578}, {"type": "node", "id": 12905881461, "lat": 28.6129874, "lon": 77.0869316}, {"type": "node", "id": 12905881462, "lat": 28.6132706, "lon": 77.0871795}, {"type": "node", "id": 12905881463, "lat": 28.6134447, "lon": 77.0871379}, {"type": "node", "id": 12905881464, "lat": 28.6129703, "lon": 77.0867902}, {"type": "node", "id": 12905881465, "lat": 28.6134613, "lon": 77.0864956}, {"type": "node", "id": 12905881466, "lat": 28.6132886, "lon": 77.0871804}, {"type": "node", "id": 12905881467, "lat": 28.6133425, "lon": 77.0871762}, {"type": "node", "id": 12905881468, "lat": 28.6130092, "lon": 77.0869879}, {"type": "node", "id": 12905881469, "lat": 28.6130626, "lon": 77.0870701}, {"type": "node", "id": 12905881470, "lat": 28.6135175, "lon": 77.0870782}, {"type": "node", "id": 12905881471, "lat": 28.6133788, "lon": 77.0864553}, {"type": "node", "id": 12905881472, "lat": 28.6133257, "lon": 77.0864442}, {"type": "node", "id": 12905881473, "lat": 28.6132173, "lon": 77.08717}, {"type": "node", "id": 12905881474, "lat": 28.6131338, "lon": 77.0871324}, {"type": "node", "id": 12905881475, "lat": 28.6130015, "lon": 77.086652}, {"type": "node", "id": 2303438791, "lat": 28.6214196, "lon": 77.0704375}, {"type": "node", "id": 2303484268, "lat": 28.6218743, "lon": 77.070736}, {"type": "node", "id": 2303486705, "lat": 28.6218139, "lon": 77.0708553}, {"type": "node", "id": 2303486709, "lat": 28.6226927, "lon": 77.0715488}, {"type": "node", "id": 2303619306, "lat": 28.6217136, "lon": 77.0713316}, {"type": "node", "id": 2303619316, "lat": 28.6224797, "lon": 77.071913}, {"type": "node", "id": 2303619326, "lat": 28.6215837, "lon": 77.0713106}, {"type": "node", "id": 2303619343, "lat": 28.6227825, "lon": 77.0716388}, {"type": "node", "id": 2303619345, "lat": 28.621129, "lon": 77.0710122}, {"type": "node", "id": 2303619350, "lat": 28.6225753, "lon": 77.0719948}, {"type": "node", "id": 2303619359, "lat": 28.6219267, "lon": 77.0709673}, {"type": "node", "id": 2657503532, "lat": 28.622284, "lon": 77.0759367}, {"type": "node", "id": 2657503545, "lat": 28.6219732, "lon": 77.075455}, {"type": "node", "id": 2657503556, "lat": 28.6220109, "lon": 77.0747672}, {"type": "node", "id": 3773126870, "lat": 28.621529, "lon": 77.0741103}, {"type": "node", "id": 3773126872, "lat": 28.6215762, "lon": 77.0734195}, {"type": "node", "id": 3773126876, "lat": 28.6215966, "lon": 77.0739726}, {"type": "node", "id": 3773126883, "lat": 28.6217514, "lon": 77.0755553}, {"type": "node", "id": 3773126884, "lat": 28.6217928, "lon": 77.0756212}, {"type": "node", "id": 3773126885, "lat": 28.621818, "lon": 77.0756742}, {"type": "node", "id": 3773126886, "lat": 28.6218304, "lon": 77.0735745}, {"type": "node", "id": 3773126892, "lat": 28.6218878, "lon": 77.0734417}, {"type": "node", "id": 3773126896, "lat": 28.6219312, "lon": 77.0762042}, {"type": "node", "id": 3773126902, "lat": 28.622082, "lon": 77.0761727}, {"type": "node", "id": 3773126903, "lat": 28.6220946, "lon": 77.0732976}, {"type": "node", "id": 3773126906, "lat": 28.6221248, "lon": 77.0759922}, {"type": "node", "id": 3773126909, "lat": 28.6221399, "lon": 77.0761197}, {"type": "node", "id": 3773126916, "lat": 28.622187, "lon": 77.0728658}, {"type": "node", "id": 3773126921, "lat": 28.6222884, "lon": 77.0729381}, {"type": "node", "id": 3773126924, "lat": 28.6224263, "lon": 77.0735144}, {"type": "node", "id": 3773126932, "lat": 28.6225987, "lon": 77.0731781}, {"type": "node", "id": 3773127967, "lat": 28.6203014, "lon": 77.0755288}, {"type": "node", "id": 3773127973, "lat": 28.6205667, "lon": 77.0749588}, {"type": "node", "id": 3773127982, "lat": 28.620854, "lon": 77.0758626}, {"type": "node", "id": 3773127985, "lat": 28.6209397, "lon": 77.0728916}, {"type": "node", "id": 3773127991, "lat": 28.6211193, "lon": 77.0752927}, {"type": "node", "id": 3773127994, "lat": 28.6211405, "lon": 77.0743686}, {"type": "node", "id": 3773127995, "lat": 28.6211579, "lon": 77.0759951}, {"type": "node", "id": 3773127998, "lat": 28.6212717, "lon": 77.0722456}, {"type": "node", "id": 3773128001, "lat": 28.6213192, "lon": 77.0739797}, {"type": "node", "id": 3773128002, "lat": 28.6213237, "lon": 77.0744689}, {"type": "node", "id": 3773128003, "lat": 28.6213691, "lon": 77.0760495}, {"type": "node", "id": 3773128004, "lat": 28.6213752, "lon": 77.0738541}, {"type": "node", "id": 3773128005, "lat": 28.6213842, "lon": 77.0755037}, {"type": "node", "id": 2657503546, "lat": 28.6226607, "lon": 77.0769666}, {"type": "node", "id": 3773126866, "lat": 28.6214943, "lon": 77.0787126}, {"type": "node", "id": 3773126868, "lat": 28.6215091, "lon": 77.0792624}, {"type": "node", "id": 3773126887, "lat": 28.6218348, "lon": 77.078664}, {"type": "node", "id": 3773126893, "lat": 28.6218962, "lon": 77.0783986}, {"type": "node", "id": 3773126894, "lat": 28.621914, "lon": 77.0814535}, {"type": "node", "id": 3773126897, "lat": 28.6219359, "lon": 77.0789525}, {"type": "node", "id": 3773126910, "lat": 28.6221443, "lon": 77.0783784}, {"type": "node", "id": 3773126914, "lat": 28.6221789, "lon": 77.0820004}, {"type": "node", "id": 3773126915, "lat": 28.6221795, "lon": 77.0806643}, {"type": "node", "id": 3773126918, "lat": 28.6222257, "lon": 77.0792523}, {"type": "node", "id": 3773126920, "lat": 28.6222714, "lon": 77.0813603}, {"type": "node", "id": 3773126923, "lat": 28.6223994, "lon": 77.0791876}, {"type": "node", "id": 3773126933, "lat": 28.6226342, "lon": 77.078823}, {"type": "node", "id": 3773126935, "lat": 28.6226822, "lon": 77.0813056}, {"type": "node", "id": 3773126936, "lat": 28.6227124, "lon": 77.0807748}, {"type": "node", "id": 3773126939, "lat": 28.6227284, "lon": 77.0811678}, {"type": "node", "id": 3773127984, "lat": 28.6208791, "lon": 77.0793953}, {"type": "node", "id": 3773127986, "lat": 28.6209769, "lon": 77.0795432}, {"type": "node", "id": 3773127992, "lat": 28.6211244, "lon": 77.0781778}, {"type": "node", "id": 3773127996, "lat": 28.6211653, "lon": 77.0781393}, {"type": "node", "id": 3773127997, "lat": 28.6212703, "lon": 77.0790428}, {"type": "node", "id": 3773128006, "lat": 28.6213912, "lon": 77.079292}, {"type": "node", "id": 2303484263, "lat": 28.6271066, "lon": 77.0748849}, {"type": "node", "id": 2303486711, "lat": 28.6238144, "lon": 77.0724182}, {"type": "node", "id": 2303602332, "lat": 28.6239663, "lon": 77.0725329}, {"type": "node", "id": 2303619293, "lat": 28.6264648, "lon": 77.0743895}, {"type": "node", "id": 2303619295, "lat": 28.6248795, "lon": 77.0737349}, {"type": "node", "id": 2303619301, "lat": 28.6261299, "lon": 77.0747506}, {"type": "node", "id": 2303619302, "lat": 28.6232615, "lon": 77.0751936}, {"type": "node", "id": 2303619308, "lat": 28.6254694, "lon": 77.0736643}, {"type": "node", "id": 2303619310, "lat": 28.626832, "lon": 77.0753466}, {"type": "node", "id": 2303619311, "lat": 28.6252128, "lon": 77.0737739}, {"type": "node", "id": 2303619318, "lat": 28.6253339, "lon": 77.0735657}, {"type": "node", "id": 2303619339, "lat": 28.6263682, "lon": 77.0743374}, {"type": "node", "id": 2303619347, "lat": 28.625231, "lon": 77.0740775}, {"type": "node", "id": 2303619355, "lat": 28.6243552, "lon": 77.0760353}, {"type": "node", "id": 2303619356, "lat": 28.6249655, "lon": 77.0735871}, {"type": "node", "id": 2303619358, "lat": 28.6261902, "lon": 77.0748512}, {"type": "node", "id": 2304492055, "lat": 28.6292541, "lon": 77.0751706}, {"type": "node", "id": 2657503535, "lat": 28.6230563, "lon": 77.0766888}, {"type": "node", "id": 2657503553, "lat": 28.623094, "lon": 77.075529}, {"type": "node", "id": 2657503555, "lat": 28.6244836, "lon": 77.0761207}, {"type": "node", "id": 2682231526, "lat": 28.6291894, "lon": 77.071091}, {"type": "node", "id": 2682231531, "lat": 28.6294009, "lon": 77.0710984}, {"type": "node", "id": 2682231534, "lat": 28.6292017, "lon": 77.0706351}, {"type": "node", "id": 2682231590, "lat": 28.6294132, "lon": 77.0706425}, {"type": "node", "id": 3495289977, "lat": 28.6258924, "lon": 77.0707874}, {"type": "node", "id": 3495289978, "lat": 28.6261844, "lon": 77.0714928}, {"type": "node", "id": 3495289979, "lat": 28.6259701, "lon": 77.0716671}, {"type": "node", "id": 3495289980, "lat": 28.6257618, "lon": 77.0711937}, {"type": "node", "id": 3495289981, "lat": 28.6256664, "lon": 77.0708625}, {"type": "node", "id": 3495291260, "lat": 28.6265705, "lon": 77.0723752}, {"type": "node", "id": 3495291261, "lat": 28.6269284, "lon": 77.0732657}, {"type": "node", "id": 3495291262, "lat": 28.6267871, "lon": 77.0734696}, {"type": "node", "id": 3495291263, "lat": 28.6263633, "lon": 77.0731584}, {"type": "node", "id": 3495291264, "lat": 28.6263068, "lon": 77.072504}, {"type": "node", "id": 3495294225, "lat": 28.6250166, "lon": 77.0711736}, {"type": "node", "id": 3495294226, "lat": 28.625092, "lon": 77.0714096}, {"type": "node", "id": 3495295886, "lat": 28.6261444, "lon": 77.0726515}, {"type": "node", "id": 3495295887, "lat": 28.6261891, "lon": 77.0730753}, {"type": "node", "id": 3495295888, "lat": 28.6257206, "lon": 77.0730055}, {"type": "node", "id": 3495295889, "lat": 28.6256688, "lon": 77.0728902}, {"type": "node", "id": 7632653774, "lat": 28.6285343, "lon": 77.0722926}, {"type": "node", "id": 7632653775, "lat": 28.6281412, "lon": 77.0722792}, {"type": "node", "id": 7632653776, "lat": 28.6283837, "lon": 77.0729336}, {"type": "node", "id": 7632653777, "lat": 28.6285602, "lon": 77.0729497}, {"type": "node", "id": 7632653778, "lat": 28.6285602, "lon": 77.0722926}, {"type": "node", "id": 7632653780, "lat": 28.6279881, "lon": 77.0703614}, {"type": "node", "id": 7632653781, "lat": 28.6281577, "lon": 77.0707476}, {"type": "node", "id": 7632653782, "lat": 28.6284049, "lon": 77.0706243}, {"type": "node", "id": 2657503544, "lat": 28.6237532, "lon": 77.0775245}, {"type": "node", "id": 3773126944, "lat": 28.6228618, "lon": 77.0818019}, {"type": "node", "id": 3773126947, "lat": 28.6229192, "lon": 77.0797446}, {"type": "node", "id": 3773126948, "lat": 28.6229933, "lon": 77.0812853}, {"type": "node", "id": 3773126949, "lat": 28.6230271, "lon": 77.0811557}, {"type": "node", "id": 3773126952, "lat": 28.6231267, "lon": 77.0807728}, {"type": "node", "id": 3773126953, "lat": 28.6231504, "lon": 77.0806298}, {"type": "node", "id": 3773128060, "lat": 28.6232699, "lon": 77.080665}, {"type": "node", "id": 3773128064, "lat": 28.6233028, "lon": 77.0805373}, {"type": "node", "id": 3773128065, "lat": 28.6233193, "lon": 77.080014}, {"type": "node", "id": 3773128074, "lat": 28.6236992, "lon": 77.0808088}, {"type": "node", "id": 3773128075, "lat": 28.6237322, "lon": 77.0806811}, {"type": "node", "id": 7632653736, "lat": 28.6276119, "lon": 77.08118}, {"type": "node", "id": 7632653737, "lat": 28.6269103, "lon": 77.081475}, {"type": "node", "id": 7632653738, "lat": 28.6272588, "lon": 77.0833043}, {"type": "node", "id": 7632653739, "lat": 28.6272729, "lon": 77.0834331}, {"type": "node", "id": 7632653745, "lat": 28.6281393, "lon": 77.0828001}, {"type": "node", "id": 7632653746, "lat": 28.6278144, "lon": 77.0818988}, {"type": "node", "id": 7632653747, "lat": 28.6275884, "lon": 77.0810674}, {"type": "node", "id": 7632653749, "lat": 28.6269373, "lon": 77.0792163}, {"type": "node", "id": 7632653751, "lat": 28.6284453, "lon": 77.0779737}, {"type": "node", "id": 7632653752, "lat": 28.626642, "lon": 77.0789591}, {"type": "node", "id": 7632653753, "lat": 28.6267691, "lon": 77.0807294}, {"type": "node", "id": 7632653754, "lat": 28.6268962, "lon": 77.0814107}, {"type": "node", "id": 7632653755, "lat": 28.6272635, "lon": 77.0812229}, {"type": "node", "id": 9952749532, "lat": 28.6285913, "lon": 77.0783204}, {"type": "node", "id": 9952749533, "lat": 28.6264819, "lon": 77.0789699}, {"type": "node", "id": 9952749534, "lat": 28.625792, "lon": 77.0789109}, {"type": "node", "id": 9952749535, "lat": 28.6257556, "lon": 77.0790798}, {"type": "node", "id": 9952749536, "lat": 28.6260175, "lon": 77.0791321}, {"type": "node", "id": 9952749537, "lat": 28.626478, "lon": 77.0793085}, {"type": "node", "id": 9952749538, "lat": 28.6265059, "lon": 77.0793538}, {"type": "node", "id": 12676778620, "lat": 28.6285552, "lon": 77.0792775}, {"type": "node", "id": 12676778625, "lat": 28.6282478, "lon": 77.0784957}, {"type": "node", "id": 12716259418, "lat": 28.6285876, "lon": 77.0792605}, {"type": "node", "id": 12716259420, "lat": 28.6292593, "lon": 77.0789081}, {"type": "node", "id": 2302369925, "lat": 28.6219847, "lon": 77.0879621}, {"type": "node", "id": 2302369929, "lat": 28.6217745, "lon": 77.0899523}, {"type": "node", "id": 2302372212, "lat": 28.6195205, "lon": 77.0876797}, {"type": "node", "id": 2302372213, "lat": 28.6195249, "lon": 77.0870604}, {"type": "node", "id": 2302372214, "lat": 28.6202973, "lon": 77.0870682}, {"type": "node", "id": 2302372215, "lat": 28.6202755, "lon": 77.0875566}, {"type": "node", "id": 2302372216, "lat": 28.6202609, "lon": 77.0878626}, {"type": "node", "id": 2302372217, "lat": 28.6198311, "lon": 77.0878594}, {"type": "node", "id": 2302372218, "lat": 28.6198323, "lon": 77.0876826}, {"type": "node", "id": 2302373503, "lat": 28.6169601, "lon": 77.085114}, {"type": "node", "id": 2302373504, "lat": 28.6164737, "lon": 77.0858447}, {"type": "node", "id": 2302373516, "lat": 28.6163127, "lon": 77.0851551}, {"type": "node", "id": 2302373517, "lat": 28.6165595, "lon": 77.0851653}, {"type": "node", "id": 2302375586, "lat": 28.6193182, "lon": 77.0870593}, {"type": "node", "id": 2302375587, "lat": 28.6182918, "lon": 77.0870727}, {"type": "node", "id": 2302375588, "lat": 28.6182872, "lon": 77.0866194}, {"type": "node", "id": 2302375589, "lat": 28.6175366, "lon": 77.0866291}, {"type": "node", "id": 2302375590, "lat": 28.6175325, "lon": 77.0862149}, {"type": "node", "id": 2303657068, "lat": 28.6164726, "lon": 77.0858523}, {"type": "node", "id": 2303661767, "lat": 28.6181879, "lon": 77.0873089}, {"type": "node", "id": 2303661770, "lat": 28.618129, "lon": 77.0883888}, {"type": "node", "id": 2303661783, "lat": 28.6193369, "lon": 77.0873089}, {"type": "node", "id": 2303712116, "lat": 28.6174062, "lon": 77.0857639}, {"type": "node", "id": 2303712123, "lat": 28.616688, "lon": 77.0879167}, {"type": "node", "id": 2303712126, "lat": 28.6173685, "lon": 77.088135}, {"type": "node", "id": 9936590381, "lat": 28.616963, "lon": 77.0854102}, {"type": "node", "id": 9936590382, "lat": 28.6165866, "lon": 77.0853092}, {"type": "node", "id": 2302369931, "lat": 28.6217417, "lon": 77.0906406}, {"type": "node", "id": 2302369933, "lat": 28.6220372, "lon": 77.0921819}, {"type": "node", "id": 2302369935, "lat": 28.6221423, "lon": 77.0926009}, {"type": "node", "id": 2302369937, "lat": 28.6222474, "lon": 77.0926608}, {"type": "node", "id": 2302369924, "lat": 28.6238105, "lon": 77.0878873}, {"type": "node", "id": 2304471344, "lat": 28.6240367, "lon": 77.0895176}, {"type": "node", "id": 7605226392, "lat": 28.6287653, "lon": 77.0889958}, {"type": "node", "id": 7605226393, "lat": 28.6280355, "lon": 77.0896235}, {"type": "node", "id": 7605226394, "lat": 28.6276306, "lon": 77.0899507}, {"type": "node", "id": 7605226407, "lat": 28.6293172, "lon": 77.0886224}, {"type": "node", "id": 7605226408, "lat": 28.6292772, "lon": 77.0885634}, {"type": "node", "id": 7605226409, "lat": 28.6289852, "lon": 77.0887994}, {"type": "node", "id": 7605226410, "lat": 28.6261619, "lon": 77.0892586}, {"type": "node", "id": 7605226417, "lat": 28.6259967, "lon": 77.0898367}, {"type": "node", "id": 7605226418, "lat": 28.6260485, "lon": 77.0895095}, {"type": "node", "id": 7605226419, "lat": 28.6264007, "lon": 77.0870009}, {"type": "node", "id": 7605226420, "lat": 28.6262559, "lon": 77.0871256}, {"type": "node", "id": 7605226421, "lat": 28.6263783, "lon": 77.0873094}, {"type": "node", "id": 7605226422, "lat": 28.626516, "lon": 77.0871779}, {"type": "node", "id": 7605226423, "lat": 28.6259463, "lon": 77.0864806}, {"type": "node", "id": 7605226424, "lat": 28.6258344, "lon": 77.0865758}, {"type": "node", "id": 7605226425, "lat": 28.6258686, "lon": 77.0866308}, {"type": "node", "id": 7605226426, "lat": 28.6257509, "lon": 77.0867233}, {"type": "node", "id": 7605226427, "lat": 28.6258439, "lon": 77.0868681}, {"type": "node", "id": 7605226428, "lat": 28.6260699, "lon": 77.0866522}, {"type": "node", "id": 7632653724, "lat": 28.6259564, "lon": 77.087895}, {"type": "node", "id": 7632653725, "lat": 28.6261282, "lon": 77.0881579}, {"type": "node", "id": 7632653726, "lat": 28.6258622, "lon": 77.0884207}, {"type": "node", "id": 7632653727, "lat": 28.625655, "lon": 77.0886836}, {"type": "node", "id": 7632653728, "lat": 28.6254996, "lon": 77.088992}, {"type": "node", "id": 7632653729, "lat": 28.6253866, "lon": 77.0893139}, {"type": "node", "id": 7632653730, "lat": 28.6253348, "lon": 77.0896626}, {"type": "node", "id": 7632653731, "lat": 28.6250758, "lon": 77.0893058}, {"type": "node", "id": 7632653732, "lat": 28.6248145, "lon": 77.0889411}, {"type": "node", "id": 7632653733, "lat": 28.6253113, "lon": 77.0885226}, {"type": "node", "id": 7632653734, "lat": 28.6257398, "lon": 77.0881203}, {"type": "node", "id": 7632653735, "lat": 28.6259022, "lon": 77.087946}, {"type": "node", "id": 7632653740, "lat": 28.627546, "lon": 77.0838622}, {"type": "node", "id": 7632653741, "lat": 28.6275931, "lon": 77.0840392}, {"type": "node", "id": 7632653742, "lat": 28.627772, "lon": 77.0843343}, {"type": "node", "id": 7632653743, "lat": 28.628483, "lon": 77.0837227}, {"type": "node", "id": 7632653744, "lat": 28.6285489, "lon": 77.0836369}, {"type": "node", "id": 2302369939, "lat": 28.6240272, "lon": 77.0921744}, {"type": "node", "id": 2302369942, "lat": 28.6243622, "lon": 77.0920622}, {"type": "node", "id": 2302369945, "lat": 28.6241126, "lon": 77.0900645}, {"type": "node", "id": 2304471347, "lat": 28.6242507, "lon": 77.09117}, {"type": "node", "id": 7605226395, "lat": 28.6280397, "lon": 77.0905878}, {"type": "node", "id": 7605226396, "lat": 28.6283411, "lon": 77.0904376}, {"type": "node", "id": 7605226397, "lat": 28.628633, "lon": 77.0903075}, {"type": "node", "id": 7605226398, "lat": 28.6291006, "lon": 77.09006}, {"type": "node", "id": 7605226411, "lat": 28.6268635, "lon": 77.0903261}, {"type": "node", "id": 7605226412, "lat": 28.6269761, "lon": 77.0904724}, {"type": "node", "id": 7605226413, "lat": 28.6268913, "lon": 77.0905824}, {"type": "node", "id": 7605226414, "lat": 28.6264605, "lon": 77.0906843}, {"type": "node", "id": 7605226415, "lat": 28.6260367, "lon": 77.0907353}, {"type": "node", "id": 7605226416, "lat": 28.6259755, "lon": 77.0901505}, {"type": "node", "id": 1668745705, "lat": 28.6315002, "lon": 77.0732157}, {"type": "node", "id": 1668745706, "lat": 28.6320106, "lon": 77.0747226}, {"type": "node", "id": 2207933828, "lat": 28.635851, "lon": 77.0707687}, {"type": "node", "id": 2304492064, "lat": 28.6296776, "lon": 77.0751333}, {"type": "node", "id": 2304492065, "lat": 28.6312875, "lon": 77.0752452}, {"type": "node", "id": 2304531252, "lat": 28.6296449, "lon": 77.0758787}, {"type": "node", "id": 2304531255, "lat": 28.6307724, "lon": 77.0751146}, {"type": "node", "id": 2304531256, "lat": 28.6312903, "lon": 77.0751312}, {"type": "node", "id": 2304531257, "lat": 28.6294942, "lon": 77.0757982}, {"type": "node", "id": 2304531258, "lat": 28.6303888, "lon": 77.076678}, {"type": "node", "id": 2304531260, "lat": 28.6307613, "lon": 77.0755619}, {"type": "node", "id": 2304531262, "lat": 28.629852, "lon": 77.0766297}, {"type": "node", "id": 2304531263, "lat": 28.6312793, "lon": 77.0755785}, {"type": "node", "id": 2304709440, "lat": 28.6299509, "lon": 77.0758143}, {"type": "node", "id": 2304709445, "lat": 28.6304029, "lon": 77.0760128}, {"type": "node", "id": 2304709460, "lat": 28.6299509, "lon": 77.0759645}, {"type": "node", "id": 2304709465, "lat": 28.6304077, "lon": 77.0758304}, {"type": "node", "id": 2682231528, "lat": 28.6315629, "lon": 77.0708097}, {"type": "node", "id": 2682231567, "lat": 28.6307794, "lon": 77.0707977}, {"type": "node", "id": 2682257703, "lat": 28.6315214, "lon": 77.0738552}, {"type": "node", "id": 2682304240, "lat": 28.6353419, "lon": 77.0707268}, {"type": "node", "id": 7632655885, "lat": 28.6297539, "lon": 77.0704445}, {"type": "node", "id": 7632655886, "lat": 28.6301541, "lon": 77.0704499}, {"type": "node", "id": 7890219979, "lat": 28.6348934, "lon": 77.0715106}, {"type": "node", "id": 7890219980, "lat": 28.6344553, "lon": 77.0714819}, {"type": "node", "id": 7890219981, "lat": 28.6344405, "lon": 77.071678}, {"type": "node", "id": 7890219982, "lat": 28.6348726, "lon": 77.0717048}, {"type": "node", "id": 7890278068, "lat": 28.6344302, "lon": 77.0707989}, {"type": "node", "id": 7890278069, "lat": 28.6341856, "lon": 77.0707938}, {"type": "node", "id": 7890278070, "lat": 28.6341075, "lon": 77.0720925}, {"type": "node", "id": 7890278071, "lat": 28.6343552, "lon": 77.0721012}, {"type": "node", "id": 7890299244, "lat": 28.6350982, "lon": 77.0722352}, {"type": "node", "id": 7890299245, "lat": 28.633349, "lon": 77.0721439}, {"type": "node", "id": 7890299246, "lat": 28.6332672, "lon": 77.0732258}, {"type": "node", "id": 7890299247, "lat": 28.6350198, "lon": 77.0733773}, {"type": "node", "id": 11568584347, "lat": 28.6356529, "lon": 77.075069}, {"type": "node", "id": 12945125886, "lat": 28.6333849, "lon": 77.074803}, {"type": "node", "id": 12945125892, "lat": 28.6339589, "lon": 77.0748631}, {"type": "node", "id": 1668703464, "lat": 28.6303188, "lon": 77.0773035}, {"type": "node", "id": 1668703465, "lat": 28.6301644, "lon": 77.0778355}, {"type": "node", "id": 1668703466, "lat": 28.6303323, "lon": 77.0777613}, {"type": "node", "id": 1668703467, "lat": 28.6317336, "lon": 77.0779473}, {"type": "node", "id": 1668703468, "lat": 28.6317208, "lon": 77.0773269}, {"type": "node", "id": 1668703469, "lat": 28.6304, "lon": 77.0786142}, {"type": "node", "id": 1668713320, "lat": 28.6341727, "lon": 77.0782758}, {"type": "node", "id": 1668720160, "lat": 28.6351525, "lon": 77.0802379}, {"type": "node", "id": 1668720162, "lat": 28.6353594, "lon": 77.0785735}, {"type": "node", "id": 1668728181, "lat": 28.6334659, "lon": 77.0781393}, {"type": "node", "id": 1668761275, "lat": 28.6294158, "lon": 77.0779045}, {"type": "node", "id": 1668762871, "lat": 28.6345065, "lon": 77.0802503}, {"type": "node", "id": 1668762884, "lat": 28.6346185, "lon": 77.0790704}, {"type": "node", "id": 1668762885, "lat": 28.6338483, "lon": 77.0789805}, {"type": "node", "id": 2304491037, "lat": 28.635446, "lon": 77.0784523}, {"type": "node", "id": 2304491038, "lat": 28.6359037, "lon": 77.0786515}, {"type": "node", "id": 2304492056, "lat": 28.6300022, "lon": 77.0770594}, {"type": "node", "id": 2304492061, "lat": 28.6301063, "lon": 77.0773056}, {"type": "node", "id": 2304531253, "lat": 28.630384, "lon": 77.077304}, {"type": "node", "id": 2565024413, "lat": 28.6294908, "lon": 77.0780974}, {"type": "node", "id": 2690755765, "lat": 28.6339309, "lon": 77.0783348}, {"type": "node", "id": 2690755767, "lat": 28.6334556, "lon": 77.0782342}, {"type": "node", "id": 2690755772, "lat": 28.6359211, "lon": 77.0785105}, {"type": "node", "id": 2690755775, "lat": 28.6338567, "lon": 77.0781693}, {"type": "node", "id": 2690755776, "lat": 28.6348655, "lon": 77.0802228}, {"type": "node", "id": 7605226386, "lat": 28.6301346, "lon": 77.0834412}, {"type": "node", "id": 7605226387, "lat": 28.6306572, "lon": 77.0830978}, {"type": "node", "id": 11029672489, "lat": 28.6296409, "lon": 77.0784729}, {"type": "node", "id": 12676778624, "lat": 28.6297192, "lon": 77.0786668}, {"type": "node", "id": 12716220004, "lat": 28.6302297, "lon": 77.0780268}, {"type": "node", "id": 12716220008, "lat": 28.6304231, "lon": 77.0773045}, {"type": "node", "id": 12716220017, "lat": 28.6317059, "lon": 77.0779612}, {"type": "node", "id": 12716220025, "lat": 28.6302913, "lon": 77.078508}, {"type": "node", "id": 12716220033, "lat": 28.6303465, "lon": 77.0786412}, {"type": "node", "id": 12716220036, "lat": 28.6303048, "lon": 77.0782467}, {"type": "node", "id": 1668745708, "lat": 28.6384456, "lon": 77.0738501}, {"type": "node", "id": 1668745711, "lat": 28.6384289, "lon": 77.0754103}, {"type": "node", "id": 2682233959, "lat": 28.6395424, "lon": 77.0726184}, {"type": "node", "id": 2682233964, "lat": 28.6400306, "lon": 77.0708457}, {"type": "node", "id": 2682234000, "lat": 28.6394233, "lon": 77.0713392}, {"type": "node", "id": 2682257707, "lat": 28.6387453, "lon": 77.0725409}, {"type": "node", "id": 2682257715, "lat": 28.6374258, "lon": 77.0752845}, {"type": "node", "id": 2682278255, "lat": 28.6420704, "lon": 77.0756702}, {"type": "node", "id": 2682278257, "lat": 28.6421163, "lon": 77.0737905}, {"type": "node", "id": 2682278259, "lat": 28.6387029, "lon": 77.0736835}, {"type": "node", "id": 2682278260, "lat": 28.6403246, "lon": 77.0737497}, {"type": "node", "id": 2682278265, "lat": 28.6418717, "lon": 77.0756611}, {"type": "node", "id": 2682304263, "lat": 28.6390843, "lon": 77.0716126}, {"type": "node", "id": 2692185189, "lat": 28.6409642, "lon": 77.0745452}, {"type": "node", "id": 2692185190, "lat": 28.6415424, "lon": 77.0761251}, {"type": "node", "id": 2692185196, "lat": 28.6416068, "lon": 77.0745555}, {"type": "node", "id": 2692185207, "lat": 28.6408475, "lon": 77.0765523}, {"type": "node", "id": 2692185213, "lat": 28.6410546, "lon": 77.0765523}, {"type": "node", "id": 2692185215, "lat": 28.6416017, "lon": 77.0749657}, {"type": "node", "id": 2692185218, "lat": 28.6410546, "lon": 77.0762036}, {"type": "node", "id": 2692185224, "lat": 28.6415527, "lon": 77.07564}, {"type": "node", "id": 2692185231, "lat": 28.6418068, "lon": 77.075647}, {"type": "node", "id": 2692185233, "lat": 28.6409591, "lon": 77.0749554}, {"type": "node", "id": 2692185234, "lat": 28.6408569, "lon": 77.076209}, {"type": "node", "id": 2692185247, "lat": 28.6417965, "lon": 77.0761322}, {"type": "node", "id": 11568723377, "lat": 28.6372889, "lon": 77.0752751}, {"type": "node", "id": 1668718496, "lat": 28.638445, "lon": 77.07992}, {"type": "node", "id": 2207923242, "lat": 28.6365616, "lon": 77.0800279}, {"type": "node", "id": 2207933830, "lat": 28.6367417, "lon": 77.080298}, {"type": "node", "id": 2207933833, "lat": 28.6366897, "lon": 77.0805684}, {"type": "node", "id": 2682265150, "lat": 28.6422924, "lon": 77.0794493}, {"type": "node", "id": 2682278283, "lat": 28.6418394, "lon": 77.0775872}, {"type": "node", "id": 2690755761, "lat": 28.6371978, "lon": 77.0801246}, {"type": "node", "id": 2690755762, "lat": 28.6372523, "lon": 77.0798559}, {"type": "node", "id": 2690755763, "lat": 28.6371396, "lon": 77.0803596}, {"type": "node", "id": 2690755764, "lat": 28.6365908, "lon": 77.0798586}, {"type": "node", "id": 2690755768, "lat": 28.637782, "lon": 77.0796682}, {"type": "node", "id": 2690755769, "lat": 28.63681, "lon": 77.0803409}, {"type": "node", "id": 2690755770, "lat": 28.6384484, "lon": 77.0797326}, {"type": "node", "id": 2690755771, "lat": 28.6375301, "lon": 77.0794858}, {"type": "node", "id": 2690755773, "lat": 28.6368427, "lon": 77.0797915}, {"type": "node", "id": 2690755774, "lat": 28.6377938, "lon": 77.0795233}, {"type": "node", "id": 2690755777, "lat": 28.6366426, "lon": 77.0798666}, {"type": "node", "id": 2690755778, "lat": 28.6366473, "lon": 77.0799256}, {"type": "node", "id": 2690755779, "lat": 28.6372335, "lon": 77.0800222}, {"type": "node", "id": 2690755780, "lat": 28.6368333, "lon": 77.0799283}, {"type": "node", "id": 2690755781, "lat": 28.6374922, "lon": 77.0799287}, {"type": "node", "id": 2690755782, "lat": 28.6367744, "lon": 77.0805855}, {"type": "node", "id": 2690761547, "lat": 28.6372474, "lon": 77.0777554}, {"type": "node", "id": 2690761548, "lat": 28.6374141, "lon": 77.0784942}, {"type": "node", "id": 2690761549, "lat": 28.6382244, "lon": 77.0778659}, {"type": "node", "id": 2690761552, "lat": 28.6373506, "lon": 77.0775845}, {"type": "node", "id": 2690761553, "lat": 28.6369158, "lon": 77.0793199}, {"type": "node", "id": 2690761555, "lat": 28.6382542, "lon": 77.0774294}, {"type": "node", "id": 2690761558, "lat": 28.6371753, "lon": 77.0784668}, {"type": "node", "id": 2690761559, "lat": 28.6379183, "lon": 77.0778388}, {"type": "node", "id": 2690761561, "lat": 28.6372823, "lon": 77.0793622}, {"type": "node", "id": 2690761562, "lat": 28.6378418, "lon": 77.0794329}, {"type": "node", "id": 2690761563, "lat": 28.6369422, "lon": 77.0790215}, {"type": "node", "id": 2690761564, "lat": 28.6372663, "lon": 77.0775732}, {"type": "node", "id": 2690761565, "lat": 28.6378128, "lon": 77.0790543}, {"type": "node", "id": 2690761566, "lat": 28.6374892, "lon": 77.0776949}, {"type": "node", "id": 2690761567, "lat": 28.6381911, "lon": 77.0785748}, {"type": "node", "id": 2690761569, "lat": 28.638199, "lon": 77.0794798}, {"type": "node", "id": 2690761570, "lat": 28.6382284, "lon": 77.0791897}, {"type": "node", "id": 2690761571, "lat": 28.6375842, "lon": 77.0789266}, {"type": "node", "id": 2690761572, "lat": 28.6372003, "lon": 77.0782173}, {"type": "node", "id": 2690761573, "lat": 28.6368577, "lon": 77.0784256}, {"type": "node", "id": 2690761574, "lat": 28.637933, "lon": 77.0776236}, {"type": "node", "id": 2690761575, "lat": 28.6369627, "lon": 77.0777172}, {"type": "node", "id": 2690761576, "lat": 28.6376891, "lon": 77.0777192}, {"type": "node", "id": 2690761577, "lat": 28.6370079, "lon": 77.0772805}, {"type": "node", "id": 2690761580, "lat": 28.6378567, "lon": 77.0773941}, {"type": "node", "id": 2690761582, "lat": 28.6378416, "lon": 77.0776155}, {"type": "node", "id": 2690761584, "lat": 28.637578, "lon": 77.0790372}, {"type": "node", "id": 2690761585, "lat": 28.637819, "lon": 77.0789437}, {"type": "node", "id": 2690761586, "lat": 28.637614, "lon": 77.0785186}, {"type": "node", "id": 2690761587, "lat": 28.6368826, "lon": 77.078176}, {"type": "node", "id": 2690761588, "lat": 28.6378712, "lon": 77.0791427}, {"type": "node", "id": 2690761589, "lat": 28.6382124, "lon": 77.0783247}, {"type": "node", "id": 2690761590, "lat": 28.6378741, "lon": 77.0782873}, {"type": "node", "id": 2690761591, "lat": 28.6378528, "lon": 77.0785374}, {"type": "node", "id": 2690761592, "lat": 28.6373088, "lon": 77.0790637}, {"type": "node", "id": 2690761593, "lat": 28.6373769, "lon": 77.07733}, {"type": "node", "id": 2692185199, "lat": 28.6418923, "lon": 77.0787093}, {"type": "node", "id": 2692185202, "lat": 28.6410567, "lon": 77.0773915}, {"type": "node", "id": 2692185220, "lat": 28.6424321, "lon": 77.0783893}, {"type": "node", "id": 2692185221, "lat": 28.6408495, "lon": 77.077387}, {"type": "node", "id": 2692185223, "lat": 28.640855, "lon": 77.0770601}, {"type": "node", "id": 2692185227, "lat": 28.6424313, "lon": 77.078711}, {"type": "node", "id": 2692185238, "lat": 28.6418931, "lon": 77.0783875}, {"type": "node", "id": 2692185245, "lat": 28.6410622, "lon": 77.0770646}, {"type": "node", "id": 9913750887, "lat": 28.636533, "lon": 77.080267}, {"type": "node", "id": 12946339980, "lat": 28.642284, "lon": 77.0801673}, {"type": "node", "id": 12946339991, "lat": 28.6422725, "lon": 77.081148}, {"type": "node", "id": 7605226372, "lat": 28.6310358, "lon": 77.0898396}, {"type": "node", "id": 7605226373, "lat": 28.6308098, "lon": 77.0899764}, {"type": "node", "id": 7605226376, "lat": 28.6319426, "lon": 77.0880009}, {"type": "node", "id": 7605226377, "lat": 28.6314624, "lon": 77.0883657}, {"type": "node", "id": 7605226378, "lat": 28.6309962, "lon": 77.0887466}, {"type": "node", "id": 7605226379, "lat": 28.631274, "lon": 77.0891596}, {"type": "node", "id": 7605226380, "lat": 28.6314153, "lon": 77.0894976}, {"type": "node", "id": 7605226381, "lat": 28.6320745, "lon": 77.0891864}, {"type": "node", "id": 7605226382, "lat": 28.6324653, "lon": 77.0889772}, {"type": "node", "id": 7605226383, "lat": 28.6322251, "lon": 77.0884193}, {"type": "node", "id": 7605226384, "lat": 28.6320603, "lon": 77.0881618}, {"type": "node", "id": 7605226385, "lat": 28.6296779, "lon": 77.0838274}, {"type": "node", "id": 7605226388, "lat": 28.6308361, "lon": 77.0835484}, {"type": "node", "id": 7605226389, "lat": 28.6310151, "lon": 77.0840366}, {"type": "node", "id": 7605226390, "lat": 28.630483, "lon": 77.0843692}, {"type": "node", "id": 7605226391, "lat": 28.6301675, "lon": 77.0845516}, {"type": "node", "id": 7605226399, "lat": 28.6295809, "lon": 77.0898079}, {"type": "node", "id": 7605226400, "lat": 28.6297668, "lon": 77.0896819}, {"type": "node", "id": 7605226404, "lat": 28.6301176, "lon": 77.089942}, {"type": "node", "id": 7605226405, "lat": 28.6299269, "lon": 77.0895933}, {"type": "node", "id": 7605226406, "lat": 28.6296232, "lon": 77.0891588}, {"type": "node", "id": 2304468471, "lat": 28.630337, "lon": 77.0909366}, {"type": "node", "id": 7605226374, "lat": 28.6309958, "lon": 77.0905451}, {"type": "node", "id": 7605226375, "lat": 28.6312241, "lon": 77.090411}, {"type": "node", "id": 7605226401, "lat": 28.6301788, "lon": 77.0905428}, {"type": "node", "id": 7605226402, "lat": 28.6305108, "lon": 77.0908352}, {"type": "node", "id": 7605226403, "lat": 28.6303978, "lon": 77.0905777}, {"type": "node", "id": 7635182537, "lat": 28.6402743, "lon": 77.0893787}, {"type": "node", "id": 7635182538, "lat": 28.6404132, "lon": 77.089502}, {"type": "node", "id": 7635182539, "lat": 28.6401236, "lon": 77.0899661}, {"type": "node", "id": 7635182540, "lat": 28.63998, "lon": 77.0898454}, {"type": "node", "id": 2687941995, "lat": 28.6429284, "lon": 77.0540915}, {"type": "node", "id": 2687942025, "lat": 28.6428604, "lon": 77.0540671}, {"type": "node", "id": 2687942038, "lat": 28.6435169, "lon": 77.054526}, {"type": "node", "id": 2687942051, "lat": 28.6435891, "lon": 77.0541094}, {"type": "node", "id": 2687942053, "lat": 28.6441822, "lon": 77.0541113}, {"type": "node", "id": 2687942073, "lat": 28.6435884, "lon": 77.0544017}, {"type": "node", "id": 2687942075, "lat": 28.6435169, "lon": 77.0540969}, {"type": "node", "id": 2687942098, "lat": 28.6429284, "lon": 77.0545207}, {"type": "node", "id": 2687942103, "lat": 28.6428599, "lon": 77.0542763}, {"type": "node", "id": 2687942115, "lat": 28.6441815, "lon": 77.0544036}, {"type": "node", "id": 2687945781, "lat": 28.6460356, "lon": 77.0536677}, {"type": "node", "id": 2687945783, "lat": 28.6460827, "lon": 77.0538179}, {"type": "node", "id": 2687945788, "lat": 28.6456307, "lon": 77.054231}, {"type": "node", "id": 2687945790, "lat": 28.6466053, "lon": 77.053201}, {"type": "node", "id": 2687945792, "lat": 28.6464781, "lon": 77.0531045}, {"type": "node", "id": 2687945794, "lat": 28.6465064, "lon": 77.053201}, {"type": "node", "id": 2687945796, "lat": 28.6460561, "lon": 77.0536889}, {"type": "node", "id": 2687945798, "lat": 28.6456025, "lon": 77.0541934}, {"type": "node", "id": 2687945799, "lat": 28.6460074, "lon": 77.0537053}, {"type": "node", "id": 2682191657, "lat": 28.6429966, "lon": 77.0701215}, {"type": "node", "id": 2682191662, "lat": 28.6437497, "lon": 77.0697233}, {"type": "node", "id": 2682191663, "lat": 28.6432132, "lon": 77.0702878}, {"type": "node", "id": 2682191665, "lat": 28.6441923, "lon": 77.0692272}, {"type": "node", "id": 2682191671, "lat": 28.643358, "lon": 77.0682655}, {"type": "node", "id": 2682191680, "lat": 28.6430115, "lon": 77.0678663}, {"type": "node", "id": 2682191682, "lat": 28.6428757, "lon": 77.069933}, {"type": "node", "id": 2682191692, "lat": 28.6429682, "lon": 77.0699816}, {"type": "node", "id": 2682191704, "lat": 28.6430986, "lon": 77.0699437}, {"type": "node", "id": 2682191711, "lat": 28.642846, "lon": 77.0680348}, {"type": "node", "id": 2682191713, "lat": 28.6436383, "lon": 77.0689679}, {"type": "node", "id": 2682191716, "lat": 28.6435103, "lon": 77.0694483}, {"type": "node", "id": 2682233970, "lat": 28.6427707, "lon": 77.0678685}, {"type": "node", "id": 2682233989, "lat": 28.6429122, "lon": 77.0677329}, {"type": "node", "id": 2642261346, "lat": 28.648915, "lon": 77.0743977}, {"type": "node", "id": 2642263493, "lat": 28.6469801, "lon": 77.0732336}, {"type": "node", "id": 2642263495, "lat": 28.6484574, "lon": 77.0742204}, {"type": "node", "id": 2642263498, "lat": 28.6480055, "lon": 77.0747032}, {"type": "node", "id": 2642263501, "lat": 28.6475686, "lon": 77.0741777}, {"type": "node", "id": 2642263502, "lat": 28.6476816, "lon": 77.0740275}, {"type": "node", "id": 2642263503, "lat": 28.6479678, "lon": 77.0738502}, {"type": "node", "id": 2642263504, "lat": 28.6476759, "lon": 77.0736464}, {"type": "node", "id": 2642263505, "lat": 28.6471439, "lon": 77.0730456}, {"type": "node", "id": 2642264942, "lat": 28.648222, "lon": 77.0746603}, {"type": "node", "id": 2642264946, "lat": 28.6486928, "lon": 77.0751752}, {"type": "node", "id": 2642264951, "lat": 28.647949, "lon": 77.0766075}, {"type": "node", "id": 2682191654, "lat": 28.6433403, "lon": 77.0711193}, {"type": "node", "id": 2682191667, "lat": 28.6490695, "lon": 77.0746813}, {"type": "node", "id": 2682191669, "lat": 28.6467441, "lon": 77.0707277}, {"type": "node", "id": 2682191673, "lat": 28.6439246, "lon": 77.070614}, {"type": "node", "id": 2682191686, "lat": 28.6433968, "lon": 77.0711193}, {"type": "node", "id": 2682191687, "lat": 28.6434486, "lon": 77.0711032}, {"type": "node", "id": 2682191688, "lat": 28.6431528, "lon": 77.0711074}, {"type": "node", "id": 2682191691, "lat": 28.6453654, "lon": 77.0719323}, {"type": "node", "id": 2682191693, "lat": 28.6490099, "lon": 77.074858}, {"type": "node", "id": 2682191698, "lat": 28.6466076, "lon": 77.070556}, {"type": "node", "id": 2682191699, "lat": 28.6447197, "lon": 77.0711676}, {"type": "node", "id": 2682191702, "lat": 28.6439947, "lon": 77.0707438}, {"type": "node", "id": 2682191710, "lat": 28.6441925, "lon": 77.0705346}, {"type": "node", "id": 2682191715, "lat": 28.6485516, "lon": 77.0742736}, {"type": "node", "id": 2682191717, "lat": 28.6480905, "lon": 77.0766178}, {"type": "node", "id": 2682191718, "lat": 28.645385, "lon": 77.0722777}, {"type": "node", "id": 2682278249, "lat": 28.6428366, "lon": 77.0738015}, {"type": "node", "id": 2682278251, "lat": 28.64288, "lon": 77.0729476}, {"type": "node", "id": 2682278258, "lat": 28.6428127, "lon": 77.0757164}, {"type": "node", "id": 2682278268, "lat": 28.642813, "lon": 77.0756898}, {"type": "node", "id": 2692176643, "lat": 28.6433898, "lon": 77.0712577}, {"type": "node", "id": 2692176646, "lat": 28.6445658, "lon": 77.0736584}, {"type": "node", "id": 2692176647, "lat": 28.643143, "lon": 77.071236}, {"type": "node", "id": 2692185191, "lat": 28.6438095, "lon": 77.0745291}, {"type": "node", "id": 2692185194, "lat": 28.6434554, "lon": 77.0766652}, {"type": "node", "id": 2692185195, "lat": 28.6441302, "lon": 77.0764652}, {"type": "node", "id": 2692185201, "lat": 28.6445248, "lon": 77.0756935}, {"type": "node", "id": 2692185203, "lat": 28.6454694, "lon": 77.0766264}, {"type": "node", "id": 2692185206, "lat": 28.643493, "lon": 77.0759628}, {"type": "node", "id": 2692185208, "lat": 28.6452072, "lon": 77.0746433}, {"type": "node", "id": 2692185211, "lat": 28.6454781, "lon": 77.0761945}, {"type": "node", "id": 2692185212, "lat": 28.6433999, "lon": 77.0756467}, {"type": "node", "id": 2692185214, "lat": 28.6435059, "lon": 77.0745386}, {"type": "node", "id": 2692185216, "lat": 28.6438211, "lon": 77.0766671}, {"type": "node", "id": 2692185217, "lat": 28.6450248, "lon": 77.0766148}, {"type": "node", "id": 2692185219, "lat": 28.643403, "lon": 77.0752983}, {"type": "node", "id": 2692185222, "lat": 28.6429975, "lon": 77.0756421}, {"type": "node", "id": 2692185225, "lat": 28.6430421, "lon": 77.0739004}, {"type": "node", "id": 2692185228, "lat": 28.6458399, "lon": 77.0750689}, {"type": "node", "id": 2692185229, "lat": 28.6435116, "lon": 77.0747774}, {"type": "node", "id": 2692185230, "lat": 28.6451996, "lon": 77.0750535}, {"type": "node", "id": 2692185232, "lat": 28.6430005, "lon": 77.0752938}, {"type": "node", "id": 2692185235, "lat": 28.6445597, "lon": 77.0737856}, {"type": "node", "id": 2692185236, "lat": 28.6434939, "lon": 77.0756891}, {"type": "node", "id": 2692185237, "lat": 28.6434562, "lon": 77.0764618}, {"type": "node", "id": 2692185239, "lat": 28.6438153, "lon": 77.0747679}, {"type": "node", "id": 2692185241, "lat": 28.6445239, "lon": 77.0759672}, {"type": "node", "id": 2692185242, "lat": 28.6458475, "lon": 77.0746588}, {"type": "node", "id": 2692185243, "lat": 28.6450335, "lon": 77.0761829}, {"type": "node", "id": 2692185244, "lat": 28.6445621, "lon": 77.0739164}, {"type": "node", "id": 7635226171, "lat": 28.6490464, "lon": 77.0753597}, {"type": "node", "id": 11149951288, "lat": 28.6433639, "lon": 77.0724822}, {"type": "node", "id": 11149951293, "lat": 28.6430552, "lon": 77.0724865}, {"type": "node", "id": 12942261469, "lat": 28.6430485, "lon": 77.0736301}, {"type": "node", "id": 12942261471, "lat": 28.6438494, "lon": 77.0736575}, {"type": "node", "id": 2682265151, "lat": 28.6434402, "lon": 77.0794802}, {"type": "node", "id": 2682265156, "lat": 28.6432567, "lon": 77.081015}, {"type": "node", "id": 2682265158, "lat": 28.643255, "lon": 77.0811629}, {"type": "node", "id": 2682265163, "lat": 28.6434304, "lon": 77.0810176}, {"type": "node", "id": 2682278275, "lat": 28.6453565, "lon": 77.078092}, {"type": "node", "id": 2682278276, "lat": 28.6427848, "lon": 77.0777444}, {"type": "node", "id": 2692185192, "lat": 28.6441284, "lon": 77.0769219}, {"type": "node", "id": 2692185193, "lat": 28.6446562, "lon": 77.0773248}, {"type": "node", "id": 2692185197, "lat": 28.644628, "lon": 77.0780007}, {"type": "node", "id": 2692185198, "lat": 28.646191, "lon": 77.0773785}, {"type": "node", "id": 2692185200, "lat": 28.6461723, "lon": 77.0781703}, {"type": "node", "id": 2692185240, "lat": 28.6438201, "lon": 77.0769203}, {"type": "node", "id": 7635226157, "lat": 28.648118, "lon": 77.0796541}, {"type": "node", "id": 7635226158, "lat": 28.6475861, "lon": 77.0796648}, {"type": "node", "id": 7635226159, "lat": 28.6471718, "lon": 77.0796702}, {"type": "node", "id": 7635226160, "lat": 28.6471435, "lon": 77.0811561}, {"type": "node", "id": 7635226161, "lat": 28.6471247, "lon": 77.0821807}, {"type": "node", "id": 7635226162, "lat": 28.6469882, "lon": 77.0827494}, {"type": "node", "id": 7635226163, "lat": 28.6467763, "lon": 77.0831624}, {"type": "node", "id": 7635226167, "lat": 28.6480521, "lon": 77.0827816}, {"type": "node", "id": 7635226168, "lat": 28.6480804, "lon": 77.081537}, {"type": "node", "id": 7635226169, "lat": 28.6480992, "lon": 77.0805392}, {"type": "node", "id": 12946339989, "lat": 28.6426496, "lon": 77.0811537}, {"type": "node", "id": 2642261344, "lat": 28.6494036, "lon": 77.0737698}, {"type": "node", "id": 2682191721, "lat": 28.6494901, "lon": 77.0738603}, {"type": "node", "id": 7635226170, "lat": 28.649875, "lon": 77.0737182}, {"type": "node", "id": 7635226172, "lat": 28.6505246, "lon": 77.0764755}, {"type": "node", "id": 7635226175, "lat": 28.6516827, "lon": 77.0763253}, {"type": "node", "id": 7635226176, "lat": 28.6516733, "lon": 77.0759927}, {"type": "node", "id": 7635226177, "lat": 28.6517674, "lon": 77.0755099}, {"type": "node", "id": 7635226173, "lat": 28.6514755, "lon": 77.0771085}, {"type": "node", "id": 7635226174, "lat": 28.6517392, "lon": 77.0770227}, {"type": "node", "id": 7635226153, "lat": 28.6460278, "lon": 77.0847396}, {"type": "node", "id": 7635226154, "lat": 28.6456653, "lon": 77.0854155}, {"type": "node", "id": 7635226155, "lat": 28.6465127, "lon": 77.0849756}, {"type": "node", "id": 7635226156, "lat": 28.6462632, "lon": 77.0848093}, {"type": "node", "id": 7635226164, "lat": 28.6462867, "lon": 77.0841227}, {"type": "node", "id": 7635226165, "lat": 28.6472848, "lon": 77.0844284}, {"type": "node", "id": 7635226166, "lat": 28.6480474, "lon": 77.0846537}, {"type": "node", "id": 2683718460, "lat": 28.6507886, "lon": 77.0878794}, {"type": "node", "id": 2683718461, "lat": 28.6517755, "lon": 77.0877869}, {"type": "node", "id": 2683718462, "lat": 28.6508269, "lon": 77.0870675}, {"type": "node", "id": 2962267426, "lat": 28.6499337, "lon": 77.0886872}, {"type": "node", "id": 2962267428, "lat": 28.6506109, "lon": 77.087872}, {"type": "node", "id": 2962267429, "lat": 28.6506206, "lon": 77.0872438}, {"type": "node", "id": 2962267430, "lat": 28.6506953, "lon": 77.089039}, {"type": "node", "id": 2962267432, "lat": 28.6508231, "lon": 77.0872465}, {"type": "node", "id": 11951524715, "lat": 28.6506355, "lon": 77.0890114}, {"type": "node", "id": 2683718455, "lat": 28.6506984, "lon": 77.091252}, {"type": "node", "id": 2683718464, "lat": 28.6497285, "lon": 77.0909984}, {"type": "node", "id": 2683718466, "lat": 28.65172, "lon": 77.0910213}]}