{"version": 0.6, "generator": "Overpass API 0.7.62.8 e802775f", "osm3s": {"timestamp_osm_base": "2025-11-22T14:26:00Z", "copyright": "The data included in this document is from www.openstreetmap.org. The data is made available under ODbL."}, "elements": [{"type": "node", "id": 613342452, "lat": 28.5565495, "lon": 77.1640135, "tags": {"name": "Jaypee Vasant Continental Hotel", "tourism": "hotel"}}, {"type": "node", "id": 1549833159, "lat": 28.5940756, "lon": 77.1621131, "tags": {"name": "DSUI", "tourism": "guest_house"}}, {"type": "node", "id": 2025440633, "lat": 28.5609535, "lon": 77.1598368, "tags": {"amenity": "marketplace", "name": "E Block Market"}}, {"type": "node", "id": 2429556253, "lat": 28.5575626, "lon": 77.1640349, "tags": {"amenity": "restaurant", "brand": "Pizza Hut", "brand:wikidata": "Q191615", "brand:wikipedia": "en:Pizza Hut", "contact:phone": "+91-11-3988-3988", "cuisine": "pizza", "name": "Pizza Hut", "wheelchair": "no"}}, {"type": "node", "id": 4296847910, "lat": 28.5653955, "lon": 77.1856936, "tags": {"addr:housename": "Jhandu Mansions", "addr:housenumber": "F-128", "email": "stay@jugaadhostels.com", "internet_access": "wlan", "internet_access:fee": "no", "name": "Jugaad Hostel", "payment:cash": "yes", "phone": "+91851000 1800", "smoking": "outside", "tourism": "hostel", "website": "https://www.jugaadhostels.com/", "wheelchair": "no"}}, {"type": "node", "id": 4448759791, "lat": 28.5809788, "lon": 77.1728889, "tags": {"addr:street": "B-173, Type-IV, South Moti Bagh , Nanakpura, New Delhi-110021", "name": "Vishagya's house", "tourism": "guest_house"}}, {"type": "node", "id": 4574939889, "lat": 28.5667942, "lon": 77.183788, "tags": {"tourism": "artwork"}}, {"type": "node", "id": 4574939890, "lat": 28.5676902, "lon": 77.1837101, "tags": {"tourism": "artwork"}}, {"type": "node", "id": 5170742146, "lat": 28.5818967, "lon": 77.1492702, "tags": {"addr:city": "New Delhi", "addr:postcode": "110010", "amenity": "restaurant", "cuisine": "indian"}}, {"type": "node", "id": 5374946041, "lat": 28.5559586, "lon": 77.175334, "tags": {"amenity": "cafe", "name": "SOS Cafe"}}, {"type": "node", "id": 5374946776, "lat": 28.5590342, "lon": 77.1709638, "tags": {"amenity": "restaurant", "cuisine": "indian", "name": "Aggarwal Sweets"}}, {"type": "node", "id": 5414224654, "lat": 28.5651736, "lon": 77.1672697, "tags": {"amenity": "restaurant", "cuisine": "mughlai", "name": "Alkauser"}}, {"type": "node", "id": 5603128546, "lat": 28.568831, "lon": 77.186991, "tags": {"amenity": "restaurant", "name:ja": "\uff9b\uff70\uff80\uff7d\uff65\uff76\uff9e\uff70\uff83\uff9e\uff9d"}}, {"type": "node", "id": 5783654364, "lat": 28.5651374, "lon": 77.1607594, "tags": {"addr:housenumber": "B-14", "addr:postcode": "110057", "addr:street": "Vasant Marg", "name": "J's Inn", "tourism": "hotel"}}, {"type": "node", "id": 5839456786, "lat": 28.5838774, "lon": 77.1888337, "tags": {"name": "\u0905\u0930\u0941\u0923\u093e\u091a\u0932 \u0939\u093e\u0909\u0938", "name:en": "Arunachal House", "name:ur": "\u0627\u0631\u0648\u0646\u0627\u0686\u0644 \u06c1\u0627\u0624\u0633", "tourism": "hotel"}}, {"type": "node", "id": 6262528243, "lat": 28.5722347, "lon": 77.1742795, "tags": {"historic": "memorial"}}, {"type": "node", "id": 6657822763, "lat": 28.5678415, "lon": 77.1890504, "tags": {"amenity": "restaurant", "cuisine": "indian", "internet_access": "wlan", "level": "0", "name": "Thali Wala", "phone": "+911149092764", "takeaway": "yes", "wheelchair": "yes"}}, {"type": "node", "id": 6657822766, "lat": 28.5673141, "lon": 77.1889333, "tags": {"amenity": "restaurant", "check_date:opening_hours": "2021-12-04", "delivery": "Mo-Su 10:30-23:00", "level": "0", "name": "Nirula's", "opening_hours": "Mo-Su 10:30-23:00", "phone": "18001025247", "takeaway": "yes", "website": "https://nirulas.com/"}}, {"type": "node", "id": 6760233482, "lat": 28.5877629, "lon": 77.1674682, "tags": {"amenity": "restaurant", "name": "Faculty of Food"}}, {"type": "node", "id": 6760297385, "lat": 28.587778, "lon": 77.1675315, "tags": {"amenity": "cafe", "name": "The Construction Company"}}, {"type": "node", "id": 6760297386, "lat": 28.5877769, "lon": 77.1673736, "tags": {"amenity": "restaurant", "branch": "South Campus", "cuisine": "italian", "diet:vegetarian": "yes", "level": "0", "name": "Big Yellow Door", "wheelchair": "no"}}, {"type": "node", "id": 6853682651, "lat": 28.5570095, "lon": 77.1641633, "tags": {"amenity": "cafe", "brand": "Barista", "brand:wikidata": "Q644735", "brand:wikipedia": "en:Barista (company)", "cuisine": "coffee_shop", "name": "Barista", "takeaway": "yes"}}, {"type": "node", "id": 6853682652, "lat": 28.5575828, "lon": 77.1640909, "tags": {"amenity": "cafe", "brand": "Costa", "brand:wikidata": "Q608845", "brand:wikipedia": "en:Costa Coffee", "cuisine": "coffee_shop", "name": "Costa", "takeaway": "yes"}}, {"type": "node", "id": 6853697496, "lat": 28.5578559, "lon": 77.1644557, "tags": {"amenity": "cafe", "brand": "Blue Tokai Coffee Roasters", "cuisine": "coffee_shop", "delivery": "yes", "name": "Blue Tokai Coffee Roasters", "takeaway": "yes"}}, {"type": "node", "id": 7041338185, "lat": 28.5689762, "lon": 77.1848546, "tags": {"amenity": "restaurant", "name": "La Piazza"}}, {"type": "node", "id": 7041370085, "lat": 28.5584754, "lon": 77.1638371, "tags": {"amenity": "restaurant", "name": "Leo\u2019s Artisan Pizza"}}, {"type": "node", "id": 7614053129, "lat": 28.5734854, "lon": 77.1539497, "tags": {"amenity": "cafe", "name": "Nor sure"}}, {"type": "node", "id": 7945646385, "lat": 28.5675349, "lon": 77.1581036, "tags": {"amenity": "cafe", "opening_hours": "Mo-Su 10:00-18:00"}}, {"type": "node", "id": 8173282417, "lat": 28.567572, "lon": 77.1583927, "tags": {"amenity": "cafe"}}, {"type": "node", "id": 9195213776, "lat": 28.5547625, "lon": 77.1732631, "tags": {"addr:housenumber": "60-A", "addr:street": "prateek market, Munirka", "amenity": "restaurant", "name": "Sarathi South Indian Family restaurant", "phone": "8860837177,8585991449"}}, {"type": "node", "id": 10685258368, "lat": 28.5572099, "lon": 77.1640827, "tags": {"amenity": "cafe", "name": "Suchali's"}}, {"type": "node", "id": 10734804876, "lat": 28.5603733, "lon": 77.1662206, "tags": {"name": "Bagh-e-Bahaar", "tourism": "information"}}, {"type": "node", "id": 10749806951, "lat": 28.5581849, "lon": 77.165195, "tags": {"name": "Bagh-e-Bahar", "tourism": "information"}}, {"type": "node", "id": 10749853588, "lat": 28.5572068, "lon": 77.1666338, "tags": {"name": "Amphitheatre Gulzar", "tourism": "information"}}, {"type": "node", "id": 10749937681, "lat": 28.5584807, "lon": 77.1665398, "tags": {"name": "Wells & water system", "tourism": "information"}}, {"type": "node", "id": 10749946154, "lat": 28.5576788, "lon": 77.1664806, "tags": {"name": "Naubagh", "tourism": "information"}}, {"type": "node", "id": 10770271851, "lat": 28.5585835, "lon": 77.1640835, "tags": {"amenity": "cafe", "brand": "Chaayos", "brand:wikidata": "Q117235235", "cuisine": "tea", "name": "Chaayos", "takeaway": "yes"}}, {"type": "node", "id": 10770438092, "lat": 28.5577024, "lon": 77.164777, "tags": {"amenity": "restaurant", "name": "Kiko-b\u0101"}}, {"type": "node", "id": 11010620855, "lat": 28.5796581, "lon": 77.1457837, "tags": {"historic": "aircraft"}}, {"type": "node", "id": 11010628962, "lat": 28.5795051, "lon": 77.1457591, "tags": {"historic": "aircraft"}}, {"type": "node", "id": 11687895257, "lat": 28.5708202, "lon": 77.1650802, "tags": {"leisure": "park", "name": "BADMINTON COURT"}}, {"type": "node", "id": 11813567110, "lat": 28.5884383, "lon": 77.1687482, "tags": {"amenity": "restaurant", "name": "Off Campus"}}, {"type": "node", "id": 11813590563, "lat": 28.5886052, "lon": 77.1690217, "tags": {"amenity": "restaurant", "check_date": "2024-04-13", "level": "0;1", "name": "QD All Day Diner", "wheelchair": "yes"}}, {"type": "node", "id": 11813597428, "lat": 28.5883016, "lon": 77.1685409, "tags": {"amenity": "restaurant", "brand": "Pizza Hut", "brand:wikidata": "Q191615", "check_date": "2024-07-23", "cuisine": "pizza", "internet_access": "no", "level": "0", "name": "Pizza Hut", "name:hi": "\u092a\u093f\u091c\u093c\u094d\u091c\u093c\u093e \u0939\u091f", "opening_hours": "11:00-23:00", "wheelchair": "no"}}, {"type": "node", "id": 11813613801, "lat": 28.588688, "lon": 77.1691745, "tags": {"amenity": "cafe", "check_date": "2024-04-13", "level": "0", "name": "Love Bite Cafe", "name:hi": "\u0932\u0935 \u092c\u093e\u0907\u091f \u0915\u0948\u092b\u093c\u0947", "wheelchair": "yes"}}, {"type": "node", "id": 11813620034, "lat": 28.588414, "lon": 77.1686436, "tags": {"amenity": "cafe", "level": "1", "name": "Igniter Cafe"}}, {"type": "node", "id": 11813623271, "lat": 28.5886031, "lon": 77.1689683, "tags": {"amenity": "cafe", "check_date": "2024-04-13", "level": "0", "name": "Caf\u00e9 69", "name:hi": "\u0915\u092b\u0947 \u096c\u096f"}}, {"type": "node", "id": 11813626426, "lat": 28.5887593, "lon": 77.169349, "tags": {"amenity": "restaurant", "check_date": "2024-04-13", "internet_access": "wlan", "internet_access:fee": "customers", "level": "0;1", "name": "Caf\u00e9 Sandoz", "name:hi": "\u0915\u0948\u092b\u093c\u0947 \u0938\u0947\u0948\u0902\u0921\u094b\u091c\u093c", "outdoor_seating": "yes", "payment:cash": "yes", "payment:credit_cards": "yes", "payment:debit_cards": "yes", "toilets": "yes", "wheelchair": "limited"}}, {"type": "node", "id": 11813632593, "lat": 28.5885827, "lon": 77.1690539, "tags": {"amenity": "cafe", "check_date": "2024-04-13", "name": "Ricos", "wheelchair": "no"}}, {"type": "node", "id": 11813632902, "lat": 28.5884966, "lon": 77.1688106, "tags": {"amenity": "cafe", "check_date": "2024-04-13", "level": "1", "name": "Awarapan Cafe"}}, {"type": "node", "id": 11813651719, "lat": 28.5884365, "lon": 77.1686906, "tags": {"amenity": "restaurant", "check_date": "2024-04-13", "level": "0", "name": "Wrap O Burger", "wheelchair": "yes"}}, {"type": "node", "id": 11813659682, "lat": 28.5881876, "lon": 77.1682611, "tags": {"amenity": "cafe", "check_date": "2024-04-13", "level": "0", "name": "Pandit Ji Partha Hut", "wheelchair": "no"}}, {"type": "node", "id": 11813666366, "lat": 28.5879768, "lon": 77.1688142, "tags": {"amenity": "cafe", "check_date": "2024-04-13", "name": "Immortal Gaming Cafe", "wheelchair": "no"}}, {"type": "node", "id": 11813667716, "lat": 28.587754, "lon": 77.1673336, "tags": {"amenity": "restaurant", "check_date": "2024-04-13", "name": "China Bowl"}}, {"type": "node", "id": 11813670868, "lat": 28.5877126, "lon": 77.1672986, "tags": {"amenity": "restaurant", "check_date": "2024-04-13", "name": "Brickyard"}}, {"type": "node", "id": 11813672561, "lat": 28.5879326, "lon": 77.1676506, "tags": {"amenity": "restaurant", "check_date": "2024-04-13", "name": "Hello! Canteen"}}, {"type": "node", "id": 11813674025, "lat": 28.5878444, "lon": 77.1675983, "tags": {"amenity": "cafe", "check_date": "2024-04-13", "level": "0", "name": "Cafe Mitro"}}, {"type": "node", "id": 11813674213, "lat": 28.5879227, "lon": 77.1676561, "tags": {"amenity": "restaurant", "check_date": "2024-04-13", "name": "Azhar Biryani"}}, {"type": "node", "id": 11813676621, "lat": 28.5878311, "lon": 77.1675464, "tags": {"amenity": "cafe", "check_date": "2024-05-02", "level": "0", "name": "Bottle House"}}, {"type": "node", "id": 11813681677, "lat": 28.5880583, "lon": 77.1678622, "tags": {"amenity": "restaurant", "check_date": "2024-04-13", "cuisine": "Rolls", "level": "0", "name": "Rolls Studio", "wheelchair": "no"}}, {"type": "node", "id": 11813681969, "lat": 28.5877303, "lon": 77.1672874, "tags": {"amenity": "cafe", "check_date": "2024-04-13", "name": "The Bowton House Caf\u00e9"}}, {"type": "node", "id": 11813681970, "lat": 28.5876755, "lon": 77.1672039, "tags": {"amenity": "restaurant", "check_date": "2024-04-13", "name": "Dakshin Ratna"}}, {"type": "node", "id": 11813682742, "lat": 28.5881049, "lon": 77.1683271, "tags": {"amenity": "restaurant", "check_date": "2024-04-13", "contact:mobile": "+91-99533-27171;+91-99532-37171", "level": "1", "name": "KC Restaurant", "wheelchair": "no"}}, {"type": "node", "id": 11813688958, "lat": 28.5876693, "lon": 77.1686234, "tags": {"amenity": "restaurant", "check_date": "2024-04-13", "contact:mobile": "+91-99530-33256", "cuisine": "chinese", "internet_access": "no", "level": "0", "name": "Mom Hand Momos", "wheelchair": "yes"}}, {"type": "node", "id": 11813690992, "lat": 28.588064, "lon": 77.1679012, "tags": {"amenity": "cafe", "check_date": "2024-04-13", "level": "1", "name": "The Big House Caf\u00e9", "wheelchair": "no"}}, {"type": "node", "id": 11813690993, "lat": 28.5880647, "lon": 77.1679162, "tags": {"addr:floor": "4", "amenity": "restaurant", "check_date": "2024-04-13", "level": "3", "name": "Crazy Kitchen", "wheelchair": "no"}}, {"type": "node", "id": 11813690994, "lat": 28.5880537, "lon": 77.1679015, "tags": {"addr:floor": "3", "amenity": "cafe", "check_date": "2024-04-13", "name": "Rustic Cafe", "wheelchair": "no"}}, {"type": "node", "id": 11813693494, "lat": 28.5880774, "lon": 77.168354, "tags": {"amenity": "restaurant", "check_date": "2024-04-13", "level": "0", "name": "High On Burger", "wheelchair": "no"}}, {"type": "node", "id": 11813693495, "lat": 28.5880853, "lon": 77.1683903, "tags": {"amenity": "restaurant", "check_date": "2024-04-13", "level": "1", "name": "Amigos Hub", "wheelchair": "no"}}, {"type": "node", "id": 11813700595, "lat": 28.5876277, "lon": 77.1686816, "tags": {"amenity": "cafe", "check_date": "2024-04-13", "cuisine": "tea", "level": "0", "name": "Pandit Ji Tea Stall"}}, {"type": "node", "id": 11813705202, "lat": 28.5878984, "lon": 77.1684629, "tags": {"amenity": "restaurant", "check_date": "2024-04-13", "level": "0", "name": "Shreya's Spices And Chutney", "wheelchair": "no"}}, {"type": "node", "id": 11813705203, "lat": 28.5879312, "lon": 77.1684346, "tags": {"amenity": "restaurant", "check_date": "2024-04-13", "level": "0", "name": "Pulpssy", "wheelchair": "no"}}, {"type": "node", "id": 11813705204, "lat": 28.5879809, "lon": 77.1684121, "tags": {"amenity": "restaurant", "check_date": "2024-04-13", "contact:mobile": "+91-98704-00673;+91-98704-00683", "level": "0", "name": "Sfizio Pizza", "wheelchair": "no"}}, {"type": "node", "id": 11813706344, "lat": 28.5877898, "lon": 77.1684033, "tags": {"amenity": "cafe", "check_date": "2024-04-13", "diet:vegetarian": "only", "level": "-1", "name": "Mum Caf\u00e9 and Bakery", "outdoor_seating": "yes", "phone": "+91-8448-336-088", "wheelchair": "no"}}, {"type": "node", "id": 11813708187, "lat": 28.587692, "lon": 77.1684552, "tags": {"amenity": "restaurant", "check_date": "2024-04-13", "name": "Zackary Chicken Biryani"}}, {"type": "node", "id": 11813709473, "lat": 28.587654, "lon": 77.1684893, "tags": {"amenity": "restaurant", "check_date": "2024-04-13", "level": "0", "name": "The Hungry Bear", "wheelchair": "yes"}}, {"type": "node", "id": 11813711801, "lat": 28.5881502, "lon": 77.1681711, "tags": {"amenity": "restaurant", "check_date": "2024-04-13", "level": "0;1", "name": "Niku's", "wheelchair": "no"}}, {"type": "node", "id": 11813711802, "lat": 28.5880515, "lon": 77.1682334, "tags": {"amenity": "cafe", "check_date": "2024-07-23", "level": "0", "name": "Nerds Of Comedy", "name:hi": "\u0928\u0930\u094d\u0921\u094d\u0938 \u0911\u092b \u0915\u0949\u092e\u0947\u0921\u0940", "wheelchair": "no"}}, {"type": "node", "id": 11813712469, "lat": 28.5880081, "lon": 77.1677761, "tags": {"amenity": "cafe", "check_date": "2024-04-13", "level": "1", "name": "Sista\u2019s", "outdoor_seating": "no"}}, {"type": "node", "id": 11813712470, "lat": 28.5879971, "lon": 77.1677583, "tags": {"amenity": "cafe", "check_date": "2024-04-13", "level": "2", "name": "Pipeline pizzeria", "outdoor_seating": "no"}}, {"type": "node", "id": 11813945285, "lat": 28.5882442, "lon": 77.168369, "tags": {"amenity": "cafe", "check_date": "2024-04-13", "cuisine": "tea", "level": "0", "name": "The Chai Latte", "outdoor_seating": "yes", "wheelchair": "no"}}, {"type": "node", "id": 11814425245, "lat": 28.5875478, "lon": 77.1686825, "tags": {"amenity": "cafe", "cuisine": "tea", "name": "Goyal Tea Junction"}}, {"type": "node", "id": 11814425248, "lat": 28.5875721, "lon": 77.1685498, "tags": {"amenity": "cafe", "level": "-1", "name": "Cafe Unbound", "outdoor_seating": "yes"}}, {"type": "node", "id": 11818526095, "lat": 28.5874109, "lon": 77.1693877, "tags": {"tourism": "hostel"}}, {"type": "node", "id": 11818526096, "lat": 28.5874342, "lon": 77.1694267, "tags": {"tourism": "hostel"}}, {"type": "node", "id": 11818526097, "lat": 28.5875215, "lon": 77.1693876, "tags": {"tourism": "hostel"}}, {"type": "node", "id": 11818538438, "lat": 28.5876372, "lon": 77.1696319, "tags": {"name": "Prustel Living", "tourism": "hostel"}}, {"type": "node", "id": 11818538439, "lat": 28.5876142, "lon": 77.1695972, "tags": {"tourism": "hostel"}}, {"type": "node", "id": 11818541446, "lat": 28.5878827, "lon": 77.1699773, "tags": {"name": "South Embassy", "tourism": "hostel"}}, {"type": "node", "id": 11818557132, "lat": 28.5875537, "lon": 77.1686987, "tags": {"amenity": "cafe", "name": "Alfa"}}, {"type": "node", "id": 11818557134, "lat": 28.5876558, "lon": 77.1689393, "tags": {"amenity": "restaurant", "name": "Om Balaji Dhaba"}}, {"type": "node", "id": 11818557135, "lat": 28.5876392, "lon": 77.1689042, "tags": {"amenity": "restaurant", "name": "Udgam"}}, {"type": "node", "id": 11818557136, "lat": 28.5875782, "lon": 77.1687615, "tags": {"amenity": "restaurant", "name": "Baby Doll Chaap"}}, {"type": "node", "id": 11818557139, "lat": 28.5875653, "lon": 77.1687263, "tags": {"amenity": "restaurant", "cuisine": "indian", "name": "Anna Dosa Point"}}, {"type": "node", "id": 11819120744, "lat": 28.5871325, "lon": 77.1705606, "tags": {"addr:city": "New Delhi", "addr:housenumber": "1/33G", "addr:place": "Moti Bagh", "addr:postcode": "110021", "contact:mobile": "+91-931590-6868;+91-93154-01328", "tourism": "hostel"}}, {"type": "node", "id": 11819120761, "lat": 28.5870102, "lon": 77.1704721, "tags": {"amenity": "cafe", "diet:gluten_free": "yes", "level": "0", "name": "Free of Gluten", "operator": "Chocolate Temptation", "wheelchair": "no"}}, {"type": "node", "id": 11837347888, "lat": 28.5931893, "lon": 77.1645815, "tags": {"amenity": "cafe", "level": "0", "name": "Sabharwal Tea Stall", "takeaway": "yes", "toilets": "no", "toilets:access": "private", "wheelchair": "no"}}, {"type": "node", "id": 11873232765, "lat": 28.5974363, "lon": 77.1413602, "tags": {"tourism": "artwork"}}, {"type": "node", "id": 11873300781, "lat": 28.597572, "lon": 77.1409988, "tags": {"artwork_subject": "Mahatma Gandhi", "tourism": "artwork"}}, {"type": "node", "id": 11873300841, "lat": 28.5971945, "lon": 77.1405298, "tags": {"artwork_subject": "Elephant", "material": "plastic", "tourism": "artwork"}}, {"type": "node", "id": 11873300854, "lat": 28.5969365, "lon": 77.1404915, "tags": {"artwork_subject": "Giraffe", "material": "plastic", "tourism": "artwork"}}, {"type": "node", "id": 11873300968, "lat": 28.5971375, "lon": 77.1407615, "tags": {"artwork_subject": "Buddha", "tourism": "artwork"}}, {"type": "node", "id": 11873301060, "lat": 28.5968389, "lon": 77.140501, "tags": {"artwork_subject": "Bells", "tourism": "artwork"}}, {"type": "node", "id": 11878500420, "lat": 28.5956714, "lon": 77.1520542, "tags": {"tourism": "attraction"}}, {"type": "node", "id": 11985043685, "lat": 28.5853537, "lon": 77.1812236, "tags": {"historic": "locomotive", "name": "Steam Locomotive MTR-2"}}, {"type": "node", "id": 11985043692, "lat": 28.5859219, "lon": 77.1800219, "tags": {"historic": "vehicle", "name": "John Morris Fire engine 1914"}}, {"type": "node", "id": 12127692320, "lat": 28.5960063, "lon": 77.171323, "tags": {"historic": "cannon"}}, {"type": "node", "id": 12127696750, "lat": 28.5962451, "lon": 77.1711783, "tags": {"historic": "cannon"}}, {"type": "node", "id": 12189775157, "lat": 28.5935588, "lon": 77.1637518, "tags": {"historic": "cannon"}}, {"type": "node", "id": 12189793403, "lat": 28.593652, "lon": 77.1639381, "tags": {"historic": "cannon"}}, {"type": "node", "id": 12816033335, "lat": 28.5905185, "lon": 77.1669203, "tags": {"amenity": "cafe", "bar": "no", "brand": "Nescaf\u00e9", "indoor_seating": "no", "level": "0", "name": "Nescaf\u00e9", "operator": "Nescaf\u00e9", "outdoor_seating": "yes", "takeaway": "yes"}}, {"type": "node", "id": 12860056753, "lat": 28.5991201, "lon": 77.1429109, "tags": {"artwork_type": "statue", "name": "105 Rajputana Terriers", "tourism": "artwork"}}, {"type": "node", "id": 12862174322, "lat": 28.5666773, "lon": 77.1895706, "tags": {"name": "Baljeet Lodge", "tourism": "hotel"}}, {"type": "node", "id": 12862174325, "lat": 28.5675682, "lon": 77.1896659, "tags": {"name": "Hotel Corporate Point", "tourism": "hotel"}}, {"type": "node", "id": 12972336696, "lat": 28.5512592, "lon": 77.1709353, "tags": {"amenity": "place_of_worship", "name": "Budh Vihar, Munirka", "religion": "buddhist"}}, {"type": "node", "id": 13190331500, "lat": 28.5532217, "lon": 77.1740161, "tags": {"leisure": "park"}}, {"type": "way", "id": 42340191, "nodes": [528541683, 528541685, 528541687, 528541689, 528541683], "tags": {"leisure": "park", "name": "B Block Community Park"}}, {"type": "way", "id": 42340193, "nodes": [528541704, 528541699, 528541700, 528541705, 528541704], "tags": {"leisure": "park", "name": "BC-BD Block Community Park"}}, {"type": "way", "id": 42340196, "nodes": [528541708, 528541703, 528541702, 528541707, 528541708], "tags": {"leisure": "park", "name": "BA-BB Block Community Park"}}, {"type": "way", "id": 44351917, "nodes": [5810155254, 563661881, 947950193, 11985043725, 11985043730, 947950481, 563661885, 563661886, 7947401464, 7947401466, 5810155254], "tags": {"fee": "yes", "name": "National Rail Museum", "name:en": "National Rail Museum of India", "name:hi": "\u0930\u093e\u0937\u094d\u091f\u094d\u0930\u0940\u092f \u0930\u0947\u0932 \u0938\u0902\u0917\u094d\u0930\u0939\u093e\u0932\u092f", "opening_hours": "Tu-Su 10:00-17:00", "tourism": "museum", "wikidata": "Q1138924", "wikimedia_commons": "Category:National Rail Museum, New Delhi", "wikipedia": "en:National Rail Museum, New Delhi"}}, {"type": "way", "id": 81352211, "nodes": [947950512, 6189721100, 947950131, 947950225, 947950708, 947950512], "tags": {"leisure": "park", "name": "India Africa Friendship Rose Garden", "name:ur": "\u0627\u0646\u0688\u06cc\u0627 \u0627\u0641\u0631\u06cc\u0642\u06c1 \u0641\u0631\u06cc\u0646\u0688\u0634\u067e \u0631\u0648\u0632 \u06af\u0627\u0631\u0688\u0646"}}, {"type": "way", "id": 81352246, "nodes": [947950637, 12866435352, 12866435353, 12866435354, 947950296, 947951032, 947950479, 12866435349, 12866435350, 12866435351, 947950637], "tags": {"leisure": "park", "name": "Singapore Park"}}, {"type": "way", "id": 128409506, "nodes": [1419238781, 1419238782, 12866424077, 12866424094, 12866424078, 1419238785, 10975974152, 12866424079, 12866424095, 12866424076, 1419238781], "tags": {"bar": "yes", "brand": "Taj", "brand:wikidata": "Q1521893", "internet_access": "yes", "internet_access:fee": "yes", "name": "Taj Palace Hotel", "official_name": "Taj Hotels", "opening_hours": "24/7", "operator": "Taj", "rooms": "403", "tourism": "hotel", "wheelchair": "yes"}}, {"type": "way", "id": 191980135, "nodes": [2025446554, 2025446562, 2025446574, 2025446557, 2025446560, 2025446549, 2025446563, 2025446555, 2794272272, 2794272273, 2025446550, 2794272276, 2794272277, 2794272279, 2025446553, 2025446554], "tags": {"leisure": "park"}}, {"type": "way", "id": 191980136, "nodes": [2025446548, 2025446581, 2025446582, 2025446585, 2025446548], "tags": {"barrier": "wall", "leisure": "park"}}, {"type": "way", "id": 191980137, "nodes": [2025446577, 2025446588, 2025446564, 2025446561, 2025446552, 2025446559, 2025446567, 2025446583, 2025446547, 2025446577], "tags": {"barrier": "wall", "leisure": "park"}}, {"type": "way", "id": 191980138, "nodes": [2025446556, 2025446566, 2025446570, 2025446565, 2025446586, 2025446556], "tags": {"leisure": "park"}}, {"type": "way", "id": 191980139, "nodes": [2025446580, 2025446579, 2025446575, 2025446573, 2025446580], "tags": {"leisure": "park"}}, {"type": "way", "id": 191980140, "nodes": [2025446568, 2025446569, 2025446578, 2025446584, 2025446558, 2025446576, 2025446572, 2025446568], "tags": {"barrier": "wall", "leisure": "park"}}, {"type": "way", "id": 228137190, "nodes": [2367722579, 11843066163, 11843038964, 11843066080, 11843066134, 6084384997, 2367722581, 2367722583, 6084384999, 2656210822, 6084385006, 3557832625, 3557832623, 3557832624, 5738751507, 11881256743, 6084385004, 6084385005, 6084384994, 2367722587, 4776237936, 4776237931, 4776237930, 2367722589, 9867854540, 12816013787, 12816033259, 2367722591, 4242493543, 3563393946, 2713828007, 4241044784, 2367722579], "tags": {"access": "yes", "alt_name": "Kangal Shah Bagh", "disused:leisure": "yes", "leisure": "park", "location": "surface", "name": "Jheel Park", "official_name": "MP Green Area, Kitchener Lake, Dhaula Kuan", "old_name": "Company Bagh", "operator": "Delhi Development Authority", "parking": "surface", "toilets:access": "private", "wheelchair": "limited"}}, {"type": "way", "id": 253307746, "nodes": [2592537270, 2592537268, 2592537265, 2592537263, 2592537262, 2592537264, 2592537266, 2592537269, 2592537270], "tags": {"building": "yes", "tourism": "museum"}}, {"type": "way", "id": 265014348, "nodes": [2706713953, 2706713919, 2706713903, 2706713906, 2706713955, 2706713900, 2706713910, 2706713914, 2706713916, 2706713915, 2706713993, 2706713898, 2706713951, 2706713956, 2706713924, 2706713928, 2706713929, 2706713939, 2706713905, 2706713953], "tags": {"leisure": "park"}}, {"type": "way", "id": 265014355, "nodes": [2706713950, 4233301445, 4233301448, 7082458427, 2706713942, 2706713980, 2706713931, 2706713969, 2706713950], "tags": {"leisure": "park"}}, {"type": "way", "id": 265771341, "nodes": [2713825071, 2713824982, 2713825032, 2713824991, 2713825072, 2713825071], "tags": {"addr:city": "New Delhi", "addr:postcode": "110023", "addr:street": "Diplomatic Enclave, Chanakyapuri", "air_conditioning": "yes", "brand": "The Leela", "brand:wikidata": "Q7746610", "email": "reservations@theleela.com", "landuse": "commercial", "name": "The Leela Palace Kempinski", "phone": "+91 (11) 3933 1234", "stars": "5", "tourism": "hotel", "website": "https://www.theleela.com/the-leela-palace-new-delhi"}}, {"type": "way", "id": 275273211, "nodes": [2799086950, 2799086954, 2799086957, 2799086959, 2799086960, 2799086961, 2799086967, 2799086963, 2799086965, 9872207779, 2799086970, 2799086972, 2799086969, 2799086968, 2799086966, 2799086964, 2799086962, 2799086958, 2799086956, 2799086955, 2799086952, 2799086951, 2799086949, 2799086948, 2799086953, 2799086950], "tags": {"leisure": "park"}}, {"type": "way", "id": 275868720, "nodes": [2805319556, 2805319562, 2805319563, 2805319564, 2805319565, 2805319567, 2805319568, 2805319576, 2805319590, 2805319570, 6581322936, 2805319559, 2805319566, 6581322935, 2805319556], "tags": {"barrier": "wall", "leisure": "park"}}, {"type": "way", "id": 275868748, "nodes": [2805319616, 2805319619, 2805319623, 2805319616], "tags": {"barrier": "wall", "leisure": "park"}}, {"type": "way", "id": 275868750, "nodes": [2805319606, 2805319607, 2805319602, 2805319591, 2805319606], "tags": {"barrier": "wall", "leisure": "park"}}, {"type": "way", "id": 275868752, "nodes": [2805319530, 2805319533, 2805319528, 2805319525, 2805319530], "tags": {"barrier": "wall", "leisure": "park"}}, {"type": "way", "id": 275868753, "nodes": [2805319609, 2805319613, 2805319618, 2805319617, 2805319609], "tags": {"barrier": "wall", "leisure": "park"}}, {"type": "way", "id": 275868754, "nodes": [2805319587, 2805319578, 2805319584, 2805319599, 2805319587], "tags": {"barrier": "wall", "leisure": "park"}}, {"type": "way", "id": 275868755, "nodes": [2805319553, 2805319552, 2805319555, 2805319558, 2805319559, 2805319553], "tags": {"barrier": "wall", "leisure": "park"}}, {"type": "way", "id": 275868756, "nodes": [2805319597, 2805319585, 2805319608, 2805319615, 2805319628, 2805319630, 2805319626, 2805319597], "tags": {"barrier": "wall", "leisure": "park"}}, {"type": "way", "id": 275868757, "nodes": [2805319531, 2805319535, 2805319541, 2805319545, 2805319539, 2805319536, 2805319538, 2805319531], "tags": {"barrier": "wall", "leisure": "park"}}, {"type": "way", "id": 276292145, "nodes": [2809115272, 2809115273, 2809115280, 2809115279, 2809115272], "tags": {"barrier": "wall", "leisure": "park"}}, {"type": "way", "id": 279038732, "nodes": [441177864, 2833058756, 2833058757, 2833058759, 441177864], "tags": {"barrier": "wall", "name": "ITC Maurya", "operator": "ITC", "tourism": "hotel", "website": "http://www.itcwelcomgroup.in/Hotels/itcmaurya.aspx"}}, {"type": "way", "id": 295818858, "nodes": [2995789535, 6771396261, 13002281509, 2995789537, 11152409740, 4233127267, 12592969893, 2995789538, 13002262578, 2995789535], "tags": {"leisure": "park", "name": "MCD Park", "operator": "Municipal Corporation of Delhi", "operator:short": "MCD", "operator:type": "government", "operator:wikidata": "Q1192117"}}, {"type": "way", "id": 348215834, "nodes": [3543859972, 3543859944, 3543859973, 3543860204, 3543859972], "tags": {"amenity": "marketplace", "name": "Begum Zaidi Market  Moti Bagh - North Facing"}}, {"type": "way", "id": 348215855, "nodes": [3543859922, 3543859910, 3543859872, 3543859878, 3543859922], "tags": {"amenity": "marketplace", "name": "Begum Zaidi Market Moti Bagh - North Facing"}}, {"type": "way", "id": 348215988, "nodes": [3543859303, 3543859280, 3543859225, 3543859249, 3543859303], "tags": {"amenity": "marketplace", "name": "Basrurkar Maket"}}, {"type": "way", "id": 348216219, "nodes": [3543859971, 3543859955, 3543859807, 3543859820, 3543859971], "tags": {"amenity": "marketplace", "name": "Beguz Zaidi Market Moti Bagh south facing"}}, {"type": "way", "id": 349967037, "nodes": [3557480945, 3557480935, 3557480932, 3557480937, 3557480933, 3557480936, 3557480934, 3557480939, 3557480942, 3557480938, 3557480940, 3557480950, 11806721488, 3557480958, 11806721487, 11806721478, 3557480941, 11806721492, 11806721477, 11806721481, 3557480945], "tags": {"leisure": "park"}}, {"type": "way", "id": 351149739, "nodes": [3568791861, 3568791860, 3568791858, 3568791859, 3568791861], "tags": {"addr:city": "Delhi", "addr:housenumber": "A, 2/14", "addr:postcode": "110028", "addr:street": "Block A 2, Safdarjung Enclave", "building": "hotel", "name": "Ikhaya", "tourism": "hotel"}}, {"type": "way", "id": 370534203, "nodes": [3742314079, 3742314078, 3742314080, 3742314082, 3742314084, 3742314086, 3742314088, 3742314090, 3742314092, 3742314093, 3742314091, 3742314089, 3742314087, 3742314085, 3742314083, 3742314081, 3742314079], "tags": {"leisure": "park"}}, {"type": "way", "id": 555438038, "nodes": [5358882583, 5358882582, 5358882581, 5358882580, 5358882578, 5358882579, 5358882583], "tags": {"leisure": "park", "name": "Rock Garden"}}, {"type": "way", "id": 619847480, "nodes": [5856966931, 5856966932, 5856966933, 5856966934, 5856966935, 5856966931], "tags": {"leisure": "park", "name": "Badminton park"}}, {"type": "way", "id": 619849573, "nodes": [5856979746, 5856979747, 5856979748, 5856979749, 5856979750, 3585443955, 3585443962, 5856979751, 10704322960, 5856979752, 10704322957, 10704322958, 5856979753, 5856979754, 5856979755, 5856979756, 5856979757, 5856979758, 5856979746], "tags": {"leisure": "park", "name": "Ram park"}}, {"type": "way", "id": 623402192, "nodes": [5887390947, 5887390948, 5887390949, 10274926086, 5887390950, 5887390947], "tags": {"leisure": "park", "name": "RK Khanna Tennis Park", "natural": "grassland"}}, {"type": "way", "id": 636371752, "nodes": [6001205814, 6001205813, 6001205812, 6001205811, 6001205814], "tags": {"barrier": "wall", "leisure": "park"}}, {"type": "way", "id": 636371755, "nodes": [6001205834, 6001205833, 6001205832, 6001205831, 6001205834], "tags": {"barrier": "wall", "leisure": "park"}}, {"type": "way", "id": 648000204, "nodes": [6084384937, 6084384922, 11985043707, 6084384923, 6084384924, 6084384925, 6084384926, 6084384927, 6084384928, 6084384936, 6084384929, 6084384930, 6084384931, 6084384932, 6084384933, 6084384934, 6084384935, 6084384937], "tags": {"amenity": "restaurant", "building": "yes", "name": "Rail cafeteria"}}, {"type": "way", "id": 651655601, "nodes": [6110406818, 6110406792, 6110406817, 6110406816, 6110406815, 6110406814, 6110406813, 6110406812, 6110406811, 6110406810, 6110406809, 6110406808, 6110406807, 6110406806, 6110406805, 6110406804, 6110406803, 6110406802, 6110406801, 6110406800, 6110406799, 6110406795, 6110406798, 6110406797, 6110406796, 6110406794, 6110406793, 6110406818], "tags": {"leisure": "park", "name": "District Park Nanakpura"}}, {"type": "way", "id": 661138687, "nodes": [6189721099, 947950581, 947950956, 947950570, 947950460, 6189721099], "tags": {"leisure": "park", "name": "BRICS Friendship Rose Garden"}}, {"type": "way", "id": 662813804, "nodes": [6204902847, 6204902846, 6204902845, 6204902844, 6204902847], "tags": {"leisure": "park"}}, {"type": "way", "id": 668744462, "nodes": [6262528234, 6262528247, 6262528239, 6262528240, 6262528252, 6262528248, 6262528236, 6262528250, 6262528237, 6262528244, 6262528241, 6262528234], "tags": {"barrier": "wall", "leisure": "park", "name": "Major Som Nath Sharma Memorial Park", "name:etymology:wikidata": "Q3595115"}}, {"type": "way", "id": 670175798, "nodes": [6276048248, 6276048241, 6276048243, 6276048228, 6276048246, 6276048248], "tags": {"barrier": "fence", "leisure": "park"}}, {"type": "way", "id": 676478966, "nodes": [6334958291, 6334958295, 6334958292, 6334958298, 6334958296, 6334958293, 6334958290, 6334958291], "tags": {"barrier": "wall", "leisure": "park"}}, {"type": "way", "id": 685777593, "nodes": [6425150155, 6427235083, 6425150165, 6427235194, 6427235195, 6427235196, 6427235197, 6427235198, 6427235199, 6427235200, 6427235201, 6427235202, 6427235203, 6427235204, 6427235205, 6427235192, 6427235193, 2656025622, 6427235078, 6427235213, 6425150143, 6425150163, 6427235062, 6425150155], "tags": {"leisure": "park"}}, {"type": "way", "id": 700310539, "nodes": [6576505247, 6576505248, 6576505249, 6576505250, 6576505251, 6576505252, 6576505247], "tags": {"leisure": "park"}}, {"type": "way", "id": 700310540, "nodes": [6576505253, 6576505254, 6576505255, 6576505256, 6576505257, 6576505258, 6576505259, 6576505260, 6576505253], "tags": {"leisure": "park"}}, {"type": "way", "id": 700310541, "nodes": [6576505279, 6576505280, 6576505261, 6576505262, 6576505263, 6576505264, 6576505265, 6576505266, 6576505267, 6576505277, 6576505278, 6576505268, 6576505269, 6576505270, 6576505271, 6576505272, 6576505273, 6576505274, 6576505275, 6576505279], "tags": {"leisure": "park"}}, {"type": "way", "id": 700805213, "nodes": [6581322927, 6581322928, 6581322929, 6246280505, 6581322930, 6581322931, 6581322932, 6885030407, 6581322933, 6246280510, 6581322934, 6581322927], "tags": {"barrier": "fence", "leisure": "park"}}, {"type": "way", "id": 708281601, "nodes": [6655324777, 12966165289, 12966165288, 12966165287, 6655324778, 6655324779, 6655324780, 6655324781, 12966165240, 6655324783, 6655324784, 6655402985, 6655402986, 6655402987, 6655402988, 6655324777], "tags": {"leisure": "park"}}, {"type": "way", "id": 708281602, "nodes": [6655402989, 6655402990, 6655402991, 6655402992, 6655402993, 6655402994, 6655402995, 6655402996, 6655402997, 6655402998, 6655402999, 6655403000, 6655403001, 6655403002, 6655403003, 6655402989], "tags": {"leisure": "park"}}, {"type": "way", "id": 708281608, "nodes": [6655403117, 6655403118, 6655403119, 6655403120, 6655403121, 6655403122, 6655403123, 6655403124, 6655403125, 6655403126, 6655403117], "tags": {"leisure": "park"}}, {"type": "way", "id": 708281609, "nodes": [6655403127, 6655403128, 6655403129, 6655403133, 6655403134, 6655403135, 6655403136, 6655403137, 6655403138, 6655403127], "tags": {"leisure": "park"}}, {"type": "way", "id": 731905016, "nodes": [6853682670, 6853682662, 6853697499, 6853682669, 6853682675, 6853682676, 6853682681, 6853682649, 6853682670], "tags": {"leisure": "park", "name": "Munirka Village Park"}}, {"type": "way", "id": 732907411, "nodes": [6862941291, 6862941302, 6862941306, 6862917581, 6862941286, 6862941291], "tags": {"barrier": "fence", "leisure": "park"}}, {"type": "way", "id": 735131038, "nodes": [6885030421, 6885030424, 6885030441, 6885030404, 6885030412, 6885030421], "tags": {"barrier": "fence", "leisure": "park"}}, {"type": "way", "id": 758376519, "nodes": [9872051870, 7082488554, 7082499187, 9872051870], "tags": {"leisure": "park", "name": "Babu Lal Chowk"}}, {"type": "way", "id": 758377178, "nodes": [7082447358, 7082447359, 7082447360, 4233301395, 7082447358], "tags": {"leisure": "park"}}, {"type": "way", "id": 782378316, "nodes": [7305795514, 7305795515, 12593080279, 7305795518, 12593080245, 12593080278, 12593080248, 12593080247, 12593080246, 7305795514], "tags": {"addr:city": "Bhikaji Cama Place, New Delhi", "addr:postcode": "110066", "addr:street": "Mahatma Gandhi Marg/Ring Road", "brand": "Hyatt Regency", "brand:wikidata": "Q1425063", "brand:wikipedia": "en:Hyatt", "layer": "-1", "location": "surface", "name": "Hyatt Regency", "tourism": "hotel"}}, {"type": "way", "id": 815016785, "nodes": [7612934914, 7612934915, 7612934916, 7612934917, 7612934918, 7612934919, 7612934920, 7612934914], "tags": {"leisure": "park"}}, {"type": "way", "id": 815023917, "nodes": [7612983878, 7612983879, 7612983880, 7612983881, 7612983878], "tags": {"leisure": "park"}}, {"type": "way", "id": 815023918, "nodes": [7612983882, 7612983883, 7612983884, 10259454367, 7612997485, 7612997486, 7612997487, 7612983882], "tags": {"leisure": "park"}}, {"type": "way", "id": 815023919, "nodes": [7612997488, 7612997489, 7612997490, 7612997491, 7612997492, 7612997493, 7612997488], "tags": {"barrier": "wall", "leisure": "park"}}, {"type": "way", "id": 815141797, "nodes": [7614064140, 7614064141, 7614064142, 7614064143, 7614064144, 7614064145, 7614064146, 7614064147, 7614064148, 7614064149, 7614064150, 7614064151, 7614064152, 7614064153, 7614064154, 7614064140], "tags": {"leisure": "park", "name": "Community park"}}, {"type": "way", "id": 815248044, "nodes": [7614914773, 7614914774, 7614914775, 7614914776, 7614914778, 7614914777, 7614914773], "tags": {"addr:city": "New Delhi", "addr:place": "Vasant Vihar", "addr:street": "E-14", "barrier": "wall", "leisure": "park"}}, {"type": "way", "id": 815248047, "nodes": [7614965788, 7614965789, 7614965790, 10904526557, 7614965791, 7614965792, 7614965793, 7614965788], "tags": {"leisure": "park"}}, {"type": "way", "id": 815248050, "nodes": [7614965809, 7614965810, 7614965811, 7614965812, 7614965809], "tags": {"leisure": "park"}}, {"type": "way", "id": 819046412, "nodes": [7648978984, 7648997985, 7648997986, 7648997987, 7648978984], "tags": {"addr:city": "New Delhi", "addr:postcode": "110022", "addr:street": "Venkateshwara Marg", "leisure": "park", "name": "Community Park, RK Puram Sector-1", "operator": "MCD", "operator:type": "public"}}, {"type": "way", "id": 819046413, "nodes": [7648997988, 7648997989, 7648997990, 7648997991, 7648997988], "tags": {"access": "yes", "building": "yes", "historic": "tomb", "name": "Tomb of Bijri Khan", "tomb": "mausoleum", "tourism": "attraction"}}, {"type": "way", "id": 819046414, "nodes": [7648997992, 7648997993, 7648997994, 7648997995, 7648997992], "tags": {"leisure": "park"}}, {"type": "way", "id": 819046415, "nodes": [7648997996, 7648997997, 7648997998, 7648997999, 7648997996], "tags": {"leisure": "park"}}, {"type": "way", "id": 819046417, "nodes": [7648998004, 7648998005, 7648998006, 7648998007, 7648998004], "tags": {"leisure": "park"}}, {"type": "way", "id": 819046421, "nodes": [7648998039, 7648998040, 7648998041, 7648998042, 7648998043, 7648998044, 7648998045, 7648998046, 7648998047, 7648998048, 7648998049, 7648998050, 7648998051, 7648998052, 7648998053, 7648998054, 7648998055, 7648998056, 7648998057, 7648998039], "tags": {"leisure": "park"}}, {"type": "way", "id": 1016215350, "nodes": [9373332919, 9373332920, 9373332921, 2794272250, 2794272249, 2794272245, 2794272244, 9373332922, 9373332923, 9373332924, 9373332925, 9373332926, 9373332927, 9373332928, 9373332929, 9373332930, 9725940733, 9725940732, 9725940731, 9373332919], "tags": {"leisure": "park", "name": "Vasant Vihar District Park"}}, {"type": "way", "id": 1122209794, "nodes": [10264187016, 10264187019, 10264187018, 10264187017, 10264187016], "tags": {"leisure": "park"}}, {"type": "way", "id": 1122209795, "nodes": [10264187023, 10264187022, 10264187021, 10264187023], "tags": {"leisure": "park"}}, {"type": "way", "id": 1122209796, "nodes": [10264187027, 10264187026, 10264187025, 10264187024, 10264187027], "tags": {"leisure": "park"}}, {"type": "way", "id": 1122210026, "nodes": [10264174994, 10264174993, 10264174992, 10264174991, 10264174994], "tags": {"leisure": "park"}}, {"type": "way", "id": 1122210027, "nodes": [10264174998, 10264174997, 10264174996, 10264174995, 10264174998], "tags": {"leisure": "park"}}, {"type": "way", "id": 1173587411, "nodes": [4233041527, 10904472548, 4233041536, 4233041549, 4233041527], "tags": {"leisure": "park", "name": "RK Puram Sector-4 Park", "operator": "MCD", "operator:type": "public"}}, {"type": "way", "id": 1173591532, "nodes": [10904526552, 10904526553, 10904526554, 10904526555, 10904526556, 10904526552], "tags": {"access": "yes", "addr:place": "Munirka Village", "leisure": "park", "name": "Maharaja Surajmal Park", "operator": "Delhi Municipal Corporation"}}, {"type": "way", "id": 1173591533, "nodes": [7614965793, 7614965792, 10904526557, 7614965788, 7614965793], "tags": {"addr:city": "New Delhi", "addr:postcode": "110022", "addr:street": "Swami Vivekananda Marg", "leisure": "park", "name": "Central Park, RK Puram Sector-5", "opening_hours": "24/7", "operator": "MCD"}}, {"type": "way", "id": 1173591534, "nodes": [10904526558, 10904526559, 10904526560, 10904526561, 10904526558], "tags": {"access": "yes", "historic": "monument", "name": "Protected Monument"}}, {"type": "way", "id": 1238152531, "nodes": [563659622, 563659630, 563659641, 563659640, 12880309534, 563659596, 11500983280, 13300781261, 11808826357, 11500983281, 11500983282, 11808826358, 11808826359, 947950856, 11808826360, 563659561, 11500983283, 563659622], "tags": {"leisure": "park", "name": "Nehru Park", "name:etymology:wikidata": "Q1047"}}, {"type": "way", "id": 1257160905, "nodes": [11687895250, 11687895251, 11687895252, 11687895253, 11687895250], "tags": {"leisure": "park"}}, {"type": "way", "id": 1257160906, "nodes": [11687895254, 11687895255, 11687895256, 11687895254], "tags": {"leisure": "park"}}, {"type": "way", "id": 1267919232, "nodes": [11775572635, 11775572591, 11775572586, 11775572699, 11775572607, 11775572677, 11775572570, 11775572653, 11775572764, 11775572672, 11775572709, 11775572665, 11775572757, 11775572685, 11775572618, 11775572712, 11775572606, 11775572584, 11775572725, 11775557640, 11775572635], "tags": {"barrier": "wall", "leisure": "park", "operator": "Delhi Development Authority"}}, {"type": "way", "id": 1271399516, "nodes": [11806721489, 11806721471, 11806721494, 11806721490, 11806721495, 11806721480, 11806721479, 11806721476, 11806721491, 11806721472, 11806721489], "tags": {"area:highway": "traffic_island", "leisure": "park"}}, {"type": "way", "id": 1271399518, "nodes": [11806721475, 11806721493, 11806721484, 11806721496, 11806721475], "tags": {"leisure": "park"}}, {"type": "way", "id": 1272325566, "nodes": [11814425257, 11814425261, 11814425246, 11814425243, 11814425257], "tags": {"amenity": "restaurant", "brand": "Chicago Pizza", "check_date": "2024-07-23", "cuisine": "pizza", "internet_access": "wlan", "level": "0", "name": "Chicago Pizza", "name:hi": "\u0936\u093f\u0915\u093e\u0917\u094b \u092a\u093f\u091c\u093c\u094d\u091c\u093c\u093e", "note": "Customer room is 318\u00d7525 cm", "outdoor_seating": "yes", "smoking": "no", "takeaway": "yes", "wheelchair": "no"}}, {"type": "way", "id": 1278970648, "nodes": [11873300999, 11873300955, 11873301022, 11873300835, 11873300939, 11927952980, 11927937468, 11873300942, 11873300839, 11873232746, 11873300815, 11873300828, 11873300918, 11873300876, 11873232750, 12793822764, 12793822762, 12793822763, 11873300999], "tags": {"leisure": "park", "name": "Srinagesh Garden", "opening_hours": "mo-su 06:00-19:00"}}, {"type": "way", "id": 1297694017, "nodes": [12022944664, 12022947373, 12022947371, 12022944661, 12022944666, 12022944662, 12022944665, 12022947377, 12022947378, 12022947370, 12022947372, 12022944668, 12022947375, 12816324867, 12022947374, 12022947379, 12022944664], "tags": {"leisure": "park", "name": "Smriti Vatika"}}, {"type": "way", "id": 1298088264, "nodes": [12025691977, 12025691978, 12025691979, 12025691980, 12629803330, 12629803331, 12025691981, 12025691982, 12025691983, 12025691984, 12025691985, 12025691986, 12025691977], "tags": {"amenity": "restaurant", "building": "yes", "contact:instagram": "https://www.instagram.com/chicadelhi_", "name": "CHICA", "opening_hours": "Mo-Su 12:00-01:00", "phone": "099900 19981"}}, {"type": "way", "id": 1331664527, "nodes": [12321006920, 12321006921, 12375808284, 12321006926, 12321006928, 12321006920], "tags": {"access": "private", "access:conditional": "no @ 22:30-05:00", "barrier": "wall", "leisure": "park"}}, {"type": "way", "id": 1348652222, "nodes": [12475215806, 13002180645, 12475215807, 12475215808, 13002180644, 12475215809, 13002180652, 13002180649, 12475215806], "tags": {"leisure": "park", "name": "Ambedkar Park"}}, {"type": "way", "id": 1350334274, "nodes": [12492057021, 12492057022, 13002281501, 12492057023, 13002281503, 13002262600, 12492057024, 12492057021], "tags": {"leisure": "park"}}, {"type": "way", "id": 1361198952, "nodes": [12601262896, 12601262897, 12601262898, 12601262899, 12601262896], "tags": {"leisure": "park"}}, {"type": "way", "id": 1380217978, "nodes": [12778047483, 12778047481, 12778047485, 12778047482, 12778047486, 12778047484, 12778047483], "tags": {"leisure": "park", "name": "Tikona Park"}}, {"type": "way", "id": 1380222167, "nodes": [12778083396, 12778083398, 12778083397, 12778083399, 12778083396], "tags": {"leisure": "park", "noname": "yes"}}, {"type": "way", "id": 1385697211, "nodes": [12829586608, 4233527074, 12829586641, 12829575572, 12829575551, 12829575553, 12829586605, 2870612286, 12829586644, 12829586602, 10049646641, 10049646644, 10049646643, 12829586608], "tags": {"air_conditioning": "yes", "bar": "no", "female": "no", "male": "yes", "name": "Jwalamukhi Hostel", "operator": "Indian Institute of Technology Delhi", "smoking": "no", "start_date": "1965", "swimming_pool": "no", "tourism": "hostel", "website": "https://bhm.iitd.ac.in/hostel/jwalamukhi/"}}, {"type": "way", "id": 1390005711, "nodes": [12866250298, 12866250299, 12866250300, 12866265501, 12866250298], "tags": {"leisure": "park"}}, {"type": "way", "id": 1391501881, "nodes": [12880178647, 12880178653, 12880178626, 12880178659, 12880178638, 12880178662, 12880178627, 12880178649, 12880178620, 12880178660, 12880178647], "tags": {"leisure": "park"}}, {"type": "way", "id": 1391501975, "nodes": [12880182800, 12880228808, 12880228809, 12880228803, 12880228804, 12880228802, 12880228811, 12880182800], "tags": {"leisure": "park"}}, {"type": "way", "id": 1391501976, "nodes": [12880228806, 12880228801, 12880228812, 12880228805, 12880228814, 12880228807, 12880182799, 12880228810, 12880228813, 12880228806], "tags": {"leisure": "park"}}, {"type": "way", "id": 1411134618, "nodes": [12966165262, 12966165261, 12966165260, 12966165259, 12966165258, 12966165257, 12966165256, 12966165255, 12966165262], "tags": {"leisure": "park"}}, {"type": "way", "id": 1414943639, "nodes": [13002180649, 13002180650, 13002180651, 13002180652, 13002180649], "tags": {"historic": "memorial", "memorial": "statue"}}, {"type": "way", "id": 1414952265, "nodes": [13002281501, 13002281502, 13002281503, 12492057023, 13002281501], "tags": {"historic": "memorial", "memorial": "statue"}}, {"type": "node", "id": 7614965809, "lat": 28.5498516, "lon": 77.159242}, {"type": "node", "id": 7614965810, "lat": 28.5497526, "lon": 77.1594512}, {"type": "node", "id": 7614965811, "lat": 28.5502969, "lon": 77.1597946}, {"type": "node", "id": 7614965812, "lat": 28.5504052, "lon": 77.1595934}, {"type": "node", "id": 2706713919, "lat": 28.550605, "lon": 77.1716329}, {"type": "node", "id": 2025446547, "lat": 28.5629936, "lon": 77.1599762}, {"type": "node", "id": 2025446548, "lat": 28.559793, "lon": 77.1594717}, {"type": "node", "id": 2025446552, "lat": 28.5624094, "lon": 77.158957}, {"type": "node", "id": 2025446556, "lat": 28.5593925, "lon": 77.1614831}, {"type": "node", "id": 2025446559, "lat": 28.5623952, "lon": 77.1599655}, {"type": "node", "id": 2025446561, "lat": 28.5624188, "lon": 77.1589087}, {"type": "node", "id": 2025446564, "lat": 28.5625696, "lon": 77.1589033}, {"type": "node", "id": 2025446565, "lat": 28.5582254, "lon": 77.1618967}, {"type": "node", "id": 2025446566, "lat": 28.5587437, "lon": 77.1613495}, {"type": "node", "id": 2025446567, "lat": 28.5624141, "lon": 77.1601747}, {"type": "node", "id": 2025446569, "lat": 28.5635778, "lon": 77.1586405}, {"type": "node", "id": 2025446570, "lat": 28.5581818, "lon": 77.1612685}, {"type": "node", "id": 2025446573, "lat": 28.559859, "lon": 77.1612578}, {"type": "node", "id": 2025446575, "lat": 28.5595103, "lon": 77.1611666}, {"type": "node", "id": 2025446577, "lat": 28.5633941, "lon": 77.1597187}, {"type": "node", "id": 2025446578, "lat": 28.563705, "lon": 77.1585439}, {"type": "node", "id": 2025446579, "lat": 28.5594867, "lon": 77.1613275}, {"type": "node", "id": 2025446580, "lat": 28.5598354, "lon": 77.1614134}, {"type": "node", "id": 2025446581, "lat": 28.5596517, "lon": 77.1603568}, {"type": "node", "id": 2025446582, "lat": 28.5588792, "lon": 77.1601798}, {"type": "node", "id": 2025446583, "lat": 28.5626826, "lon": 77.1601157}, {"type": "node", "id": 2025446585, "lat": 28.5590347, "lon": 77.1593054}, {"type": "node", "id": 2025446586, "lat": 28.559336, "lon": 77.1619122}, {"type": "node", "id": 2025446588, "lat": 28.5629182, "lon": 77.1588229}, {"type": "node", "id": 7614914773, "lat": 28.5615305, "lon": 77.1594886}, {"type": "node", "id": 7614914774, "lat": 28.5610169, "lon": 77.1593545}, {"type": "node", "id": 7614914775, "lat": 28.5607884, "lon": 77.1592982}, {"type": "node", "id": 7614914776, "lat": 28.5607342, "lon": 77.1595745}, {"type": "node", "id": 7614914777, "lat": 28.5614716, "lon": 77.1597971}, {"type": "node", "id": 7614914778, "lat": 28.5611536, "lon": 77.1597032}, {"type": "node", "id": 12321006920, "lat": 28.561617, "lon": 77.16034}, {"type": "node", "id": 12321006921, "lat": 28.561439, "lon": 77.1603203}, {"type": "node", "id": 12321006926, "lat": 28.5613894, "lon": 77.1609015}, {"type": "node", "id": 12321006928, "lat": 28.5615674, "lon": 77.1609212}, {"type": "node", "id": 12375808284, "lat": 28.5614122, "lon": 77.1606338}, {"type": "node", "id": 2794272244, "lat": 28.5558571, "lon": 77.1641989}, {"type": "node", "id": 2794272245, "lat": 28.5560129, "lon": 77.1648354}, {"type": "node", "id": 2794272249, "lat": 28.5564974, "lon": 77.1646637}, {"type": "node", "id": 2794272250, "lat": 28.5567092, "lon": 77.1653696}, {"type": "node", "id": 9373332922, "lat": 28.5546028, "lon": 77.1647806}, {"type": "node", "id": 9373332923, "lat": 28.5560132, "lon": 77.1664041}, {"type": "node", "id": 9373332924, "lat": 28.555595, "lon": 77.1666388}, {"type": "node", "id": 528541704, "lat": 28.5533527, "lon": 77.1749189}, {"type": "node", "id": 528541705, "lat": 28.5534256, "lon": 77.1750064}, {"type": "node", "id": 2706713898, "lat": 28.5536159, "lon": 77.1721318}, {"type": "node", "id": 2706713900, "lat": 28.5533898, "lon": 77.1725877}, {"type": "node", "id": 2706713903, "lat": 28.552147, "lon": 77.172456}, {"type": "node", "id": 2706713905, "lat": 28.5515332, "lon": 77.1711071}, {"type": "node", "id": 2706713906, "lat": 28.5528208, "lon": 77.1721449}, {"type": "node", "id": 2706713910, "lat": 28.5536239, "lon": 77.1727885}, {"type": "node", "id": 2706713914, "lat": 28.5538194, "lon": 77.1725177}, {"type": "node", "id": 2706713915, "lat": 28.5541053, "lon": 77.1724227}, {"type": "node", "id": 2706713916, "lat": 28.5539909, "lon": 77.1724869}, {"type": "node", "id": 2706713924, "lat": 28.5530187, "lon": 77.1716406}, {"type": "node", "id": 2706713928, "lat": 28.5527207, "lon": 77.1714236}, {"type": "node", "id": 2706713929, "lat": 28.5522023, "lon": 77.1713432}, {"type": "node", "id": 2706713931, "lat": 28.5545829, "lon": 77.1737987}, {"type": "node", "id": 2706713939, "lat": 28.5515097, "lon": 77.1712949}, {"type": "node", "id": 2706713942, "lat": 28.5550389, "lon": 77.1734353}, {"type": "node", "id": 2706713950, "lat": 28.554695, "lon": 77.1744545}, {"type": "node", "id": 2706713951, "lat": 28.5533014, "lon": 77.171925}, {"type": "node", "id": 2706713953, "lat": 28.5508924, "lon": 77.171075}, {"type": "node", "id": 2706713955, "lat": 28.5532861, "lon": 77.1726789}, {"type": "node", "id": 2706713956, "lat": 28.5533627, "lon": 77.1717587}, {"type": "node", "id": 2706713969, "lat": 28.5544452, "lon": 77.1743258}, {"type": "node", "id": 2706713980, "lat": 28.554715, "lon": 77.1732929}, {"type": "node", "id": 2706713993, "lat": 28.5540965, "lon": 77.1723034}, {"type": "node", "id": 4233301395, "lat": 28.5534067, "lon": 77.1707278}, {"type": "node", "id": 4233301445, "lat": 28.5548992, "lon": 77.1738492}, {"type": "node", "id": 4233301448, "lat": 28.5549872, "lon": 77.1735884}, {"type": "node", "id": 7082447358, "lat": 28.5534738, "lon": 77.1707515}, {"type": "node", "id": 7082447359, "lat": 28.5535035, "lon": 77.1706227}, {"type": "node", "id": 7082447360, "lat": 28.5534354, "lon": 77.1705921}, {"type": "node", "id": 7082458427, "lat": 28.5550216, "lon": 77.1734866}, {"type": "node", "id": 7082488554, "lat": 28.5555444, "lon": 77.1714268}, {"type": "node", "id": 7082499187, "lat": 28.5555248, "lon": 77.1716339}, {"type": "node", "id": 9872051870, "lat": 28.555617, "lon": 77.1715019}, {"type": "node", "id": 2025446549, "lat": 28.5592073, "lon": 77.1636375}, {"type": "node", "id": 2025446550, "lat": 28.5593302, "lon": 77.1640832}, {"type": "node", "id": 2025446553, "lat": 28.5594777, "lon": 77.1641787}, {"type": "node", "id": 2025446554, "lat": 28.5601823, "lon": 77.1638094}, {"type": "node", "id": 2025446555, "lat": 28.5591916, "lon": 77.1641263}, {"type": "node", "id": 2025446557, "lat": 28.5586272, "lon": 77.1638083}, {"type": "node", "id": 2025446560, "lat": 28.5590414, "lon": 77.1636417}, {"type": "node", "id": 2025446562, "lat": 28.5600316, "lon": 77.1629488}, {"type": "node", "id": 2025446563, "lat": 28.559206, "lon": 77.1637613}, {"type": "node", "id": 2025446574, "lat": 28.5583987, "lon": 77.1630703}, {"type": "node", "id": 2794272272, "lat": 28.5592342, "lon": 77.1641081}, {"type": "node", "id": 2794272273, "lat": 28.559271, "lon": 77.1640895}, {"type": "node", "id": 2794272276, "lat": 28.5593772, "lon": 77.1640979}, {"type": "node", "id": 2794272277, "lat": 28.5594229, "lon": 77.1641176}, {"type": "node", "id": 2794272279, "lat": 28.5594647, "lon": 77.164155}, {"type": "node", "id": 7612934914, "lat": 28.5629794, "lon": 77.1658848}, {"type": "node", "id": 7612934915, "lat": 28.5624188, "lon": 77.1660136}, {"type": "node", "id": 7612934916, "lat": 28.5617893, "lon": 77.1661411}, {"type": "node", "id": 7612934917, "lat": 28.5615843, "lon": 77.1661893}, {"type": "node", "id": 7612934918, "lat": 28.5618152, "lon": 77.1669055}, {"type": "node", "id": 7612934919, "lat": 28.5623971, "lon": 77.1665997}, {"type": "node", "id": 7612934920, "lat": 28.5631203, "lon": 77.1662215}, {"type": "node", "id": 7612983879, "lat": 28.5637262, "lon": 77.1657212}, {"type": "node", "id": 7612983882, "lat": 28.5631726, "lon": 77.1634789}, {"type": "node", "id": 7612983883, "lat": 28.5627391, "lon": 77.163613}, {"type": "node", "id": 7612983884, "lat": 28.5623057, "lon": 77.1637042}, {"type": "node", "id": 7612997485, "lat": 28.5624188, "lon": 77.1643104}, {"type": "node", "id": 7612997486, "lat": 28.5628758, "lon": 77.1642245}, {"type": "node", "id": 7612997487, "lat": 28.5633328, "lon": 77.1641119}, {"type": "node", "id": 7612997488, "lat": 28.5637474, "lon": 77.1625723}, {"type": "node", "id": 7612997489, "lat": 28.5633658, "lon": 77.1627225}, {"type": "node", "id": 7612997490, "lat": 28.5632263, "lon": 77.1627642}, {"type": "node", "id": 7612997491, "lat": 28.5634265, "lon": 77.1633837}, {"type": "node", "id": 7612997492, "lat": 28.5637799, "lon": 77.1632389}, {"type": "node", "id": 9373332919, "lat": 28.5601762, "lon": 77.1639298}, {"type": "node", "id": 9373332920, "lat": 28.5592986, "lon": 77.1645064}, {"type": "node", "id": 9373332921, "lat": 28.5575808, "lon": 77.1651032}, {"type": "node", "id": 9373332926, "lat": 28.5579123, "lon": 77.1679977}, {"type": "node", "id": 9373332927, "lat": 28.5576163, "lon": 77.1675642}, {"type": "node", "id": 9373332928, "lat": 28.5582936, "lon": 77.1672356}, {"type": "node", "id": 9373332929, "lat": 28.5595893, "lon": 77.1667327}, {"type": "node", "id": 9373332930, "lat": 28.5601896, "lon": 77.1665248}, {"type": "node", "id": 9725940731, "lat": 28.5602424, "lon": 77.1640009}, {"type": "node", "id": 9725940732, "lat": 28.5604367, "lon": 77.1649385}, {"type": "node", "id": 9725940733, "lat": 28.5606536, "lon": 77.1663324}, {"type": "node", "id": 10259454367, "lat": 28.562249, "lon": 77.1640628}, {"type": "node", "id": 6853682649, "lat": 28.5587673, "lon": 77.1717405}, {"type": "node", "id": 6853682662, "lat": 28.5592476, "lon": 77.171502}, {"type": "node", "id": 6853682669, "lat": 28.5580347, "lon": 77.1729851}, {"type": "node", "id": 6853682670, "lat": 28.5591299, "lon": 77.1713626}, {"type": "node", "id": 6853682675, "lat": 28.5579093, "lon": 77.172862}, {"type": "node", "id": 6853682676, "lat": 28.5581888, "lon": 77.1724705}, {"type": "node", "id": 6853682681, "lat": 28.558506, "lon": 77.1720692}, {"type": "node", "id": 6853697499, "lat": 28.5585598, "lon": 77.1722708}, {"type": "node", "id": 7614965788, "lat": 28.5613557, "lon": 77.1747675}, {"type": "node", "id": 9373332925, "lat": 28.557416, "lon": 77.1686572}, {"type": "node", "id": 10904526552, "lat": 28.5586655, "lon": 77.1716199}, {"type": "node", "id": 10904526553, "lat": 28.5587061, "lon": 77.1715148}, {"type": "node", "id": 10904526554, "lat": 28.5581268, "lon": 77.1713339}, {"type": "node", "id": 10904526555, "lat": 28.5577926, "lon": 77.1718824}, {"type": "node", "id": 10904526556, "lat": 28.5581123, "lon": 77.1722609}, {"type": "node", "id": 2025446558, "lat": 28.5647981, "lon": 77.1580558}, {"type": "node", "id": 2025446568, "lat": 28.5639689, "lon": 77.1593325}, {"type": "node", "id": 2025446572, "lat": 28.5650996, "lon": 77.158501}, {"type": "node", "id": 2025446576, "lat": 28.56493, "lon": 77.1582006}, {"type": "node", "id": 2025446584, "lat": 28.5643788, "lon": 77.1577124}, {"type": "node", "id": 2656025622, "lat": 28.5688656, "lon": 77.1579516}, {"type": "node", "id": 6001205811, "lat": 28.5657563, "lon": 77.1607116}, {"type": "node", "id": 6001205812, "lat": 28.5656649, "lon": 77.1607756}, {"type": "node", "id": 6001205813, "lat": 28.5658213, "lon": 77.1610652}, {"type": "node", "id": 6001205814, "lat": 28.5659127, "lon": 77.1610012}, {"type": "node", "id": 6001205831, "lat": 28.5667499, "lon": 77.1601393}, {"type": "node", "id": 6001205832, "lat": 28.566859, "lon": 77.1603238}, {"type": "node", "id": 6001205833, "lat": 28.5667164, "lon": 77.1604331}, {"type": "node", "id": 6001205834, "lat": 28.5666073, "lon": 77.1602486}, {"type": "node", "id": 6246280505, "lat": 28.5660895, "lon": 77.1618479}, {"type": "node", "id": 6276048248, "lat": 28.5677807, "lon": 77.1619888}, {"type": "node", "id": 6425150143, "lat": 28.5699132, "lon": 77.1591551}, {"type": "node", "id": 6425150155, "lat": 28.5699556, "lon": 77.1590293}, {"type": "node", "id": 6425150163, "lat": 28.5699937, "lon": 77.1591158}, {"type": "node", "id": 6425150165, "lat": 28.5699316, "lon": 77.1588603}, {"type": "node", "id": 6427235062, "lat": 28.5699601, "lon": 77.1590413}, {"type": "node", "id": 6427235078, "lat": 28.5694324, "lon": 77.1589859}, {"type": "node", "id": 6427235083, "lat": 28.5699541, "lon": 77.1590196}, {"type": "node", "id": 6427235192, "lat": 28.5693653, "lon": 77.1575731}, {"type": "node", "id": 6427235193, "lat": 28.5693535, "lon": 77.1573386}, {"type": "node", "id": 6427235194, "lat": 28.5699567, "lon": 77.1588137}, {"type": "node", "id": 6427235195, "lat": 28.5699183, "lon": 77.1585354}, {"type": "node", "id": 6427235196, "lat": 28.569869, "lon": 77.1584071}, {"type": "node", "id": 6427235197, "lat": 28.5697038, "lon": 77.1583075}, {"type": "node", "id": 6427235198, "lat": 28.5696095, "lon": 77.158139}, {"type": "node", "id": 6427235199, "lat": 28.5695855, "lon": 77.1580842}, {"type": "node", "id": 6427235200, "lat": 28.5695761, "lon": 77.1580507}, {"type": "node", "id": 6427235201, "lat": 28.5695761, "lon": 77.158018}, {"type": "node", "id": 6427235202, "lat": 28.5695942, "lon": 77.1578201}, {"type": "node", "id": 6427235203, "lat": 28.5695968, "lon": 77.1577806}, {"type": "node", "id": 6427235204, "lat": 28.5695848, "lon": 77.1577509}, {"type": "node", "id": 6427235205, "lat": 28.569544, "lon": 77.1577037}, {"type": "node", "id": 6427235213, "lat": 28.569619, "lon": 77.1593326}, {"type": "node", "id": 6581322927, "lat": 28.5666931, "lon": 77.1613687}, {"type": "node", "id": 6581322928, "lat": 28.5662594, "lon": 77.161681}, {"type": "node", "id": 6581322929, "lat": 28.5660718, "lon": 77.1618161}, {"type": "node", "id": 6581322934, "lat": 28.566969, "lon": 77.1618655}, {"type": "node", "id": 6885030404, "lat": 28.5657618, "lon": 77.1620238}, {"type": "node", "id": 6885030412, "lat": 28.5659846, "lon": 77.1618607}, {"type": "node", "id": 6885030421, "lat": 28.5660743, "lon": 77.1620197}, {"type": "node", "id": 5358882578, "lat": 28.5695471, "lon": 77.166978}, {"type": "node", "id": 5358882579, "lat": 28.5696333, "lon": 77.1672841}, {"type": "node", "id": 5358882580, "lat": 28.5692295, "lon": 77.1670938}, {"type": "node", "id": 5358882581, "lat": 28.5694126, "lon": 77.1677441}, {"type": "node", "id": 5358882582, "lat": 28.5699147, "lon": 77.1675609}, {"type": "node", "id": 5358882583, "lat": 28.5698178, "lon": 77.1672168}, {"type": "node", "id": 6246280510, "lat": 28.5671943, "lon": 77.162271}, {"type": "node", "id": 6276048228, "lat": 28.5679109, "lon": 77.16264}, {"type": "node", "id": 6276048241, "lat": 28.5680807, "lon": 77.1625153}, {"type": "node", "id": 6276048243, "lat": 28.568036, "lon": 77.1625483}, {"type": "node", "id": 6276048246, "lat": 28.5676109, "lon": 77.1621135}, {"type": "node", "id": 6334958290, "lat": 28.5692449, "lon": 77.1649699}, {"type": "node", "id": 6334958291, "lat": 28.5690884, "lon": 77.1645365}, {"type": "node", "id": 6334958292, "lat": 28.5684836, "lon": 77.1650635}, {"type": "node", "id": 6334958293, "lat": 28.5686897, "lon": 77.1652183}, {"type": "node", "id": 6334958295, "lat": 28.5684477, "lon": 77.1649967}, {"type": "node", "id": 6334958296, "lat": 28.5685979, "lon": 77.1650906}, {"type": "node", "id": 6334958298, "lat": 28.5685485, "lon": 77.1650235}, {"type": "node", "id": 6581322930, "lat": 28.5663378, "lon": 77.1622951}, {"type": "node", "id": 6581322931, "lat": 28.5665729, "lon": 77.1627184}, {"type": "node", "id": 6581322932, "lat": 28.5666484, "lon": 77.1626641}, {"type": "node", "id": 6581322933, "lat": 28.5670355, "lon": 77.1623853}, {"type": "node", "id": 6862917581, "lat": 28.5666353, "lon": 77.1628592}, {"type": "node", "id": 6862941286, "lat": 28.566776, "lon": 77.1627574}, {"type": "node", "id": 6862941291, "lat": 28.5670407, "lon": 77.1632321}, {"type": "node", "id": 6862941302, "lat": 28.5669, "lon": 77.1633338}, {"type": "node", "id": 6862941306, "lat": 28.5668119, "lon": 77.1631758}, {"type": "node", "id": 6885030407, "lat": 28.5669018, "lon": 77.1624816}, {"type": "node", "id": 6885030424, "lat": 28.5656584, "lon": 77.162324}, {"type": "node", "id": 6885030441, "lat": 28.5655687, "lon": 77.1621651}, {"type": "node", "id": 7612983878, "lat": 28.564301, "lon": 77.1655978}, {"type": "node", "id": 7612983880, "lat": 28.5639853, "lon": 77.1664776}, {"type": "node", "id": 7612983881, "lat": 28.564513, "lon": 77.1661986}, {"type": "node", "id": 7612997493, "lat": 28.5639872, "lon": 77.1630833}, {"type": "node", "id": 2805319525, "lat": 28.5746554, "lon": 77.1666399}, {"type": "node", "id": 2805319528, "lat": 28.5748042, "lon": 77.1669611}, {"type": "node", "id": 2805319530, "lat": 28.5750409, "lon": 77.1664084}, {"type": "node", "id": 2805319531, "lat": 28.5750598, "lon": 77.1662563}, {"type": "node", "id": 2805319533, "lat": 28.5751897, "lon": 77.1667296}, {"type": "node", "id": 2805319535, "lat": 28.5752693, "lon": 77.1667057}, {"type": "node", "id": 2805319536, "lat": 28.5754363, "lon": 77.1655097}, {"type": "node", "id": 2805319538, "lat": 28.5754454, "lon": 77.1661319}, {"type": "node", "id": 2805319539, "lat": 28.5756822, "lon": 77.165527}, {"type": "node", "id": 2805319541, "lat": 28.5757793, "lon": 77.1663912}, {"type": "node", "id": 2805319545, "lat": 28.5759645, "lon": 77.1656238}, {"type": "node", "id": 2805319552, "lat": 28.5761728, "lon": 77.167041}, {"type": "node", "id": 2805319553, "lat": 28.5761834, "lon": 77.1670238}, {"type": "node", "id": 2805319555, "lat": 28.5762903, "lon": 77.1672573}, {"type": "node", "id": 2805319556, "lat": 28.5762929, "lon": 77.1679879}, {"type": "node", "id": 2805319558, "lat": 28.5763418, "lon": 77.1672158}, {"type": "node", "id": 2805319559, "lat": 28.5763783, "lon": 77.1671302}, {"type": "node", "id": 2805319562, "lat": 28.576557, "lon": 77.1685444}, {"type": "node", "id": 2805319563, "lat": 28.5766019, "lon": 77.1685364}, {"type": "node", "id": 2805319564, "lat": 28.576633, "lon": 77.1685401}, {"type": "node", "id": 2805319565, "lat": 28.5766663, "lon": 77.1685548}, {"type": "node", "id": 2805319566, "lat": 28.5762674, "lon": 77.1672972}, {"type": "node", "id": 2805319567, "lat": 28.5766964, "lon": 77.1685719}, {"type": "node", "id": 2805319568, "lat": 28.5767264, "lon": 77.1686}, {"type": "node", "id": 2805319570, "lat": 28.5769419, "lon": 77.1670859}, {"type": "node", "id": 6581322935, "lat": 28.5765074, "lon": 77.1677553}, {"type": "node", "id": 6581322936, "lat": 28.576513, "lon": 77.1668382}, {"type": "node", "id": 10264187021, "lat": 28.5765888, "lon": 77.1637107}, {"type": "node", "id": 10264187022, "lat": 28.5766195, "lon": 77.1634063}, {"type": "node", "id": 10264187023, "lat": 28.5767773, "lon": 77.1634117}, {"type": "node", "id": 10264187025, "lat": 28.5768939, "lon": 77.1632346}, {"type": "node", "id": 10264187026, "lat": 28.5769445, "lon": 77.1628484}, {"type": "node", "id": 11687895254, "lat": 28.5716022, "lon": 77.1654557}, {"type": "node", "id": 11687895255, "lat": 28.5713651, "lon": 77.1659117}, {"type": "node", "id": 11687895256, "lat": 28.5709662, "lon": 77.1650981}, {"type": "node", "id": 6262528234, "lat": 28.5725478, "lon": 77.1741277}, {"type": "node", "id": 6262528236, "lat": 28.5719191, "lon": 77.1737059}, {"type": "node", "id": 6262528237, "lat": 28.572149, "lon": 77.1738925}, {"type": "node", "id": 6262528239, "lat": 28.5720168, "lon": 77.1750163}, {"type": "node", "id": 6262528240, "lat": 28.571869, "lon": 77.1749373}, {"type": "node", "id": 6262528241, "lat": 28.5724306, "lon": 77.1740912}, {"type": "node", "id": 6262528244, "lat": 28.5723028, "lon": 77.1740197}, {"type": "node", "id": 6262528247, "lat": 28.572649, "lon": 77.174287}, {"type": "node", "id": 6262528248, "lat": 28.5719857, "lon": 77.1739459}, {"type": "node", "id": 6262528250, "lat": 28.5720074, "lon": 77.1736746}, {"type": "node", "id": 6262528252, "lat": 28.5719806, "lon": 77.1744218}, {"type": "node", "id": 7614064140, "lat": 28.5749158, "lon": 77.1712049}, {"type": "node", "id": 7614064141, "lat": 28.5752114, "lon": 77.1710037}, {"type": "node", "id": 7614064142, "lat": 28.5753409, "lon": 77.1712424}, {"type": "node", "id": 7614064143, "lat": 28.5753527, "lon": 77.1713873}, {"type": "node", "id": 7614064144, "lat": 28.5753044, "lon": 77.1714289}, {"type": "node", "id": 7614064145, "lat": 28.5752726, "lon": 77.1714798}, {"type": "node", "id": 7614064146, "lat": 28.5752279, "lon": 77.1714516}, {"type": "node", "id": 7614064147, "lat": 28.5751925, "lon": 77.1714704}, {"type": "node", "id": 7614064148, "lat": 28.5751584, "lon": 77.1714221}, {"type": "node", "id": 7614064149, "lat": 28.5751372, "lon": 77.1714691}, {"type": "node", "id": 7614064150, "lat": 28.5751148, "lon": 77.1714812}, {"type": "node", "id": 7614064151, "lat": 28.5750771, "lon": 77.1714154}, {"type": "node", "id": 7614064152, "lat": 28.575017, "lon": 77.1714369}, {"type": "node", "id": 7614064153, "lat": 28.5749958, "lon": 77.1714449}, {"type": "node", "id": 7614064154, "lat": 28.574904, "lon": 77.171229}, {"type": "node", "id": 11687895250, "lat": 28.5739703, "lon": 77.1691643}, {"type": "node", "id": 11687895251, "lat": 28.5741148, "lon": 77.1695094}, {"type": "node", "id": 11687895252, "lat": 28.5738541, "lon": 77.1696239}, {"type": "node", "id": 11687895253, "lat": 28.5737175, "lon": 77.1692609}, {"type": "node", "id": 2367722579, "lat": 28.5857722, "lon": 77.1605622}, {"type": "node", "id": 2367722581, "lat": 28.5859752, "lon": 77.1584146}, {"type": "node", "id": 2367722583, "lat": 28.5894557, "lon": 77.1565594}, {"type": "node", "id": 2656210822, "lat": 28.5898542, "lon": 77.1564151}, {"type": "node", "id": 3557832623, "lat": 28.5899677, "lon": 77.1574674}, {"type": "node", "id": 3557832624, "lat": 28.5900869, "lon": 77.1577821}, {"type": "node", "id": 4241044784, "lat": 28.5854933, "lon": 77.1607386}, {"type": "node", "id": 6084384997, "lat": 28.5852988, "lon": 77.1590242}, {"type": "node", "id": 6084384999, "lat": 28.589736, "lon": 77.1564603}, {"type": "node", "id": 6084385006, "lat": 28.5899931, "lon": 77.1567904}, {"type": "node", "id": 11843038964, "lat": 28.58558, "lon": 77.159802}, {"type": "node", "id": 11843066080, "lat": 28.5852135, "lon": 77.1597775}, {"type": "node", "id": 11843066134, "lat": 28.5849337, "lon": 77.1594309}, {"type": "node", "id": 11843066163, "lat": 28.5856683, "lon": 77.1601631}, {"type": "node", "id": 2805319576, "lat": 28.5773244, "lon": 77.1682336}, {"type": "node", "id": 2805319578, "lat": 28.5773639, "lon": 77.1670306}, {"type": "node", "id": 2805319584, "lat": 28.5775794, "lon": 77.1671482}, {"type": "node", "id": 2805319585, "lat": 28.5776321, "lon": 77.1680108}, {"type": "node", "id": 2805319587, "lat": 28.577634, "lon": 77.1663704}, {"type": "node", "id": 2805319590, "lat": 28.5777008, "lon": 77.1674627}, {"type": "node", "id": 2805319597, "lat": 28.5778339, "lon": 77.1675317}, {"type": "node", "id": 2805319599, "lat": 28.5778708, "lon": 77.1664879}, {"type": "node", "id": 2805319626, "lat": 28.5792419, "lon": 77.1684019}, {"type": "node", "id": 2805319630, "lat": 28.5795596, "lon": 77.1685192}, {"type": "node", "id": 3557480932, "lat": 28.5828181, "lon": 77.1678576}, {"type": "node", "id": 3557480933, "lat": 28.5828688, "lon": 77.1675917}, {"type": "node", "id": 3557480934, "lat": 28.5829969, "lon": 77.1674058}, {"type": "node", "id": 3557480935, "lat": 28.5828186, "lon": 77.1679815}, {"type": "node", "id": 3557480936, "lat": 28.5829353, "lon": 77.167479}, {"type": "node", "id": 3557480937, "lat": 28.5828429, "lon": 77.1676904}, {"type": "node", "id": 3557480938, "lat": 28.5832259, "lon": 77.1673022}, {"type": "node", "id": 3557480939, "lat": 28.5830617, "lon": 77.1673465}, {"type": "node", "id": 3557480940, "lat": 28.5832997, "lon": 77.1673071}, {"type": "node", "id": 3557480941, "lat": 28.5833237, "lon": 77.1679505}, {"type": "node", "id": 3557480942, "lat": 28.5831372, "lon": 77.1673114}, {"type": "node", "id": 3557480945, "lat": 28.5828519, "lon": 77.1680353}, {"type": "node", "id": 3557480950, "lat": 28.5833599, "lon": 77.167319}, {"type": "node", "id": 10264174991, "lat": 28.57977, "lon": 77.1641012}, {"type": "node", "id": 10264174992, "lat": 28.5791241, "lon": 77.1636026}, {"type": "node", "id": 10264174993, "lat": 28.5793257, "lon": 77.1632639}, {"type": "node", "id": 10264174994, "lat": 28.5799716, "lon": 77.1637625}, {"type": "node", "id": 10264174995, "lat": 28.5794556, "lon": 77.1654919}, {"type": "node", "id": 10264174996, "lat": 28.579198, "lon": 77.1659351}, {"type": "node", "id": 10264174997, "lat": 28.5796861, "lon": 77.166303}, {"type": "node", "id": 10264174998, "lat": 28.5799437, "lon": 77.1658597}, {"type": "node", "id": 10264187016, "lat": 28.5783827, "lon": 77.1640011}, {"type": "node", "id": 10264187017, "lat": 28.5778595, "lon": 77.1635919}, {"type": "node", "id": 10264187018, "lat": 28.5776584, "lon": 77.1639253}, {"type": "node", "id": 10264187019, "lat": 28.5781817, "lon": 77.1643345}, {"type": "node", "id": 10264187024, "lat": 28.5771447, "lon": 77.1634439}, {"type": "node", "id": 10264187027, "lat": 28.5773226, "lon": 77.1631381}, {"type": "node", "id": 11806721471, "lat": 28.5833704, "lon": 77.1682048}, {"type": "node", "id": 11806721472, "lat": 28.5833182, "lon": 77.1680516}, {"type": "node", "id": 11806721476, "lat": 28.5835188, "lon": 77.1678895}, {"type": "node", "id": 11806721477, "lat": 28.5830544, "lon": 77.1680523}, {"type": "node", "id": 11806721478, "lat": 28.5834758, "lon": 77.1678532}, {"type": "node", "id": 11806721480, "lat": 28.5835197, "lon": 77.16807}, {"type": "node", "id": 11806721481, "lat": 28.5829217, "lon": 77.1680529}, {"type": "node", "id": 11806721488, "lat": 28.5834424, "lon": 77.1673666}, {"type": "node", "id": 11806721489, "lat": 28.5832019, "lon": 77.1681069}, {"type": "node", "id": 11806721490, "lat": 28.5835243, "lon": 77.1682982}, {"type": "node", "id": 11806721491, "lat": 28.5834045, "lon": 77.1679877}, {"type": "node", "id": 11806721492, "lat": 28.5831471, "lon": 77.1680221}, {"type": "node", "id": 11806721494, "lat": 28.5834934, "lon": 77.1683184}, {"type": "node", "id": 11806721495, "lat": 28.5835208, "lon": 77.16819}, {"type": "node", "id": 2805319591, "lat": 28.5777206, "lon": 77.1723317}, {"type": "node", "id": 2805319602, "lat": 28.5779399, "lon": 77.1727058}, {"type": "node", "id": 2805319606, "lat": 28.5780758, "lon": 77.1721015}, {"type": "node", "id": 2805319607, "lat": 28.5781237, "lon": 77.1722025}, {"type": "node", "id": 2805319608, "lat": 28.5781828, "lon": 77.1691412}, {"type": "node", "id": 2805319609, "lat": 28.5782356, "lon": 77.1713092}, {"type": "node", "id": 2805319613, "lat": 28.5783987, "lon": 77.1717198}, {"type": "node", "id": 2805319615, "lat": 28.5785306, "lon": 77.168799}, {"type": "node", "id": 2805319616, "lat": 28.578564, "lon": 77.170835}, {"type": "node", "id": 2805319617, "lat": 28.5785962, "lon": 77.171143}, {"type": "node", "id": 2805319618, "lat": 28.5786348, "lon": 77.1711967}, {"type": "node", "id": 2805319619, "lat": 28.5786778, "lon": 77.1710354}, {"type": "node", "id": 2805319623, "lat": 28.5788023, "lon": 77.1707177}, {"type": "node", "id": 2805319628, "lat": 28.5793848, "lon": 77.1691216}, {"type": "node", "id": 6110406802, "lat": 28.5832734, "lon": 77.1696424}, {"type": "node", "id": 6110406803, "lat": 28.5829154, "lon": 77.169562}, {"type": "node", "id": 6110406804, "lat": 28.5828353, "lon": 77.1694493}, {"type": "node", "id": 6110406805, "lat": 28.5830002, "lon": 77.1689451}, {"type": "node", "id": 6110406806, "lat": 28.5828259, "lon": 77.1688324}, {"type": "node", "id": 6110406807, "lat": 28.5823124, "lon": 77.1693206}, {"type": "node", "id": 6110406808, "lat": 28.5822559, "lon": 77.1696907}, {"type": "node", "id": 6110406809, "lat": 28.5826234, "lon": 77.170313}, {"type": "node", "id": 6110406810, "lat": 28.5832122, "lon": 77.1710104}, {"type": "node", "id": 6110406813, "lat": 28.5834242, "lon": 77.171697}, {"type": "node", "id": 6110406814, "lat": 28.5832357, "lon": 77.1719813}, {"type": "node", "id": 6110406815, "lat": 28.5833559, "lon": 77.1722442}, {"type": "node", "id": 6110406816, "lat": 28.5832923, "lon": 77.1722952}, {"type": "node", "id": 6110406817, "lat": 28.5835278, "lon": 77.1727753}, {"type": "node", "id": 3557480958, "lat": 28.5837, "lon": 77.1675557}, {"type": "node", "id": 3563393946, "lat": 28.5899417, "lon": 77.1652836}, {"type": "node", "id": 11775557640, "lat": 28.5853969, "lon": 77.1664542}, {"type": "node", "id": 11775572570, "lat": 28.5874452, "lon": 77.1668598}, {"type": "node", "id": 11775572584, "lat": 28.5857116, "lon": 77.1671884}, {"type": "node", "id": 11775572586, "lat": 28.5871461, "lon": 77.1665346}, {"type": "node", "id": 11775572591, "lat": 28.5870987, "lon": 77.1665462}, {"type": "node", "id": 11775572606, "lat": 28.5858298, "lon": 77.1674203}, {"type": "node", "id": 11775572607, "lat": 28.5873587, "lon": 77.166621}, {"type": "node", "id": 11775572618, "lat": 28.5859743, "lon": 77.1677038}, {"type": "node", "id": 11775572635, "lat": 28.5866004, "lon": 77.1664941}, {"type": "node", "id": 11775572653, "lat": 28.5871852, "lon": 77.1670364}, {"type": "node", "id": 11775572665, "lat": 28.5864689, "lon": 77.1683172}, {"type": "node", "id": 11775572672, "lat": 28.5868933, "lon": 77.1683285}, {"type": "node", "id": 11775572677, "lat": 28.5872867, "lon": 77.1667181}, {"type": "node", "id": 11775572685, "lat": 28.5860114, "lon": 77.167967}, {"type": "node", "id": 11775572699, "lat": 28.5872451, "lon": 77.1665485}, {"type": "node", "id": 11775572709, "lat": 28.586682, "lon": 77.1684832}, {"type": "node", "id": 11775572712, "lat": 28.5858408, "lon": 77.1674419}, {"type": "node", "id": 11775572725, "lat": 28.5849314, "lon": 77.1663304}, {"type": "node", "id": 11775572757, "lat": 28.5864066, "lon": 77.1680014}, {"type": "node", "id": 11775572764, "lat": 28.5875762, "lon": 77.1678461}, {"type": "node", "id": 11806721475, "lat": 28.5852111, "lon": 77.168014}, {"type": "node", "id": 11806721479, "lat": 28.5835467, "lon": 77.1679129}, {"type": "node", "id": 11806721484, "lat": 28.5849662, "lon": 77.167501}, {"type": "node", "id": 11806721487, "lat": 28.5836185, "lon": 77.1676863}, {"type": "node", "id": 11806721493, "lat": 28.5847357, "lon": 77.1679747}, {"type": "node", "id": 11806721496, "lat": 28.585124, "lon": 77.167695}, {"type": "node", "id": 11814425243, "lat": 28.588243, "lon": 77.1684912}, {"type": "node", "id": 11814425246, "lat": 28.5882574, "lon": 77.1685201}, {"type": "node", "id": 11814425257, "lat": 28.588285, "lon": 77.1684649}, {"type": "node", "id": 11814425261, "lat": 28.5882986, "lon": 77.1684934}, {"type": "node", "id": 2809115272, "lat": 28.5858327, "lon": 77.1701617}, {"type": "node", "id": 2809115273, "lat": 28.585874, "lon": 77.1704662}, {"type": "node", "id": 2809115279, "lat": 28.5861124, "lon": 77.1701125}, {"type": "node", "id": 2809115280, "lat": 28.5861537, "lon": 77.1704171}, {"type": "node", "id": 6110406792, "lat": 28.5840059, "lon": 77.1725084}, {"type": "node", "id": 6110406793, "lat": 28.5841355, "lon": 77.1720001}, {"type": "node", "id": 6110406794, "lat": 28.5844982, "lon": 77.1717614}, {"type": "node", "id": 6110406795, "lat": 28.5850823, "lon": 77.1709487}, {"type": "node", "id": 6110406796, "lat": 28.5846489, "lon": 77.1720913}, {"type": "node", "id": 6110406797, "lat": 28.5854073, "lon": 77.1716434}, {"type": "node", "id": 6110406798, "lat": 28.5852566, "lon": 77.1712679}, {"type": "node", "id": 6110406799, "lat": 28.5848468, "lon": 77.1706349}, {"type": "node", "id": 6110406800, "lat": 28.584305, "lon": 77.1701842}, {"type": "node", "id": 6110406801, "lat": 28.5837916, "lon": 77.1703291}, {"type": "node", "id": 6110406811, "lat": 28.5836503, "lon": 77.171182}, {"type": "node", "id": 6110406812, "lat": 28.5836809, "lon": 77.1712947}, {"type": "node", "id": 6110406818, "lat": 28.5843121, "lon": 77.1723381}, {"type": "node", "id": 12022944661, "lat": 28.5857033, "lon": 77.1746953}, {"type": "node", "id": 12022944662, "lat": 28.5868872, "lon": 77.1742463}, {"type": "node", "id": 12022944665, "lat": 28.5858545, "lon": 77.172256}, {"type": "node", "id": 12022944666, "lat": 28.5858128, "lon": 77.1749488}, {"type": "node", "id": 12022944668, "lat": 28.5882879, "lon": 77.1705982}, {"type": "node", "id": 12022947370, "lat": 28.587551, "lon": 77.1714293}, {"type": "node", "id": 12022947371, "lat": 28.5851474, "lon": 77.1749955}, {"type": "node", "id": 12022947372, "lat": 28.5874312, "lon": 77.1712043}, {"type": "node", "id": 12022947374, "lat": 28.5871307, "lon": 77.1748329}, {"type": "node", "id": 12022947375, "lat": 28.5870049, "lon": 77.1743463}, {"type": "node", "id": 12022947377, "lat": 28.5870239, "lon": 77.1715001}, {"type": "node", "id": 12022947378, "lat": 28.5871383, "lon": 77.1717572}, {"type": "node", "id": 12022947379, "lat": 28.5871246, "lon": 77.1749154}, {"type": "node", "id": 12816324867, "lat": 28.5870731, "lon": 77.1746641}, {"type": "node", "id": 11873232746, "lat": 28.5981199, "lon": 77.141386}, {"type": "node", "id": 11873232750, "lat": 28.5967609, "lon": 77.1414705}, {"type": "node", "id": 11873300815, "lat": 28.5978834, "lon": 77.1412931}, {"type": "node", "id": 11873300828, "lat": 28.5977831, "lon": 77.141347}, {"type": "node", "id": 11873300835, "lat": 28.5974741, "lon": 77.1401762}, {"type": "node", "id": 11873300839, "lat": 28.5983956, "lon": 77.1414888}, {"type": "node", "id": 11873300876, "lat": 28.5969636, "lon": 77.1416003}, {"type": "node", "id": 11873300918, "lat": 28.5976021, "lon": 77.1419115}, {"type": "node", "id": 11873300939, "lat": 28.5974584, "lon": 77.1402811}, {"type": "node", "id": 11873300942, "lat": 28.5985558, "lon": 77.1406214}, {"type": "node", "id": 11873300955, "lat": 28.5969507, "lon": 77.1399265}, {"type": "node", "id": 11873300999, "lat": 28.5967673, "lon": 77.1399123}, {"type": "node", "id": 11873301022, "lat": 28.5969512, "lon": 77.1400314}, {"type": "node", "id": 11927937468, "lat": 28.5976773, "lon": 77.1403487}, {"type": "node", "id": 11927952980, "lat": 28.5974941, "lon": 77.1402921}, {"type": "node", "id": 12793822762, "lat": 28.5967646, "lon": 77.1405607}, {"type": "node", "id": 12793822763, "lat": 28.5967648, "lon": 77.1405203}, {"type": "node", "id": 12793822764, "lat": 28.5967645, "lon": 77.1406023}, {"type": "node", "id": 12880178620, "lat": 28.5912512, "lon": 77.1524647}, {"type": "node", "id": 12880178626, "lat": 28.5908067, "lon": 77.1539498}, {"type": "node", "id": 12880178627, "lat": 28.5918858, "lon": 77.1527209}, {"type": "node", "id": 12880178638, "lat": 28.5927518, "lon": 77.1532419}, {"type": "node", "id": 12880178647, "lat": 28.5907451, "lon": 77.153737}, {"type": "node", "id": 12880178649, "lat": 28.5913248, "lon": 77.152434}, {"type": "node", "id": 12880178653, "lat": 28.5907481, "lon": 77.1538594}, {"type": "node", "id": 12880178659, "lat": 28.5922077, "lon": 77.1546346}, {"type": "node", "id": 12880178660, "lat": 28.591136, "lon": 77.1527543}, {"type": "node", "id": 12880178662, "lat": 28.5927234, "lon": 77.1531493}, {"type": "node", "id": 2367722587, "lat": 28.5910722, "lon": 77.1603603}, {"type": "node", "id": 3557832625, "lat": 28.5901977, "lon": 77.1573392}, {"type": "node", "id": 5738751507, "lat": 28.5903178, "lon": 77.1576657}, {"type": "node", "id": 6084384994, "lat": 28.5912316, "lon": 77.1602713}, {"type": "node", "id": 6084385004, "lat": 28.5904429, "lon": 77.1580531}, {"type": "node", "id": 6084385005, "lat": 28.5905002, "lon": 77.1582984}, {"type": "node", "id": 11881256743, "lat": 28.590327, "lon": 77.1576941}, {"type": "node", "id": 2367722589, "lat": 28.5929347, "lon": 77.1642074}, {"type": "node", "id": 2367722591, "lat": 28.591557, "lon": 77.1662215}, {"type": "node", "id": 2713828007, "lat": 28.5901273, "lon": 77.165129}, {"type": "node", "id": 4242493543, "lat": 28.5904452, "lon": 77.1658392}, {"type": "node", "id": 4776237930, "lat": 28.5927884, "lon": 77.1639959}, {"type": "node", "id": 4776237931, "lat": 28.5926247, "lon": 77.163892}, {"type": "node", "id": 4776237936, "lat": 28.592262, "lon": 77.1632396}, {"type": "node", "id": 9867854540, "lat": 28.5925444, "lon": 77.1648652}, {"type": "node", "id": 12816013787, "lat": 28.5921344, "lon": 77.1654907}, {"type": "node", "id": 12816033259, "lat": 28.5919007, "lon": 77.1658471}, {"type": "node", "id": 12880182799, "lat": 28.5964498, "lon": 77.1622005}, {"type": "node", "id": 12880228801, "lat": 28.5961193, "lon": 77.1633173}, {"type": "node", "id": 12880228805, "lat": 28.5963938, "lon": 77.1631564}, {"type": "node", "id": 12880228806, "lat": 28.5960691, "lon": 77.1632616}, {"type": "node", "id": 12880228807, "lat": 28.5964736, "lon": 77.1624832}, {"type": "node", "id": 12880228810, "lat": 28.5961193, "lon": 77.1622373}, {"type": "node", "id": 12880228812, "lat": 28.596205, "lon": 77.1633136}, {"type": "node", "id": 12880228813, "lat": 28.5961088, "lon": 77.1628252}, {"type": "node", "id": 12880228814, "lat": 28.5964644, "lon": 77.1630184}, {"type": "node", "id": 1419238781, "lat": 28.5958916, "lon": 77.1694556}, {"type": "node", "id": 1419238782, "lat": 28.5965588, "lon": 77.1706978}, {"type": "node", "id": 1419238785, "lat": 28.5950459, "lon": 77.1717521}, {"type": "node", "id": 2833058756, "lat": 28.5961427, "lon": 77.1734041}, {"type": "node", "id": 10975974152, "lat": 28.5943785, "lon": 77.1705098}, {"type": "node", "id": 12866424076, "lat": 28.5958113, "lon": 77.1695116}, {"type": "node", "id": 12866424077, "lat": 28.5964786, "lon": 77.1707537}, {"type": "node", "id": 12866424078, "lat": 28.5950654, "lon": 77.1717385}, {"type": "node", "id": 12866424079, "lat": 28.594398, "lon": 77.1704963}, {"type": "node", "id": 12866424094, "lat": 28.5951709, "lon": 77.1716654}, {"type": "node", "id": 12866424095, "lat": 28.5945197, "lon": 77.1704166}, {"type": "node", "id": 12880182800, "lat": 28.5973832, "lon": 77.1627443}, {"type": "node", "id": 12880228802, "lat": 28.5974192, "lon": 77.1622755}, {"type": "node", "id": 12880228803, "lat": 28.5978124, "lon": 77.1625172}, {"type": "node", "id": 12880228804, "lat": 28.5975584, "lon": 77.1623135}, {"type": "node", "id": 12880228808, "lat": 28.5974159, "lon": 77.1627862}, {"type": "node", "id": 12880228809, "lat": 28.5975471, "lon": 77.1627682}, {"type": "node", "id": 12880228811, "lat": 28.5973728, "lon": 77.1623296}, {"type": "node", "id": 441177864, "lat": 28.5974026, "lon": 77.1725361}, {"type": "node", "id": 2833058757, "lat": 28.5968584, "lon": 77.1747516}, {"type": "node", "id": 2833058759, "lat": 28.5981183, "lon": 77.1738836}, {"type": "node", "id": 2870612286, "lat": 28.550356, "lon": 77.1837842}, {"type": "node", "id": 4233527074, "lat": 28.5491405, "lon": 77.1843508}, {"type": "node", "id": 10049646641, "lat": 28.549221, "lon": 77.1836317}, {"type": "node", "id": 10049646643, "lat": 28.5491039, "lon": 77.1837823}, {"type": "node", "id": 10049646644, "lat": 28.5490748, "lon": 77.1836944}, {"type": "node", "id": 12829575551, "lat": 28.5494243, "lon": 77.1845625}, {"type": "node", "id": 12829575553, "lat": 28.5497439, "lon": 77.1847473}, {"type": "node", "id": 12829575572, "lat": 28.5494067, "lon": 77.1846016}, {"type": "node", "id": 12829586602, "lat": 28.5492973, "lon": 77.183599}, {"type": "node", "id": 12829586605, "lat": 28.5498939, "lon": 77.1848346}, {"type": "node", "id": 12829586608, "lat": 28.5491099, "lon": 77.1842868}, {"type": "node", "id": 12829586641, "lat": 28.5492099, "lon": 77.184485}, {"type": "node", "id": 12829586644, "lat": 28.5495372, "lon": 77.1833649}, {"type": "node", "id": 528541683, "lat": 28.5540722, "lon": 77.1757227}, {"type": "node", "id": 528541685, "lat": 28.5537545, "lon": 77.1760595}, {"type": "node", "id": 528541687, "lat": 28.553513, "lon": 77.175818}, {"type": "node", "id": 528541689, "lat": 28.5538372, "lon": 77.1754716}, {"type": "node", "id": 528541699, "lat": 28.5529321, "lon": 77.1753521}, {"type": "node", "id": 528541700, "lat": 28.5530091, "lon": 77.1754437}, {"type": "node", "id": 528541702, "lat": 28.5541154, "lon": 77.1767532}, {"type": "node", "id": 528541703, "lat": 28.5540384, "lon": 77.1766616}, {"type": "node", "id": 528541707, "lat": 28.5545319, "lon": 77.1763159}, {"type": "node", "id": 528541708, "lat": 28.554459, "lon": 77.1762284}, {"type": "node", "id": 4233041527, "lat": 28.5619537, "lon": 77.1786689}, {"type": "node", "id": 4233041536, "lat": 28.5621057, "lon": 77.1796708}, {"type": "node", "id": 4233041549, "lat": 28.5624777, "lon": 77.1793045}, {"type": "node", "id": 7614965789, "lat": 28.560934, "lon": 77.1753254}, {"type": "node", "id": 7614965790, "lat": 28.5608492, "lon": 77.1754542}, {"type": "node", "id": 7614965791, "lat": 28.5614264, "lon": 77.176165}, {"type": "node", "id": 7614965792, "lat": 28.5615347, "lon": 77.1762857}, {"type": "node", "id": 7614965793, "lat": 28.562093, "lon": 77.1756285}, {"type": "node", "id": 7648978984, "lat": 28.5609943, "lon": 77.1813956}, {"type": "node", "id": 7648997985, "lat": 28.5606126, "lon": 77.1815834}, {"type": "node", "id": 7648997988, "lat": 28.5587232, "lon": 77.1816531}, {"type": "node", "id": 7648997989, "lat": 28.5585442, "lon": 77.1816531}, {"type": "node", "id": 7648997992, "lat": 28.5619507, "lon": 77.1787242}, {"type": "node", "id": 7648997993, "lat": 28.561668, "lon": 77.1790246}, {"type": "node", "id": 7648997994, "lat": 28.5621203, "lon": 77.1796093}, {"type": "node", "id": 7648997995, "lat": 28.5624171, "lon": 77.1792928}, {"type": "node", "id": 10904472548, "lat": 28.5616396, "lon": 77.1789952}, {"type": "node", "id": 10904526557, "lat": 28.5608579, "lon": 77.175465}, {"type": "node", "id": 10904526558, "lat": 28.5614696, "lon": 77.1788769}, {"type": "node", "id": 10904526559, "lat": 28.5612025, "lon": 77.178518}, {"type": "node", "id": 10904526560, "lat": 28.5609395, "lon": 77.1788171}, {"type": "node", "id": 10904526561, "lat": 28.5612062, "lon": 77.1791628}, {"type": "node", "id": 5887390947, "lat": 28.5576113, "lon": 77.1878913}, {"type": "node", "id": 5887390949, "lat": 28.5592868, "lon": 77.1877533}, {"type": "node", "id": 5887390950, "lat": 28.557804, "lon": 77.1871976}, {"type": "node", "id": 7648997986, "lat": 28.5607964, "lon": 77.1823076}, {"type": "node", "id": 7648997987, "lat": 28.561211, "lon": 77.1821198}, {"type": "node", "id": 7648997990, "lat": 28.5585065, "lon": 77.1818463}, {"type": "node", "id": 7648997991, "lat": 28.5587091, "lon": 77.1818516}, {"type": "node", "id": 7648997996, "lat": 28.5575783, "lon": 77.1845419}, {"type": "node", "id": 7648997997, "lat": 28.5574416, "lon": 77.1849174}, {"type": "node", "id": 7648997998, "lat": 28.5582897, "lon": 77.1852178}, {"type": "node", "id": 7648997999, "lat": 28.5583981, "lon": 77.1848369}, {"type": "node", "id": 10274926086, "lat": 28.5590855, "lon": 77.1876779}, {"type": "node", "id": 3585443955, "lat": 28.5615537, "lon": 77.1908206}, {"type": "node", "id": 3585443962, "lat": 28.5616434, "lon": 77.1908654}, {"type": "node", "id": 5856966931, "lat": 28.5618158, "lon": 77.1892806}, {"type": "node", "id": 5856966932, "lat": 28.5615249, "lon": 77.1892105}, {"type": "node", "id": 5856966933, "lat": 28.5614238, "lon": 77.1895613}, {"type": "node", "id": 5856966934, "lat": 28.5617887, "lon": 77.1896624}, {"type": "node", "id": 5856966935, "lat": 28.5618528, "lon": 77.1892919}, {"type": "node", "id": 5856979746, "lat": 28.5619095, "lon": 77.1897606}, {"type": "node", "id": 5856979747, "lat": 28.5614559, "lon": 77.1896624}, {"type": "node", "id": 5856979748, "lat": 28.5612999, "lon": 77.1901237}, {"type": "node", "id": 5856979749, "lat": 28.5615125, "lon": 77.1901836}, {"type": "node", "id": 5856979750, "lat": 28.561326, "lon": 77.1908034}, {"type": "node", "id": 5856979751, "lat": 28.561724, "lon": 77.1909041}, {"type": "node", "id": 5856979752, "lat": 28.5618479, "lon": 77.1909648}, {"type": "node", "id": 5856979753, "lat": 28.5621314, "lon": 77.1910658}, {"type": "node", "id": 5856979754, "lat": 28.5622275, "lon": 77.1908132}, {"type": "node", "id": 5856979755, "lat": 28.5620673, "lon": 77.1907487}, {"type": "node", "id": 5856979756, "lat": 28.5620919, "lon": 77.1905746}, {"type": "node", "id": 5856979757, "lat": 28.5618282, "lon": 77.1905213}, {"type": "node", "id": 5856979758, "lat": 28.5618701, "lon": 77.1902041}, {"type": "node", "id": 5887390948, "lat": 28.5590785, "lon": 77.1885921}, {"type": "node", "id": 7648998005, "lat": 28.5638319, "lon": 77.1896721}, {"type": "node", "id": 7648998006, "lat": 28.563769, "lon": 77.1903858}, {"type": "node", "id": 10704322957, "lat": 28.5618809, "lon": 77.1909781}, {"type": "node", "id": 10704322958, "lat": 28.5619632, "lon": 77.1910147}, {"type": "node", "id": 10704322960, "lat": 28.5618082, "lon": 77.1909434}, {"type": "node", "id": 2799086951, "lat": 28.5687295, "lon": 77.1813321}, {"type": "node", "id": 2799086952, "lat": 28.5687873, "lon": 77.1813979}, {"type": "node", "id": 2799086955, "lat": 28.5696044, "lon": 77.1800874}, {"type": "node", "id": 2799086956, "lat": 28.5697168, "lon": 77.1809135}, {"type": "node", "id": 2799086958, "lat": 28.5699062, "lon": 77.1806357}, {"type": "node", "id": 2799086948, "lat": 28.5679666, "lon": 77.182283}, {"type": "node", "id": 2799086949, "lat": 28.5681982, "lon": 77.182009}, {"type": "node", "id": 2799086950, "lat": 28.5685861, "lon": 77.1834048}, {"type": "node", "id": 2799086953, "lat": 28.5689064, "lon": 77.1829055}, {"type": "node", "id": 2799086954, "lat": 28.5695618, "lon": 77.1841801}, {"type": "node", "id": 2799086957, "lat": 28.5697888, "lon": 77.1843752}, {"type": "node", "id": 2799086959, "lat": 28.5699784, "lon": 77.1837704}, {"type": "node", "id": 2799086960, "lat": 28.5702834, "lon": 77.1830356}, {"type": "node", "id": 2799086961, "lat": 28.5703203, "lon": 77.1827377}, {"type": "node", "id": 7305795514, "lat": 28.5689349, "lon": 77.184216}, {"type": "node", "id": 7305795515, "lat": 28.569688, "lon": 77.1848384}, {"type": "node", "id": 7305795518, "lat": 28.5696384, "lon": 77.1860051}, {"type": "node", "id": 12475215807, "lat": 28.5644943, "lon": 77.1881092}, {"type": "node", "id": 12475215808, "lat": 28.5642811, "lon": 77.1880587}, {"type": "node", "id": 12593080245, "lat": 28.5685586, "lon": 77.1858324}, {"type": "node", "id": 12593080246, "lat": 28.5685114, "lon": 77.1849075}, {"type": "node", "id": 12593080247, "lat": 28.5682506, "lon": 77.1853899}, {"type": "node", "id": 12593080248, "lat": 28.568522, "lon": 77.1854304}, {"type": "node", "id": 12593080278, "lat": 28.5684953, "lon": 77.1857507}, {"type": "node", "id": 12593080279, "lat": 28.5697398, "lon": 77.1850042}, {"type": "node", "id": 12601262896, "lat": 28.5649326, "lon": 77.1865297}, {"type": "node", "id": 12601262897, "lat": 28.5651146, "lon": 77.1866322}, {"type": "node", "id": 12601262898, "lat": 28.5650513, "lon": 77.1868821}, {"type": "node", "id": 12601262899, "lat": 28.5648407, "lon": 77.1868517}, {"type": "node", "id": 13002180644, "lat": 28.5642372, "lon": 77.1882993}, {"type": "node", "id": 2799086962, "lat": 28.5705065, "lon": 77.1792539}, {"type": "node", "id": 2799086963, "lat": 28.5705723, "lon": 77.1814344}, {"type": "node", "id": 2799086964, "lat": 28.5706895, "lon": 77.1796926}, {"type": "node", "id": 2799086965, "lat": 28.5708083, "lon": 77.1810305}, {"type": "node", "id": 2799086966, "lat": 28.5708709, "lon": 77.180314}, {"type": "node", "id": 2799086967, "lat": 28.570903, "lon": 77.1816647}, {"type": "node", "id": 2799086968, "lat": 28.5709383, "lon": 77.1804456}, {"type": "node", "id": 2799086969, "lat": 28.5709849, "lon": 77.1805023}, {"type": "node", "id": 2799086970, "lat": 28.571078, "lon": 77.181237}, {"type": "node", "id": 2799086972, "lat": 28.5713396, "lon": 77.1807655}, {"type": "node", "id": 9872207779, "lat": 28.5708753, "lon": 77.1810818}, {"type": "node", "id": 12866250298, "lat": 28.57536, "lon": 77.1760019}, {"type": "node", "id": 12866250299, "lat": 28.5754655, "lon": 77.1762285}, {"type": "node", "id": 12866250300, "lat": 28.5758325, "lon": 77.1760072}, {"type": "node", "id": 12866265501, "lat": 28.5757271, "lon": 77.1757805}, {"type": "node", "id": 12025691977, "lat": 28.5706647, "lon": 77.1858008}, {"type": "node", "id": 12025691978, "lat": 28.5705947, "lon": 77.1857854}, {"type": "node", "id": 12025691979, "lat": 28.5705379, "lon": 77.1858274}, {"type": "node", "id": 12025691980, "lat": 28.5705237, "lon": 77.1860413}, {"type": "node", "id": 12025691981, "lat": 28.5706538, "lon": 77.1860712}, {"type": "node", "id": 12025691982, "lat": 28.5706677, "lon": 77.1860248}, {"type": "node", "id": 12025691983, "lat": 28.5706433, "lon": 77.1859971}, {"type": "node", "id": 12025691984, "lat": 28.570648, "lon": 77.1859208}, {"type": "node", "id": 12025691985, "lat": 28.5706771, "lon": 77.1858981}, {"type": "node", "id": 12025691986, "lat": 28.5706806, "lon": 77.185829}, {"type": "node", "id": 12629803330, "lat": 28.5705503, "lon": 77.1860842}, {"type": "node", "id": 12629803331, "lat": 28.5706256, "lon": 77.1860872}, {"type": "node", "id": 2995789535, "lat": 28.5663942, "lon": 77.1884385}, {"type": "node", "id": 2995789537, "lat": 28.565782, "lon": 77.188893}, {"type": "node", "id": 2995789538, "lat": 28.565693, "lon": 77.1885855}, {"type": "node", "id": 3568791858, "lat": 28.5664489, "lon": 77.1897355}, {"type": "node", "id": 3568791859, "lat": 28.5664796, "lon": 77.1894859}, {"type": "node", "id": 3568791860, "lat": 28.5665773, "lon": 77.1897525}, {"type": "node", "id": 3568791861, "lat": 28.5666026, "lon": 77.1895056}, {"type": "node", "id": 4233127267, "lat": 28.5656659, "lon": 77.1887704}, {"type": "node", "id": 6204902844, "lat": 28.565112, "lon": 77.1898765}, {"type": "node", "id": 6204902845, "lat": 28.565081, "lon": 77.1902459}, {"type": "node", "id": 6204902846, "lat": 28.5656398, "lon": 77.1903066}, {"type": "node", "id": 6204902847, "lat": 28.5656708, "lon": 77.1899373}, {"type": "node", "id": 6771396261, "lat": 28.5663678, "lon": 77.1889439}, {"type": "node", "id": 7648998004, "lat": 28.5640901, "lon": 77.1897016}, {"type": "node", "id": 7648998007, "lat": 28.5640271, "lon": 77.1904153}, {"type": "node", "id": 7648998039, "lat": 28.5697481, "lon": 77.1902764}, {"type": "node", "id": 7648998040, "lat": 28.5704029, "lon": 77.1902657}, {"type": "node", "id": 7648998056, "lat": 28.569569, "lon": 77.1924544}, {"type": "node", "id": 7648998057, "lat": 28.5696586, "lon": 77.1910757}, {"type": "node", "id": 11152409740, "lat": 28.5657933, "lon": 77.188789}, {"type": "node", "id": 12475215806, "lat": 28.5644327, "lon": 77.1884562}, {"type": "node", "id": 12475215809, "lat": 28.5642178, "lon": 77.1884078}, {"type": "node", "id": 12492057021, "lat": 28.5656659, "lon": 77.1886741}, {"type": "node", "id": 12492057022, "lat": 28.5656338, "lon": 77.1888618}, {"type": "node", "id": 12492057023, "lat": 28.5651657, "lon": 77.1888224}, {"type": "node", "id": 12492057024, "lat": 28.5652344, "lon": 77.1885322}, {"type": "node", "id": 12592969893, "lat": 28.5656841, "lon": 77.1886677}, {"type": "node", "id": 13002180645, "lat": 28.5644492, "lon": 77.1883567}, {"type": "node", "id": 13002180649, "lat": 28.5643478, "lon": 77.1884381}, {"type": "node", "id": 13002180650, "lat": 28.5643625, "lon": 77.1883677}, {"type": "node", "id": 13002180651, "lat": 28.5643094, "lon": 77.1883534}, {"type": "node", "id": 13002180652, "lat": 28.5642944, "lon": 77.1884254}, {"type": "node", "id": 13002262578, "lat": 28.5660855, "lon": 77.1885032}, {"type": "node", "id": 13002262600, "lat": 28.5651988, "lon": 77.1886828}, {"type": "node", "id": 13002281501, "lat": 28.5652334, "lon": 77.1888281}, {"type": "node", "id": 13002281502, "lat": 28.5652388, "lon": 77.1887764}, {"type": "node", "id": 13002281503, "lat": 28.5651785, "lon": 77.1887682}, {"type": "node", "id": 13002281509, "lat": 28.5658046, "lon": 77.1888946}, {"type": "node", "id": 7648998041, "lat": 28.5704453, "lon": 77.189917}, {"type": "node", "id": 7648998042, "lat": 28.5712933, "lon": 77.1899492}, {"type": "node", "id": 7648998043, "lat": 28.5719246, "lon": 77.1899921}, {"type": "node", "id": 7648998044, "lat": 28.5722968, "lon": 77.189976}, {"type": "node", "id": 7648998045, "lat": 28.5723204, "lon": 77.1905929}, {"type": "node", "id": 7648998046, "lat": 28.5728857, "lon": 77.1905661}, {"type": "node", "id": 7648998047, "lat": 28.5728998, "lon": 77.1925027}, {"type": "node", "id": 7648998048, "lat": 28.5719859, "lon": 77.1925831}, {"type": "node", "id": 7648998049, "lat": 28.57191, "lon": 77.1936651}, {"type": "node", "id": 7648998050, "lat": 28.5713211, "lon": 77.193649}, {"type": "node", "id": 7648998051, "lat": 28.5710578, "lon": 77.1936614}, {"type": "node", "id": 7648998052, "lat": 28.5710625, "lon": 77.1934951}, {"type": "node", "id": 7648998053, "lat": 28.5710436, "lon": 77.1928245}, {"type": "node", "id": 7648998054, "lat": 28.5705254, "lon": 77.1927924}, {"type": "node", "id": 7648998055, "lat": 28.5705019, "lon": 77.1924759}, {"type": "node", "id": 3543859225, "lat": 28.5812798, "lon": 77.1783805}, {"type": "node", "id": 3543859249, "lat": 28.5813723, "lon": 77.1783276}, {"type": "node", "id": 3543859280, "lat": 28.5816143, "lon": 77.1791377}, {"type": "node", "id": 3543859303, "lat": 28.5817067, "lon": 77.1790847}, {"type": "node", "id": 6576505251, "lat": 28.583414, "lon": 77.1815714}, {"type": "node", "id": 6576505252, "lat": 28.5832962, "lon": 77.1814963}, {"type": "node", "id": 12778047481, "lat": 28.5792608, "lon": 77.1760508}, {"type": "node", "id": 12778047482, "lat": 28.5791157, "lon": 77.176323}, {"type": "node", "id": 12778047483, "lat": 28.5795378, "lon": 77.17671}, {"type": "node", "id": 12778047484, "lat": 28.5792691, "lon": 77.1768713}, {"type": "node", "id": 12778047485, "lat": 28.5791884, "lon": 77.1760903}, {"type": "node", "id": 12778047486, "lat": 28.579111, "lon": 77.1765298}, {"type": "node", "id": 12778083396, "lat": 28.5800579, "lon": 77.1778567}, {"type": "node", "id": 12778083397, "lat": 28.5796844, "lon": 77.1777725}, {"type": "node", "id": 12778083398, "lat": 28.5799502, "lon": 77.1776173}, {"type": "node", "id": 12778083399, "lat": 28.5797921, "lon": 77.1780118}, {"type": "node", "id": 6576505253, "lat": 28.583301, "lon": 77.1824941}, {"type": "node", "id": 6576505254, "lat": 28.5828629, "lon": 77.1822688}, {"type": "node", "id": 6576505255, "lat": 28.5827875, "lon": 77.1822259}, {"type": "node", "id": 6576505256, "lat": 28.5825661, "lon": 77.1827087}, {"type": "node", "id": 6576505257, "lat": 28.582552, "lon": 77.1827462}, {"type": "node", "id": 6576505258, "lat": 28.5830748, "lon": 77.1830413}, {"type": "node", "id": 6576505259, "lat": 28.5831172, "lon": 77.1830788}, {"type": "node", "id": 6576505260, "lat": 28.5833528, "lon": 77.1825263}, {"type": "node", "id": 6655324777, "lat": 28.5812064, "lon": 77.1871895}, {"type": "node", "id": 6655324778, "lat": 28.5810144, "lon": 77.1872793}, {"type": "node", "id": 6655324779, "lat": 28.5807071, "lon": 77.1874255}, {"type": "node", "id": 6655324780, "lat": 28.5804056, "lon": 77.1874255}, {"type": "node", "id": 6655324781, "lat": 28.5803702, "lon": 77.1874563}, {"type": "node", "id": 6655324783, "lat": 28.5802737, "lon": 77.1880585}, {"type": "node", "id": 6655324784, "lat": 28.5802831, "lon": 77.1881551}, {"type": "node", "id": 6655402985, "lat": 28.5807824, "lon": 77.1882516}, {"type": "node", "id": 6655402986, "lat": 28.5809332, "lon": 77.1882087}, {"type": "node", "id": 6655402987, "lat": 28.5811404, "lon": 77.1880907}, {"type": "node", "id": 6655402988, "lat": 28.5812347, "lon": 77.1874148}, {"type": "node", "id": 6655402989, "lat": 28.5788793, "lon": 77.1836168}, {"type": "node", "id": 6655402990, "lat": 28.5791148, "lon": 77.1833271}, {"type": "node", "id": 6655402991, "lat": 28.5793692, "lon": 77.1830696}, {"type": "node", "id": 6655402992, "lat": 28.5797932, "lon": 77.1835846}, {"type": "node", "id": 6655402993, "lat": 28.5801135, "lon": 77.1841961}, {"type": "node", "id": 6655402994, "lat": 28.5804338, "lon": 77.1847647}, {"type": "node", "id": 6655402995, "lat": 28.5806505, "lon": 77.1850222}, {"type": "node", "id": 6655402996, "lat": 28.580839, "lon": 77.1851081}, {"type": "node", "id": 6655402997, "lat": 28.5809803, "lon": 77.1850759}, {"type": "node", "id": 6655402998, "lat": 28.5810491, "lon": 77.1856202}, {"type": "node", "id": 6655402999, "lat": 28.5808229, "lon": 77.1860279}, {"type": "node", "id": 6655403000, "lat": 28.5804461, "lon": 77.1862639}, {"type": "node", "id": 6655403001, "lat": 28.5799938, "lon": 77.1861996}, {"type": "node", "id": 6655403002, "lat": 28.579567, "lon": 77.1857786}, {"type": "node", "id": 6655403003, "lat": 28.5792373, "lon": 77.1846735}, {"type": "node", "id": 12966165240, "lat": 28.5803599, "lon": 77.187565}, {"type": "node", "id": 12966165256, "lat": 28.5795979, "lon": 77.1882959}, {"type": "node", "id": 12966165257, "lat": 28.5794365, "lon": 77.1882167}, {"type": "node", "id": 12966165258, "lat": 28.5792187, "lon": 77.1880464}, {"type": "node", "id": 12966165287, "lat": 28.5809817, "lon": 77.1876146}, {"type": "node", "id": 12966165288, "lat": 28.5810647, "lon": 77.187626}, {"type": "node", "id": 12966165289, "lat": 28.5811071, "lon": 77.1872284}, {"type": "node", "id": 563661881, "lat": 28.5863962, "lon": 77.1793312}, {"type": "node", "id": 947950193, "lat": 28.5855491, "lon": 77.1812376}, {"type": "node", "id": 947950296, "lat": 28.589089, "lon": 77.1808286}, {"type": "node", "id": 947950479, "lat": 28.5877754, "lon": 77.1797088}, {"type": "node", "id": 947950637, "lat": 28.5892081, "lon": 77.1798692}, {"type": "node", "id": 947951032, "lat": 28.5875476, "lon": 77.1810212}, {"type": "node", "id": 2592537262, "lat": 28.5855171, "lon": 77.1797387}, {"type": "node", "id": 2592537263, "lat": 28.585568, "lon": 77.1798909}, {"type": "node", "id": 2592537264, "lat": 28.5855756, "lon": 77.17959}, {"type": "node", "id": 2592537265, "lat": 28.5856985, "lon": 77.1799576}, {"type": "node", "id": 2592537266, "lat": 28.5857093, "lon": 77.179532}, {"type": "node", "id": 2592537268, "lat": 28.5858322, "lon": 77.1798996}, {"type": "node", "id": 2592537269, "lat": 28.5858398, "lon": 77.1795987}, {"type": "node", "id": 2592537270, "lat": 28.5858907, "lon": 77.1797509}, {"type": "node", "id": 3543859807, "lat": 28.5838156, "lon": 77.1784355}, {"type": "node", "id": 3543859820, "lat": 28.5838654, "lon": 77.1783026}, {"type": "node", "id": 3543859872, "lat": 28.584077, "lon": 77.1787461}, {"type": "node", "id": 3543859878, "lat": 28.5841212, "lon": 77.1786343}, {"type": "node", "id": 3543859910, "lat": 28.5843232, "lon": 77.1788722}, {"type": "node", "id": 3543859922, "lat": 28.5843673, "lon": 77.1787605}, {"type": "node", "id": 3543859944, "lat": 28.5844486, "lon": 77.1789437}, {"type": "node", "id": 3543859955, "lat": 28.5844925, "lon": 77.1787647}, {"type": "node", "id": 3543859971, "lat": 28.5845423, "lon": 77.1786318}, {"type": "node", "id": 3543859972, "lat": 28.5845507, "lon": 77.1789984}, {"type": "node", "id": 3543859973, "lat": 28.5845557, "lon": 77.1786843}, {"type": "node", "id": 3543860204, "lat": 28.5846578, "lon": 77.178739}, {"type": "node", "id": 5810155254, "lat": 28.5854883, "lon": 77.1789156}, {"type": "node", "id": 6084384922, "lat": 28.5851406, "lon": 77.1807738}, {"type": "node", "id": 6084384923, "lat": 28.5851587, "lon": 77.1807538}, {"type": "node", "id": 6084384924, "lat": 28.5851821, "lon": 77.1807433}, {"type": "node", "id": 6084384925, "lat": 28.5852072, "lon": 77.1807438}, {"type": "node", "id": 6084384926, "lat": 28.5852303, "lon": 77.1807551}, {"type": "node", "id": 6084384927, "lat": 28.5852478, "lon": 77.1807757}, {"type": "node", "id": 6084384928, "lat": 28.5852571, "lon": 77.1808024}, {"type": "node", "id": 6084384929, "lat": 28.5852467, "lon": 77.1808573}, {"type": "node", "id": 6084384930, "lat": 28.5852286, "lon": 77.1808772}, {"type": "node", "id": 6084384931, "lat": 28.5852052, "lon": 77.1808877}, {"type": "node", "id": 6084384932, "lat": 28.5851801, "lon": 77.1808873}, {"type": "node", "id": 6084384933, "lat": 28.585157, "lon": 77.1808759}, {"type": "node", "id": 6084384934, "lat": 28.5851395, "lon": 77.1808553}, {"type": "node", "id": 6084384935, "lat": 28.5851302, "lon": 77.1808287}, {"type": "node", "id": 6084384936, "lat": 28.5852567, "lon": 77.180831}, {"type": "node", "id": 6084384937, "lat": 28.5851306, "lon": 77.1808}, {"type": "node", "id": 6576505247, "lat": 28.5836119, "lon": 77.1806863}, {"type": "node", "id": 6576505248, "lat": 28.583984, "lon": 77.180874}, {"type": "node", "id": 6576505249, "lat": 28.5837108, "lon": 77.1816251}, {"type": "node", "id": 6576505250, "lat": 28.5836684, "lon": 77.1817323}, {"type": "node", "id": 7947401464, "lat": 28.5852795, "lon": 77.1794276}, {"type": "node", "id": 7947401466, "lat": 28.5854678, "lon": 77.1789672}, {"type": "node", "id": 11985043707, "lat": 28.5851505, "lon": 77.1807628}, {"type": "node", "id": 11985043725, "lat": 28.5855155, "lon": 77.1813046}, {"type": "node", "id": 11985043730, "lat": 28.5854573, "lon": 77.1814099}, {"type": "node", "id": 12022944664, "lat": 28.5859115, "lon": 77.1766085}, {"type": "node", "id": 12022947373, "lat": 28.5846968, "lon": 77.17592}, {"type": "node", "id": 12866435349, "lat": 28.5878044, "lon": 77.1796648}, {"type": "node", "id": 12866435350, "lat": 28.5878542, "lon": 77.1796344}, {"type": "node", "id": 12866435351, "lat": 28.5879318, "lon": 77.1796244}, {"type": "node", "id": 12866435352, "lat": 28.5892281, "lon": 77.1798936}, {"type": "node", "id": 12866435353, "lat": 28.5892425, "lon": 77.1799233}, {"type": "node", "id": 12866435354, "lat": 28.5892503, "lon": 77.1799546}, {"type": "node", "id": 563661885, "lat": 28.5843301, "lon": 77.1837297}, {"type": "node", "id": 563661886, "lat": 28.583711, "lon": 77.1833849}, {"type": "node", "id": 947950131, "lat": 28.5876168, "lon": 77.1841999}, {"type": "node", "id": 947950225, "lat": 28.5886946, "lon": 77.184722}, {"type": "node", "id": 947950460, "lat": 28.5866113, "lon": 77.1867466}, {"type": "node", "id": 947950481, "lat": 28.5849401, "lon": 77.1825338}, {"type": "node", "id": 947950512, "lat": 28.5879201, "lon": 77.1857085}, {"type": "node", "id": 947950570, "lat": 28.5876314, "lon": 77.1872697}, {"type": "node", "id": 947950581, "lat": 28.5877811, "lon": 77.1858927}, {"type": "node", "id": 947950708, "lat": 28.5883759, "lon": 77.1855307}, {"type": "node", "id": 947950956, "lat": 28.5880039, "lon": 77.1864852}, {"type": "node", "id": 6189721099, "lat": 28.5870866, "lon": 77.1855399}, {"type": "node", "id": 6189721100, "lat": 28.5871737, "lon": 77.1853226}, {"type": "node", "id": 6576505261, "lat": 28.5897056, "lon": 77.1827747}, {"type": "node", "id": 6576505262, "lat": 28.5897236, "lon": 77.1828564}, {"type": "node", "id": 6576505263, "lat": 28.5897173, "lon": 77.1829404}, {"type": "node", "id": 6576505264, "lat": 28.5896874, "lon": 77.1830175}, {"type": "node", "id": 6576505265, "lat": 28.5896372, "lon": 77.1830794}, {"type": "node", "id": 6576505266, "lat": 28.589572, "lon": 77.1831193}, {"type": "node", "id": 6576505267, "lat": 28.589499, "lon": 77.183133}, {"type": "node", "id": 6576505268, "lat": 28.5893111, "lon": 77.1830165}, {"type": "node", "id": 6576505269, "lat": 28.5892815, "lon": 77.1829392}, {"type": "node", "id": 6576505270, "lat": 28.5892756, "lon": 77.1828552}, {"type": "node", "id": 6576505271, "lat": 28.5892939, "lon": 77.1827736}, {"type": "node", "id": 6576505272, "lat": 28.5893345, "lon": 77.1827031}, {"type": "node", "id": 6576505273, "lat": 28.589393, "lon": 77.1826515}, {"type": "node", "id": 6576505274, "lat": 28.5894631, "lon": 77.1826244}, {"type": "node", "id": 6576505275, "lat": 28.5895371, "lon": 77.1826246}, {"type": "node", "id": 6576505277, "lat": 28.5894261, "lon": 77.1831189}, {"type": "node", "id": 6576505278, "lat": 28.5893611, "lon": 77.1830786}, {"type": "node", "id": 6576505279, "lat": 28.589607, "lon": 77.1826521}, {"type": "node", "id": 6576505280, "lat": 28.5896653, "lon": 77.182704}, {"type": "node", "id": 2713824982, "lat": 28.5796206, "lon": 77.1887558}, {"type": "node", "id": 2713824991, "lat": 28.5804403, "lon": 77.190054}, {"type": "node", "id": 2713825032, "lat": 28.5796018, "lon": 77.1897429}, {"type": "node", "id": 2713825071, "lat": 28.5802161, "lon": 77.1885686}, {"type": "node", "id": 2713825072, "lat": 28.5806872, "lon": 77.1892016}, {"type": "node", "id": 12966165255, "lat": 28.5797639, "lon": 77.1883495}, {"type": "node", "id": 12966165259, "lat": 28.579466, "lon": 77.1887586}, {"type": "node", "id": 12966165260, "lat": 28.5795225, "lon": 77.1886754}, {"type": "node", "id": 12966165261, "lat": 28.5796615, "lon": 77.1885212}, {"type": "node", "id": 12966165262, "lat": 28.5798723, "lon": 77.1883871}, {"type": "node", "id": 563659561, "lat": 28.587262, "lon": 77.1894051}, {"type": "node", "id": 947950856, "lat": 28.5868488, "lon": 77.1897892}, {"type": "node", "id": 11500983280, "lat": 28.5885576, "lon": 77.1945926}, {"type": "node", "id": 11500983281, "lat": 28.5893468, "lon": 77.1927631}, {"type": "node", "id": 11500983282, "lat": 28.5877426, "lon": 77.1906197}, {"type": "node", "id": 11500983283, "lat": 28.5886501, "lon": 77.1901171}, {"type": "node", "id": 11808826357, "lat": 28.5889142, "lon": 77.1936563}, {"type": "node", "id": 11808826358, "lat": 28.5872515, "lon": 77.190392}, {"type": "node", "id": 11808826359, "lat": 28.5868782, "lon": 77.1900983}, {"type": "node", "id": 11808826360, "lat": 28.5869035, "lon": 77.1896611}, {"type": "node", "id": 13300781261, "lat": 28.5886437, "lon": 77.1943665}, {"type": "node", "id": 3742314078, "lat": 28.5983645, "lon": 77.1875124}, {"type": "node", "id": 3742314079, "lat": 28.5983689, "lon": 77.1875897}, {"type": "node", "id": 3742314080, "lat": 28.5983864, "lon": 77.1874392}, {"type": "node", "id": 3742314081, "lat": 28.5983989, "lon": 77.1876591}, {"type": "node", "id": 3742314082, "lat": 28.5984313, "lon": 77.1873811}, {"type": "node", "id": 3742314083, "lat": 28.5984499, "lon": 77.1877102}, {"type": "node", "id": 3742314084, "lat": 28.5984923, "lon": 77.1873469}, {"type": "node", "id": 3742314085, "lat": 28.5985142, "lon": 77.1877352}, {"type": "node", "id": 3742314086, "lat": 28.5985601, "lon": 77.187342}, {"type": "node", "id": 3742314087, "lat": 28.598582, "lon": 77.1877302}, {"type": "node", "id": 3742314088, "lat": 28.5986244, "lon": 77.1873669}, {"type": "node", "id": 3742314089, "lat": 28.598643, "lon": 77.1876961}, {"type": "node", "id": 3742314090, "lat": 28.5986754, "lon": 77.187418}, {"type": "node", "id": 3742314091, "lat": 28.5986878, "lon": 77.1876379}, {"type": "node", "id": 3742314092, "lat": 28.5987054, "lon": 77.1874875}, {"type": "node", "id": 3742314093, "lat": 28.5987097, "lon": 77.1875647}, {"type": "node", "id": 6655403117, "lat": 28.5999599, "lon": 77.1867538}, {"type": "node", "id": 6655403118, "lat": 28.600007, "lon": 77.1866412}, {"type": "node", "id": 6655403119, "lat": 28.600153, "lon": 77.1866197}, {"type": "node", "id": 6655403120, "lat": 28.6004074, "lon": 77.1867324}, {"type": "node", "id": 6655403121, "lat": 28.6008689, "lon": 77.1869577}, {"type": "node", "id": 6655403122, "lat": 28.6006805, "lon": 77.1874297}, {"type": "node", "id": 6655403123, "lat": 28.6002472, "lon": 77.1872205}, {"type": "node", "id": 6655403124, "lat": 28.5999976, "lon": 77.1870864}, {"type": "node", "id": 6655403125, "lat": 28.5999317, "lon": 77.1869791}, {"type": "node", "id": 6655403126, "lat": 28.5999223, "lon": 77.1868772}, {"type": "node", "id": 563659622, "lat": 28.5956621, "lon": 77.1937136}, {"type": "node", "id": 563659630, "lat": 28.5957938, "lon": 77.1940932}, {"type": "node", "id": 563659596, "lat": 28.5907349, "lon": 77.1956646}, {"type": "node", "id": 563659640, "lat": 28.5952272, "lon": 77.1959341}, {"type": "node", "id": 563659641, "lat": 28.5953628, "lon": 77.1957705}, {"type": "node", "id": 12880309534, "lat": 28.5949814, "lon": 77.1959961}, {"type": "node", "id": 6655403127, "lat": 28.5992159, "lon": 77.1887816}, {"type": "node", "id": 6655403128, "lat": 28.5991028, "lon": 77.189047}, {"type": "node", "id": 6655403129, "lat": 28.5995134, "lon": 77.189274}, {"type": "node", "id": 6655403133, "lat": 28.5989575, "lon": 77.1905788}, {"type": "node", "id": 6655403134, "lat": 28.6000396, "lon": 77.191177}, {"type": "node", "id": 6655403135, "lat": 28.6002794, "lon": 77.1906141}, {"type": "node", "id": 6655403136, "lat": 28.6001998, "lon": 77.1905702}, {"type": "node", "id": 6655403137, "lat": 28.6003427, "lon": 77.1902348}, {"type": "node", "id": 6655403138, "lat": 28.6006291, "lon": 77.1895627}]}