{"version": 0.6, "generator": "Overpass API 0.7.62.8 e802775f", "osm3s": {"timestamp_osm_base": "2025-11-21T17:59:07Z", "copyright": "The data included in this document is from www.openstreetmap.org. The data is made available under ODbL."}, "elements": [{"type": "node", "id": 2686108236, "lat": 28.4972434, "lon": 77.0937388, "tags": {"amenity": "cafe", "cuisine": "coffee_shop"}}, {"type": "node", "id": 2686108237, "lat": 28.4964348, "lon": 77.09339, "tags": {"amenity": "cafe", "cuisine": "coffee_shop"}}, {"type": "node", "id": 2707036188, "lat": 28.4558909, "lon": 77.0961698, "tags": {"addr:city": "Gurgaon", "addr:housenumber": "630", "addr:postcode": "122001", "addr:street": "Sector 43", "name": "Hotel Golf View Suites", "phone": "+91 124 4062986", "tourism": "hotel", "website": "https://hotelgolfview.co.in/", "wheelchair": "yes"}}, {"type": "node", "id": 4267020003, "lat": 28.4871948, "lon": 77.1016151, "tags": {"tourism": "hostel"}}, {"type": "node", "id": 4610740490, "lat": 28.4691405, "lon": 77.0911924, "tags": {"addr:city": "Gurgaon", "addr:full": "168, Sector 28, Golf Course Road, Gurgaon, Gurugram, India", "addr:housenumber": "168", "addr:parentstreet": "Golf Course Road", "addr:postcode": "122009", "addr:street": "3rd East Cross Street", "addr:suburb": "Sector 28", "internet_access": "wlan", "tourism": "guest_house"}}, {"type": "node", "id": 5576510422, "lat": 28.4512702, "lon": 77.0972058, "tags": {"amenity": "restaurant", "name:en": "Shophouse by Kylin", "wheelchair": "yes"}}, {"type": "node", "id": 6071161049, "lat": 28.480359, "lon": 77.0927131, "tags": {"amenity": "cafe", "brand": "Starbucks", "cuisine": "coffee_shop", "indoor_seating": "yes", "level": "0", "name": "Starbucks", "official_name": "Starbucks Coffee", "takeaway": "yes"}}, {"type": "node", "id": 6911979920, "lat": 28.4799228, "lon": 77.1260563, "tags": {"tourism": "hotel"}}, {"type": "node", "id": 7040336785, "lat": 28.4879067, "lon": 77.1277713, "tags": {"name": "Sanskriti Kendra", "tourism": "museum"}}, {"type": "node", "id": 7052398154, "lat": 28.4508713, "lon": 77.0976243, "tags": {"amenity": "cafe", "brand": "Starbucks", "brand:pa": "\u0a38\u0a1f\u0a3e\u0a30\u0a2c\u0a15\u0a38", "brand:ur": "\u0627\u0633\u0679\u0627\u0631\u0628\u06a9\u0633", "brand:wikidata": "Q37158", "brand:wikipedia": "en:Starbucks", "cuisine": "coffee_shop", "name": "Starbucks", "name:pa": "\u0a38\u0a1f\u0a3e\u0a30\u0a2c\u0a15\u0a38", "name:ur": "\u0627\u0633\u0679\u0627\u0631\u0628\u06a9\u0633", "official_name": "Starbucks Coffee", "official_name:pa": "\u0a38\u0a1f\u0a3e\u0a30\u0a2c\u0a15\u0a38 \u0a15\u0a4c\u0a2b\u0a40", "official_name:ur": "\u0627\u0633\u0679\u0627\u0631\u0628\u06a9\u0633 \u06a9\u0627\u0641\u06cc", "takeaway": "yes", "wheelchair": "yes"}}, {"type": "node", "id": 7052398156, "lat": 28.4511943, "lon": 77.0968546, "tags": {"amenity": "restaurant", "check_date": "2025-09-01", "cuisine": "south_indian", "name": "Sagar Ratna", "name:en": "Sagar Ratna", "opening_hours": "Mo-Fr 10:00-23:00; Sa, Su 08:00-23:00", "wheelchair": "yes"}}, {"type": "node", "id": 10209710086, "lat": 28.4852731, "lon": 77.0948027, "tags": {"amenity": "cafe", "indoor_seating": "yes", "name": "Guftagu Cafe", "outdoor_seating": "yes"}}, {"type": "node", "id": 10685628359, "lat": 28.4977113, "lon": 77.1007617, "tags": {"addr:city": "gurugram", "addr:housenumber": "37/8, V Block", "addr:postcode": "122010", "addr:street": "37 lane", "brand": "Amazone hotels & events", "email": "dlfrooms@gmail.com", "internet_access": "yes", "internet_access:fee": "no", "name": "Amazone Residency Dlf Phase 3 Gurugram", "phone": "+919871237434", "rooms": "16", "tourism": "hotel", "website": "https://gurugramhotel.com/", "wheelchair": "limited"}}, {"type": "node", "id": 10688625178, "lat": 28.4879794, "lon": 77.0932299, "tags": {"amenity": "restaurant", "name": "Knite Ryder"}}, {"type": "node", "id": 10822065544, "lat": 28.4583455, "lon": 77.0960857, "tags": {"addr:city": "Gurugram", "addr:housenumber": "584 - P", "addr:postcode": "122002", "addr:street": "Sector 43", "branch": "Sector 43", "brand": "Bloom Hotel", "brand:wikidata": "Q130536721", "email": "book@staybloom.com", "internet_access": "yes", "internet_access:fee": "no", "name": "Bloom Hotel", "phone": "+911141225666", "tourism": "hotel", "website": "https://staybloom.com"}}, {"type": "node", "id": 10824777606, "lat": 28.4632476, "lon": 77.0935715, "tags": {"brand": "OYO", "brand:wikidata": "Q24906315", "name": "Oyo Townhouse", "tourism": "hotel"}}, {"type": "node", "id": 10869059261, "lat": 28.4566421, "lon": 77.096625, "tags": {"addr:city": "Gurugram", "addr:housenumber": "609 - P", "addr:postcode": "122002", "addr:street": "Golf Course Road", "air_conditioning": "yes", "branch": "Golf Course Road", "brand": "Bloom Hotel", "brand:wikidata": "Q130536721", "email": "book@staybloom.com", "internet_access": "wlan", "internet_access:fee": "no", "name": "Bloom Hotel", "phone": "+911141225666", "tourism": "hotel", "website": "https://staybloom.com"}}, {"type": "node", "id": 10869059262, "lat": 28.4582138, "lon": 77.0961199, "tags": {"name": "Hotel 91", "tourism": "hotel"}}, {"type": "node", "id": 10908640655, "lat": 28.4731264, "lon": 77.0924937, "tags": {"addr:housenumber": "A55/14", "addr:street": "DLF Phase 1, Sector 28", "amenity": "restaurant", "name": "Megha Darjeeling Restaurant", "phone": "7428205724", "postal_code": "122002"}}, {"type": "node", "id": 11888325741, "lat": 28.4830533, "lon": 77.1122868, "tags": {"tourism": "viewpoint"}}, {"type": "node", "id": 11888343968, "lat": 28.4830078, "lon": 77.1123825, "tags": {"tourism": "viewpoint"}}, {"type": "node", "id": 12609739501, "lat": 28.4927083, "lon": 77.0959829, "tags": {"name:en": "shiv shakti homes", "tourism": "apartment"}}, {"type": "node", "id": 13110400367, "lat": 28.4803789, "lon": 77.0926822, "tags": {"air_conditioning": "yes", "amenity": "cafe", "brand": "Third Wave Coffee Roasters", "cuisine": "coffee_shop", "delivery": "yes", "level": "0", "name": "Third Wave Coffee Roasters", "opening_hours": "24/7", "shop": "coffee", "takeaway": "yes"}}, {"type": "node", "id": 13115241610, "lat": 28.4690021, "lon": 77.1049051, "tags": {"amenity": "cafe"}}, {"type": "node", "id": 13175452489, "lat": 28.4760813, "lon": 77.0931075, "tags": {"air_conditioning": "yes", "amenity": "cafe", "brand": "Barista", "cuisine": "coffee_shop", "level": "-1", "name": "Barista", "takeaway": "yes", "wheelchair": "limited"}}, {"type": "node", "id": 13175452490, "lat": 28.4759105, "lon": 77.0932948, "tags": {"air_conditioning": "yes", "amenity": "cafe", "cuisine": "coffee_shop", "indoor_seating": "yes", "level": "1", "name": "Sibang Bakery", "wheelchair": "limited"}}, {"type": "node", "id": 13175500408, "lat": 28.4762599, "lon": 77.0932272, "tags": {"air_conditioning": "yes", "amenity": "restaurant", "bar": "yes", "indoor_seating": "yes", "level": "-1", "name": "The Golden Dragon", "outdoor_seating": "no", "wheelchair": "limited"}}, {"type": "node", "id": 13175500411, "lat": 28.4759668, "lon": 77.0931028, "tags": {"air_conditioning": "yes", "amenity": "restaurant", "level": "2", "name": "Capital Diner", "wheelchair": "limited"}}, {"type": "node", "id": 13175500421, "lat": 28.4762676, "lon": 77.093281, "tags": {"air_conditioning": "yes", "amenity": "restaurant", "contact:website": "https://gulatirestaurant.co", "cuisine": "indian", "indoor_seating": "yes", "level": "1", "name": "Gulati", "outdoor_seating": "no", "wheelchair": "limited"}}, {"type": "node", "id": 13176626194, "lat": 28.4763942, "lon": 77.0931944, "tags": {"amenity": "restaurant", "cuisine": "indian", "name": "Gulati Indian Food"}}, {"type": "node", "id": 13176694652, "lat": 28.4732082, "lon": 77.0929849, "tags": {"name": "Hotel Luxe And Stayz", "tourism": "hotel"}}, {"type": "node", "id": 13243279485, "lat": 28.4583458, "lon": 77.0961282, "tags": {"amenity": "restaurant", "level": "0", "name": "Sticky Rice"}}, {"type": "node", "id": 13243334782, "lat": 28.4803226, "lon": 77.0927675, "tags": {"amenity": "cafe", "brand": "Chaayos", "cuisine": "tea", "indoor_seating": "yes", "level": "0", "name": "Chaayos Experience", "takeaway": "yes"}}, {"type": "node", "id": 13243334785, "lat": 28.4804141, "lon": 77.0926394, "tags": {"amenity": "cafe", "brand": "The Coffee Bean & Tea Leaf", "cuisine": "coffee_shop", "indoor_seating": "yes", "level": "0", "name": "The Coffee Bean & Tea Leaf", "opening_hours": "24/7", "takeaway": "yes"}}, {"type": "node", "id": 13243334787, "lat": 28.4803521, "lon": 77.0928384, "tags": {"amenity": "cafe", "indoor_seating": "yes", "level": "0", "name": "Dohful", "shop": "coffee"}}, {"type": "node", "id": 13243334788, "lat": 28.4804403, "lon": 77.0926019, "tags": {"amenity": "cafe", "cuisine": "coffee_shop", "indoor_seating": "yes", "level": "0", "name": "Blue Tokai Coffee Roasters", "opening_hours": "24/7"}}, {"type": "node", "id": 13246051183, "lat": 28.4934704, "lon": 77.0921913, "tags": {"amenity": "cafe", "brand": "Starbucks", "brand:wikidata": "Q37158", "cuisine": "coffee_shop", "name": "Starbucks", "official_name": "Starbucks Coffee", "takeaway": "yes"}}, {"type": "node", "id": 13246707620, "lat": 28.4667286, "lon": 77.093962, "tags": {"alcohol": "yes", "amenity": "restaurant", "level": "1;2", "name": "Jalsa"}}, {"type": "node", "id": 13246707626, "lat": 28.4652962, "lon": 77.0940962, "tags": {"name": "Treebo White Castle", "tourism": "hotel", "wikidata": "Q28173376", "wikipedia": "en:Treebo Hotels"}}, {"type": "node", "id": 13246707639, "lat": 28.4651817, "lon": 77.094201, "tags": {"brand": "Salt Stayz", "name": "Salt Stayz", "tourism": "hotel", "website": "https://saltstayz.com/"}}, {"type": "node", "id": 13246707647, "lat": 28.4647133, "lon": 77.0954963, "tags": {"amenity": "cafe", "name": "Cafe Amour"}}, {"type": "node", "id": 13246708702, "lat": 28.4597607, "lon": 77.0955069, "tags": {"amenity": "restaurant", "cuisine": "japanese", "level": "2", "name": "Japonico"}}, {"type": "node", "id": 13246708720, "lat": 28.4575627, "lon": 77.0965923, "tags": {"amenity": "restaurant", "cuisine": "chinese", "name": "Chinese Room"}}, {"type": "node", "id": 13246779321, "lat": 28.4566788, "lon": 77.0966834, "tags": {"amenity": "restaurant", "cuisine": "indian", "name": "Kalaunji by Sticky Rice"}}, {"type": "node", "id": 13246779335, "lat": 28.4547627, "lon": 77.0971629, "tags": {"air_conditioning": "yes", "amenity": "cafe", "contact:phone": "+91 01244386155", "diet:vegan": "yes", "diet:vegetarian": "yes", "indoor_seating": "yes", "level": "0", "name": "Another Fine Day Cafe and Reading Room", "opening_hours": "Mo-Su 11:00-21:00", "outdoor_seating": "no", "smoking": "no", "website": "https://www.anotherfineday.net/", "wheelchair": "limited"}}, {"type": "node", "id": 13246779336, "lat": 28.4547337, "lon": 77.0971222, "tags": {"amenity": "restaurant", "cuisine": "chinese", "level": "0", "name": "Sidewok"}}, {"type": "way", "id": 23505316, "nodes": [254570230, 254570232, 254570233, 254570235, 254570230], "tags": {"leisure": "park"}}, {"type": "way", "id": 42917634, "nodes": [537506214, 537506215, 537506216, 537506217, 537506214], "tags": {"leisure": "park"}}, {"type": "way", "id": 42917636, "nodes": [537506226, 537506227, 537506228, 537506218, 537506226], "tags": {"leisure": "park"}}, {"type": "way", "id": 143050456, "nodes": [949778372, 7923006094, 11888519917, 271335626, 271335620, 1565310313, 267085329, 267085330, 1565310416, 1565310323, 1565310304, 1565310268, 1565310243, 1565310224, 1565310201, 949778465, 949778591, 949778315, 949778372], "tags": {"amenity": "marketplace", "name": "marble market"}}, {"type": "way", "id": 144272764, "nodes": [1578318546, 1578318504, 1578318501, 1578318492, 1578318481, 1578318484, 1578318490, 2725552135, 1578318542, 1578318548, 1578318550, 1578318544, 1578318546], "tags": {"building": "hotel", "name": "Fortune Hotel", "tourism": "hotel"}}, {"type": "way", "id": 144272841, "nodes": [1578318426, 1578318423, 1578318443, 1578318450, 1578318468, 1578318474, 4758365189, 4758365188, 4758365187, 2722008888, 1578318429, 1578318426], "tags": {"addr:street": "Sector 26, M.G. Road, Gurgaon Delhi Gurgaon Border, Gurgaon, Haryana, India, 122002", "brand": "Le M\u00e9ridien", "brand:wikidata": "Q261077", "building": "yes", "name": "Le Meridien Gurgaon", "phone": "+91 124-4992000", "tourism": "hotel", "website": "https://www.marriott.com/en-us/hotels/deldm-le-meridien-gurgaon-delhi-ncr/overview/"}}, {"type": "way", "id": 144358736, "nodes": [1579182343, 1579182322, 1579182300, 1579182310, 1579182272, 1579182273, 1579182341, 1579182339, 1579182343], "tags": {"addr:city": "Gurugram", "addr:district": "Gurgaon", "addr:postcode": "122002", "building": "yes", "check_date": "2025-09-01", "email": "reservations@thebristolhotel.in", "name": "The Bristol Hotel", "phone": "01244351111", "reservation": "yes", "stars": "5", "tourism": "hotel", "website": "https://www.thebristolhotel.in"}}, {"type": "way", "id": 266156904, "nodes": [2717372041, 2717372057, 2717372060, 2717372088, 2717372041], "tags": {"leisure": "park"}}, {"type": "way", "id": 266156907, "nodes": [2717372068, 2717372101, 2717372079, 2717372068], "tags": {"leisure": "park"}}, {"type": "way", "id": 266156908, "nodes": [2717372100, 2717372032, 2717372043, 2717372036, 2717372050, 2717372100], "tags": {"leisure": "park"}}, {"type": "way", "id": 266156913, "nodes": [2717372096, 2717372066, 2717372072, 2717372077, 2717372096], "tags": {"leisure": "park"}}, {"type": "way", "id": 266156914, "nodes": [2717372047, 2717372076, 2717372034, 2717372039, 2717372047], "tags": {"leisure": "park"}}, {"type": "way", "id": 266156915, "nodes": [2717372078, 2717372089, 2717372074, 2717372078], "tags": {"leisure": "park"}}, {"type": "way", "id": 266679859, "nodes": [2722034507, 2722034513, 2722034514, 2722034506, 2722034505, 2722034508, 2722034509, 2722034504, 2722034510, 2722034511, 2722034507], "tags": {"addr:city": "Gurgaon", "addr:suburb": "Sector 26", "landuse": "commercial", "name": "Le Meridien Hotel", "tourism": "hotel"}}, {"type": "way", "id": 267003268, "nodes": [2724843231, 2724843281, 2724843312, 2724843365, 2724843356, 2724843270, 2724843393, 2724843232, 2724843231], "tags": {"leisure": "park"}}, {"type": "way", "id": 350514135, "nodes": [3562726464, 4531095006, 4531095002, 4531095003, 3562726473, 4531095004, 4531095005, 3562726465, 3562726456, 3562726464], "tags": {"building": "yes", "name": "DLF City Club Hotel", "operator": "DLF City Club", "tourism": "hotel"}}, {"type": "way", "id": 456875786, "nodes": [4531095008, 4531095009, 4531095010, 4531095011, 12642559439, 4531095012, 4531095013, 4531095014, 4531095015, 4531095016, 4531095017, 4531095018, 4531095019, 4531095020, 4531095021, 4531095008], "tags": {"building": "yes", "name": "DLF City Club", "operator": "DLF City Club", "tourism": "hotel"}}, {"type": "way", "id": 469561029, "nodes": [4638597629, 4638597630, 4638597631, 4638597632, 4638597633, 4638597629], "tags": {"leisure": "park"}}, {"type": "way", "id": 469561030, "nodes": [4638597634, 4638597635, 4638597636, 4638597637, 4638597634], "tags": {"leisure": "park"}}, {"type": "way", "id": 469561479, "nodes": [4638604067, 4638604068, 4638604069, 4638604070, 4638604067], "tags": {"leisure": "park"}}, {"type": "way", "id": 469561517, "nodes": [4638605355, 4638605356, 4638605357, 4638605358, 4638605355], "tags": {"leisure": "park"}}, {"type": "way", "id": 469561715, "nodes": [4638612746, 4638612747, 4638612748, 4638612749, 4638612746], "tags": {"leisure": "park"}}, {"type": "way", "id": 482822215, "nodes": [4756123738, 4756123739, 4756123740, 4756123741, 4756123742, 4756123743, 4756123738], "tags": {"addr:city": "Gurgaon", "addr:housenumber": "Dlf Phase-3", "addr:postcode": "122002", "addr:street": "U-50", "description": "Jogging track which is runnable along most of the way but has sections with tree roots.", "leisure": "park", "name": "RK Convent Park"}}, {"type": "way", "id": 589014180, "nodes": [254570235, 254570233, 254570232, 254570230, 254570235], "tags": {"addr:city": "Gurugram", "addr:housenumber": "Dlf Phase -3", "addr:postcode": "122010", "addr:street": "U-24", "landuse": "Pink Town House", "leisure": "park", "name": "Central Park"}}, {"type": "way", "id": 592721845, "nodes": [5656264650, 5656264651, 10688537682, 5656264652, 10688537681, 10688537680, 5656264653, 5656264650], "tags": {"leisure": "park"}}, {"type": "way", "id": 689295726, "nodes": [9865125291, 9865171037, 12985358857, 9865171034, 9865125293, 9865125291], "tags": {"addr:city": "Gurgoan", "addr:postcode": "122002", "addr:street": "Galli Number 28", "leisure": "park", "name": "S Block Park", "opening_hours": "24/7"}}, {"type": "way", "id": 742628572, "nodes": [6952063403, 6952063404, 6952063405, 2721690610, 2721690596, 2721690557, 7285132249, 2721690653, 12272827462, 9914374117, 2507510509, 6952063403], "tags": {"leisure": "park", "name": "samadhan hub park", "opening_hours": "24/7", "operator": "MCG"}}, {"type": "way", "id": 748812233, "nodes": [7002812465, 7002812466, 7002812467, 7002812468, 7002812465], "tags": {"addr:city": "Gurgaon", "addr:housenumber": "U-69/20", "addr:postcode": "122002", "addr:street": "U--69", "leisure": "park", "name": "RWA Park", "opening_hours": "Mo-Su 08:00-22:00"}}, {"type": "way", "id": 818968322, "nodes": [7648092857, 7648092858, 7648092859, 7648092860, 7648092857], "tags": {"addr:city": "New Delhi", "addr:postcode": "110047", "addr:street": "Windmill Place", "dog": "no", "leisure": "park", "name": "Chhati Mayia Ground", "opening_hours": "sunrise-sunset", "operator": "Governments"}}, {"type": "way", "id": 818969083, "nodes": [7648096706, 7648096707, 7648096708, 7648096709, 7648096706], "tags": {"addr:city": "New Delhi", "addr:postcode": "110047", "addr:street": "Windmill Place", "description": "Vechile are not allowed", "leisure": "park", "name": "Baba Mangaldas Park", "opening_hours": "sunrise-sunset", "operator": "Government"}}, {"type": "way", "id": 818970759, "nodes": [7648091364, 7648091365, 7648091366, 7648091367, 7648091368, 7648091369, 7648091364], "tags": {"addr:city": "New Delhi", "addr:postcode": "110047", "addr:street": "Windmill Place", "description": "vehicles not allowed", "leisure": "park", "name": "Aya Nagar Central Park", "opening_hours": "sunrise-sunset", "operator": "Government"}}, {"type": "way", "id": 818971505, "nodes": [7648140328, 7648140329, 7648140330, 7648140331, 7648140332, 7648140333, 7648140328], "tags": {"addr:city": "New Delhi", "addr:postcode": "110047", "dog": "yes", "leisure": "park", "name": "Kids playing park", "opening_hours": "sunrise-sunset", "operator": "Government"}}, {"type": "way", "id": 818972303, "nodes": [7648146699, 7648146700, 7648146701, 7648146702, 7648146703, 7648146704, 7648146705, 7648146706, 7648146699], "tags": {"addr:city": "New Delhi", "addr:postcode": "110047", "addr:street": "Phase V road", "leisure": "park", "name": "Shiv mandir and park", "opening_hours": "24/7", "operator": "Government"}}, {"type": "way", "id": 818981309, "nodes": [7648269307, 7648269308, 7648269309, 7648269310, 7648269307], "tags": {"addr:city": "New Delhi", "addr:postcode": "110047", "leisure": "park", "name": "Lalit garden", "opening_hours:covid19": "off"}}, {"type": "way", "id": 818981609, "nodes": [7648244598, 7648244599, 7648244600, 7648244601, 7648244602, 7648244603, 7648244598], "tags": {"addr:city": "New Delhi", "addr:postcode": "110047", "leisure": "park", "name": "Local park", "opening_hours:covid19": "off"}}, {"type": "way", "id": 818982446, "nodes": [7648271842, 7648271843, 7648271844, 7648271845, 7648271846, 7648271850, 7648271842], "tags": {"addr:city": "New Delhi", "addr:postcode": "110047", "leisure": "park", "name": "J.M.D Garden", "opening_hours:covid19": "off"}}, {"type": "way", "id": 1042625416, "nodes": [9597281611, 9597281612, 9597281613, 9597281614, 9597281615, 9597281616, 9597291817, 9597291818, 9597281611], "tags": {"dog": "no", "leisure": "park", "name": "Kid's Park", "opening_hours": "Mo-Su 08:00-18:00", "operator": "National Media Centre", "smoking": "no"}}, {"type": "way", "id": 1108051690, "nodes": [10138598065, 10138598066, 10138598067, 10138598068, 10138598069, 10138598065], "tags": {"leisure": "park"}}, {"type": "way", "id": 1168785739, "nodes": [10869059266, 10869059267, 10869059268, 10869059269, 10869059266], "tags": {"leisure": "park"}}, {"type": "way", "id": 1168785740, "nodes": [10869059270, 10869059271, 10869059272, 10869059273, 10869059270], "tags": {"leisure": "park"}}, {"type": "way", "id": 1195179949, "nodes": [11092935368, 11092935369, 11092935370, 11092935371, 11092935368], "tags": {"leisure": "park"}}, {"type": "way", "id": 1195179955, "nodes": [11092935384, 11092935385, 11092935386, 11092935387, 11092935384], "tags": {"leisure": "park"}}, {"type": "way", "id": 1217686711, "nodes": [11282712564, 11282712565, 11282712566, 11282712567, 11282712564], "tags": {"leisure": "park"}}, {"type": "way", "id": 1217691768, "nodes": [11282838807, 11282838808, 11282838809, 11282838810, 11282838807], "tags": {"leisure": "park"}}, {"type": "way", "id": 1418900639, "nodes": [13039118996, 13039118997, 13039118998, 13039118999, 13039118996], "tags": {"leisure": "park"}}, {"type": "way", "id": 1422826986, "nodes": [13075859779, 13075859780, 13075859781, 13075859782, 13075859779], "tags": {"addr:city": "Gurugram", "addr:city:en": "Gurugram", "addr:district": "Gurugram", "addr:district:en": "Gurugram", "addr:state": "Haryana", "leisure": "park", "name": "Upvan Park", "name:en": "Upvan Park"}}, {"type": "way", "id": 1422826987, "nodes": [13075859783, 13075859784, 13075859785, 13075859786, 13075859783], "tags": {"leisure": "park"}}, {"type": "way", "id": 1422826988, "nodes": [13075859787, 13075859788, 13075859789, 13075859790, 13075859787], "tags": {"leisure": "park"}}, {"type": "way", "id": 1426715203, "nodes": [13115241611, 13115241612, 1300961033, 13115241613, 13115241611], "tags": {"leisure": "park"}}, {"type": "way", "id": 1433746741, "nodes": [13176742252, 13176742251, 13176742253, 13176742250, 13176742252], "tags": {"leisure": "park"}}, {"type": "way", "id": 1434663373, "nodes": [13186471468, 13186471469, 13186471470, 13186471471, 13186471468], "tags": {"leisure": "park"}}, {"type": "way", "id": 1434663374, "nodes": [13186471472, 13186471473, 13186471474, 13186471475, 13186471476, 13186471472], "tags": {"leisure": "park"}}, {"type": "node", "id": 2507510509, "lat": 28.4561295, "lon": 77.0897942}, {"type": "node", "id": 2721690557, "lat": 28.4549914, "lon": 77.0888167}, {"type": "node", "id": 2721690596, "lat": 28.4552178, "lon": 77.0881408}, {"type": "node", "id": 2721690610, "lat": 28.45568, "lon": 77.0883929}, {"type": "node", "id": 2721690653, "lat": 28.4547226, "lon": 77.0887041}, {"type": "node", "id": 6952063403, "lat": 28.4561649, "lon": 77.0894047}, {"type": "node", "id": 6952063404, "lat": 28.4559657, "lon": 77.0893282}, {"type": "node", "id": 6952063405, "lat": 28.455513, "lon": 77.0890397}, {"type": "node", "id": 7285132249, "lat": 28.454841, "lon": 77.0887537}, {"type": "node", "id": 12272827462, "lat": 28.4546219, "lon": 77.0887153}, {"type": "node", "id": 9914374117, "lat": 28.4543183, "lon": 77.0903156}, {"type": "node", "id": 11092935368, "lat": 28.457651, "lon": 77.0951731}, {"type": "node", "id": 11092935369, "lat": 28.4569177, "lon": 77.0953952}, {"type": "node", "id": 11092935370, "lat": 28.4570373, "lon": 77.0958984}, {"type": "node", "id": 11092935371, "lat": 28.4577705, "lon": 77.0956883}, {"type": "node", "id": 13075859779, "lat": 28.4551123, "lon": 77.0912303}, {"type": "node", "id": 13075859780, "lat": 28.4552143, "lon": 77.0916972}, {"type": "node", "id": 13075859781, "lat": 28.4544962, "lon": 77.0919187}, {"type": "node", "id": 13075859782, "lat": 28.4543872, "lon": 77.091435}, {"type": "node", "id": 13075859783, "lat": 28.456164, "lon": 77.0922212}, {"type": "node", "id": 13075859784, "lat": 28.4554251, "lon": 77.0924415}, {"type": "node", "id": 13075859785, "lat": 28.4555923, "lon": 77.093202}, {"type": "node", "id": 13075859786, "lat": 28.4563338, "lon": 77.0929801}, {"type": "node", "id": 13075859787, "lat": 28.4549176, "lon": 77.0923343}, {"type": "node", "id": 13075859788, "lat": 28.4551778, "lon": 77.0934996}, {"type": "node", "id": 13075859789, "lat": 28.4544899, "lon": 77.0937065}, {"type": "node", "id": 13075859790, "lat": 28.454217, "lon": 77.0925599}, {"type": "node", "id": 11282712564, "lat": 28.4639627, "lon": 77.0898215}, {"type": "node", "id": 11282712565, "lat": 28.4636758, "lon": 77.0899272}, {"type": "node", "id": 11092935384, "lat": 28.4618543, "lon": 77.0933129}, {"type": "node", "id": 11092935385, "lat": 28.4613017, "lon": 77.0934958}, {"type": "node", "id": 11092935386, "lat": 28.461477, "lon": 77.0943419}, {"type": "node", "id": 11092935387, "lat": 28.4620562, "lon": 77.0941832}, {"type": "node", "id": 11282712566, "lat": 28.4637422, "lon": 77.0903246}, {"type": "node", "id": 11282712567, "lat": 28.4640411, "lon": 77.0902657}, {"type": "node", "id": 11282838807, "lat": 28.4614917, "lon": 77.0911699}, {"type": "node", "id": 11282838808, "lat": 28.4614075, "lon": 77.0911874}, {"type": "node", "id": 11282838809, "lat": 28.4614229, "lon": 77.0915928}, {"type": "node", "id": 11282838810, "lat": 28.4615495, "lon": 77.0915445}, {"type": "node", "id": 13176742251, "lat": 28.4668526, "lon": 77.0898069}, {"type": "node", "id": 13176742252, "lat": 28.4671531, "lon": 77.0897511}, {"type": "node", "id": 13176742250, "lat": 28.4671567, "lon": 77.0901892}, {"type": "node", "id": 13176742253, "lat": 28.4669131, "lon": 77.0902324}, {"type": "node", "id": 2717372041, "lat": 28.4750832, "lon": 77.0897888}, {"type": "node", "id": 2717372057, "lat": 28.4749842, "lon": 77.0899873}, {"type": "node", "id": 10138598066, "lat": 28.477145, "lon": 77.0899842}, {"type": "node", "id": 1579182272, "lat": 28.4785401, "lon": 77.0915386}, {"type": "node", "id": 1579182273, "lat": 28.47862, "lon": 77.0913109}, {"type": "node", "id": 2717372032, "lat": 28.475177, "lon": 77.0911702}, {"type": "node", "id": 2717372034, "lat": 28.474416, "lon": 77.0912726}, {"type": "node", "id": 2717372036, "lat": 28.4748738, "lon": 77.0916734}, {"type": "node", "id": 2717372039, "lat": 28.4746494, "lon": 77.0907652}, {"type": "node", "id": 2717372043, "lat": 28.4749092, "lon": 77.0916029}, {"type": "node", "id": 2717372047, "lat": 28.4740269, "lon": 77.0904111}, {"type": "node", "id": 2717372050, "lat": 28.4750587, "lon": 77.0917934}, {"type": "node", "id": 2717372060, "lat": 28.4753708, "lon": 77.0902877}, {"type": "node", "id": 2717372066, "lat": 28.4737886, "lon": 77.0928173}, {"type": "node", "id": 2717372068, "lat": 28.4754133, "lon": 77.0921599}, {"type": "node", "id": 2717372072, "lat": 28.4739831, "lon": 77.0923482}, {"type": "node", "id": 2717372074, "lat": 28.473711, "lon": 77.0928036}, {"type": "node", "id": 2717372076, "lat": 28.473876, "lon": 77.0908725}, {"type": "node", "id": 2717372077, "lat": 28.4743146, "lon": 77.0925462}, {"type": "node", "id": 2717372078, "lat": 28.473131, "lon": 77.0928197}, {"type": "node", "id": 2717372079, "lat": 28.4759886, "lon": 77.0925998}, {"type": "node", "id": 2717372088, "lat": 28.475484, "lon": 77.090041}, {"type": "node", "id": 2717372089, "lat": 28.4732206, "lon": 77.0925837}, {"type": "node", "id": 2717372096, "lat": 28.4742014, "lon": 77.0927768}, {"type": "node", "id": 2717372100, "lat": 28.4753332, "lon": 77.0912461}, {"type": "node", "id": 2717372101, "lat": 28.4751964, "lon": 77.0926105}, {"type": "node", "id": 10138598065, "lat": 28.477471, "lon": 77.0900813}, {"type": "node", "id": 10138598067, "lat": 28.4765726, "lon": 77.0912315}, {"type": "node", "id": 10138598068, "lat": 28.4769614, "lon": 77.0915284}, {"type": "node", "id": 10138598069, "lat": 28.4771886, "lon": 77.09086}, {"type": "node", "id": 1579182300, "lat": 28.4794431, "lon": 77.092226}, {"type": "node", "id": 1579182310, "lat": 28.4795258, "lon": 77.0919863}, {"type": "node", "id": 1579182322, "lat": 28.4795621, "lon": 77.0922792}, {"type": "node", "id": 1579182339, "lat": 28.4796885, "lon": 77.0918544}, {"type": "node", "id": 1579182341, "lat": 28.4797061, "lon": 77.0918042}, {"type": "node", "id": 1579182343, "lat": 28.4797061, "lon": 77.0918622}, {"type": "node", "id": 10869059266, "lat": 28.4600347, "lon": 77.099235}, {"type": "node", "id": 10869059267, "lat": 28.4595938, "lon": 77.0990634}, {"type": "node", "id": 10869059268, "lat": 28.4596032, "lon": 77.0997849}, {"type": "node", "id": 10869059269, "lat": 28.4598602, "lon": 77.0998761}, {"type": "node", "id": 10869059270, "lat": 28.4613623, "lon": 77.1019146}, {"type": "node", "id": 10869059271, "lat": 28.4608789, "lon": 77.1019575}, {"type": "node", "id": 10869059272, "lat": 28.4609025, "lon": 77.1023625}, {"type": "node", "id": 10869059273, "lat": 28.4614024, "lon": 77.1023142}, {"type": "node", "id": 1300961033, "lat": 28.4687377, "lon": 77.1054054}, {"type": "node", "id": 13115241611, "lat": 28.4690172, "lon": 77.1048708}, {"type": "node", "id": 13115241612, "lat": 28.4681622, "lon": 77.1046727}, {"type": "node", "id": 13115241613, "lat": 28.4687078, "lon": 77.1052656}, {"type": "node", "id": 13186471468, "lat": 28.4768727, "lon": 77.0975125}, {"type": "node", "id": 13186471469, "lat": 28.4765716, "lon": 77.0979515}, {"type": "node", "id": 13186471470, "lat": 28.4766805, "lon": 77.0980651}, {"type": "node", "id": 13186471471, "lat": 28.4770149, "lon": 77.0976348}, {"type": "node", "id": 13186471472, "lat": 28.476151, "lon": 77.097843}, {"type": "node", "id": 13186471473, "lat": 28.4769075, "lon": 77.0967432}, {"type": "node", "id": 13186471474, "lat": 28.4770225, "lon": 77.0968344}, {"type": "node", "id": 13186471475, "lat": 28.4766866, "lon": 77.0973318}, {"type": "node", "id": 13186471476, "lat": 28.4762539, "lon": 77.097936}, {"type": "node", "id": 267085330, "lat": 28.4821272, "lon": 77.1092784}, {"type": "node", "id": 1565310224, "lat": 28.480668, "lon": 77.1094124}, {"type": "node", "id": 1565310243, "lat": 28.480948, "lon": 77.1094714}, {"type": "node", "id": 1565310268, "lat": 28.4810342, "lon": 77.1089202}, {"type": "node", "id": 1565310304, "lat": 28.4813732, "lon": 77.1089168}, {"type": "node", "id": 1565310323, "lat": 28.481508, "lon": 77.1085982}, {"type": "node", "id": 1565310416, "lat": 28.4821614, "lon": 77.1086572}, {"type": "node", "id": 1578318423, "lat": 28.4801049, "lon": 77.1076909}, {"type": "node", "id": 1578318426, "lat": 28.4801272, "lon": 77.1077533}, {"type": "node", "id": 1578318429, "lat": 28.4801828, "lon": 77.1079085}, {"type": "node", "id": 1578318443, "lat": 28.4804092, "lon": 77.1075498}, {"type": "node", "id": 1578318450, "lat": 28.4804346, "lon": 77.1076207}, {"type": "node", "id": 1578318468, "lat": 28.4806193, "lon": 77.1075351}, {"type": "node", "id": 1578318474, "lat": 28.4806703, "lon": 77.1076774}, {"type": "node", "id": 1578318481, "lat": 28.4810333, "lon": 77.1033455}, {"type": "node", "id": 1578318484, "lat": 28.4810466, "lon": 77.103348}, {"type": "node", "id": 1578318490, "lat": 28.481057, "lon": 77.1033914}, {"type": "node", "id": 1578318492, "lat": 28.4810575, "lon": 77.1032206}, {"type": "node", "id": 1578318501, "lat": 28.4810738, "lon": 77.1032238}, {"type": "node", "id": 1578318504, "lat": 28.4810971, "lon": 77.1031923}, {"type": "node", "id": 1578318542, "lat": 28.4816746, "lon": 77.103456}, {"type": "node", "id": 1578318544, "lat": 28.4816751, "lon": 77.1033576}, {"type": "node", "id": 1578318546, "lat": 28.4816845, "lon": 77.1033083}, {"type": "node", "id": 1578318548, "lat": 28.4816881, "lon": 77.1034078}, {"type": "node", "id": 1578318550, "lat": 28.4816922, "lon": 77.1033639}, {"type": "node", "id": 2722008888, "lat": 28.4804232, "lon": 77.1077971}, {"type": "node", "id": 2722034504, "lat": 28.4799543, "lon": 77.1086624}, {"type": "node", "id": 2722034505, "lat": 28.4806264, "lon": 77.1081997}, {"type": "node", "id": 2722034506, "lat": 28.4806074, "lon": 77.108134}, {"type": "node", "id": 2722034507, "lat": 28.4809799, "lon": 77.107383}, {"type": "node", "id": 2722034508, "lat": 28.4801877, "lon": 77.1084425}, {"type": "node", "id": 2722034509, "lat": 28.4801525, "lon": 77.1086691}, {"type": "node", "id": 2722034510, "lat": 28.4800321, "lon": 77.10745}, {"type": "node", "id": 2722034511, "lat": 28.480202, "lon": 77.1073682}, {"type": "node", "id": 2722034513, "lat": 28.4809822, "lon": 77.1080696}, {"type": "node", "id": 2722034514, "lat": 28.4808738, "lon": 77.1080428}, {"type": "node", "id": 2725552135, "lat": 28.4816478, "lon": 77.1035003}, {"type": "node", "id": 4638604067, "lat": 28.4844318, "lon": 77.1072004}, {"type": "node", "id": 4638604068, "lat": 28.4843572, "lon": 77.1072515}, {"type": "node", "id": 4638604069, "lat": 28.4844981, "lon": 77.1075263}, {"type": "node", "id": 4638604070, "lat": 28.4845869, "lon": 77.107467}, {"type": "node", "id": 4638605355, "lat": 28.4846724, "lon": 77.1070562}, {"type": "node", "id": 4638605356, "lat": 28.4847903, "lon": 77.1072788}, {"type": "node", "id": 4638605357, "lat": 28.4847066, "lon": 77.1073486}, {"type": "node", "id": 4638605358, "lat": 28.4845722, "lon": 77.1071139}, {"type": "node", "id": 4638612746, "lat": 28.484427, "lon": 77.1068814}, {"type": "node", "id": 4638612747, "lat": 28.4845536, "lon": 77.1071082}, {"type": "node", "id": 4638612748, "lat": 28.4843273, "lon": 77.1072482}, {"type": "node", "id": 4638612749, "lat": 28.4842148, "lon": 77.1070068}, {"type": "node", "id": 4758365187, "lat": 28.4804615, "lon": 77.1079043}, {"type": "node", "id": 4758365188, "lat": 28.4809116, "lon": 77.1076958}, {"type": "node", "id": 4758365189, "lat": 28.4808716, "lon": 77.1075841}, {"type": "node", "id": 267085329, "lat": 28.4818526, "lon": 77.1097467}, {"type": "node", "id": 271335620, "lat": 28.4814339, "lon": 77.111398}, {"type": "node", "id": 271335626, "lat": 28.4814246, "lon": 77.1132906}, {"type": "node", "id": 949778315, "lat": 28.4799971, "lon": 77.1150288}, {"type": "node", "id": 949778372, "lat": 28.4809827, "lon": 77.1151036}, {"type": "node", "id": 949778465, "lat": 28.4799806, "lon": 77.1116649}, {"type": "node", "id": 949778591, "lat": 28.4798328, "lon": 77.1130478}, {"type": "node", "id": 1565310201, "lat": 28.4803776, "lon": 77.1108047}, {"type": "node", "id": 1565310313, "lat": 28.4814043, "lon": 77.1105333}, {"type": "node", "id": 7923006094, "lat": 28.4811349, "lon": 77.1150908}, {"type": "node", "id": 11888519917, "lat": 28.4812234, "lon": 77.1146569}, {"type": "node", "id": 7648091364, "lat": 28.4716201, "lon": 77.1290038}, {"type": "node", "id": 7648091365, "lat": 28.4710413, "lon": 77.1283993}, {"type": "node", "id": 7648091366, "lat": 28.4708671, "lon": 77.1286923}, {"type": "node", "id": 7648091367, "lat": 28.4708608, "lon": 77.1290631}, {"type": "node", "id": 7648092857, "lat": 28.4711479, "lon": 77.1293073}, {"type": "node", "id": 7648096706, "lat": 28.4719688, "lon": 77.1292377}, {"type": "node", "id": 7648096707, "lat": 28.4717141, "lon": 77.1289915}, {"type": "node", "id": 7648140328, "lat": 28.4708275, "lon": 77.1281762}, {"type": "node", "id": 7648140329, "lat": 28.4706058, "lon": 77.1282168}, {"type": "node", "id": 7648140330, "lat": 28.4706053, "lon": 77.128289}, {"type": "node", "id": 7648140331, "lat": 28.4706958, "lon": 77.1285176}, {"type": "node", "id": 7648140332, "lat": 28.4708433, "lon": 77.1287633}, {"type": "node", "id": 7648140333, "lat": 28.4710428, "lon": 77.1284012}, {"type": "node", "id": 7648091368, "lat": 28.4713767, "lon": 77.1293448}, {"type": "node", "id": 7648091369, "lat": 28.4714153, "lon": 77.1293512}, {"type": "node", "id": 7648092858, "lat": 28.4715306, "lon": 77.129505}, {"type": "node", "id": 7648092859, "lat": 28.4713867, "lon": 77.1299138}, {"type": "node", "id": 7648092860, "lat": 28.4710219, "lon": 77.1297357}, {"type": "node", "id": 7648096708, "lat": 28.4715222, "lon": 77.1293188}, {"type": "node", "id": 7648096709, "lat": 28.4718228, "lon": 77.1295002}, {"type": "node", "id": 7648146699, "lat": 28.471443, "lon": 77.1302717}, {"type": "node", "id": 7648146700, "lat": 28.4710758, "lon": 77.1300988}, {"type": "node", "id": 7648146701, "lat": 28.471095, "lon": 77.1300381}, {"type": "node", "id": 7648146702, "lat": 28.4712383, "lon": 77.1300791}, {"type": "node", "id": 7648146703, "lat": 28.4712856, "lon": 77.1299765}, {"type": "node", "id": 7648146704, "lat": 28.471387, "lon": 77.1299465}, {"type": "node", "id": 7648146705, "lat": 28.4715813, "lon": 77.1294239}, {"type": "node", "id": 7648146706, "lat": 28.4717687, "lon": 77.1295419}, {"type": "node", "id": 7648244598, "lat": 28.471277, "lon": 77.1314507}, {"type": "node", "id": 7648244599, "lat": 28.4703118, "lon": 77.131434}, {"type": "node", "id": 7648244600, "lat": 28.4703015, "lon": 77.131818}, {"type": "node", "id": 7648244601, "lat": 28.4712976, "lon": 77.1318762}, {"type": "node", "id": 7648244602, "lat": 28.4712968, "lon": 77.1318795}, {"type": "node", "id": 7648244603, "lat": 28.4712991, "lon": 77.1318785}, {"type": "node", "id": 7648269307, "lat": 28.4716412, "lon": 77.1314523}, {"type": "node", "id": 7648269308, "lat": 28.471309, "lon": 77.1314577}, {"type": "node", "id": 7648269309, "lat": 28.4713183, "lon": 77.131894}, {"type": "node", "id": 7648269310, "lat": 28.4716737, "lon": 77.1318428}, {"type": "node", "id": 7648271845, "lat": 28.4720982, "lon": 77.1346211}, {"type": "node", "id": 7648271846, "lat": 28.4721017, "lon": 77.1346918}, {"type": "node", "id": 7648271842, "lat": 28.4723049, "lon": 77.1344556}, {"type": "node", "id": 7648271843, "lat": 28.4721323, "lon": 77.1344675}, {"type": "node", "id": 7648271844, "lat": 28.4721429, "lon": 77.1346158}, {"type": "node", "id": 7648271850, "lat": 28.472337, "lon": 77.1346834}, {"type": "node", "id": 4756123738, "lat": 28.4917402, "lon": 77.0944505}, {"type": "node", "id": 4756123739, "lat": 28.4916011, "lon": 77.0943513}, {"type": "node", "id": 4756123740, "lat": 28.49133, "lon": 77.0948663}, {"type": "node", "id": 4756123741, "lat": 28.4909127, "lon": 77.0946007}, {"type": "node", "id": 4756123742, "lat": 28.490776, "lon": 77.0948502}, {"type": "node", "id": 4756123743, "lat": 28.49133, "lon": 77.095223}, {"type": "node", "id": 5656264652, "lat": 28.4917241, "lon": 77.0921443}, {"type": "node", "id": 5656264653, "lat": 28.4913305, "lon": 77.0921443}, {"type": "node", "id": 7002812465, "lat": 28.4888532, "lon": 77.0945125}, {"type": "node", "id": 7002812466, "lat": 28.4891455, "lon": 77.0946841}, {"type": "node", "id": 7002812467, "lat": 28.4891007, "lon": 77.0947861}, {"type": "node", "id": 7002812468, "lat": 28.4888272, "lon": 77.0945822}, {"type": "node", "id": 10688537680, "lat": 28.4913694, "lon": 77.0920048}, {"type": "node", "id": 10688537681, "lat": 28.4916128, "lon": 77.0921416}, {"type": "node", "id": 5656264650, "lat": 28.4933342, "lon": 77.0933352}, {"type": "node", "id": 5656264651, "lat": 28.4934285, "lon": 77.0930589}, {"type": "node", "id": 10688537682, "lat": 28.4925693, "lon": 77.0925708}, {"type": "node", "id": 9597281611, "lat": 28.4988143, "lon": 77.0950135}, {"type": "node", "id": 9597281612, "lat": 28.4988236, "lon": 77.0950984}, {"type": "node", "id": 9597281613, "lat": 28.4987956, "lon": 77.0951038}, {"type": "node", "id": 9597281614, "lat": 28.4988423, "lon": 77.0954311}, {"type": "node", "id": 9597281615, "lat": 28.4988843, "lon": 77.0954241}, {"type": "node", "id": 9597281616, "lat": 28.4989231, "lon": 77.0954541}, {"type": "node", "id": 9597291817, "lat": 28.499158, "lon": 77.0951038}, {"type": "node", "id": 9597291818, "lat": 28.4990133, "lon": 77.0949728}, {"type": "node", "id": 13039118996, "lat": 28.4988913, "lon": 77.093774}, {"type": "node", "id": 13039118997, "lat": 28.4989256, "lon": 77.0940391}, {"type": "node", "id": 13039118998, "lat": 28.4988992, "lon": 77.0940511}, {"type": "node", "id": 13039118999, "lat": 28.4987964, "lon": 77.093942}, {"type": "node", "id": 4638597629, "lat": 28.4857119, "lon": 77.1068379}, {"type": "node", "id": 4638597630, "lat": 28.4860446, "lon": 77.1075171}, {"type": "node", "id": 4638597631, "lat": 28.4856983, "lon": 77.1077505}, {"type": "node", "id": 4638597632, "lat": 28.4853838, "lon": 77.1070609}, {"type": "node", "id": 4638597633, "lat": 28.4855615, "lon": 77.1069364}, {"type": "node", "id": 4638597634, "lat": 28.4856618, "lon": 77.1070453}, {"type": "node", "id": 4638597635, "lat": 28.4858532, "lon": 77.1074549}, {"type": "node", "id": 4638597636, "lat": 28.4857621, "lon": 77.1075327}, {"type": "node", "id": 4638597637, "lat": 28.4855661, "lon": 77.1071075}, {"type": "node", "id": 9865125291, "lat": 28.4868336, "lon": 77.1033933}, {"type": "node", "id": 9865125293, "lat": 28.4868116, "lon": 77.1032984}, {"type": "node", "id": 9865171034, "lat": 28.4861194, "lon": 77.1033185}, {"type": "node", "id": 9865171037, "lat": 28.4861126, "lon": 77.1039567}, {"type": "node", "id": 12985358857, "lat": 28.486113, "lon": 77.1039236}, {"type": "node", "id": 254570230, "lat": 28.494354, "lon": 77.097971}, {"type": "node", "id": 254570232, "lat": 28.4939993, "lon": 77.0986776}, {"type": "node", "id": 254570233, "lat": 28.4945425, "lon": 77.0990306}, {"type": "node", "id": 254570235, "lat": 28.4948972, "lon": 77.098324}, {"type": "node", "id": 537506214, "lat": 28.4936822, "lon": 77.105519}, {"type": "node", "id": 537506215, "lat": 28.4934278, "lon": 77.1054225}, {"type": "node", "id": 537506216, "lat": 28.4931263, "lon": 77.1063337}, {"type": "node", "id": 537506217, "lat": 28.4934278, "lon": 77.1064516}, {"type": "node", "id": 537506218, "lat": 28.4935126, "lon": 77.107277}, {"type": "node", "id": 537506226, "lat": 28.4942945, "lon": 77.1076094}, {"type": "node", "id": 537506227, "lat": 28.4941438, "lon": 77.1080917}, {"type": "node", "id": 537506228, "lat": 28.493343, "lon": 77.1078023}, {"type": "node", "id": 3562726456, "lat": 28.4938434, "lon": 77.1045089}, {"type": "node", "id": 3562726464, "lat": 28.4940083, "lon": 77.1039826}, {"type": "node", "id": 3562726465, "lat": 28.4940128, "lon": 77.1045776}, {"type": "node", "id": 3562726473, "lat": 28.4941777, "lon": 77.1040513}, {"type": "node", "id": 4531095002, "lat": 28.4940907, "lon": 77.1039598}, {"type": "node", "id": 4531095003, "lat": 28.494158, "lon": 77.1039945}, {"type": "node", "id": 4531095004, "lat": 28.4941757, "lon": 77.1041143}, {"type": "node", "id": 4531095005, "lat": 28.4941454, "lon": 77.1041349}, {"type": "node", "id": 4531095006, "lat": 28.4940487, "lon": 77.1039592}, {"type": "node", "id": 4531095008, "lat": 28.4941977, "lon": 77.1038501}, {"type": "node", "id": 4531095009, "lat": 28.494279, "lon": 77.1041961}, {"type": "node", "id": 4531095010, "lat": 28.4941776, "lon": 77.1043423}, {"type": "node", "id": 4531095011, "lat": 28.4940895, "lon": 77.1044884}, {"type": "node", "id": 4531095012, "lat": 28.4939908, "lon": 77.1046531}, {"type": "node", "id": 4531095013, "lat": 28.4938983, "lon": 77.1047701}, {"type": "node", "id": 4531095014, "lat": 28.4938417, "lon": 77.104868}, {"type": "node", "id": 4531095015, "lat": 28.4937557, "lon": 77.1050249}, {"type": "node", "id": 4531095016, "lat": 28.4936932, "lon": 77.1051295}, {"type": "node", "id": 4531095017, "lat": 28.4936543, "lon": 77.1052126}, {"type": "node", "id": 4531095018, "lat": 28.4935435, "lon": 77.1051737}, {"type": "node", "id": 4531095019, "lat": 28.4935023, "lon": 77.1051375}, {"type": "node", "id": 4531095020, "lat": 28.493751, "lon": 77.1043127}, {"type": "node", "id": 4531095021, "lat": 28.493903, "lon": 77.1038541}, {"type": "node", "id": 12642559439, "lat": 28.4940422, "lon": 77.104569}, {"type": "node", "id": 2724843231, "lat": 28.4997283, "lon": 77.0975487}, {"type": "node", "id": 2724843232, "lat": 28.5001384, "lon": 77.0978705}, {"type": "node", "id": 2724843270, "lat": 28.4997707, "lon": 77.0980636}, {"type": "node", "id": 2724843281, "lat": 28.4988184, "lon": 77.0990132}, {"type": "node", "id": 2724843312, "lat": 28.4991626, "lon": 77.0992975}, {"type": "node", "id": 2724843356, "lat": 28.499601, "lon": 77.0983748}, {"type": "node", "id": 2724843365, "lat": 28.4997142, "lon": 77.0985143}, {"type": "node", "id": 2724843393, "lat": 28.499931, "lon": 77.0981548}]}