{"version": 0.6, "generator": "Overpass API 0.7.62.8 e802775f", "osm3s": {"timestamp_osm_base": "2025-11-23T09:57:45Z", "copyright": "The data included in this document is from www.openstreetmap.org. The data is made available under ODbL."}, "elements": [{"type": "node", "id": 2081894222, "lat": 40.6875565, "lon": 46.3855003, "tags": {"historic": "memorial", "name": "M\u0259h\u0259mm\u0259d Fizulinin heyk\u0259li", "name:az": "M\u0259h\u0259mm\u0259d Fizulinin heyk\u0259li"}}, {"type": "node", "id": 2386937487, "lat": 40.6802996, "lon": 46.3600088, "tags": {"historic": "memorial", "memorial": "statue", "name": "Heyd\u0259r \u018fliyev Heyk\u0259li"}}, {"type": "node", "id": 4194219095, "lat": 40.6797011, "lon": 46.3607761, "tags": {"name": "Ganja Hotel", "tourism": "hotel"}}, {"type": "node", "id": 4308687003, "lat": 40.673177, "lon": 46.3602846, "tags": {"addr:street": "Cavad Xan", "amenity": "restaurant", "name": "Kolorit Kafe"}}, {"type": "node", "id": 4308687005, "lat": 40.6793221, "lon": 46.3607896, "tags": {"addr:street": "\u015eeyx Bah\u0259ddin", "amenity": "restaurant", "name": "Epik\u00fcr Ba\u011f\u0131"}}, {"type": "node", "id": 4308696257, "lat": 40.6737938, "lon": 46.3601661, "tags": {"addr:street": "Cavad Xan", "amenity": "cafe", "name": "\u0130stanbul Kafe"}}, {"type": "node", "id": 4308698616, "lat": 40.6702339, "lon": 46.3627087, "tags": {"addr:street": "Mirz\u0259 Abbas Abbaszad\u0259", "amenity": "cafe", "name": "Chicago Book Cafe"}}, {"type": "node", "id": 4308700229, "lat": 40.6709456, "lon": 46.359149, "tags": {"amenity": "cafe", "name": "Sahil Cafe"}}, {"type": "node", "id": 4308707691, "lat": 40.680504, "lon": 46.3580709, "tags": {"addr:street": "Mustafa Kemal Atat\u00fcrk", "name": "Tarix\u015f\u00fcnasl\u0131q Muzeyi", "name:az": "Tarix\u015f\u00fcnasl\u0131q Muzeyi", "name:en": "Museum of History", "name:es": "Museo de Historia", "name:pl": "Muzeum Historyczne", "tourism": "museum"}}, {"type": "node", "id": 4308833794, "lat": 40.678622, "lon": 46.3591537, "tags": {"amenity": "cafe", "name": "\u015eaurma \u21161"}}, {"type": "node", "id": 4311183989, "lat": 40.670016, "lon": 46.3632821, "tags": {"amenity": "cafe", "name": "Mohito"}}, {"type": "node", "id": 4346173689, "lat": 40.6795437, "lon": 46.3688574, "tags": {"historic": "memorial", "name": "Nizami Gencevi Heykeli", "name:en": "Nizami Ganjavi Statue", "name:tr": "Nizami Gencevi Heykeli"}}, {"type": "node", "id": 4395333991, "lat": 40.678204, "lon": 46.369828, "tags": {"historic": "monument", "name:en": "Bayraq meydani"}}, {"type": "node", "id": 4406730295, "lat": 40.6708662, "lon": 46.3661523, "tags": {"addr:street": "N\u0259riman N\u0259rimanov", "internet_access": "wlan", "mobile": "+994503692233", "name": "Ganja hostel", "name:en": "Ganja hostel", "phone": "+994222578277", "tourism": "hostel"}}, {"type": "node", "id": 4441724991, "lat": 40.6736469, "lon": 46.3665587, "tags": {"name:en": "My Way hotel", "tourism": "hotel"}}, {"type": "node", "id": 4786119297, "lat": 40.6755526, "lon": 46.3601347, "tags": {"addr": "Cavadxan 47", "description:payment": "AZN15 (dorm)", "email": "oldganjahostel@gmail.com", "facebook": "https://www.facebook.com/pg/oldganjahostel/", "internet_access": "wlan", "name": "Old Ganja Hostel", "phone": "+994552966621", "tourism": "hostel", "website": "http://oldganjahostel.com"}}, {"type": "node", "id": 4786379196, "lat": 40.6754088, "lon": 46.3707099, "tags": {"addr:city": "Ganja", "addr:housenumber": "77", "addr:street": "N\u0259riman N\u0259rimanov", "description:payment": "AZN18 (dorm)", "name": "Hostel of Ganja", "tourism": "hostel"}}, {"type": "node", "id": 4820676827, "lat": 40.6792805, "lon": 46.3564581, "tags": {"addr:city": "G\u0259nc\u0259", "amenity": "place_of_worship", "building": "church", "denomination": "russian_orthodox", "historic": "yes", "name": "Aleksandr Nevski kils\u0259si", "name:az": "Aleksandr Nevski kils\u0259si", "name:en": "Alexander Nevski Church", "name:pl": "Cerkiew \u015bw. Aleksandra Newskiego", "religion": "christian", "tourism": "attraction", "wikidata": "Q1424921", "wikimedia_commons": "Category:Alexander Nevsky church in G\u0259nc\u0259", "wikipedia": "az:Aleksandr Nevski kils\u0259si (G\u0259nc\u0259)"}}, {"type": "node", "id": 4822180621, "lat": 40.6817216, "lon": 46.3556917, "tags": {"name": "Butulka ev", "name:az": "Butulka ev", "name:en": "Bottle house", "name:es": "Casa de las botellas", "name:ru": "\u0411\u0443\u0442\u044b\u043b\u043e\u0447\u043d\u044b\u0439 \u0434\u043e\u043c", "tourism": "attraction"}}, {"type": "node", "id": 4834855223, "lat": 40.6733167, "lon": 46.360457, "tags": {"name": "Cinema Butik Hotel", "name:en": "Cinema Boutique Hotel. Real location", "name:es": "Cinema  Boutique Hotel. Ubicaci\u00f3n real", "tourism": "hotel"}}, {"type": "node", "id": 4875528621, "lat": 40.6776005, "lon": 46.3765995, "tags": {"tourism": "hotel"}}, {"type": "node", "id": 5186615422, "lat": 40.6931179, "lon": 46.3527099, "tags": {"historic": "monument"}}, {"type": "node", "id": 5527083926, "lat": 40.674794, "lon": 46.3554838, "tags": {"amenity": "restaurant", "cuisine": "sandwich;regional;tea;cake;local;bagel;donut;arab", "name:en": "Svetlana Delicious Pies", "opening_hours": "Mo-Su 08:00-21:00"}}, {"type": "node", "id": 5791245154, "lat": 40.6771102, "lon": 46.3639251, "tags": {"tourism": "hostel"}}, {"type": "node", "id": 5791245357, "lat": 40.6767094, "lon": 46.3551255, "tags": {"name:ru": "\u0426\u0438\u0442\u0430\u0434\u0435\u043b\u044c", "tourism": "attraction"}}, {"type": "node", "id": 5803824256, "lat": 40.6548829, "lon": 46.3523448, "tags": {"tourism": "guest_house"}}, {"type": "node", "id": 5842069988, "lat": 40.6731569, "lon": 46.3600471, "tags": {"name:en": "Sculpture", "name:es": "Escultura", "tourism": "artwork"}}, {"type": "node", "id": 6013089395, "lat": 40.6607314, "lon": 46.3597694, "tags": {"addr:city": "G\u0259nc\u0259", "addr:housenumber": "64", "addr:street": "Hac\u0131 Zeynalabd\u0131n Ta\u011f\u0131yev", "amenity": "place_of_worship", "building": "church", "denomination": "armenian_apostolic", "name:en": "Surb Grigor Lusavorich Church", "name:pl": "Ko\u015bci\u00f3\u0142 ormia\u0144ski", "religion": "christian", "tourism": "attraction"}}, {"type": "node", "id": 6377522552, "lat": 40.6739833, "lon": 46.3554325, "tags": {"addr:city": "G\u0259nc\u0259", "addr:postcode": "AZ2000", "amenity": "cafe", "name": "Art Garden Ganja"}}, {"type": "node", "id": 6600683290, "lat": 40.6761167, "lon": 46.3740696, "tags": {"historic": "monument", "name:en": "The capital of The Youth"}}, {"type": "node", "id": 6600732186, "lat": 40.681784, "lon": 46.3587859, "tags": {"addr:housenumber": "247", "addr:street": "Mustafa Kemal Ataturk", "amenity": "restaurant", "name": "Osmanl\u0131 d\u00f6n\u0259r", "opening_hours": "24/7", "phone": "+994502071884", "website": "https://www.facebook.com/osmanliganja"}}, {"type": "node", "id": 6600756885, "lat": 40.6770855, "lon": 46.3585568, "tags": {"historic": "monument", "name:en": "Cavad Khan"}}, {"type": "node", "id": 6743751687, "lat": 40.6789537, "lon": 46.3603528, "tags": {"amenity": "cafe", "name": "Kafe Zolotoy"}}, {"type": "node", "id": 6871253810, "lat": 40.6740848, "lon": 46.3577233, "tags": {"name:en": "N Guest House", "tourism": "hostel"}}, {"type": "node", "id": 6961357085, "lat": 40.6811434, "lon": 46.3557222, "tags": {"historic": "monument"}}, {"type": "node", "id": 7149822012, "lat": 40.6974922, "lon": 46.3732977, "tags": {"historic": "monument", "name": "D\u0259yirman dair\u0259si", "name:en": "Dayirman circle", "name:ru": "\u041a\u0440\u0443\u0433 \"\u0414\u0430\u0438\u0440\u043c\u0430\u043d\"", "source": "Bing Aerial Image"}}, {"type": "node", "id": 9974162117, "lat": 40.6770759, "lon": 46.3596948, "tags": {"amenity": "cafe", "name:en": "Coffeemania", "name:fr": "Coffeemania"}}, {"type": "node", "id": 9974169017, "lat": 40.6840509, "lon": 46.3622063, "tags": {"amenity": "restaurant", "name": "Furor Restaurant", "name:en": "Furor Restaurant", "name:fr": "Furor Restaurant"}}, {"type": "node", "id": 9975103917, "lat": 40.6773697, "lon": 46.3626357, "tags": {"amenity": "cafe", "name:en": "Art Garden Cafe"}}, {"type": "node", "id": 9975127717, "lat": 40.6750443, "lon": 46.3606096, "tags": {"amenity": "restaurant", "name": "Melody cafe", "name:en": "Akustik Melodi", "name:fr": "Akustik Melodi"}}, {"type": "node", "id": 9976358620, "lat": 40.669139, "lon": 46.3644731, "tags": {"name:en": "Old mural", "name:fr": "Old mural", "tourism": "attraction"}}, {"type": "node", "id": 9979447318, "lat": 40.680057, "lon": 46.3638463, "tags": {"amenity": "restaurant", "name:en": "local restaurant", "name:fr": "local restaurant"}}, {"type": "node", "id": 11083609919, "lat": 40.6843827, "lon": 46.3887422, "tags": {"historic": "memorial", "name": "20 Yanvar abid\u0259si"}}, {"type": "node", "id": 11135938954, "lat": 40.6717382, "lon": 46.3598752, "tags": {"artwork_type": "statue", "tourism": "artwork"}}, {"type": "node", "id": 11155393007, "lat": 40.6764827, "lon": 46.3639901, "tags": {"addr:housenumber": "124", "addr:street": "H\u0259s\u0259n \u018fliyev", "name:en": "Huseyn Houses", "tourism": "guest_house"}}, {"type": "node", "id": 11420339871, "lat": 40.6729777, "lon": 46.3600997, "tags": {"amenity": "cafe", "cuisine": "coffee_shop", "name": "Orange cafe"}}, {"type": "node", "id": 11420339872, "lat": 40.6742601, "lon": 46.3603173, "tags": {"amenity": "cafe", "cuisine": "coffee_shop", "name": "London cafe"}}, {"type": "node", "id": 11420339927, "lat": 40.6811134, "lon": 46.3634498, "tags": {"name": "Baku Hotel", "tourism": "hotel"}}, {"type": "node", "id": 11782365169, "lat": 40.6793705, "lon": 46.3663804, "tags": {"name": "Qala Hostel Ganja", "name:en": "Qala Hostel Ganja", "tourism": "hostel", "website": "https://www.qalahostel.az/"}}, {"type": "node", "id": 12124316129, "lat": 40.6760378, "lon": 46.3542327, "tags": {"historic": "memorial"}}, {"type": "node", "id": 13047649573, "lat": 40.6870614, "lon": 46.3590625, "tags": {"addr:city": "G\u0259nc\u0259", "addr:housenumber": "45", "addr:postcode": "AZ2003", "addr:street": "Ruzigar Qas\u0131mov", "amenity": "cafe", "cuisine": "anti_cafe", "internet_access": "yes", "internet_access:fee": "no", "name": "City Smiles Time Cafe", "opening_hours": "Mo-Su 10:00-22:00"}}, {"type": "way", "id": 197995709, "nodes": [2081889083, 2081889086, 2081889085, 2081889087, 2081889082, 2081889083], "tags": {"leisure": "park"}}, {"type": "way", "id": 198114492, "nodes": [2082952462, 2082952463, 2082952461, 2082952464, 2082952462], "tags": {"leisure": "park", "name": "M\u0259h\u0259mm\u0259d F\u00fczuli park\u0131"}}, {"type": "way", "id": 418347509, "nodes": [4187785347, 4187785348, 9037889061, 9037889060, 9037889063, 4187785349, 4187785350, 4187785347], "tags": {"leisure": "park"}}, {"type": "way", "id": 448840741, "nodes": [4458157273, 4458157516, 4458169821, 4458157497, 4458157498, 4458157499, 4458157285, 4458157273], "tags": {"leisure": "park"}}, {"type": "way", "id": 448996532, "nodes": [4459615924, 4459615925, 4459615926, 4459615927, 4459615928, 4459615929, 4459615930, 4459616377, 4459616435, 4459616438, 4459616439, 4459615931, 4459615932, 4459615933, 4459616441, 4459616446, 4459615934, 4459615935, 4459616456, 4459616457, 4459615936, 4459615937, 4459615938, 4459616513, 4459616530, 4459616527, 4459615939, 4459615940, 4459615941, 4459615924], "tags": {"leisure": "park"}}, {"type": "way", "id": 449207282, "nodes": [4461777532, 4461777533, 4461777534, 4461777535, 4461777517, 4461777518, 4461777519, 4461777520, 4461777526, 4461777527, 4461777528, 4461777529, 4461777530, 4461777531, 4461777521, 4461777522, 4461777523, 4461777524, 4461777525, 4461777532], "tags": {"amenity": "cafe", "building": "yes"}}, {"type": "way", "id": 449207284, "nodes": [4461777536, 4461777537, 4461777538, 4461777539, 4461777540, 4461777541, 4461777278, 4461777277, 4461777276, 4461777272, 4461777271, 4461777542, 4461777543, 4461777544, 4461777545, 4461777546, 4461777547, 4461777548, 4461777549, 4461777550, 4461777551, 4461777536], "tags": {"leisure": "park"}}, {"type": "way", "id": 515051909, "nodes": [5030804400, 5030804404, 5030804405, 5030804406, 5030804399, 5030804401, 5030804403, 5030804402, 5030804400], "tags": {"addr:city": "G\u0259nc\u0259", "addr:street": "Ahmad Jamil Street", "alt_name": "Kukla Teatri", "amenity": "place_of_worship", "building": "church", "denomination": "lutheran", "historic": "yes", "name": "Lutheran Church", "name:en": "Lutheran Church", "name:pl": "Ko\u015bci\u00f3\u0142 lutera\u0144ski", "religion": "christian", "tourism": "attraction"}}, {"type": "way", "id": 590900869, "nodes": [5640885144, 5640885145, 5640885146, 5640885147, 5640885148, 5640885149, 5640885144], "tags": {"alt_name:en": "Khan's Garden", "leisure": "park", "name": "Xan ba\u011f\u0131", "tourism": "attraction"}}, {"type": "way", "id": 860154371, "nodes": [8016844824, 8016844821, 8016844822, 8016844823, 8016844824], "tags": {"amenity": "restaurant", "building": "yes", "name": "Ayulduz \u015fadl\u0131q saray\u0131"}}, {"type": "way", "id": 940711335, "nodes": [8712094306, 8712094307, 8712094308, 8712094309, 8712094306], "tags": {"amenity": "restaurant", "building": "yes", "name": "Piramida \u015fadl\u0131q saray\u0131"}}, {"type": "way", "id": 940711336, "nodes": [8712094310, 8712094311, 8712094312, 8712094313, 8712094314, 8712094315, 8712094316, 8712094310], "tags": {"amenity": "restaurant", "building": "yes", "name": "Dan Ulduzu"}}, {"type": "way", "id": 940711337, "nodes": [8712116217, 8712116218, 8712116219, 8712116220, 8712116221, 8712116222, 8712116223, 8712116224, 8712116217], "tags": {"amenity": "restaurant", "building": "yes", "name": "Planet"}}, {"type": "way", "id": 940713573, "nodes": [8712133126, 8712133127, 8712133128, 8712133129, 8712133130, 8712133131, 8712133132, 8712133133, 8712133134, 8712133135, 8712133126], "tags": {"leisure": "park"}}, {"type": "way", "id": 946864579, "nodes": [8764881318, 8764881319, 8764881320, 8764881321, 8764881318], "tags": {"amenity": "restaurant", "building": "yes", "name": "Kral \u015fadl\u0131q saray\u0131"}}, {"type": "way", "id": 947245031, "nodes": [8768433792, 8768433793, 8768433794, 8768433795, 8768433792], "tags": {"building": "yes", "name": "Azpetrol Motel", "tourism": "motel"}}, {"type": "way", "id": 952007136, "nodes": [8811723574, 8811723575, 8811723576, 11114155209, 8811723577, 8811723574], "tags": {"amenity": "restaurant", "building": "yes", "name": "Atlanta"}}, {"type": "way", "id": 955322961, "nodes": [8841929682, 8841929683, 8841929684, 8841929685, 8841929686, 8841929687, 8841929688, 8841929689, 8841929690, 8841929691, 8841929692, 8841929693, 8841929694, 8841929695, 8841929696, 8841929697, 8841929698, 8841929699, 8841929700, 8841929682], "tags": {"building": "yes", "tourism": "museum"}}, {"type": "way", "id": 967928915, "nodes": [8954795239, 8954795238, 8954795237, 8954795236, 8954795239], "tags": {"amenity": "cafe", "building": "yes", "cuisine": "coffee_shop", "name": "Kafe Xan Ba\u011f\u0131", "source:geometry": "Mapbox Satellital Imagery"}}, {"type": "way", "id": 978125020, "nodes": [9050787397, 11928281348, 9050787398, 9050787399, 9050787400, 9050787397], "tags": {"leisure": "park"}}, {"type": "way", "id": 1014063429, "nodes": [9355753859, 9355753860, 9355753861, 9355753862, 9355753863, 11222184093, 11222184092, 11222184091, 9355753864, 9355753859], "tags": {"amenity": "restaurant", "building": "yes", "name": "Kristal restoran"}}, {"type": "way", "id": 1034497832, "nodes": [9529906077, 9529906078, 9529906079, 9529906080, 9529906081, 9529906082, 9529906083, 9529906084, 9529906085, 9529906086, 9529906087, 9529906088, 9529906089, 9529906090, 9529906077], "tags": {"leisure": "park", "name": "G\u0259ncl\u0259r park\u0131"}}, {"type": "way", "id": 1034497839, "nodes": [9529906115, 9529906116, 9529942917, 9529942918, 9529942919, 9529942920, 9529942921, 9529942922, 9529942923, 9529942924, 9529942925, 9529942926, 9529942927, 9529906115], "tags": {"leisure": "park", "name": "N\u0259rimanov park\u0131"}}, {"type": "way", "id": 1063619833, "nodes": [9769776538, 9769776539, 9769776540, 9769776541, 9769776542, 9769776543, 9769776544, 9769776545, 9769776546, 9769776547, 9769776548, 9769776538], "tags": {"amenity": "marketplace", "name": "G\u0259nc\u0259 Qalas\u0131 Bazar\u0131", "shop": "farm"}}, {"type": "way", "id": 1063619836, "nodes": [9769776557, 9769776558, 9769776559, 9769776560, 9769776561, 9769776562, 9769776563, 9769776564, 9769776557], "tags": {"building": "yes", "historic": "manor", "layer": "1", "name": "Karvansaray"}}, {"type": "way", "id": 1063626780, "nodes": [9769785787, 9769785788, 9769785789, 9769785790, 9769785787], "tags": {"amenity": "cafe", "building": "yes", "name": "Park House"}}, {"type": "way", "id": 1063626781, "nodes": [9769785791, 9769785792, 9769785793, 9769785794, 9769785795, 9769785796, 9769785797, 9769785798, 9769785799, 9769785800, 9769785791], "tags": {"building": "yes", "name": "My way Boulevard", "tourism": "hotel"}}, {"type": "way", "id": 1063626783, "nodes": [9769785805, 9769785806, 9769785807, 9769785808, 9769785809, 9769785810, 9769785811, 9769785812, 9769785813, 9769785814, 9769785815, 9769785816, 9769823917, 9769823918, 9769823919, 9769823920, 9769823921, 9769823922, 9769785805], "tags": {"historic": "memorial", "name": "\u018fli v\u0259 Nino heyk\u0259li"}}, {"type": "way", "id": 1068535691, "nodes": [9808870487, 9808870488, 9808870489, 9808870490, 9808870491, 9808870492, 9808870493, 9808870494, 9808870495, 9808870496, 9808870487], "tags": {"leisure": "park"}}, {"type": "way", "id": 1124413301, "nodes": [10282209887, 10282209888, 10282209889, 10282209890, 10282209887], "tags": {"amenity": "restaurant", "building": "yes", "name": "\u015eah Saray restoran\u0131"}}, {"type": "way", "id": 1178544992, "nodes": [10948643647, 10948643648, 10948643649, 10948643650, 10948643651, 10948643652, 10948643653, 10948643654, 10948643647], "tags": {"amenity": "restaurant", "building": "yes"}}, {"type": "way", "id": 1178544995, "nodes": [10948643669, 10948643670, 10948643671, 10948643672, 10948643673, 10948643674, 10948643675, 10948643676, 10948643669], "tags": {"amenity": "restaurant", "building": "yes", "name": "Gold \u0130mperial"}}, {"type": "way", "id": 1178544997, "nodes": [10948643687, 10948643688, 10948643689, 10948643690, 10948643691, 10948643692, 10948643693, 10948643694, 10948643695, 10948643696, 10948643697, 10948643698, 10948643699, 10948643700, 10948643687], "tags": {"amenity": "restaurant", "building": "yes"}}, {"type": "way", "id": 1178544998, "nodes": [10948643701, 10948643702, 10948643703, 10948643704, 10948705605, 10948705606, 10948705607, 10948705608, 10948643701], "tags": {"amenity": "restaurant", "building": "yes"}}, {"type": "way", "id": 1178544999, "nodes": [10948705609, 10948705610, 10948705611, 10948705612, 10948705609], "tags": {"amenity": "restaurant", "building": "yes"}}, {"type": "way", "id": 1178545000, "nodes": [10948705613, 10948705614, 10948705615, 10948705616, 10948705613], "tags": {"amenity": "restaurant", "building": "yes"}}, {"type": "way", "id": 1178545001, "nodes": [10948705617, 10948705618, 10948705619, 10948705620, 10948705617], "tags": {"amenity": "restaurant", "building": "yes"}}, {"type": "way", "id": 1178545003, "nodes": [10948705625, 10948705626, 10948705627, 10948705628, 10948705625], "tags": {"amenity": "restaurant", "building": "yes"}}, {"type": "way", "id": 1178545004, "nodes": [10948705629, 10948705630, 10948705631, 10948705632, 10948705629], "tags": {"amenity": "restaurant", "building": "yes"}}, {"type": "way", "id": 1179700037, "nodes": [10957037932, 10957037933, 10957037934, 10957037935, 10957037936, 10957037937, 10957037938, 10957037939, 10957037940, 10957037941, 10957037942, 10957037943, 10957037944, 10957037945, 10957037932], "tags": {"leisure": "park"}}, {"type": "way", "id": 1194007001, "nodes": [11083609920, 11083609921, 11083609922, 11083609923, 11083609924, 11083609925, 11083609920], "tags": {"leisure": "park"}}, {"type": "way", "id": 1201046446, "nodes": [11135954016, 11135954017, 11135954018, 11135954019, 11135954016], "tags": {"leisure": "park"}}, {"type": "way", "id": 1201046448, "nodes": [11135954024, 11135954025, 11135954026, 11135954027, 11135954024], "tags": {"amenity": "marketplace"}}, {"type": "way", "id": 1201046449, "nodes": [11135954028, 11135954029, 11135954030, 11135954031, 11135954028], "tags": {"amenity": "marketplace"}}, {"type": "way", "id": 1201046450, "nodes": [11135954032, 11135954033, 11135954034, 11135954035, 11135954032], "tags": {"amenity": "marketplace"}}, {"type": "way", "id": 1217752370, "nodes": [11283334676, 11283334687, 11283334688, 11283334677, 11283334678, 11283334679, 11283334680, 11283334681, 11283334682, 11283334683, 11283334684, 11283334685, 11283334686, 11283334676], "tags": {"leisure": "park", "name": "Q\u0259l\u0259b\u0259 park\u0131"}}, {"type": "way", "id": 1231300703, "nodes": [11419652158, 11419652159, 11419652160, 11419652161, 11419652158], "tags": {"amenity": "cafe", "building": "yes"}}, {"type": "way", "id": 1231378918, "nodes": [11420339873, 11420339874, 11420339875, 11420339876, 11420339877, 11420339878, 11420339879, 11420339880, 11420339893, 11420339881, 11420339882, 11420339883, 11420339873], "tags": {"leisure": "park", "name": "X\u0259ms\u0259 park\u0131"}}, {"type": "way", "id": 1231378921, "nodes": [11420339892, 11420339893, 11420339894, 11420339895, 11420339896, 11420339892], "tags": {"amenity": "restaurant", "building": "yes", "name": "Tapido"}}, {"type": "way", "id": 1231378928, "nodes": [11420339943, 11420339944, 11420339945, 11420339946, 11420339943], "tags": {"building": "yes", "name": "Premium Hotel", "tourism": "hotel"}}, {"type": "way", "id": 1276784300, "nodes": [11854289995, 11854289996, 11854289997, 11854289998, 11854289999, 11854290000, 11854290001, 11854290002, 11854290003, 11854290004, 11854290005, 11854290006, 11854290007, 11854290008, 11854290009, 11854290010, 11854290011, 11854290012, 11854290013, 11854290014, 11854290015, 11854290016, 11854290017, 11854290018, 11854290019, 11854290020, 11854290021, 11854289995], "tags": {"amenity": "restaurant", "building": "yes", "name": "D\u0259niz \u015fadl\u0131q saray\u0131"}}, {"type": "way", "id": 1283914876, "nodes": [11912217739, 11912217740, 11912217741, 11912217742, 11912217743, 11912217739], "tags": {"leisure": "park"}}, {"type": "way", "id": 1309331591, "nodes": [12124316125, 12124316126, 12124316127, 12124316128, 12124316125], "tags": {"amenity": "cafe", "building": "yes", "cuisine": "coffee_shop"}}, {"type": "way", "id": 1341840096, "nodes": [11700690868, 11903988384, 11903988386, 11903988387, 11903988388, 11903988389, 11903988416, 11903988419, 11903988420, 11903988421, 11903988422, 11903988424, 11903988426, 11700690865, 11700690868], "tags": {"leisure": "park", "wikidata": "Q131427041", "wikipedia": "az:G\u0259nc\u0259 Ekoloji Park Kompleksi"}}, {"type": "node", "id": 11903988384, "lat": 40.6616409, "lon": 46.3512966}, {"type": "node", "id": 11912217743, "lat": 40.6612473, "lon": 46.3601607}, {"type": "node", "id": 11912217740, "lat": 40.6616522, "lon": 46.3611155}, {"type": "node", "id": 11912217741, "lat": 40.6610458, "lon": 46.3603887}, {"type": "node", "id": 11912217742, "lat": 40.6611618, "lon": 46.360217}, {"type": "node", "id": 11700690865, "lat": 40.6635176, "lon": 46.3526829}, {"type": "node", "id": 11700690868, "lat": 40.6631289, "lon": 46.3530947}, {"type": "node", "id": 11903988386, "lat": 40.6620412, "lon": 46.3503711}, {"type": "node", "id": 11903988387, "lat": 40.6621025, "lon": 46.3503172}, {"type": "node", "id": 11903988388, "lat": 40.6622746, "lon": 46.3503172}, {"type": "node", "id": 11903988389, "lat": 40.6626306, "lon": 46.3504826}, {"type": "node", "id": 11903988416, "lat": 40.6628621, "lon": 46.3504938}, {"type": "node", "id": 11903988419, "lat": 40.6630295, "lon": 46.3504194}, {"type": "node", "id": 11903988420, "lat": 40.663088, "lon": 46.3504718}, {"type": "node", "id": 11903988421, "lat": 40.6632282, "lon": 46.3506979}, {"type": "node", "id": 11903988422, "lat": 40.6634646, "lon": 46.3511116}, {"type": "node", "id": 11903988424, "lat": 40.6635482, "lon": 46.3514728}, {"type": "node", "id": 11903988426, "lat": 40.6636947, "lon": 46.3524904}, {"type": "node", "id": 8764881318, "lat": 40.6648718, "lon": 46.3569257}, {"type": "node", "id": 8764881319, "lat": 40.6649323, "lon": 46.3572198}, {"type": "node", "id": 8764881320, "lat": 40.6647886, "lon": 46.3572447}, {"type": "node", "id": 8764881321, "lat": 40.6647281, "lon": 46.3569905}, {"type": "node", "id": 11912217739, "lat": 40.6618556, "lon": 46.361019}, {"type": "node", "id": 5030804399, "lat": 40.6706365, "lon": 46.3608891}, {"type": "node", "id": 5030804400, "lat": 40.6706244, "lon": 46.3608221}, {"type": "node", "id": 5030804401, "lat": 40.670651, "lon": 46.3608989}, {"type": "node", "id": 5030804402, "lat": 40.6706327, "lon": 46.360801}, {"type": "node", "id": 5030804403, "lat": 40.6706775, "lon": 46.3608317}, {"type": "node", "id": 5030804404, "lat": 40.6705502, "lon": 46.3607713}, {"type": "node", "id": 5030804405, "lat": 40.670422, "lon": 46.3610972}, {"type": "node", "id": 5030804406, "lat": 40.6705265, "lon": 46.3611687}, {"type": "node", "id": 8841929682, "lat": 40.6725678, "lon": 46.3606218}, {"type": "node", "id": 8841929683, "lat": 40.6727467, "lon": 46.3607157}, {"type": "node", "id": 8841929684, "lat": 40.6727743, "lon": 46.3607138}, {"type": "node", "id": 8841929685, "lat": 40.6727903, "lon": 46.3607138}, {"type": "node", "id": 8841929686, "lat": 40.6728092, "lon": 46.3607253}, {"type": "node", "id": 8841929687, "lat": 40.6728238, "lon": 46.3607445}, {"type": "node", "id": 8841929688, "lat": 40.6728368, "lon": 46.3607733}, {"type": "node", "id": 8841929689, "lat": 40.6730041, "lon": 46.3608615}, {"type": "node", "id": 8841929690, "lat": 40.6729576, "lon": 46.3609977}, {"type": "node", "id": 8841929691, "lat": 40.6727961, "lon": 46.360896}, {"type": "node", "id": 8841929692, "lat": 40.6727598, "lon": 46.3610379}, {"type": "node", "id": 8841929693, "lat": 40.6727452, "lon": 46.3610514}, {"type": "node", "id": 8841929694, "lat": 40.672719, "lon": 46.3610648}, {"type": "node", "id": 8841929695, "lat": 40.6726914, "lon": 46.3610533}, {"type": "node", "id": 8841929696, "lat": 40.6726725, "lon": 46.361036}, {"type": "node", "id": 8841929697, "lat": 40.6726579, "lon": 46.361013}, {"type": "node", "id": 8841929698, "lat": 40.6726579, "lon": 46.3609708}, {"type": "node", "id": 8841929699, "lat": 40.6726812, "lon": 46.3608768}, {"type": "node", "id": 8841929700, "lat": 40.6725212, "lon": 46.3607848}, {"type": "node", "id": 9769785788, "lat": 40.6745854, "lon": 46.3656047}, {"type": "node", "id": 9769785789, "lat": 40.6749024, "lon": 46.3659353}, {"type": "node", "id": 9769785791, "lat": 40.6738799, "lon": 46.3645947}, {"type": "node", "id": 9769785792, "lat": 40.6740527, "lon": 46.3648415}, {"type": "node", "id": 9769785793, "lat": 40.6741338, "lon": 46.3647431}, {"type": "node", "id": 9769785794, "lat": 40.6740055, "lon": 46.3645567}, {"type": "node", "id": 9769785795, "lat": 40.6740173, "lon": 46.3645412}, {"type": "node", "id": 9769785796, "lat": 40.6740199, "lon": 46.364517}, {"type": "node", "id": 9769785797, "lat": 40.6740147, "lon": 46.3644998}, {"type": "node", "id": 9769785798, "lat": 40.6740068, "lon": 46.364486}, {"type": "node", "id": 9769785799, "lat": 40.6739924, "lon": 46.3644773}, {"type": "node", "id": 9769785800, "lat": 40.6739715, "lon": 46.3644791}, {"type": "node", "id": 9769785805, "lat": 40.6738447, "lon": 46.36376}, {"type": "node", "id": 9769785806, "lat": 40.6738485, "lon": 46.3637376}, {"type": "node", "id": 9769785807, "lat": 40.6738485, "lon": 46.3636977}, {"type": "node", "id": 9769785808, "lat": 40.6738391, "lon": 46.3636628}, {"type": "node", "id": 9769785809, "lat": 40.6738202, "lon": 46.3636254}, {"type": "node", "id": 9769785810, "lat": 40.6737899, "lon": 46.363598}, {"type": "node", "id": 9769785811, "lat": 40.6737616, "lon": 46.363588}, {"type": "node", "id": 9769785812, "lat": 40.6737105, "lon": 46.3635905}, {"type": "node", "id": 9769785813, "lat": 40.6736822, "lon": 46.3636204}, {"type": "node", "id": 9769785814, "lat": 40.6736557, "lon": 46.3636653}, {"type": "node", "id": 9769785815, "lat": 40.6736463, "lon": 46.3637251}, {"type": "node", "id": 9769785816, "lat": 40.6736519, "lon": 46.3637675}, {"type": "node", "id": 9769823917, "lat": 40.6736652, "lon": 46.3638049}, {"type": "node", "id": 9769823918, "lat": 40.6736954, "lon": 46.3638323}, {"type": "node", "id": 9769823919, "lat": 40.6737313, "lon": 46.3638547}, {"type": "node", "id": 9769823920, "lat": 40.6737786, "lon": 46.3638447}, {"type": "node", "id": 9769823921, "lat": 40.6738088, "lon": 46.3638273}, {"type": "node", "id": 9769823922, "lat": 40.6738258, "lon": 46.3638024}, {"type": "node", "id": 5640885144, "lat": 40.6775313, "lon": 46.3525999}, {"type": "node", "id": 5640885145, "lat": 40.6754998, "lon": 46.3518612}, {"type": "node", "id": 5640885146, "lat": 40.6751908, "lon": 46.351875}, {"type": "node", "id": 8016844821, "lat": 40.6793623, "lon": 46.3502993}, {"type": "node", "id": 8016844822, "lat": 40.6792037, "lon": 46.3508545}, {"type": "node", "id": 8016844823, "lat": 40.6790575, "lon": 46.3507819}, {"type": "node", "id": 8016844824, "lat": 40.6792162, "lon": 46.3502267}, {"type": "node", "id": 12124316125, "lat": 40.6758059, "lon": 46.3529024}, {"type": "node", "id": 12124316126, "lat": 40.6757286, "lon": 46.3532564}, {"type": "node", "id": 12124316127, "lat": 40.6755943, "lon": 46.3532081}, {"type": "node", "id": 12124316128, "lat": 40.6756798, "lon": 46.3528541}, {"type": "node", "id": 4187785348, "lat": 40.6804912, "lon": 46.3596423}, {"type": "node", "id": 5640885147, "lat": 40.6754317, "lon": 46.3554098}, {"type": "node", "id": 5640885148, "lat": 40.6757406, "lon": 46.3557136}, {"type": "node", "id": 5640885149, "lat": 40.6766686, "lon": 46.3561907}, {"type": "node", "id": 8954795236, "lat": 40.676466, "lon": 46.3557214}, {"type": "node", "id": 8954795237, "lat": 40.6764459, "lon": 46.3555677}, {"type": "node", "id": 8954795238, "lat": 40.676612, "lon": 46.3555299}, {"type": "node", "id": 8954795239, "lat": 40.6766322, "lon": 46.3556836}, {"type": "node", "id": 9037889060, "lat": 40.6803852, "lon": 46.3600114}, {"type": "node", "id": 9037889061, "lat": 40.6804345, "lon": 46.3598397}, {"type": "node", "id": 9808870487, "lat": 40.6757284, "lon": 46.3558877}, {"type": "node", "id": 9808870488, "lat": 40.6753462, "lon": 46.3571559}, {"type": "node", "id": 9808870489, "lat": 40.6757768, "lon": 46.357311}, {"type": "node", "id": 9808870490, "lat": 40.6756612, "lon": 46.3576211}, {"type": "node", "id": 9808870491, "lat": 40.676017, "lon": 46.3578083}, {"type": "node", "id": 9808870492, "lat": 40.6761296, "lon": 46.3572612}, {"type": "node", "id": 9808870493, "lat": 40.6761956, "lon": 46.3573307}, {"type": "node", "id": 9808870494, "lat": 40.6762829, "lon": 46.3570092}, {"type": "node", "id": 9808870495, "lat": 40.6763732, "lon": 46.3570562}, {"type": "node", "id": 9808870496, "lat": 40.6765832, "lon": 46.3562809}, {"type": "node", "id": 10957037932, "lat": 40.6789654, "lon": 46.3589241}, {"type": "node", "id": 10957037933, "lat": 40.6788128, "lon": 46.3595571}, {"type": "node", "id": 10957037934, "lat": 40.6792237, "lon": 46.3598414}, {"type": "node", "id": 10957037935, "lat": 40.6791688, "lon": 46.3600399}, {"type": "node", "id": 10957037936, "lat": 40.6779727, "lon": 46.3594632}, {"type": "node", "id": 10957037937, "lat": 40.67781, "lon": 46.3594337}, {"type": "node", "id": 10957037938, "lat": 40.676919, "lon": 46.3589992}, {"type": "node", "id": 10957037939, "lat": 40.6769496, "lon": 46.3588704}, {"type": "node", "id": 10957037940, "lat": 40.6775903, "lon": 46.3591011}, {"type": "node", "id": 10957037941, "lat": 40.6776127, "lon": 46.3586612}, {"type": "node", "id": 10957037942, "lat": 40.677871, "lon": 46.3587149}, {"type": "node", "id": 10957037943, "lat": 40.677883, "lon": 46.3584497}, {"type": "node", "id": 10957037944, "lat": 40.6783938, "lon": 46.3584279}, {"type": "node", "id": 10957037945, "lat": 40.6789837, "lon": 46.3587551}, {"type": "node", "id": 4187785349, "lat": 40.6802242, "lon": 46.3605716}, {"type": "node", "id": 4187785350, "lat": 40.6813404, "lon": 46.3611199}, {"type": "node", "id": 9037889063, "lat": 40.6803164, "lon": 46.3602506}, {"type": "node", "id": 9769776538, "lat": 40.6795431, "lon": 46.3649851}, {"type": "node", "id": 9769776539, "lat": 40.6795919, "lon": 46.3660687}, {"type": "node", "id": 9769776540, "lat": 40.6795655, "lon": 46.3660955}, {"type": "node", "id": 9769776541, "lat": 40.6795695, "lon": 46.3663745}, {"type": "node", "id": 9769776542, "lat": 40.6794556, "lon": 46.3663691}, {"type": "node", "id": 9769776543, "lat": 40.6794434, "lon": 46.3663423}, {"type": "node", "id": 9769776544, "lat": 40.6793438, "lon": 46.3663316}, {"type": "node", "id": 9769776545, "lat": 40.6790427, "lon": 46.3660634}, {"type": "node", "id": 9769776546, "lat": 40.6789593, "lon": 46.3659936}, {"type": "node", "id": 9769776547, "lat": 40.6783104, "lon": 46.3651568}, {"type": "node", "id": 9769776548, "lat": 40.6785016, "lon": 46.3644272}, {"type": "node", "id": 9769776557, "lat": 40.6786715, "lon": 46.3604989}, {"type": "node", "id": 9769776558, "lat": 40.6785325, "lon": 46.361055}, {"type": "node", "id": 9769776559, "lat": 40.6786739, "lon": 46.3611296}, {"type": "node", "id": 9769776560, "lat": 40.6786621, "lon": 46.3611855}, {"type": "node", "id": 9769776561, "lat": 40.6790414, "lon": 46.3613688}, {"type": "node", "id": 9769776562, "lat": 40.6790579, "lon": 46.361316}, {"type": "node", "id": 9769776563, "lat": 40.6791616, "lon": 46.3613595}, {"type": "node", "id": 9769776564, "lat": 40.6793171, "lon": 46.3608127}, {"type": "node", "id": 9769785787, "lat": 40.6749517, "lon": 46.3651254}, {"type": "node", "id": 9769785790, "lat": 40.6752166, "lon": 46.3654747}, {"type": "node", "id": 4461777271, "lat": 40.6781608, "lon": 46.370059}, {"type": "node", "id": 4461777272, "lat": 40.6776849, "lon": 46.3694153}, {"type": "node", "id": 4461777276, "lat": 40.6775709, "lon": 46.3692731}, {"type": "node", "id": 4461777277, "lat": 40.6770665, "lon": 46.368616}, {"type": "node", "id": 4461777278, "lat": 40.6770868, "lon": 46.3685865}, {"type": "node", "id": 4461777517, "lat": 40.6772134, "lon": 46.368346}, {"type": "node", "id": 4461777518, "lat": 40.6772207, "lon": 46.3683862}, {"type": "node", "id": 4461777519, "lat": 40.677218, "lon": 46.3684274}, {"type": "node", "id": 4461777520, "lat": 40.6772056, "lon": 46.3684654}, {"type": "node", "id": 4461777521, "lat": 40.6770297, "lon": 46.3684382}, {"type": "node", "id": 4461777522, "lat": 40.6770244, "lon": 46.3683946}, {"type": "node", "id": 4461777523, "lat": 40.6770304, "lon": 46.3683512}, {"type": "node", "id": 4461777524, "lat": 40.6770471, "lon": 46.368313}, {"type": "node", "id": 4461777525, "lat": 40.6770725, "lon": 46.3682844}, {"type": "node", "id": 4461777526, "lat": 40.6771848, "lon": 46.3684963}, {"type": "node", "id": 4461777527, "lat": 40.6771576, "lon": 46.368517}, {"type": "node", "id": 4461777528, "lat": 40.6771269, "lon": 46.3685254}, {"type": "node", "id": 4461777529, "lat": 40.6770958, "lon": 46.3685206}, {"type": "node", "id": 4461777530, "lat": 40.6770673, "lon": 46.3685031}, {"type": "node", "id": 4461777531, "lat": 40.6770446, "lon": 46.3684746}, {"type": "node", "id": 4461777532, "lat": 40.6771038, "lon": 46.3682687}, {"type": "node", "id": 4461777533, "lat": 40.6771373, "lon": 46.3682677}, {"type": "node", "id": 4461777534, "lat": 40.677169, "lon": 46.3682816}, {"type": "node", "id": 4461777535, "lat": 40.6771954, "lon": 46.3683088}, {"type": "node", "id": 4461777536, "lat": 40.6773483, "lon": 46.3682943}, {"type": "node", "id": 4461777537, "lat": 40.6772491, "lon": 46.3684181}, {"type": "node", "id": 4461777538, "lat": 40.6772332, "lon": 46.3684765}, {"type": "node", "id": 4461777539, "lat": 40.6771977, "lon": 46.3685372}, {"type": "node", "id": 4461777540, "lat": 40.6771464, "lon": 46.3685722}, {"type": "node", "id": 4461777541, "lat": 40.6770968, "lon": 46.3685769}, {"type": "node", "id": 4461777542, "lat": 40.6781859, "lon": 46.3700759}, {"type": "node", "id": 4461777543, "lat": 40.6782301, "lon": 46.3700526}, {"type": "node", "id": 4461777544, "lat": 40.6782992, "lon": 46.3699429}, {"type": "node", "id": 4461777545, "lat": 40.6784019, "lon": 46.3697887}, {"type": "node", "id": 4461777546, "lat": 40.6784302, "lon": 46.369735}, {"type": "node", "id": 4461777547, "lat": 40.6783683, "lon": 46.3696066}, {"type": "node", "id": 4461777548, "lat": 40.6781097, "lon": 46.3692727}, {"type": "node", "id": 4461777549, "lat": 40.677775, "lon": 46.3688337}, {"type": "node", "id": 4461777550, "lat": 40.6774279, "lon": 46.3683667}, {"type": "node", "id": 4461777551, "lat": 40.6773677, "lon": 46.3682967}, {"type": "node", "id": 9529906115, "lat": 40.6762363, "lon": 46.3719627}, {"type": "node", "id": 9529906116, "lat": 40.6765143, "lon": 46.3730539}, {"type": "node", "id": 9529942917, "lat": 40.6765472, "lon": 46.373077}, {"type": "node", "id": 9529942918, "lat": 40.6765691, "lon": 46.3730568}, {"type": "node", "id": 9529942919, "lat": 40.6769281, "lon": 46.3724131}, {"type": "node", "id": 9529942920, "lat": 40.6769325, "lon": 46.3723582}, {"type": "node", "id": 9529942921, "lat": 40.6769215, "lon": 46.3723149}, {"type": "node", "id": 9529942922, "lat": 40.676904, "lon": 46.3722601}, {"type": "node", "id": 9529942923, "lat": 40.676418, "lon": 46.3718242}, {"type": "node", "id": 9529942924, "lat": 40.6763698, "lon": 46.3718097}, {"type": "node", "id": 9529942925, "lat": 40.6763304, "lon": 46.3718068}, {"type": "node", "id": 9529942926, "lat": 40.6762888, "lon": 46.3718328}, {"type": "node", "id": 9529942927, "lat": 40.6762582, "lon": 46.3718761}, {"type": "node", "id": 10282209887, "lat": 40.6798844, "lon": 46.3694712}, {"type": "node", "id": 10282209888, "lat": 40.6797736, "lon": 46.3696707}, {"type": "node", "id": 10282209889, "lat": 40.680106, "lon": 46.3699701}, {"type": "node", "id": 10282209890, "lat": 40.680206, "lon": 46.3697705}, {"type": "node", "id": 11420339873, "lat": 40.6808704, "lon": 46.369866}, {"type": "node", "id": 11420339874, "lat": 40.6807994, "lon": 46.3701382}, {"type": "node", "id": 11420339875, "lat": 40.6796513, "lon": 46.3690949}, {"type": "node", "id": 11420339876, "lat": 40.679675, "lon": 46.3687943}, {"type": "node", "id": 11420339877, "lat": 40.6797975, "lon": 46.3688114}, {"type": "node", "id": 11420339878, "lat": 40.679819, "lon": 46.3689616}, {"type": "node", "id": 11420339879, "lat": 40.6799867, "lon": 46.3689503}, {"type": "node", "id": 11420339880, "lat": 40.6800448, "lon": 46.3688397}, {"type": "node", "id": 11420339881, "lat": 40.68032, "lon": 46.3691431}, {"type": "node", "id": 11420339882, "lat": 40.6806554, "lon": 46.3695286}, {"type": "node", "id": 11420339883, "lat": 40.6808468, "lon": 46.3697583}, {"type": "node", "id": 11420339892, "lat": 40.6800965, "lon": 46.3689143}, {"type": "node", "id": 11420339893, "lat": 40.6801739, "lon": 46.3689821}, {"type": "node", "id": 11420339894, "lat": 40.6802309, "lon": 46.3690589}, {"type": "node", "id": 11420339895, "lat": 40.6801578, "lon": 46.369169}, {"type": "node", "id": 11420339896, "lat": 40.6800273, "lon": 46.3690124}, {"type": "node", "id": 4187785347, "lat": 40.6815898, "lon": 46.3601964}, {"type": "node", "id": 11420339943, "lat": 40.6914371, "lon": 46.3665316}, {"type": "node", "id": 11420339946, "lat": 40.6912823, "lon": 46.3665288}, {"type": "node", "id": 11420339944, "lat": 40.6914005, "lon": 46.3668378}, {"type": "node", "id": 11420339945, "lat": 40.6912608, "lon": 46.3668123}, {"type": "node", "id": 8811723574, "lat": 40.6979531, "lon": 46.3636986}, {"type": "node", "id": 8811723575, "lat": 40.6981653, "lon": 46.3637019}, {"type": "node", "id": 8811723576, "lat": 40.6981616, "lon": 46.3640977}, {"type": "node", "id": 8811723577, "lat": 40.6979496, "lon": 46.364087}, {"type": "node", "id": 9355753859, "lat": 40.6976137, "lon": 46.365314}, {"type": "node", "id": 9355753860, "lat": 40.6976074, "lon": 46.3656891}, {"type": "node", "id": 9355753861, "lat": 40.6975758, "lon": 46.3656891}, {"type": "node", "id": 9355753862, "lat": 40.6975663, "lon": 46.365835}, {"type": "node", "id": 9355753863, "lat": 40.6974146, "lon": 46.3658225}, {"type": "node", "id": 9355753864, "lat": 40.6974304, "lon": 46.3653057}, {"type": "node", "id": 11114155209, "lat": 40.6979888, "lon": 46.3640907}, {"type": "node", "id": 11135954016, "lat": 40.695468, "lon": 46.3651417}, {"type": "node", "id": 11135954017, "lat": 40.6954556, "lon": 46.3654823}, {"type": "node", "id": 11135954018, "lat": 40.6949285, "lon": 46.3655299}, {"type": "node", "id": 11135954019, "lat": 40.6949413, "lon": 46.3651202}, {"type": "node", "id": 11222184091, "lat": 40.6972821, "lon": 46.365309}, {"type": "node", "id": 11222184092, "lat": 40.6972783, "lon": 46.3655405}, {"type": "node", "id": 11222184093, "lat": 40.6974197, "lon": 46.3655405}, {"type": "node", "id": 11283334676, "lat": 40.7004289, "lon": 46.3670758}, {"type": "node", "id": 11283334677, "lat": 40.7008183, "lon": 46.3675662}, {"type": "node", "id": 11283334681, "lat": 40.6997845, "lon": 46.3689252}, {"type": "node", "id": 11283334682, "lat": 40.6998447, "lon": 46.3669544}, {"type": "node", "id": 11283334683, "lat": 40.6999474, "lon": 46.3669684}, {"type": "node", "id": 11283334684, "lat": 40.6999544, "lon": 46.3673747}, {"type": "node", "id": 11283334685, "lat": 40.700266, "lon": 46.3673233}, {"type": "node", "id": 11283334686, "lat": 40.7002766, "lon": 46.3671179}, {"type": "node", "id": 11283334687, "lat": 40.7004323, "lon": 46.3672353}, {"type": "node", "id": 11283334688, "lat": 40.700647, "lon": 46.3672727}, {"type": "node", "id": 2081889082, "lat": 40.6784465, "lon": 46.3771331}, {"type": "node", "id": 2081889083, "lat": 40.6787759, "lon": 46.3769868}, {"type": "node", "id": 2081889085, "lat": 40.6790763, "lon": 46.3784564}, {"type": "node", "id": 2081889086, "lat": 40.6790682, "lon": 46.3781077}, {"type": "node", "id": 2081889087, "lat": 40.6787952, "lon": 46.3784944}, {"type": "node", "id": 4458157273, "lat": 40.6809789, "lon": 46.3796041}, {"type": "node", "id": 4458157285, "lat": 40.6797319, "lon": 46.3764356}, {"type": "node", "id": 4458157497, "lat": 40.6796763, "lon": 46.3772967}, {"type": "node", "id": 4458157498, "lat": 40.6790541, "lon": 46.3756881}, {"type": "node", "id": 4458157499, "lat": 40.6793611, "lon": 46.3754936}, {"type": "node", "id": 4458157516, "lat": 40.6806535, "lon": 46.379823}, {"type": "node", "id": 4458169821, "lat": 40.6796984, "lon": 46.3773539}, {"type": "node", "id": 4459615924, "lat": 40.6810824, "lon": 46.3797713}, {"type": "node", "id": 9050787397, "lat": 40.6805615, "lon": 46.375067}, {"type": "node", "id": 9050787398, "lat": 40.6812576, "lon": 46.3757603}, {"type": "node", "id": 9050787399, "lat": 40.6809199, "lon": 46.3763722}, {"type": "node", "id": 9050787400, "lat": 40.6802289, "lon": 46.3756519}, {"type": "node", "id": 9529906077, "lat": 40.6764675, "lon": 46.3733706}, {"type": "node", "id": 9529906078, "lat": 40.6769113, "lon": 46.3750893}, {"type": "node", "id": 9529906079, "lat": 40.6769062, "lon": 46.375126}, {"type": "node", "id": 9529906080, "lat": 40.6768986, "lon": 46.3751528}, {"type": "node", "id": 9529906081, "lat": 40.6768758, "lon": 46.3751896}, {"type": "node", "id": 9529906082, "lat": 40.676853, "lon": 46.3752063}, {"type": "node", "id": 9529906083, "lat": 40.6768226, "lon": 46.3752197}, {"type": "node", "id": 9529906084, "lat": 40.6767845, "lon": 46.3752197}, {"type": "node", "id": 9529906085, "lat": 40.6756865, "lon": 46.3742366}, {"type": "node", "id": 9529906086, "lat": 40.6756865, "lon": 46.3741898}, {"type": "node", "id": 9529906087, "lat": 40.6756916, "lon": 46.3741564}, {"type": "node", "id": 9529906088, "lat": 40.6760948, "lon": 46.3734241}, {"type": "node", "id": 9529906089, "lat": 40.6761125, "lon": 46.3734609}, {"type": "node", "id": 9529906090, "lat": 40.6761658, "lon": 46.3735177}, {"type": "node", "id": 11928281348, "lat": 40.6809098, "lon": 46.3754139}, {"type": "node", "id": 4459615925, "lat": 40.6813581, "lon": 46.380443}, {"type": "node", "id": 4459615940, "lat": 40.681031, "lon": 46.3807449}, {"type": "node", "id": 4459615941, "lat": 40.6807366, "lon": 46.3800086}, {"type": "node", "id": 2082952461, "lat": 40.6877041, "lon": 46.3852858}, {"type": "node", "id": 2082952462, "lat": 40.6847315, "lon": 46.3816726}, {"type": "node", "id": 2082952463, "lat": 40.6850037, "lon": 46.3813242}, {"type": "node", "id": 2082952464, "lat": 40.6874342, "lon": 46.3856281}, {"type": "node", "id": 4459615926, "lat": 40.682066, "lon": 46.3814259}, {"type": "node", "id": 4459615927, "lat": 40.6825684, "lon": 46.3822054}, {"type": "node", "id": 4459615928, "lat": 40.6824819, "lon": 46.3823378}, {"type": "node", "id": 4459615929, "lat": 40.6822016, "lon": 46.3819188}, {"type": "node", "id": 4459615930, "lat": 40.6820357, "lon": 46.382116}, {"type": "node", "id": 4459615931, "lat": 40.6829142, "lon": 46.3834778}, {"type": "node", "id": 4459615932, "lat": 40.6829726, "lon": 46.3834778}, {"type": "node", "id": 4459615933, "lat": 40.6830263, "lon": 46.3835672}, {"type": "node", "id": 4459615934, "lat": 40.6826922, "lon": 46.3840324}, {"type": "node", "id": 4459615935, "lat": 40.6826361, "lon": 46.3840232}, {"type": "node", "id": 4459615936, "lat": 40.6825053, "lon": 46.3841926}, {"type": "node", "id": 4459615937, "lat": 40.6825333, "lon": 46.3842358}, {"type": "node", "id": 4459615938, "lat": 40.6824469, "lon": 46.3843282}, {"type": "node", "id": 4459615939, "lat": 40.68176, "lon": 46.3826121}, {"type": "node", "id": 4459616377, "lat": 40.6823348, "lon": 46.3825797}, {"type": "node", "id": 4459616435, "lat": 40.6823531, "lon": 46.3826081}, {"type": "node", "id": 4459616438, "lat": 40.6826059, "lon": 46.383}, {"type": "node", "id": 4459616439, "lat": 40.6826247, "lon": 46.3830291}, {"type": "node", "id": 4459616441, "lat": 40.6828671, "lon": 46.3837889}, {"type": "node", "id": 4459616446, "lat": 40.6828449, "lon": 46.3838197}, {"type": "node", "id": 4459616456, "lat": 40.6826145, "lon": 46.3840512}, {"type": "node", "id": 4459616457, "lat": 40.6825329, "lon": 46.3841568}, {"type": "node", "id": 4459616513, "lat": 40.6823999, "lon": 46.3842109}, {"type": "node", "id": 4459616527, "lat": 40.6823284, "lon": 46.3840322}, {"type": "node", "id": 4459616530, "lat": 40.6823916, "lon": 46.3841901}, {"type": "node", "id": 10948643703, "lat": 40.6879853, "lon": 46.381372}, {"type": "node", "id": 10948705606, "lat": 40.6879161, "lon": 46.3814176}, {"type": "node", "id": 10948705607, "lat": 40.6878877, "lon": 46.3814498}, {"type": "node", "id": 10948705608, "lat": 40.6878185, "lon": 46.381364}, {"type": "node", "id": 10948705613, "lat": 40.6879893, "lon": 46.3817529}, {"type": "node", "id": 10948705615, "lat": 40.6880382, "lon": 46.3819755}, {"type": "node", "id": 10948705616, "lat": 40.6879365, "lon": 46.3818227}, {"type": "node", "id": 11083609923, "lat": 40.6829523, "lon": 46.3855915}, {"type": "node", "id": 11083609924, "lat": 40.6830478, "lon": 46.3855509}, {"type": "node", "id": 8712094306, "lat": 40.684129, "lon": 46.3864471}, {"type": "node", "id": 8712094307, "lat": 40.6838219, "lon": 46.3866626}, {"type": "node", "id": 8712094308, "lat": 40.6840022, "lon": 46.3871344}, {"type": "node", "id": 8712094309, "lat": 40.6843037, "lon": 46.3869115}, {"type": "node", "id": 8712094310, "lat": 40.6842924, "lon": 46.3871864}, {"type": "node", "id": 8712094311, "lat": 40.684129, "lon": 46.387309}, {"type": "node", "id": 8712094312, "lat": 40.6842783, "lon": 46.3876583}, {"type": "node", "id": 8712094313, "lat": 40.6843234, "lon": 46.3876731}, {"type": "node", "id": 8712094314, "lat": 40.6843882, "lon": 46.3876434}, {"type": "node", "id": 8712094315, "lat": 40.684422, "lon": 46.3875877}, {"type": "node", "id": 8712094316, "lat": 40.6844305, "lon": 46.3875357}, {"type": "node", "id": 8712116217, "lat": 40.6837909, "lon": 46.3884385}, {"type": "node", "id": 8712116218, "lat": 40.683667, "lon": 46.3885239}, {"type": "node", "id": 8712116219, "lat": 40.6838332, "lon": 46.3889734}, {"type": "node", "id": 8712116220, "lat": 40.6839515, "lon": 46.388888}, {"type": "node", "id": 8712116221, "lat": 40.6839093, "lon": 46.388784}, {"type": "node", "id": 8712116222, "lat": 40.683929, "lon": 46.3887468}, {"type": "node", "id": 8712116223, "lat": 40.6839093, "lon": 46.3887022}, {"type": "node", "id": 8712116224, "lat": 40.6838839, "lon": 46.3887022}, {"type": "node", "id": 11083609920, "lat": 40.6839881, "lon": 46.387234}, {"type": "node", "id": 11083609921, "lat": 40.6845184, "lon": 46.388604}, {"type": "node", "id": 11083609922, "lat": 40.6842163, "lon": 46.3888236}, {"type": "node", "id": 11083609925, "lat": 40.6837939, "lon": 46.3873722}, {"type": "node", "id": 11419652158, "lat": 40.6815773, "lon": 46.3905759}, {"type": "node", "id": 11419652159, "lat": 40.6817705, "lon": 46.3910775}, {"type": "node", "id": 11419652160, "lat": 40.6818906, "lon": 46.3909863}, {"type": "node", "id": 11419652161, "lat": 40.6816953, "lon": 46.390482}, {"type": "node", "id": 11854289995, "lat": 40.6845967, "lon": 46.3866856}, {"type": "node", "id": 11854289996, "lat": 40.6848499, "lon": 46.3871135}, {"type": "node", "id": 11854289997, "lat": 40.6848621, "lon": 46.3871054}, {"type": "node", "id": 11854289998, "lat": 40.6848977, "lon": 46.3871684}, {"type": "node", "id": 11854289999, "lat": 40.6849079, "lon": 46.3871966}, {"type": "node", "id": 11854290000, "lat": 40.6849079, "lon": 46.3872502}, {"type": "node", "id": 11854290001, "lat": 40.6848987, "lon": 46.3872945}, {"type": "node", "id": 11854290002, "lat": 40.6848794, "lon": 46.38732}, {"type": "node", "id": 11854290003, "lat": 40.6848895, "lon": 46.3873388}, {"type": "node", "id": 11854290004, "lat": 40.6848509, "lon": 46.3873857}, {"type": "node", "id": 11854290005, "lat": 40.6848041, "lon": 46.3874098}, {"type": "node", "id": 11854290006, "lat": 40.684794, "lon": 46.3873844}, {"type": "node", "id": 11854290007, "lat": 40.6847706, "lon": 46.3873803}, {"type": "node", "id": 11854290008, "lat": 40.6847462, "lon": 46.3873736}, {"type": "node", "id": 11854290009, "lat": 40.6847075, "lon": 46.3873522}, {"type": "node", "id": 11854290010, "lat": 40.6846923, "lon": 46.3873267}, {"type": "node", "id": 11854290011, "lat": 40.6846994, "lon": 46.387316}, {"type": "node", "id": 11854290012, "lat": 40.6845784, "lon": 46.3871322}, {"type": "node", "id": 11854290013, "lat": 40.6845743, "lon": 46.3871108}, {"type": "node", "id": 11854290014, "lat": 40.6845733, "lon": 46.3870759}, {"type": "node", "id": 11854290015, "lat": 40.6845773, "lon": 46.387041}, {"type": "node", "id": 11854290016, "lat": 40.6845875, "lon": 46.3870035}, {"type": "node", "id": 11854290017, "lat": 40.684619, "lon": 46.38697}, {"type": "node", "id": 11854290018, "lat": 40.6845306, "lon": 46.3868224}, {"type": "node", "id": 11854290019, "lat": 40.6845255, "lon": 46.3867983}, {"type": "node", "id": 11854290020, "lat": 40.6845255, "lon": 46.3867755}, {"type": "node", "id": 11854290021, "lat": 40.6845316, "lon": 46.386754}, {"type": "node", "id": 11135954024, "lat": 40.6910985, "lon": 46.3782179}, {"type": "node", "id": 11135954025, "lat": 40.6905011, "lon": 46.3790006}, {"type": "node", "id": 11135954026, "lat": 40.6899314, "lon": 46.3782597}, {"type": "node", "id": 11135954027, "lat": 40.6905248, "lon": 46.3774301}, {"type": "node", "id": 11135954028, "lat": 40.691051, "lon": 46.3762613}, {"type": "node", "id": 11135954029, "lat": 40.6919926, "lon": 46.3775344}, {"type": "node", "id": 11135954030, "lat": 40.691597, "lon": 46.3780353}, {"type": "node", "id": 11135954031, "lat": 40.6906554, "lon": 46.3767831}, {"type": "node", "id": 11135954032, "lat": 40.6919254, "lon": 46.3751499}, {"type": "node", "id": 11135954033, "lat": 40.6913359, "lon": 46.3759169}, {"type": "node", "id": 11135954034, "lat": 40.6922814, "lon": 46.3771274}, {"type": "node", "id": 11135954035, "lat": 40.692859, "lon": 46.3763865}, {"type": "node", "id": 8768433792, "lat": 40.6900274, "lon": 46.3844735}, {"type": "node", "id": 8768433793, "lat": 40.6899205, "lon": 46.3843133}, {"type": "node", "id": 8768433794, "lat": 40.6897954, "lon": 46.3844998}, {"type": "node", "id": 8768433795, "lat": 40.6898842, "lon": 46.384648}, {"type": "node", "id": 10948643647, "lat": 40.6891547, "lon": 46.3824664}, {"type": "node", "id": 10948643648, "lat": 40.6892707, "lon": 46.382622}, {"type": "node", "id": 10948643649, "lat": 40.6892198, "lon": 46.382689}, {"type": "node", "id": 10948643650, "lat": 40.6893357, "lon": 46.3828607}, {"type": "node", "id": 10948643651, "lat": 40.6894029, "lon": 46.3827909}, {"type": "node", "id": 10948643652, "lat": 40.6895086, "lon": 46.3829385}, {"type": "node", "id": 10948643653, "lat": 40.6892218, "lon": 46.3832764}, {"type": "node", "id": 10948643654, "lat": 40.6889005, "lon": 46.3827936}, {"type": "node", "id": 10948643669, "lat": 40.6889147, "lon": 46.3821231}, {"type": "node", "id": 10948643670, "lat": 40.6886402, "lon": 46.3824449}, {"type": "node", "id": 10948643671, "lat": 40.6886036, "lon": 46.3823832}, {"type": "node", "id": 10948643672, "lat": 40.6885771, "lon": 46.3824101}, {"type": "node", "id": 10948643673, "lat": 40.6884653, "lon": 46.3822545}, {"type": "node", "id": 10948643674, "lat": 40.6884958, "lon": 46.3822196}, {"type": "node", "id": 10948643675, "lat": 40.688451, "lon": 46.382166}, {"type": "node", "id": 10948643676, "lat": 40.6887337, "lon": 46.3818575}, {"type": "node", "id": 10948643687, "lat": 40.688392, "lon": 46.3816832}, {"type": "node", "id": 10948643688, "lat": 40.6883981, "lon": 46.3817315}, {"type": "node", "id": 10948643689, "lat": 40.688392, "lon": 46.3817663}, {"type": "node", "id": 10948643690, "lat": 40.6883636, "lon": 46.3818146}, {"type": "node", "id": 10948643691, "lat": 40.6883249, "lon": 46.3818414}, {"type": "node", "id": 10948643692, "lat": 40.6882782, "lon": 46.3818361}, {"type": "node", "id": 10948643693, "lat": 40.6882415, "lon": 46.3818039}, {"type": "node", "id": 10948643694, "lat": 40.6882192, "lon": 46.381761}, {"type": "node", "id": 10948643695, "lat": 40.6882151, "lon": 46.3816966}, {"type": "node", "id": 10948643696, "lat": 40.6882253, "lon": 46.381659}, {"type": "node", "id": 10948643697, "lat": 40.6882639, "lon": 46.3816134}, {"type": "node", "id": 10948643698, "lat": 40.6883107, "lon": 46.3816}, {"type": "node", "id": 10948643699, "lat": 40.6883493, "lon": 46.3816134}, {"type": "node", "id": 10948643700, "lat": 40.6883737, "lon": 46.3816322}, {"type": "node", "id": 10948643701, "lat": 40.6881134, "lon": 46.3809912}, {"type": "node", "id": 10948643702, "lat": 40.6881988, "lon": 46.3811011}, {"type": "node", "id": 10948643704, "lat": 40.6880951, "lon": 46.3815303}, {"type": "node", "id": 10948705605, "lat": 40.6880402, "lon": 46.3816027}, {"type": "node", "id": 10948705609, "lat": 40.6881419, "lon": 46.3819729}, {"type": "node", "id": 10948705610, "lat": 40.6882497, "lon": 46.3821284}, {"type": "node", "id": 10948705611, "lat": 40.6881988, "lon": 46.3821901}, {"type": "node", "id": 10948705612, "lat": 40.688091, "lon": 46.3820345}, {"type": "node", "id": 10948705614, "lat": 40.6880849, "lon": 46.3819031}, {"type": "node", "id": 10948705617, "lat": 40.6885019, "lon": 46.3818227}, {"type": "node", "id": 10948705618, "lat": 40.6884022, "lon": 46.3819299}, {"type": "node", "id": 10948705619, "lat": 40.6884429, "lon": 46.3820211}, {"type": "node", "id": 10948705620, "lat": 40.6885425, "lon": 46.3818924}, {"type": "node", "id": 10948705625, "lat": 40.6881561, "lon": 46.3812004}, {"type": "node", "id": 10948705626, "lat": 40.6881988, "lon": 46.3811467}, {"type": "node", "id": 10948705627, "lat": 40.6884042, "lon": 46.3814471}, {"type": "node", "id": 10948705628, "lat": 40.6883514, "lon": 46.3814954}, {"type": "node", "id": 10948705629, "lat": 40.688449, "lon": 46.3815115}, {"type": "node", "id": 10948705630, "lat": 40.688628, "lon": 46.3817851}, {"type": "node", "id": 10948705631, "lat": 40.6885832, "lon": 46.3818334}, {"type": "node", "id": 10948705632, "lat": 40.6884042, "lon": 46.3815678}, {"type": "node", "id": 8712133126, "lat": 40.6970143, "lon": 46.3744344}, {"type": "node", "id": 8712133127, "lat": 40.6972492, "lon": 46.374017}, {"type": "node", "id": 8712133128, "lat": 40.6973307, "lon": 46.373974}, {"type": "node", "id": 8712133129, "lat": 40.6974025, "lon": 46.3739912}, {"type": "node", "id": 8712133130, "lat": 40.697458, "lon": 46.3740816}, {"type": "node", "id": 8712133131, "lat": 40.6975657, "lon": 46.3748088}, {"type": "node", "id": 8712133132, "lat": 40.6976015, "lon": 46.3749121}, {"type": "node", "id": 8712133133, "lat": 40.6975852, "lon": 46.3750498}, {"type": "node", "id": 8712133134, "lat": 40.6975135, "lon": 46.3751187}, {"type": "node", "id": 8712133135, "lat": 40.6974482, "lon": 46.3750627}, {"type": "node", "id": 11283334678, "lat": 40.7013989, "lon": 46.3681453}, {"type": "node", "id": 11283334679, "lat": 40.701583, "lon": 46.3681826}, {"type": "node", "id": 11283334680, "lat": 40.7015653, "lon": 46.3688785}]}