{"version": 0.6, "generator": "Overpass API 0.7.62.8 e802775f", "osm3s": {"timestamp_osm_base": "2025-11-23T10:05:56Z", "copyright": "The data included in this document is from www.openstreetmap.org. The data is made available under ODbL."}, "elements": [{"type": "node", "id": 244371752, "lat": 40.1417688, "lon": 49.3821644, "tags": {"condition": "active", "ele": "397.5", "name": "B\u00f6y\u00fck K\u0259niz\u0259da\u011f Pal\u00e7\u0131q vulkan\u0131", "name:az": "B\u00f6y\u00fck K\u0259niz\u0259da\u011f Pal\u00e7\u0131q vulkan\u0131", "name:en": "Boyuk Kanizadag mud vulkano", "natural": "volcano", "tourism": "attraction", "volcano:status": "dormant", "volcano:type": "mud volcano"}}, {"type": "node", "id": 244398416, "lat": 40.1117238, "lon": 49.3787636, "tags": {"archaeological_site": "petroglyph", "historic": "archaeological_site", "name": "Qobustan D\u00f6vl\u0259t Qoru\u011fu", "name:az": "Qobustan D\u00f6vl\u0259t Qoru\u011fu", "name:en": "Gobustan Rock Art Cultural Landscapes", "name:fr": "R\u00e9serve de Gobustan", "name:he": "\u05e9\u05de\u05d5\u05e8\u05ea \u05d2\u05d5\u05d1\u05d5\u05e1\u05d8\u05d0\u05df", "opening_hours": "Mo-Su 10:00-17:00", "tourism": "attraction", "website": "https://whc.unesco.org/en/list/1076", "wikidata": "Q318181", "wikimedia_commons": "Category:Gobustan State Reserve", "wikipedia": "en:Gobustan State Reserve"}}, {"type": "node", "id": 1976790538, "lat": 40.1023787, "lon": 49.3873034, "tags": {"archaeological_site": "petroglyph", "historic": "archaeological_site", "name": "Roma Legionerl\u0259rin yaz\u0131s\u0131 \\ \u0130mperator Domisian XII", "name:az": "Roma Legionerl\u0259rin yaz\u0131s\u0131 \\ \u0130mperator Domisian", "name:en": "Roman Legion XII inscriptions \\ Qubustan", "name:ja": "\u30ed\u30fc\u30de\u8ecd\u56e3\u7b2c12\u8ecd\u306e\u7891\u6587", "website": "https://whc.unesco.org/en/list/1076", "wikidata": "Q318181", "wikimedia_commons": "Category:Gobustan State Reserve", "wikipedia": "en:Gobustan National Park"}}, {"type": "node", "id": 5879742286, "lat": 40.1110997, "lon": 49.378408, "tags": {"amenity": "cafe", "name": "Kafe"}}, {"type": "way", "id": 283689361, "nodes": [2875280338, 2875280336, 2875280334, 2875277197, 2875277196, 2875277190, 2875277174, 2875277175, 2875277177, 2875277182, 2875280324, 11336695178, 2875280335, 2875280337, 2875732001, 2875280338], "tags": {"boundary": "protected_area", "leisure": "nature_reserve", "name": "Qobustan D\u00f6vl\u0259t Qoru\u011fu", "name:en": "Gobustan State Historical and Cultural Reserve", "name:ja": "\u30b4\u30d6\u30b9\u30bf\u30f3\u56fd\u7acb\u4fdd\u8b77\u533a", "place": "locality", "tourism": "museum", "wikipedia": "az:Qobustan D\u00f6vl\u0259t Tarixi-B\u0259dii Qoru\u011fu"}}, {"type": "node", "id": 2875277174, "lat": 40.0965318, "lon": 49.381967}, {"type": "node", "id": 2875277175, "lat": 40.0966479, "lon": 49.3848995}, {"type": "node", "id": 2875277196, "lat": 40.1068189, "lon": 49.3727901}, {"type": "node", "id": 2875277197, "lat": 40.1098388, "lon": 49.3711597}, {"type": "node", "id": 2875277190, "lat": 40.1029108, "lon": 49.3775557}, {"type": "node", "id": 2875277177, "lat": 40.0998671, "lon": 49.3842286}, {"type": "node", "id": 2875277182, "lat": 40.1008027, "lon": 49.3878924}, {"type": "node", "id": 2875280334, "lat": 40.1160728, "lon": 49.3725866}, {"type": "node", "id": 2875280336, "lat": 40.1196816, "lon": 49.3744975}, {"type": "node", "id": 2875280338, "lat": 40.1227044, "lon": 49.37743}, {"type": "node", "id": 2875732001, "lat": 40.1234026, "lon": 49.3805743}, {"type": "node", "id": 2875280335, "lat": 40.1197212, "lon": 49.3875624}, {"type": "node", "id": 2875280337, "lat": 40.1228272, "lon": 49.3836735}, {"type": "node", "id": 2875280324, "lat": 40.1123016, "lon": 49.3913593}, {"type": "node", "id": 11336695178, "lat": 40.1136251, "lon": 49.3910551}]}