{"version": 0.6, "generator": "Overpass API 0.7.62.8 e802775f", "osm3s": {"timestamp_osm_base": "2025-11-23T12:47:00Z", "copyright": "The data included in this document is from www.openstreetmap.org. The data is made available under ODbL."}, "elements": [{"type": "node", "id": 4100514698, "lat": 41.7775776, "lon": 44.8210783, "tags": {"addr:housenumber": "\u10e1\u10d0\u10ee\u10da\u10d8", "addr:street": "\u10d6\u10e6\u10d5\u10d8\u10e1 \u10e3\u10d1\u10d0\u10dc\u10d8 3 \u10db\u10e0/3\u10d9\u10d5.", "contact:mobile": "+995 593 67 47 43", "internet_access": "wlan", "opening_hours": "Tu-We,Sa", "tourism": "guest_house"}}, {"type": "node", "id": 4416597990, "lat": 41.7634428, "lon": 44.8401177, "tags": {"addr:street": "Eqimebis qucha", "amenity": "restaurant", "contact:mobile": "+995 555 56 88 77", "cuisine": "georgian", "name": "\u10e1\u10d0\u10d9\u10d0\u10da\u10db\u10d0\u10ee\u10d4", "name:en": "Sakalmakhe", "name:ka": "\u10e1\u10d0\u10d9\u10d0\u10da\u10db\u10d0\u10ee\u10d4", "name:ru": "\u041a\u0430\u0440\u0430\u0432\u0435\u043b\u043b\u0430"}}, {"type": "node", "id": 4995218721, "lat": 41.7950161, "lon": 44.8191723, "tags": {"amenity": "restaurant", "check_date": "2023-09-03", "name": "\u10e1\u10e2\u10d0\u10e0\u10dd\u10de\u10d8\u10da\u10e1\u10d4\u10dc\u10d8", "name:en": "Staropilsen"}}, {"type": "node", "id": 5188510621, "lat": 41.7868727, "lon": 44.8004195, "tags": {"addr:housenumber": "2\u10d1", "addr:street": "\u10d3\u10d0\u10d5\u10d8\u10d7 \u10e1\u10d0\u10e0\u10d0\u10ef\u10d8\u10e8\u10d5\u10d8\u10da\u10d8\u10e1 \u10e5\u10e3\u10e9\u10d0", "check_date": "2024-06-29", "name": "\u10d8\u10db\u10de\u10d4\u10e0\u10d8\u10d0\u10da\u10d8", "name:en": "Imperial", "name:ru": "\u0418\u043c\u043f\u0435\u0440\u0438\u0430\u043b", "tourism": "hotel"}}, {"type": "node", "id": 5613479123, "lat": 41.7925117, "lon": 44.8168012, "tags": {"amenity": "cafe", "name": "\u10e1\u10d0\u10d3\u10e6\u10d4\u10e1\u10d0\u10e1\u10ec\u10d0\u10e3\u10da\u10dd \u10ea\u10d4\u10dc\u10e2\u10e0\u10d8 \u10d2\u10d0\u10e0\u10e4\u10d8\u10da\u10d3\u10d8", "name:en": "Garfield"}}, {"type": "node", "id": 5936836385, "lat": 41.7635515, "lon": 44.8393727, "tags": {"amenity": "restaurant", "internet_access": "wlan", "name": "\u10d9\u10d0\u10e0\u10d0\u10d5\u10d4\u10da\u10d0", "name:en": "Karavela", "opening_hours": "Mo-Su 11:00-02:00"}}, {"type": "node", "id": 6204960990, "lat": 41.7638685, "lon": 44.8396771, "tags": {"addr:housenumber": "9", "addr:street": "Tbilisi sea", "name": "\u0410\u0440\u0435\u043d\u0434\u0430", "tourism": "apartment"}}, {"type": "node", "id": 6584671685, "lat": 41.777439, "lon": 44.8020868, "tags": {"tourism": "guest_house"}}, {"type": "node", "id": 6738835488, "lat": 41.770422, "lon": 44.8089387, "tags": {"historic": "memorial", "memorial": "sculpture", "name:be": "\u0421\u043a\u0443\u043b\u044c\u043f\u0442\u0443\u0440\u043d\u0430-\u0430\u0440\u0445\u0456\u0442\u044d\u043a\u0442\u0443\u0440\u043d\u044b \u043a\u043e\u043c\u043f\u043b\u0435\u043a\u0441 \u00ab\u041b\u0435\u0442\u0430\u043f\u0456\u0441 \u0413\u0440\u0443\u0437\u0456\u0456\u00bb", "name:en": "Chronicles of Georgia sculpture and architecture complex", "name:ru": "\u0421\u043a\u0443\u043b\u044c\u043f\u0442\u0443\u0440\u043d\u043e-\u0430\u0440\u0445\u0438\u0442\u0435\u043a\u0442\u0443\u0440\u043d\u044b\u0439 \u043a\u043e\u043c\u043f\u043b\u0435\u043a\u0441 \"\u041b\u0435\u0442\u043e\u043f\u0438\u0441\u044c \u0413\u0440\u0443\u0437\u0438\u0438\""}}, {"type": "node", "id": 6738835489, "lat": 41.7704734, "lon": 44.8091692, "tags": {"historic": "memorial", "memorial": "column"}}, {"type": "node", "id": 6738835592, "lat": 41.7702988, "lon": 44.8099318, "tags": {"historic": "memorial", "memorial": "cross", "name:en": "Wooden cross"}}, {"type": "node", "id": 6738835986, "lat": 41.7703463, "lon": 44.8092017, "tags": {"historic": "memorial", "memorial": "column"}}, {"type": "node", "id": 6899504522, "lat": 41.7706531, "lon": 44.8116179, "tags": {"tourism": "viewpoint"}}, {"type": "node", "id": 8096972017, "lat": 41.7700984, "lon": 44.836238, "tags": {"name": "\u10d2\u10dd\u10e9\u10d0\u10e1 \u10e7\u10d5\u10d4\u10da\u10d8 \u10e1\u10d0\u10ee\u10da\u10d8", "tourism": "apartment"}}, {"type": "node", "id": 9430097505, "lat": 41.7710156, "lon": 44.8109318, "tags": {"tourism": "viewpoint"}}, {"type": "node", "id": 9430097511, "lat": 41.7705937, "lon": 44.8105238, "tags": {"historic": "memorial", "memorial": "sculpture"}}, {"type": "node", "id": 9430097512, "lat": 41.7707293, "lon": 44.8101908, "tags": {"historic": "memorial", "memorial": "sculpture", "name:en": "Scroll"}}, {"type": "node", "id": 9430097513, "lat": 41.7703738, "lon": 44.8102806, "tags": {"historic": "memorial", "memorial": "sculpture", "name:en": "Scroll"}}, {"type": "node", "id": 9430097514, "lat": 41.7704495, "lon": 44.8101458, "tags": {"historic": "memorial", "memorial": "sculpture", "name:en": "Scroll"}}, {"type": "node", "id": 9430097515, "lat": 41.7706242, "lon": 44.810093, "tags": {"historic": "memorial", "memorial": "sculpture", "name:en": "Scroll"}}, {"type": "node", "id": 9430097516, "lat": 41.7705324, "lon": 44.8100817, "tags": {"historic": "memorial", "memorial": "sculpture", "name:en": "Scroll"}}, {"type": "node", "id": 9430121225, "lat": 41.7707917, "lon": 44.8112371, "tags": {"artwork_type": "relief", "location": "outdoor", "tourism": "artwork"}}, {"type": "node", "id": 9430121226, "lat": 41.7708268, "lon": 44.8112477, "tags": {"artwork_type": "relief", "location": "outdoor", "tourism": "artwork"}}, {"type": "node", "id": 9741189289, "lat": 41.7875748, "lon": 44.8187202, "tags": {"amenity": "restaurant"}}, {"type": "node", "id": 9761930655, "lat": 41.7875745, "lon": 44.8221036, "tags": {"amenity": "cafe"}}, {"type": "node", "id": 9772328847, "lat": 41.7876465, "lon": 44.8186236, "tags": {"amenity": "restaurant", "check_date": "2023-09-17", "name": "\u10d4\u10da\u10d8\u10e2\u10d0", "name:en": "Elita"}}, {"type": "node", "id": 9772503620, "lat": 41.7899694, "lon": 44.8183721, "tags": {"addr:city": "\u10d7\u10d1\u10d8\u10da\u10d8\u10e1\u10d8", "addr:street": "\u10d0\u10da\u10d4\u10d9\u10dd \u10d2\u10dd\u10d1\u10e0\u10dd\u10dc\u10d8\u10eb\u10d8\u10e1 \u10e5\u10e3\u10e9\u10d0", "amenity": "cafe", "outdoor_seating": "yes"}}, {"type": "node", "id": 9778972663, "lat": 41.7883454, "lon": 44.8160492, "tags": {"amenity": "cafe"}}, {"type": "node", "id": 9794687152, "lat": 41.7921696, "lon": 44.816065, "tags": {"amenity": "marketplace"}}, {"type": "node", "id": 9800944924, "lat": 41.7881485, "lon": 44.8215971, "tags": {"access": "yes", "amenity": "drinking_water", "bottle": "yes", "fee": "no", "historic": "memorial"}}, {"type": "node", "id": 9800944925, "lat": 41.7880576, "lon": 44.8193259, "tags": {"access": "yes", "amenity": "drinking_water", "bottle": "yes", "fee": "no", "historic": "memorial"}}, {"type": "node", "id": 9800944926, "lat": 41.7834719, "lon": 44.824761, "tags": {"access": "yes", "amenity": "drinking_water", "bottle": "yes", "fee": "no", "historic": "memorial"}}, {"type": "node", "id": 9836928080, "lat": 41.7875771, "lon": 44.8227655, "tags": {"access": "yes", "amenity": "drinking_water", "bottle": "yes", "fee": "no", "historic": "memorial"}}, {"type": "node", "id": 9859807872, "lat": 41.7925131, "lon": 44.8166155, "tags": {"amenity": "cafe"}}, {"type": "node", "id": 9888786290, "lat": 41.7860946, "lon": 44.8219413, "tags": {"amenity": "cafe", "check_date": "2022-07-15", "cuisine": "coffee_shop", "takeaway": "only"}}, {"type": "node", "id": 9890934053, "lat": 41.7833376, "lon": 44.82518, "tags": {"access": "yes", "amenity": "drinking_water", "bottle": "yes", "fee": "no", "historic": "memorial"}}, {"type": "node", "id": 11207957401, "lat": 41.7805952, "lon": 44.8255145, "tags": {"amenity": "cafe", "check_date": "2023-09-21", "name": "\u10e1\u10d0\u10ea\u10ee\u10dd\u10d1\u10d8"}}, {"type": "node", "id": 11207957409, "lat": 41.7818405, "lon": 44.8278948, "tags": {"amenity": "cafe", "check_date": "2023-09-21", "cuisine": "coffee_shop", "name": "\u10e1\u10d0\u10da\u10d5\u10d4", "name:en": "Salve", "name:ka": "\u10e1\u10d0\u10da\u10d5\u10d4", "opening_hours": "24/7", "outdoor_seating": "yes"}}, {"type": "node", "id": 11289003669, "lat": 41.7585429, "lon": 44.842089, "tags": {"camp_site": "basic", "tourism": "camp_site"}}, {"type": "node", "id": 11519519769, "lat": 41.7904096, "lon": 44.8037232, "tags": {"addr:housenumber": "23", "addr:street": "\u10e5\u10d4\u10e0\u10e9\u10d8\u10e1 \u10e5\u10e3\u10e9\u10d0", "amenity": "cafe", "cuisine": "georgian"}}, {"type": "node", "id": 11530634317, "lat": 41.7769544, "lon": 44.8062329, "tags": {"artwork_type": "statue", "tourism": "artwork"}}, {"type": "node", "id": 11530634321, "lat": 41.7790706, "lon": 44.8032451, "tags": {"amenity": "restaurant", "check_date": "2024-01-19"}}, {"type": "node", "id": 11530634331, "lat": 41.7739286, "lon": 44.8037161, "tags": {"amenity": "cafe", "check_date": "2024-01-19"}}, {"type": "node", "id": 11599190640, "lat": 41.7943519, "lon": 44.810598, "tags": {"amenity": "cafe", "cuisine": "coffee_shop"}}, {"type": "node", "id": 12069235769, "lat": 41.7646835, "lon": 44.8323089, "tags": {"tourism": "camp_site"}}, {"type": "node", "id": 12310626619, "lat": 41.7765441, "lon": 44.816612, "tags": {"information": "map", "map_size": "park", "map_type": "scheme", "tourism": "information"}}, {"type": "node", "id": 12310626939, "lat": 41.7721706, "lon": 44.8218035, "tags": {"artwork_type": "mural", "tourism": "artwork"}}, {"type": "node", "id": 12425650806, "lat": 41.7864751, "lon": 44.8002532, "tags": {"amenity": "restaurant", "check_date": "2024-06-29", "name": "\u10f0\u10d4\u10e0\u10d4\u10d7\u10d8", "name:en": "Hereti"}}, {"type": "node", "id": 12445349513, "lat": 41.7940604, "lon": 44.8187095, "tags": {"amenity": "restaurant", "check_date": "2023-09-03", "name": "\u10e9\u10d4\u10db\u10dd \u10d9\u10d0\u10e0\u10d2\u10dd", "name:en": "Chemo Kargo"}}, {"type": "node", "id": 12445349522, "lat": 41.7938014, "lon": 44.8181456, "tags": {"amenity": "cafe", "check_date": "2023-09-03", "name": "\u10d4\u10e1\u10de\u10e0\u10d4\u10e1\u10dd"}}, {"type": "node", "id": 12445349533, "lat": 41.7936654, "lon": 44.817933, "tags": {"amenity": "restaurant", "check_date": "2023-09-03", "name": "\u10db\u10d0\u10e0\u10d0\u10dc\u10d8", "name:en": "Marani"}}, {"type": "node", "id": 12448648936, "lat": 41.7992014, "lon": 44.8228656, "tags": {"check_date": "2023-09-03", "name": "\u10d3\u10d9\u10d3-\u10d1\u10e0\u10d8\u10ef\u10d8", "name:en": "DKD Bridge", "tourism": "hotel"}}, {"type": "node", "id": 12449835554, "lat": 41.7911807, "lon": 44.816325, "tags": {"amenity": "restaurant", "contact:phone": "+995 32 204 08 08", "cuisine": "georgian", "name": "\u10ee\u10d8\u10dc\u10d9\u10d0\u10da\u10d8 \u10e1\u10d0\u10ee\u10da\u10d8", "name:en": "Khinkali House", "website": "https://khh.ge/"}}, {"type": "node", "id": 12875610007, "lat": 41.7777419, "lon": 44.8066406, "tags": {"historic": "memorial", "memorial": "bust", "name": "\u10d0\u10d1\u10d0\u10d8 \u10d9\u10e3\u10dc\u10d0\u10dc\u10d1\u10d0\u10d4\u10d5\u10d8", "name:en": "Abai Qunanbaiuly", "name:ka": "\u10d0\u10d1\u10d0\u10d8 \u10d9\u10e3\u10dc\u10d0\u10dc\u10d1\u10d0\u10d4\u10d5\u10d8", "name:ru": "\u0410\u0431\u0430\u0439 \u041a\u0443\u043d\u0430\u043d\u0431\u0430\u0435\u0432", "subject:wikidata": "Q304890", "subject:wikipedia": "ka:\u10d0\u10d1\u10d0\u10d8 \u10d9\u10e3\u10dc\u10d0\u10dc\u10d1\u10d0\u10d4\u10d5\u10d8"}}, {"type": "node", "id": 13039953401, "lat": 41.7679406, "lon": 44.827892, "tags": {"historic": "wayside_shrine"}}, {"type": "node", "id": 13122040778, "lat": 41.7703154, "lon": 44.8180942, "tags": {"artwork_type": "relief", "tourism": "artwork"}}, {"type": "node", "id": 13122111904, "lat": 41.7502878, "lon": 44.8237901, "tags": {"artwork_type": "mosaic", "direction": "45", "tourism": "artwork"}}, {"type": "node", "id": 13122112003, "lat": 41.7504426, "lon": 44.823043, "tags": {"artwork_type": "mosaic", "direction": "45", "tourism": "artwork"}}, {"type": "node", "id": 13206963601, "lat": 41.7772334, "lon": 44.8159058, "tags": {"addr:street": "\u10d2\u10dd\u10e9\u10d0 \u10e9\u10dd\u10d2\u10dd\u10d5\u10d0\u10eb\u10d8\u10e1 \u10e5\u10e3\u10e9\u10d0", "amenity": "cafe", "contact:facebook": "dunkindonutsgeo", "cuisine": "coffee_shop;donut;ice_cream;tea", "name": "\u10d3\u10d0\u10dc\u10d9\u10d8\u10dc' \u10d3\u10dd\u10dc\u10d0\u10d7\u10e1\u10d8", "name:en": "Dunkin' Donuts", "opening_hours": "Mo-Su 09:00-22:00", "website": "https://dd.ge/"}}, {"type": "way", "id": 58415799, "nodes": [724226162, 12434251302, 724226163, 724226164, 724226165, 1832475645, 724226162], "tags": {"landuse": "religious", "leisure": "park"}}, {"type": "way", "id": 63746690, "nodes": [788213838, 788213843, 788213846, 788213849, 12872949838, 12872949840, 12872949839, 12872949837, 788213853, 788213856, 12872949832, 12872949831, 788213859, 788213863, 12872949833, 12872949834, 12872949835, 12872949836, 788213865, 788213870, 788213838], "tags": {"addr:housenumber": "21", "addr:place": "\u10d6\u10e6\u10d5\u10d8\u10e1\u10e3\u10d1\u10d0\u10dc\u10d8 XI \u10db\u10d8\u10d9\u10e0\u10dd \u10e0\u10d0\u10d8\u10dd\u10dc\u10d8 I \u10d9\u10d5\u10d0\u10e0\u10e2\u10d0\u10da\u10d8", "addr:place:en": "Zghvisubani XI Micri District I Block", "building": "hotel", "building:levels": "20", "building:use": "apartments", "name": "\u10d0\u10e0\u10d0\u10e8\u10d4\u10dc\u10d3\u10d0\u10e1 \u10d9\u10dd\u10e0\u10de\u10e3\u10e1\u10d8", "name:be": "\u0411\u0443\u0434\u044b\u043d\u0430\u043a \u0410\u0440\u0430\u0448\u044d\u043d\u0434\u0430", "name:en": "Arashenda Building", "tourism": "attraction", "wikimedia_commons": "File:Arashenda Building in Tbilisi, view from the Chronicle of Georgia.jpg"}}, {"type": "way", "id": 79812157, "nodes": [12507850900, 12507850901, 12507850903, 12507850902, 12507850900], "tags": {"leisure": "park"}}, {"type": "way", "id": 79880116, "nodes": [932475257, 932475258, 932475259, 932475260, 9831532334, 9831532335, 12434241965, 932475261, 932475262, 932475263, 9831532345, 9831532344, 932475264, 9831532349, 9831532348, 9831532347, 9831532346, 9831532343, 9831532342, 9831532341, 932475257], "tags": {"addr:city": "\u10d7\u10d1\u10d8\u10da\u10d8\u10e1\u10d8", "addr:housenumber": "15", "addr:street": "\u10d8\u10da\u10d8\u10d0 \u10d5\u10d4\u10d9\u10e3\u10d0\u10e1 \u10e5\u10e3\u10e9\u10d0", "amenity": "restaurant", "building": "commercial", "building:levels": "2", "contact:facebook": "https://www.facebook.com/OkrosNali", "contact:mobile": "+995 550 00 99 88", "cuisine": "georgian", "name": "\u10dd\u10e5\u10e0\u10dd\u10e1 \u10dc\u10d0\u10da\u10d8", "name:en": "Okros Nali", "name:ka": "\u10dd\u10e5\u10e0\u10dd\u10e1 \u10dc\u10d0\u10da\u10d8", "name:ru": "\u041e\u043a\u0440\u043e\u0441 \u041d\u0430\u043b\u0438", "opening_hours": "Mo-Su 10:00-24:00"}}, {"type": "way", "id": 79880117, "nodes": [932475266, 9846478382, 9846478381, 932475267, 932475268, 932475269, 9846478383, 9846488641, 9846488640, 9846488631, 9846488626, 9846488619, 932475273, 9846478415, 9846478413, 9846478411, 932475275, 9846478406, 9846478384, 9846478394, 932475266], "tags": {"amenity": "marketplace", "building": "roof", "layer": "1"}}, {"type": "way", "id": 79882087, "nodes": [932496870, 12425652652, 12425652648, 12425652653, 12425652650, 12425652649, 12425652651, 932496871, 932496872, 932496873, 932496870], "tags": {"addr:housenumber": "7", "addr:postcode": "0167", "addr:street": "\u10e5\u10d4\u10e0\u10e9\u10d8\u10e1 \u10e5\u10e3\u10e9\u10d0", "amenity": "restaurant", "building": "yes", "contact:mobile": "+995 579 22 98 38", "name": "\u10e5\u10d0\u10e0\u10d7\u10da\u10d8", "name:en": "Kartli", "name:ka": "\u10e5\u10d0\u10e0\u10d7\u10da\u10d8"}}, {"type": "way", "id": 79882929, "nodes": [932513823, 10584128371, 10584128370, 932513825, 10584128369, 932513828, 932513830, 932513832, 932513834, 932513836, 10584128374, 10584128373, 10584128372, 932513823], "tags": {"leisure": "park"}}, {"type": "way", "id": 183589136, "nodes": [1939963400, 12876030645, 12876030644, 1939963411, 12876030642, 12876030643, 1939963409, 1939963387, 1939963391, 1939963364, 1939963355, 1939963346, 1939963336, 1939963333, 1939963339, 1939963341, 1939963349, 1939963352, 1939963398, 1939963382, 1939963400], "tags": {"addr:street": "\u10d6\u10e6\u10d5\u10d8\u10e1 \u10e3\u10d1\u10d0\u10dc\u10d8 3 \u10db\u10e0/5\u10d9\u10d5.", "amenity": "restaurant", "building": "yes", "building:levels": "3", "check_date": "2023-09-21", "cuisine": "regional", "name": "Prime", "name:ka": "\u10de\u10e0\u10d0\u10d8\u10db\u10d8", "smoking": "yes"}}, {"type": "way", "id": 187777189, "nodes": [1984132868, 1984132957, 1984132898, 9831532409, 9831532385, 1984132921, 11557840676, 9831532404, 9784501785, 1984132930, 1984132906, 9784501783, 9831532408, 11557840679, 9831532407, 11557840688, 9831532406, 11172468276, 11557840687, 9831532399, 9831532398, 1984132904, 11557840684, 9831532401, 9831532400, 1984132945, 11557840691, 9831532402, 1984132902, 1984132944, 1984132875, 1984132868], "tags": {"addr:city": "\u10d7\u10d1\u10d8\u10da\u10d8\u10e1\u10d8", "addr:housenumber": "1", "addr:street": "\u10dd\u10db\u10d0\u10e0 \u10ee\u10d8\u10d6\u10d0\u10dc\u10d8\u10e8\u10d5\u10d8\u10da\u10d8\u10e1 \u10e5\u10e3\u10e9\u10d0", "amenity": "marketplace", "building": "roof", "layer": "1", "operator": "\u10e8\u10de\u10e1 \u10db\u10e3\u10ee\u10d8\u10d0\u10dc\u10d8"}}, {"type": "way", "id": 229417824, "nodes": [2380199914, 9828045211, 2380199917, 2380199919, 2380199922, 2380199927, 2380199929, 2380199932, 2380205207, 12751798013, 12751798019, 12751798020, 12751798017, 12751798016, 12751798012, 12751798011, 12751798009, 2380199941, 2380199943, 2380199945, 2380199947, 2380199949, 2380199951, 2380199953, 2380199914], "tags": {"leisure": "park"}}, {"type": "way", "id": 229524482, "nodes": [12751798032, 12751798025, 12751798033, 12751798035, 12751798040, 12751798030, 12751798029, 12751798031, 12751798034, 12751798026, 2381101175, 12751798039, 12751798028, 12751798037, 12751798038, 12751798036, 2381101178, 2381101179, 2381101180, 2381101182, 2381101184, 2381101186, 2381101188, 12751798027, 2381101190, 2381133975, 2381133976, 12751798032], "tags": {"leisure": "park"}}, {"type": "way", "id": 575065925, "nodes": [5518770723, 5518770724, 5518770725, 5518770726, 5518770727, 5518770728, 5518770729, 5518770730, 5518770723], "tags": {"leisure": "park"}}, {"type": "way", "id": 583582560, "nodes": [5579266375, 5579266376, 5579266377, 12425651050, 12425651051, 5579266378, 5579266375], "tags": {"leisure": "park", "natural": "wood"}}, {"type": "way", "id": 583582561, "nodes": [5579266379, 5579266380, 5579266381, 5579266382, 5579266379], "tags": {"leaf_type": "broadleaved", "leisure": "park", "natural": "wood"}}, {"type": "way", "id": 583583328, "nodes": [9859817984, 5615082958, 12434226863, 12434226862, 9859817984], "tags": {"leisure": "park"}}, {"type": "way", "id": 583730376, "nodes": [5580564685, 5580564686, 5580564687, 5580564688, 5580564689, 5580564690, 5580564685], "tags": {"leisure": "park"}}, {"type": "way", "id": 583734802, "nodes": [5580626715, 10584155214, 10584155215, 5580626714, 5580626713, 5580626712, 5580626715], "tags": {"leisure": "park"}}, {"type": "way", "id": 583735176, "nodes": [5580630531, 5580630534, 5580630535, 5580630536, 5580630531], "tags": {"leisure": "park"}}, {"type": "way", "id": 585502994, "nodes": [5595139593, 5595139592, 5595139591, 5595139590, 5595139589, 10951311693, 10951311692, 10951327226, 10951311691, 10951327304, 10951327227, 10951327314, 10951327229, 10951327228, 10951327313, 10951327236, 10951311690, 10951327237, 10951327235, 10951327393, 10951311685, 10951327234, 10951311686, 10951311687, 10951311688, 10951311689, 10951327413, 10951327434, 10951327412, 10951327230, 10951327435, 10951327231, 10951327232, 10951327436, 10951327233, 10951327437, 10951327438, 10951327439, 10951327440, 10951327441, 10951327442, 10951327443, 10951327444, 10951328829, 10951328828, 10951328827, 10951328826, 10951328825, 10951328824, 10951328823, 9820955284, 12310625920, 12310625921, 12310625922, 12310625928, 6276186730, 12310625926, 12310625925, 12310625924, 12310625923, 12871941687, 6276186732, 12871941688, 9823185981, 12310625929, 12310625930, 6276186733, 6276186734, 12310625942, 12310625941, 12310625940, 12310625939, 12310625936, 12310625938, 12310625937, 721546260, 12310627021, 12310625935, 12310627016, 12310625934, 12310625933, 12310626915, 9823185978, 12310625932, 2384755536, 12310625943, 12310626916, 12310626917, 12310625944, 12310626918, 12310626898, 12310626899, 12310626919, 12310625945, 12310625946, 12310625947, 12310625948, 12310625949, 12310625950, 12310625951, 2384755541, 12310625952, 12310625953, 9830695764, 9830695761, 9830695763, 9830695768, 6723328883, 9830695765, 9830695767, 9830695766, 6723328880, 5595139586, 5595139585, 6723328884, 5595139584, 5595139583, 5595139582, 5595139593], "tags": {"leisure": "park", "name": "\u10d6\u10e6\u10d5\u10d8\u10e1\u10e3\u10d1\u10dc\u10d8\u10e1 \u10de\u10d0\u10e0\u10d9\u10d8", "name:be": "\u041f\u0430\u0440\u043a \u0417\u0433\u0432\u0456\u0441 \u0423\u0431\u0430\u043d\u0456", "name:de": "Zgvisubani Seetadtpark", "name:en": "Zgvis Ubani Park", "name:ru": "\u041f\u0430\u0440\u043a \u0417\u0433\u0432\u0438\u0441-\u0423\u0431\u0430\u043d\u0438"}}, {"type": "way", "id": 587865615, "nodes": [5615095576, 12507850823, 12507850831, 12507850830, 9821991038, 12507850827, 12507850829, 12507850828, 12507850825, 12507850824, 12507850826, 12507850822, 5615095572, 5615095571, 9821990999, 5615095576], "tags": {"leisure": "park", "surface": "grass"}}, {"type": "way", "id": 707446533, "nodes": [7124859139, 7124859140, 13126373689, 13126373688, 6648070690, 7124859137, 7124859139], "tags": {"access": "yes", "alt_name": "\u10e5\u10d0\u10e0\u10d7\u10da\u10d8\u10e1 \u10ea\u10ee\u10dd\u10d5\u10e0\u10d4\u10d1\u10d0", "alt_name:en": "History Memorial of Georgia", "alt_name:it": "Memoriale della storia della Georgia", "alt_name:ka": "\u10e5\u10d0\u10e0\u10d7\u10da\u10d8\u10e1 \u10ea\u10ee\u10dd\u10d5\u10e0\u10d4\u10d1\u10d0", "alt_name:ru": "\u041b\u0435\u0442\u043e\u043f\u0438\u0441\u044c \u0413\u0440\u0443\u0437\u0438\u0438;\u0418\u0441\u0442\u043e\u0440\u0438\u044f \u0413\u0440\u0443\u0437\u0438\u0438", "architect": "Zurab Tsereteli", "artwork_type": "architecture", "description:en": "The site consists of three rows of 35-m columns, on which Georgian kings and poets are depicted in the form of bas-reliefs.", "description:ru": "\u041a\u043e\u043c\u043f\u043e\u0437\u0438\u0446\u0438\u044f \u0441\u043e\u0441\u0442\u043e\u0438\u0442 \u0438\u0437 \u0442\u0440\u0451\u0445 \u0440\u044f\u0434\u043e\u0432 35-\u043c\u0435\u0442\u0440\u043e\u0432\u044b\u0445 \u043a\u043e\u043b\u043e\u043d\u043d, \u043d\u0430 \u043a\u043e\u0442\u043e\u0440\u044b\u0445 \u0432 \u0432\u0438\u0434\u0435 \u0431\u0430\u0440\u0435\u043b\u044c\u0435\u0444\u043e\u0432 \u0438\u0437\u043e\u0431\u0440\u0430\u0436\u0435\u043d\u044b \u0433\u0440\u0443\u0437\u0438\u043d\u0441\u043a\u0438\u0435 \u0446\u0430\u0440\u0438 \u0438 \u043f\u043e\u044d\u0442\u044b.", "height": "35", "historic": "monument", "name": "\u10e1\u10d0\u10e5\u10d0\u10e0\u10d7\u10d5\u10d4\u10da\u10dd\u10e1 \u10db\u10d0\u10e2\u10d8\u10d0\u10dc\u10d4", "name:be": "\u041b\u0435\u0442\u0430\u043f\u0456\u0441 \u0413\u0440\u0443\u0437\u0456\u0456", "name:en": "Chronicle of Georgia", "name:it": "Cronaca della Georgia", "name:ka": "\u10e1\u10d0\u10e5\u10d0\u10e0\u10d7\u10d5\u10d4\u10da\u10dd\u10e1 \u10db\u10d0\u10e2\u10d8\u10d0\u10dc\u10d4", "name:ru": "\u041b\u0435\u0442\u043e\u043f\u0438\u0441\u044c \u0413\u0440\u0443\u0437\u0438\u0438", "start_date": "1985", "wikidata": "Q65043165", "wikimedia_commons": "Category:The Chronicle of Georgia", "wikipedia": "ka:\u10e1\u10d0\u10e5\u10d0\u10e0\u10d7\u10d5\u10d4\u10da\u10dd\u10e1 \u10db\u10d0\u10e2\u10d8\u10d0\u10dc\u10d4"}}, {"type": "way", "id": 971758772, "nodes": [12751798052, 8994072455, 8994072454, 12751798057, 12751798054, 12751798055, 12751798051, 12751798056, 8994072457, 8994072458, 8994072459, 8994072382, 12751798053, 12751798058, 12751798052], "tags": {"leisure": "park"}}, {"type": "way", "id": 971758773, "nodes": [8994072460, 9793509319, 1401086251, 11638362132, 8994072462, 11638362140, 8994072390, 11638362137, 1401086247, 8994072391, 11638362138, 8994072460], "tags": {"leisure": "park"}}, {"type": "way", "id": 1053557684, "nodes": [9819236980, 9819236984, 9819236985, 9819236986, 9819236987, 9837669460, 9682100917, 9819236988, 9819236989, 9682100918, 9819307468, 9819236981, 9819236982, 9819236983, 9819236980], "tags": {"addr:city": "\u10d7\u10d1\u10d8\u10da\u10d8\u10e1\u10d8", "addr:street": "\u10d0\u10da\u10d4\u10d9\u10dd \u10d2\u10dd\u10d1\u10e0\u10dd\u10dc\u10d8\u10eb\u10d8\u10e1 \u10e5\u10e3\u10e9\u10d0", "amenity": "restaurant", "building": "yes", "building:levels": "2", "check_date": "2023-09-21", "name": "\u10d3\u10d8\u10dc\u10d4\u10dd", "name:ka": "\u10d3\u10d8\u10dc\u10d4\u10dd", "roof:shape": "flat"}}, {"type": "way", "id": 1054141978, "nodes": [9687410101, 9687410102, 9687410103, 9687410104, 9819236978, 9687410105, 9687410106, 9687410100, 9687410107, 9687410108, 9687410109, 9828287991, 9828287990, 9687410101], "tags": {"addr:city": "\u10d7\u10d1\u10d8\u10da\u10d8\u10e1\u10d8", "addr:street": "\u10d0\u10da\u10d4\u10d9\u10dd \u10d2\u10dd\u10d1\u10e0\u10dd\u10dc\u10d8\u10eb\u10d8\u10e1 \u10e5\u10e3\u10e9\u10d0", "amenity": "restaurant", "building": "yes", "building:levels": "2", "check_date": "2023-09-21", "contact:facebook": "https://www.facebook.com/hallrumi", "contact:mobile": "+995 557 17 14 17", "name": "\u10e0\u10e3\u10db\u10d8 \u10f0\u10dd\u10da\u10d8", "name:en": "Rumi Hall", "name:ka": "\u10e0\u10e3\u10db\u10d8 \u10f0\u10dd\u10da\u10d8", "opening_hours": "Mo-Fr 09:00-17:00"}}, {"type": "way", "id": 1063979377, "nodes": [9772264609, 9772264610, 9772328825, 9772328824, 9826211660, 9826211659, 9826211658, 9826211657, 9772264611, 9772264612, 9772328823, 9772328822, 9772264609], "tags": {"addr:housenumber": "12", "building": "commercial", "tourism": "hotel"}}, {"type": "way", "id": 1066661614, "nodes": [9794592912, 9794592913, 9794592914, 9794592915, 9794592916, 9794601117, 9794592912], "tags": {"leisure": "park"}}, {"type": "way", "id": 1066980486, "nodes": [9797138894, 9797138895, 9797138896, 9797138897, 9797138894], "tags": {"amenity": "cafe", "building": "yes"}}, {"type": "way", "id": 1068975822, "nodes": [9812350986, 9812350990, 9812350995, 794039672, 794039673, 9812350981, 9812350980, 9812350985, 9812350986], "tags": {"leisure": "park"}}, {"type": "way", "id": 1068984607, "nodes": [9812407321, 9812348500, 12751798600, 12751798596, 12751798595, 12751798607, 12751798588, 12751798598, 12751798591, 12751798599, 12751798606, 12751798590, 12751798594, 12751798597, 12751798592, 12751798589, 12751798605, 12751798593, 12751798602, 9812394555, 9812407326, 9812407330, 9812407325, 9812407329, 9812407324, 9812407328, 9812407323, 9812407322, 9812407321], "tags": {"leisure": "park"}}, {"type": "way", "id": 1070032831, "nodes": [9820778608, 9820778609, 9820778610, 9820778611, 9820778612, 9820778613, 9820778614, 9820778615, 9820778616, 9820778608], "tags": {"amenity": "restaurant", "building": "retail", "building:levels": "1", "name": "\u10e1\u10de\u10d0\u10dc\u10d3\u10d4\u10e0\u10d0"}}, {"type": "way", "id": 1070973613, "nodes": [9828050962, 9828050963, 9828050964, 9828050965, 9828050962], "tags": {"leisure": "park"}}, {"type": "way", "id": 1071191486, "nodes": [9830384788, 9830384789, 9830384790, 9830384791, 9830384792, 9830384793, 9830384794, 9830384795, 9830384796, 9830384797, 9830384798, 9830384799, 9830384800, 9830384801, 9830384802, 9830384803, 9830384804, 9830384805, 9830384806, 9830384807, 9830384808, 9830384809, 9830384810, 9830384811, 9830384812, 9830384813, 9830384814, 9830384788], "tags": {"addr:city": "\u10d7\u10d1\u10d8\u10da\u10d8\u10e1\u10d8", "addr:housenumber": "47", "addr:street": "\u10d7\u10d4\u10dc\u10d2\u10d8\u10d6 \u10e8\u10d4\u10e8\u10d4\u10da\u10d8\u10eb\u10d8\u10e1 \u10e5\u10e3\u10e9\u10d0", "building": "hotel", "building:levels": "4", "name": "\u10de\u10d8\u10d6\u10d0", "name:en": "Piza", "tourism": "hotel", "website:booking": "https://www.booking.com/hotel/ge/piza.en-gb.html"}}, {"type": "way", "id": 1072967206, "nodes": [9843568301, 9843568303, 9840733474, 9843568306, 9843568304, 9843568309, 9843568308, 9843568305, 9741285197, 9843568301], "tags": {"amenity": "restaurant", "building": "yes", "check_date": "2022-06-23", "cuisine": "georgian", "level": "-1", "name": "\u10d3\u10e3\u10e5\u10d0\u10dc\u10d8 \"\u10d4\u10da\u10d0\u10db\u10d8 \u10db\u10d8\u10d9\u10d8\u10e2\u10d0\u10dc\u10d8\"", "name:ka": "\u10d3\u10e3\u10e5\u10d0\u10dc\u10d8 \"\u10d4\u10da\u10d0\u10db\u10d8 \u10db\u10d8\u10d9\u10d8\u10e2\u10d0\u10dc\u10d8\"", "outdoor_seating": "yes", "wheelchair": "no"}}, {"type": "way", "id": 1072967207, "nodes": [9843568309, 9843568310, 9741285195, 9843568300, 9843568302, 9843568309], "tags": {"amenity": "restaurant", "building": "yes", "cuisine": "georgian", "name": "\u10d3\u10e3\u10e5\u10d0\u10dc\u10d8 \"\u10d4\u10da\u10d0\u10db\u10d8 \u10db\u10d8\u10d9\u10d8\u10e2\u10d0\u10dc\u10d8\""}}, {"type": "way", "id": 1073350046, "nodes": [9846478359, 9846478360, 9846478361, 9846478362, 9846478363, 9846478364, 9846478365, 9846478359], "tags": {"amenity": "marketplace", "building": "yes"}}, {"type": "way", "id": 1073350047, "nodes": [9846478366, 12434274210, 9846478367, 9846478368, 12434274209, 12434274207, 12434274206, 12434274205, 12434274208, 9846478369, 9846478366], "tags": {"amenity": "marketplace", "building": "yes"}}, {"type": "way", "id": 1073350063, "nodes": [877265589, 9846488646, 9846488647, 9846488648, 9846488649, 9846478363, 9846478362, 9846478361, 12346523275, 12434274218, 932475281, 9846488641, 9846488640, 9846488631, 9846488626, 9846488619, 932475273, 9846478415, 9846478413, 9846478412, 9846478410, 9846478411, 932475275, 9846478406, 9846478384, 9846478394, 932475266, 9846478395, 9846478390, 9846478386, 9846488651, 9846478380, 9846488685, 9846478377, 9846478378, 9846478379, 9846488689, 12434274211, 9846488652, 877265589], "tags": {"amenity": "marketplace"}}, {"type": "way", "id": 1073373823, "nodes": [9846630070, 9846630071, 9846630072, 9846630073, 9846630074, 9846630075, 9846630076, 9846630070], "tags": {"leisure": "park"}}, {"type": "way", "id": 1099737761, "nodes": [10067590076, 10067590077, 10067590078, 10067590079, 10067590076], "tags": {"leisure": "park"}}, {"type": "way", "id": 1135432407, "nodes": [10584138866, 10584138867, 10584138868, 10584138869, 10584138866], "tags": {"leisure": "park"}}, {"type": "way", "id": 1135432425, "nodes": [10584138943, 10584138944, 10584138945, 10584138946, 10584138943], "tags": {"leisure": "park"}}, {"type": "way", "id": 1135738395, "nodes": [10587068797, 10587068798, 10587068837, 10587068838, 10587068839, 10587068840, 10587068774, 10587068796, 10587068797], "tags": {"leisure": "park"}}, {"type": "way", "id": 1178727748, "nodes": [10951250617, 10951250618, 10951250619, 10951250620, 10951250617], "tags": {"leisure": "park"}}, {"type": "way", "id": 1178735842, "nodes": [12875607352, 12875607371, 12875607372, 12875607373, 12875607374, 12875607375, 12875607376, 12875607390, 10951326934, 10951326936, 10951326938, 10951326939, 10951326940, 12875610008, 12875607363, 10951326942, 12875607362, 12875607361, 12751798879, 12875607360, 12875607364, 12875607365, 12875607370, 12875607352], "tags": {"leisure": "park"}}, {"type": "way", "id": 1178735851, "nodes": [12751798884, 12751798920, 12875610129, 12751798912, 12875610130, 12875610131, 12875610132, 12751798882, 12751798883, 10951326983, 10951326982, 10951326981, 10951326980, 10951326979, 10951326978, 10951326977, 788269292, 12875610268, 12875610278, 788269290, 12875610441, 10951326976, 10951326975, 10951326974, 12875610440, 12875610439, 12751798884], "tags": {"leisure": "park"}}, {"type": "way", "id": 1178735876, "nodes": [10951327259, 10951327260, 10951327261, 10951327262, 10951327259], "tags": {"leisure": "park"}}, {"type": "way", "id": 1178735877, "nodes": [10951327250, 10951327263, 10951327264, 10951327265, 10951327266, 10951327248, 10951327249, 10951327250], "tags": {"leisure": "park"}}, {"type": "way", "id": 1241984452, "nodes": [11540434615, 12431870684, 12431870685, 12431870686, 12431870687, 12431870681, 12431870680, 12431870677, 12431870676, 11540434614, 12431870674, 12431870675, 12431870678, 12431870679, 11540434613, 11540434612, 12431870683, 12431870682, 11540434615], "tags": {"leisure": "park"}}, {"type": "way", "id": 1342131811, "nodes": [12416173942, 12416173941, 12416173947, 12416173948, 12416173942], "tags": {"leisure": "park"}}, {"type": "way", "id": 1343594171, "nodes": [12431859090, 12431859082, 12431859083, 12431859084, 12431859085, 12431859086, 12431859087, 12431859089, 12431859088, 12431859076, 12431859077, 12431859078, 12431859079, 12431859080, 12431859081, 12431859091, 12431859090], "tags": {"leisure": "park"}}, {"type": "way", "id": 1343856422, "nodes": [12434226661, 5579279096, 5595281386, 12434226660, 12434226658, 12434226657, 12434226659, 5595281385, 5595281384, 12434226661], "tags": {"leisure": "park"}}, {"type": "way", "id": 1344778950, "nodes": [12441433977, 12441433976, 12441433975, 12441433974, 12441433977], "tags": {"leisure": "park"}}, {"type": "way", "id": 1351917804, "nodes": [12507850654, 12507850653, 12507850652, 12507850651, 12507850654], "tags": {"leisure": "park"}}, {"type": "way", "id": 1351951222, "nodes": [12508178681, 12508178680, 12508178679, 12508178678, 12508178681], "tags": {"leisure": "park"}}, {"type": "way", "id": 1352716778, "nodes": [12516388092, 12516388091, 12516388090, 12516388089, 12516388088, 12516388087, 12516388086, 12516388085, 12516388084, 12516388083, 12516388082, 12516388081, 12516388080, 12516388079, 12516388078, 12516388077, 12516388076, 12516388075, 12516388074, 12516388073, 12516388092], "tags": {"leisure": "park"}}, {"type": "way", "id": 1353008091, "nodes": [12519068013, 5580626665, 5580626666, 5580626667, 5580626668, 5580626669, 5580626670, 12519068013], "tags": {"leisure": "park"}}, {"type": "node", "id": 788213838, "lat": 41.7753271, "lon": 44.8117424}, {"type": "node", "id": 788213843, "lat": 41.7752433, "lon": 44.8118656}, {"type": "node", "id": 788213846, "lat": 41.775201, "lon": 44.8118161}, {"type": "node", "id": 788213849, "lat": 41.7749341, "lon": 44.8119686}, {"type": "node", "id": 788213853, "lat": 41.7748874, "lon": 44.8118053}, {"type": "node", "id": 788213856, "lat": 41.7751492, "lon": 44.8116604}, {"type": "node", "id": 788213859, "lat": 41.7751646, "lon": 44.8116351}, {"type": "node", "id": 788213863, "lat": 41.775251, "lon": 44.8112707}, {"type": "node", "id": 788213865, "lat": 41.775373, "lon": 44.8113222}, {"type": "node", "id": 788213870, "lat": 41.7752878, "lon": 44.8116933}, {"type": "node", "id": 6648070690, "lat": 41.7707642, "lon": 44.8101311}, {"type": "node", "id": 7124859137, "lat": 41.7708423, "lon": 44.8107094}, {"type": "node", "id": 7124859139, "lat": 41.7704046, "lon": 44.8108198}, {"type": "node", "id": 7124859140, "lat": 41.7703296, "lon": 44.8102555}, {"type": "node", "id": 8994072454, "lat": 41.7755382, "lon": 44.8084026}, {"type": "node", "id": 8994072455, "lat": 41.7752428, "lon": 44.8083988}, {"type": "node", "id": 12751798052, "lat": 41.7752479, "lon": 44.8086376}, {"type": "node", "id": 12751798054, "lat": 41.7758302, "lon": 44.8079645}, {"type": "node", "id": 12751798055, "lat": 41.7758186, "lon": 44.8075115}, {"type": "node", "id": 12751798057, "lat": 41.7755919, "lon": 44.8079495}, {"type": "node", "id": 12872949831, "lat": 41.7751726, "lon": 44.8116415}, {"type": "node", "id": 12872949832, "lat": 41.775156, "lon": 44.8116684}, {"type": "node", "id": 12872949833, "lat": 41.7752592, "lon": 44.811273}, {"type": "node", "id": 12872949834, "lat": 41.7752668, "lon": 44.8112395}, {"type": "node", "id": 12872949835, "lat": 41.7753204, "lon": 44.8112622}, {"type": "node", "id": 12872949836, "lat": 41.7753127, "lon": 44.8112929}, {"type": "node", "id": 12872949837, "lat": 41.77489, "lon": 44.8118143}, {"type": "node", "id": 12872949838, "lat": 41.7749121, "lon": 44.8118914}, {"type": "node", "id": 12872949839, "lat": 41.7748598, "lon": 44.8118334}, {"type": "node", "id": 12872949840, "lat": 41.7748829, "lon": 44.8119079}, {"type": "node", "id": 13126373688, "lat": 41.7705677, "lon": 44.809954}, {"type": "node", "id": 13126373689, "lat": 41.7704693, "lon": 44.8099772}, {"type": "node", "id": 2384755541, "lat": 41.7752891, "lon": 44.8194887}, {"type": "node", "id": 6276186730, "lat": 41.7748376, "lon": 44.8172866}, {"type": "node", "id": 12310625920, "lat": 41.775763, "lon": 44.8166209}, {"type": "node", "id": 12310625921, "lat": 41.7754747, "lon": 44.8165527}, {"type": "node", "id": 12310625922, "lat": 41.7752051, "lon": 44.8166424}, {"type": "node", "id": 12310625923, "lat": 41.7744816, "lon": 44.8189355}, {"type": "node", "id": 12310625924, "lat": 41.7746312, "lon": 44.8187759}, {"type": "node", "id": 12310625925, "lat": 41.7749972, "lon": 44.8176856}, {"type": "node", "id": 12310625926, "lat": 41.7749657, "lon": 44.8174283}, {"type": "node", "id": 12310625928, "lat": 41.7750213, "lon": 44.8169645}, {"type": "node", "id": 12310625951, "lat": 41.7750613, "lon": 44.8197434}, {"type": "node", "id": 12310625952, "lat": 41.7757165, "lon": 44.8190485}, {"type": "node", "id": 12310625953, "lat": 41.7759181, "lon": 44.8188446}, {"type": "node", "id": 721546260, "lat": 41.7735759, "lon": 44.8230359}, {"type": "node", "id": 2384755536, "lat": 41.7738298, "lon": 44.8221807}, {"type": "node", "id": 5580564685, "lat": 41.7750505, "lon": 44.8227224}, {"type": "node", "id": 5580564686, "lat": 41.7752462, "lon": 44.8229546}, {"type": "node", "id": 5580564687, "lat": 41.774602, "lon": 44.8238602}, {"type": "node", "id": 5580564688, "lat": 41.7743526, "lon": 44.8235281}, {"type": "node", "id": 5580564689, "lat": 41.7745188, "lon": 44.8232518}, {"type": "node", "id": 5580564690, "lat": 41.7746314, "lon": 44.82334}, {"type": "node", "id": 5580626665, "lat": 41.7755816, "lon": 44.8228503}, {"type": "node", "id": 5580626666, "lat": 41.7752112, "lon": 44.8232103}, {"type": "node", "id": 5580626667, "lat": 41.7754804, "lon": 44.8235868}, {"type": "node", "id": 5580626668, "lat": 41.7753708, "lon": 44.8237065}, {"type": "node", "id": 5580626669, "lat": 41.7756196, "lon": 44.8241066}, {"type": "node", "id": 5580626670, "lat": 41.7759069, "lon": 44.8237005}, {"type": "node", "id": 6276186732, "lat": 41.7735178, "lon": 44.8207789}, {"type": "node", "id": 6276186733, "lat": 41.7724947, "lon": 44.8222681}, {"type": "node", "id": 6276186734, "lat": 41.7722584, "lon": 44.8220946}, {"type": "node", "id": 9823185978, "lat": 41.7734585, "lon": 44.8223233}, {"type": "node", "id": 9823185981, "lat": 41.7732599, "lon": 44.8212225}, {"type": "node", "id": 12310625929, "lat": 41.7731275, "lon": 44.8213084}, {"type": "node", "id": 12310625930, "lat": 41.7727421, "lon": 44.8216989}, {"type": "node", "id": 12310625932, "lat": 41.7736571, "lon": 44.8220325}, {"type": "node", "id": 12310625933, "lat": 41.773358, "lon": 44.8222915}, {"type": "node", "id": 12310625934, "lat": 41.7731966, "lon": 44.8225931}, {"type": "node", "id": 12310625935, "lat": 41.7734903, "lon": 44.8229543}, {"type": "node", "id": 12310625936, "lat": 41.7726664, "lon": 44.8229743}, {"type": "node", "id": 12310625937, "lat": 41.7734718, "lon": 44.8233921}, {"type": "node", "id": 12310625938, "lat": 41.7729047, "lon": 44.8231428}, {"type": "node", "id": 12310625939, "lat": 41.7724127, "lon": 44.8227337}, {"type": "node", "id": 12310625940, "lat": 41.7722925, "lon": 44.8226011}, {"type": "node", "id": 12310625941, "lat": 41.7718993, "lon": 44.8221789}, {"type": "node", "id": 12310625942, "lat": 41.7720581, "lon": 44.8218929}, {"type": "node", "id": 12310625943, "lat": 41.7738091, "lon": 44.821849}, {"type": "node", "id": 12310625944, "lat": 41.7738294, "lon": 44.821649}, {"type": "node", "id": 12310625945, "lat": 41.7740667, "lon": 44.8213046}, {"type": "node", "id": 12310625946, "lat": 41.7743668, "lon": 44.8213029}, {"type": "node", "id": 12310625947, "lat": 41.774518, "lon": 44.8210759}, {"type": "node", "id": 12310625948, "lat": 41.7747014, "lon": 44.8206843}, {"type": "node", "id": 12310625949, "lat": 41.7747355, "lon": 44.8204393}, {"type": "node", "id": 12310625950, "lat": 41.774822, "lon": 44.8202283}, {"type": "node", "id": 12310626898, "lat": 41.7739382, "lon": 44.8216418}, {"type": "node", "id": 12310626899, "lat": 41.773975, "lon": 44.8215802}, {"type": "node", "id": 12310626915, "lat": 41.773407, "lon": 44.8222876}, {"type": "node", "id": 12310626916, "lat": 41.7737906, "lon": 44.8217974}, {"type": "node", "id": 12310626917, "lat": 41.7737908, "lon": 44.8217332}, {"type": "node", "id": 12310626918, "lat": 41.7738929, "lon": 44.8216109}, {"type": "node", "id": 12310626919, "lat": 41.7739823, "lon": 44.8214626}, {"type": "node", "id": 12310627016, "lat": 41.773523, "lon": 44.8228994}, {"type": "node", "id": 12310627021, "lat": 41.7735536, "lon": 44.8230147}, {"type": "node", "id": 12871941687, "lat": 41.7738548, "lon": 44.8200863}, {"type": "node", "id": 12871941688, "lat": 41.7733862, "lon": 44.820867}, {"type": "node", "id": 12416173942, "lat": 41.7938664, "lon": 44.8002572}, {"type": "node", "id": 12416173948, "lat": 41.7953937, "lon": 44.7999662}, {"type": "node", "id": 932513823, "lat": 41.7771821, "lon": 44.8056497}, {"type": "node", "id": 932513825, "lat": 41.7777483, "lon": 44.8041258}, {"type": "node", "id": 932513828, "lat": 41.7783798, "lon": 44.8046929}, {"type": "node", "id": 932513830, "lat": 41.7784012, "lon": 44.804714}, {"type": "node", "id": 932513832, "lat": 41.7780596, "lon": 44.8050067}, {"type": "node", "id": 932513834, "lat": 41.7777751, "lon": 44.80535}, {"type": "node", "id": 932513836, "lat": 41.7775007, "lon": 44.8058}, {"type": "node", "id": 1401086251, "lat": 41.7762784, "lon": 44.8055364}, {"type": "node", "id": 5580626712, "lat": 41.7798082, "lon": 44.8034346}, {"type": "node", "id": 5580626713, "lat": 41.779398, "lon": 44.8042993}, {"type": "node", "id": 5580626714, "lat": 41.780333, "lon": 44.8040357}, {"type": "node", "id": 5580626715, "lat": 41.7803695, "lon": 44.8039426}, {"type": "node", "id": 8994072390, "lat": 41.7767068, "lon": 44.805951}, {"type": "node", "id": 8994072462, "lat": 41.7762803, "lon": 44.8059418}, {"type": "node", "id": 9793509319, "lat": 41.7773059, "lon": 44.8062142}, {"type": "node", "id": 10584128369, "lat": 41.7780413, "lon": 44.8043772}, {"type": "node", "id": 10584128370, "lat": 41.7773534, "lon": 44.8051279}, {"type": "node", "id": 10584128371, "lat": 41.777387, "lon": 44.805161}, {"type": "node", "id": 10584128372, "lat": 41.7773199, "lon": 44.8057589}, {"type": "node", "id": 10584128373, "lat": 41.7774143, "lon": 44.8058225}, {"type": "node", "id": 10584128374, "lat": 41.7774552, "lon": 44.8058295}, {"type": "node", "id": 10584138866, "lat": 41.7798703, "lon": 44.8026797}, {"type": "node", "id": 10584138867, "lat": 41.7796717, "lon": 44.8030719}, {"type": "node", "id": 10584138868, "lat": 41.7798658, "lon": 44.8032487}, {"type": "node", "id": 10584138869, "lat": 41.7800644, "lon": 44.8028565}, {"type": "node", "id": 10584138943, "lat": 41.7811892, "lon": 44.8005862}, {"type": "node", "id": 10584138944, "lat": 41.7810489, "lon": 44.8011065}, {"type": "node", "id": 10584138945, "lat": 41.7813253, "lon": 44.8012045}, {"type": "node", "id": 10584138946, "lat": 41.7814226, "lon": 44.8006726}, {"type": "node", "id": 10584155214, "lat": 41.7803709, "lon": 44.8039715}, {"type": "node", "id": 10584155215, "lat": 41.7803564, "lon": 44.8040128}, {"type": "node", "id": 10587068774, "lat": 41.7793958, "lon": 44.805166}, {"type": "node", "id": 10587068796, "lat": 41.7794739, "lon": 44.8050105}, {"type": "node", "id": 10587068797, "lat": 41.7795669, "lon": 44.8048254}, {"type": "node", "id": 10587068798, "lat": 41.7795549, "lon": 44.8046162}, {"type": "node", "id": 10587068837, "lat": 41.7801873, "lon": 44.8051881}, {"type": "node", "id": 10587068838, "lat": 41.7800724, "lon": 44.8054233}, {"type": "node", "id": 10587068839, "lat": 41.7797096, "lon": 44.8051064}, {"type": "node", "id": 10587068840, "lat": 41.7795943, "lon": 44.8053437}, {"type": "node", "id": 10951250617, "lat": 41.782034, "lon": 44.8051408}, {"type": "node", "id": 10951250618, "lat": 41.7817849, "lon": 44.805138}, {"type": "node", "id": 10951250619, "lat": 41.7817835, "lon": 44.8053534}, {"type": "node", "id": 10951250620, "lat": 41.7820327, "lon": 44.8053562}, {"type": "node", "id": 10951326934, "lat": 41.7782989, "lon": 44.8067555}, {"type": "node", "id": 10951326936, "lat": 41.7782558, "lon": 44.8069314}, {"type": "node", "id": 10951326938, "lat": 41.7782438, "lon": 44.8069626}, {"type": "node", "id": 10951326940, "lat": 41.7777132, "lon": 44.8069386}, {"type": "node", "id": 10951326942, "lat": 41.7774617, "lon": 44.8068804}, {"type": "node", "id": 11638362132, "lat": 41.7762825, "lon": 44.8055965}, {"type": "node", "id": 11638362137, "lat": 41.776703, "lon": 44.8064438}, {"type": "node", "id": 11638362140, "lat": 41.7764125, "lon": 44.8059433}, {"type": "node", "id": 12751798879, "lat": 41.777307, "lon": 44.8067949}, {"type": "node", "id": 12875607352, "lat": 41.7775029, "lon": 44.8062789}, {"type": "node", "id": 12875607360, "lat": 41.7773385, "lon": 44.8067109}, {"type": "node", "id": 12875607361, "lat": 41.7773659, "lon": 44.8068339}, {"type": "node", "id": 12875607362, "lat": 41.7773701, "lon": 44.8068236}, {"type": "node", "id": 12875607363, "lat": 41.7775702, "lon": 44.8069092}, {"type": "node", "id": 12875607364, "lat": 41.7773442, "lon": 44.8066948}, {"type": "node", "id": 12875607365, "lat": 41.7774263, "lon": 44.8064806}, {"type": "node", "id": 12875607370, "lat": 41.7774848, "lon": 44.8063265}, {"type": "node", "id": 12875607371, "lat": 41.7775338, "lon": 44.8062927}, {"type": "node", "id": 12875607372, "lat": 41.7775673, "lon": 44.8063118}, {"type": "node", "id": 12875607373, "lat": 41.7775699, "lon": 44.8063334}, {"type": "node", "id": 12875607374, "lat": 41.7776222, "lon": 44.8063667}, {"type": "node", "id": 12875607375, "lat": 41.7776364, "lon": 44.806355}, {"type": "node", "id": 12875607376, "lat": 41.7776576, "lon": 44.8063683}, {"type": "node", "id": 12875607390, "lat": 41.7776804, "lon": 44.8063814}, {"type": "node", "id": 12875610008, "lat": 41.7775946, "lon": 44.8069142}, {"type": "node", "id": 788269290, "lat": 41.7774443, "lon": 44.8085836}, {"type": "node", "id": 788269292, "lat": 41.7775555, "lon": 44.8081326}, {"type": "node", "id": 1401086247, "lat": 41.7767002, "lon": 44.8070419}, {"type": "node", "id": 2381101175, "lat": 41.7821499, "lon": 44.8112738}, {"type": "node", "id": 2381101178, "lat": 41.7812404, "lon": 44.8116634}, {"type": "node", "id": 2381101179, "lat": 41.7811935, "lon": 44.8115226}, {"type": "node", "id": 2381101180, "lat": 41.7812404, "lon": 44.8113847}, {"type": "node", "id": 2381101182, "lat": 41.7816918, "lon": 44.8107134}, {"type": "node", "id": 2381101184, "lat": 41.7819711, "lon": 44.8105246}, {"type": "node", "id": 2381101186, "lat": 41.7822884, "lon": 44.8102579}, {"type": "node", "id": 5595139582, "lat": 41.782465, "lon": 44.8085251}, {"type": "node", "id": 5595139583, "lat": 41.782345, "lon": 44.8090214}, {"type": "node", "id": 5595139584, "lat": 41.782229, "lon": 44.8093861}, {"type": "node", "id": 5595139585, "lat": 41.781201, "lon": 44.8111752}, {"type": "node", "id": 5595139589, "lat": 41.7804476, "lon": 44.8077758}, {"type": "node", "id": 5595139590, "lat": 41.7809901, "lon": 44.807926}, {"type": "node", "id": 5595139591, "lat": 41.7818101, "lon": 44.8080615}, {"type": "node", "id": 5595139592, "lat": 41.782265, "lon": 44.8081523}, {"type": "node", "id": 5595139593, "lat": 41.782441, "lon": 44.8082596}, {"type": "node", "id": 6723328884, "lat": 41.7817929, "lon": 44.8103723}, {"type": "node", "id": 8994072382, "lat": 41.7761621, "lon": 44.8089999}, {"type": "node", "id": 8994072391, "lat": 41.7767529, "lon": 44.8071801}, {"type": "node", "id": 8994072457, "lat": 41.7768123, "lon": 44.8076119}, {"type": "node", "id": 8994072458, "lat": 41.7766348, "lon": 44.8080115}, {"type": "node", "id": 8994072459, "lat": 41.7763957, "lon": 44.8086066}, {"type": "node", "id": 8994072460, "lat": 41.7769366, "lon": 44.8072739}, {"type": "node", "id": 10951311685, "lat": 41.7791907, "lon": 44.8110238}, {"type": "node", "id": 10951311686, "lat": 41.7790077, "lon": 44.8114816}, {"type": "node", "id": 10951311687, "lat": 41.7787922, "lon": 44.8118803}, {"type": "node", "id": 10951311688, "lat": 41.7786672, "lon": 44.8121158}, {"type": "node", "id": 10951311689, "lat": 41.778493, "lon": 44.8123311}, {"type": "node", "id": 10951311690, "lat": 41.7794133, "lon": 44.8104254}, {"type": "node", "id": 10951311691, "lat": 41.7801101, "lon": 44.8088457}, {"type": "node", "id": 10951311692, "lat": 41.7803556, "lon": 44.8083914}, {"type": "node", "id": 10951311693, "lat": 41.7804204, "lon": 44.8080987}, {"type": "node", "id": 10951326939, "lat": 41.7781686, "lon": 44.8070248}, {"type": "node", "id": 10951326974, "lat": 41.7770836, "lon": 44.8086931}, {"type": "node", "id": 10951326975, "lat": 41.7771439, "lon": 44.8086648}, {"type": "node", "id": 10951326976, "lat": 41.7773956, "lon": 44.8087729}, {"type": "node", "id": 10951326977, "lat": 41.7775885, "lon": 44.8080049}, {"type": "node", "id": 10951326978, "lat": 41.7776891, "lon": 44.8080507}, {"type": "node", "id": 10951326979, "lat": 41.7777056, "lon": 44.8079719}, {"type": "node", "id": 10951326980, "lat": 41.7777407, "lon": 44.8079191}, {"type": "node", "id": 10951326981, "lat": 41.7777164, "lon": 44.8078627}, {"type": "node", "id": 10951326982, "lat": 41.7775419, "lon": 44.8078156}, {"type": "node", "id": 10951326983, "lat": 41.7775575, "lon": 44.8075108}, {"type": "node", "id": 10951327226, "lat": 41.7802313, "lon": 44.8085684}, {"type": "node", "id": 10951327227, "lat": 41.7798317, "lon": 44.8088957}, {"type": "node", "id": 10951327228, "lat": 41.7795894, "lon": 44.8100523}, {"type": "node", "id": 10951327229, "lat": 41.7798468, "lon": 44.8094504}, {"type": "node", "id": 10951327230, "lat": 41.778314, "lon": 44.8125244}, {"type": "node", "id": 10951327231, "lat": 41.7783219, "lon": 44.8127852}, {"type": "node", "id": 10951327232, "lat": 41.7781201, "lon": 44.813123}, {"type": "node", "id": 10951327233, "lat": 41.7779635, "lon": 44.8135071}, {"type": "node", "id": 10951327234, "lat": 41.7790807, "lon": 44.8111876}, {"type": "node", "id": 10951327235, "lat": 41.7792396, "lon": 44.81074}, {"type": "node", "id": 10951327236, "lat": 41.7794783, "lon": 44.8103177}, {"type": "node", "id": 10951327237, "lat": 41.7792887, "lon": 44.8105791}, {"type": "node", "id": 10951327248, "lat": 41.7779402, "lon": 44.8111026}, {"type": "node", "id": 10951327249, "lat": 41.7779879, "lon": 44.8108359}, {"type": "node", "id": 10951327250, "lat": 41.7782111, "lon": 44.8109023}, {"type": "node", "id": 10951327259, "lat": 41.7773919, "lon": 44.8101887}, {"type": "node", "id": 10951327260, "lat": 41.7773119, "lon": 44.8105232}, {"type": "node", "id": 10951327261, "lat": 41.7774148, "lon": 44.8105702}, {"type": "node", "id": 10951327262, "lat": 41.7774999, "lon": 44.810239}, {"type": "node", "id": 10951327263, "lat": 41.7782, "lon": 44.8111435}, {"type": "node", "id": 10951327264, "lat": 41.7781951, "lon": 44.81118}, {"type": "node", "id": 10951327265, "lat": 41.77818, "lon": 44.8111965}, {"type": "node", "id": 10951327266, "lat": 41.7781493, "lon": 44.8111913}, {"type": "node", "id": 10951327304, "lat": 41.7801149, "lon": 44.8088847}, {"type": "node", "id": 10951327313, "lat": 41.7795187, "lon": 44.8102304}, {"type": "node", "id": 10951327314, "lat": 41.7797894, "lon": 44.8092314}, {"type": "node", "id": 10951327393, "lat": 41.7792031, "lon": 44.810952}, {"type": "node", "id": 10951327412, "lat": 41.7783145, "lon": 44.8124131}, {"type": "node", "id": 10951327413, "lat": 41.7784508, "lon": 44.812419}, {"type": "node", "id": 10951327434, "lat": 41.7783897, "lon": 44.8124412}, {"type": "node", "id": 10951327435, "lat": 41.7783344, "lon": 44.8126658}, {"type": "node", "id": 10951327436, "lat": 41.777984, "lon": 44.8133301}, {"type": "node", "id": 11638362138, "lat": 41.7768562, "lon": 44.8072378}, {"type": "node", "id": 12751798026, "lat": 41.782303, "lon": 44.8110531}, {"type": "node", "id": 12751798028, "lat": 41.7817941, "lon": 44.812238}, {"type": "node", "id": 12751798031, "lat": 41.7824641, "lon": 44.8108321}, {"type": "node", "id": 12751798034, "lat": 41.782434, "lon": 44.8108466}, {"type": "node", "id": 12751798036, "lat": 41.7813334, "lon": 44.8117399}, {"type": "node", "id": 12751798037, "lat": 41.7816964, "lon": 44.8120795}, {"type": "node", "id": 12751798038, "lat": 41.7814301, "lon": 44.8117924}, {"type": "node", "id": 12751798039, "lat": 41.7823074, "lon": 44.8114949}, {"type": "node", "id": 12751798051, "lat": 41.776526, "lon": 44.8075201}, {"type": "node", "id": 12751798053, "lat": 41.7761029, "lon": 44.8088378}, {"type": "node", "id": 12751798056, "lat": 41.7767494, "lon": 44.8075817}, {"type": "node", "id": 12751798058, "lat": 41.7759384, "lon": 44.8086606}, {"type": "node", "id": 12751798882, "lat": 41.7770132, "lon": 44.8075421}, {"type": "node", "id": 12751798883, "lat": 41.7770877, "lon": 44.8075315}, {"type": "node", "id": 12751798884, "lat": 41.7765728, "lon": 44.8085353}, {"type": "node", "id": 12751798912, "lat": 41.7768421, "lon": 44.8079629}, {"type": "node", "id": 12751798920, "lat": 41.7767128, "lon": 44.8082647}, {"type": "node", "id": 12875610129, "lat": 41.7767307, "lon": 44.8082241}, {"type": "node", "id": 12875610130, "lat": 41.776854, "lon": 44.8079335}, {"type": "node", "id": 12875610131, "lat": 41.7769588, "lon": 44.8076755}, {"type": "node", "id": 12875610132, "lat": 41.7769737, "lon": 44.8076393}, {"type": "node", "id": 12875610268, "lat": 41.7775276, "lon": 44.8082458}, {"type": "node", "id": 12875610278, "lat": 41.7774801, "lon": 44.8084383}, {"type": "node", "id": 12875610439, "lat": 41.776796, "lon": 44.8086279}, {"type": "node", "id": 12875610440, "lat": 41.776853, "lon": 44.8086071}, {"type": "node", "id": 12875610441, "lat": 41.7774098, "lon": 44.8087265}, {"type": "node", "id": 2381101188, "lat": 41.7825477, "lon": 44.8100931}, {"type": "node", "id": 2381101190, "lat": 41.7831376, "lon": 44.8100422}, {"type": "node", "id": 2381133975, "lat": 41.7834438, "lon": 44.8100362}, {"type": "node", "id": 2381133976, "lat": 41.7836605, "lon": 44.8100062}, {"type": "node", "id": 9830384788, "lat": 41.7887659, "lon": 44.8100777}, {"type": "node", "id": 9830384789, "lat": 41.7887324, "lon": 44.8100534}, {"type": "node", "id": 9830384790, "lat": 41.7887191, "lon": 44.8100864}, {"type": "node", "id": 9830384791, "lat": 41.7887125, "lon": 44.810061}, {"type": "node", "id": 9830384792, "lat": 41.7886979, "lon": 44.8100509}, {"type": "node", "id": 9830384793, "lat": 41.7886812, "lon": 44.8100497}, {"type": "node", "id": 9830384794, "lat": 41.788656, "lon": 44.8100781}, {"type": "node", "id": 9830384795, "lat": 41.7886543, "lon": 44.8100964}, {"type": "node", "id": 9830384796, "lat": 41.7886393, "lon": 44.8101059}, {"type": "node", "id": 9830384797, "lat": 41.7886283, "lon": 44.8101219}, {"type": "node", "id": 9830384798, "lat": 41.788623, "lon": 44.8101491}, {"type": "node", "id": 9830384799, "lat": 41.7886269, "lon": 44.8101692}, {"type": "node", "id": 9830384800, "lat": 41.788638, "lon": 44.8101875}, {"type": "node", "id": 9830384801, "lat": 41.7886648, "lon": 44.810194}, {"type": "node", "id": 9830384802, "lat": 41.7886741, "lon": 44.8101905}, {"type": "node", "id": 9830384803, "lat": 41.7886803, "lon": 44.8102041}, {"type": "node", "id": 9830384804, "lat": 41.7887041, "lon": 44.8102194}, {"type": "node", "id": 9830384805, "lat": 41.7887156, "lon": 44.8102177}, {"type": "node", "id": 9830384806, "lat": 41.7887239, "lon": 44.8102123}, {"type": "node", "id": 9830384807, "lat": 41.7887301, "lon": 44.8102017}, {"type": "node", "id": 9830384808, "lat": 41.7887354, "lon": 44.8101857}, {"type": "node", "id": 9830384809, "lat": 41.7887354, "lon": 44.8101568}, {"type": "node", "id": 9830384810, "lat": 41.7887534, "lon": 44.8101783}, {"type": "node", "id": 9830384811, "lat": 41.788775, "lon": 44.8101413}, {"type": "node", "id": 9830384812, "lat": 41.7887586, "lon": 44.810124}, {"type": "node", "id": 9830384813, "lat": 41.7887632, "lon": 44.8101126}, {"type": "node", "id": 9830384814, "lat": 41.7887544, "lon": 44.8101062}, {"type": "node", "id": 12508178678, "lat": 41.7856701, "lon": 44.8100071}, {"type": "node", "id": 12508178679, "lat": 41.7849676, "lon": 44.8109089}, {"type": "node", "id": 12508178680, "lat": 41.7852861, "lon": 44.8113495}, {"type": "node", "id": 12508178681, "lat": 41.7859371, "lon": 44.8105033}, {"type": "node", "id": 12751798025, "lat": 41.7839066, "lon": 44.8099534}, {"type": "node", "id": 12751798027, "lat": 41.7827211, "lon": 44.8100195}, {"type": "node", "id": 12751798029, "lat": 41.7829919, "lon": 44.8115155}, {"type": "node", "id": 12751798030, "lat": 41.7835728, "lon": 44.810551}, {"type": "node", "id": 12751798032, "lat": 41.7838855, "lon": 44.8098704}, {"type": "node", "id": 12751798033, "lat": 41.7839157, "lon": 44.8100265}, {"type": "node", "id": 12751798035, "lat": 41.7839006, "lon": 44.8100916}, {"type": "node", "id": 12751798040, "lat": 41.7836944, "lon": 44.810366}, {"type": "node", "id": 2380199914, "lat": 41.7815227, "lon": 44.8152305}, {"type": "node", "id": 2380199917, "lat": 41.7813659, "lon": 44.8152602}, {"type": "node", "id": 2380199919, "lat": 41.7812362, "lon": 44.8152677}, {"type": "node", "id": 2380199922, "lat": 41.7811504, "lon": 44.815186}, {"type": "node", "id": 2380199927, "lat": 41.7810065, "lon": 44.815412}, {"type": "node", "id": 2380199929, "lat": 41.78114, "lon": 44.8155453}, {"type": "node", "id": 2380199932, "lat": 41.7810422, "lon": 44.8156966}, {"type": "node", "id": 2380199941, "lat": 41.7796706, "lon": 44.8162014}, {"type": "node", "id": 2380199943, "lat": 41.7799378, "lon": 44.8155582}, {"type": "node", "id": 2380199945, "lat": 41.7801247, "lon": 44.8152033}, {"type": "node", "id": 2380199947, "lat": 41.780287, "lon": 44.8149087}, {"type": "node", "id": 2380199949, "lat": 41.7804943, "lon": 44.8145471}, {"type": "node", "id": 2380199951, "lat": 41.7805667, "lon": 44.8146207}, {"type": "node", "id": 2380199953, "lat": 41.7806965, "lon": 44.8143629}, {"type": "node", "id": 2380205207, "lat": 41.7809658, "lon": 44.8158323}, {"type": "node", "id": 5595139586, "lat": 41.7794489, "lon": 44.8139566}, {"type": "node", "id": 6723328880, "lat": 41.778562, "lon": 44.8158383}, {"type": "node", "id": 6723328883, "lat": 41.7773374, "lon": 44.8162881}, {"type": "node", "id": 9820955284, "lat": 41.7763624, "lon": 44.8154334}, {"type": "node", "id": 9828045211, "lat": 41.7814804, "lon": 44.8153107}, {"type": "node", "id": 9828050962, "lat": 41.779523, "lon": 44.815336}, {"type": "node", "id": 9828050963, "lat": 41.7791173, "lon": 44.8149764}, {"type": "node", "id": 9828050964, "lat": 41.7784911, "lon": 44.8162325}, {"type": "node", "id": 9828050965, "lat": 41.7791297, "lon": 44.8161497}, {"type": "node", "id": 9830695761, "lat": 41.7765253, "lon": 44.8177312}, {"type": "node", "id": 9830695763, "lat": 41.7767509, "lon": 44.8173101}, {"type": "node", "id": 9830695764, "lat": 41.7762708, "lon": 44.8183248}, {"type": "node", "id": 9830695765, "lat": 41.7775155, "lon": 44.8159184}, {"type": "node", "id": 9830695766, "lat": 41.7783724, "lon": 44.8161572}, {"type": "node", "id": 9830695767, "lat": 41.7779953, "lon": 44.8153889}, {"type": "node", "id": 9830695768, "lat": 41.777019, "lon": 44.8167453}, {"type": "node", "id": 10951327437, "lat": 41.7779614, "lon": 44.8136704}, {"type": "node", "id": 10951327438, "lat": 41.7779294, "lon": 44.8137883}, {"type": "node", "id": 10951327439, "lat": 41.7778605, "lon": 44.8139409}, {"type": "node", "id": 10951327440, "lat": 41.7778022, "lon": 44.8140151}, {"type": "node", "id": 10951327441, "lat": 41.7777342, "lon": 44.8141158}, {"type": "node", "id": 10951327442, "lat": 41.7776204, "lon": 44.8141989}, {"type": "node", "id": 10951327443, "lat": 41.7774353, "lon": 44.8143415}, {"type": "node", "id": 10951327444, "lat": 41.7773623, "lon": 44.8145699}, {"type": "node", "id": 10951328823, "lat": 41.7768332, "lon": 44.8151078}, {"type": "node", "id": 10951328824, "lat": 41.776958, "lon": 44.814985}, {"type": "node", "id": 10951328825, "lat": 41.7770451, "lon": 44.8148187}, {"type": "node", "id": 10951328826, "lat": 41.7770926, "lon": 44.814847}, {"type": "node", "id": 10951328827, "lat": 41.7771427, "lon": 44.8149284}, {"type": "node", "id": 10951328828, "lat": 41.7772958, "lon": 44.8147338}, {"type": "node", "id": 10951328829, "lat": 41.7773383, "lon": 44.8147473}, {"type": "node", "id": 12751798009, "lat": 41.7797422, "lon": 44.8162364}, {"type": "node", "id": 12751798011, "lat": 41.7799852, "lon": 44.816295}, {"type": "node", "id": 12751798012, "lat": 41.7803325, "lon": 44.8163788}, {"type": "node", "id": 12751798013, "lat": 41.7804575, "lon": 44.8167783}, {"type": "node", "id": 12751798016, "lat": 41.7802664, "lon": 44.8168758}, {"type": "node", "id": 12751798017, "lat": 41.7802311, "lon": 44.8171418}, {"type": "node", "id": 12751798019, "lat": 41.780404, "lon": 44.8168997}, {"type": "node", "id": 12751798020, "lat": 41.7803009, "lon": 44.8171568}, {"type": "node", "id": 794039672, "lat": 41.7802453, "lon": 44.825992}, {"type": "node", "id": 794039673, "lat": 41.7804279, "lon": 44.8261982}, {"type": "node", "id": 1939963333, "lat": 41.7771152, "lon": 44.8249187}, {"type": "node", "id": 1939963336, "lat": 41.7771488, "lon": 44.8250047}, {"type": "node", "id": 1939963339, "lat": 41.7771541, "lon": 44.8248784}, {"type": "node", "id": 1939963341, "lat": 41.77716, "lon": 44.824869}, {"type": "node", "id": 1939963346, "lat": 41.777217, "lon": 44.8251185}, {"type": "node", "id": 1939963349, "lat": 41.7771785, "lon": 44.8248484}, {"type": "node", "id": 1939963352, "lat": 41.7772226, "lon": 44.8249193}, {"type": "node", "id": 1939963355, "lat": 41.7772628, "lon": 44.8250722}, {"type": "node", "id": 1939963364, "lat": 41.7772736, "lon": 44.8250875}, {"type": "node", "id": 1939963382, "lat": 41.7772974, "lon": 44.824727}, {"type": "node", "id": 1939963387, "lat": 41.7773136, "lon": 44.825018}, {"type": "node", "id": 1939963391, "lat": 41.7773232, "lon": 44.8250346}, {"type": "node", "id": 1939963398, "lat": 41.7773393, "lon": 44.8247944}, {"type": "node", "id": 1939963400, "lat": 41.7773439, "lon": 44.8246739}, {"type": "node", "id": 1939963409, "lat": 41.7774211, "lon": 44.8248989}, {"type": "node", "id": 1939963411, "lat": 41.7774261, "lon": 44.8248078}, {"type": "node", "id": 9812348500, "lat": 41.7799986, "lon": 44.8236696}, {"type": "node", "id": 9812350980, "lat": 41.7804923, "lon": 44.8258858}, {"type": "node", "id": 9812350981, "lat": 41.7805682, "lon": 44.8259696}, {"type": "node", "id": 9812350985, "lat": 41.7804752, "lon": 44.8259008}, {"type": "node", "id": 9812350986, "lat": 41.7804312, "lon": 44.8258048}, {"type": "node", "id": 9812350990, "lat": 41.7803454, "lon": 44.8258797}, {"type": "node", "id": 9812350995, "lat": 41.7802583, "lon": 44.8259738}, {"type": "node", "id": 9812394555, "lat": 41.7796668, "lon": 44.8230684}, {"type": "node", "id": 9812407321, "lat": 41.779902, "lon": 44.8234596}, {"type": "node", "id": 9812407322, "lat": 41.7798354, "lon": 44.8233269}, {"type": "node", "id": 9812407323, "lat": 41.779843, "lon": 44.82328}, {"type": "node", "id": 9812407324, "lat": 41.7798326, "lon": 44.8231851}, {"type": "node", "id": 9812407325, "lat": 41.7797764, "lon": 44.8231093}, {"type": "node", "id": 9812407326, "lat": 41.7797113, "lon": 44.8230517}, {"type": "node", "id": 9812407328, "lat": 41.7798441, "lon": 44.8232381}, {"type": "node", "id": 9812407329, "lat": 41.7798067, "lon": 44.823137}, {"type": "node", "id": 9812407330, "lat": 41.7797325, "lon": 44.8230934}, {"type": "node", "id": 9820778608, "lat": 41.7765534, "lon": 44.8258945}, {"type": "node", "id": 9820778609, "lat": 41.7764518, "lon": 44.8258997}, {"type": "node", "id": 9820778610, "lat": 41.7764521, "lon": 44.8259121}, {"type": "node", "id": 9820778611, "lat": 41.7762044, "lon": 44.8259236}, {"type": "node", "id": 9820778612, "lat": 41.7762093, "lon": 44.8261131}, {"type": "node", "id": 9820778613, "lat": 41.7763892, "lon": 44.8261048}, {"type": "node", "id": 9820778614, "lat": 41.776413, "lon": 44.8261308}, {"type": "node", "id": 9820778615, "lat": 41.7764165, "lon": 44.8262519}, {"type": "node", "id": 9820778616, "lat": 41.7765634, "lon": 44.8262444}, {"type": "node", "id": 12519068013, "lat": 41.7760149, "lon": 44.8235329}, {"type": "node", "id": 12751798588, "lat": 41.778617, "lon": 44.8239511}, {"type": "node", "id": 12751798589, "lat": 41.7791868, "lon": 44.8234422}, {"type": "node", "id": 12751798590, "lat": 41.7785415, "lon": 44.823939}, {"type": "node", "id": 12751798591, "lat": 41.77855, "lon": 44.8239711}, {"type": "node", "id": 12751798592, "lat": 41.7790313, "lon": 44.823593}, {"type": "node", "id": 12751798593, "lat": 41.7793752, "lon": 44.8233106}, {"type": "node", "id": 12751798594, "lat": 41.7785556, "lon": 44.8239296}, {"type": "node", "id": 12751798595, "lat": 41.7793285, "lon": 44.8238155}, {"type": "node", "id": 12751798596, "lat": 41.7796345, "lon": 44.8237741}, {"type": "node", "id": 12751798597, "lat": 41.7788672, "lon": 44.8237229}, {"type": "node", "id": 12751798598, "lat": 41.7785685, "lon": 44.8239651}, {"type": "node", "id": 12751798599, "lat": 41.7785386, "lon": 44.8239628}, {"type": "node", "id": 12751798600, "lat": 41.7798467, "lon": 44.823746}, {"type": "node", "id": 12751798602, "lat": 41.7794816, "lon": 44.8232484}, {"type": "node", "id": 12751798605, "lat": 41.7792957, "lon": 44.8233344}, {"type": "node", "id": 12751798606, "lat": 41.778536, "lon": 44.8239503}, {"type": "node", "id": 12751798607, "lat": 41.7789158, "lon": 44.8238801}, {"type": "node", "id": 12876030642, "lat": 41.7774341, "lon": 44.8248384}, {"type": "node", "id": 12876030643, "lat": 41.7774309, "lon": 44.8248736}, {"type": "node", "id": 12876030644, "lat": 41.7774409, "lon": 44.8247928}, {"type": "node", "id": 12876030645, "lat": 41.777358, "lon": 44.8246583}, {"type": "node", "id": 9682100917, "lat": 41.787013, "lon": 44.8192411}, {"type": "node", "id": 9682100918, "lat": 41.7868478, "lon": 44.8190905}, {"type": "node", "id": 9687410100, "lat": 41.7866861, "lon": 44.8194563}, {"type": "node", "id": 9687410101, "lat": 41.7867858, "lon": 44.8191163}, {"type": "node", "id": 9687410102, "lat": 41.7869429, "lon": 44.8192867}, {"type": "node", "id": 9687410103, "lat": 41.7869177, "lon": 44.8193325}, {"type": "node", "id": 9687410104, "lat": 41.786932, "lon": 44.8193467}, {"type": "node", "id": 9687410105, "lat": 41.7868683, "lon": 44.8194956}, {"type": "node", "id": 9687410106, "lat": 41.7867904, "lon": 44.8195737}, {"type": "node", "id": 9687410107, "lat": 41.7866692, "lon": 44.8194374}, {"type": "node", "id": 9687410108, "lat": 41.7867285, "lon": 44.8193346}, {"type": "node", "id": 9687410109, "lat": 41.7866448, "lon": 44.8192352}, {"type": "node", "id": 9772264609, "lat": 41.7884542, "lon": 44.815616}, {"type": "node", "id": 9772264610, "lat": 41.7883852, "lon": 44.8156355}, {"type": "node", "id": 9772264611, "lat": 41.7883987, "lon": 44.8159357}, {"type": "node", "id": 9772264612, "lat": 41.7885189, "lon": 44.8159013}, {"type": "node", "id": 9772328822, "lat": 41.7884825, "lon": 44.8158031}, {"type": "node", "id": 9772328823, "lat": 41.7885023, "lon": 44.8157977}, {"type": "node", "id": 9772328824, "lat": 41.7883623, "lon": 44.8156937}, {"type": "node", "id": 9772328825, "lat": 41.7883931, "lon": 44.8156853}, {"type": "node", "id": 9819236978, "lat": 41.7868859, "lon": 44.8194545}, {"type": "node", "id": 9819236980, "lat": 41.7871087, "lon": 44.819074}, {"type": "node", "id": 9819236981, "lat": 41.7869633, "lon": 44.8188878}, {"type": "node", "id": 9819236982, "lat": 41.7870461, "lon": 44.8189727}, {"type": "node", "id": 9819236983, "lat": 41.7870327, "lon": 44.8189962}, {"type": "node", "id": 9819236984, "lat": 41.7870684, "lon": 44.8191446}, {"type": "node", "id": 9819236985, "lat": 41.7870793, "lon": 44.8191557}, {"type": "node", "id": 9819236986, "lat": 41.7870417, "lon": 44.8192217}, {"type": "node", "id": 9819236987, "lat": 41.7870306, "lon": 44.8192102}, {"type": "node", "id": 9819236988, "lat": 41.7869815, "lon": 44.8192089}, {"type": "node", "id": 9819236989, "lat": 41.7869748, "lon": 44.8192207}, {"type": "node", "id": 9819307468, "lat": 41.7868764, "lon": 44.8190402}, {"type": "node", "id": 9826211657, "lat": 41.7883963, "lon": 44.815921}, {"type": "node", "id": 9826211658, "lat": 41.7883553, "lon": 44.815915}, {"type": "node", "id": 9826211659, "lat": 41.7883626, "lon": 44.8158327}, {"type": "node", "id": 9826211660, "lat": 41.7883827, "lon": 44.8158285}, {"type": "node", "id": 9828287990, "lat": 41.7867329, "lon": 44.819204}, {"type": "node", "id": 9828287991, "lat": 41.7866953, "lon": 44.8191594}, {"type": "node", "id": 9837669460, "lat": 41.7870214, "lon": 44.8192264}, {"type": "node", "id": 5615095571, "lat": 41.7869269, "lon": 44.8207325}, {"type": "node", "id": 5615095572, "lat": 41.786713, "lon": 44.8210977}, {"type": "node", "id": 5615095576, "lat": 41.7876875, "lon": 44.8216613}, {"type": "node", "id": 9794592913, "lat": 41.7839645, "lon": 44.8261772}, {"type": "node", "id": 9794592914, "lat": 41.7837356, "lon": 44.8265553}, {"type": "node", "id": 9821990999, "lat": 41.7876738, "lon": 44.8215944}, {"type": "node", "id": 9821991038, "lat": 41.7871666, "lon": 44.8218891}, {"type": "node", "id": 12507850822, "lat": 41.7867426, "lon": 44.8212278}, {"type": "node", "id": 12507850823, "lat": 41.7874875, "lon": 44.8219543}, {"type": "node", "id": 12507850824, "lat": 41.7870983, "lon": 44.8215165}, {"type": "node", "id": 12507850825, "lat": 41.7870516, "lon": 44.8215884}, {"type": "node", "id": 12507850826, "lat": 41.7867889, "lon": 44.8211562}, {"type": "node", "id": 12507850827, "lat": 41.7871364, "lon": 44.8219418}, {"type": "node", "id": 12507850828, "lat": 41.7870972, "lon": 44.821644}, {"type": "node", "id": 12507850829, "lat": 41.7870026, "lon": 44.8217907}, {"type": "node", "id": 12507850830, "lat": 41.7872075, "lon": 44.8218785}, {"type": "node", "id": 12507850831, "lat": 41.787287, "lon": 44.8217484}, {"type": "node", "id": 12507850900, "lat": 41.787427, "lon": 44.8247201}, {"type": "node", "id": 12507850901, "lat": 41.7873696, "lon": 44.8256224}, {"type": "node", "id": 12507850902, "lat": 41.7869543, "lon": 44.8246659}, {"type": "node", "id": 12507850903, "lat": 41.7868969, "lon": 44.8255682}, {"type": "node", "id": 932496870, "lat": 41.7925901, "lon": 44.8068203}, {"type": "node", "id": 932496873, "lat": 41.7924399, "lon": 44.8066557}, {"type": "node", "id": 12416173941, "lat": 41.7939064, "lon": 44.8005825}, {"type": "node", "id": 12416173947, "lat": 41.7954562, "lon": 44.8005509}, {"type": "node", "id": 12425652648, "lat": 41.7925091, "lon": 44.806888}, {"type": "node", "id": 12425652652, "lat": 41.7925329, "lon": 44.8069141}, {"type": "node", "id": 12425652653, "lat": 41.7924667, "lon": 44.8069577}, {"type": "node", "id": 932496871, "lat": 41.7923085, "lon": 44.8072826}, {"type": "node", "id": 932496872, "lat": 41.7921583, "lon": 44.807118}, {"type": "node", "id": 9846630070, "lat": 41.7919203, "lon": 44.8117309}, {"type": "node", "id": 9846630071, "lat": 41.7914926, "lon": 44.8113417}, {"type": "node", "id": 9846630072, "lat": 41.7914344, "lon": 44.8118976}, {"type": "node", "id": 9846630073, "lat": 41.7914521, "lon": 44.8119579}, {"type": "node", "id": 9846630074, "lat": 41.7915032, "lon": 44.8119981}, {"type": "node", "id": 9846630075, "lat": 41.7915738, "lon": 44.8120029}, {"type": "node", "id": 9846630076, "lat": 41.7917471, "lon": 44.8118337}, {"type": "node", "id": 10067590076, "lat": 41.7923256, "lon": 44.8076756}, {"type": "node", "id": 10067590077, "lat": 41.7920352, "lon": 44.8073502}, {"type": "node", "id": 10067590078, "lat": 41.7919809, "lon": 44.8074293}, {"type": "node", "id": 10067590079, "lat": 41.7922587, "lon": 44.8077723}, {"type": "node", "id": 12425652649, "lat": 41.7924086, "lon": 44.8071887}, {"type": "node", "id": 12425652650, "lat": 41.7925163, "lon": 44.807012}, {"type": "node", "id": 12425652651, "lat": 41.7923828, "lon": 44.8071605}, {"type": "node", "id": 877265589, "lat": 41.7920992, "lon": 44.820012}, {"type": "node", "id": 932475257, "lat": 41.7907816, "lon": 44.8153352}, {"type": "node", "id": 932475258, "lat": 41.7908772, "lon": 44.8155458}, {"type": "node", "id": 932475259, "lat": 41.7908361, "lon": 44.8155738}, {"type": "node", "id": 932475260, "lat": 41.7908816, "lon": 44.8156738}, {"type": "node", "id": 932475261, "lat": 41.7906937, "lon": 44.8157648}, {"type": "node", "id": 932475262, "lat": 41.7906577, "lon": 44.8156913}, {"type": "node", "id": 932475263, "lat": 41.7907509, "lon": 44.8156123}, {"type": "node", "id": 932475264, "lat": 41.7905996, "lon": 44.8153338}, {"type": "node", "id": 932475266, "lat": 41.7920907, "lon": 44.8171182}, {"type": "node", "id": 932475267, "lat": 41.7916044, "lon": 44.8181799}, {"type": "node", "id": 932475268, "lat": 41.7914913, "lon": 44.8180346}, {"type": "node", "id": 932475269, "lat": 41.7914408, "lon": 44.8174624}, {"type": "node", "id": 932475273, "lat": 41.7914703, "lon": 44.8168992}, {"type": "node", "id": 932475275, "lat": 41.7917204, "lon": 44.8168335}, {"type": "node", "id": 932475281, "lat": 41.7912963, "lon": 44.8174852}, {"type": "node", "id": 1984132868, "lat": 41.7912307, "lon": 44.8148872}, {"type": "node", "id": 1984132875, "lat": 41.791375, "lon": 44.8149958}, {"type": "node", "id": 1984132898, "lat": 41.7911224, "lon": 44.8150961}, {"type": "node", "id": 1984132902, "lat": 41.7916597, "lon": 44.8152841}, {"type": "node", "id": 1984132904, "lat": 41.7921004, "lon": 44.8154531}, {"type": "node", "id": 1984132906, "lat": 41.7915752, "lon": 44.8159786}, {"type": "node", "id": 1984132921, "lat": 41.7913463, "lon": 44.8157119}, {"type": "node", "id": 1984132930, "lat": 41.7914857, "lon": 44.8158835}, {"type": "node", "id": 1984132944, "lat": 41.7916434, "lon": 44.8153051}, {"type": "node", "id": 1984132945, "lat": 41.7918839, "lon": 44.8153384}, {"type": "node", "id": 1984132957, "lat": 41.7911597, "lon": 44.8150568}, {"type": "node", "id": 9741285195, "lat": 41.7905945, "lon": 44.8171569}, {"type": "node", "id": 9741285197, "lat": 41.7906463, "lon": 44.8170184}, {"type": "node", "id": 9784501783, "lat": 41.7915947, "lon": 44.8160702}, {"type": "node", "id": 9784501785, "lat": 41.7914344, "lon": 44.8159364}, {"type": "node", "id": 9797138894, "lat": 41.7940788, "lon": 44.8164999}, {"type": "node", "id": 9797138895, "lat": 41.7940252, "lon": 44.8164542}, {"type": "node", "id": 9797138896, "lat": 41.7940679, "lon": 44.8163642}, {"type": "node", "id": 9797138897, "lat": 41.7941215, "lon": 44.8164099}, {"type": "node", "id": 9831532334, "lat": 41.7908722, "lon": 44.8156772}, {"type": "node", "id": 9831532335, "lat": 41.7908207, "lon": 44.8156959}, {"type": "node", "id": 9831532341, "lat": 41.7907612, "lon": 44.8153491}, {"type": "node", "id": 9831532342, "lat": 41.7907452, "lon": 44.8153071}, {"type": "node", "id": 9831532343, "lat": 41.790706, "lon": 44.8152846}, {"type": "node", "id": 9831532344, "lat": 41.7906333, "lon": 44.8154051}, {"type": "node", "id": 9831532345, "lat": 41.7906519, "lon": 44.8153917}, {"type": "node", "id": 9831532346, "lat": 41.7906877, "lon": 44.8152897}, {"type": "node", "id": 9831532347, "lat": 41.7906714, "lon": 44.8153101}, {"type": "node", "id": 9831532348, "lat": 41.7906645, "lon": 44.8153269}, {"type": "node", "id": 9831532349, "lat": 41.7906422, "lon": 44.8153148}, {"type": "node", "id": 9831532385, "lat": 41.7911981, "lon": 44.8153993}, {"type": "node", "id": 9831532398, "lat": 41.7919278, "lon": 44.8155808}, {"type": "node", "id": 9831532399, "lat": 41.7919228, "lon": 44.8155636}, {"type": "node", "id": 9831532400, "lat": 41.791973, "lon": 44.8153083}, {"type": "node", "id": 9831532401, "lat": 41.7921098, "lon": 44.8154313}, {"type": "node", "id": 9831532402, "lat": 41.7917273, "lon": 44.8153673}, {"type": "node", "id": 9831532404, "lat": 41.7913353, "lon": 44.8157519}, {"type": "node", "id": 9831532406, "lat": 41.7915688, "lon": 44.8156528}, {"type": "node", "id": 9831532407, "lat": 41.7916382, "lon": 44.816126}, {"type": "node", "id": 9831532408, "lat": 41.7916207, "lon": 44.816149}, {"type": "node", "id": 9831532409, "lat": 41.7912236, "lon": 44.8153417}, {"type": "node", "id": 9840733474, "lat": 41.7906026, "lon": 44.817005}, {"type": "node", "id": 9843568300, "lat": 41.7906099, "lon": 44.8171752}, {"type": "node", "id": 9843568301, "lat": 41.7906625, "lon": 44.8169854}, {"type": "node", "id": 9843568302, "lat": 41.7906521, "lon": 44.8171166}, {"type": "node", "id": 9843568303, "lat": 41.7906274, "lon": 44.8169544}, {"type": "node", "id": 9843568304, "lat": 41.7905584, "lon": 44.8170237}, {"type": "node", "id": 9843568305, "lat": 41.7906353, "lon": 44.8170407}, {"type": "node", "id": 9843568306, "lat": 41.7905782, "lon": 44.8169834}, {"type": "node", "id": 9843568308, "lat": 41.7906099, "lon": 44.8170182}, {"type": "node", "id": 9843568309, "lat": 41.7906001, "lon": 44.8170578}, {"type": "node", "id": 9843568310, "lat": 41.7905701, "lon": 44.8171402}, {"type": "node", "id": 9846478359, "lat": 41.7917404, "lon": 44.8184991}, {"type": "node", "id": 9846478360, "lat": 41.7915446, "lon": 44.8183442}, {"type": "node", "id": 9846478361, "lat": 41.7914618, "lon": 44.8185133}, {"type": "node", "id": 9846478362, "lat": 41.7914379, "lon": 44.8187558}, {"type": "node", "id": 9846478363, "lat": 41.7915385, "lon": 44.8188492}, {"type": "node", "id": 9846478364, "lat": 41.7916028, "lon": 44.8187073}, {"type": "node", "id": 9846478365, "lat": 41.7916355, "lon": 44.8187345}, {"type": "node", "id": 9846478366, "lat": 41.7924346, "lon": 44.8190421}, {"type": "node", "id": 9846478367, "lat": 41.7918142, "lon": 44.8184971}, {"type": "node", "id": 9846478368, "lat": 41.7917773, "lon": 44.8185766}, {"type": "node", "id": 9846478369, "lat": 41.7923966, "lon": 44.8191132}, {"type": "node", "id": 9846478377, "lat": 41.7918942, "lon": 44.8181606}, {"type": "node", "id": 9846478378, "lat": 41.7918022, "lon": 44.8183524}, {"type": "node", "id": 9846478379, "lat": 41.7923017, "lon": 44.818788}, {"type": "node", "id": 9846478380, "lat": 41.7922846, "lon": 44.8173832}, {"type": "node", "id": 9846478381, "lat": 41.7920918, "lon": 44.817209}, {"type": "node", "id": 9846478382, "lat": 41.7920583, "lon": 44.8171807}, {"type": "node", "id": 9846478383, "lat": 41.7913478, "lon": 44.8173687}, {"type": "node", "id": 9846478384, "lat": 41.7917739, "lon": 44.8168509}, {"type": "node", "id": 9846478386, "lat": 41.792256, "lon": 44.8172622}, {"type": "node", "id": 9846478390, "lat": 41.7921165, "lon": 44.8171441}, {"type": "node", "id": 9846478394, "lat": 41.7920402, "lon": 44.8170722}, {"type": "node", "id": 9846478395, "lat": 41.7921013, "lon": 44.817127}, {"type": "node", "id": 9846478406, "lat": 41.7917592, "lon": 44.8168593}, {"type": "node", "id": 9846478410, "lat": 41.7916085, "lon": 44.816731}, {"type": "node", "id": 9846478411, "lat": 41.7916268, "lon": 44.8168578}, {"type": "node", "id": 9846478412, "lat": 41.7915491, "lon": 44.816747}, {"type": "node", "id": 9846478413, "lat": 41.7915677, "lon": 44.8168725}, {"type": "node", "id": 9846478415, "lat": 41.7915103, "lon": 44.8168878}, {"type": "node", "id": 9846488619, "lat": 41.7914432, "lon": 44.8169644}, {"type": "node", "id": 9846488626, "lat": 41.7912921, "lon": 44.8172841}, {"type": "node", "id": 9846488631, "lat": 41.7912073, "lon": 44.8174415}, {"type": "node", "id": 9846488640, "lat": 41.7912098, "lon": 44.8174664}, {"type": "node", "id": 9846488641, "lat": 41.7912935, "lon": 44.8174476}, {"type": "node", "id": 9846488646, "lat": 41.7917507, "lon": 44.8198186}, {"type": "node", "id": 9846488647, "lat": 41.7916527, "lon": 44.8193568}, {"type": "node", "id": 9846488648, "lat": 41.7916905, "lon": 44.8190451}, {"type": "node", "id": 9846488649, "lat": 41.7917409, "lon": 44.8189438}, {"type": "node", "id": 9846488651, "lat": 41.79232, "lon": 44.8173164}, {"type": "node", "id": 9846488652, "lat": 41.7925831, "lon": 44.8190333}, {"type": "node", "id": 9846488685, "lat": 41.7922069, "lon": 44.8175379}, {"type": "node", "id": 9846488689, "lat": 41.7923289, "lon": 44.8188117}, {"type": "node", "id": 11172468276, "lat": 41.7916532, "lon": 44.8156375}, {"type": "node", "id": 11557840676, "lat": 41.7913406, "lon": 44.8157326}, {"type": "node", "id": 11557840679, "lat": 41.7916298, "lon": 44.8161371}, {"type": "node", "id": 11557840684, "lat": 41.7921047, "lon": 44.8154434}, {"type": "node", "id": 11557840687, "lat": 41.7918164, "lon": 44.8155928}, {"type": "node", "id": 11557840688, "lat": 41.791614, "lon": 44.8159607}, {"type": "node", "id": 11557840691, "lat": 41.7918016, "lon": 44.8154587}, {"type": "node", "id": 12346523275, "lat": 41.7914236, "lon": 44.8182552}, {"type": "node", "id": 12434241965, "lat": 41.7907073, "lon": 44.8157574}, {"type": "node", "id": 12434274205, "lat": 41.7923396, "lon": 44.8191359}, {"type": "node", "id": 12434274206, "lat": 41.792178, "lon": 44.8189647}, {"type": "node", "id": 12434274207, "lat": 41.7922082, "lon": 44.8189134}, {"type": "node", "id": 12434274208, "lat": 41.7923698, "lon": 44.8190847}, {"type": "node", "id": 12434274209, "lat": 41.7921676, "lon": 44.8188704}, {"type": "node", "id": 12434274210, "lat": 41.7921976, "lon": 44.8188034}, {"type": "node", "id": 12434274211, "lat": 41.7925646, "lon": 44.8190172}, {"type": "node", "id": 12434274218, "lat": 41.79135, "lon": 44.817891}, {"type": "node", "id": 5579279096, "lat": 41.7921007, "lon": 44.8210412}, {"type": "node", "id": 5595281384, "lat": 41.7922286, "lon": 44.8219389}, {"type": "node", "id": 5595281385, "lat": 41.7927053, "lon": 44.8209357}, {"type": "node", "id": 5595281386, "lat": 41.7921726, "lon": 44.8208231}, {"type": "node", "id": 5615082958, "lat": 41.7944747, "lon": 44.8219991}, {"type": "node", "id": 9859817984, "lat": 41.7946521, "lon": 44.8216282}, {"type": "node", "id": 12434226657, "lat": 41.7925717, "lon": 44.8210483}, {"type": "node", "id": 12434226658, "lat": 41.7925479, "lon": 44.8210281}, {"type": "node", "id": 12434226659, "lat": 41.7926482, "lon": 44.8208873}, {"type": "node", "id": 12434226660, "lat": 41.7925097, "lon": 44.8211086}, {"type": "node", "id": 12434226661, "lat": 41.7920678, "lon": 44.8217953}, {"type": "node", "id": 12434226862, "lat": 41.7950806, "lon": 44.8219968}, {"type": "node", "id": 12434226863, "lat": 41.7949033, "lon": 44.8223677}, {"type": "node", "id": 5579266375, "lat": 41.7980413, "lon": 44.8174114}, {"type": "node", "id": 5579266376, "lat": 41.7978222, "lon": 44.8178489}, {"type": "node", "id": 5579266377, "lat": 41.7971431, "lon": 44.8172369}, {"type": "node", "id": 5579266378, "lat": 41.7976538, "lon": 44.8170622}, {"type": "node", "id": 5579266379, "lat": 41.7987119, "lon": 44.8149201}, {"type": "node", "id": 5579266380, "lat": 41.7984674, "lon": 44.8154045}, {"type": "node", "id": 5579266381, "lat": 41.7979705, "lon": 44.8149533}, {"type": "node", "id": 5579266382, "lat": 41.7982149, "lon": 44.8144689}, {"type": "node", "id": 12425651050, "lat": 41.7973005, "lon": 44.8169226}, {"type": "node", "id": 12425651051, "lat": 41.7975921, "lon": 44.8171854}, {"type": "node", "id": 724226162, "lat": 41.7999873, "lon": 44.8222433}, {"type": "node", "id": 724226163, "lat": 41.7996796, "lon": 44.822713}, {"type": "node", "id": 724226164, "lat": 41.8003104, "lon": 44.8232408}, {"type": "node", "id": 724226165, "lat": 41.8005034, "lon": 44.8227927}, {"type": "node", "id": 1832475645, "lat": 41.8004231, "lon": 44.8226336}, {"type": "node", "id": 5518770727, "lat": 41.7973262, "lon": 44.8265128}, {"type": "node", "id": 5518770728, "lat": 41.7970379, "lon": 44.8262654}, {"type": "node", "id": 11540434612, "lat": 41.7980085, "lon": 44.8253355}, {"type": "node", "id": 11540434613, "lat": 41.7986084, "lon": 44.8240803}, {"type": "node", "id": 11540434614, "lat": 41.7985368, "lon": 44.8227211}, {"type": "node", "id": 11540434615, "lat": 41.7974328, "lon": 44.824956}, {"type": "node", "id": 12431859076, "lat": 41.7987614, "lon": 44.8231184}, {"type": "node", "id": 12431859077, "lat": 41.798779, "lon": 44.8231104}, {"type": "node", "id": 12431859078, "lat": 41.7987974, "lon": 44.8231134}, {"type": "node", "id": 12431859079, "lat": 41.7988131, "lon": 44.8231268}, {"type": "node", "id": 12431859080, "lat": 41.7988228, "lon": 44.823148}, {"type": "node", "id": 12431859081, "lat": 41.7988248, "lon": 44.8231727}, {"type": "node", "id": 12431859082, "lat": 41.7985114, "lon": 44.8238346}, {"type": "node", "id": 12431859083, "lat": 41.7984938, "lon": 44.8238426}, {"type": "node", "id": 12431859084, "lat": 41.7984754, "lon": 44.8238396}, {"type": "node", "id": 12431859085, "lat": 41.7984597, "lon": 44.8238262}, {"type": "node", "id": 12431859086, "lat": 41.79845, "lon": 44.823805}, {"type": "node", "id": 12431859087, "lat": 41.798448, "lon": 44.8237803}, {"type": "node", "id": 12431859088, "lat": 41.7987482, "lon": 44.8231359}, {"type": "node", "id": 12431859089, "lat": 41.7984543, "lon": 44.8237568}, {"type": "node", "id": 12431859090, "lat": 41.7985246, "lon": 44.8238171}, {"type": "node", "id": 12431859091, "lat": 41.7988185, "lon": 44.8231962}, {"type": "node", "id": 12431870674, "lat": 41.7987379, "lon": 44.822894}, {"type": "node", "id": 12431870675, "lat": 41.7986725, "lon": 44.8230311}, {"type": "node", "id": 12431870676, "lat": 41.7983705, "lon": 44.8230691}, {"type": "node", "id": 12431870677, "lat": 41.7985346, "lon": 44.8232102}, {"type": "node", "id": 12431870678, "lat": 41.7987247, "lon": 44.8230759}, {"type": "node", "id": 12431870679, "lat": 41.7983506, "lon": 44.8238586}, {"type": "node", "id": 12431870680, "lat": 41.7981053, "lon": 44.8241083}, {"type": "node", "id": 12431870681, "lat": 41.798194, "lon": 44.8241846}, {"type": "node", "id": 12431870682, "lat": 41.7977587, "lon": 44.8252363}, {"type": "node", "id": 12431870683, "lat": 41.7977979, "lon": 44.8251544}, {"type": "node", "id": 12431870684, "lat": 41.7975515, "lon": 44.8247075}, {"type": "node", "id": 12431870685, "lat": 41.7977888, "lon": 44.8249116}, {"type": "node", "id": 12431870686, "lat": 41.7979399, "lon": 44.8245956}, {"type": "node", "id": 12431870687, "lat": 41.7979808, "lon": 44.8246307}, {"type": "node", "id": 12434251302, "lat": 41.7999008, "lon": 44.822244}, {"type": "node", "id": 12516388073, "lat": 41.7821515, "lon": 44.8315519}, {"type": "node", "id": 12516388074, "lat": 41.7822095, "lon": 44.8315217}, {"type": "node", "id": 12516388075, "lat": 41.782205, "lon": 44.8314574}, {"type": "node", "id": 12516388076, "lat": 41.7822845, "lon": 44.8314144}, {"type": "node", "id": 12516388077, "lat": 41.782327, "lon": 44.8314949}, {"type": "node", "id": 12516388078, "lat": 41.7823763, "lon": 44.8314305}, {"type": "node", "id": 12516388079, "lat": 41.78247, "lon": 44.8314902}, {"type": "node", "id": 12516388080, "lat": 41.782313, "lon": 44.8319261}, {"type": "node", "id": 12516388081, "lat": 41.782267, "lon": 44.8319985}, {"type": "node", "id": 12516388082, "lat": 41.781936, "lon": 44.8321702}, {"type": "node", "id": 12516388083, "lat": 41.78186, "lon": 44.8322466}, {"type": "node", "id": 12516388084, "lat": 41.781668, "lon": 44.8327656}, {"type": "node", "id": 12516388085, "lat": 41.78157, "lon": 44.8329011}, {"type": "node", "id": 12516388086, "lat": 41.7812918, "lon": 44.8330495}, {"type": "node", "id": 12516388087, "lat": 41.781264, "lon": 44.8330191}, {"type": "node", "id": 12516388088, "lat": 41.781278, "lon": 44.8328179}, {"type": "node", "id": 12516388089, "lat": 41.781919, "lon": 44.8316565}, {"type": "node", "id": 12516388090, "lat": 41.781911, "lon": 44.831505}, {"type": "node", "id": 12516388091, "lat": 41.781982, "lon": 44.8313883}, {"type": "node", "id": 12516388092, "lat": 41.782096, "lon": 44.8313856}, {"type": "node", "id": 9794592912, "lat": 41.7845255, "lon": 44.8267429}, {"type": "node", "id": 9794592915, "lat": 41.783983, "lon": 44.8268349}, {"type": "node", "id": 9794592916, "lat": 41.7840605, "lon": 44.8266966}, {"type": "node", "id": 9794601117, "lat": 41.7843742, "lon": 44.8270128}, {"type": "node", "id": 12507850651, "lat": 41.7853807, "lon": 44.8269658}, {"type": "node", "id": 12507850652, "lat": 41.7852667, "lon": 44.8288005}, {"type": "node", "id": 12507850653, "lat": 41.7854181, "lon": 44.8288174}, {"type": "node", "id": 12507850654, "lat": 41.7855321, "lon": 44.8269828}, {"type": "node", "id": 5518770723, "lat": 41.7965451, "lon": 44.8274974}, {"type": "node", "id": 5518770724, "lat": 41.79672, "lon": 44.8276474}, {"type": "node", "id": 5518770725, "lat": 41.7967781, "lon": 44.8275255}, {"type": "node", "id": 5518770726, "lat": 41.7968244, "lon": 44.8275653}, {"type": "node", "id": 5518770729, "lat": 41.7965287, "lon": 44.8273334}, {"type": "node", "id": 5518770730, "lat": 41.7965958, "lon": 44.827391}, {"type": "node", "id": 5580630531, "lat": 41.7992627, "lon": 44.8301274}, {"type": "node", "id": 5580630534, "lat": 41.7990091, "lon": 44.8306588}, {"type": "node", "id": 5580630535, "lat": 41.7986792, "lon": 44.8303755}, {"type": "node", "id": 5580630536, "lat": 41.7989327, "lon": 44.8298441}, {"type": "node", "id": 12441433974, "lat": 41.79652, "lon": 44.8333078}, {"type": "node", "id": 12441433975, "lat": 41.7963928, "lon": 44.8335679}, {"type": "node", "id": 12441433976, "lat": 41.7965611, "lon": 44.8337161}, {"type": "node", "id": 12441433977, "lat": 41.7966884, "lon": 44.8334559}]}