{"version": 0.6, "generator": "Overpass API 0.7.62.8 e802775f", "osm3s": {"timestamp_osm_base": "2025-11-23T13:02:15Z", "copyright": "The data included in this document is from www.openstreetmap.org. The data is made available under ODbL."}, "elements": [{"type": "node", "id": 288010895, "lat": 41.6251642, "lon": 45.9257926, "tags": {"tourism": "viewpoint"}}, {"type": "node", "id": 288011379, "lat": 41.6211728, "lon": 45.9213124, "tags": {"layer": "1", "location": "roof", "tourism": "viewpoint"}}, {"type": "node", "id": 1023316459, "lat": 41.6182496, "lon": 45.9216498, "tags": {"name": "Old Signagi", "name:ka": "\u10eb\u10d5\u10d4\u10da\u10d8 \u10e1\u10d8\u10e6\u10dc\u10d0\u10e6\u10d8", "tourism": "hotel"}}, {"type": "node", "id": 1023317934, "lat": 41.6183159, "lon": 45.9216448, "tags": {"amenity": "restaurant", "check_date": "2025-11-19", "name": "Carpets", "name:ka": "\u10eb\u10d5\u10d4\u10da\u10d8 \u10e1\u10d8\u10e6\u10dc\u10d0\u10e6\u10d8"}}, {"type": "node", "id": 1023319011, "lat": 41.6185865, "lon": 45.9228301, "tags": {"name": "Pirosmani", "tourism": "hotel"}}, {"type": "node", "id": 1105874662, "lat": 41.6278596, "lon": 45.9203094, "tags": {"barrier": "entrance", "historic": "city_gate", "name": "Gate of the city wall", "name:de": "Tor der Stadtmauer", "name:fr": "Porte de l'enceinte de la ville", "tourism": "attraction"}}, {"type": "node", "id": 1180595797, "lat": 41.6192483, "lon": 45.9219496, "tags": {"addr:city": "\u10e1\u10d8\u10e6\u10dc\u10d0\u10e6\u10d8 (Sighnaghi)", "addr:housenumber": "2", "addr:postcode": "4200", "addr:street": "Sarajishvili", "name": "Nana's guest house", "tourism": "hotel"}}, {"type": "node", "id": 1180608007, "lat": 41.6227624, "lon": 45.9239328, "tags": {"barrier": "entrance", "historic": "city_gate", "name:de": "Tor der Stadtmauer", "name:en": "Gate of the city wall", "name:fr": "Porte de l'enceinte de la ville", "tourism": "attraction"}}, {"type": "node", "id": 1180655977, "lat": 41.6213397, "lon": 45.922243, "tags": {"barrier": "entrance", "historic": "city_gate", "name:de": "Tor der Stadtmauer", "name:en": "Gate of the city wall", "name:fr": "Porte de l'enceinte de la ville", "tourism": "attraction"}}, {"type": "node", "id": 1180658410, "lat": 41.6214814, "lon": 45.9229992, "tags": {"barrier": "entrance", "historic": "city_gate", "name:de": "Tor der Stadtmauer", "name:en": "Gate of the city wall", "name:fr": "Porte de l'enceinte de la ville", "tourism": "attraction"}}, {"type": "node", "id": 1182746310, "lat": 41.6163658, "lon": 45.9202237, "tags": {"source": "JumpStart International", "tourism": "hotel"}}, {"type": "node", "id": 1182747217, "lat": 41.6172758, "lon": 45.9223311, "tags": {"name": "Guest House Central", "tourism": "hotel"}}, {"type": "node", "id": 1182747483, "lat": 41.6175425, "lon": 45.9223311, "tags": {"amenity": "cafe", "source": "JumpStart International"}}, {"type": "node", "id": 1182747586, "lat": 41.6182714, "lon": 45.9216445, "tags": {"name": "\u10ee\u10d0\u10da\u10d8\u10e9\u10d4\u10d1\u10d8\u10e1 \u10e1\u10d0\u10e1\u10e2\u10e3\u10db\u10e0\u10dd (Khalchebi Hotel)", "name:en": "Khalchebi Hotel", "name:ka": "\u10ee\u10d0\u10da\u10d8\u10e9\u10d4\u10d1\u10d8\u10e1 \u10e1\u10d0\u10e1\u10e2\u10e3\u10db\u10e0\u10dd", "source": "JumpStart International", "tourism": "hotel"}}, {"type": "node", "id": 1182747715, "lat": 41.6198558, "lon": 45.9215347, "tags": {"amenity": "restaurant", "name": "\u10d9\u10d0\u10d5\u10d9\u10d0\u10e1\u10d8\u10e3\u10e0\u10d8 \u10e1\u10d0\u10ee\u10da\u10d8", "name:en": "Kavkasiuri Sakhli", "name:ka": "\u10d9\u10d0\u10d5\u10d9\u10d0\u10e1\u10d8\u10e3\u10e0\u10d8 \u10e1\u10d0\u10ee\u10da\u10d8", "name:ru": "\u041a\u0430\u0432\u043a\u0430\u0441\u0438\u0443\u0440\u0438 \u0421\u0430\u0445\u043b\u0438", "source": "JumpStart International"}}, {"type": "node", "id": 1182748123, "lat": 41.6192828, "lon": 45.9219797, "tags": {"amenity": "restaurant", "name": "\u10e1\u10d0\u10e0\u10d0\u10ef\u10d8\u10e8\u10d5\u10d8\u10da\u10d8 3 (Sarajishvili 3)", "name:en": "Sarajishvili 3", "name:ka": "\u10e1\u10d0\u10e0\u10d0\u10ef\u10d8\u10e8\u10d5\u10d8\u10da\u10d8 3", "source": "JumpStart International"}}, {"type": "node", "id": 1182748450, "lat": 41.6252186, "lon": 45.9256435, "tags": {"amenity": "restaurant", "cuisine": "georgian", "name": "\u10d2\u10d0\u10d3\u10d0\u10e1\u10d0\u10ee\u10d4\u10d3\u10d8 (Gadasakhedi)", "name:en": "Gadasakhedi", "name:ka": "\u10d2\u10d0\u10d3\u10d0\u10e1\u10d0\u10ee\u10d4\u10d3\u10d8", "source": "JumpStart International"}}, {"type": "node", "id": 1182748517, "lat": 41.6167532, "lon": 45.9207133, "tags": {"source": "JumpStart International", "tourism": "hotel"}}, {"type": "node", "id": 1182748650, "lat": 41.6192909, "lon": 45.9224009, "tags": {"name": "Hotel \"Solomoni 1805\"", "source": "JumpStart International", "tourism": "hotel"}}, {"type": "node", "id": 1182748914, "lat": 41.6163622, "lon": 45.9202199, "tags": {"amenity": "cafe", "source": "JumpStart International"}}, {"type": "node", "id": 1182750219, "lat": 41.6062538, "lon": 45.932288, "tags": {"amenity": "restaurant", "name": "\u10de\u10d8\u10da\u10d8\u10d2\u10e0\u10d8\u10db\u10d8 (Piligrimi)", "name:en": "Piligrimi", "name:ka": "\u10de\u10d8\u10da\u10d8\u10d2\u10e0\u10d8\u10db\u10d8", "name:ru": "\u041f\u0438\u043b\u0438\u0433\u0440\u0438\u043c", "source": "JumpStart International"}}, {"type": "node", "id": 1182750767, "lat": 41.6199057, "lon": 45.9214963, "tags": {"name": "Guest House Lali ( Caucasian House)", "name:en": "Kavkasiuri Sakhli", "name:ka": "\u10d9\u10d0\u10d5\u10d9\u10d0\u10e1\u10d8\u10e3\u10e0\u10d8 \u10e1\u10d0\u10ee\u10da\u10d8", "source": "JumpStart International", "tourism": "hotel"}}, {"type": "node", "id": 1182751514, "lat": 41.6211894, "lon": 45.9228059, "tags": {"source": "JumpStart International", "tourism": "guest_house"}}, {"type": "node", "id": 1182751603, "lat": 41.6192839, "lon": 45.9219723, "tags": {"name": "\u10e1\u10d0\u10e0\u10d0\u10ef\u10d8\u10e8\u10d5\u10d8\u10da\u10d8 3 (Sarajishvili 3)", "name:en": "Sarajishvili 3", "name:ka": "\u10e1\u10d0\u10e0\u10d0\u10ef\u10d8\u10e8\u10d5\u10d8\u10da\u10d8 3", "source": "JumpStart International", "tourism": "hotel"}}, {"type": "node", "id": 1182752314, "lat": 41.6213394, "lon": 45.9231911, "tags": {"addr:city": "\u10e1\u10d8\u10e6\u10dc\u10d0\u10e6\u10d8 (Sighnaghi)", "addr:housenumber": "13", "addr:postcode": "4200", "addr:street": "\u10d7\u10d0\u10db\u10d0\u10e0 \u10db\u10d4\u10e4\u10d8\u10e1 \u10e5\u10e3\u10e9\u10d0", "internet_access": "wlan", "internet_access:fee": "yes", "name": "Hotel Brigitte", "rooms": "12", "smoking": "no", "source": "JumpStart International", "tourism": "hotel"}}, {"type": "node", "id": 1182754230, "lat": 41.6176392, "lon": 45.9245651, "tags": {"alt_name:en": "Maia", "contact:mobile": "+995 599 55 43 71", "name": "\u10db\u10d0\u10d8\u10d0", "name:en": "Maya", "name:ka": "\u10db\u10d0\u10d8\u10d0", "tourism": "guest_house"}}, {"type": "node", "id": 1182756022, "lat": 41.6221916, "lon": 45.9232362, "tags": {"addr:housenumber": "8", "addr:postcode": "4200", "addr:street": "Gorgasali Street", "check_date": "2025-06-14", "internet_access": "wlan", "name": "\u10eb\u10d5\u10d4\u10da\u10d8 \u10e3\u10d1\u10d0\u10dc\u10d8", "name:en": "Dzveli Ubani", "name:ka": "\u10eb\u10d5\u10d4\u10da\u10d8 \u10e3\u10d1\u10d0\u10dc\u10d8", "opening_hours": "24/7", "tourism": "hotel"}}, {"type": "node", "id": 1233416547, "lat": 41.6027626, "lon": 45.9330856, "tags": {"name": "Hostel Tura", "tourism": "guest_house"}}, {"type": "node", "id": 1414428639, "lat": 41.6192871, "lon": 45.9225334, "tags": {"amenity": "restaurant", "name": "Restaurant \"Solomoni\""}}, {"type": "node", "id": 2272376804, "lat": 41.61991, "lon": 45.92111, "tags": {"name": "Nato&Lado", "tourism": "guest_house"}}, {"type": "node", "id": 2272598912, "lat": 41.6236701, "lon": 45.9172369, "tags": {"barrier": "entrance", "historic": "city_gate"}}, {"type": "node", "id": 2272598924, "lat": 41.626579, "lon": 45.9171243, "tags": {"barrier": "entrance", "historic": "city_gate"}}, {"type": "node", "id": 2272598933, "lat": 41.6250707, "lon": 45.9255151, "tags": {"barrier": "entrance", "historic": "city_gate", "name:de": "Tor der Stadtmauer", "name:en": "Gate of the city wall", "name:fr": "Porte de l'enceinte de la ville", "name:pl": "Brama miejska", "tourism": "attraction"}}, {"type": "node", "id": 2314610595, "lat": 41.6226746, "lon": 45.9211536, "tags": {"addr:city": "\u10e1\u10d8\u10e6\u10dc\u10d0\u10e6\u10d8", "addr:housenumber": "11", "addr:street": "\u10ec\u10db\u10d8\u10dc\u10d3\u10d0 \u10d2\u10d8\u10dd\u10e0\u10d2\u10d8\u10e1 \u10e5\u10e3\u10e9\u10d0", "contact:mobile": "+995 555 38 38 37", "name": "Zandarashvili's Guesthouse", "tourism": "guest_house", "website": "https://www.zandarashvili-guesthouse.com/"}}, {"type": "node", "id": 2496221528, "lat": 41.6212989, "lon": 45.9230744, "tags": {"addr:city": "Signaghi", "addr:housenumber": "11", "addr:street": "\u10d7\u10d0\u10db\u10d0\u10e0 \u10db\u10d4\u10e4\u10d8\u10e1 \u10e5\u10e3\u10e9\u10d0", "contact:mobile": "+995 593 43 22 43", "name": "Lela Mamulashvili's Family House", "tourism": "guest_house"}}, {"type": "node", "id": 2971974085, "lat": 41.619024, "lon": 45.9230192, "tags": {"addr:housenumber": "10", "addr:street": "\u10d9\u10dd\u10e1\u10e2\u10d0\u10d5\u10d0\u10e1 \u10e5\u10e3\u10e9\u10d0", "name": "Tourism Information Centre", "tourism": "information"}}, {"type": "node", "id": 2971978515, "lat": 41.6157455, "lon": 45.9193901, "tags": {"amenity": "restaurant", "indoor_seating": "yes", "name": "Host of Signagi", "outdoor_seating": "yes"}}, {"type": "node", "id": 3773249458, "lat": 41.613249, "lon": 45.9235402, "tags": {"name": "Kanudosi Guest House", "tourism": "hotel"}}, {"type": "node", "id": 4087193697, "lat": 41.6235843, "lon": 45.924688, "tags": {"name": "Maria", "name:de": "Maria", "name:fr": "Maria", "tourism": "guest_house"}}, {"type": "node", "id": 4152717889, "lat": 41.6211166, "lon": 45.9200325, "tags": {"addr:housenumber": "17", "addr:street": "\u10db\u10dd\u10e1\u10d0\u10e8\u10d5\u10d8\u10da\u10d8\u10e1 \u10e5\u10e3\u10e9\u10d0", "contact:mobile": "+995 555 35 48 96", "name": "lola", "opening_hours": "24/7", "tourism": "guest_house"}}, {"type": "node", "id": 4169877592, "lat": 41.6226462, "lon": 45.9241012, "tags": {"addr:housenumber": "15", "addr:street": "\u10d5\u10d0\u10ee\u10e2\u10d0\u10dc\u10d2 \u10d2\u10dd\u10e0\u10d2\u10d0\u10e1\u10da\u10d8\u10e1 \u10e5\u10e3\u10e9\u10d0", "name": "Kusika", "name:de": "Kusika", "name:fr": "Kusika", "tourism": "guest_house"}}, {"type": "node", "id": 4289337857, "lat": 41.6237033, "lon": 45.9167173, "tags": {"addr:city": "Sighnaghi", "addr:country": "GE", "addr:housenumber": "60", "addr:postcode": "4200", "addr:street": "\u0423\u043b.\u0427\u0430\u0432\u0447\u0430\u0432\u0430\u0434\u0437\u0435 Chavchavadze St", "ele": "750", "email": "info@galavniskari.ge", "internet_access": "wlan", "internet_access:fee": "no", "internet_access:ssid": "Galavnis Kari", "name": "Galavnis Kari", "operator": "\u041e\u0442\u0435\u043b\u044c", "rooms": "12", "smoking": "outside", "tourism": "hotel"}}, {"type": "node", "id": 4312238104, "lat": 41.6142913, "lon": 45.9214783, "tags": {"name": "panorama view of sighnahi ", "tourism": "viewpoint"}}, {"type": "node", "id": 4314223992, "lat": 41.6184765, "lon": 45.9240707, "tags": {"addr:housenumber": "11", "addr:street": "Rustaveli st", "contact:mobile": "+995 599 14 29 21", "internet_access": "wlan", "name": "Hotel Memphis Palace", "tourism": "hotel"}}, {"type": "node", "id": 4314430591, "lat": 41.6182643, "lon": 45.9224991, "tags": {"historic": "monument", "name": "Vano Sarajishvili, The founder of Georgian opera"}}, {"type": "node", "id": 4344193792, "lat": 41.6234224, "lon": 45.9245382, "tags": {"name": "Abramichi", "tourism": "guest_house"}}, {"type": "node", "id": 4352439201, "lat": 41.6242224, "lon": 45.9250931, "tags": {"name": "Tower of the city wall", "name:de": "Turm der Stadtmauer", "name:fr": "Tour des remparts de la ville", "tourism": "viewpoint", "wheelchair": "no"}}, {"type": "node", "id": 4352559690, "lat": 41.6234784, "lon": 45.9241872, "tags": {"name": "Tower of the city wall", "name:de": "Turm der Stadtmauer", "name:fr": "Tour des remparts de la ville", "tourism": "viewpoint"}}, {"type": "node", "id": 4359310595, "lat": 41.6224183, "lon": 45.9233831, "tags": {"name:de": "Gidi", "name:en": "Gidi", "name:fr": "Gidi", "tourism": "guest_house"}}, {"type": "node", "id": 4409553761, "lat": 41.624029, "lon": 45.9173623, "tags": {"addr:city": "\u10e1\u10d8\u10e6\u10dc\u10d0\u10e6\u10d8 (Sighnaghi)", "addr:housenumber": "19", "addr:street": "\u0423\u043b.\u0427\u0430\u0432\u0447\u0430\u0432\u0430\u0434\u0437\u0435,  St. Chavchavadze", "ele": "750", "leisure": "park", "name": "Summer Park", "name:ru": "\u041b\u0435\u0442\u043d\u0438\u0439 \u041f\u0430\u0440\u043a"}}, {"type": "node", "id": 4415899591, "lat": 41.622303, "lon": 45.9214768, "tags": {"internet_access": "wlan", "name:en": "Tsminda Giorgi Apartment", "tourism": "hostel"}}, {"type": "node", "id": 4418022720, "lat": 41.6126597, "lon": 45.915513, "tags": {"addr:city": "Nukriani", "contact:mobile": "+995 592 03 42 47", "internet_access": "wlan", "internet_access:fee": "no", "name": "Jeff Guest House", "opening_hours": "24/7", "rooms": "4+5+2+4", "tourism": "guest_house", "website": "https://www.facebook.com/julia.jeff/"}}, {"type": "node", "id": 4425409261, "lat": 41.6169812, "lon": 45.9216722, "tags": {"tourism": "guest_house"}}, {"type": "node", "id": 4428555889, "lat": 41.6217428, "lon": 45.9280937, "tags": {"addr:housenumber": "55", "addr:street": "\u10d7\u10d0\u10db\u10d0\u10e0 \u10db\u10d4\u10e4\u10d8\u10e1 \u10e5\u10e3\u10e9\u10d0", "internet_access": "wlan", "name": "\u10de\u10d0\u10dc\u10dd\u10e0\u10d0\u10db\u10d0", "name:en": "Panorama", "name:ru": "\u041f\u0430\u043d\u043e\u0440\u0430\u043c\u0430", "opening_hours": "24/7", "tourism": "guest_house"}}, {"type": "node", "id": 4450377512, "lat": 41.617808, "lon": 45.9215103, "tags": {"addr:city": "\u10e1\u10d8\u10e6\u10dc\u10d0\u10e6\u10d8", "addr:housenumber": "25", "addr:street": "\u10ea\u10dd\u10e2\u10dc\u10d4 \u10d3\u10d0\u10d3\u10d8\u10d0\u10dc\u10d8\u10e1 \u10e5\u10e3\u10e9\u10d0", "contact:mobile": "+995 598 85 99 49", "internet_access": "wlan", "internet_access:fee": "no", "name": "Elegance", "operator": "Private Entrepreneur", "rooms": "5 double and 1 Triple Rooms with Private Bathroom", "smoking": "outside", "tourism": "guest_house", "website": "https://www.booking.com/hotel/ge/elegance.html"}}, {"type": "node", "id": 4456612192, "lat": 41.621968, "lon": 45.921916, "tags": {"name:en": "Temuka", "tourism": "guest_house"}}, {"type": "node", "id": 4664925595, "lat": 41.6177732, "lon": 45.9216588, "tags": {"designation": "guest house ZET", "name": "ZET", "tourism": "motel"}}, {"type": "node", "id": 4840897721, "lat": 41.6212492, "lon": 45.9210836, "tags": {"addr:housenumber": "9", "addr:postcode": "383210", "addr:street": "\u10ed\u10d0\u10d5\u10ed\u10d0\u10d5\u10d0\u10eb\u10d8\u10e1 \u10e5\u10e3\u10e9\u10d0", "amenity": "restaurant", "name:en": "Burji"}}, {"type": "node", "id": 4938652921, "lat": 41.6211784, "lon": 45.9185604, "tags": {"addr:city": "\u10e1\u10d8\u10e6\u10dc\u10d0\u10e6\u10d8", "addr:housenumber": "44", "addr:postcode": "4200", "addr:street": "\u10e4\u10d8\u10e0\u10dd\u10e1\u10db\u10d0\u10dc\u10d8\u10e1 \u10e5\u10e3\u10e9\u10d0", "internet_access": "wlan", "internet_access:fee": "yes", "name": "Cherqe", "name:als": "Cherqe", "name:de": "Cherqe", "name:fr": "Cherqe", "rooms": "2", "tourism": "guest_house"}}, {"type": "node", "id": 4946667310, "lat": 41.6193325, "lon": 45.9176684, "tags": {"addr:city": "\u10e1\u10d8\u10e6\u10dc\u10d0\u10e6\u10d8", "addr:housenumber": "50", "addr:postcode": "4200", "addr:street": "\u10e1\u10d0\u10e0\u10d0\u10ef\u10d8\u10e8\u10d5\u10d8\u10da\u10d8\u10e1 \u10e5\u10e3\u10e9\u10d0", "description": "Villi's guesthouse is located in Georgia, Sighnaghi. 5-7 minutes walk from center. ", "email": "vilikanadirashvili@gmail.com", "name": "Villi's guest house", "tourism": "guest_house"}}, {"type": "node", "id": 4946985953, "lat": 41.6185975, "lon": 45.9241558, "tags": {"addr:city": "\u10e1\u10d8\u10e6\u10dc\u10d0\u10e6\u10d8 (Sighnaghi)", "addr:housenumber": "6", "addr:postcode": "4200", "addr:street": "Rustaveli street", "name": "Guest House Aisi", "tourism": "guest_house"}}, {"type": "node", "id": 4947225297, "lat": 41.6176527, "lon": 45.9249575, "tags": {"addr:city": "\u10e1\u10d8\u10e6\u10dc\u10d0\u10e6\u10d8 (Sighnaghi)", "addr:housenumber": "22", "addr:postcode": "4200", "addr:street": "9 \u10d0\u10de\u10e0\u10d8\u10da\u10d8\u10e1 \u10e5\u10e3\u10e9\u10d0", "internet_access": "wlan", "name": "Zurabashvili Guest House", "rooms": "3", "smoking": "outside", "tourism": "guest_house"}}, {"type": "node", "id": 4950986401, "lat": 41.6213219, "lon": 45.9230284, "tags": {"addr:city": "\u10e1\u10d8\u10e6\u10dc\u10d0\u10e6\u10d8 (Sighnaghi)", "addr:postcode": "4200", "addr:street": "\u10d7\u10d0\u10db\u10d0\u10e0 \u10db\u10d4\u10e4\u10d8\u10e1 \u10e5\u10e3\u10e9\u10d0", "name": "Lelis Guest House", "tourism": "hotel"}}, {"type": "node", "id": 4962084721, "lat": 41.6193099, "lon": 45.9219038, "tags": {"name:en": "Herio Hotel", "tourism": "hotel"}}, {"type": "node", "id": 4992769010, "lat": 41.6198877, "lon": 45.9225693, "tags": {"historic": "memorial", "name": "\u0428\u0430\u043b\u0432\u0430 \u041c\u0447\u0435\u0434\u043b\u0438\u0448\u0432\u0438\u043b\u0438;\u0414\u043e\u0434\u0430\u0448\u0432\u0438\u043b\u0438 \u0421\u043e\u043b\u043e\u043c\u043e\u043d \u0418\u0432\u0430\u043d\u043e\u0432\u0438\u0447"}}, {"type": "node", "id": 5015169921, "lat": 41.6212544, "lon": 45.9229088, "tags": {"amenity": "restaurant", "name:en": "Pancho Villa"}}, {"type": "node", "id": 5015232822, "lat": 41.6206858, "lon": 45.9214965, "tags": {"amenity": "restaurant", "name:en": "Okro Restaurant and Wine (natural)"}}, {"type": "node", "id": 5037055453, "lat": 41.6224231, "lon": 45.9214864, "tags": {"internet_access": "wlan", "name": "Maya hostel", "name:en": "Maya hostel", "name:ka": "Maya hostel", "tourism": "hostel"}}, {"type": "node", "id": 5110637232, "lat": 41.6201991, "lon": 45.9233702, "tags": {"tourism": "viewpoint"}}, {"type": "node", "id": 5602364357, "lat": 41.6172641, "lon": 45.9218618, "tags": {"amenity": "cafe", "source": "Survey"}}, {"type": "node", "id": 5602364379, "lat": 41.6198307, "lon": 45.9230809, "tags": {"name:en": "Alazani valley View", "name:ru": "\u0412\u0438\u0434 \u043d\u0430 \u0410\u043b\u0430\u0437\u0430\u043d\u0441\u043a\u0443\u044e \u0434\u043e\u043b\u0438\u043d\u0443", "tourism": "viewpoint"}}, {"type": "node", "id": 5624887721, "lat": 41.6157836, "lon": 45.9196178, "tags": {"amenity": "restaurant", "internet_access": "wlan", "name": "Traveler", "name:en": "Traveler", "name:ru": "\u0422\u0440\u044d\u0432\u0435\u043b\u0435\u0440"}}, {"type": "node", "id": 5640368237, "lat": 41.6218337, "lon": 45.9261701, "tags": {"addr:housenumber": "26", "addr:street": "\u10d7\u10d0\u10db\u10d0\u10e0 \u10db\u10d4\u10e4\u10d8\u10e1 \u10e5\u10e3\u10e9\u10d0", "name:en": "Guest house Shota", "name:ru": "\u0413\u043e\u0441\u0442\u0435\u0432\u043e\u0439 \u0434\u043e\u043c \u0428\u043e\u0442\u0430", "operator": "Shota", "tourism": "hotel"}}, {"type": "node", "id": 5671192022, "lat": 41.6164486, "lon": 45.9205983, "tags": {"internet_access": "wlan", "name": "Three Gracia", "tourism": "guest_house"}}, {"type": "node", "id": 5678231285, "lat": 41.623791, "lon": 45.9382335, "tags": {"backcountry": "yes", "drinking_water": "no", "tourism": "camp_site"}}, {"type": "node", "id": 5693680721, "lat": 41.6384469, "lon": 45.9258859, "tags": {"tourism": "viewpoint"}}, {"type": "node", "id": 5693725621, "lat": 41.6132987, "lon": 45.9132328, "tags": {"tourism": "guest_house"}}, {"type": "node", "id": 5820417055, "lat": 41.6174828, "lon": 45.9240703, "tags": {"name:en": "Fatima", "tourism": "guest_house"}}, {"type": "node", "id": 5853860817, "lat": 41.6226902, "lon": 45.9238055, "tags": {"addr:housenumber": "11", "addr:street": "gorgasali street", "amenity": "restaurant", "contact:mobile": "+995 555 15 51 70", "cuisine": "georgian", "name": "Restaurant Mama-Papuri", "opening_hours": "Mo-Su 09:00-23:50", "takeaway": "yes"}}, {"type": "node", "id": 5879270185, "lat": 41.6146724, "lon": 45.9172571, "tags": {"amenity": "restaurant", "cuisine": "georgian", "internet_access": "wlan", "name": "The Terrace Signagi"}}, {"type": "node", "id": 5928706600, "lat": 41.6236575, "lon": 45.9193031, "tags": {"contact:mobile": "+995 599 92 17 92", "internet_access": "wlan", "name:de": "Martinichi Guesthouse", "name:en": "Martinichi Guesthouse", "tourism": "guest_house"}}, {"type": "node", "id": 5928706601, "lat": 41.6197742, "lon": 45.923838, "tags": {"name:de": "nicht Martinichi GH", "name:en": "not Martinichi GH", "tourism": "guest_house"}}, {"type": "node", "id": 5985458585, "lat": 41.6164756, "lon": 45.91944, "tags": {"name:en": "Guesthouse Sofya actual location", "tourism": "hostel"}}, {"type": "node", "id": 6019626487, "lat": 41.6164015, "lon": 45.9193041, "tags": {"addr:housenumber": "9", "addr:postcode": "4200", "addr:street": "\u10d3\u10dd\u10d3\u10d0\u10e8\u10d5\u10d8\u10da\u10d8\u10e1 \u10e5\u10e3\u10e9\u10d0", "internet_access": "wlan", "name:en": "Hostel Sofya", "opening_hours": "24/7", "tourism": "hostel"}}, {"type": "node", "id": 6372103688, "lat": 41.6200429, "lon": 45.9213089, "tags": {"amenity": "restaurant", "name": "Lali", "name:en": "Lali", "name:ru": "\u041b\u0430\u043b\u0438"}}, {"type": "node", "id": 6372110187, "lat": 41.6170418, "lon": 45.9213608, "tags": {"tourism": "viewpoint"}}, {"type": "node", "id": 6401733887, "lat": 41.6235927, "lon": 45.9173491, "tags": {"amenity": "cafe", "name": "Nino's Tea + History", "opening_hours": "Mo-Su 10:00-18:00"}}, {"type": "node", "id": 6422050882, "lat": 41.621528, "lon": 45.9167013, "tags": {"name": "Four Seasons Apartment", "tourism": "apartment"}}, {"type": "node", "id": 6485334785, "lat": 41.6164397, "lon": 45.9159818, "tags": {"addr:housenumber": "56", "addr:street": "\u10dc\u10d8\u10d9\u10dd\u10da\u10dd\u10d6 \u10d1\u10d0\u10e0\u10d0\u10d7\u10d0\u10e8\u10d5\u10d8\u10da\u10d8\u10e1 \u10e5\u10e3\u10e9\u10d0", "amenity": "restaurant", "internet_access": "wlan", "name:en": "Love City Restaurant"}}, {"type": "node", "id": 6504452086, "lat": 41.6214552, "lon": 45.9182597, "tags": {"addr:housenumber": "45", "name:en": "Phila Guest House", "tourism": "guest_house"}}, {"type": "node", "id": 6528716885, "lat": 41.6039218, "lon": 45.9316053, "tags": {"name": "Living Roots Ranch", "tourism": "attraction"}}, {"type": "node", "id": 6544056086, "lat": 41.6031111, "lon": 45.9325092, "tags": {"contact:mobile": "+995 555 72 74 74", "email": "reservations@lostridgeinn.com", "internet_access": "wlan", "name:en": "Lost Ridge Inn", "tourism": "hotel", "website": "https://lostridgeinn.com/"}}, {"type": "node", "id": 6544221686, "lat": 41.6133115, "lon": 45.9234506, "tags": {"amenity": "cafe", "indoor_seating": "yes", "name:en": "Cafe Kanudosi", "outdoor_seating": "yes"}}, {"type": "node", "id": 6572060085, "lat": 41.6161413, "lon": 45.9181522, "tags": {"addr:city": "\u10e1\u10d8\u10e6\u10dc\u10d0\u10e6\u10d8", "addr:housenumber": "36", "addr:postcode": "4200", "addr:street": "\u10dc\u10d8\u10d9\u10dd\u10da\u10dd\u10d6 \u10d1\u10d0\u10e0\u10d0\u10d7\u10d0\u10e8\u10d5\u10d8\u10da\u10d8\u10e1 \u10e5\u10e3\u10e9\u10d0", "contact:mobile": "+995 599 23 09 38", "internet_access": "wlan", "internet_access:fee": "no", "name": "Luca Lili", "name:en": "Luca Lili", "tourism": "guest_house", "website": "https://www.facebook.com/pages/category/Inn/Luca-Lili-314317075997955/"}}, {"type": "node", "id": 6591793967, "lat": 41.6142707, "lon": 45.9217008, "tags": {"name": "Zip line", "tourism": "attraction"}}, {"type": "node", "id": 6615367756, "lat": 41.6193601, "lon": 45.9217034, "tags": {"amenity": "restaurant", "name": "Wine House"}}, {"type": "node", "id": 6771505885, "lat": 41.6228812, "lon": 45.9234949, "tags": {"internet_access": "wlan", "name:en": "Guest House Marani", "tourism": "hotel"}}, {"type": "node", "id": 6847901885, "lat": 41.6218162, "lon": 45.9217219, "tags": {"amenity": "restaurant", "cuisine": "georgian", "internet_access": "wlan", "name:en": "Terrace Panorama", "opening_hours": "Mo-Su 10:00-22:00", "operator": "Nika"}}, {"type": "node", "id": 6919496420, "lat": 41.6217698, "lon": 45.9223607, "tags": {"name": "Veranda", "tourism": "hotel"}}, {"type": "node", "id": 6919503454, "lat": 41.6179165, "lon": 45.9217015, "tags": {"amenity": "cafe", "name": "Art-cafe Qedeli"}}, {"type": "node", "id": 6957789285, "lat": 41.6229736, "lon": 45.9242972, "tags": {"amenity": "restaurant", "cuisine": "georgian", "name:en": "Balcony Sighnagi"}}, {"type": "node", "id": 7631255564, "lat": 41.6253973, "lon": 45.920232, "tags": {"addr:housenumber": "17", "addr:street": "gzirishvili street", "air_conditioning": "yes", "contact:mobile": "+995 555 77 98 02", "email": "guesthousefavourite@gmail.com", "guest_house": "bed_and_breakfast", "internet_access": "wlan", "internet_access:fee": "no", "level": "3", "name": "Guesthouse Favourite", "name:ka": "\u10e1\u10d0\u10e1\u10e2\u10e3\u10db\u10e0\u10dd \u10e4\u10d0\u10d5\u10dd\u10e0\u10d8\u10e2\u10d8", "name:ru": "Guesthouse Favourite", "opening_hours": "Mo-Su 08:00-00:00", "payment:cash": "yes", "reservation": "recommended", "rooms": "7", "smoking": "isolated", "tourism": "guest_house", "website": "https://www.booking.com/hotel/ge/favourite-sighnaghi.html?label=gen173nr-1FCAEoggI46AdIM1gEaFKIAQKYATG4ARjIARHYAQHoAQH4AQKIAgGoAgS4AuLtqfcFwAIB0gIkMGY3ZDE3Y2EtNGRlMC00ZTA4LTljM2MtNTY4YWM3MDI5MDc42AIF4AIB;sid=ded20905e50a28498b8905df186854b4;dist=0;frindre"}}, {"type": "node", "id": 8583073589, "lat": 41.6451603, "lon": 45.9187217, "tags": {"addr:city": "\u10d5\u10d0\u10e5\u10d8\u10e0\u10d8", "addr:street": "Sighnaghi Municipality, Village Vakiri, Second Turn, Demetrashvili House", "amenity": "restaurant", "contact:facebook": "https://www.facebook.com/vakirelebi", "contact:instagram": "https://www.instagram.com/vakirelebi_", "contact:mobile": "+995 555 77 78 55", "cuisine": "georgian;traditional;organic;wine", "description": "KAKHETIAN HOUSE VAKIRELEBI \u2022Traditional cuisine in family \u2022Organic wine&chacha marani \u2022Culinary classes \u2022Grape harvest \u201cRtveli\u201d \u2022Folk music \u2022Homemade products", "diet:healthy": "yes", "diet:meat": "yes", "diet:organic": "yes", "diet:vegetarian": "yes", "name": "Vakirelebi - \u0412\u0430\u043a\u0438\u0440\u0435\u043b\u0435\u0431\u0438 - \u10d5\u10d0\u10e5\u10d8\u10e0\u10d4\u10da\u10d4\u10d1\u10d8", "opening_hours": "Mo-Su 10:00-20:00", "outdoor_seating": "yes", "reservation": "required"}}, {"type": "node", "id": 9040257017, "lat": 41.6195431, "lon": 45.921855, "tags": {"name": "Golden Lion", "name:en": "Golden Lion", "tourism": "guest_house"}}, {"type": "node", "id": 9044144121, "lat": 41.6195235, "lon": 45.9218695, "tags": {"amenity": "restaurant", "cuisine": "georgian", "name": "Golden Lion", "name:en": "Golden Lion"}}, {"type": "node", "id": 9052285117, "lat": 41.6131482, "lon": 45.9201146, "tags": {"amenity": "restaurant", "name": "AMO"}}, {"type": "node", "id": 9081965217, "lat": 41.6148758, "lon": 45.922695, "tags": {"name:en": "Lia's guest house", "tourism": "guest_house"}}, {"type": "node", "id": 9181050120, "lat": 41.6156747, "lon": 45.918933, "tags": {"name": "Sighagi Inn", "tourism": "hotel"}}, {"type": "node", "id": 9206845517, "lat": 41.6178235, "lon": 45.922116, "tags": {"addr:street": "\u10d9\u10dd\u10e1\u10e2\u10d0\u10d5\u10d0\u10e1 \u10e5\u10e3\u10e9\u10d0", "amenity": "restaurant", "cuisine": "georgian", "name": "Koloriti", "name:en": "Koloriti", "opening_hours": "Mo-Su 10:00-24:00", "self_service": "no"}}, {"type": "node", "id": 9375280792, "lat": 41.6084506, "lon": 45.9247068, "tags": {"direction": "NW-ESE", "tourism": "viewpoint"}}, {"type": "node", "id": 9376850547, "lat": 41.6069048, "lon": 45.9339421, "tags": {"description": "Views of the Caucasian Mountains", "tourism": "viewpoint"}}, {"type": "node", "id": 9376850548, "lat": 41.6063946, "lon": 45.9342404, "tags": {"description": "Views of the Caucasian Mountains", "tourism": "viewpoint"}}, {"type": "node", "id": 9376947738, "lat": 41.6171788, "lon": 45.9214617, "tags": {"artwork_type": "statue", "material": "bronze", "tourism": "artwork"}}, {"type": "node", "id": 9376947739, "lat": 41.6167141, "lon": 45.9209308, "tags": {"tourism": "viewpoint"}}, {"type": "node", "id": 9376947740, "lat": 41.616879, "lon": 45.9211362, "tags": {"tourism": "viewpoint"}}, {"type": "node", "id": 9376991368, "lat": 41.6188669, "lon": 45.9221558, "tags": {"amenity": "marketplace", "level": "0"}}, {"type": "node", "id": 9377095210, "lat": 41.6246656, "lon": 45.9257623, "tags": {"ele": "700", "tourism": "viewpoint"}}, {"type": "node", "id": 9377099672, "lat": 41.6237159, "lon": 45.9246505, "tags": {"layer": "1", "location": "roof", "tourism": "viewpoint"}}, {"type": "node", "id": 9722524517, "lat": 41.6217031, "lon": 45.9230253, "tags": {"name": "Loza", "tourism": "guest_house"}}, {"type": "node", "id": 9904471755, "lat": 41.6218961, "lon": 45.9236969, "tags": {"addr:city": "\u10e1\u10d8\u10e6\u10dc\u10d0\u10e6\u10d8 (Sighnaghi)", "addr:housenumber": "4", "addr:street": "\u10d7\u10d0\u10db\u10d0\u10e0 \u10db\u10d4\u10e4\u10d8\u10e1 \u10e5\u10e3\u10e9\u10d0", "amenity": "cafe", "contact:mobile": "+995 599 36 58 16", "cuisine": "coffee_shop", "name": "Ninos Cafe"}}, {"type": "node", "id": 9951364017, "lat": 41.6226597, "lon": 45.924029, "tags": {"amenity": "restaurant", "cuisine": "georgian"}}, {"type": "node", "id": 10013289821, "lat": 41.6195199, "lon": 45.9234009, "tags": {"amenity": "restaurant", "name": "Terrace Aura"}}, {"type": "node", "id": 10020825017, "lat": 41.6221208, "lon": 45.9218249, "tags": {"name:en": "Goga Guesthouse", "tourism": "guest_house"}}, {"type": "node", "id": 10785535404, "lat": 41.6231135, "lon": 45.9243902, "tags": {"name": "BelleVue", "tourism": "guest_house"}}, {"type": "node", "id": 10785540718, "lat": 41.607623, "lon": 45.9277614, "tags": {"tourism": "artwork"}}, {"type": "node", "id": 10836251298, "lat": 41.6281434, "lon": 45.920375, "tags": {"tourism": "viewpoint"}}, {"type": "node", "id": 10883596361, "lat": 41.6169242, "lon": 45.9207665, "tags": {"amenity": "restaurant", "name": "Nikala", "name:en": "Nikala", "opening_hours": "Mo-Su 10:00-23:45+"}}, {"type": "node", "id": 11012949937, "lat": 41.6217831, "lon": 45.9236106, "tags": {"historic": "memorial", "memorial": "plaque", "name": "\u10d2\u10d4\u10d5\u10dd\u10e0\u10d2 \u10d1\u10d0\u10e8\u10d8\u10dc\u10ef\u10d0\u10e6\u10d8\u10d0\u10dc\u10d8", "name:en": "Gevorg Bashinjagyan", "name:ru": "\u0413\u0435\u0432\u043e\u0440\u0433 \u0411\u0430\u0448\u0438\u043d\u0434\u0436\u0430\u0433\u044f\u043d", "openplaques:id": "58837", "subject:wikidata": "Q2064083", "subject:wikipedia": "en:Gevorg Bashinjaghian", "wikimedia_commons": "File:Gevorg Bashinjaghyan plaque, Sighnaghi.jpg"}}, {"type": "node", "id": 11043917705, "lat": 41.6185855, "lon": 45.9217325, "tags": {"amenity": "cafe", "check_date": "2025-06-14", "contact:facebook": "chikchikicafe", "contact:instagram": "chikchikicafe", "contact:mobile": "+995 555 55 41 30", "internet_access": "wlan", "internet_access:fee": "no", "level": "0", "name": "\u10ed\u10d8\u10d9\u10ed\u10d8\u10d9\u10d8", "name:en": "ChikChiki", "name:ka": "\u10ed\u10d8\u10d9\u10ed\u10d8\u10d9\u10d8", "opening_hours": "Mo-Su 09:00-23:00", "smoking": "outside", "toilets": "yes", "website": "https://chikchiki.ge/", "website:menu": "https://chikchiki.ge/menu_eng/", "wheelchair": "limited"}}, {"type": "node", "id": 11050451369, "lat": 41.6187229, "lon": 45.9238722, "tags": {"tourism": "viewpoint"}}, {"type": "node", "id": 11159096105, "lat": 41.6236885, "lon": 45.924566, "tags": {"amenity": "restaurant", "check_date": "2025-06-14", "name": "Castle fortress", "name:fr": "Castle fortress"}}, {"type": "node", "id": 11160689006, "lat": 41.6154549, "lon": 45.9193823, "tags": {"amenity": "restaurant", "contact:mobile": "+995 595 13 93 36", "cuisine": "georgian", "name:en": "signagis maspindzeli"}}, {"type": "node", "id": 11302161001, "lat": 41.623083, "lon": 45.9294431, "tags": {"name": "Signagi Glamping", "tourism": "camp_site"}}, {"type": "node", "id": 11302165163, "lat": 41.6213636, "lon": 45.9205489, "tags": {"addr:city": "\u10e1\u10d8\u10e6\u10dc\u10d0\u10e6\u10d8", "addr:housenumber": "18", "addr:street": "\u10ed\u10d0\u10d5\u10ed\u10d0\u10d5\u10d0\u10eb\u10d8\u10e1 \u10e5\u10e3\u10e9\u10d0", "name": "Guest House Tamariani", "tourism": "guest_house"}}, {"type": "node", "id": 11302179478, "lat": 41.6209746, "lon": 45.9215212, "tags": {"addr:city": "\u10e1\u10d8\u10e6\u10dc\u10d0\u10e6\u10d8", "addr:housenumber": "5", "addr:street": "\u10ed\u10d0\u10d5\u10ed\u10d0\u10d5\u10d0\u10eb\u10d8\u10e1 \u10e5\u10e3\u10e9\u10d0", "name": "Apartment Chavchavadze 5", "tourism": "apartment"}}, {"type": "node", "id": 11302191460, "lat": 41.619145, "lon": 45.9212355, "tags": {"name": "Mironichi Guest House", "tourism": "guest_house"}}, {"type": "node", "id": 11916332169, "lat": 41.6176129, "lon": 45.9231278, "tags": {"addr:housenumber": "18", "addr:street": "\u10d3\u10d0\u10d5\u10d8\u10d7 \u10d0\u10e6\u10db\u10d0\u10e8\u10d4\u10dc\u10d4\u10d1\u10da\u10d8\u10e1 \u10e5\u10e3\u10e9\u10d0", "amenity": "restaurant", "cuisine": "georgian", "email": "contact@kerovani.com", "name:en": "Kerovani Winery", "opening_hours": "Mo-Su 10:00-20:00", "website": "http://kerovani.com"}}, {"type": "node", "id": 12017292769, "lat": 41.6201889, "lon": 45.9216025, "tags": {"tourism": "camp_site"}}, {"type": "node", "id": 12143693412, "lat": 41.6193294, "lon": 45.9227952, "tags": {"artist_name": "\u10d2\u10d8\u10dd\u10e0\u10d2\u10d8 \u10ec\u10e3\u10da\u10d0\u10eb\u10d4", "artist_name:en": "George Tsuladze", "historic": "memorial", "inscription": "Sculpture was given as a gift to the city of Sighnaghi", "mapillary": "1719097045569324", "material": "granite", "memorial": "bust", "name": "\u10e4\u10d8\u10e0\u10dd\u10e1\u10db\u10d0\u10dc\u10d8", "name:en": "Pirosmani", "name:ru": "\u041f\u0438\u0440\u043e\u0441\u043c\u0430\u043d\u0438"}}, {"type": "node", "id": 12151285324, "lat": 41.6175679, "lon": 45.9222725, "tags": {"artwork_type": "statue", "tourism": "artwork"}}, {"type": "node", "id": 12151482654, "lat": 41.6236059, "lon": 45.9241225, "tags": {"air_conditioning": "no", "amenity": "restaurant", "check_date": "2025-06-14", "cuisine": "georgian", "diet:vegetarian": "no", "indoor_seating": "yes", "name": "Sighnaghi Estate", "name:en": "Sighnaghi Estate", "outdoor_seating": "yes", "self_service": "no", "website": "https://menu.spacem.ge/MAMULI/eng/main", "website:menu": "https://menu.spacem.ge/MAMULI/eng/main"}}, {"type": "node", "id": 12901886501, "lat": 41.6213041, "lon": 45.9179383, "tags": {"addr:housenumber": "46", "addr:street": "\u10e4\u10d8\u10e0\u10dd\u10e1\u10db\u10d0\u10dc\u10d8\u10e1 \u10e5\u10e3\u10e9\u10d0", "name": "Best House Guesthouse", "tourism": "hotel"}}, {"type": "node", "id": 12914988435, "lat": 41.6192161, "lon": 45.9221299, "tags": {"amenity": "restaurant", "check_date": "2025-06-14", "name": "\u10d0\u10d5\u10d0\u10dc\u10e2\u10d0\u10df\u10d8", "name:en": "Avantaje", "name:ka": "\u10d0\u10d5\u10d0\u10dc\u10e2\u10d0\u10df\u10d8"}}, {"type": "node", "id": 12914988436, "lat": 41.6206046, "lon": 45.9224454, "tags": {"tourism": "viewpoint"}}, {"type": "node", "id": 12914988437, "lat": 41.6198878, "lon": 45.9226463, "tags": {"tourism": "viewpoint"}}, {"type": "node", "id": 12915308825, "lat": 41.6216829, "lon": 45.9217934, "tags": {"tourism": "viewpoint"}}, {"type": "node", "id": 12915346739, "lat": 41.6250504, "lon": 45.925753, "tags": {"amenity": "restaurant"}}, {"type": "node", "id": 12915346742, "lat": 41.6251373, "lon": 45.9255619, "tags": {"tourism": "viewpoint"}}, {"type": "node", "id": 12915427031, "lat": 41.6142557, "lon": 45.9174796, "tags": {"tourism": "viewpoint"}}, {"type": "node", "id": 12917673308, "lat": 41.615694, "lon": 45.9199239, "tags": {"name": "Traveler", "name:en": "Traveler", "tourism": "hotel"}}, {"type": "node", "id": 12921706998, "lat": 41.6183158, "lon": 45.9225304, "tags": {"historic": "memorial"}}, {"type": "node", "id": 13253505743, "lat": 41.609384, "lon": 45.9225177, "tags": {"amenity": "restaurant", "cuisine": "georgian", "name:en": "Gviniasahvili's yard", "name:ka": "\u10d4\u10d7\u10dc\u10dd\u10d2\u10e0\u10d0\u10e4\u10d8\u10e3\u10da\u10d8 \u10d4\u10d6\u10dd \u10e5\u10d8\u10d6\u10d8\u10e7\u10d8", "phone": "+995593411309"}}, {"type": "way", "id": 102421671, "nodes": [1182787994, 1182784877, 1182785509, 1182781149, 1182783175, 1182781130, 1182793853, 1182794996, 1182787384, 1182782239, 1182779134, 1182794857, 1182785771, 1182788720, 1182778556, 1182786162, 1182781667, 1182780619, 1182779779, 1182790869, 1182782375, 1182793955, 1182780816, 1182781309, 1182781676, 1182780915, 1182786020, 1182789633, 1182792009, 1182781888, 1182789782, 1182791622, 1182781955, 1182792425, 1182790774, 1182785571, 1182789727, 1182779157, 1182791112, 1182790356, 1182783200, 1182790330, 1182780571, 1182789923, 1182793386, 1182787476, 1182782063, 1182783901, 1182784220, 1182786703, 1182791754, 1182795029, 1182789390, 1182789026, 1182781199, 1182787994], "tags": {"leisure": "park", "source": "JumpStart International"}}, {"type": "way", "id": 374481926, "nodes": [3778727453, 3778727452, 3778727450, 3778727449, 3778727448, 3778727451, 3778727453], "tags": {"leisure": "park"}}, {"type": "way", "id": 586351906, "nodes": [4314436290, 5602364375, 5602364378, 5602364369, 5602364372, 5602364371, 5602364370, 5602364377, 12918703509, 12918703510, 12918703511, 5602364367, 5602364374, 5602364373, 4314436290], "tags": {"addr:city": "Signaghi", "addr:postcode": "4200", "building": "yes", "contact:phone": "+995 32 223 24 48", "name": "\u10e1\u10d8\u10e6\u10dc\u10d0\u10e6\u10d8\u10e1 \u10db\u10e3\u10d6\u10d4\u10e3\u10db\u10d8", "name:en": "Sighnaghi museum", "name:pl": "Muzeum Narodowe w Sighnaghi", "name:ru": "\u041c\u0443\u0437\u0435\u0439 \u0421\u0438\u0433\u043d\u0430\u0445\u0438", "opening_hours": "Tu-Su 10:00-17:30", "tourism": "museum", "website": "https://museum.ge/index.php?lang_id=ENG&sec_id=52", "wikidata": "Q16375838"}}, {"type": "way", "id": 626937419, "nodes": [5918495884, 5918495882, 5918495883, 5918519589, 5918519588, 5918519587, 5918519586, 5918495884], "tags": {"name:en": "Ethnographic Park", "name:ru": "\u042d\u0442\u043d\u043e\u0433\u0440\u0430\u0444\u0438\u0447\u0435\u0441\u043a\u0438\u0439 \u043f\u0430\u0440\u043a", "tourism": "attraction", "wheelchair": "yes"}}, {"type": "way", "id": 655150114, "nodes": [3773420875, 6138624579, 6138624580, 6138624581, 3773420875], "tags": {"amenity": "restaurant", "building": "yes", "cuisine": "regional", "name": "Shio's Restaurant"}}, {"type": "way", "id": 655920172, "nodes": [6144897578, 6144897579, 6144897580, 6144897581, 6144897582, 6144897583, 6144897578], "tags": {"building": "yes", "name": "Hotel Kabadoni", "tourism": "hotel"}}, {"type": "way", "id": 662816090, "nodes": [6204914524, 6204914525, 6204914526, 6204914527, 6204914524], "tags": {"building": "yes", "tourism": "hotel"}}, {"type": "way", "id": 724072723, "nodes": [6790724387, 6790724388, 6790724389, 6790724390, 6790724387], "tags": {"building": "yes", "tourism": "hotel"}}, {"type": "way", "id": 924838619, "nodes": [8583245773, 8583245774, 8583245775, 8583245776, 8583245777, 8583245773], "tags": {"addr:city": "\u10d5\u10d0\u10e5\u10d8\u10e0\u10d8", "addr:street": "Sighnaghi Municipality, Village Vakiri, Second Turn, Demetrashvili House", "amenity": "restaurant", "building": "house", "contact:mobile": "+995 555 77 78 55", "cuisine": "georgian;organic;traditional;meat;bbq;wine_cellar", "name": "Vakirelebi - \u0412\u0430\u043a\u0438\u0440\u0435\u043b\u0435\u0431\u0438 - \u10d5\u10d0\u10e5\u10d8\u10e0\u10d4\u10da\u10d4\u10d1\u10d8", "opening_hours": "Mo-Su 10:00-20:00", "reservation": "required", "website": "https://www.facebook.com/vakirelebi/"}}, {"type": "way", "id": 932101044, "nodes": [8640846772, 8640846773, 8640846774, 8640846775, 12917673347, 8640846772], "tags": {"addr:housenumber": "13", "addr:street": "\u10d7\u10d0\u10db\u10d0\u10e0 \u10db\u10d4\u10e4\u10d8\u10e1 \u10e5\u10e3\u10e9\u10d0", "building": "yes", "name": "Brigitte", "tourism": "hotel"}}, {"type": "way", "id": 932101047, "nodes": [8640846785, 12143741053, 12143741054, 12915308816, 12143741056, 12143741055, 1182746986, 8640846787, 8640846788, 8640846785], "tags": {"building": "yes", "check_date": "2025-06-14", "name": "\u10e1\u10d8\u10e6\u10dc\u10d0\u10e6\u10d8", "name:en": "Sighnaghi", "name:ka": "\u10e1\u10d8\u10e6\u10dc\u10d0\u10e6\u10d8", "name:ru": "\u0421\u0438\u0433\u043d\u0430\u0445\u0438", "stars": "4", "tourism": "hotel"}}, {"type": "way", "id": 1057879611, "nodes": [9720383963, 9720383964, 9720383965, 9720383966, 9720383963], "tags": {"building": "yes", "name:en": "Old Sewing Fabric", "name:ru": "\u0411\u044b\u0432\u0448\u0430\u044f \u0448\u0432\u0435\u0439\u043d\u0430\u044f \u0444\u0430\u0431\u0440\u0438\u043a\u0430", "tourism": "attraction"}}, {"type": "way", "id": 1291230283, "nodes": [11971494179, 11971494180, 11971494181, 11971494182, 11971494183, 11971494179], "tags": {"leisure": "park"}}, {"type": "node", "id": 9720383965, "lat": 41.6186466, "lon": 45.9140053}, {"type": "node", "id": 3773420875, "lat": 41.6184615, "lon": 45.9226324}, {"type": "node", "id": 6138624579, "lat": 41.6183269, "lon": 45.9226634}, {"type": "node", "id": 6138624580, "lat": 41.618377, "lon": 45.9230822}, {"type": "node", "id": 6138624581, "lat": 41.6185016, "lon": 45.9230273}, {"type": "node", "id": 6204914525, "lat": 41.6185464, "lon": 45.9229122}, {"type": "node", "id": 6204914526, "lat": 41.6185568, "lon": 45.9232094}, {"type": "node", "id": 9720383963, "lat": 41.6189835, "lon": 45.9133163}, {"type": "node", "id": 9720383964, "lat": 41.61884, "lon": 45.9132504}, {"type": "node", "id": 9720383966, "lat": 41.61879, "lon": 45.9140711}, {"type": "node", "id": 5918495882, "lat": 41.624517, "lon": 45.9179706}, {"type": "node", "id": 5918495883, "lat": 41.6247842, "lon": 45.9179431}, {"type": "node", "id": 5918495884, "lat": 41.6243221, "lon": 45.918041}, {"type": "node", "id": 5918519586, "lat": 41.6250669, "lon": 45.9188926}, {"type": "node", "id": 5918519589, "lat": 41.625099, "lon": 45.9181738}, {"type": "node", "id": 1182746986, "lat": 41.6203628, "lon": 45.9222827}, {"type": "node", "id": 3778727448, "lat": 41.6198878, "lon": 45.9217708}, {"type": "node", "id": 3778727449, "lat": 41.6198961, "lon": 45.9218849}, {"type": "node", "id": 3778727450, "lat": 41.6199945, "lon": 45.9222184}, {"type": "node", "id": 3778727451, "lat": 41.6202774, "lon": 45.9212712}, {"type": "node", "id": 3778727452, "lat": 41.6203275, "lon": 45.921907}, {"type": "node", "id": 3778727453, "lat": 41.6204924, "lon": 45.9215177}, {"type": "node", "id": 4314436290, "lat": 41.619718, "lon": 45.9228571}, {"type": "node", "id": 5602364367, "lat": 41.6196328, "lon": 45.9229449}, {"type": "node", "id": 5602364369, "lat": 41.6198131, "lon": 45.9229981}, {"type": "node", "id": 5602364370, "lat": 41.619689, "lon": 45.923126}, {"type": "node", "id": 5602364371, "lat": 41.6196996, "lon": 45.9231444}, {"type": "node", "id": 5602364372, "lat": 41.6198237, "lon": 45.9230165}, {"type": "node", "id": 5602364373, "lat": 41.6196944, "lon": 45.922816}, {"type": "node", "id": 5602364374, "lat": 41.6196091, "lon": 45.9229039}, {"type": "node", "id": 5602364375, "lat": 41.6198155, "lon": 45.9227566}, {"type": "node", "id": 5602364377, "lat": 41.6195961, "lon": 45.9232217}, {"type": "node", "id": 5602364378, "lat": 41.6199019, "lon": 45.9229065}, {"type": "node", "id": 6144897578, "lat": 41.6202665, "lon": 45.9225975}, {"type": "node", "id": 6144897579, "lat": 41.619993, "lon": 45.9226865}, {"type": "node", "id": 6144897580, "lat": 41.6200299, "lon": 45.9228848}, {"type": "node", "id": 6144897581, "lat": 41.6201472, "lon": 45.92284}, {"type": "node", "id": 6144897582, "lat": 41.6201404, "lon": 45.9227844}, {"type": "node", "id": 6144897583, "lat": 41.6202917, "lon": 45.9227272}, {"type": "node", "id": 6204914524, "lat": 41.6186753, "lon": 45.9229042}, {"type": "node", "id": 6204914527, "lat": 41.6186856, "lon": 45.9232014}, {"type": "node", "id": 6790724387, "lat": 41.623121, "lon": 45.9233172}, {"type": "node", "id": 6790724388, "lat": 41.6231535, "lon": 45.9234643}, {"type": "node", "id": 6790724389, "lat": 41.6229905, "lon": 45.9235286}, {"type": "node", "id": 6790724390, "lat": 41.6229581, "lon": 45.9233816}, {"type": "node", "id": 8640846772, "lat": 41.6213691, "lon": 45.9230901}, {"type": "node", "id": 8640846773, "lat": 41.6214196, "lon": 45.9233053}, {"type": "node", "id": 8640846774, "lat": 41.6213004, "lon": 45.9233634}, {"type": "node", "id": 8640846775, "lat": 41.6212529, "lon": 45.9231743}, {"type": "node", "id": 8640846785, "lat": 41.6202582, "lon": 45.9220678}, {"type": "node", "id": 8640846787, "lat": 41.6204526, "lon": 45.9222035}, {"type": "node", "id": 8640846788, "lat": 41.6203471, "lon": 45.9219895}, {"type": "node", "id": 12143741053, "lat": 41.6202757, "lon": 45.9221034}, {"type": "node", "id": 12143741054, "lat": 41.6202592, "lon": 45.9221179}, {"type": "node", "id": 12143741055, "lat": 41.6203454, "lon": 45.9222474}, {"type": "node", "id": 12143741056, "lat": 41.6203298, "lon": 45.9222612}, {"type": "node", "id": 12915308816, "lat": 41.6202974, "lon": 45.9221954}, {"type": "node", "id": 12917673347, "lat": 41.621299, "lon": 45.9231218}, {"type": "node", "id": 12918703509, "lat": 41.6195515, "lon": 45.9231443}, {"type": "node", "id": 12918703510, "lat": 41.6195097, "lon": 45.9230717}, {"type": "node", "id": 12918703511, "lat": 41.6195708, "lon": 45.9230087}, {"type": "node", "id": 5918519587, "lat": 41.6255401, "lon": 45.9182596}, {"type": "node", "id": 5918519588, "lat": 41.6254438, "lon": 45.9181094}, {"type": "node", "id": 8583245773, "lat": 41.6451969, "lon": 45.9185001}, {"type": "node", "id": 8583245774, "lat": 41.6453572, "lon": 45.9188541}, {"type": "node", "id": 8583245775, "lat": 41.6450285, "lon": 45.9190901}, {"type": "node", "id": 8583245776, "lat": 41.6449263, "lon": 45.9187388}, {"type": "node", "id": 8583245777, "lat": 41.6449483, "lon": 45.9187173}, {"type": "node", "id": 11971494179, "lat": 41.6217836, "lon": 45.9481231}, {"type": "node", "id": 11971494180, "lat": 41.6209189, "lon": 45.9485147}, {"type": "node", "id": 11971494181, "lat": 41.6211796, "lon": 45.9495822}, {"type": "node", "id": 11971494182, "lat": 41.6219195, "lon": 45.9491799}, {"type": "node", "id": 11971494183, "lat": 41.6219926, "lon": 45.9490886}, {"type": "node", "id": 1182781199, "lat": 41.6447351, "lon": 45.9281091}, {"type": "node", "id": 1182787994, "lat": 41.6443822, "lon": 45.9282751}, {"type": "node", "id": 1182789026, "lat": 41.6447664, "lon": 45.9280952}, {"type": "node", "id": 1182789390, "lat": 41.6447924, "lon": 45.9280917}, {"type": "node", "id": 1182795029, "lat": 41.6448393, "lon": 45.9280952}, {"type": "node", "id": 1182778556, "lat": 41.6466554, "lon": 45.9292607}, {"type": "node", "id": 1182779134, "lat": 41.6465943, "lon": 45.9303063}, {"type": "node", "id": 1182779157, "lat": 41.6455139, "lon": 45.9285413}, {"type": "node", "id": 1182779779, "lat": 41.6466065, "lon": 45.9283784}, {"type": "node", "id": 1182780571, "lat": 41.64523, "lon": 45.9287017}, {"type": "node", "id": 1182780619, "lat": 41.6466228, "lon": 45.9286071}, {"type": "node", "id": 1182780816, "lat": 41.6463995, "lon": 45.9279418}, {"type": "node", "id": 1182780915, "lat": 41.6463135, "lon": 45.9278512}, {"type": "node", "id": 1182781130, "lat": 41.645992, "lon": 45.9306386}, {"type": "node", "id": 1182781149, "lat": 41.6456257, "lon": 45.9309218}, {"type": "node", "id": 1182781309, "lat": 41.6463682, "lon": 45.9279}, {"type": "node", "id": 1182781667, "lat": 41.6466391, "lon": 45.928874}, {"type": "node", "id": 1182781676, "lat": 41.646337, "lon": 45.9278651}, {"type": "node", "id": 1182781888, "lat": 41.6461286, "lon": 45.9278373}, {"type": "node", "id": 1182781955, "lat": 41.6458577, "lon": 45.9279244}, {"type": "node", "id": 1182782063, "lat": 41.6449591, "lon": 45.9282207}, {"type": "node", "id": 1182782239, "lat": 41.6464844, "lon": 45.9303499}, {"type": "node", "id": 1182782375, "lat": 41.6465219, "lon": 45.9281266}, {"type": "node", "id": 1182783175, "lat": 41.6458333, "lon": 45.9307802}, {"type": "node", "id": 1182783200, "lat": 41.6453837, "lon": 45.9286738}, {"type": "node", "id": 1182783901, "lat": 41.6449539, "lon": 45.9281719}, {"type": "node", "id": 1182784220, "lat": 41.6449383, "lon": 45.92813}, {"type": "node", "id": 1182784877, "lat": 41.6449257, "lon": 45.9310034}, {"type": "node", "id": 1182785509, "lat": 41.6455403, "lon": 45.9306004}, {"type": "node", "id": 1182785571, "lat": 41.645566, "lon": 45.9283078}, {"type": "node", "id": 1182785771, "lat": 41.6466757, "lon": 45.9299796}, {"type": "node", "id": 1182786020, "lat": 41.6462771, "lon": 45.9278303}, {"type": "node", "id": 1182786162, "lat": 41.6466513, "lon": 45.9291027}, {"type": "node", "id": 1182786703, "lat": 41.6449174, "lon": 45.9281022}, {"type": "node", "id": 1182787384, "lat": 41.6463339, "lon": 45.9304153}, {"type": "node", "id": 1182787476, "lat": 41.644993, "lon": 45.9285553}, {"type": "node", "id": 1182788720, "lat": 41.6466635, "lon": 45.9295874}, {"type": "node", "id": 1182789633, "lat": 41.6462354, "lon": 45.9278233}, {"type": "node", "id": 1182789727, "lat": 41.6455347, "lon": 45.9284472}, {"type": "node", "id": 1182789782, "lat": 41.6460817, "lon": 45.9278512}, {"type": "node", "id": 1182789923, "lat": 41.6450945, "lon": 45.9286808}, {"type": "node", "id": 1182790330, "lat": 41.6453211, "lon": 45.9286982}, {"type": "node", "id": 1182790356, "lat": 41.6454384, "lon": 45.9286494}, {"type": "node", "id": 1182790774, "lat": 41.6455972, "lon": 45.9279906}, {"type": "node", "id": 1182790869, "lat": 41.646578, "lon": 45.9282313}, {"type": "node", "id": 1182791112, "lat": 41.6455139, "lon": 45.928611}, {"type": "node", "id": 1182791622, "lat": 41.6459332, "lon": 45.9278965}, {"type": "node", "id": 1182791754, "lat": 41.6448836, "lon": 45.9280952}, {"type": "node", "id": 1182792009, "lat": 41.6461807, "lon": 45.9278268}, {"type": "node", "id": 1182792425, "lat": 41.6457197, "lon": 45.9279627}, {"type": "node", "id": 1182793386, "lat": 41.6450216, "lon": 45.928625}, {"type": "node", "id": 1182793853, "lat": 41.6461182, "lon": 45.9305296}, {"type": "node", "id": 1182793955, "lat": 41.6464411, "lon": 45.9279941}, {"type": "node", "id": 1182794857, "lat": 41.6466676, "lon": 45.9302519}, {"type": "node", "id": 1182794996, "lat": 41.6462158, "lon": 45.9304752}]}