{"version": 0.6, "generator": "Overpass API 0.7.62.8 e802775f", "osm3s": {"timestamp_osm_base": "2025-11-23T13:03:15Z", "copyright": "The data included in this document is from www.openstreetmap.org. The data is made available under ODbL."}, "elements": [{"type": "node", "id": 497665346, "lat": 42.2678039, "lon": 42.7099607, "tags": {"tourism": "guest_house"}}, {"type": "node", "id": 1164349480, "lat": 42.2871551, "lon": 42.7419284, "tags": {"amenity": "restaurant", "cuisine": "georgian", "name": "\u10e0\u10d4\u10e1\u10e2\u10dd\u10e0\u10d0\u10dc\u10d8 \u10db\u10dd\u10ec\u10d0\u10db\u10d4\u10d7\u10d0", "name:en": "Motsameta Restaurant", "name:ka": "\u10e0\u10d4\u10e1\u10e2\u10dd\u10e0\u10d0\u10dc\u10d8 \u10db\u10dd\u10ec\u10d0\u10db\u10d4\u10d7\u10d0", "name:ru": "\u041c\u043e\u0446\u0430\u043c\u0435\u0442\u0430", "source": "JumpStart International"}}, {"type": "node", "id": 1164531030, "lat": 42.2722899, "lon": 42.706005, "tags": {"historic": "memorial", "int_name": "Ipolite Khvichia", "memorial": "bench", "name": "\u10d8\u10de\u10dd\u10da\u10d8\u10e2\u10d4 \u10ee\u10d5\u10d8\u10e9\u10d8\u10d0", "name:en": "Ipolite Khvichia", "name:ka": "\u10d8\u10de\u10dd\u10da\u10d8\u10e2\u10d4 \u10ee\u10d5\u10d8\u10e9\u10d8\u10d0", "name:ru": "\u0418\u043f\u043f\u043e\u043b\u0438\u0442 \u0425\u0432\u0438\u0447\u0438\u0430", "subject:wikidata": "Q1966529", "subject:wikipedia": "ka:\u10d8\u10de\u10dd\u10da\u10d8\u10e2\u10d4 \u10ee\u10d5\u10d8\u10e9\u10d8\u10d0"}}, {"type": "node", "id": 1164536452, "lat": 42.2680049, "lon": 42.703504, "tags": {"air_conditioning": "yes", "internet_access": "wlan", "name": "\u10d1\u10d0\u10d2\u10e0\u10d0\u10e2\u10d8", "name:en": "Bagrati", "name:ka": "\u10d1\u10d0\u10d2\u10e0\u10d0\u10e2\u10d8", "name:ru": "\u0411\u0430\u0433\u0440\u0430\u0442\u0438", "source": "JumpStart International", "stars": "5", "tourism": "hotel", "wheelchair": "limited"}}, {"type": "node", "id": 1164536701, "lat": 42.2675231, "lon": 42.7095907, "tags": {"addr:housenumber": "13", "amenity": "cafe", "name": "\u10d3\u10d8\u10d0\u10dc\u10d0", "name:en": "Diana", "name:ka": "\u10d3\u10d8\u10d0\u10dc\u10d0", "name:ru": "\u0414\u0438\u0430\u043d\u0430", "source": "JumpStart International"}}, {"type": "node", "id": 1164537009, "lat": 42.2704934, "lon": 42.7132573, "tags": {"name": "\u10e1\u10d0\u10e1\u10e2\u10e3\u10db\u10e0\u10dd \u10d2\u10d4\u10da\u10d0\u10d7\u10d8", "name:en": "Hotel Gelati", "name:ka": "\u10e1\u10d0\u10e1\u10e2\u10e3\u10db\u10e0\u10dd \u10d2\u10d4\u10da\u10d0\u10d7\u10d8", "source": "JumpStart International", "tourism": "hotel"}}, {"type": "node", "id": 1164537052, "lat": 42.2734483, "lon": 42.7023912, "tags": {"amenity": "restaurant", "name": "\u10ef\u10d0\u10ed\u10d5\u10d8\u10e1 \u10ee\u10d8\u10d3\u10d8 XXI", "name:en": "Jachvis Khidi XXI", "name:ka": "\u10ef\u10d0\u10e9\u10d5\u10d8\u10e1 \u10ea\u10d8\u10d3\u10d8 XXI", "source": "JumpStart International"}}, {"type": "node", "id": 1164537405, "lat": 42.2687919, "lon": 42.7024352, "tags": {"addr:city": "\u10e5\u10e3\u10d7\u10d0\u10d8\u10e1\u10d8", "addr:housenumber": "6", "addr:postcode": "4600", "addr:street": "\u10d0\u10da\u10d4\u10e5\u10e1\u10d0\u10dc\u10d3\u10e0\u10d4 \u10de\u10e3\u10e8\u10d9\u10d8\u10dc\u10d8\u10e1 \u10e5\u10e3\u10e9\u10d0", "amenity": "restaurant", "check_date": "2023-07-26", "cuisine": "georgian", "internet_access": "wlan", "name": "\u10e5\u10d0\u10e0\u10d7\u10e3\u10da\u10d8", "name:en": "Georgian", "name:ka": "\u10e5\u10d0\u10e0\u10d7\u10e3\u10da\u10d8"}}, {"type": "node", "id": 1164538147, "lat": 42.264898, "lon": 42.7085602, "tags": {"amenity": "cafe", "name": "\u10db\u10d8\u10da\u10d0\u10dc\u10dd", "name:en": "Milano", "name:ka": "\u10db\u10d8\u10da\u10d0\u10dc\u10dd", "source": "JumpStart International"}}, {"type": "node", "id": 1164538743, "lat": 42.269006, "lon": 42.7015669, "tags": {"check_date": "2023-07-26", "name": "\u10eb\u10d5\u10d4\u10da\u10d8 \u10e5\u10d0\u10da\u10d0\u10e5\u10d8", "name:en": "Old Town", "name:ka": "\u10eb\u10d5\u10d4\u10da\u10d8 \u10e5\u10d0\u10da\u10d0\u10e5\u10d8", "source": "JumpStart International", "tourism": "hotel"}}, {"type": "node", "id": 1164539057, "lat": 42.2784586, "lon": 42.7001706, "tags": {"name": "\u10d2\u10d8\u10dd\u10e0\u10d2\u10d8\u10e1 \u10f0\u10dd\u10e3\u10db\u10e1\u10d7\u10d4\u10d8", "name:en": "Giorgi's Homestay", "name:ka": "\u10d2\u10d8\u10dd\u10e0\u10d2\u10d8\u10e1 \u10f0\u10dd\u10e3\u10db\u10e1\u10d7\u10d4\u10d8", "source": "JumpStart International", "tourism": "guest_house"}}, {"type": "node", "id": 1164539358, "lat": 42.2506037, "lon": 42.7189865, "tags": {"name": "\u10d6\u10d4\u10da\u10d8\u10db\u10ee\u10d0\u10dc\u10d8\u10e1 \u10e1\u10d0\u10e1\u10e2\u10e3\u10db\u10e0\u10dd", "name:en": "Zelimkhan's Guesthouse", "name:ka": "\u10d6\u10d4\u10da\u10d8\u10db\u10ee\u10d0\u10dc\u10d8\u10e1 \u10e1\u10d0\u10e1\u10e2\u10e3\u10db\u10e0\u10dd", "source": "JumpStart International", "tourism": "guest_house"}}, {"type": "node", "id": 1164539561, "lat": 42.2731776, "lon": 42.7057904, "tags": {"name": "\u10e1\u10d0\u10e1\u10e2\u10e3\u10db\u10e0\u10dd \u10d4\u10d3\u10d4\u10db\u10d8", "name:en": "Edem Hotel", "name:ka": "\u10e1\u10d0\u10e1\u10e2\u10e3\u10db\u10e0\u10dd \u10d4\u10d3\u10d4\u10db\u10d8", "source": "JumpStart International", "tourism": "hotel"}}, {"type": "node", "id": 1164539563, "lat": 42.2677992, "lon": 42.7099661, "tags": {"source": "JumpStart International", "tourism": "guest_house"}}, {"type": "node", "id": 1164539572, "lat": 42.2685031, "lon": 42.7000078, "tags": {"amenity": "cafe", "check_date": "2023-07-01", "name": "\u10d7\u10d4\u10d7\u10e0\u10d8 \u10e5\u10d5\u10d4\u10d1\u10d8", "name:en": "White Stones", "name:ka": "\u10d7\u10d4\u10d7\u10e0\u10d8 \u10e5\u10d5\u10d4\u10d1\u10d8", "source": "JumpStart International"}}, {"type": "node", "id": 1437463719, "lat": 42.271523, "lon": 42.7045034, "tags": {"historic": "memorial", "int_name": "Ishkhneli Sisters", "memorial": "sculpture", "name": "\u10d3\u10d4\u10d1\u10d8 \u10d8\u10e8\u10ee\u10dc\u10d4\u10da\u10d4\u10d1\u10d8", "name:en": "Ishkhneli Sisters", "name:ru": "\u0421\u0451\u0441\u0442\u0440\u044b \u0418\u0448\u0445\u043d\u0435\u043b\u0438", "subject:wikidata": "Q4448755", "subject:wikipedia": "ka:\u10d3\u10d4\u10d1\u10d8 \u10d8\u10e8\u10ee\u10dc\u10d4\u10da\u10d4\u10d1\u10d8"}}, {"type": "node", "id": 1437463720, "lat": 42.2711227, "lon": 42.7030113, "tags": {"historic": "memorial", "int_name": "Zakaria Paliashvili", "memorial": "statue", "name": "\u10d6\u10d0\u10e5\u10d0\u10e0\u10d8\u10d0 \u10e4\u10d0\u10da\u10d8\u10d0\u10e8\u10d5\u10d8\u10da\u10d8", "name:en": "Zakaria Paliashvili", "name:ru": "\u0417\u0430\u0445\u0430\u0440\u0438\u0439 \u041f\u0430\u043b\u0438\u0430\u0448\u0432\u0438\u043b\u0438", "subject:wikidata": "Q732613", "subject:wikipedia": "ka:\u10d6\u10d0\u10e5\u10d0\u10e0\u10d8\u10d0 \u10e4\u10d0\u10da\u10d8\u10d0\u10e8\u10d5\u10d8\u10da\u10d8"}}, {"type": "node", "id": 1437471755, "lat": 42.2699038, "lon": 42.7027576, "tags": {"barrier": "entrance", "foot": "designated", "name": "Mon-Plaisir", "tourism": "attraction"}}, {"type": "node", "id": 1437471757, "lat": 42.2702821, "lon": 42.7032144, "tags": {"artist_name": "Shota Bostanashvili;Vakhtang Davitaia", "historic": "monument", "name": "\u10d3\u10d8\u10d3\u10d4\u10d1\u10d0 \u10e8\u10e0\u10dd\u10db\u10d0\u10e1", "name:en": "Glory to Work", "name:ka": "\u10d3\u10d8\u10d3\u10d4\u10d1\u10d0 \u10e8\u10e0\u10dd\u10db\u10d0\u10e1", "name:ru": "\u0421\u043b\u0430\u0432\u0430 \u0442\u0440\u0443\u0434\u0443", "start_date": "1981"}}, {"type": "node", "id": 2271410632, "lat": 42.2670956, "lon": 42.7046224, "tags": {"name": "Hostel Center", "tourism": "hostel"}}, {"type": "node", "id": 2272337294, "lat": 42.2706801, "lon": 42.7059563, "tags": {"addr:city": "\u10e5\u10e3\u10d7\u10d0\u10d8\u10e1\u10d8", "amenity": "restaurant", "cuisine": "regional;pizza", "internet_access": "wlan", "name": "\u10d1\u10d0\u10e0\u10d0\u10e5\u10d0", "name:en": "Baraqa"}}, {"type": "node", "id": 2544595718, "lat": 42.2680766, "lon": 42.7066552, "tags": {"addr:city": "\u10e5\u10e3\u10d7\u10d0\u10d8\u10e1\u10d8", "addr:country": "GE", "addr:housenumber": "25", "addr:postcode": "4600", "addr:street": "\u10d7\u10d0\u10db\u10d0\u10e0 \u10db\u10d4\u10e4\u10d8\u10e1 \u10e5\u10e3\u10e9\u10d0", "internet_access": "wlan", "name": "Kiev-Kutaisi family hostel", "name:en": "Hotel Tamar Mepe", "name:ka": "Hotel Tamar Mepe", "tourism": "guest_house", "website": "https://www.booking.com/Share-JnESjy"}}, {"type": "node", "id": 2544671801, "lat": 42.2674647, "lon": 42.7034954, "tags": {"contact:mobile": "+995 599 68 44 28;+995 599 98 41 72", "internet_access": "wlan", "internet_access:fee": "yes", "name": "Rioni", "tourism": "guest_house"}}, {"type": "node", "id": 3175572496, "lat": 42.2667751, "lon": 42.7057386, "tags": {"addr:city": "\u10e5\u10e3\u10d7\u10d0\u10d8\u10e1\u10d8", "addr:country": "GE", "addr:housenumber": "5", "addr:street": "\u10d0\u10da\u10d4\u10e5\u10e1\u10d0\u10dc\u10d3\u10e0\u10d4 \u10ee\u10d0\u10ee\u10d0\u10dc\u10d0\u10e8\u10d5\u10d8\u10da\u10d8\u10e1 \u10e5\u10e3\u10e9\u10d0", "contact:email": "sophie_arveladze@yahoo.com", "contact:mobile": "+995 599 27 74 55", "name": "Imeri", "name:ru": "\u0418\u043c\u0435\u0440\u0438", "tourism": "guest_house"}}, {"type": "node", "id": 3598537290, "lat": 42.2705692, "lon": 42.702463, "tags": {"addr:city": "\u10e5\u10e3\u10d7\u10d0\u10d8\u10e1\u10d8", "addr:housenumber": "5", "addr:postcode": "4600", "addr:street": "\u10e8\u10dd\u10d7\u10d0 \u10e0\u10e3\u10e1\u10d7\u10d0\u10d5\u10d4\u10da\u10d8\u10e1 \u10d2\u10d0\u10db\u10d6\u10d8\u10e0\u10d8", "amenity": "cafe", "check_date": "2023-07-01", "contact:mobile": "+995 592 13 21 21", "email": "althaustea1@gmail.com", "internet_access": "wlan", "name": "\u10e9\u10d0\u10d8\u10e1 \u10e1\u10d0\u10ee\u10da\u10d8 \u10e4\u10dd\u10d4-\u10e4\u10dd\u10d4", "name:en": "Tea House Foe-Foe", "name:ka": "\u10e9\u10d0\u10d8\u10e1 \u10e1\u10d0\u10ee\u10da\u10d8 \u10e4\u10dd\u10d4-\u10e4\u10dd\u10d4", "name:ru": "Tea House Foe-Foe", "website": "http://www.althaustea.ge"}}, {"type": "node", "id": 3613041293, "lat": 42.273573, "lon": 42.7074544, "tags": {"name:en": "Discovery", "tourism": "hotel"}}, {"type": "node", "id": 3613041393, "lat": 42.2736305, "lon": 42.707337, "tags": {"addr:housenumber": "11", "addr:street": "\u10dc\u10d8\u10e3\u10de\u10dd\u10e0\u10e2\u10d8\u10e1 \u10e5\u10e3\u10e9\u10d0", "name:en": "Rero", "tourism": "hotel"}}, {"type": "node", "id": 3665471768, "lat": 42.2816627, "lon": 42.7018435, "tags": {"addr:city": "\u10e5\u10e3\u10d7\u10d0\u10d8\u10e1\u10d8", "addr:housenumber": "50", "addr:street": "\u10db\u10d0\u10db\u10e3\u10d9\u10d0 \u10d0\u10e1\u10da\u10d0\u10dc\u10d8\u10d9\u10d0\u10e8\u10d5\u10d8\u10da\u10d8\u10e1 \u10e5\u10e3\u10e9\u10d0", "contact:mobile": "+995 555 64 22 25", "internet_access": "wlan", "name": "Guesthouse \"Kharabadze\"", "tourism": "guest_house"}}, {"type": "node", "id": 3682549787, "lat": 42.2707909, "lon": 42.7012014, "tags": {"addr:city": "\u10e5\u10e3\u10d7\u10d0\u10d8\u10e1\u10d8", "addr:housenumber": "8", "addr:postcode": "4600", "addr:street": "\u10e8\u10dd\u10d7\u10d0 \u10e0\u10e3\u10e1\u10d7\u10d0\u10d5\u10d4\u10da\u10d8\u10e1 \u10d2\u10d0\u10db\u10d6\u10d8\u10e0\u10d8", "check_date": "2023-08-15", "contact:mobile": "+995 599 25 35 75", "name": "\u10d3\u10d0\u10d5\u10d8\u10d7 \u10d9\u10d0\u10d9\u10d0\u10d1\u10d0\u10eb\u10d8\u10e1 \u10e1\u10d0\u10ee\u10d4\u10da\u10dd\u10d1\u10d8\u10e1 \u10e5\u10e3\u10d7\u10d0\u10d8\u10e1\u10d8\u10e1 \u10e1\u10d0\u10ee\u10d5\u10d8\u10d7\u10d8 \u10ee\u10d4\u10da\u10dd\u10d5\u10dc\u10d4\u10d1\u10d8\u10e1 \u10d2\u10d0\u10da\u10d4\u10e0\u10d4\u10d0", "name:en": "David Kakabadze Kutaisi Fine Art Gallery", "operator": "Eliso Chogovadze", "shop": "art", "tourism": "gallery"}}, {"type": "node", "id": 3689796566, "lat": 42.2684146, "lon": 42.7109417, "tags": {"addr:city": "\u10e5\u10e3\u10d7\u10d0\u10d8\u10e1\u10d8", "addr:housenumber": "32", "addr:postcode": "4600", "addr:street": "\u10d8\u10d0\u10d9\u10dd\u10d1 \u10d2\u10dd\u10d2\u10d4\u10d1\u10d0\u10e8\u10d5\u10d8\u10da\u10d8\u10e1 \u10e5\u10e3\u10e9\u10d0", "contact:mobile": "+995 597 03 07 30", "name": "Kutaisi Hotel California", "smoking": "isolated", "tourism": "hotel"}}, {"type": "node", "id": 3788255663, "lat": 42.2688958, "lon": 42.7020405, "tags": {"addr:city": "\u10e5\u10e3\u10d7\u10d0\u10d8\u10e1\u10d8", "addr:floor": "G", "addr:housenumber": "1", "addr:postcode": "4600", "addr:street": "\u10db\u10d8\u10ee\u10d4\u10d8\u10da \u10d3\u10d0\u10d5\u10d8\u10d7\u10d0\u10e8\u10d5\u10d8\u10da\u10d8\u10e1 \u10e5\u10e3\u10e9\u10d0", "air_conditioning": "yes", "amenity": "restaurant", "check_date": "2025-09-14", "cuisine": "regional", "int_name": "Palaty", "internet_access": "wlan", "internet_access:fee": "customers", "level": "0", "name": "\u10de\u10d0\u10da\u10d0\u10e2\u10d8", "name:en": "Palaty", "name:hu": "Palaty \u00e9tterem", "name:ka": "\u10de\u10d0\u10da\u10d0\u10e2\u10d8", "name:ru": "\u041f\u0430\u043b\u0430\u0442\u044b", "opening_hours": "Mo-Su 09:00-00:00", "outdoor_seating": "yes", "payment:mastercard": "yes", "payment:visa": "yes", "source": "local knowledge", "wheelchair": "limited"}}, {"type": "node", "id": 3789160857, "lat": 42.2774242, "lon": 42.7033989, "tags": {"addr:housenumber": "25", "addr:street": "Bagrati St.", "contact:mobile": "+995 555 76 76 98;+995 551 16 41 62", "name": "GUEST HOUSE \u201cBAGRATI\u201d", "tourism": "guest_house"}}, {"type": "node", "id": 4059774603, "lat": 42.2729702, "lon": 42.7054274, "tags": {"addr:city": "\u10e5\u10e3\u10d7\u10d0\u10d8\u10e1\u10d8", "addr:housenumber": "37", "addr:postcode": "4600", "addr:street": "\u10d6\u10d0\u10e5\u10d0\u10e0\u10d8\u10d0 \u10e4\u10d0\u10da\u10d8\u10d0\u10e8\u10d5\u10d8\u10da\u10d8\u10e1 \u10e5\u10e3\u10e9\u10d0", "amenity": "cafe", "name": "\u10d0\u10e0\u10e2 \u10d9\u10d0\u10e4\u10d4 \u10d1\u10da\u10e3\u10d6\u10d8", "name:en": "Art Cafe Blues"}}, {"type": "node", "id": 4075449067, "lat": 42.2643021, "lon": 42.7086619, "tags": {"name": "Hostel Bude", "tourism": "hostel"}}, {"type": "node", "id": 4104433189, "lat": 42.2513615, "lon": 42.7181657, "tags": {"addr:housenumber": "48", "addr:street": "\u10d5\u10d0\u10ee\u10e3\u10e8\u10e2\u10d8 \u10d1\u10d0\u10d2\u10e0\u10d0\u10e2\u10d8\u10dd\u10dc\u10d8\u10e1 \u10e5\u10e3\u10e9\u10d0", "contact:mobile": "+995 559 71 63 76", "internet_access": "wlan", "name": "Sano", "tourism": "hotel", "website": "hotel-sano.ge"}}, {"type": "node", "id": 4214392289, "lat": 42.2683681, "lon": 42.7021072, "tags": {"addr:city": "\u10e5\u10e3\u10d7\u10d0\u10d8\u10e1\u10d8", "addr:housenumber": "N 7", "addr:postcode": "4600", "addr:street": "\u10db\u10d8\u10ee\u10d4\u10d8\u10da \u10d3\u10d0\u10d5\u10d8\u10d7\u10d0\u10e8\u10d5\u10d8\u10da\u10d8\u10e1 \u10e5\u10e3\u10e9\u10d0", "check_date": "2025-08-27", "contact:mobile": "+995 598 66 84 48", "internet_access": "wlan", "internet_access:fee": "no", "name": "\u10db\u10e7\u10e3\u10d3\u10e0\u10dd", "name:en": "Mkudro", "name:ka": "\u10db\u10e7\u10e3\u10d3\u10e0\u10dd", "smoking": "no", "tourism": "hotel", "wheelchair": "no"}}, {"type": "node", "id": 4263191290, "lat": 42.2670308, "lon": 42.7053265, "tags": {"addr:housenumber": "12", "addr:street": "\u10d2\u10d8\u10dd\u10e0\u10d2\u10d8 \u10ef\u10d8\u10d1\u10da\u10d0\u10eb\u10d8\u10e1 \u10e5\u10e3\u10e9\u10d0", "contact:mobile": "+995 577 35 11 87", "name": "hostel sweet home", "tourism": "hostel"}}, {"type": "node", "id": 4312442490, "lat": 42.2637535, "lon": 42.7121832, "tags": {"addr:housenumber": "4", "addr:postcode": "4600", "addr:street": "\u10db\u10d4\u10e4\u10d4 \u10e1\u10dd\u10da\u10dd\u10db\u10dd\u10dc \u10de\u10d8\u10e0\u10d5\u10d4\u10da\u10d8\u10e1 \u10e5\u10e3\u10e9\u10d0", "contact:mobile": "+995 558 57 42 53", "email": "vitali.zelen@gmail.com", "internet_access": "wlan", "opening_hours": "24/7", "tourism": "apartment", "website": "https://facebook.com/DailyRentInKutaisi/"}}, {"type": "node", "id": 4321341894, "lat": 42.2652123, "lon": 42.7117646, "tags": {"name": "diplomati", "tourism": "hotel"}}, {"type": "node", "id": 4331058706, "lat": 42.26884, "lon": 42.7037112, "tags": {"amenity": "restaurant", "cuisine": "georgian", "internet_access": "wlan", "name": "Praha", "name:en": "Prague"}}, {"type": "node", "id": 4331078099, "lat": 42.2722813, "lon": 42.7048489, "tags": {"name": "Kutaisi Museum of Sport", "opening_hours": "Tu-Su 10:00-17:00", "tourism": "museum", "wikidata": "Q16867138", "wikipedia": "en:Kutaisi Museum of Sport"}}, {"type": "node", "id": 4335495974, "lat": 42.281634, "lon": 42.7076279, "tags": {"addr:housenumber": "1", "addr:street": "\u10e0\u10e3\u10d0\u10e1 \u10e5\u10e3\u10e9\u10d0", "internet_access": "wlan", "name": "\"\u0414\u043e\u043c \u0434\u043b\u044f \u0432\u0441\u0435\u0445\"", "tourism": "guest_house"}}, {"type": "node", "id": 4355083200, "lat": 42.2654571, "lon": 42.7194322, "tags": {"addr:housenumber": "1", "addr:street": "\u10db\u10d4\u10e4\u10d4 \u10e1\u10dd\u10da\u10dd\u10db\u10dd\u10dc \u10db\u10d4\u10dd\u10e0\u10d8\u10e1 \u10e5\u10e3\u10e9\u10d0", "contact:mobile": "+995 595 53 30 77", "internet_access": "wlan", "name": "Guest house Sapichxia", "opening_hours": "24/7", "operator": "David Gvarakidze", "tourism": "guest_house"}}, {"type": "node", "id": 4357298493, "lat": 42.2670918, "lon": 42.7074275, "tags": {"addr:city": "\u10e5\u10e3\u10d7\u10d0\u10d8\u10e1\u10d8", "addr:housenumber": "37", "addr:postcode": "4600", "addr:street": "\u10d7\u10d0\u10db\u10d0\u10e0 \u10db\u10d4\u10e4\u10d8\u10e1 \u10e5\u10e3\u10e9\u10d0", "contact:mobile": "+995 599 98 88 04", "int_name": "Star Hostel", "name": "Star Hostel", "name:en": "Star Hostel", "operator": "Vano", "smoking": "separated", "tourism": "hostel", "wikidata": "Q111125933"}}, {"type": "node", "id": 4359158993, "lat": 42.2664375, "lon": 42.7140528, "tags": {"contact:mobile": "+995 593 36 40 60", "name:en": "Hotel Rio", "tourism": "hotel"}}, {"type": "node", "id": 4361574696, "lat": 42.2653663, "lon": 42.7195834, "tags": {"contact:mobile": "+995 595 53 30 77", "int_name": "Sapichxia", "tourism": "hostel"}}, {"type": "node", "id": 4362743893, "lat": 42.2639228, "lon": 42.7150495, "tags": {"addr:housenumber": "14", "addr:street": "\u10d9\u10dd\u10dc\u10e1\u10e2\u10d0\u10dc\u10e2\u10d8\u10dc\u10d4 \u10e2\u10e7\u10d0\u10d1\u10da\u10d0\u10eb\u10d8\u10e1 \u10e5\u10e3\u10e9\u10d0", "name:en": "Basko", "tourism": "guest_house"}}, {"type": "node", "id": 4375576293, "lat": 42.2701808, "lon": 42.7060422, "tags": {"historic": "memorial", "memorial": "statue", "name": "\u10dc\u10d8\u10d9\u10dd \u10dc\u10d8\u10d9\u10dd\u10da\u10d0\u10eb\u10d4", "name:en": "Niko Nikoladze", "name:ka": "\u10dc\u10d8\u10d9\u10dd \u10dc\u10d8\u10d9\u10dd\u10da\u10d0\u10eb\u10d4", "name:ru": "\u041d\u0438\u043a\u043e \u041d\u0438\u043a\u043e\u043b\u0430\u0434\u0437\u0435", "subject:wikidata": "Q3651051", "subject:wikipedia": "ka:\u10dc\u10d8\u10d9\u10dd \u10dc\u10d8\u10d9\u10dd\u10da\u10d0\u10eb\u10d4"}}, {"type": "node", "id": 4375587392, "lat": 42.2688264, "lon": 42.7033872, "tags": {"amenity": "restaurant", "name": "Prague"}}, {"type": "node", "id": 4378667889, "lat": 42.267745, "lon": 42.715918, "tags": {"contact:phone": "+995 431 24 30 07", "name": "Medico & Suliko guest house", "name:en": "Medico & Suliko guest house", "tourism": "guest_house"}}, {"type": "node", "id": 4379598393, "lat": 42.2669979, "lon": 42.7160477, "tags": {"addr:housenumber": "89", "addr:street": "\u10d7\u10d1\u10d8\u10da\u10d8\u10e1\u10d8\u10e1 \u10e5\u10e3\u10e9\u10d0", "contact:mobile": "+995 555 64 47 50", "name:en": "Hostel Temuri Correct Location", "tourism": "hostel"}}, {"type": "node", "id": 4391815793, "lat": 42.2699638, "lon": 42.7022058, "tags": {"addr:housenumber": "5", "addr:postcode": "4600", "addr:street": "\u10ea\u10d8\u10e1\u10e4\u10d4\u10e0\u10e7\u10d0\u10dc\u10ec\u10d4\u10da\u10d4\u10d1\u10d8\u10e1 \u10e5\u10e3\u10e9\u10d0", "amenity": "restaurant", "contact:mobile": "+995 598 65 45 76", "cuisine": "georgian;fine_dining", "internet_access": "wlan", "name": "Papavero Restaurant", "name:en": "Papavero Restaurant", "name:ka": "Papavero Restaurant", "opening_hours": "Mo-Su 10:00-00:00", "website": "https://www.restaurantpapavero.ge"}}, {"type": "node", "id": 4398430809, "lat": 42.2692849, "lon": 42.7020465, "tags": {"name:en": "Empire hotel", "tourism": "hotel"}}, {"type": "node", "id": 4408332493, "lat": 42.2639017, "lon": 42.7150771, "tags": {"contact:mobile": "+995 551 70 47 27", "internet_access": "wlan", "name": "basko", "tourism": "guest_house"}}, {"type": "node", "id": 4409073992, "lat": 42.2639651, "lon": 42.7150457, "tags": {"contact:mobile": "+995 551 70 47 27", "internet_access": "wlan", "name:en": "Basko", "tourism": "guest_house"}}, {"type": "node", "id": 4506408348, "lat": 42.2619227, "lon": 42.7155603, "tags": {"name": "Sisi Guest House", "tourism": "guest_house"}}, {"type": "node", "id": 4552716689, "lat": 42.2717178, "lon": 42.7009525, "tags": {"artwork_type": "relief", "description": "Amazing Soviet mural", "name:en": "Pano \"Kolkheti\"", "tourism": "artwork"}}, {"type": "node", "id": 4795556966, "lat": 42.2735931, "lon": 42.7074679, "tags": {"name": "Veneto Guesthouse", "tourism": "guest_house"}}, {"type": "node", "id": 4795562322, "lat": 42.2765316, "lon": 42.702829, "tags": {"addr:housenumber": "16", "addr:street": "\u10d1\u10d0\u10d2\u10e0\u10d0\u10e2\u10d8\u10e1 \u10e5\u10e3\u10e9\u10d0", "contact:mobile": "+995 577 67 59 00;+995 599 47 47 36", "name": "Sozari", "tourism": "hostel"}}, {"type": "node", "id": 4823836521, "lat": 42.2689661, "lon": 42.7085414, "tags": {"contact:mobile": "+995 557 24 85 85", "internet_access": "wlan", "name": "\u10d7\u10d4\u10dd\u10d3\u10dd\u10e0\u10d0", "name:en": "HOSTEL THEODORA", "name:ka": "\u10d7\u10d4\u10dd\u10d3\u10dd\u10e0\u10d0", "tourism": "hostel"}}, {"type": "node", "id": 4860448554, "lat": 42.2641291, "lon": 42.7071661, "tags": {"name": "Hostel Lviv", "tourism": "hostel"}}, {"type": "node", "id": 4934426223, "lat": 42.2771706, "lon": 42.7207936, "tags": {"name:ru": "Aloft house", "tourism": "guest_house"}}, {"type": "node", "id": 4973838021, "lat": 42.256737, "lon": 42.7022572, "tags": {"addr:housenumber": "17", "addr:street": "\u10d6\u10e3\u10e0\u10d0\u10d1 \u10d0\u10dc\u10ef\u10d0\u10e4\u10d0\u10e0\u10d8\u10eb\u10d8\u10e1 \u10e5\u10e3\u10e9\u10d0", "amenity": "restaurant", "cuisine": "georgian", "name:en": "Sanapiro", "name:ka": "\u10e1\u10d0\u10dc\u10d0\u10de\u10d8\u10e0\u10dd", "name:ru": "\u0421\u0430\u043d\u0430\u043f\u0438\u0440\u043e"}}, {"type": "node", "id": 4999637421, "lat": 42.2691392, "lon": 42.7028474, "tags": {"amenity": "restaurant", "check_date": "2023-07-01", "cuisine": "georgian", "internet_access": "wlan", "name:en": "Tiflisi", "opening_hours": "Mo-Su 11:00-23:00"}}, {"type": "node", "id": 5024429378, "lat": 42.274448, "lon": 42.7176234, "tags": {"name": "Green House", "tourism": "guest_house"}}, {"type": "node", "id": 5060055922, "lat": 42.2700505, "lon": 42.7016425, "tags": {"historic": "memorial", "memorial": "statue", "name": "\u10d5\u10da\u10d0\u10d3\u10d8\u10db\u10d4\u10e0 \u10db\u10d0\u10d8\u10d0\u10d9\u10dd\u10d5\u10e1\u10d9\u10d8", "name:en": "Vladimir Mayakovsky", "name:ka": "\u10d5\u10da\u10d0\u10d3\u10d8\u10db\u10d4\u10e0 \u10db\u10d0\u10d8\u10d0\u10d9\u10dd\u10d5\u10e1\u10d9\u10d8", "name:ru": "\u0412\u043b\u0430\u0434\u0438\u043c\u0438\u0440 \u041c\u0430\u044f\u043a\u043e\u0432\u0441\u043a\u0438\u0439", "subject:wikidata": "Q132964", "subject:wikipedia": "ka:\u10d5\u10da\u10d0\u10d3\u10d8\u10db\u10d4\u10e0 \u10db\u10d0\u10d8\u10d0\u10d9\u10dd\u10d5\u10e1\u10d9\u10d8", "wikimedia_commons": "File:Kuataisi 1-st Public school (10).jpg"}}, {"type": "node", "id": 5082961822, "lat": 42.2612577, "lon": 42.7149739, "tags": {"name": "Guest House GEO", "tourism": "guest_house"}}, {"type": "node", "id": 5082990721, "lat": 42.2613688, "lon": 42.7149377, "tags": {"addr:housenumber": "8", "addr:street": "\u10d5\u10d8\u10e5\u10e2\u10dd\u10e0 \u10d9\u10e3\u10de\u10e0\u10d0\u10eb\u10d8\u10e1 \u10e5\u10e3\u10e9\u10d0", "internet_access": "wlan", "name": "GEO Guest House", "name:en": "Geo guest house", "tourism": "guest_house"}}, {"type": "node", "id": 5121949421, "lat": 42.274393, "lon": 42.7060735, "tags": {"addr:housenumber": "32b", "addr:postcode": "46000", "addr:street": "\u10e4\u10d4\u10da\u10d8\u10e5\u10e1 \u10d5\u10d0\u10e0\u10da\u10d0\u10db\u10d8\u10e8\u10d5\u10d8\u10da\u10d8\u10e1 \u10e5\u10e3\u10e9\u10d0", "internet_access": "wlan", "name:en": "Guest House Slavyanka", "opening_hours": "Mo-Su 13:00-22:00", "tourism": "guest_house"}}, {"type": "node", "id": 5165154928, "lat": 42.2673751, "lon": 42.7030633, "tags": {"addr:city": "\u10e5\u10e3\u10d7\u10d0\u10d8\u10e1\u10d8", "addr:housenumber": "7", "addr:postcode": "4600", "addr:street": "\u10d0\u10d9\u10d0\u10d9\u10d8 \u10ec\u10d4\u10e0\u10d4\u10d7\u10da\u10d8\u10e1 IV \u10e9\u10d8\u10ee\u10d8", "brand": "Hotel sanapiro", "internet_access": "wlan", "name": "Sanapiro Hotel", "rooms": "9", "tourism": "hotel"}}, {"type": "node", "id": 5257525321, "lat": 42.2770337, "lon": 42.7029145, "tags": {"addr:housenumber": "23", "addr:street": "\u10d1\u10d0\u10d2\u10e0\u10d0\u10e2\u10d8\u10e1 \u10e5\u10e3\u10e9\u10d0", "amenity": "restaurant", "contact:facebook": "https://www.facebook.com/ourgardenkutaisi", "internet_access": "wlan", "name": "Our Garden Cafe Bar", "name:en": "Our Garden", "opening_hours": "Mo-Su 11:00-22:30"}}, {"type": "node", "id": 5620926406, "lat": 42.2687333, "lon": 42.7058729, "tags": {"check_date": "2025-10-11", "internet_access": "wlan", "internet_access:fee": "no", "name": "White House", "tourism": "guest_house"}}, {"type": "node", "id": 5641767221, "lat": 42.2728068, "lon": 42.7048337, "tags": {"check_date": "2023-07-02", "name": "\u10e1\u10d0\u10d1\u10e0\u10eb\u10dd\u10da\u10dd \u10d3\u10d8\u10d3\u10d4\u10d1\u10d8\u10e1 \u10d4\u10e0\u10dd\u10d5\u10dc\u10e3\u10da\u10d8 \u10db\u10e3\u10d6\u10d4\u10e3\u10db\u10d8", "name:en": "Museum of Military Glory", "tourism": "museum", "wikidata": "Q6448320"}}, {"type": "node", "id": 5739272826, "lat": 42.2676553, "lon": 42.7146587, "tags": {"addr:housenumber": "92", "addr:street": "\u10d7\u10d1\u10d8\u10da\u10d8\u10e1\u10d8\u10e1 \u10e5\u10e3\u10e9\u10d0", "addr:street:en": "Tbilisi St.", "check_date": "2025-07-01", "internet_access": "wlan", "name": "Hostel Forrest", "name:en": "Hostel Forrest", "name:ko": "\ud638\uc2a4\ud154 \ud3ec\ub808\uc2a4\ud2b8", "opening_hours": "24/7", "tourism": "hostel"}}, {"type": "node", "id": 5760042921, "lat": 42.2695887, "lon": 42.7073876, "tags": {"addr:housenumber": "7", "addr:street": "\u10d8\u10d0\u10d9\u10dd\u10d1 \u10d2\u10dd\u10d2\u10d4\u10d1\u10d0\u10e8\u10d5\u10d8\u10da\u10d8\u10e1 \u10e5\u10e3\u10e9\u10d0", "name": "Nana's Home", "tourism": "guest_house"}}, {"type": "node", "id": 5838129689, "lat": 42.2707376, "lon": 42.7101685, "tags": {"name:en": "Guest House old kutaisi", "tourism": "hostel"}}, {"type": "node", "id": 5838536597, "lat": 42.2718291, "lon": 42.7083721, "tags": {"name": "Hotel Comfort", "name:en": "Guest House old kutaisi", "tourism": "hostel"}}, {"type": "node", "id": 5839692056, "lat": 42.2658226, "lon": 42.7125391, "tags": {"addr:street": "\u10db\u10d4\u10e4\u10d4 \u10e1\u10dd\u10da\u10dd\u10db\u10dd\u10dc \u10de\u10d8\u10e0\u10d5\u10d4\u10da\u10d8\u10e1 \u10e5\u10e3\u10e9\u10d0", "internet_access": "wlan", "name": "Edemi", "tourism": "hotel"}}, {"type": "node", "id": 5893026085, "lat": 42.268913, "lon": 42.7049221, "tags": {"addr:city": "\u10e5\u10e3\u10d7\u10d0\u10d8\u10e1\u10d8", "amenity": "restaurant", "internet_access": "wlan", "name:en": "Story House Restaurant"}}, {"type": "node", "id": 5899630385, "lat": 42.2689259, "lon": 42.7055789, "tags": {"amenity": "restaurant", "internet_access": "wlan", "name": "Juicy Lucy"}}, {"type": "node", "id": 5929212486, "lat": 42.2699645, "lon": 42.7027246, "tags": {"amenity": "cafe", "check_date": "2023-07-01", "cuisine": "coffee_shop", "internet_access": "wlan", "name:en": "Lavazza"}}, {"type": "node", "id": 5960569185, "lat": 42.2632018, "lon": 42.7139316, "tags": {"addr:housenumber": "3", "addr:street": "\u10d5\u10d8\u10e5\u10e2\u10dd\u10e0 \u10d9\u10e3\u10de\u10e0\u10d0\u10eb\u10d8\u10e1 I \u10e8\u10d4\u10e1\u10d0\u10ee\u10d5\u10d4\u10d5\u10d8", "name": "\u10e1\u10d0\u10dd\u10ef\u10d0\u10ee\u10dd \u10e1\u10d0\u10e1\u10e2\u10e3\u10db\u10e0\u10dd", "name:en": "Guest House Hello", "tourism": "guest_house"}}, {"type": "node", "id": 5960569186, "lat": 42.2705236, "lon": 42.70163, "tags": {"historic": "memorial", "memorial": "statue", "name": "\u10d4\u10e5\u10d5\u10d7\u10d8\u10db\u10d4 \u10d7\u10d0\u10e7\u10d0\u10d8\u10e8\u10d5\u10d8\u10da\u10d8", "name:en": "Ekvtime Takaishvili", "name:ka": "\u10d4\u10e5\u10d5\u10d7\u10d8\u10db\u10d4 \u10d7\u10d0\u10e7\u10d0\u10d8\u10e8\u10d5\u10d8\u10da\u10d8", "name:ru": "\u042d\u043a\u0432\u0442\u0438\u043c\u0435 \u0422\u0430\u043a\u0430\u0438\u0448\u0432\u0438\u043b\u0438", "subject:wikidata": "Q732247", "subject:wikipedia": "ka:\u10d4\u10e5\u10d5\u10d7\u10d8\u10db\u10d4 \u10d7\u10d0\u10e7\u10d0\u10d8\u10e8\u10d5\u10d8\u10da\u10d8", "wikimedia_commons": "File:Kuataisi 1-st Public school (7).jpg"}}, {"type": "node", "id": 6024535687, "lat": 42.2689464, "lon": 42.7057504, "tags": {"amenity": "cafe", "name": "\u10e1\u10d0\u10dc\u10d8\u10db\u10e3\u10e8\u10dd 2008", "name:en": "Sanimusho 2008", "name:ru": "\u0421\u0430\u043d\u0438\u043c\u0443\u0448\u043e 2008 (\u043e\u0431\u0440\u0430\u0437\u0446\u043e\u0432\u044b\u0439)"}}, {"type": "node", "id": 6046032385, "lat": 42.2692196, "lon": 42.7009134, "tags": {"amenity": "restaurant", "name:en": "Gardenia"}}, {"type": "node", "id": 6053202800, "lat": 42.2753183, "lon": 42.7077019, "tags": {"name:en": "King", "tourism": "hostel"}}, {"type": "node", "id": 6237896586, "lat": 42.2643872, "lon": 42.708536, "tags": {"addr:postcode": "4600", "addr:street": "\u10d7\u10d0\u10db\u10d0\u10e0 \u10db\u10d4\u10e4\u10d8\u10e1 \u10e5\u10e3\u10e9\u10d0", "amenity": "cafe", "cuisine": "sandwich;hot_dog;georgian", "name": "\u10d8\u10db\u10de\u10d4\u10e0\u10d0\u10e2\u10dd\u10e0\u10d8", "name:en": "Imperator", "name:ru": "\u0418\u043c\u043f\u0435\u0440\u0430\u0442\u043e\u0440", "opening_hours": "Mo-Su 10:00-19:00"}}, {"type": "node", "id": 6321379486, "lat": 42.2788497, "lon": 42.7094575, "tags": {"amenity": "place_of_worship", "name:de": "Kirche im Baum", "name:en": "Church in a tree", "religion": "christian", "tourism": "attraction"}}, {"type": "node", "id": 6322533689, "lat": 42.2661045, "lon": 42.7078194, "tags": {"addr:street": "\u10d7\u10d0\u10db\u10d0\u10e0 \u10db\u10d4\u10e4\u10d8\u10e1 \u10e5\u10e3\u10e9\u10d0", "amenity": "restaurant", "microbrewery": "yes", "name": "\u10d1\u10d0\u10d2\u10e0\u10d0\u10e2\u10d8", "name:en": "Bagrati", "name:ru": "\u0411\u0430\u0433\u0440\u0430\u0442\u0438"}}, {"type": "node", "id": 6388582586, "lat": 42.2606477, "lon": 42.7143477, "tags": {"contact:facebook": "https://www.facebook.com/dingohostel/", "name": "Dingo Backpackers Hostel", "name:en": "Dingo Backpackers Hostel", "tourism": "hostel", "wikidata": "Q111125931"}}, {"type": "node", "id": 6506397185, "lat": 42.2543711, "lon": 42.7098709, "tags": {"amenity": "restaurant", "name:en": "Sesame"}}, {"type": "node", "id": 6629110788, "lat": 42.2704343, "lon": 42.7049898, "tags": {"addr:city": "\u10e5\u10e3\u10d7\u10d0\u10d8\u10e1\u10d8", "amenity": "restaurant", "check_date": "2023-08-26", "name": "\u10d0\u10d2\u10d4\u10e0\u10d0\u10e0\u10d8", "name:en": "Agerari", "name:ka": "\u10d0\u10d2\u10d4\u10e0\u10d0\u10e0\u10d8", "payment:american_express": "yes", "payment:contactless": "yes", "payment:credit_cards": "yes", "payment:debit_cards": "yes", "payment:mastercard": "yes", "payment:visa": "yes", "website:menu": "https://mnu-agerari-c1c5720.fesvi.co/t/MTQ/menu"}}, {"type": "node", "id": 6660771885, "lat": 42.2686293, "lon": 42.7095727, "tags": {"addr:housenumber": "24", "addr:postcode": "4600", "addr:street": "\u10d8\u10d0\u10d9\u10dd\u10d1 \u10d2\u10dd\u10d2\u10d4\u10d1\u10d0\u10e8\u10d5\u10d8\u10da\u10d8\u10e1 \u10e5\u10e3\u10e9\u10d0", "contact:mobile": "+995 568 77 73 21", "internet_access": "wlan", "name:en": "Black Tomato Hostel", "opening_hours": "24/7", "tourism": "hostel"}}, {"type": "node", "id": 6700027386, "lat": 42.2672479, "lon": 42.7070388, "tags": {"addr:housenumber": "34", "addr:postcode": "4800", "addr:street": "\u10d7\u10d0\u10db\u10d0\u10e0 \u10db\u10d4\u10e4\u10d8\u10e1 \u10e5\u10e3\u10e9\u10d0", "internet_access": "wlan", "name:en": "Hostel Fortuna Correct Location", "opening_hours": "24/7", "tourism": "hostel"}}, {"type": "node", "id": 6700027388, "lat": 42.2694245, "lon": 42.7011433, "tags": {"artwork_type": "sculpture", "tourism": "artwork"}}, {"type": "node", "id": 6700027389, "lat": 42.2709398, "lon": 42.7034816, "tags": {"historic": "memorial", "memorial": "statue", "name": "\u10d0\u10d9\u10d0\u10d9\u10d8 \u10ec\u10d4\u10e0\u10d4\u10d7\u10d4\u10da\u10d8", "name:en": "Akaki Tsereteli", "name:ka": "\u10d0\u10d9\u10d0\u10d9\u10d8 \u10ec\u10d4\u10e0\u10d4\u10d7\u10d4\u10da\u10d8", "name:ru": "\u0410\u043a\u0430\u043a\u0438\u0439 \u0426\u0435\u0440\u0435\u0442\u0435\u043b\u0438", "subject:wikidata": "Q379612", "subject:wikipedia": "ka:\u10d0\u10d9\u10d0\u10d9\u10d8 \u10ec\u10d4\u10e0\u10d4\u10d7\u10d4\u10da\u10d8"}}, {"type": "node", "id": 6700027488, "lat": 42.268816, "lon": 42.7007656, "tags": {"alt_name:en": "Man with Two Hats", "artwork_type": "statue", "description": "A boy from the scene of the georgian movie \"Arachveulebrivi gamopena\" (\"An Unusual Exhibition\"), who stole hats from main characters.", "name": "\u10de\u10d8\u10d9\u10d0\u10e1\u10dd\u10e1 \u10d1\u10d8\u10ed\u10d8", "name:en": "Picasso boy", "name:ka": "\u10de\u10d8\u10d9\u10d0\u10e1\u10dd\u10e1 \u10d1\u10d8\u10ed\u10d8", "name:ru": "\u041c\u0430\u043b\u044c\u0447\u0438\u043a \u041f\u0438\u043a\u0430\u0441\u0441\u043e", "tourism": "artwork"}}, {"type": "node", "id": 6700027489, "lat": 42.2693387, "lon": 42.7014874, "tags": {"artwork_type": "sculpture", "tourism": "artwork"}}, {"type": "node", "id": 6700027490, "lat": 42.2693146, "lon": 42.701396, "tags": {"artwork_type": "sculpture", "tourism": "artwork"}}, {"type": "node", "id": 6700027491, "lat": 42.2695024, "lon": 42.701513, "tags": {"artwork_type": "sculpture", "tourism": "artwork"}}, {"type": "node", "id": 6700027492, "lat": 42.2694539, "lon": 42.701545, "tags": {"artwork_type": "sculpture", "tourism": "artwork"}}, {"type": "node", "id": 6700037785, "lat": 42.2694464, "lon": 42.7009109, "tags": {"name:en": "Jar", "tourism": "artwork"}}, {"type": "node", "id": 6700037786, "lat": 42.2693322, "lon": 42.7011593, "tags": {"tourism": "artwork"}}, {"type": "node", "id": 6706133686, "lat": 42.2800465, "lon": 42.7113869, "tags": {"name:en": "Sculpture", "tourism": "artwork"}}, {"type": "node", "id": 6706133689, "lat": 42.2787666, "lon": 42.7094657, "tags": {"name:en": "Church Bell", "tourism": "attraction"}}, {"type": "node", "id": 6706133786, "lat": 42.2793361, "lon": 42.7092423, "tags": {"name:en": "Old Carriage", "tourism": "attraction"}}, {"type": "node", "id": 6706133789, "lat": 42.2797409, "lon": 42.7099668, "tags": {"artwork_type": "sculpture", "tourism": "artwork"}}, {"type": "node", "id": 6706137285, "lat": 42.2796494, "lon": 42.7094919, "tags": {"name:en": "Water Well", "tourism": "attraction"}}, {"type": "node", "id": 6709795685, "lat": 42.2710333, "lon": 42.7043753, "tags": {"historic": "memorial", "memorial": "sculpture", "name": "9 \u10d0\u10de\u10e0\u10d8\u10da\u10d8\u10e1 \u10db\u10d4\u10db\u10dd\u10e0\u10d8\u10d0\u10da\u10d8", "name:en": "9th April Memorial", "name:ka": "9 \u10d0\u10de\u10e0\u10d8\u10da\u10d8\u10e1 \u10db\u10d4\u10db\u10dd\u10e0\u10d8\u10d0\u10da\u10d8", "name:ru": "\u041c\u0435\u043c\u043e\u0440\u0438\u0430\u043b 9 \u0430\u043f\u0440\u0435\u043b\u044f"}}, {"type": "node", "id": 6770340886, "lat": 42.2662234, "lon": 42.7156621, "tags": {"name:en": "Head", "tourism": "attraction"}}, {"type": "node", "id": 6802441194, "lat": 42.271967, "lon": 42.7041725, "tags": {"addr:city": "\u10e5\u10e3\u10d7\u10d0\u10d8\u10e1\u10d8", "addr:housenumber": "33", "addr:postcode": "4600", "addr:street": "\u10d6\u10d0\u10e5\u10d0\u10e0\u10d8\u10d0 \u10e4\u10d0\u10da\u10d8\u10d0\u10e8\u10d5\u10d8\u10da\u10d8\u10e1 \u10e5\u10e3\u10e9\u10d0", "amenity": "restaurant", "contact:email": "debitvaradzeebi@yahoo.com", "contact:facebook": "https://www.facebook.com/Debiishxnelebidan/", "contact:mobile": "+995 591 81 22 65", "cuisine": "georgian", "internet_access": "wlan", "name": "\u10d3\u10d4\u10d1\u10d8", "name:en": "Sisters", "name:ru": "\u0421\u0451\u0441\u0442\u0440\u044b"}}, {"type": "node", "id": 6831308731, "lat": 42.2707926, "lon": 42.7055267, "tags": {"addr:floor": "G", "amenity": "restaurant", "bar": "yes", "brewery": "yes", "check_date": "2023-08-26", "cuisine": "regional", "description": "Khinkali", "level": "0", "name": "\u10d4\u10da \u10de\u10d0\u10e1\u10dd", "name:en": "El Paso", "name:ka": "\u10d4\u10da \u10de\u10d0\u10e1\u10dd", "payment:mastercard": "yes", "payment:visa": "yes", "smoking": "no", "wheelchair": "limited"}}, {"type": "node", "id": 6876941485, "lat": 42.2705682, "lon": 42.70235, "tags": {"amenity": "restaurant", "check_date": "2023-07-01", "cuisine": "georgian;italian;asian", "internet_access": "wlan", "name:en": "Paolo"}}, {"type": "node", "id": 6881381285, "lat": 42.2721368, "lon": 42.7056019, "tags": {"addr:housenumber": "1", "addr:postcode": "4600", "addr:street": "\u10d3\u10d0\u10d5\u10d8\u10d7 \u10d0\u10e6\u10db\u10d0\u10e8\u10d4\u10dc\u10d4\u10d1\u10da\u10d8\u10e1 \u10db\u10dd\u10d4\u10d3\u10d0\u10dc\u10d8", "board_type": "notice", "contact:mobile": "+995 577 67 45 18", "email": "kakosulava@gmail.com", "information": "board", "name": "\u10e3\u10e4\u10d0\u10e1\u10dd \u10e1\u10d0\u10e4\u10d4\u10ee\u10db\u10d0\u10d5\u10da\u10dd \u10e2\u10e3\u10e0\u10d8", "name:en": "Kutaisi Free Walking Tour", "opening_hours": "Mo-Su 11:00-12:50", "tourism": "information", "website": "https://www.tripadvisor.com/Attraction_Review-d17406121?m=19905"}}, {"type": "node", "id": 6883642171, "lat": 42.2719704, "lon": 42.7082623, "tags": {"name": "Hotel Comfort", "tourism": "guest_house"}}, {"type": "node", "id": 6893740486, "lat": 42.2732703, "lon": 42.707464, "tags": {"tourism": "apartment"}}, {"type": "node", "id": 6902059981, "lat": 42.2723937, "lon": 42.7103517, "tags": {"addr:housenumber": "44", "addr:street": "\u10d2\u10d4\u10da\u10d0\u10d7\u10d8\u10e1 \u10e5\u10e3\u10e9\u10d0", "name": "Panorama Guest House", "tourism": "guest_house"}}, {"type": "node", "id": 6902067856, "lat": 42.2727253, "lon": 42.7077404, "tags": {"addr:housenumber": "10", "addr:street": "\u10d2\u10d4\u10da\u10d0\u10d7\u10d8\u10e1 \u10e5\u10e3\u10e9\u10d0", "name": "Guest House Aisi", "tourism": "guest_house"}}, {"type": "node", "id": 6902075526, "lat": 42.2727651, "lon": 42.7086238, "tags": {"addr:housenumber": "18", "addr:street": "\u10d2\u10d4\u10da\u10d0\u10d7\u10d8\u10e1 \u10e5\u10e3\u10e9\u10d0", "name": "Kutaisi Best Guest House", "tourism": "guest_house"}}, {"type": "node", "id": 6902095278, "lat": 42.2723663, "lon": 42.7095711, "tags": {"addr:housenumber": "38", "addr:street": "\u10d2\u10d4\u10da\u10d0\u10d7\u10d8\u10e1 \u10e5\u10e3\u10e9\u10d0", "name": "Rion Guest House", "tourism": "guest_house"}}, {"type": "node", "id": 6902104737, "lat": 42.2726326, "lon": 42.7091297, "tags": {"addr:housenumber": "28", "addr:street": "\u10d2\u10d4\u10da\u10d0\u10d7\u10d8\u10e1 \u10e5\u10e3\u10e9\u10d0", "name": "Guest House Gelati-2", "tourism": "guest_house"}}, {"type": "node", "id": 6948587785, "lat": 42.2720963, "lon": 42.7061483, "tags": {"addr:city": "\u10e5\u10e3\u10d7\u10d0\u10d8\u10e1\u10d8", "amenity": "restaurant", "cuisine": "georgian", "internet_access": "wlan", "name:en": "Destino"}}, {"type": "node", "id": 6963043185, "lat": 42.2775795, "lon": 42.7295885, "tags": {"contact:mobile": "+995 551 04 56 00", "name:en": "Sofia", "tourism": "guest_house"}}, {"type": "node", "id": 7028557185, "lat": 42.2784102, "lon": 42.7050634, "tags": {"addr:housenumber": "18", "addr:street": "\u10de\u10d4\u10e2\u10e0\u10d4 \u10d8\u10d1\u10d4\u10e0\u10d8\u10e1 \u10e5\u10e3\u10e9\u10d0", "contact:mobile": "+995 555 76 47 84", "internet_access": "wlan", "name": "Guest House Royal Comfort", "name:en": "Guest House Royal Comfort", "tourism": "guest_house"}}, {"type": "node", "id": 7143374985, "lat": 42.2638593, "lon": 42.7102059, "tags": {"addr:city": "\u10e5\u10e3\u10d7\u10d0\u10d8\u10e1\u10d8", "amenity": "restaurant", "cuisine": "indian", "name": "\u10d8\u10dc\u10d3\u10e3\u10e0\u10d8 \"\u10e0\u10d4\u10e1\u10e2\u10dd\u10e0\u10d0\u10dc\u10d8\"", "name:en": "Indian restaurant", "name:hi": "\u092d\u093e\u0930\u0924\u0940\u092f \u0930\u0947\u0938\u094d\u091f\u094b\u0930\u0947\u0902\u091f", "name:ru": "\u0418\u043d\u0434\u0438\u0439\u0441\u043a\u0438\u0439 \"\u0440\u0435\u0441\u0442\u043e\u0440\u0430\u043d\""}}, {"type": "node", "id": 8075133536, "lat": 42.254244, "lon": 42.7058888, "tags": {"check_date": "2023-07-09", "name": "\u10d7\u10dd\u10da\u10d8\u10d0", "name:ka": "\u10d7\u10dd\u10da\u10d8\u10d0", "tourism": "hotel"}}, {"type": "node", "id": 8095958717, "lat": 42.2825743, "lon": 42.7157872, "tags": {"addr:housenumber": "9", "addr:postcode": "4600", "addr:street": "Mosashvili St.", "contact:mobile": "+995 595 41 15 47", "email": "raftinginkutaisi@gmail.com", "internet_access": "wlan", "name": "\u10ef\u10dd\u10db\u10d0\u10e0\u10d3\u10dd\u10d1\u10d0 \u10e5\u10e3\u10d7\u10d0\u10d8\u10e1\u10e8\u10d8", "name:en": "Rafting in Kutaisi", "opening_hours": "Mo-Su 08:00-19:00", "tourism": "camp_site", "website": "https://www.raftinginkutaisi.com/"}}, {"type": "node", "id": 8730308117, "lat": 42.2635719, "lon": 42.7126823, "tags": {"amenity": "restaurant", "name:en": "Small restaurant"}}, {"type": "node", "id": 8730322117, "lat": 42.261009, "lon": 42.71475, "tags": {"name": "JA", "tourism": "guest_house"}}, {"type": "node", "id": 8736054018, "lat": 42.2697822, "lon": 42.7061195, "tags": {"addr:housenumber": "11", "addr:postcode": "4600", "addr:street": "\u10d7\u10d0\u10db\u10d0\u10e0 \u10db\u10d4\u10e4\u10d8\u10e1 \u10e5\u10e3\u10e9\u10d0", "amenity": "restaurant", "contact:mobile": "+995 555 23 31 31", "diet:vegan": "no", "diet:vegetarian": "yes", "internet_access": "wlan", "name": "\u10da\u10d8\u10da\u10d4\u10e1\u10d7\u10d0\u10dc", "name:en": "Lilestan", "outdoor_seating": "yes"}}, {"type": "node", "id": 9026382518, "lat": 42.2679981, "lon": 42.7069119, "tags": {"addr:street": "\u10d7\u10d0\u10db\u10d0\u10e0 \u10db\u10d4\u10e4\u10d8\u10e1 \u10e5\u10e3\u10e9\u10d0", "amenity": "restaurant", "check_date": "2023-07-14", "contact:mobile": "+995 595 52 03 35", "cuisine": "georgian;italian", "internet_access": "wlan", "name:en": "Caf\u00e9 Fleur", "payment:mastercard": "yes", "payment:visa": "yes", "website": "https://www.facebook.com/cafefleurofficial/"}}, {"type": "node", "id": 9035068417, "lat": 42.2608963, "lon": 42.7147004, "tags": {"name:en": "JA Guest House (real location)", "tourism": "guest_house"}}, {"type": "node", "id": 9133823029, "lat": 42.2728378, "lon": 42.7065135, "tags": {"check_date": "2025-06-27", "contact:phone": "+995 32 219 27 01", "email": "contact@newporthotelkutaisi.com", "name": "\u10dc\u10d8\u10e3\u10de\u10dd\u10e0\u10e2\u10d8 \u10e1\u10d0\u10e1\u10e2\u10e3\u10db\u10e0\u10dd \u10e5\u10e3\u10d7\u10d0\u10d8\u10e1\u10d8", "name:en": "Newport Hotel Kutaisi", "name:fr": "H\u00f4tel Newport Kutaisi", "tourism": "hotel", "website": "http://nhkutaisi.com"}}, {"type": "node", "id": 9244131417, "lat": 42.2698384, "lon": 42.7026658, "tags": {"artist_name": "Vinie", "artwork_subject": "street_art", "artwork_type": "mural", "start_date": "2016", "tourism": "artwork", "wikimedia_commons": "File:Artwork_by_French_street_artist_Vinie,_painted_in_2016_in_Kutaisi.jpg"}}, {"type": "node", "id": 9778525869, "lat": 42.2762511, "lon": 42.7024218, "tags": {"currency:BCH": "yes", "currency:BTG": "yes", "currency:DASH": "yes", "currency:LTC": "yes", "currency:USDT": "yes", "currency:XBT": "yes", "currency:ZEC": "yes", "name": "Green Town", "payment:lightning": "yes", "payment:lightning_contactless": "no", "payment:onchain": "yes", "tourism": "hotel"}}, {"type": "node", "id": 9778585757, "lat": 42.2643794, "lon": 42.7051716, "tags": {"addr:housenumber": "58", "addr:street": "\u10d0\u10d9\u10d0\u10d9\u10d8 \u10ec\u10d4\u10e0\u10d4\u10d7\u10da\u10d8\u10e1 \u10e5\u10e3\u10e9\u10d0", "air_conditioning": "yes", "brand": "Four Seasons", "brand:wikidata": "Q1424786", "check_date": "2022-09-16", "contact:mobile": "+995 551 82 82 56", "internet_access": "wlan", "internet_access:fee": "customers", "name": "Four Seasons Riverside", "name:en": "Four Seasons Riverside", "opening_hours": "24/7", "payment:cash": "yes", "payment:credit_cards": "yes", "payment:mastercard": "yes", "payment:visa": "yes", "reservation": "required", "tourism": "hotel", "wheelchair": "no"}}, {"type": "node", "id": 10009454017, "lat": 42.2745624, "lon": 42.7211757, "tags": {"addr:housenumber": "18", "addr:street": "\u10d2\u10d4\u10da\u10d0\u10d7\u10d8\u10e1 \u10e5\u10e3\u10e9\u10d0", "name": "\u041f\u0430\u043d\u043e\u0440\u0430\u043c\u0430", "name:en": "Panorama", "name:ka": "Panorama", "tourism": "hostel"}}, {"type": "node", "id": 10233169941, "lat": 42.2897347, "lon": 42.740606, "tags": {"direction": "260", "source": "local knowledge", "tourism": "viewpoint"}}, {"type": "node", "id": 10575128320, "lat": 42.2721507, "lon": 42.7426529, "tags": {"tourism": "viewpoint"}}, {"type": "node", "id": 10575128321, "lat": 42.2717875, "lon": 42.7449703, "tags": {"tourism": "viewpoint"}}, {"type": "node", "id": 10588208932, "lat": 42.2642647, "lon": 42.7058892, "tags": {"check_date": "2023-07-08", "contact:mobile": "+995 591 44 00 69", "email": "arthotelkutaisi@gmail.com", "internet_access": "wlan", "internet_access:fee": "no", "name": "Art Hotel Kutaisi", "tourism": "hotel", "website": "https://arthotel.ge"}}, {"type": "node", "id": 10848030893, "lat": 42.2763432, "lon": 42.7040472, "tags": {"tourism": "viewpoint"}}, {"type": "node", "id": 10967663040, "lat": 42.2639404, "lon": 42.7074771, "tags": {"name": "Family Comfort", "tourism": "apartment"}}, {"type": "node", "id": 10967729106, "lat": 42.2751918, "lon": 42.7040139, "tags": {"artwork_type": "relief", "tourism": "artwork"}}, {"type": "node", "id": 10967731605, "lat": 42.2745958, "lon": 42.7029047, "tags": {"name:en": "Traveler", "tourism": "hotel"}}, {"type": "node", "id": 10967894805, "lat": 42.2708868, "lon": 42.7083718, "tags": {"historic": "memorial", "memorial": "plaque", "name": "\u10d8\u10d0\u10d9\u10dd\u10d1 \u10dc\u10d8\u10d9\u10dd\u10da\u10d0\u10eb\u10d4", "name:en": "Iakob Nikoladze", "name:ka": "\u10d8\u10d0\u10d9\u10dd\u10d1 \u10dc\u10d8\u10d9\u10dd\u10da\u10d0\u10eb\u10d4", "name:ru": "\u042f\u043a\u043e\u0432 \u041d\u0438\u043a\u043e\u043b\u0430\u0434\u0437\u0435", "openplaques:id": "58832", "subject:wikidata": "Q201135", "subject:wikipedia": "ka:\u10d8\u10d0\u10d9\u10dd\u10d1 \u10dc\u10d8\u10d9\u10dd\u10da\u10d0\u10eb\u10d4"}}, {"type": "node", "id": 10967915005, "lat": 42.2741225, "lon": 42.7085687, "tags": {"historic": "memorial", "memorial": "bust", "name": "\u10d1\u10dd\u10e0\u10d8\u10e1 \u10d2\u10d0\u10de\u10dd\u10dc\u10dd\u10d5\u10d8", "name:en": "Boris Gaponov", "name:ka": "\u10d1\u10dd\u10e0\u10d8\u10e1 \u10d2\u10d0\u10de\u10dd\u10dc\u10dd\u10d5\u10d8", "name:ru": "\u0411\u043e\u0440\u0438\u0441 \u0413\u0430\u043f\u043e\u043d\u043e\u0432", "subject:wikidata": "Q3925108", "subject:wikipedia": "ka:\u10d1\u10dd\u10e0\u10d8\u10e1 \u10d2\u10d0\u10de\u10dd\u10dc\u10dd\u10d5\u10d8"}}, {"type": "node", "id": 10968114705, "lat": 42.2722137, "lon": 42.7052426, "tags": {"historic": "memorial", "memorial": "bust", "name": "\u10da\u10d0\u10d3\u10dd \u10db\u10d4\u10e1\u10ee\u10d8\u10e8\u10d5\u10d8\u10da\u10d8", "name:en": "Lado Meskhishvili", "name:ka": "\u10da\u10d0\u10d3\u10dd \u10db\u10d4\u10e1\u10ee\u10d8\u10e8\u10d5\u10d8\u10da\u10d8", "name:ru": "\u041b\u0430\u0434\u043e \u041c\u0435\u0441\u0445\u0435\u0448\u0432\u0438\u043b\u0438", "subject:wikidata": "Q3652380", "subject:wikipedia": "ka:\u10da\u10d0\u10d3\u10dd \u10d0\u10da\u10d4\u10e5\u10e1\u10d8-\u10db\u10d4\u10e1\u10ee\u10d8\u10e8\u10d5\u10d8\u10da\u10d8"}}, {"type": "node", "id": 10975126046, "lat": 42.2742445, "lon": 42.7094995, "tags": {"artwork_type": "statue", "name": "\u10d1\u10dd\u10e0\u10d8\u10e1 \u10d2\u10d0\u10de\u10dd\u10dc\u10dd\u10d5\u10d8", "name:en": "Boris Gaponov", "name:ka": "\u10d1\u10dd\u10e0\u10d8\u10e1 \u10d2\u10d0\u10de\u10dd\u10dc\u10dd\u10d5\u10d8", "name:ru": "\u0411\u043e\u0440\u0438\u0441 \u0413\u0430\u043f\u043e\u043d\u043e\u0432", "subject:wikidata": "Q3925108", "subject:wikipedia": "ka:\u10d1\u10dd\u10e0\u10d8\u10e1 \u10d2\u10d0\u10de\u10dd\u10dc\u10dd\u10d5\u10d8", "tourism": "artwork"}}, {"type": "node", "id": 11003445556, "lat": 42.2673658, "lon": 42.7299406, "tags": {"access": "yes", "ele": "135", "fee": "no", "name": "\u10d8\u10d0\u10d6\u10dd\u10dc\u10d8\u10e1 \u10db\u10e6\u10d5\u10d8\u10db\u10d4", "name:en": "Iazoni Cave", "name:ka": "\u10d8\u10d0\u10d6\u10dd\u10dc\u10d8\u10e1 \u10db\u10e6\u10d5\u10d8\u10db\u10d4", "name:ru": "\u041f\u0435\u0449\u0435\u0440\u0430 \u0418\u0430\u0437\u043e\u043d\u0438", "natural": "cave_entrance", "opening_hours": "24/7", "tourism": "attraction", "wheelchair": "no", "wikidata": "Q16370293", "wikipedia": "ka:\u10d8\u10d0\u10d6\u10dd\u10dc\u10d8\u10e1 \u10db\u10e6\u10d5\u10d8\u10db\u10d4"}}, {"type": "node", "id": 11008013529, "lat": 42.2692786, "lon": 42.7016305, "tags": {"historic": "memorial", "memorial": "statue", "name": "\u10de\u10d0\u10dd\u10da\u10dd \u10d8\u10d0\u10e8\u10d5\u10d8\u10da\u10d8 \u10d3\u10d0 \u10e2\u10d8\u10ea\u10d8\u10d0\u10dc \u10e2\u10d0\u10d1\u10d8\u10eb\u10d4", "name:en": "Paolo Iashvili and Titsian Tabidze", "name:ka": "\u10de\u10d0\u10dd\u10da\u10dd \u10d8\u10d0\u10e8\u10d5\u10d8\u10da\u10d8 \u10d3\u10d0 \u10e2\u10d8\u10ea\u10d8\u10d0\u10dc \u10e2\u10d0\u10d1\u10d8\u10eb\u10d4", "name:ru": "\u041f\u0430\u043e\u043b\u043e \u0418\u0430\u0448\u0432\u0438\u043b\u0438 \u0438 \u0422\u0438\u0446\u0438\u0430\u043d \u0422\u0430\u0431\u0438\u0434\u0437\u0435", "start_date": "2020", "subject:wikipedia": "ka:\u10ea\u10d8\u10e1\u10e4\u10d4\u10e0\u10e7\u10d0\u10dc\u10ec\u10d4\u10da\u10d4\u10d1\u10d8"}}, {"type": "node", "id": 11008013530, "lat": 42.2707635, "lon": 42.7015048, "tags": {"historic": "memorial", "memorial": "statue", "name": "\u10d8\u10da\u10dd \u10ee\u10d0\u10ee\u10d8\u10d0\u10e8\u10d5\u10d8\u10da\u10d8", "name:en": "Ilo Khakhiashvili", "name:ka": "\u10d8\u10da\u10dd \u10ee\u10d0\u10ee\u10d8\u10d0\u10e8\u10d5\u10d8\u10da\u10d8", "name:ru": "\u0418\u043b\u043e \u0425\u0430\u0445\u0438\u0430\u0448\u0432\u0438\u043b\u0438", "start_date": "2005"}}, {"type": "node", "id": 11012732824, "lat": 42.2692838, "lon": 42.704614, "tags": {"historic": "memorial", "material": "metal", "memorial": "bust", "name": "\u10dd\u10d7\u10d0\u10e0 \u10db\u10d0\u10db\u10e4\u10dd\u10e0\u10d8\u10d0", "name:en": "Otar Mamporia", "name:ka": "\u10dd\u10d7\u10d0\u10e0 \u10db\u10d0\u10db\u10e4\u10dd\u10e0\u10d8\u10d0", "name:ru": "\u041e\u0442\u0430\u0440 \u041c\u0430\u043c\u043f\u043e\u0440\u0438\u044f", "subject:wikipedia": "ka:\u10dd\u10d7\u10d0\u10e0 \u10db\u10d0\u10db\u10e4\u10dd\u10e0\u10d8\u10d0"}}, {"type": "node", "id": 11012732825, "lat": 42.2692021, "lon": 42.7045944, "tags": {"description": "Georgian basketball player", "historic": "memorial", "material": "metal", "memorial": "bust", "name": "\u10dd\u10d7\u10d0\u10e0 \u10e1\u10e3\u10da\u10d0\u10d1\u10d4\u10e0\u10d8\u10eb\u10d4", "name:en": "Otar Sulaberidze", "name:ka": "\u10dd\u10d7\u10d0\u10e0 \u10e1\u10e3\u10da\u10d0\u10d1\u10d4\u10e0\u10d8\u10eb\u10d4", "name:ru": "\u041e\u0442\u0430\u0440 \u0421\u0443\u043b\u0430\u0431\u0435\u0440\u0438\u0434\u0437\u0435"}}, {"type": "node", "id": 11012732826, "lat": 42.2691234, "lon": 42.7045755, "tags": {"historic": "memorial", "material": "metal", "memorial": "bust", "name": "\u10dd\u10d7\u10d0\u10e0 \u10e5\u10dd\u10e0\u10e5\u10d8\u10d0", "name:en": "Otar Korkia", "name:ka": "\u10dd\u10d7\u10d0\u10e0 \u10e5\u10dd\u10e0\u10e5\u10d8\u10d0", "name:ru": "\u041e\u0442\u0430\u0440 \u041a\u043e\u0440\u043a\u0438\u044f", "subject:wikipedia": "ka:\u10dd\u10d7\u10d0\u10e0 \u10e5\u10dd\u10e0\u10e5\u10d8\u10d0"}}, {"type": "node", "id": 11012758162, "lat": 42.2702323, "lon": 42.7056354, "tags": {"historic": "memorial", "material": "metal", "memorial": "bust", "name": "\u10db\u10d4\u10e0\u10d0\u10d1 \u10d9\u10dd\u10e1\u10e2\u10d0\u10d5\u10d0", "name:en": "Merab Kostava", "name:ka": "\u10db\u10d4\u10e0\u10d0\u10d1 \u10d9\u10dd\u10e1\u10e2\u10d0\u10d5\u10d0", "name:ru": "\u041c\u0435\u0440\u0430\u0431 \u041a\u043e\u0441\u0442\u0430\u0432\u0430", "subject:wikidata": "Q1396698", "subject:wikipedia": "ka:\u10db\u10d4\u10e0\u10d0\u10d1 \u10d9\u10dd\u10e1\u10e2\u10d0\u10d5\u10d0"}}, {"type": "node", "id": 11016370805, "lat": 42.2653639, "lon": 42.705078, "tags": {"internet_access": "wlan", "name": "1887", "tourism": "hotel"}}, {"type": "node", "id": 11017724487, "lat": 42.2767676, "lon": 42.7028469, "tags": {"ele": "250", "information": "guidepost", "tourism": "information"}}, {"type": "node", "id": 11018074595, "lat": 42.2689224, "lon": 42.7026015, "tags": {"amenity": "restaurant", "check_date": "2023-07-01", "cuisine": "georgian", "name": "\u10d0\u10e3\u10e0\u10d0", "name:en": "Aura", "name:ka": "\u10d0\u10e3\u10e0\u10d0"}}, {"type": "node", "id": 11018074596, "lat": 42.2689299, "lon": 42.7027281, "tags": {"amenity": "restaurant", "check_date": "2023-07-01", "cuisine": "sushi", "name": "\u10d3\u10dd\u10e8\u10d8 \u10d3\u10dd\u10e8\u10d8", "name:en": "Doshi Doshi", "name:ka": "\u10d3\u10dd\u10e8\u10d8 \u10d3\u10dd\u10e8\u10d8", "opening_hours": "10:00-23:00", "wheelchair": "no"}}, {"type": "node", "id": 11018110606, "lat": 42.2700968, "lon": 42.7026288, "tags": {"check_date": "2023-07-01", "name:en": "Eli", "tourism": "guest_house"}}, {"type": "node", "id": 11018110608, "lat": 42.2698204, "lon": 42.70274, "tags": {"amenity": "cafe", "check_date": "2025-09-28", "cuisine": "coffee_shop", "internet_access": "no", "name": "Stretto", "outdoor_seating": "yes", "payment:cash": "yes", "payment:credit_cards": "yes", "payment:debit_cards": "yes", "wheelchair": "yes"}}, {"type": "node", "id": 11018110609, "lat": 42.269745, "lon": 42.7027517, "tags": {"air_conditioning": "yes", "check_date": "2024-05-05", "contact:mobile": "+995 599 75 00 08", "contact:website": "http://belonahotel.ge", "internet_access": "wlan", "internet_access:fee": "customers", "name:en": "Belona Hotel", "payment:cash": "yes", "payment:credit_cards": "yes", "payment:debit_cards": "yes", "reservation": "yes", "smoking": "separated", "source": "survey", "stars": "4", "tourism": "hotel"}}, {"type": "node", "id": 11019762040, "lat": 42.2780115, "lon": 42.7045288, "tags": {"ele": "203", "information": "guidepost", "tourism": "information"}}, {"type": "node", "id": 11020538081, "lat": 42.2733882, "lon": 42.7040574, "tags": {"artist_name": "Sasha Korban", "artwork_type": "mural", "description": "Grandma Daliko from a guesthouse Agroguesthouse in Gelati", "name": "\u10d1\u10d4\u10d1\u10d8\u10d0", "name:en": "Grandma", "name:ka": "\u10d1\u10d4\u10d1\u10d8\u10d0", "name:ru": "\u0411\u0430\u0431\u0443\u0448\u043a\u0430", "start_date": "2023", "tourism": "artwork"}}, {"type": "node", "id": 11020572415, "lat": 42.270869, "lon": 42.7004398, "tags": {"historic": "memorial", "memorial": "bust", "name": "\u10d5\u10da\u10d0\u10d3\u10d8\u10e1\u10da\u10d0\u10d5 \u10e0\u10d0\u10e9\u10d9\u10d4\u10d5\u10d8\u10e9\u10d8", "name:en": "W\u0142adys\u0142aw Raczkiewicz", "name:ka": "\u10d5\u10da\u10d0\u10d3\u10d8\u10e1\u10da\u10d0\u10d5 \u10e0\u10d0\u10e9\u10d9\u10d4\u10d5\u10d8\u10e9\u10d8", "name:ru": "\u0412\u043b\u0430\u0434\u0438\u0441\u043b\u0430\u0432 \u0420\u0430\u0447\u043a\u0435\u0432\u0438\u0447", "start_date": "2020", "subject:wikidata": "Q55840", "subject:wikipedia": "ka:\u10d5\u10da\u10d0\u10d3\u10d8\u10e1\u10da\u10d0\u10d5 \u10e0\u10d0\u10e9\u10d9\u10d4\u10d5\u10d8\u10e9\u10d8"}}, {"type": "node", "id": 11027911260, "lat": 42.2773291, "lon": 42.703612, "tags": {"board_type": "history", "information": "board", "name": "\u10d1\u10d0\u10d2\u10e0\u10d0\u10e2\u10d8\u10e1 \u10e2\u10d0\u10eb\u10e0\u10d8\u10e1 \u10e0\u10d4\u10d9\u10dd\u10dc\u10e1\u10e2\u10e0\u10e3\u10e5\u10ea\u10d8\u10d8\u10e1 \u10d8\u10e1\u10e2\u10dd\u10e0\u10d8\u10e1 1900-1994 \u10ec.\u10ec.", "name:en": "The history of the reconstruction of Bagrati cathedral from 1900 to 1994", "tourism": "information"}}, {"type": "node", "id": 11034357266, "lat": 42.2693971, "lon": 42.7031437, "tags": {"artwork_type": "sculpture", "tourism": "artwork"}}, {"type": "node", "id": 11034357267, "lat": 42.2692616, "lon": 42.7031538, "tags": {"historic": "memorial", "memorial": "statue"}}, {"type": "node", "id": 11034386265, "lat": 42.2692188, "lon": 42.7043629, "tags": {"check_date": "2023-07-08", "name:en": "Kutaisi sunrise", "tourism": "guest_house"}}, {"type": "node", "id": 11034386270, "lat": 42.2695484, "lon": 42.7044695, "tags": {"amenity": "cafe", "check_date": "2023-07-08"}}, {"type": "node", "id": 11034386285, "lat": 42.2700151, "lon": 42.7033081, "tags": {"artwork_type": "sculpture", "tourism": "artwork"}}, {"type": "node", "id": 11034741371, "lat": 42.2707812, "lon": 42.7006595, "tags": {"artwork_type": "mural", "name": "\u10e4\u10e0\u10d7\u10dd\u10e1\u10d0\u10dc\u10d8 \u10db\u10e6\u10d4\u10d1\u10d0\u10d5\u10d8", "name:en": "Flying painter", "name:ka": "\u10e4\u10e0\u10d7\u10dd\u10e1\u10d0\u10dc\u10d8 \u10db\u10e6\u10d4\u10d1\u10d0\u10d5\u10d8", "name:ru": "\u041b\u0435\u0442\u0430\u044e\u0449\u0438\u0439 \u0445\u0443\u0434\u043e\u0436\u043d\u0438\u043a", "tourism": "artwork"}}, {"type": "node", "id": 11035628344, "lat": 42.2591082, "lon": 42.709536, "tags": {"artwork_type": "mural", "tourism": "artwork"}}, {"type": "node", "id": 11035630123, "lat": 42.2544635, "lon": 42.7061101, "tags": {"amenity": "cafe", "check_date": "2023-07-09", "name": "Dietfood"}}, {"type": "node", "id": 11040274807, "lat": 42.2690768, "lon": 42.7045126, "tags": {"information": "map", "tourism": "information"}}, {"type": "node", "id": 11059989099, "lat": 42.269657, "lon": 42.7020225, "tags": {"artwork_type": "graffiti", "tourism": "artwork"}}, {"type": "node", "id": 11069735802, "lat": 42.2688108, "lon": 42.7010155, "tags": {"amenity": "restaurant", "check_date": "2023-07-26"}}, {"type": "node", "id": 11069779479, "lat": 42.2683222, "lon": 42.7019363, "tags": {"check_date": "2025-08-27", "contact:mobile": "+995 597 50 02 05", "name": "\u10d2\u10d0\u10dc\u10e2\u10d8\u10d0\u10d3\u10d8", "name:en": "Gantiadi", "name:ka": "\u10d2\u10d0\u10dc\u10e2\u10d8\u10d0\u10d3\u10d8", "tourism": "hotel"}}, {"type": "node", "id": 11069801234, "lat": 42.2690163, "lon": 42.7016224, "tags": {"amenity": "restaurant", "check_date": "2023-07-26", "cuisine": "thai", "name": "\u10e1\u10d8\u10d0\u10db\u10d8", "name:en": "Siam", "name:ka": "\u10e1\u10d8\u10d0\u10db\u10d8", "opening_hours": "08:00-23:00"}}, {"type": "node", "id": 11069801235, "lat": 42.268932, "lon": 42.701371, "tags": {"check_date": "2023-07-26", "name": "\u10db\u10d4\u10e4\u10d4 \u10d3\u10d0\u10d5\u10d8\u10d7\u10d8", "name:en": "King David", "name:ka": "\u10db\u10d4\u10e4\u10d4 \u10d3\u10d0\u10d5\u10d8\u10d7\u10d8", "payment:american_express": "yes", "payment:contactless": "yes", "payment:credit_cards": "yes", "payment:debit_cards": "yes", "payment:mastercard": "yes", "payment:visa": "yes", "tourism": "hotel", "wheelchair": "no"}}, {"type": "node", "id": 11069813332, "lat": 42.269548, "lon": 42.7014069, "tags": {"artwork_type": "sculpture", "tourism": "artwork"}}, {"type": "node", "id": 11069813333, "lat": 42.2695275, "lon": 42.7013048, "tags": {"artwork_type": "sculpture", "tourism": "artwork"}}, {"type": "node", "id": 11069813334, "lat": 42.2693288, "lon": 42.701306, "tags": {"artwork_type": "sculpture", "tourism": "artwork"}}, {"type": "node", "id": 11069813335, "lat": 42.269428, "lon": 42.701232, "tags": {"artwork_type": "sculpture", "tourism": "artwork"}}, {"type": "node", "id": 11069813336, "lat": 42.2692418, "lon": 42.701375, "tags": {"artwork_type": "sculpture", "tourism": "artwork"}}, {"type": "node", "id": 11069813337, "lat": 42.26924, "lon": 42.7013228, "tags": {"artwork_type": "sculpture", "tourism": "artwork"}}, {"type": "node", "id": 11069813338, "lat": 42.2692536, "lon": 42.701264, "tags": {"artwork_type": "sculpture", "tourism": "artwork"}}, {"type": "node", "id": 11069813339, "lat": 42.2693652, "lon": 42.7011104, "tags": {"artwork_type": "sculpture", "tourism": "artwork"}}, {"type": "node", "id": 11075631863, "lat": 42.2759826, "lon": 42.7148337, "tags": {"tourism": "viewpoint"}}, {"type": "node", "id": 11076573069, "lat": 42.2616885, "lon": 42.7109828, "tags": {"check_date": "2023-07-30", "name:en": "Kutaisi Inn", "tourism": "hotel"}}, {"type": "node", "id": 11083952804, "lat": 42.2631708, "lon": 42.7097334, "tags": {"artwork_type": "graffiti", "tourism": "artwork"}}, {"type": "node", "id": 11083952967, "lat": 42.2653957, "lon": 42.7082566, "tags": {"artwork_type": "graffiti", "tourism": "artwork"}}, {"type": "node", "id": 11084000308, "lat": 42.2665174, "lon": 42.7075677, "tags": {"artwork_type": "graffiti", "tourism": "artwork"}}, {"type": "node", "id": 11117465227, "lat": 42.2707947, "lon": 42.7016854, "tags": {"amenity": "cafe", "check_date": "2023-08-15", "name": "\u10de\u10d8\u10d0\u10e2\u10dd", "name:en": "Piatto", "name:ka": "\u10de\u10d8\u10d0\u10e2\u10dd", "opening_hours": "10:00-22:00"}}, {"type": "node", "id": 11146059078, "lat": 42.2703785, "lon": 42.7050066, "tags": {"check_date": "2023-08-26", "name": "\u10e5\u10d0\u10e0\u10d7\u10e3\u10da\u10d8 \u10e1\u10d0\u10ee\u10da\u10d8", "name:en": "Georgian House", "name:ka": "\u10e5\u10d0\u10e0\u10d7\u10e3\u10da\u10d8 \u10e1\u10d0\u10ee\u10da\u10d8", "tourism": "hotel"}}, {"type": "node", "id": 11146059083, "lat": 42.2702637, "lon": 42.705136, "tags": {"amenity": "restaurant", "check_date": "2023-08-26", "name": "\u10e5\u10d0\u10e0\u10d7\u10e3\u10da\u10d8 \u10e1\u10d0\u10ee\u10da\u10d8", "name:en": "Georgian House", "name:ka": "\u10e5\u10d0\u10e0\u10d7\u10e3\u10da\u10d8 \u10e1\u10d0\u10ee\u10da\u10d8"}}, {"type": "node", "id": 11146064420, "lat": 42.2691311, "lon": 42.7050887, "tags": {"historic": "memorial", "material": "metal", "memorial": "statue", "name": "\u10d5\u10d0\u10e1\u10d8\u10da \u10d0\u10db\u10d0\u10e8\u10e3\u10d9\u10d4\u10da\u10d8", "name:en": "Vasil Amashukeli", "name:ka": "\u10d5\u10d0\u10e1\u10d8\u10da \u10d0\u10db\u10d0\u10e8\u10e3\u10d9\u10d4\u10da\u10d8"}}, {"type": "node", "id": 11150539393, "lat": 42.264834, "lon": 42.7053609, "tags": {"artwork_type": "graffiti", "tourism": "artwork"}}, {"type": "node", "id": 11158678165, "lat": 42.2644136, "lon": 42.7064361, "tags": {"addr:city": "\u10e5\u10e3\u10d7\u10d0\u10d8\u10e1\u10d8", "addr:housenumber": "N3", "addr:postcode": "4602", "addr:street": "Tsereteli 1st Lane", "air_conditioning": "yes", "guest_house": "guest_house", "internet_access": "yes", "internet_access:fee": "customers", "name": "Guesthouse Gua", "tourism": "guest_house"}}, {"type": "node", "id": 11201911338, "lat": 42.2733634, "lon": 42.7071159, "tags": {"name": "\u10e4\u10dd\u10e2\u10dd-\u10d9\u10d8\u10dc\u10dd \u10db\u10d0\u10e2\u10d8\u10d0\u10dc\u10d4\u10e1 \u10db\u10d8\u10d6\u10d4\u10e3\u10db\u10d8", "name:en": "Photo-cinema Chronicle Museum", "tourism": "museum"}}, {"type": "node", "id": 11209570337, "lat": 42.2745907, "lon": 42.7052272, "tags": {"name": "Gorda", "tourism": "guest_house"}}, {"type": "node", "id": 11224368960, "lat": 42.2723427, "lon": 42.7097107, "tags": {"contact:mobile": "+995 579 09 42 22", "description": "Very nice little rental apartment with high build quality. The owners speak English, German, Russian and Georgian.", "name": "Terrace Center", "tourism": "apartment", "website": "https://www.booking.com/hotel/ge/terrace-center.de.html"}}, {"type": "node", "id": 11226678737, "lat": 42.2745121, "lon": 42.7151867, "tags": {"name:en": "Nice view", "tourism": "viewpoint"}}, {"type": "node", "id": 11231014737, "lat": 42.2671972, "lon": 42.7118878, "tags": {"addr:housenumber": "24", "addr:street": "\u10d9\u10dd\u10dc\u10e1\u10e2\u10d0\u10dc\u10e2\u10d8\u10dc\u10d4 \u10db\u10d9\u10e3\u10e0\u10dc\u10d0\u10da\u10d8\u10e1 \u10e5\u10e3\u10e9\u10d0", "name:en": "Bani", "tourism": "guest_house"}}, {"type": "node", "id": 11479136569, "lat": 42.2727011, "lon": 42.701079, "tags": {"addr:housenumber": "16", "addr:postcode": "4600", "addr:street": "\u10db\u10d8\u10ee\u10d4\u10d8\u10da \u10da\u10d4\u10e0\u10db\u10dd\u10dc\u10e2\u10dd\u10d5\u10d8\u10e1 \u10e5\u10e3\u10e9\u10d0", "contact:mobile": "+995 579 22 80 57", "internet_access": "wlan", "name": "\u10e1\u10d0\u10e1\u10e2\u10e3\u10db\u10e0\u10dd \u10e5\u10e3\u10d7\u10d0\u10d8\u10e1\u10e8\u10d8", "name:en": "Georgian Palace", "tourism": "hotel", "website": "https://georgian-palace-hotel.business.site"}}, {"type": "node", "id": 11730054769, "lat": 42.2681383, "lon": 42.7039857, "tags": {"addr:postcode": "4600", "contact:mobile": "+995 551 44 47 74", "internet_access": "wlan", "name": "\u10f0\u10dd\u10e1\u10e2\u10d4\u10da\u10d8 \u10d1\u10d0\u10dd", "name:en": "Bao Hostel", "tourism": "hostel"}}, {"type": "node", "id": 11837472969, "lat": 42.2736536, "lon": 42.7160367, "tags": {"addr:housenumber": "18", "internet_access": "wlan", "name:en": "Panorama Guest House", "tourism": "guest_house"}}, {"type": "node", "id": 11838437127, "lat": 42.2671201, "lon": 42.7043945, "tags": {"addr:city": "\u10e5\u10e3\u10d7\u10d0\u10d8\u10e1\u10d8", "addr:housenumber": "29", "addr:postcode": "4600", "addr:street": "\u10d0\u10d9\u10d0\u10d9\u10d8 \u10ec\u10d4\u10e0\u10d4\u10d7\u10da\u10d8\u10e1 \u10e5\u10e3\u10e9\u10d0", "amenity": "restaurant", "contact:mobile": "+995 574 20 19 73", "cuisine": "indian", "diet:halal": "yes", "name": "White Elefant", "name:en": "White Elefant", "name:ka": "\u10d7\u10d4\u10d7\u10e0\u10d8 \u10e1\u10de\u10d8\u10da\u10dd", "opening_hours": "Mo-Su 13:00-23:00", "website": "https://www.facebook.com/thewhiteelephantri/"}}, {"type": "node", "id": 11840934469, "lat": 42.2748956, "lon": 42.716, "tags": {"name:en": "Green Flower Hotel & Hotel Winery", "tourism": "guest_house"}}, {"type": "node", "id": 11881113807, "lat": 42.2714862, "lon": 42.7054833, "tags": {"artwork_type": "sculpture", "tourism": "artwork"}}, {"type": "node", "id": 11881113808, "lat": 42.2714752, "lon": 42.7054943, "tags": {"artwork_type": "sculpture", "tourism": "artwork"}}, {"type": "node", "id": 11881113809, "lat": 42.271467, "lon": 42.7054675, "tags": {"artwork_type": "sculpture", "tourism": "artwork"}}, {"type": "node", "id": 11881113810, "lat": 42.2714923, "lon": 42.7055055, "tags": {"artwork_type": "sculpture", "tourism": "artwork"}}, {"type": "node", "id": 11881113811, "lat": 42.271464, "lon": 42.7055082, "tags": {"artwork_type": "sculpture", "tourism": "artwork"}}, {"type": "node", "id": 11881113812, "lat": 42.271492, "lon": 42.7054673, "tags": {"artwork_type": "sculpture", "tourism": "artwork"}}, {"type": "node", "id": 11881113813, "lat": 42.2714786, "lon": 42.7054481, "tags": {"artwork_type": "sculpture", "tourism": "artwork"}}, {"type": "node", "id": 11881113814, "lat": 42.2714987, "lon": 42.7054522, "tags": {"artwork_type": "sculpture", "tourism": "artwork"}}, {"type": "node", "id": 11881113815, "lat": 42.2715039, "lon": 42.7054864, "tags": {"artwork_type": "sculpture", "tourism": "artwork"}}, {"type": "node", "id": 11881113816, "lat": 42.2714972, "lon": 42.7055152, "tags": {"artwork_type": "sculpture", "tourism": "artwork"}}, {"type": "node", "id": 11881113817, "lat": 42.2714764, "lon": 42.7055216, "tags": {"artwork_type": "sculpture", "tourism": "artwork"}}, {"type": "node", "id": 11881113818, "lat": 42.2714573, "lon": 42.7055149, "tags": {"artwork_type": "sculpture", "tourism": "artwork"}}, {"type": "node", "id": 11881113819, "lat": 42.2714521, "lon": 42.7054847, "tags": {"artwork_type": "sculpture", "tourism": "artwork"}}, {"type": "node", "id": 11881113820, "lat": 42.2714598, "lon": 42.7054572, "tags": {"artwork_type": "sculpture", "tourism": "artwork"}}, {"type": "node", "id": 11881113821, "lat": 42.2714655, "lon": 42.7054367, "tags": {"artwork_type": "sculpture", "tourism": "artwork"}}, {"type": "node", "id": 11881113822, "lat": 42.2714908, "lon": 42.7054327, "tags": {"artwork_type": "sculpture", "tourism": "artwork"}}, {"type": "node", "id": 11881113823, "lat": 42.2715129, "lon": 42.7054686, "tags": {"artwork_type": "sculpture", "tourism": "artwork"}}, {"type": "node", "id": 11881113824, "lat": 42.2715094, "lon": 42.7055065, "tags": {"artwork_type": "sculpture", "tourism": "artwork"}}, {"type": "node", "id": 11881113825, "lat": 42.2714868, "lon": 42.705533, "tags": {"artwork_type": "sculpture", "tourism": "artwork"}}, {"type": "node", "id": 11881113826, "lat": 42.271463, "lon": 42.705531, "tags": {"artwork_type": "sculpture", "tourism": "artwork"}}, {"type": "node", "id": 11881113827, "lat": 42.2714436, "lon": 42.7055038, "tags": {"artwork_type": "sculpture", "tourism": "artwork"}}, {"type": "node", "id": 11881113828, "lat": 42.2714444, "lon": 42.7054679, "tags": {"artwork_type": "sculpture", "tourism": "artwork"}}, {"type": "node", "id": 11881177133, "lat": 42.2703173, "lon": 42.7031513, "tags": {"artwork_type": "sculpture", "tourism": "artwork"}}, {"type": "node", "id": 11881177134, "lat": 42.270316, "lon": 42.7032656, "tags": {"artwork_type": "sculpture", "tourism": "artwork"}}, {"type": "node", "id": 11881177135, "lat": 42.2702443, "lon": 42.7032662, "tags": {"artwork_type": "sculpture", "tourism": "artwork"}}, {"type": "node", "id": 11881177136, "lat": 42.2702419, "lon": 42.7031604, "tags": {"artwork_type": "sculpture", "tourism": "artwork"}}, {"type": "node", "id": 11881177137, "lat": 42.2702778, "lon": 42.7031739, "tags": {"artwork_type": "sculpture", "tourism": "artwork"}}, {"type": "node", "id": 11881177138, "lat": 42.2702763, "lon": 42.7032507, "tags": {"artwork_type": "sculpture", "tourism": "artwork"}}, {"type": "node", "id": 11881177139, "lat": 42.270347, "lon": 42.703212, "tags": {"artwork_type": "sculpture", "tourism": "artwork"}}, {"type": "node", "id": 11881177140, "lat": 42.2702052, "lon": 42.703212, "tags": {"artwork_type": "sculpture", "tourism": "artwork"}}, {"type": "node", "id": 11891139459, "lat": 42.2697422, "lon": 42.7061199, "tags": {"tourism": "hotel"}}, {"type": "node", "id": 11899263061, "lat": 42.2718063, "lon": 42.7028435, "tags": {"amenity": "cafe", "takeaway": "only"}}, {"type": "node", "id": 12047479735, "lat": 42.2691784, "lon": 42.708627, "tags": {"historic": "memorial", "inscription:ka": "\u10d0\u10db \u10d0\u10d3\u10d2\u10d8\u10da\u10d0\u10e1 1904-1909 \u10ec\u10da\u10d4\u10d1\u10e8\u10d8 \u10ea\u10ee\u10dd\u10d5\u10e0\u10dd\u10d1\u10d3\u10d0 \u10d3\u10d0 \u10d2\u10d0\u10e0\u10d3\u10d0\u10d8\u10ea\u10d5\u10d0\u10da\u10d0 \u10ea\u10dc\u10dd\u10d1\u10d8\u10da\u10d8 \u10e1\u10d0\u10d6\u10dd\u10d2\u10d0\u10d3\u10dd \u10db\u10dd\u10e6\u10d5\u10d0\u10ec\u10d4, \u10de\u10dd\u10d4\u10e2\u10d8 \"\u10d7\u10d0\u10db\u10d0\u10e0\u10d8\u10d0\u10dc\u10d8\u10e1\" \u10d0\u10d5\u10e2\u10dd\u10e0\u10d8 \u10e1\u10d8\u10db\u10dd\u10dc \u10d3\u10d0\u10d5\u10d8\u10d7\u10d8\u10e1-\u10eb\u10d4 \u10d2\u10e3\u10d2\u10e3\u10dc\u10d0\u10d5\u10d0.", "inscription:ru": "\u041d\u0430 \u044d\u0442\u043e\u043c \u043c\u0435\u0441\u0442\u0435 \u0432 1904-1909 \u0433\u043e\u0434\u0430\u0445 \u0436\u0438\u043b \u0438 \u0441\u043a\u043e\u043d\u0447\u0430\u043b\u0441\u044f \u0438\u0437\u0432\u0435\u0441\u0442\u043d\u044b\u0439 \u043e\u0431\u0449\u0435\u0441\u0442\u0432\u0435\u043d\u043d\u044b\u0439 \u0434\u0435\u044f\u0442\u0435\u043b\u044c, \u0430\u0432\u0442\u043e\u0440 \"\u0422\u0430\u043c\u0430\u0440\u0438\u0430\u043d\u0438\" \u0438 \u043f\u043e\u044d\u0442 \u0421\u0435\u043c\u0435\u043d \u0414\u0430\u0432\u0438\u0434\u043e\u0432\u0438\u0447 \u0413\u0443\u0433\u0443\u043d\u0430\u0432\u0430.", "memorial": "plaque", "name": "\u10e1\u10d8\u10db\u10dd\u10dc \u10d2\u10e3\u10d2\u10e3\u10dc\u10d0\u10d5\u10d0", "name:en": "Simon Gugunava", "name:ka": "\u10e1\u10d8\u10db\u10dd\u10dc \u10d2\u10e3\u10d2\u10e3\u10dc\u10d0\u10d5\u10d0", "name:ru": "\u0421\u0438\u043c\u043e\u043d \u0413\u0443\u0433\u0443\u043d\u0430\u0432\u0430", "openplaques:id": "61915", "subject:wikidata": "Q12869294", "subject:wikipedia": "ka:\u10e1\u10d8\u10db\u10dd\u10dc \u10d2\u10e3\u10d2\u10e3\u10dc\u10d0\u10d5\u10d0"}}, {"type": "node", "id": 12047513111, "lat": 42.2615458, "lon": 42.7095998, "tags": {"historic": "memorial", "memorial": "plaque"}}, {"type": "node", "id": 12047513117, "lat": 42.2615533, "lon": 42.7087411, "tags": {"historic": "memorial", "inscription": "\u10d0\u10db \u10e1\u10d0\u10ee\u10da\u10e8\u10d8 1954-1958 \u10ec\u10da\u10d4\u10d1\u10e8\u10d8 \u10ea\u10ee\u10dd\u10d5\u10e0\u10dd\u10d1\u10d3\u10d0 \u10ea\u10dc\u10dd\u10d1\u10d8\u10da\u10d8 \u10e5\u10d0\u10e0\u10d7\u10d5\u10d4\u10da\u10d8 \u10db\u10dd\u10d9\u10e0\u10d8\u10d5\u10d4, \u10e1\u10e1\u10e0\u10d9 \u10e9\u10d4\u10db\u10de\u10d8\u10dd\u10dc\u10d8, \u10e1\u10de\u10dd\u10e0\u10e2\u10d8\u10e1 \u10dd\u10e1\u10e2\u10d0\u10e2\u10d8 \u10e4\u10e0\u10d8\u10d3\u10dd\u10dc (\u10d1\u10dd\u10ed\u10dd\u10da\u10d0) \u10da\u10dd\u10db\u10d8\u10eb\u10d4", "memorial": "plaque", "name": "\u10e4\u10e0\u10d8\u10d3\u10dd\u10dc \u10da\u10dd\u10db\u10d8\u10eb\u10d4", "name:en": "Pridon Lomidze", "name:ka": "\u10e4\u10e0\u10d8\u10d3\u10dd\u10dc \u10da\u10dd\u10db\u10d8\u10eb\u10d4", "openplaques:id": "64192"}}, {"type": "node", "id": 12047513118, "lat": 42.2615537, "lon": 42.708692, "tags": {"historic": "memorial", "inscription": "\u10d0\u10db \u10e1\u10d0\u10ee\u10da\u10e8\u10d8 1953 - 2014 \u10ec\u10da\u10d4\u10d1\u10e8\u10d8 \u10ea\u10ee\u10dd\u10d5\u10e0\u10dd\u10d1\u10d3\u10d0 \u10e5. \u10e5\u10e3\u10d7\u10d0\u10d8\u10e1\u10d8\u10e1 \u10e1\u10d0\u10de\u10d0\u10e2\u10d8\u10dd \u10db\u10dd\u10e5\u10d0\u10da\u10d0\u10e5\u10d4, \u10e1\u10d0\u10e5\u10d0\u10e0\u10d7\u10d5\u10d4\u10da\u10dd\u10e1 \u10d3\u10d0\u10db\u10e1\u10d0\u10ee\u10e3\u10e0\u10d4\u10d1\u10e3\u10da\u10d8 \u10db\u10ee\u10d0\u10e2\u10d5\u10d0\u10e0\u10d8 \u10dd\u10d7\u10d0\u10e0 \u10e5\u10d0\u10dc\u10d3\u10d0\u10e0\u10d8\u10d0", "memorial": "plaque", "name": "\u10dd\u10d7\u10d0\u10e0 \u10e5\u10d0\u10dc\u10d3\u10d0\u10e0\u10d8\u10d0", "name:en": "Otar Kandaria", "name:ka": "\u10dd\u10d7\u10d0\u10e0 \u10e5\u10d0\u10dc\u10d3\u10d0\u10e0\u10d8\u10d0", "openplaques:id": "61914"}}, {"type": "node", "id": 12047527558, "lat": 42.2703097, "lon": 42.7015114, "tags": {"fixme": "precise location?", "historic": "memorial", "inscription": "\u0410\u043b\u0435\u043a\u0441\u0430\u043d\u0434\u044a\u0440 \u0421\u0442\u043e\u044f\u043d\u043e\u0432\n\u0411\u044a\u043b\u0433\u0430\u0440\u0441\u043a\u0438\u044f\u0442 \u0437\u0430\u0441\u0442\u044a\u043f\u043d\u0438\u043a \u043d\u0430 \u0433\u0440\u0443\u0437\u0438\u043d\u0441\u043a\u0438\u044f \u0435\u0437\u0438\u043a \u0438 \u043a\u0443\u043b\u0442\u0443\u0440\u0430\n1843-1914\n\u10d0\u10da\u10d4\u10e5\u10e1\u10d0\u10dc\u10d3\u10e0\u10d4 \u10e1\u10e2\u10dd\u10d8\u10d0\u10dc\u10dd\u10d5\u10d8\n\u10d1\u10e3\u10da\u10d2\u10d0\u10e0\u10d4\u10da\u10d8 \u10db\u10dd\u10e6\u10d5\u10d0\u10ec\u10d4 \u10d8\u10ea\u10d0\u10d5\u10d3\u10d0 \u10e5\u10d0\u10e0\u10d7\u10e3\u10da \u10d4\u10dc\u10d0\u10e1 \u10d3\u10d0 \u10d9\u10e3\u10da\u10e2\u10e3\u10e0\u10d0\u10e1", "location": "indoor", "memorial": "plaque", "name": "\u10d0\u10da\u10d4\u10e5\u10e1\u10d0\u10dc\u10d3\u10e0\u10d4 \u10e1\u10e2\u10dd\u10d8\u10d0\u10dc\u10dd\u10d5\u10d8", "name:bg": "\u0410\u043b\u0435\u043a\u0441\u0430\u043d\u0434\u044a\u0440 \u0421\u0442\u043e\u044f\u043d\u043e\u0432", "name:en": "Alexander Stoyanov", "name:ka": "\u10d0\u10da\u10d4\u10e5\u10e1\u10d0\u10dc\u10d3\u10e0\u10d4 \u10e1\u10e2\u10dd\u10d8\u10d0\u10dc\u10dd\u10d5\u10d8", "name:ru": "\u0410\u043b\u0435\u043a\u0441\u0430\u043d\u0434\u0440 \u0421\u0442\u043e\u044f\u043d\u043e\u0432", "openplaques:id": "61916", "source": "http://imereti.gov.ge/geo/news/show/7/1349"}}, {"type": "node", "id": 12047527563, "lat": 42.2703803, "lon": 42.7016973, "tags": {"historic": "memorial", "memorial": "plaque", "name": "\u10d0\u10e5 \u10e1\u10ec\u10d0\u10d5\u10da\u10dd\u10d1\u10d3\u10dc\u10d4\u10dc...", "openplaques:id": "61917", "subject:wikidata": "Q127378216;Q16371945;Q20559557;Q379612;Q4504505;Q3651051;Q12869211;Q2623026;Q12865971;Q127378222;Q12869273;Q12868101;Q732247;Q116309;Q12865384;Q12863957;Q20561349;Q1957862;Q2467750", "wikimedia_commons": "File:Kuataisi 1-st Public school (4).jpg"}}, {"type": "node", "id": 12047527564, "lat": 42.2704104, "lon": 42.7016973, "tags": {"historic": "memorial", "memorial": "plaque", "name": "\u10d0\u10e5 \u10e1\u10ec\u10d0\u10d5\u10da\u10dd\u10d1\u10d3\u10dc\u10d4\u10dc...", "openplaques:id": "61918", "subject:wikidata": "Q2474562;Q28055032;Q1694620;Q20562717;Q2081402;Q2028032;Q16368889;Q3650299;Q1225942;Q3651294;Q2028362;Q132964;Q2669133;Q2024875;Q2552070;Q144077;Q4518450;Q3652534;Q4286534;Q2029416", "wikimedia_commons": "File:Kuataisi 1-st Public school (5).jpg"}}, {"type": "node", "id": 12047527565, "lat": 42.2698392, "lon": 42.7017836, "tags": {"historic": "memorial", "memorial": "plaque", "name": "\u10e5\u10e3\u10d7\u10d0\u10d8\u10e1\u10d8\u10e1 \u10d0\u10ee\u10d0\u10da\u10d2\u10d0\u10d6\u10e0\u10d3\u10d0 \u10e1\u10dd\u10ea\u10d8\u10d0\u10da\u10d8\u10e1\u10e2-\u10d8\u10dc\u10e2\u10d4\u10e0\u10dc\u10d0\u10ea\u10d8\u10dd\u10dc\u10d0\u10da\u10d8\u10e1\u10e2\u10d7\u10d0 \u10dd\u10e0\u10d2\u10d0\u10dc\u10d8\u10d6\u10d0\u10ea\u10d8\u10d0 \u201e\u10e1\u10de\u10d0\u10e0\u10e2\u10d0\u10d9\u10d8\u201c", "name:en": "Kutaisi Organization of Young Socialists-Internationalists \"Spartacus\"", "name:ka": "\u10e5\u10e3\u10d7\u10d0\u10d8\u10e1\u10d8\u10e1 \u10d0\u10ee\u10d0\u10da\u10d2\u10d0\u10d6\u10e0\u10d3\u10d0 \u10e1\u10dd\u10ea\u10d8\u10d0\u10da\u10d8\u10e1\u10e2-\u10d8\u10dc\u10e2\u10d4\u10e0\u10dc\u10d0\u10ea\u10d8\u10dd\u10dc\u10d0\u10da\u10d8\u10e1\u10e2\u10d7\u10d0 \u10dd\u10e0\u10d2\u10d0\u10dc\u10d8\u10d6\u10d0\u10ea\u10d8\u10d0 \u201e\u10e1\u10de\u10d0\u10e0\u10e2\u10d0\u10d9\u10d8\u201c", "name:ru": "\u041a\u0443\u0442\u0430\u0438\u0441\u0441\u043a\u0430\u044f \u043e\u0440\u0433\u0430\u043d\u0438\u0437\u0430\u0446\u0438\u044f \u043c\u043e\u043b\u043e\u0434\u044b\u0445 \u0441\u043e\u0446\u0438\u0430\u043b\u0438\u0441\u0442\u043e\u0432-\u0438\u043d\u0442\u0435\u0440\u043d\u0430\u0446\u0438\u043e\u043d\u0430\u043b\u0438\u0441\u0442\u043e\u0432 \u201e\u0421\u043f\u0430\u0440\u0442\u0430\u043a\u201c", "openplaques:id": "66471"}}, {"type": "node", "id": 12047527566, "lat": 42.2697751, "lon": 42.7017836, "tags": {"historic": "memorial", "inscription:ka": "\u10d5.\u10d5. \u10db\u10d0\u10d8\u10d0\u10d9\u10dd\u10d5\u10e1\u10d9\u10d8/\u10e9\u10d5\u10d4\u10dc\u10d8 \u10e1\u10d0\u10d1\u10ed\u10dd\u10d7\u10d0 \u10d4\u10de\u10dd\u10e5\u10d8\u10e1 \u10e3\u10dc\u10d8\u10ed\u10d8\u10d4\u10e0\u10d4\u10e1\u10d8 \u10e1\u10d0\u10e3\u10d9\u10d4\u10d7\u10d4\u10e1\u10dd \u10de\u10dd\u10d4\u10e2\u10d8, \u10e1\u10ec\u10d0\u10d5\u10da\u10dd\u10d1\u10d3\u10d0 \u10d0\u10e5 \u10e5\u10e3\u10d7\u10d0\u10d8\u10e1\u10d8\u10e1 \u10d5\u10d0\u10df\u10d7\u10d0 \u10d9\u10da\u10d0\u10e1\u10d8\u10d9\u10e3\u10e0 \u10d2\u10d8\u10db\u10dc\u10d0\u10d6\u10d8\u10d0\u10e8\u10d8 1902-1906 \u10ec\u10da\u10d4\u10d1\u10e8\u10d8, \u10d8\u10e6\u10d4\u10d1\u10d3\u10d0 \u10d0\u10e5\u10e2\u10d8\u10e3\u10e0 \u10db\u10dd\u10dc\u10d0\u10ec\u10d8\u10da\u10d4\u10dd\u10d1\u10d0\u10e1 \u10db\u10dd\u10ec\u10d0\u10e4\u10d4\u10d7\u10d0 \u10d2\u10d0\u10e4\u10d8\u10ea\u10d5\u10d4\u10d1\u10e1\u10d0 \u10d3\u10d0 \u10d3\u10d4\u10db\u10dd\u10dc\u10e1\u10e2\u10e0\u10d0\u10ea\u10d8\u10d4\u10d1\u10e8\u10d8 1905 \u10ec.", "inscription:ru": "\u0412. \u0412. \u041c\u0430\u044f\u043a\u043e\u0432\u0441\u043a\u0438\u0439/\u041b\u0443\u0447\u0448\u0438\u0439 \u0442\u0430\u043b\u0430\u043d\u0442\u043b\u0438\u0432\u0435\u0439\u0448\u0438\u0439 \u043f\u043e\u044d\u0442 \u043d\u0430\u0448\u0435\u0439 \u0441\u043e\u0432\u0435\u0442\u0441\u043a\u043e\u0439 \u044d\u043f\u043e\u0445\u0438, \u0443\u0447\u0438\u043b\u0441\u044f \u0437\u0434\u0435\u0441\u044c \u0432 \u041a\u0443\u0442\u0430\u0438\u0441\u0441\u043a\u043e\u0439 \u043c\u0443\u0436\u0441\u043a\u043e\u0439 \u043a\u043b\u0430\u0441\u0441\u0438\u0447\u0435\u0441\u043a\u043e\u0439 \u0433\u0438\u043c\u043d\u0430\u0437\u0438\u0438 \u0432 1902 - 1906 \u0433.\u0433. \u041f\u0440\u0438\u043d\u0438\u043c\u0430\u043b \u0430\u043a\u0442\u0438\u0432\u043d\u043e\u0435 \u0443\u0447\u0430\u0441\u0442\u0438\u0435 \u0432 \u0443\u0447\u0435\u043d\u0438\u0447\u0435\u0441\u043a\u0438\u0445 \u0437\u0430\u0431\u0430\u0441\u0442\u043e\u0432\u043a\u0430\u0445 \u0438 \u0434\u0435\u043c\u043e\u043d\u0441\u0442\u0440\u0430\u0446\u0438\u044f\u0445 \u0432 1905 \u0433.", "memorial": "plaque", "name": "\u10d5\u10da\u10d0\u10d3\u10d8\u10db\u10d4\u10e0 \u10db\u10d0\u10d8\u10d0\u10d9\u10dd\u10d5\u10e1\u10d9\u10d8", "name:en": "Vladimir Mayakovsky", "name:ka": "\u10d5\u10da\u10d0\u10d3\u10d8\u10db\u10d4\u10e0 \u10db\u10d0\u10d8\u10d0\u10d9\u10dd\u10d5\u10e1\u10d9\u10d8", "name:ru": "\u0412\u043b\u0430\u0434\u0438\u043c\u0438\u0440 \u041c\u0430\u044f\u043a\u043e\u0432\u0441\u043a\u0438\u0439", "openplaques:id": "61919", "subject:wikidata": "Q132964", "subject:wikipedia": "ka:\u10d5\u10da\u10d0\u10d3\u10d8\u10db\u10d4\u10e0 \u10db\u10d0\u10d8\u10d0\u10d9\u10dd\u10d5\u10e1\u10d9\u10d8"}}, {"type": "node", "id": 12118176801, "lat": 42.2738926, "lon": 42.7052219, "tags": {"addr:city": "\u10e5\u10e3\u10d7\u10d0\u10d8\u10e1\u10d8", "addr:housenumber": "18/4", "addr:postcode": "4600", "addr:street": "\u10e4\u10d4\u10da\u10d8\u10e5\u10e1 \u10d5\u10d0\u10e0\u10da\u10d0\u10db\u10d8\u10e8\u10d5\u10d8\u10da\u10d8\u10e1 \u10e5\u10e3\u10e9\u10d0", "air_conditioning": "yes", "bar": "yes", "beds": "10", "contact:mobile": "+995 568 03 03 89", "internet_access": "wlan", "internet_access:fee": "no", "name": "\u10e1\u10d0\u10e1\u10e2\u10e3\u10db\u10e0\u10dd 1870 \u10ec", "name:en": "Hotel 1870", "opening_hours:reception": "24/7", "operator": "Saba Kvariani", "rooms": "4", "smoking": "no", "swimming_pool": "no", "tourism": "hotel", "website": "https://www.booking.com/hotel/ge/1870.en-gb.html", "wheelchair": "no"}}, {"type": "node", "id": 12160084647, "lat": 42.2718644, "lon": 42.7031187, "tags": {"amenity": "restaurant", "cuisine": "georgian", "name": "Gala", "website": "https://galakutaisi.com/"}}, {"type": "node", "id": 12207099694, "lat": 42.2789677, "lon": 42.7055064, "tags": {"name": "Belas House", "tourism": "guest_house"}}, {"type": "node", "id": 12319881700, "lat": 42.2718329, "lon": 42.7346668, "tags": {"tourism": "camp_site"}}, {"type": "node", "id": 12456123011, "lat": 42.2721586, "lon": 42.7306125, "tags": {"tourism": "viewpoint"}}, {"type": "node", "id": 12456123012, "lat": 42.2844379, "lon": 42.7434535, "tags": {"tourism": "viewpoint"}}, {"type": "node", "id": 12456123013, "lat": 42.2839458, "lon": 42.7435394, "tags": {"tourism": "viewpoint"}}, {"type": "node", "id": 12551316517, "lat": 42.2800802, "lon": 42.7476512, "tags": {"tourism": "viewpoint"}}, {"type": "node", "id": 12551316518, "lat": 42.2799462, "lon": 42.7463905, "tags": {"tourism": "viewpoint"}}, {"type": "node", "id": 12584593301, "lat": 42.2719459, "lon": 42.7209247, "tags": {"contact:mobile": "+995 598 39 61 23", "name": "Hilltop Hotel", "tourism": "guest_house"}}, {"type": "node", "id": 12848656459, "lat": 42.2686924, "lon": 42.7115073, "tags": {"direction": "342", "historic": "memorial", "inscription": "\u10d0\u10db \u10e1\u10d0\u10ee\u10da\u10e8\u10d8 1913-20 \u10ec.\u10ec.\n\u10ea\u10ee\u10dd\u10d5\u10e0\u10dd\u10d1\u10d3\u10d0 \u10d2\u10d0\u10db\u10dd\u10e9\u10d4\u10dc\u10d8\u10da\u10d8\n\u10e5\u10d0\u10e0\u10d7\u10d5\u10d4\u10da\u10d8 \u10db\u10ec\u10d4\u10e0\u10d0\u10da\u10d8\n\u10d3\u10d0\u10d5\u10d8\u10d7 \u10e1\u10d0\u10db\u10e1\u10dd\u10dc\u10d8\u10e1 \u10eb\u10d4\n\u10d9\u10da\u10d3\u10d8\u10d0\u10e8\u10d5\u10d8\u10da\u10d8", "material": "stone", "memorial": "plaque", "name": "\u10d3\u10d0\u10d5\u10d8\u10d7 \u10d9\u10da\u10d3\u10d8\u10d0\u10e8\u10d5\u10d8\u10da\u10d8", "name:en": "David Kldiashvili", "name:ka": "\u10d3\u10d0\u10d5\u10d8\u10d7 \u10d9\u10da\u10d3\u10d8\u10d0\u10e8\u10d5\u10d8\u10da\u10d8", "name:ru": "\u0414\u0430\u0432\u0438\u0434 \u041a\u043b\u0434\u0438\u0430\u0448\u0432\u0438\u043b\u0438", "subject:wikidata": "Q2478939", "subject:wikipedia": "en:David Kldiashvili", "wikimedia_commons": "File:David Kldiashvili memorial plaque.jpg"}}, {"type": "node", "id": 12850832828, "lat": 42.2693956, "lon": 42.7077866, "tags": {"direction": "11", "historic": "memorial", "inscription": "\u10d0\u10db \u10e1\u10d0\u10ee\u10da\u10e8\u10d8,\n1952-96 \u10ec\u10da\u10d4\u10d1\u10e8\u10d8\n\u10ea\u10ee\u10dd\u10d5\u10e0\u10dd\u10d1\u10d3\u10d0\n\u10db\u10d4\u10ea\u10dc\u10d8\u10d4\u10e0\u10d8,\n\u10e1\u10d0\u10d6\u10dd\u10d2\u10d0\u10d3\u10dd \u10db\u10dd\u10e6\u10d5\u10d0\u10ec\u10d4,\n\u10de\u10e0\u10dd\u10e4\u10d4\u10e1\u10dd\u10e0\u10d8\n\u10d3\u10d0\u10d5\u10d8\u10d7 \u10db\u10d4\u10da\u10d8\u10e2\u10dd\u10dc\u10d8\u10e1-\u10eb\u10d4\n\u10d2\u10d0\u10d1\u10e0\u10d8\u10d0\u10eb\u10d4", "material": "stone", "memorial": "plaque", "name": "\u10d3\u10d0\u10d5\u10d8\u10d7 \u10d2\u10d0\u10d1\u10e0\u10d8\u10d0\u10eb\u10d4", "name:en": "Davit Gabriadze", "name:ka": "\u10d3\u10d0\u10d5\u10d8\u10d7 \u10d2\u10d0\u10d1\u10e0\u10d8\u10d0\u10eb\u10d4", "name:ru": "\u0414\u0430\u0432\u0438\u0434 \u0413\u0430\u0431\u0440\u0438\u0430\u0434\u0437\u0435", "openplaques:id": "76338", "subject:wikidata": "Q134520467", "wikimedia_commons": "File:Davit Gabriadze memorial plaque.jpg"}}, {"type": "node", "id": 12852966490, "lat": 42.2694543, "lon": 42.7068071, "tags": {"direction": "356", "historic": "memorial", "inscription": "\u10d0\u10e5 1954-1962 \u10ec\u10da\u10d4\u10e8\u10d8, \u10ea\u10ee\u10dd\u10d5\u10e0\u10dd\u10d1\u10d3\u10d0\n\u10d3\u10d0 \u10db\u10dd\u10e6\u10d5\u10d0\u10ec\u10d4\u10dd\u10d1\u10d3\u10d0 \u10e5\u10d0\u10da\u10d0\u10e5 \u10e5\u10e3\u10d7\u10d0\u10d8\u10e1\u10d8\u10e1\n\u10d0\u10d9\u10d0\u10d9\u10d8 \u10ec\u10d4\u10e0\u10d4\u10d7\u10da\u10d8\u10e1 \u10e1\u10d0\u10ee\u10d4\u10da\u10dd\u10d1\u10d8\u10e1\n\u10e1\u10d0\u10ee\u10d4\u10da\u10db\u10ec\u10d8\u10e4\u10dd \u10de\u10d4\u10d3\u10d0\u10d2\u10dd\u10d2\u10d8\u10e3\u10e0\u10d8\n\u10e3\u10dc\u10d8\u10d5\u10d4\u10e0\u10e1\u10d8\u10e2\u10d4\u10e2\u10d8\u10e1 \u10d3\u10dd\u10ea\u10d4\u10dc\u10e2\u10d8\n\u10d5\u10da\u10d0\u10d3\u10d8\u10db\u10d4\u10e0 (\u10d9\u10d0\u10d9\u10dd) \u10d0\u10e0\u10e9\u10d8\u10da\u10d8\u10e1-\u10eb\u10d4\n\u10e1\u10e3\u10da\u10d0\u10d5\u10d0", "material": "stone", "memorial": "plaque", "name": "\u10d5\u10da\u10d0\u10d3\u10d8\u10db\u10d4\u10e0 (\u10d9\u10d0\u10d9\u10dd) \u10e1\u10e3\u10da\u10d0\u10d5\u10d0", "name:en": "Vladimer (Kako) Sulava", "name:ka": "\u10d5\u10da\u10d0\u10d3\u10d8\u10db\u10d4\u10e0 (\u10d9\u10d0\u10d9\u10dd) \u10e1\u10e3\u10da\u10d0\u10d5\u10d0", "name:ru": "\u0412\u043b\u0430\u0434\u0438\u043c\u0438\u0440 \u0421\u0443\u043b\u0430\u0432\u0430", "openplaques:id": "76372", "subject:wikidata": "Q134528949"}}, {"type": "node", "id": 12855163175, "lat": 42.2693262, "lon": 42.7059039, "tags": {"direction": "267", "historic": "memorial", "inscription:de": "1877-1878 lebte in Kutaissi die ber\u00fchmte \u00f6sterreichische Schriftstellerin, Pazifistin und Nobelpreistr\u00e4gerin Bertha von Suttner", "inscription:ka": "\u10e5\u10e3\u10d7\u10d0\u10d8\u10e1\u10e8\u10d8 1877-1878 \u10ec.\u10ec. \u10ea\u10ee\u10dd\u10d5\u10e0\u10dd\u10d1\u10d3\u10d0 \u10ea\u10dc\u10dd\u10d1\u10d8\u10da\u10d8 \u10d0\u10d5\u10e1\u10e2\u10e0\u10d8\u10d4\u10da\u10d8 \u10db\u10ec\u10d4\u10e0\u10d0\u10da\u10d8, \u10de\u10d0\u10ea\u10d8\u10e4\u10d8\u10e1\u10e2\u10d8 \u10d3\u10d0 \u10dc\u10dd\u10d1\u10d4\u10da\u10d8\u10e1 \u10de\u10e0\u10d4\u10db\u10d8\u10d8\u10e1 \u10da\u10d0\u10e3\u10e0\u10d4\u10d0\u10e2\u10d8 \u10d1\u10d4\u10e0\u10e2\u10d0 \u10e4\u10dd\u10dc \u10d6\u10e3\u10e2\u10dc\u10d4\u10e0\u10d8", "material": "stone", "memorial": "plaque", "name": "\u10d1\u10d4\u10e0\u10e2\u10d0 \u10e4\u10dd\u10dc \u10d6\u10e3\u10e2\u10dc\u10d4\u10e0\u10d8", "name:de": "Bertha von Suttner", "name:en": "Bertha von Suttner", "name:ka": "\u10d1\u10d4\u10e0\u10e2\u10d0 \u10e4\u10dd\u10dc \u10d6\u10e3\u10e2\u10dc\u10d4\u10e0\u10d8", "name:ru": "\u0411\u0435\u0440\u0442\u0430 \u0444\u043e\u043d \u0417\u0443\u0442\u043d\u0435\u0440", "openplaques:id": "76405", "subject:wikidata": "Q18456", "subject:wikipedia": "en:Bertha von Suttner", "wikimedia_commons": "File:Bertha von Suttner memorial plaque.jpg"}}, {"type": "node", "id": 12857525905, "lat": 42.2688841, "lon": 42.7046202, "tags": {"direction": "361", "historic": "memorial", "inscription": "90 \u10ec\u10da\u10d8\u10e1 \u10ec\u10d8\u10dc 20.07.1912 \u10ec. \u10d0\u10db\n\u10e8\u10d4\u10dc\u10dd\u10d1\u10d0\u10e8\u10d8 \u10db\u10d3\u10d4\u10d1\u10d0\u10e0\u10d4 \"\u10d2\u10e0\u10d0\u10dc\u10d3-\n\u10dd\u10e2\u10d4\u10da\u10e8\u10d8\" \u10d2\u10d0\u10d0\u10d7\u10d4\u10dc\u10d0 \u10e6\u10d0\u10db\u10d4\n\u10d0\u10d9\u10d0\u10d9\u10d8 \u10ec\u10d4\u10e0\u10d4\u10d7\u10d4\u10da\u10db\u10d0\n\u10db\u10d4\u10dd\u10e0\u10d4 \u10d3\u10d8\u10da\u10d8\u10d7 /21.07.1912. \u10ec/\n\u10d0\u10e5\u10d4\u10d3\u10d0\u10dc \u10d3\u10d0\u10d8\u10ec\u10e7\u10dd \u10d3\u10d8\u10d3\u10d8\n\u10de\u10dd\u10d4\u10e2\u10d8\u10e1 \u10d8\u10e1\u10e2\u10dd\u10e0\u10d8\u10e3\u10da\u10d8 \u10db\u10dd\u10d2\u10d6\u10d0-\n\u10e3\u10e0\u10dd\u10d1\u10d0 \u10e0\u10d0\u10ed\u10d0-\u10da\u10d4\u10e9\u10ee\u10e3\u10db\u10e8\u10d8.", "material": "stone", "memorial": "plaque", "name": "\u10d0\u10d9\u10d0\u10d9\u10d8 \u10ec\u10d4\u10e0\u10d4\u10d7\u10d4\u10da\u10d8", "name:en": "Akaki Tsereteli", "name:ka": "\u10d0\u10d9\u10d0\u10d9\u10d8 \u10ec\u10d4\u10e0\u10d4\u10d7\u10d4\u10da\u10d8", "name:ru": "\u0410\u043a\u0430\u043a\u0438\u0439 \u0426\u0435\u0440\u0435\u0442\u0435\u043b\u0438", "openplaques:id": "76439", "wikimedia_commons": "File:Akaki Tsereteli memorial plaque.jpg"}}, {"type": "node", "id": 12864350975, "lat": 42.2723883, "lon": 42.7027244, "tags": {"direction": "269", "historic": "memorial", "inscription:ka": "\u10d0\u10db \u10e1\u10d0\u10ee\u10da\u10e8\u10d8 1934-43 \u10ec.\u10ec. \u10ea\u10ee\u10dd\u10d5\u10e0\u10dd\u10d1\u10d3\u10d0 \u10e1\u10d0\u10e5\u10e1\u10e1\u10e0. \u10e1\u10d0\u10ee\u10d0\u10da\u10ee\u10dd \u10d0\u10e0\u10e2\u10d8\u10e1\u10e2\u10d8 \u10d8\u10e3\u10d6\u10d0 \u10e4\u10e0\u10d0\u10dc\u10ea\u10d8\u10e1 \u10eb\u10d4 \u10d6\u10d0\u10e0\u10d3\u10d0\u10da\u10d8\u10e8\u10d5\u10d8\u10da\u10d8", "inscription:ru": "\u0412 \u044d\u0442\u043e\u043c \u0434\u043e\u043c\u0435 \u0432 1934-43 \u0433.\u0433. \u0436\u0438\u043b \u043d\u0430\u0440\u043e\u0434\u043d\u044b\u0439 \u0430\u0440\u0442\u0438\u0441\u0442 \u0413\u0440\u0443\u0437.\u0421\u0421\u0420 \u042e\u0437\u0430 \u0424\u0440\u0430\u043d\u0446\u0435\u0432\u0438\u0447 \u0417\u0430\u0440\u0434\u0430\u043b\u0438\u0448\u0432\u0438\u043b\u0438", "material": "stone", "memorial": "plaque", "name": "\u10d8\u10e3\u10d6\u10d0 \u10d6\u10d0\u10e0\u10d3\u10d0\u10da\u10d8\u10e8\u10d5\u10d8\u10da\u10d8", "name:en": "Iuza Zardalishvili", "name:ka": "\u10d8\u10e3\u10d6\u10d0 \u10d6\u10d0\u10e0\u10d3\u10d0\u10da\u10d8\u10e8\u10d5\u10d8\u10da\u10d8", "name:ru": "\u042e\u0437\u0430 \u0417\u0430\u0440\u0434\u0430\u043b\u0438\u0448\u0432\u0438\u043b\u0438", "openplaques:id": "76537", "subject:wikidata": "Q134293918", "subject:wikipedia": "ka:\u10d8\u10e3\u10d6\u10d0 \u10d6\u10d0\u10e0\u10d3\u10d0\u10da\u10d8\u10e8\u10d5\u10d8\u10da\u10d8", "wikimedia_commons": "File:Iuza Zardalishvili memorial plaque.jpg"}}, {"type": "node", "id": 12871530586, "lat": 42.2707642, "lon": 42.7013852, "tags": {"direction": "181", "historic": "memorial", "inscription": "\u10d0\u10db \u10e1\u10d0\u10ee\u10da\u10e8\u10d8 \u10ea\u10ee\u10dd\u10d5\u10e0\u10dd\u10d1\u10d3\u10d0\n\u10d2\u10d0\u10db\u10dd\u10e9\u10d4\u10dc\u10d8\u10da\u10d8 \u10e5\u10d0\u10e0\u10d7\u10d5\u10d4\u10da\u10d8\n\u10db\u10dd\u10ea\u10d4\u10d9\u10d5\u10d0\u10d5\u10d4 \u10d3\u10d0 \u10e5\u10dd\u10e0\u10d4\u10dd\u10d2\u10e0\u10d0\u10e4\u10d8\n\u10e1\u10d0\u10e5\u10d0\u10e0\u10d7\u10d5\u10d4\u10da\u10dd\u10e1 \u10e1\u10d0\u10ee\u10d0\u10da\u10ee\u10dd\n\u10d0\u10e0\u10e2\u10d8\u10e1\u10e2\u10d8\n\u10db\u10e3\u10e0\u10db\u10d0\u10dc \u10da\u10dd\u10db\u10d7\u10d0\u10d7\u10d8\u10eb\u10d4", "material": "stone", "memorial": "plaque", "name": "\u10db\u10e3\u10e0\u10db\u10d0\u10dc \u10da\u10dd\u10db\u10d7\u10d0\u10d7\u10d8\u10eb\u10d4", "name:en": "Murman Lomtatidze", "name:ka": "\u10db\u10e3\u10e0\u10db\u10d0\u10dc \u10da\u10dd\u10db\u10d7\u10d0\u10d7\u10d8\u10eb\u10d4", "name:ru": "\u041c\u0443\u0440\u043c\u0430\u043d \u041b\u043e\u043c\u0442\u0430\u0442\u0438\u0434\u0437\u0435", "openplaques:id": "76602", "start_date": "2016-05", "subject:wikidata": "Q24844754", "subject:wikipedia": "ka:\u10db\u10e3\u10e0\u10db\u10d0\u10dc \u10da\u10dd\u10db\u10d7\u10d0\u10d7\u10d8\u10eb\u10d4", "wikimedia_commons": "File:Murman Lomtatidze memorial plaque.jpg"}}, {"type": "node", "id": 12875141212, "lat": 42.2737757, "lon": 42.7050917, "tags": {"direction": "298", "historic": "memorial", "inscription": "\u10d0\u10db \u10e1\u10d0\u10ee\u10da\u10e8\u10d8 1970-2023 \u10ec\u10da\u10d4\u10d1\u10e8\u10d8 \u10ea\u10ee\u10dd\u10d5\u10e0\u10dd\u10d1\u10d3\u10d0\n\u10e1\u10d0\u10d6\u10dd\u10d2\u10d0\u10d3\u10dd \u10db\u10dd\u10e6\u10d5\u10d0\u10ec\u10d4, \u10e5\u10d0\u10da\u10d0\u10e5\u10d8\u10e1 \u10e1\u10d0\u10de\u10d0\u10e2\u10d8\u10dd \u10db\u10dd\u10e5\u10d0\u10da\u10d0\u10e5\u10d4,\n\u10d1\u10e0\u10ec\u10e7\u10d8\u10dc\u10d5\u10d0\u10da\u10d4\u10d1\u10d8\u10e1 \u10dd\u10e0\u10d3\u10d4\u10dc\u10d8\u10e1 \u10db\u10e4\u10da\u10dd\u10d1\u10d4\u10da\u10d8\n\u10d6\u10e3\u10e0\u10d0\u10d1 \u10e5\u10d0\u10ef\u10d0\u10d8\u10d0", "material": "stone", "memorial": "plaque", "name": "\u10d6\u10e3\u10e0\u10d0\u10d1 \u10e5\u10d0\u10ef\u10d0\u10d8\u10d0", "name:en": "Zurab Kajaia", "name:ka": "\u10d6\u10e3\u10e0\u10d0\u10d1 \u10e5\u10d0\u10ef\u10d0\u10d8\u10d0", "name:ru": "\u0417\u0443\u0440\u0430\u0431 \u041a\u0430\u0434\u0436\u0430\u044f", "openplaques:id": "76634", "subject:wikidata": "Q134612203", "wikimedia_commons": "File:Zurab Kajaia memorial plaque.jpg"}}, {"type": "node", "id": 12876975168, "lat": 42.2688602, "lon": 42.7058368, "tags": {"direction": "62", "historic": "memorial", "inscription": "\u10d0\u10db \u10e1\u10d0\u10ee\u10da\u10e8\u10d8 \u10d3\u10d0\u10d8\u10d1\u10d0\u10d3\u10d0 \u10d3\u10d0 1945-62 \u10ec-\u10e8\u10d8\n\u10ea\u10ee\u10dd\u10d5\u10e0\u10dd\u10d1\u10d3\u10d0 \u10da\u10d4\u10d2\u10d4\u10dc\u10d3\u10d0\u10e0\u10e3\u10da\u10d8 \u10e5\u10d0\u10e0\u10d7\u10d5\u10d4\u10da\u10d8\n\u10d9\u10d0\u10da\u10d0\u10d7\u10d1\u10e3\u10e0\u10d7\u10d4\u10da\u10d8, \u10dd\u10da\u10d8\u10db\u10de\u10d8\u10e3\u10e0\u10d8, \u10db\u10e1\u10dd\u10e4\u10da\u10d8\u10dd\u10e1,\n\u10d4\u10d5\u10e0\u10dd\u10de\u10d8\u10e1 \u10e9\u10d4\u10db\u10de\u10d8\u10dd\u10dc\u10d8 \u10d3\u10d0 \u10db\u10e0\u10d0\u10d5\u10d0\u10da\u10d2\u10d6\u10d8\u10e1\n\u10de\u10e0\u10d8\u10d6\u10d8\u10dd\u10e0\u10d8 \u10e1\u10de\u10dd\u10e0\u10e2\u10d8\u10e1 \u10d3\u10d0\u10db\u10e1\u10d0\u10ee\u10e3\u10e0\u10d4\u10d1\u10e3\u10da\u10d8\n\u10dd\u10e1\u10e2\u10d0\u10e2\u10d8\n\u10d6\u10e3\u10e0\u10d0\u10d1 \u10e1\u10d0\u10d9\u10d0\u10dc\u10d3\u10d4\u10da\u10d8\u10eb\u10d4", "material": "stone", "memorial": "plaque", "name": "\u10d6\u10e3\u10e0\u10d0\u10d1 \u10e1\u10d0\u10d9\u10d0\u10dc\u10d3\u10d4\u10da\u10d8\u10eb\u10d4", "name:en": "Zurab Sakandelidze", "name:ka": "\u10d6\u10e3\u10e0\u10d0\u10d1 \u10e1\u10d0\u10d9\u10d0\u10dc\u10d3\u10d4\u10da\u10d8\u10eb\u10d4", "name:ru": "\u0417\u0443\u0440\u0430\u0431 \u0421\u0430\u043a\u0430\u043d\u0434\u0435\u043b\u0438\u0434\u0437\u0435", "openplaques:id": "76666", "subject:wikidata": "Q2538085", "subject:wikipedia": "en:Zurab Sakandelidze", "wikimedia_commons": "File:Zurab Sakandelidze memorial plaque.jpg"}}, {"type": "node", "id": 12881273001, "lat": 42.2714924, "lon": 42.7112929, "tags": {"addr:housenumber": "10", "addr:street": "26 Maisi 2nd Lane", "internet_access": "wlan", "name:en": "Hotel Terrace Kutaisi", "self_service": "no", "tourism": "hotel"}}, {"type": "node", "id": 12986114101, "lat": 42.2743458, "lon": 42.7001193, "tags": {"name": "Hotel Eurica", "tourism": "hotel"}}, {"type": "node", "id": 12998701612, "lat": 42.2712457, "lon": 42.7025695, "tags": {"amenity": "restaurant", "check_date": "2025-07-14", "cuisine": "georgian", "name": "MEDEA"}}, {"type": "node", "id": 13004172901, "lat": 42.2615445, "lon": 42.7094181, "tags": {"tourism": "artwork"}}, {"type": "node", "id": 13004173101, "lat": 42.2653795, "lon": 42.7078038, "tags": {"addr:housenumber": "54", "addr:street": "Tamar Mepe Street", "amenity": "cafe", "cuisine": "coffee_shop;sandwich", "internet_access": "wlan", "name": "Runa"}}, {"type": "node", "id": 13065561401, "lat": 42.2670176, "lon": 42.7041151, "tags": {"addr:housenumber": "26\u10d0", "addr:street": "\u10d0\u10d9\u10d0\u10d9\u10d8 \u10ec\u10d4\u10e0\u10d4\u10d7\u10da\u10d8\u10e1 \u10e5\u10e3\u10e9\u10d0", "name:en": "The Grand Piano Villa", "tourism": "guest_house"}}, {"type": "node", "id": 13068200201, "lat": 42.2722233, "lon": 42.7058608, "tags": {"historic": "memorial", "int_name": "Kote Marjanishvili", "memorial": "bust", "name": "\u10d9\u10dd\u10e2\u10d4 \u10db\u10d0\u10e0\u10ef\u10d0\u10dc\u10d8\u10e8\u10d5\u10d8\u10da\u10d8", "name:en": "Kote Marjanishvili", "name:ka": "\u10d9\u10dd\u10e2\u10d4 \u10db\u10d0\u10e0\u10ef\u10d0\u10dc\u10d8\u10e8\u10d5\u10d8\u10da\u10d8", "name:ru": "\u041a\u043e\u0442\u044d \u041c\u0430\u0440\u0434\u0436\u0430\u043d\u0438\u0448\u0432\u0438\u043b\u0438", "subject:wikidata": "Q2467738", "subject:wikipedia": "ka:\u10d9\u10dd\u10e2\u10d4 \u10db\u10d0\u10e0\u10ef\u10d0\u10dc\u10d8\u10e8\u10d5\u10d8\u10da\u10d8"}}, {"type": "node", "id": 13068245101, "lat": 42.2738309, "lon": 42.7047631, "tags": {"addr:housenumber": "9", "addr:street": "\u10e4\u10d4\u10da\u10d8\u10e5\u10e1 \u10d5\u10d0\u10e0\u10da\u10d0\u10db\u10d8\u10e8\u10d5\u10d8\u10da\u10d8\u10e1 \u10e5\u10e3\u10e9\u10d0", "name": "\u10da\u10e3\u10e5", "name:en": "Look", "tourism": "hostel"}}, {"type": "node", "id": 13068256102, "lat": 42.2745639, "lon": 42.7062247, "tags": {"historic": "memorial"}}, {"type": "node", "id": 13099721246, "lat": 42.2683203, "lon": 42.7020942, "tags": {"name": "Vladi", "tourism": "hotel"}}, {"type": "node", "id": 13143108711, "lat": 42.271224, "lon": 42.7071675, "tags": {"check_date": "2025-09-14", "name": "Central Hotel", "name:en": "Central Hotel", "tourism": "hotel"}}, {"type": "node", "id": 13176814807, "lat": 42.2748549, "lon": 42.7005545, "tags": {"contact:mobile": "+995 599 50 60 27", "internet_access": "wlan", "name": "Garden Rooms", "tourism": "hotel"}}, {"type": "node", "id": 13266358654, "lat": 42.2727089, "lon": 42.7073032, "tags": {"amenity": "cafe", "name": "Bukioti", "name:en": "Bukioti"}}, {"type": "way", "id": 100742596, "nodes": [11067108391, 11067108390], "tags": {"bridge": "yes", "highway": "pedestrian", "layer": "1", "name": "\u10d7\u10d4\u10d7\u10e0\u10d8 \u10ee\u10d8\u10d3\u10d8", "name:de": "Wei\u00dfe Br\u00fccke", "name:en": "White Bridge", "name:hu": "Feh\u00e9r h\u00edd", "name:ka": "\u10d7\u10d4\u10d7\u10e0\u10d8 \u10ee\u10d8\u10d3\u10d8", "name:ru": "\u0411\u0435\u043b\u044b\u0439 \u043c\u043e\u0441\u0442", "name:uk": "\u0411\u0456\u043b\u0438\u0439 \u043c\u0456\u0441\u0442", "opening_hours": "24/7", "start_date": "1850", "surface": "metal", "tourism": "attraction", "wikidata": "Q42691138"}}, {"type": "way", "id": 100750901, "nodes": [1164532493, 1164533024, 1164531492, 1164533231, 1164529994, 1164532493], "tags": {"leisure": "park", "source": "JumpStart International"}}, {"type": "way", "id": 132076228, "nodes": [1453616091, 1453616089, 2151793389, 11151549593, 10973826795, 1453616102, 11151544670, 11151544673, 11151544697, 11151549591, 1453616099, 11151549592, 11151544696, 11151544693, 11151544690, 1453616091], "tags": {"leisure": "park", "name": "\u10ea\u10d4\u10dc\u10e2\u10e0\u10d0\u10da\u10e3\u10e0\u10d8 \u10d1\u10d0\u10e6\u10d8 \u201c\u10d1\u10e3\u10da\u10d5\u10d0\u10e0\u10d8\u201c", "name:en": "\"Central Garden \"Boulevard\"", "name:ka": "\u10ea\u10d4\u10dc\u10e2\u10e0\u10d0\u10da\u10e3\u10e0\u10d8 \u10d1\u10d0\u10e6\u10d8 \u201c\u10d1\u10e3\u10da\u10d5\u10d0\u10e0\u10d8\u201c", "name:ru": "\u0426\u0435\u043d\u0442\u0440\u0430\u043b\u044c\u043d\u044b\u0439 \u0441\u0430\u0434 \u00ab\u0411\u0443\u043b\u044c\u0432\u0430\u0440\u00bb"}}, {"type": "way", "id": 205467245, "nodes": [2154396840, 11008695452, 2154396806, 2154396813, 2154396793, 2154396825, 2154396807, 2154396789, 11053479209, 2154396795, 2154396774, 2154396766, 2154396776, 2154396812, 11053416991, 11053416990, 2154396833, 2154396822, 2154396834, 2154396840], "tags": {"leisure": "park"}}, {"type": "way", "id": 217945274, "nodes": [2272523810, 2272523809, 10973826732, 10973826736, 2272523807, 2690879248, 2272523810], "tags": {"amenity": "marketplace", "name": "\u10ea\u10d4\u10dc\u10e2\u10e0\u10d0\u10da\u10e3\u10e0\u10d8 \u10d1\u10d0\u10d6\u10d0\u10e0\u10d8", "name:en": "Village Market", "name:hu": "v\u00e1rosi piac", "name:ka": "\u10ea\u10d4\u10dc\u10e2\u10e0\u10d0\u10da\u10e3\u10e0\u10d8 \u10d1\u10d0\u10d6\u10d0\u10e0\u10d8", "name:ru": "\u0426\u0435\u043d\u0442\u0440\u0430\u043b\u044c\u043d\u044b\u0439 \u0440\u044b\u043d\u043e\u043a"}}, {"type": "way", "id": 263462145, "nodes": [2690816596, 11003451558, 11003451559, 11003451560, 11003451561, 2690816656], "tags": {"bridge": "yes", "highway": "footway", "historic": "bridge", "layer": "1", "tourism": "attraction"}}, {"type": "way", "id": 263462146, "nodes": [2690816662, 11003418378, 11003418379, 11003418377, 2690816641], "tags": {"bridge": "yes", "highway": "footway", "historic": "bridge", "layer": "1"}}, {"type": "way", "id": 305121337, "nodes": [5780175854, 3097016188, 497664829, 5780175858, 5780175857, 11027911295, 11027911300, 11027911301, 11027911302, 3097016191, 3097016185, 5780175856, 11027911299, 11027911298, 3097016190, 3097016189, 11027911297, 11027911296, 3097016192, 5780175860, 5780175855, 3097016186, 5780175859, 5780175854], "tags": {"alt_name:de": "Kirche der Entschlafung der hochheiligen Gottesgeb\u00e4rerin", "amenity": "place_of_worship", "building": "cathedral", "denomination": "georgian_orthodox", "historic": "church", "int_name": "Bagratis Tadzari", "name": "\u10d1\u10d0\u10d2\u10e0\u10d0\u10e2\u10d8\u10e1 \u10e2\u10d0\u10eb\u10d0\u10e0\u10d8", "name:de": "Bagrati-Kathedrale", "name:en": "Bagrati Cathedral", "name:fr": "Cath\u00e9drale de Bagrati", "name:hu": "Bagrati katedr\u00e1lis", "name:ka": "\u10d1\u10d0\u10d2\u10e0\u10d0\u10e2\u10d8\u10e1 \u10e2\u10d0\u10eb\u10d0\u10e0\u10d8", "name:lt": "Bagrato katedra", "name:pl": "Katedra Bagrata", "name:ru": "\u0425\u0440\u0430\u043c \u0411\u0430\u0433\u0440\u0430\u0442\u0430", "name:zh": "\u5df4\u683c\u62c9\u7279\u4e3b\u6559\u5ea7\u5802", "religion": "christian", "tourism": "attraction", "website": "https://nobility.pro/georgia/imereti/bagrati-cathedral", "wikidata": "Q37222", "wikipedia": "en:Bagrati Cathedral"}}, {"type": "way", "id": 353663982, "nodes": [3594804682, 3594804683, 3594804684, 3594804685, 3594804682], "tags": {"addr:city": "\u10e5\u10e3\u10d7\u10d0\u10d8\u10e1\u10d8", "addr:housenumber": "21B", "addr:housenumber:en": "21B", "addr:street": "\u10d2\u10e0\u10d8\u10d2\u10dd\u10da \u10ee\u10d0\u10dc\u10eb\u10d7\u10d4\u10da\u10d8\u10e1 \u10e5\u10e3\u10e9\u10d0", "addr:street:en": "Grigol Khandzteli Street", "building": "yes", "name": "\u10e0\u10e9\u10d4\u10e3\u10da\u10d8 \u10de\u10d0\u10da\u10d0\u10e1\u10d8", "tourism": "hotel"}}, {"type": "way", "id": 355787217, "nodes": [5625979523, 5625979524, 5625979525, 5625979526, 5625979527, 3613227293, 3613227493, 3613227593, 3613227693, 5625978817, 5625978818, 5625978819, 5625978820, 5625979521, 5625979522, 3613227893, 3613227894, 3613227993, 3613228193, 5625979523], "tags": {"addr:city": "\u10e5\u10e3\u10d7\u10d0\u10d8\u10e1\u10d8", "addr:city:xmf": "\u10e5\u10e3\u10d7\u10d4\u10e8\u10d8", "addr:postcode": "4600", "addr:street": "\u10d7\u10d0\u10db\u10d0\u10e0 \u10db\u10d4\u10e4\u10d8\u10e1 \u10e5\u10e3\u10e9\u10d0", "amenity": "fountain", "name": "\u10d9\u10dd\u10da\u10ee\u10e3\u10e0\u10d8 \u10e8\u10d0\u10d3\u10e0\u10d4\u10d5\u10d0\u10dc\u10d8", "name:en": "Colchis Fountain", "name:hu": "sz\u00f6k\u0151k\u00fat", "name:ka": "\u10d9\u10dd\u10da\u10ee\u10e3\u10e0\u10d8 \u10e8\u10d0\u10d3\u10e0\u10d4\u10d5\u10d0\u10dc\u10d8", "name:ru": "\u041a\u043e\u043b\u0445\u0438\u0434\u0441\u043a\u0438\u0439 \u0444\u043e\u043d\u0442\u0430\u043d", "name:uk": "\u041a\u043e\u043b\u0445\u0456\u0434\u0441\u044c\u043a\u0438\u0439 \u0444\u043e\u043d\u0442\u0430\u043d", "start_date": "2011", "tourism": "attraction", "wheelchair": "limited", "wikidata": "Q125416702"}}, {"type": "way", "id": 383619621, "nodes": [3869190113, 10978963991, 10978963990, 10978963988, 10978963989, 10978963992, 3869190114, 3869190115, 3869190116, 10978963995, 3869190113], "tags": {"addr:city": "\u10e5\u10e3\u10d7\u10d0\u10d8\u10e1\u10d8", "addr:housenumber": "25", "addr:postcode": "4600", "addr:street": "\u10db\u10d4\u10e0\u10d0\u10d1 \u10d9\u10dd\u10e1\u10e2\u10d0\u10d5\u10d0\u10e1 \u10e5\u10e3\u10e9\u10d0", "building": "yes", "name": "\u10e1\u10d0\u10e1\u10e2\u10e3\u10db\u10e0\u10dd \u10da\u10d8\u10d0", "name:en": "Hotel LIA", "tourism": "hotel"}}, {"type": "way", "id": 397027102, "nodes": [3998568782, 3998568783, 1164538730, 3998568785, 3998568782], "tags": {"addr:city": "\u10e5\u10e3\u10d7\u10d0\u10d8\u10e1\u10d8", "addr:housenumber": "16", "addr:postcode": "4600", "addr:street": "\u10d3\u10d0\u10d5\u10d8\u10d7 \u10d0\u10e6\u10db\u10d0\u10e8\u10d4\u10dc\u10d4\u10d1\u10da\u10d8\u10e1 \u10d2\u10d0\u10db\u10d6\u10d8\u10e0\u10d8", "amenity": "restaurant", "building": "yes", "check_date": "2023-07-04", "name": "\u10d5\u10d8\u10dd\u10da\u10d8\u10dc\u10dd", "name:en": "Violino", "name:ka": "\u10d5\u10d8\u10dd\u10da\u10d8\u10dc\u10dd", "old_name": "\u10d4\u10d3\u10d4\u10db\u10d8 (Edemi)", "old_name:en": "Edemi", "old_name:ka": "\u10d4\u10d3\u10d4\u10db\u10d8"}}, {"type": "way", "id": 475519526, "nodes": [4692569097, 4692569098, 4692569099, 4692569100, 4692569101, 4692569102, 4692569097], "tags": {"addr:city": "\u10e5\u10e3\u10d7\u10d0\u10d8\u10e1\u10d8", "addr:housenumber": "2", "addr:street": "\u10d1\u10d0\u10d2\u10e0\u10d0\u10e2\u10d8\u10e1 \u10e5\u10e3\u10e9\u10d0", "building": "yes", "check_date": "2025-08-24", "internet_access": "yes", "name": "Sun", "rooms": "0", "smoking": "outside", "tourism": "guest_house"}}, {"type": "way", "id": 477789336, "nodes": [4710912097, 4710912098, 4710912099, 4710912100, 4710912097], "tags": {"addr:city": "\u10e5\u10e3\u10d7\u10d0\u10d8\u10e1\u10d8", "addr:housenumber": "17", "addr:postcode": "4600", "addr:street": "\u10dc\u10d8\u10d9\u10dd\u10da\u10dd\u10d6 \u10d2\u10dd\u10d2\u10dd\u10da\u10d8\u10e1 \u10e5\u10e3\u10e9\u10d0", "building": "yes", "building:levels": "2", "name": "\u10e5\u10e0\u10d8\u10e1\u10e2\u10d8\u10dc\u10d4 \u10e0\u10dd\u10d1\u10d0\u10e5\u10d8\u10eb\u10d8\u10e1 \u10d2\u10d0\u10da\u10d4\u10e0\u10d4\u10d0", "tourism": "gallery"}}, {"type": "way", "id": 537234371, "nodes": [2884911429, 5202836763, 5202836764, 5202836765, 2884911429], "tags": {"alt_name:ru": "\u0414\u0430\u0432\u0438\u0434 \u0421\u0442\u0440\u043e\u0438\u0442\u0435\u043b\u044c", "historic": "memorial", "int_name": "Davit Aghmashenebeli", "memorial": "statue", "name": "\u10d3\u10d0\u10d5\u10d8\u10d7 \u10d0\u10e6\u10db\u10d0\u10e8\u10d4\u10dc\u10d4\u10d1\u10d4\u10da\u10d8", "name:de": "David der Erbauer", "name:en": "David the Builder", "name:ru": "\u0414\u0430\u0432\u0438\u0434 \u0410\u0433\u043c\u0430\u0448\u0435\u043d\u0435\u0431\u0435\u043b\u0438", "subject:wikidata": "Q36760", "subject:wikipedia": "ka:\u10d3\u10d0\u10d5\u10d8\u10d7 IV \u10d0\u10e6\u10db\u10d0\u10e8\u10d4\u10dc\u10d4\u10d1\u10d4\u10da\u10d8"}}, {"type": "way", "id": 604747134, "nodes": [5737525039, 11083826603, 5737525040, 5737525042, 5737525043, 5737525044, 5737525039], "tags": {"leisure": "park", "name": "\u10ee\u10d0\u10e0\u10d0\u10d6\u10dd\u10d5\u10d8\u10e1 \u10de\u10d0\u10e0\u10d9\u10d8", "name:en": "Kharazov Park", "name:ka": "\u10ee\u10d0\u10e0\u10d0\u10d6\u10dd\u10d5\u10d8\u10e1 \u10de\u10d0\u10e0\u10d9\u10d8", "operator": "Kutaisi City Hall"}}, {"type": "way", "id": 614972158, "nodes": [5816276657, 11028384685, 5816276658, 5816276659, 5816276660, 11028384684, 5816276657], "tags": {"addr:housenumber": "4", "addr:street": "\u10e8\u10dd\u10d7\u10d0 \u10e0\u10e3\u10e1\u10d7\u10d0\u10d5\u10d4\u10da\u10d8\u10e1 \u10d2\u10d0\u10db\u10d6\u10d8\u10e0\u10d8", "addr:street:en": "Shota Rustaveli Avenue", "building": "commercial", "building:levels": "3", "check_date": "2023-08-15", "contact:facebook": "https://www.facebook.com/GrandOperaHotelkutaisi", "contact:phone": "+995 431 21 24 24", "name": "\u10d2\u10e0\u10d0\u10dc\u10d3 \u10dd\u10de\u10d4\u10e0\u10d0", "name:en": "Grand Opera", "name:ka": "\u10d2\u10e0\u10d0\u10dc\u10d3 \u10dd\u10de\u10d4\u10e0\u10d0", "tourism": "hotel"}}, {"type": "way", "id": 734992371, "nodes": [6883642157, 6883642158, 6883642159, 6883642160, 6883642157], "tags": {"historic": "yes", "man_made": "tower", "tower:type": "bell_tower"}}, {"type": "way", "id": 963336505, "nodes": [8910940776, 8910940777, 8910940778, 8910940779, 8910940776], "tags": {"addr:city": "\u10e5\u10e3\u10d7\u10d0\u10d8\u10e1\u10d8", "addr:housenumber": "3", "addr:street": "\u10dd\u10d7\u10d0\u10e0 \u10e9\u10d4\u10e9\u10d4\u10da\u10d0\u10e8\u10d5\u10d8\u10da\u10d8\u10e1 \u10e5\u10e3\u10e9\u10d0", "addr:street:en": "Otar Chechelashvili Street", "building": "house", "name": "Maluano hostel", "tourism": "hostel"}}, {"type": "way", "id": 1051860928, "nodes": [10698696592, 9666111201, 9666111202, 9666111203, 9666111204, 9666111205, 9666111206, 9666111207, 10698696592], "tags": {"description": "Old prison of Kutaisi. Not in use anymore.", "disused:amenity": "prison", "historic": "yes", "landuse": "brownfield"}}, {"type": "way", "id": 1060022356, "nodes": [9739026987, 9739026988, 9739026989, 9739026990, 9739026987], "tags": {"addr:city": "\u10e5\u10e3\u10d7\u10d0\u10d8\u10e1\u10d8", "addr:housenumber": "12", "addr:street": "\u10d6\u10d0\u10d6\u10d0 \u10db\u10d0\u10da\u10d0\u10dc\u10d8\u10d0\u10e1 \u10e5\u10e3\u10e9\u10d0", "addr:street:en": "Zaza Malania Street", "building": "yes", "name": "Zarzma", "tourism": "guest_house"}}, {"type": "way", "id": 1148040847, "nodes": [10681661867, 10681661868, 10681661869, 10681661870, 10681661867], "tags": {"addr:city": "\u10e5\u10e3\u10d7\u10d0\u10d8\u10e1\u10d8", "addr:housenumber": "3", "addr:street": "\u10d4\u10d3\u10e3\u10d0\u10e0\u10d3 \u10e0\u10dd\u10eb\u10d4\u10d5\u10d8\u10e9\u10d8\u10e1 \u10e5\u10e3\u10e9\u10d0", "addr:street:en": "Eduard Rodzevich Street", "building": "house", "building:levels": "2", "contact:mobile": "+995 577 71 61 71", "email": "Boutiquehotelhoney@gmail.com", "internet_access": "wlan", "internet_access:fee": "no", "name": "\u10f0\u10d0\u10dc\u10d8 \u10d1\u10e3\u10e2\u10d8\u10d9 \u10f0\u10dd\u10e2\u10d4\u10da\u10d8", "name:en": "Honey Boutique Hotel", "rooms": "3", "tourism": "hotel", "website": "https://www.facebook.com/HoneyBoutiqueHotel"}}, {"type": "way", "id": 1181029627, "nodes": [10968273494, 10968273491, 10968273492, 11018618567, 10968273493, 10968273494], "tags": {"addr:housenumber": "9\u10d1", "addr:housenumber2": "9B", "addr:street": "\u10e8\u10dd\u10d7\u10d0 \u10e0\u10e3\u10e1\u10d7\u10d0\u10d5\u10d4\u10da\u10d8\u10e1 \u10d2\u10d0\u10db\u10d6\u10d8\u10e0\u10d8", "addr:street:en": "Shota Rustaveli Avenue", "alt_name:en": "Golden marquee", "alt_name:ru": "\u0417\u043e\u043b\u043e\u0442\u043e\u0439 \u0448\u0430\u0442\u0451\u0440", "building": "yes", "name": "\u10dd\u10e5\u10e0\u10dd\u10e1 \u10e9\u10d0\u10e0\u10d3\u10d0\u10ee\u10d8", "name:en": "Okros Chardakhi", "name:ka": "\u10dd\u10e5\u10e0\u10dd\u10e1 \u10e9\u10d0\u10e0\u10d3\u10d0\u10ee\u10d8", "name:ru": "\u041e\u043a\u0440\u043e\u0441 \u0447\u0430\u0440\u0434\u0430\u0445\u0438", "tourism": "attraction", "wikidata": "Q42688484", "wikipedia": "ka:\u10dd\u10e5\u10e0\u10dd\u10e1 \u10e9\u10d0\u10e0\u10d3\u10d0\u10ee\u10d8"}}, {"type": "way", "id": 1182445198, "nodes": [8910952461, 8910952462, 8910952463, 11027911267, 10980449929, 11027911268, 11027911269, 10980449928, 10980449927, 7076846386, 8910952464, 8910952465, 11027911282, 8910952466, 8910952467, 10980449941, 8910952468, 8910952469, 8910952470, 8910952457, 8910952458, 11027911280, 8910952459, 11027911281, 8910952460, 8910952461], "tags": {"historic": "ruins"}}, {"type": "way", "id": 1183734928, "nodes": [10992532202, 10992532201, 10992532200, 10992532199, 10992532202], "tags": {"historic": "memorial"}}, {"type": "way", "id": 1184678991, "nodes": [11003418353, 11003418350, 11003418351, 11003418352, 11003418353], "tags": {"amenity": "restaurant", "building": "yes", "name": "\u10d5\u10d4\u10e0\u10d0\u10dc\u10d3\u10d0", "name:en": "Veranda", "name:ka": "\u10d5\u10d4\u10e0\u10d0\u10dc\u10d3\u10d0"}}, {"type": "way", "id": 1186311411, "nodes": [11018618582, 5609885221, 11018618580, 11018618581, 11018618582], "tags": {"amenity": "restaurant", "building": "yes", "check_date": "2025-09-14", "cuisine": "coffee_shop", "name": "\u10d0\u10e0\u10d2\u10dd", "name:de": "Argo", "name:en": "Argo", "name:ka": "\u10d0\u10e0\u10d2\u10dd", "website:menu": "https://cafeargo.emenu.ge/"}}, {"type": "way", "id": 1187220901, "nodes": [11025076944, 11025076943, 11025076942, 11025076941, 11025076940, 11025076939, 11025076944], "tags": {"leisure": "park"}}, {"type": "way", "id": 1187622523, "nodes": [6883642160, 11027911240, 11027911239], "tags": {"barrier": "wall", "historic": "yes", "ruins": "yes"}}, {"type": "way", "id": 1187622527, "nodes": [11027911276, 11027911274, 11027911273, 11027911275, 11027911272, 11027911271, 11027911277, 11027911278, 11027911270, 11027911279, 11027911276], "tags": {"amenity": "place_of_worship", "building": "church", "historic": "yes", "name": "\u10ec\u10db\u10d8\u10dc\u10d3\u10d0 \u10d2\u10d8\u10dd\u10e0\u10d2\u10d8\u10e1 \u10e2\u10d0\u10eb\u10e0\u10d8\u10e1", "name:en": "Church of St. George", "name:ka": "\u10ec\u10db\u10d8\u10dc\u10d3\u10d0 \u10d2\u10d8\u10dd\u10e0\u10d2\u10d8\u10e1 \u10e2\u10d0\u10eb\u10e0\u10d8\u10e1", "name:ru": "\u0426\u0435\u0440\u043a\u043e\u0432\u044c \u0421\u0432\u044f\u0442\u043e\u0433\u043e \u0413\u0435\u043e\u0440\u0433\u0438\u044f", "religion": "christian"}}, {"type": "way", "id": 1189360006, "nodes": [11043854972, 11043854971, 11043854970, 11043854969, 11043854968, 11043854967, 11043854966, 11043854965, 11043854964, 11043854963, 11043854962, 11043854961, 11043854960, 11043854959, 11043854958, 11043854957, 11043854956, 11043854955, 11043854954, 11043854953, 11043854972], "tags": {"leisure": "park", "name": "\u10d5\u10da\u10d0\u10d3\u10d8\u10e1\u10da\u10d0\u10d5 \u10e0\u10d0\u10e9\u10d9\u10d4\u10d5\u10d8\u10e9\u10d8\u10e1 \u10e1\u10d0\u10ee\u10d4\u10da\u10dd\u10d1\u10d8\u10e1 \u10e1\u10d9\u10d5\u10d4\u10e0\u10d8", "name:en": "Square named after W\u0142adys\u0142aw Raczkiewicz", "name:ka": "\u10d5\u10da\u10d0\u10d3\u10d8\u10e1\u10da\u10d0\u10d5 \u10e0\u10d0\u10e9\u10d9\u10d4\u10d5\u10d8\u10e9\u10d8\u10e1 \u10e1\u10d0\u10ee\u10d4\u10da\u10dd\u10d1\u10d8\u10e1 \u10e1\u10d9\u10d5\u10d4\u10e0\u10d8", "name:ru": "\u0421\u043a\u0432\u0435\u0440 \u0438\u043c\u0435\u043d\u0438 \u0412\u043b\u0430\u0434\u0438\u0441\u043b\u0430\u0432\u0430 \u0420\u0430\u0447\u043a\u0435\u0432\u0438\u0447\u0430", "subject:wikidata": "Q55840", "subject:wikipedia": "ka:\u10d5\u10da\u10d0\u10d3\u10d8\u10e1\u10da\u10d0\u10d5 \u10e0\u10d0\u10e9\u10d9\u10d4\u10d5\u10d8\u10e9\u10d8"}}, {"type": "way", "id": 1190587009, "nodes": [5821148069, 11054639374, 11054639373, 5821148055, 5821148056, 11054639372, 11054639370, 5821148069], "tags": {"leisure": "park"}}, {"type": "node", "id": 3594804682, "lat": 42.2623505, "lon": 42.701482}, {"type": "node", "id": 3594804683, "lat": 42.2619413, "lon": 42.701482}, {"type": "node", "id": 3594804684, "lat": 42.2619383, "lon": 42.7017991}, {"type": "node", "id": 3594804685, "lat": 42.2623535, "lon": 42.7017991}, {"type": "node", "id": 8910940776, "lat": 42.2651562, "lon": 42.7025099}, {"type": "node", "id": 8910940777, "lat": 42.2651662, "lon": 42.7026482}, {"type": "node", "id": 8910940778, "lat": 42.2650286, "lon": 42.7026663}, {"type": "node", "id": 8910940779, "lat": 42.2650186, "lon": 42.7025281}, {"type": "node", "id": 9666111201, "lat": 42.2625954, "lon": 42.6999576}, {"type": "node", "id": 9666111202, "lat": 42.2632571, "lon": 42.7001078}, {"type": "node", "id": 9666111203, "lat": 42.2633848, "lon": 42.6990664}, {"type": "node", "id": 9666111204, "lat": 42.2632115, "lon": 42.6990633}, {"type": "node", "id": 9666111205, "lat": 42.2632206, "lon": 42.698977}, {"type": "node", "id": 9666111206, "lat": 42.2629789, "lon": 42.6989462}, {"type": "node", "id": 9666111207, "lat": 42.2629767, "lon": 42.6988785}, {"type": "node", "id": 9739026987, "lat": 42.2622909, "lon": 42.7002866}, {"type": "node", "id": 9739026988, "lat": 42.2621445, "lon": 42.7002381}, {"type": "node", "id": 9739026989, "lat": 42.2621624, "lon": 42.7001396}, {"type": "node", "id": 9739026990, "lat": 42.2623088, "lon": 42.700188}, {"type": "node", "id": 10698696592, "lat": 42.2627121, "lon": 42.6988939}, {"type": "node", "id": 10992532199, "lat": 42.2613759, "lon": 42.7006859}, {"type": "node", "id": 10992532200, "lat": 42.2611805, "lon": 42.7006781}, {"type": "node", "id": 10992532201, "lat": 42.2611845, "lon": 42.7004961}, {"type": "node", "id": 10992532202, "lat": 42.2613799, "lon": 42.7005039}, {"type": "node", "id": 1453616089, "lat": 42.2707662, "lon": 42.7028144}, {"type": "node", "id": 1453616091, "lat": 42.2716092, "lon": 42.7027014}, {"type": "node", "id": 2154396766, "lat": 42.2692667, "lon": 42.7016033}, {"type": "node", "id": 2154396774, "lat": 42.2693293, "lon": 42.7016702}, {"type": "node", "id": 2154396776, "lat": 42.2692022, "lon": 42.7014946}, {"type": "node", "id": 2154396789, "lat": 42.2694831, "lon": 42.7017977}, {"type": "node", "id": 2154396793, "lat": 42.2701317, "lon": 42.7012181}, {"type": "node", "id": 2154396795, "lat": 42.2694126, "lon": 42.7017534}, {"type": "node", "id": 2154396806, "lat": 42.2703374, "lon": 42.7005911}, {"type": "node", "id": 2154396807, "lat": 42.2696509, "lon": 42.7017868}, {"type": "node", "id": 2154396812, "lat": 42.2689561, "lon": 42.7008388}, {"type": "node", "id": 2154396813, "lat": 42.2701203, "lon": 42.7006562}, {"type": "node", "id": 2154396822, "lat": 42.2699887, "lon": 42.7001032}, {"type": "node", "id": 2154396825, "lat": 42.2696558, "lon": 42.7012423}, {"type": "node", "id": 2154396833, "lat": 42.2697649, "lon": 42.7007194}, {"type": "node", "id": 2154396834, "lat": 42.2702726, "lon": 42.6999114}, {"type": "node", "id": 2154396840, "lat": 42.2703385, "lon": 42.699908}, {"type": "node", "id": 2272523807, "lat": 42.2726737, "lon": 42.7024225}, {"type": "node", "id": 2272523809, "lat": 42.2718071, "lon": 42.7007155}, {"type": "node", "id": 2272523810, "lat": 42.2725489, "lon": 42.7005645}, {"type": "node", "id": 2690879248, "lat": 42.2726679, "lon": 42.7020618}, {"type": "node", "id": 5609885221, "lat": 42.2702746, "lon": 42.7000352}, {"type": "node", "id": 5816276657, "lat": 42.2707634, "lon": 42.7015319}, {"type": "node", "id": 5816276658, "lat": 42.2707791, "lon": 42.7017185}, {"type": "node", "id": 5816276659, "lat": 42.270969, "lon": 42.701692}, {"type": "node", "id": 5816276660, "lat": 42.2709619, "lon": 42.7015227}, {"type": "node", "id": 10968273491, "lat": 42.2700324, "lon": 42.7004587}, {"type": "node", "id": 10968273492, "lat": 42.2700651, "lon": 42.7007344}, {"type": "node", "id": 10968273493, "lat": 42.2699452, "lon": 42.7007602}, {"type": "node", "id": 10968273494, "lat": 42.2699125, "lon": 42.7004846}, {"type": "node", "id": 10973826732, "lat": 42.2715553, "lon": 42.7007622}, {"type": "node", "id": 10973826736, "lat": 42.2717131, "lon": 42.7025364}, {"type": "node", "id": 11008695452, "lat": 42.2703375, "lon": 42.7003879}, {"type": "node", "id": 11018618567, "lat": 42.2700047, "lon": 42.7007474}, {"type": "node", "id": 11018618580, "lat": 42.2700567, "lon": 42.7002022}, {"type": "node", "id": 11018618581, "lat": 42.2700191, "lon": 42.7001124}, {"type": "node", "id": 11018618582, "lat": 42.2702369, "lon": 42.6999454}, {"type": "node", "id": 11025076942, "lat": 42.2700617, "lon": 42.7032512}, {"type": "node", "id": 11025076943, "lat": 42.2700399, "lon": 42.702971}, {"type": "node", "id": 11025076944, "lat": 42.2704617, "lon": 42.7029186}, {"type": "node", "id": 11028384684, "lat": 42.2708734, "lon": 42.701527}, {"type": "node", "id": 11028384685, "lat": 42.2707621, "lon": 42.7016875}, {"type": "node", "id": 11043854953, "lat": 42.2713422, "lon": 42.700919}, {"type": "node", "id": 11043854954, "lat": 42.2713399, "lon": 42.7008899}, {"type": "node", "id": 11043854955, "lat": 42.2710346, "lon": 42.7009316}, {"type": "node", "id": 11043854956, "lat": 42.271032, "lon": 42.7007098}, {"type": "node", "id": 11043854957, "lat": 42.2709352, "lon": 42.7007133}, {"type": "node", "id": 11043854958, "lat": 42.2708289, "lon": 42.7006352}, {"type": "node", "id": 11043854959, "lat": 42.2707301, "lon": 42.7006319}, {"type": "node", "id": 11043854960, "lat": 42.2707284, "lon": 42.7003227}, {"type": "node", "id": 11043854961, "lat": 42.2707389, "lon": 42.7002585}, {"type": "node", "id": 11043854962, "lat": 42.2707636, "lon": 42.70018}, {"type": "node", "id": 11043854963, "lat": 42.2708005, "lon": 42.7000979}, {"type": "node", "id": 11043854964, "lat": 42.2708419, "lon": 42.7000468}, {"type": "node", "id": 11043854965, "lat": 42.2708991, "lon": 42.7000111}, {"type": "node", "id": 11043854966, "lat": 42.2709563, "lon": 42.6999969}, {"type": "node", "id": 11043854967, "lat": 42.2711393, "lon": 42.6999992}, {"type": "node", "id": 11043854968, "lat": 42.271178, "lon": 42.7000076}, {"type": "node", "id": 11043854969, "lat": 42.2712291, "lon": 42.7000325}, {"type": "node", "id": 11043854970, "lat": 42.2712748, "lon": 42.7000706}, {"type": "node", "id": 11043854971, "lat": 42.2713179, "lon": 42.700136}, {"type": "node", "id": 11043854972, "lat": 42.2714482, "lon": 42.7008855}, {"type": "node", "id": 11053416990, "lat": 42.2693065, "lon": 42.700793}, {"type": "node", "id": 11053416991, "lat": 42.2691001, "lon": 42.7007769}, {"type": "node", "id": 11053479209, "lat": 42.2694544, "lon": 42.7017888}, {"type": "node", "id": 11067108390, "lat": 42.2689049, "lon": 42.7008793}, {"type": "node", "id": 11067108391, "lat": 42.2685901, "lon": 42.6998827}, {"type": "node", "id": 11151544690, "lat": 42.271621, "lon": 42.702835}, {"type": "node", "id": 4710912097, "lat": 42.2531014, "lon": 42.7165956}, {"type": "node", "id": 4710912098, "lat": 42.2531201, "lon": 42.7166863}, {"type": "node", "id": 4710912099, "lat": 42.2530375, "lon": 42.7167173}, {"type": "node", "id": 4710912100, "lat": 42.2530188, "lon": 42.7166266}, {"type": "node", "id": 1164538730, "lat": 42.26156, "lon": 42.703731}, {"type": "node", "id": 3998568782, "lat": 42.2617963, "lon": 42.7036287}, {"type": "node", "id": 3998568783, "lat": 42.2616078, "lon": 42.7035417}, {"type": "node", "id": 3998568785, "lat": 42.2617485, "lon": 42.7038179}, {"type": "node", "id": 10681661867, "lat": 42.2645207, "lon": 42.7076735}, {"type": "node", "id": 10681661868, "lat": 42.2646448, "lon": 42.7076113}, {"type": "node", "id": 10681661869, "lat": 42.2647189, "lon": 42.7078814}, {"type": "node", "id": 10681661870, "lat": 42.2645948, "lon": 42.7079436}, {"type": "node", "id": 1164529994, "lat": 42.2650914, "lon": 42.7109792}, {"type": "node", "id": 1164531492, "lat": 42.2648067, "lon": 42.7107108}, {"type": "node", "id": 1164532493, "lat": 42.2649365, "lon": 42.7111506}, {"type": "node", "id": 1164533024, "lat": 42.2647287, "lon": 42.7107993}, {"type": "node", "id": 1164533231, "lat": 42.264874, "lon": 42.7106274}, {"type": "node", "id": 2884911429, "lat": 42.261349, "lon": 42.7120258}, {"type": "node", "id": 5202836763, "lat": 42.2613511, "lon": 42.7121562}, {"type": "node", "id": 5202836764, "lat": 42.2614444, "lon": 42.7121534}, {"type": "node", "id": 5202836765, "lat": 42.2614423, "lon": 42.712023}, {"type": "node", "id": 5737525039, "lat": 42.2663396, "lon": 42.7150852}, {"type": "node", "id": 5737525040, "lat": 42.2663616, "lon": 42.7158165}, {"type": "node", "id": 5737525043, "lat": 42.2652948, "lon": 42.7162625}, {"type": "node", "id": 5737525044, "lat": 42.2652626, "lon": 42.7152533}, {"type": "node", "id": 11083826603, "lat": 42.266364, "lon": 42.7153549}, {"type": "node", "id": 1453616099, "lat": 42.2717725, "lon": 42.7049199}, {"type": "node", "id": 1453616102, "lat": 42.2708536, "lon": 42.7048652}, {"type": "node", "id": 2151793389, "lat": 42.2707559, "lon": 42.7046191}, {"type": "node", "id": 3613227293, "lat": 42.2715675, "lon": 42.7054763}, {"type": "node", "id": 3613227493, "lat": 42.2715657, "lon": 42.7055147}, {"type": "node", "id": 3613227593, "lat": 42.2715546, "lon": 42.7055502}, {"type": "node", "id": 3613227693, "lat": 42.2715357, "lon": 42.7055789}, {"type": "node", "id": 3613227893, "lat": 42.2713952, "lon": 42.7054804}, {"type": "node", "id": 3613227894, "lat": 42.2714017, "lon": 42.7054429}, {"type": "node", "id": 3613227993, "lat": 42.271417, "lon": 42.7054104}, {"type": "node", "id": 3613228193, "lat": 42.271439, "lon": 42.7053862}, {"type": "node", "id": 3869190113, "lat": 42.2717633, "lon": 42.7090119}, {"type": "node", "id": 3869190114, "lat": 42.2717172, "lon": 42.7091602}, {"type": "node", "id": 3869190115, "lat": 42.2715894, "lon": 42.7090728}, {"type": "node", "id": 3869190116, "lat": 42.2716435, "lon": 42.7089285}, {"type": "node", "id": 5625978817, "lat": 42.271511, "lon": 42.7055978}, {"type": "node", "id": 5625978818, "lat": 42.271483, "lon": 42.7056047}, {"type": "node", "id": 5625978819, "lat": 42.2714547, "lon": 42.705599}, {"type": "node", "id": 5625978820, "lat": 42.2714295, "lon": 42.7055813}, {"type": "node", "id": 5625979521, "lat": 42.27141, "lon": 42.7055535}, {"type": "node", "id": 5625979522, "lat": 42.2713981, "lon": 42.7055186}, {"type": "node", "id": 5625979523, "lat": 42.2714658, "lon": 42.7053731}, {"type": "node", "id": 5625979524, "lat": 42.2714942, "lon": 42.7053725}, {"type": "node", "id": 5625979525, "lat": 42.2715212, "lon": 42.7053842}, {"type": "node", "id": 5625979526, "lat": 42.2715441, "lon": 42.7054074}, {"type": "node", "id": 5625979527, "lat": 42.2715599, "lon": 42.7054392}, {"type": "node", "id": 5821148055, "lat": 42.2683667, "lon": 42.7042759}, {"type": "node", "id": 5821148056, "lat": 42.2683576, "lon": 42.7047841}, {"type": "node", "id": 5821148069, "lat": 42.2686027, "lon": 42.7049622}, {"type": "node", "id": 10973826795, "lat": 42.2708139, "lon": 42.7048257}, {"type": "node", "id": 10978963988, "lat": 42.2717827, "lon": 42.7091517}, {"type": "node", "id": 10978963989, "lat": 42.2717921, "lon": 42.7091082}, {"type": "node", "id": 10978963990, "lat": 42.2718527, "lon": 42.7091748}, {"type": "node", "id": 10978963991, "lat": 42.2718796, "lon": 42.7090499}, {"type": "node", "id": 10978963992, "lat": 42.2717388, "lon": 42.7090906}, {"type": "node", "id": 10978963995, "lat": 42.2717274, "lon": 42.7089859}, {"type": "node", "id": 11025076939, "lat": 42.270455, "lon": 42.7034947}, {"type": "node", "id": 11025076940, "lat": 42.2701183, "lon": 42.703498}, {"type": "node", "id": 11025076941, "lat": 42.2701272, "lon": 42.7032579}, {"type": "node", "id": 11054639370, "lat": 42.2685285, "lon": 42.7049692}, {"type": "node", "id": 11054639372, "lat": 42.2683798, "lon": 42.7049831}, {"type": "node", "id": 11054639373, "lat": 42.268589, "lon": 42.7043241}, {"type": "node", "id": 11054639374, "lat": 42.2686317, "lon": 42.7049585}, {"type": "node", "id": 11151544670, "lat": 42.2709044, "lon": 42.7048735}, {"type": "node", "id": 11151544673, "lat": 42.2711536, "lon": 42.7049145}, {"type": "node", "id": 11151544693, "lat": 42.2717002, "lon": 42.7037313}, {"type": "node", "id": 11151544696, "lat": 42.2717081, "lon": 42.703821}, {"type": "node", "id": 11151544697, "lat": 42.2713525, "lon": 42.7049473}, {"type": "node", "id": 11151549591, "lat": 42.2716813, "lon": 42.7050014}, {"type": "node", "id": 11151549592, "lat": 42.2717944, "lon": 42.7047975}, {"type": "node", "id": 11151549593, "lat": 42.2707663, "lon": 42.7047345}, {"type": "node", "id": 5737525042, "lat": 42.2662485, "lon": 42.7166813}, {"type": "node", "id": 2690816596, "lat": 42.2673196, "lon": 42.7307266}, {"type": "node", "id": 11003418350, "lat": 42.2662144, "lon": 42.7302612}, {"type": "node", "id": 11003418351, "lat": 42.2660834, "lon": 42.7301593}, {"type": "node", "id": 11003418352, "lat": 42.2661486, "lon": 42.7300063}, {"type": "node", "id": 11003418353, "lat": 42.2662796, "lon": 42.7301082}, {"type": "node", "id": 11003451558, "lat": 42.2674036, "lon": 42.730644}, {"type": "node", "id": 11003451559, "lat": 42.2674517, "lon": 42.7305494}, {"type": "node", "id": 2690816641, "lat": 42.2693343, "lon": 42.7345487}, {"type": "node", "id": 2690816656, "lat": 42.2675259, "lon": 42.7303017}, {"type": "node", "id": 2690816662, "lat": 42.2694762, "lon": 42.7343529}, {"type": "node", "id": 11003418377, "lat": 42.26938, "lon": 42.7345137}, {"type": "node", "id": 11003418378, "lat": 42.2694594, "lon": 42.7344004}, {"type": "node", "id": 11003418379, "lat": 42.2694202, "lon": 42.7344661}, {"type": "node", "id": 11003451560, "lat": 42.2674864, "lon": 42.7304643}, {"type": "node", "id": 11003451561, "lat": 42.2675157, "lon": 42.7303657}, {"type": "node", "id": 497664829, "lat": 42.277234, "lon": 42.7040487}, {"type": "node", "id": 3097016185, "lat": 42.277408, "lon": 42.7042229}, {"type": "node", "id": 3097016186, "lat": 42.2770931, "lon": 42.7043895}, {"type": "node", "id": 3097016188, "lat": 42.2772025, "lon": 42.7040497}, {"type": "node", "id": 3097016189, "lat": 42.2774652, "lon": 42.7043506}, {"type": "node", "id": 3097016190, "lat": 42.277502, "lon": 42.7043494}, {"type": "node", "id": 3097016191, "lat": 42.2774047, "lon": 42.704045}, {"type": "node", "id": 3097016192, "lat": 42.2774162, "lon": 42.7045487}, {"type": "node", "id": 4692569097, "lat": 42.2758564, "lon": 42.7047283}, {"type": "node", "id": 4692569098, "lat": 42.2757492, "lon": 42.704746}, {"type": "node", "id": 4692569099, "lat": 42.2758068, "lon": 42.704954}, {"type": "node", "id": 4692569100, "lat": 42.2758455, "lon": 42.7049224}, {"type": "node", "id": 4692569101, "lat": 42.2758244, "lon": 42.7048446}, {"type": "node", "id": 4692569102, "lat": 42.2758849, "lon": 42.7048307}, {"type": "node", "id": 5780175854, "lat": 42.2772061, "lon": 42.7042475}, {"type": "node", "id": 5780175855, "lat": 42.2772113, "lon": 42.7043855}, {"type": "node", "id": 5780175856, "lat": 42.2774607, "lon": 42.7042211}, {"type": "node", "id": 5780175857, "lat": 42.2773514, "lon": 42.7039544}, {"type": "node", "id": 5780175858, "lat": 42.2772324, "lon": 42.7039584}, {"type": "node", "id": 5780175859, "lat": 42.2770905, "lon": 42.7042514}, {"type": "node", "id": 5780175860, "lat": 42.2772144, "lon": 42.7045555}, {"type": "node", "id": 6883642157, "lat": 42.2770695, "lon": 42.7040407}, {"type": "node", "id": 6883642158, "lat": 42.2770389, "lon": 42.7040833}, {"type": "node", "id": 6883642159, "lat": 42.2770079, "lon": 42.7040426}, {"type": "node", "id": 6883642160, "lat": 42.2770385, "lon": 42.7040001}, {"type": "node", "id": 7076846386, "lat": 42.2775733, "lon": 42.7053903}, {"type": "node", "id": 8910952457, "lat": 42.2771658, "lon": 42.7050171}, {"type": "node", "id": 8910952458, "lat": 42.2771428, "lon": 42.7050532}, {"type": "node", "id": 8910952459, "lat": 42.2771298, "lon": 42.7051072}, {"type": "node", "id": 8910952460, "lat": 42.2771744, "lon": 42.7051644}, {"type": "node", "id": 8910952461, "lat": 42.2770763, "lon": 42.705376}, {"type": "node", "id": 8910952462, "lat": 42.2771245, "lon": 42.7054061}, {"type": "node", "id": 8910952463, "lat": 42.2770983, "lon": 42.7058467}, {"type": "node", "id": 8910952464, "lat": 42.2776014, "lon": 42.7051576}, {"type": "node", "id": 8910952465, "lat": 42.2775952, "lon": 42.7051025}, {"type": "node", "id": 8910952466, "lat": 42.277556, "lon": 42.7050538}, {"type": "node", "id": 8910952467, "lat": 42.2775204, "lon": 42.705054}, {"type": "node", "id": 8910952468, "lat": 42.2774881, "lon": 42.7051197}, {"type": "node", "id": 8910952469, "lat": 42.2774894, "lon": 42.7051585}, {"type": "node", "id": 8910952470, "lat": 42.2772458, "lon": 42.7051133}, {"type": "node", "id": 10980449927, "lat": 42.2776005, "lon": 42.7058872}, {"type": "node", "id": 10980449928, "lat": 42.2774378, "lon": 42.7063472}, {"type": "node", "id": 10980449929, "lat": 42.2772606, "lon": 42.7060595}, {"type": "node", "id": 10980449941, "lat": 42.2774988, "lon": 42.7050755}, {"type": "node", "id": 11027911239, "lat": 42.2771857, "lon": 42.703671}, {"type": "node", "id": 11027911240, "lat": 42.2771088, "lon": 42.7039023}, {"type": "node", "id": 11027911267, "lat": 42.2771629, "lon": 42.7059911}, {"type": "node", "id": 11027911268, "lat": 42.2773132, "lon": 42.7061521}, {"type": "node", "id": 11027911269, "lat": 42.2773713, "lon": 42.7062647}, {"type": "node", "id": 11027911270, "lat": 42.2773623, "lon": 42.7053974}, {"type": "node", "id": 11027911271, "lat": 42.277316, "lon": 42.7055453}, {"type": "node", "id": 11027911272, "lat": 42.2773285, "lon": 42.7055617}, {"type": "node", "id": 11027911273, "lat": 42.2773632, "lon": 42.7055686}, {"type": "node", "id": 11027911274, "lat": 42.2773794, "lon": 42.7055568}, {"type": "node", "id": 11027911275, "lat": 42.2773447, "lon": 42.70557}, {"type": "node", "id": 11027911276, "lat": 42.2773905, "lon": 42.7055369}, {"type": "node", "id": 11027911277, "lat": 42.2773094, "lon": 42.7055235}, {"type": "node", "id": 11027911278, "lat": 42.2773214, "lon": 42.7053906}, {"type": "node", "id": 11027911279, "lat": 42.2774025, "lon": 42.7054041}, {"type": "node", "id": 11027911280, "lat": 42.2771336, "lon": 42.7050751}, {"type": "node", "id": 11027911281, "lat": 42.277145, "lon": 42.7051415}, {"type": "node", "id": 11027911282, "lat": 42.2775814, "lon": 42.7050688}, {"type": "node", "id": 11027911295, "lat": 42.2773518, "lon": 42.7039764}, {"type": "node", "id": 11027911296, "lat": 42.2774129, "lon": 42.7043676}, {"type": "node", "id": 11027911297, "lat": 42.2774655, "lon": 42.7043658}, {"type": "node", "id": 11027911298, "lat": 42.2775002, "lon": 42.7042544}, {"type": "node", "id": 11027911299, "lat": 42.2774613, "lon": 42.7042557}, {"type": "node", "id": 11027911300, "lat": 42.2774036, "lon": 42.7039746}, {"type": "node", "id": 11027911301, "lat": 42.2774386, "lon": 42.7039734}, {"type": "node", "id": 11027911302, "lat": 42.2774399, "lon": 42.7040439}]}