{"version": 0.6, "generator": "Overpass API 0.7.62.8 e802775f", "osm3s": {"timestamp_osm_base": "2025-11-23T13:02:15Z", "copyright": "The data included in this document is from www.openstreetmap.org. The data is made available under ODbL."}, "elements": [{"type": "node", "id": 1164487842, "lat": 42.2588715, "lon": 42.6680314, "tags": {"historic": "memorial", "memorial": "statue", "name": "\u10d8\u10da\u10d8\u10d0 \u10ed\u10d0\u10d5\u10ed\u10d0\u10d5\u10d0\u10eb\u10d4", "name:en": "Ilia Chavchavadze", "name:ka": "\u10d8\u10da\u10d8\u10d0 \u10ed\u10d0\u10d5\u10ed\u10d0\u10d5\u10d0\u10eb\u10d4", "name:ru": "\u0418\u043b\u044c\u044f \u0427\u0430\u0432\u0447\u0430\u0432\u0430\u0434\u0437\u0435", "subject:wikidata": "Q333411", "subject:wikipedia": "ka:\u10d8\u10da\u10d8\u10d0 \u10ed\u10d0\u10d5\u10ed\u10d0\u10d5\u10d0\u10eb\u10d4"}}, {"type": "node", "id": 1164536191, "lat": 42.2568007, "lon": 42.6665029, "tags": {"amenity": "restaurant", "source": "JumpStart International"}}, {"type": "node", "id": 1164536685, "lat": 42.2705819, "lon": 42.6963711, "tags": {"amenity": "restaurant", "cuisine": "georgian", "name:en": "Sarajishvili", "source": "JumpStart International"}}, {"type": "node", "id": 1164536954, "lat": 42.2575469, "lon": 42.6945229, "tags": {"name": "\u10d8\u10db\u10de\u10d4\u10e0\u10d8\u10d0\u10da\u10d8", "name:en": "Imperial", "name:ka": "\u10d8\u10db\u10de\u10d4\u10e0\u10d8\u10d0\u10da\u10d8", "source": "JumpStart International", "tourism": "hotel"}}, {"type": "node", "id": 1164537012, "lat": 42.2706425, "lon": 42.6968852, "tags": {"amenity": "cafe", "cuisine": "coffee_shop;local", "name:en": "Imeretian Restaurant", "source": "JumpStart International"}}, {"type": "node", "id": 1164537074, "lat": 42.2730067, "lon": 42.6963787, "tags": {"check_date": "2024-05-05", "internet_access": "wlan", "internet_access:fee": "customers", "name": "\u10e1\u10d0\u10e1\u10e2\u10e3\u10db\u10e0\u10dd \u10da\u10d0\u10da\u10d8\u10e1 \u10dd\u10ef\u10d0\u10ee\u10d8", "name:en": "Lali's Family Hotel", "name:ka": "\u10e1\u10d0\u10e1\u10e2\u10e3\u10db\u10e0\u10dd \u10da\u10d0\u10da\u10d8\u10e1 \u10dd\u10ef\u10d0\u10ee\u10d8", "payment:cash": "yes", "payment:credit_cards": "yes", "payment:debit_cards": "yes", "source": "JumpStart International", "tourism": "hotel"}}, {"type": "node", "id": 1164537612, "lat": 42.2731388, "lon": 42.6973643, "tags": {"name": "\u10e1\u10d0\u10e1\u10e2\u10e3\u10db\u10e0\u10dd \u10d1\u10d4\u10e5\u10d0", "name:en": "Hotel Beka", "name:ka": "\u10e1\u10d0\u10e1\u10e2\u10e3\u10db\u10e0\u10dd \u10d1\u10d4\u10e5\u10d0", "name:ru": "Hotel Beka", "source": "JumpStart International", "tourism": "hotel"}}, {"type": "node", "id": 1164538977, "lat": 42.2655138, "lon": 42.6807836, "tags": {"amenity": "restaurant", "check_date": "2024-04-04", "name": "\u10e8\u10d4\u10e0\u10d4\u10d9\u10d8\u10da\u10d4\u10d1\u10d8", "source": "JumpStart International"}}, {"type": "node", "id": 1164539082, "lat": 42.2585509, "lon": 42.6913985, "tags": {"amenity": "cafe", "name": "\u10e4\u10d0\u10d6\u10d8\u10e1\u10d8", "name:en": "Phasis", "name:ka": "\u10e4\u10d0\u10d6\u10d8\u10e1\u10d8", "source": "JumpStart International"}}, {"type": "node", "id": 1164539085, "lat": 42.2679559, "lon": 42.6983103, "tags": {"addr:housenumber": "21", "amenity": "cafe", "name": "\u10d9\u10d0\u10e4\u10d4 \u10e2\u10d9\u10d1\u10d8\u10da\u10d8 \u10ea\u10ee\u10dd\u10d5\u10e0\u10d4\u10d1\u10d0", "name:en": "Cafe Sweet Life", "name:ka": "\u10d9\u10d0\u10e4\u10d4 \u10e2\u10d9\u10d1\u10d8\u10da\u10d8 \u10ea\u10ee\u10dd\u10d5\u10e0\u10d4\u10d1\u10d0", "source": "JumpStart International"}}, {"type": "node", "id": 1164539433, "lat": 42.2560365, "lon": 42.6576032, "tags": {"amenity": "restaurant", "name": "\u10d9\u10d0\u10ee\u10e3\u10e0\u10d8 \u10d3\u10e3\u10e5\u10d0\u10dc\u10d8", "name:en": "Kakhuri Dukani", "name:ka": "\u10d9\u10d0\u10ee\u10e3\u10e0\u10d8 \u10d3\u10e3\u10e5\u10d0\u10dc\u10d8", "source": "JumpStart International"}}, {"type": "node", "id": 1164539444, "lat": 42.2511765, "lon": 42.6847366, "tags": {"amenity": "restaurant", "name": "\u10e1\u10d0\u10de\u10e3\u10e0\u10db\u10d0\u10e0\u10d8\u10da\u10dd \u10e5\u10d0\u10da\u10d0\u10e5\u10e3\u10e0\u10d8", "name:en": "Sapurmarilo Kalakuri", "name:ka": "\u10e1\u10d0\u10de\u10e3\u10e0\u10db\u10d0\u10e0\u10d8\u10da\u10dd \u10e5\u10d0\u10da\u10d0\u10e5\u10e3\u10e0\u10d8", "source": "JumpStart International"}}, {"type": "node", "id": 1164539451, "lat": 42.255706, "lon": 42.6640128, "tags": {"source": "JumpStart International", "tourism": "hotel"}}, {"type": "node", "id": 1984004465, "lat": 42.2649488, "lon": 42.6795286, "tags": {"historic": "memorial", "int_name": "Deda Ena", "material": "stone", "memorial": "stele", "name": "\u10d3\u10d4\u10d3\u10d0 \u10d4\u10dc\u10d0", "name:de": "Muttersprache", "name:en": "Native Language", "name:ru": "\u0420\u043e\u0434\u043d\u043e\u043c\u0443 \u044f\u0437\u044b\u043a\u0443"}}, {"type": "node", "id": 2440299362, "lat": 42.2703465, "lon": 42.6982753, "tags": {"amenity": "cafe", "check_date": "2024-05-05", "internet_access": "wlan", "internet_access:fee": "no", "payment:cash": "yes", "payment:credit_cards": "yes", "payment:debit_cards": "yes", "wheelchair": "limited"}}, {"type": "node", "id": 3070727176, "lat": 42.2719501, "lon": 42.6691136, "tags": {"addr:housenumber": "36", "operator": "Nanuli Koghuashvili", "tourism": "guest_house"}}, {"type": "node", "id": 3379527296, "lat": 42.2759037, "lon": 42.6931569, "tags": {"addr:city": "\u10e5\u10e3\u10d7\u10d0\u10d8\u10e1\u10d8", "addr:housenumber": "36", "addr:postcode": "4600", "addr:street": "\u10db\u10d0\u10e5\u10e1\u10d8\u10db \u10d2\u10dd\u10e0\u10d9\u10d8\u10e1 \u10e5\u10e3\u10e9\u10d0", "contact:mobile": "+995 595 95 37 16", "name": "HOSTEL BROLLY", "smoking": "outside", "tourism": "guest_house"}}, {"type": "node", "id": 3379561944, "lat": 42.2739976, "lon": 42.6958309, "tags": {"addr:city": "\u10e5\u10e3\u10d7\u10d0\u10d8\u10e1\u10d8", "addr:housenumber": "12", "addr:postcode": "4600", "addr:street": "\u10ea\u10d0\u10ea\u10ee\u10d5\u10d4\u10d1\u10d8\u10e1 \u10e5\u10e3\u10e9\u10d0", "check_date": "2024-05-05", "contact:mobile": "+995 555 00 04 73;+995 557 51 15 11", "internet_access": "wlan", "internet_access:fee": "customers", "name": "Kolga", "name:en": "Kolga", "payment:cash": "yes", "payment:credit_cards": "yes", "payment:debit_cards": "yes", "smoking": "outside", "tourism": "hostel", "wheelchair": "limited"}}, {"type": "node", "id": 3712340912, "lat": 42.2730914, "lon": 42.6968001, "tags": {"addr:city": "\u10e5\u10e3\u10d7\u10d0\u10d8\u10e1\u10d8", "addr:country": "GE", "addr:housenumber": "22", "addr:street": "\u10d3\u10d4\u10d1\u10d8 \u10d8\u10e8\u10ee\u10dc\u10d4\u10da\u10d4\u10d1\u10d8\u10e1 \u10e5\u10e3\u10e9\u10d0", "check_date": "2024-05-05", "contact:mobile": "+995 551 92 90 92", "designation": "hotel", "internet_access": "wlan", "internet_access:fee": "customers", "name": "Hotel Gora", "payment:cash": "yes", "payment:credit_cards": "yes", "payment:debit_cards": "yes", "source": "nice view", "tourism": "hotel"}}, {"type": "node", "id": 3727838466, "lat": 42.2753487, "lon": 42.6955494, "tags": {"addr:city": "\u10e5\u10e3\u10d7\u10d0\u10d8\u10e1\u10d8", "addr:housenumber": "18", "addr:postcode": "4600", "addr:street": "\u10db\u10d0\u10e5\u10e1\u10d8\u10db \u10d2\u10dd\u10e0\u10d9\u10d8\u10e1 \u10e5\u10e3\u10e9\u10d0", "name": "Hostel Kutaisi by Kote", "tourism": "hostel"}}, {"type": "node", "id": 3891791325, "lat": 42.2589807, "lon": 42.6943975, "tags": {"tourism": "hostel"}}, {"type": "node", "id": 4174135291, "lat": 42.2640736, "lon": 42.6744651, "tags": {"addr:housenumber": "10 a", "addr:street": "\u10d8\u10e0\u10d0\u10d9\u10da\u10d8 \u10d0\u10d1\u10d0\u10e8\u10d8\u10eb\u10d8\u10e1 \u10e5\u10e3\u10e9\u10d0", "contact:mobile": "+995 555 12 94 72", "name": "Hostel luxe", "tourism": "hostel"}}, {"type": "node", "id": 4250087307, "lat": 42.2678422, "lon": 42.6999067, "tags": {"name": "White Bridge", "tourism": "hotel"}}, {"type": "node", "id": 4338635691, "lat": 42.2614635, "lon": 42.6881608, "tags": {"amenity": "restaurant", "check_date": "2024-04-04", "name": "\u10de\u10d0\u10da\u10db\u10d4\u10d1\u10d8", "name:en": "Palmebi", "name:ka": "\u10de\u10d0\u10da\u10db\u10d4\u10d1\u10d8"}}, {"type": "node", "id": 4348222305, "lat": 42.2624018, "lon": 42.6743823, "tags": {"addr:city": "\u10e5\u10e3\u10d7\u10d0\u10d8\u10e1\u10d8", "addr:housenumber": "4600", "addr:postcode": "4600", "addr:street": "\u10d3\u10d0\u10d5\u10d8\u10d7 \u10d0\u10e6\u10db\u10d0\u10e8\u10d4\u10dc\u10d4\u10d1\u10da\u10d8\u10e1 \u10d2\u10d0\u10db\u10d6\u10d8\u10e0\u10d8", "amenity": "restaurant", "check_date": "2024-04-04", "cuisine": "georgian", "name": "\u10e5\u10d0\u10da\u10d0\u10e5\u10e3\u10e0\u10d8", "name:en": "Qalaquri", "opening_hours": "24/7"}}, {"type": "node", "id": 4360282495, "lat": 42.2729666, "lon": 42.6960694, "tags": {"addr:housenumber": "16", "addr:street": "\u10d3\u10d4\u10d1\u10d8 \u10d8\u10e8\u10ee\u10dc\u10d4\u10da\u10d4\u10d1\u10d8\u10e1 \u10e5\u10e3\u10e9\u10d0", "check_date": "2024-05-05", "internet_access": "wlan", "internet_access:fee": "customers", "name:en": "Hotel Argo palace", "payment:cash": "yes", "payment:credit_cards": "yes", "payment:debit_cards": "yes", "tourism": "hotel"}}, {"type": "node", "id": 4375576191, "lat": 42.27524, "lon": 42.6950866, "tags": {"addr:city": "\u10e5\u10e3\u10d7\u10d0\u10d8\u10e1\u10d8", "addr:housenumber": "20", "addr:street": "\u10db\u10d0\u10e5\u10e1\u10d8\u10db \u10d2\u10dd\u10e0\u10d9\u10d8\u10e1 \u10e5\u10e3\u10e9\u10d0", "internet_access": "wlan", "internet_access:fee": "no", "name": "Classic", "rooms": "0", "tourism": "guest_house"}}, {"type": "node", "id": 4457601489, "lat": 42.2684783, "lon": 42.6933448, "tags": {"addr:housenumber": "14", "addr:postcode": "4600", "addr:street": "\u10e8\u10dd\u10d7\u10d0 \u10e0\u10e3\u10e1\u10d7\u10d0\u10d5\u10d4\u10da\u10d8\u10e1 VIII \u10e8\u10d4\u10e1\u10d0\u10ee\u10d5\u10d4\u10d5\u10d8", "check_date": "2024-05-05", "contact:email": "info@kutaisihostel.com;oldlviv1@gmail.com", "contact:facebook": "http://www.facebook.com/kutaisihosteloldlviv", "contact:mobile": "+995 592 77 67 45;+995 599 94 15 42", "description:payment": "13 lari", "internet_access": "wlan", "name": "Old Lviv Hostel", "name:en": "Old Lviv Hostel", "opening_hours": "24/7", "operator": "\u0414\u0430\u0432\u0438\u0434", "payment:cash": "yes", "payment:credit_cards": "yes", "payment:debit_cards": "yes", "tourism": "hostel", "wheelchair": "limited"}}, {"type": "node", "id": 4512928789, "lat": 42.2740423, "lon": 42.6869824, "tags": {"addr:housenumber": "1", "addr:street": "Vazha Pshavela", "amenity": "restaurant", "name:en": "Park Restaurant", "website": "https://www.facebook.com/RestourantParki/"}}, {"type": "node", "id": 4552714790, "lat": 42.2721016, "lon": 42.6982489, "tags": {"historic": "memorial", "memorial": "bust", "name": "\u10d5\u10d0\u10df\u10d0-\u10e4\u10e8\u10d0\u10d5\u10d4\u10da\u10d0", "name:en": "Vazha-Pshavela", "name:ka": "\u10d5\u10d0\u10df\u10d0-\u10e4\u10e8\u10d0\u10d5\u10d4\u10da\u10d0", "name:ru": "\u0412\u0430\u0436\u0430 \u041f\u0448\u0430\u0432\u0435\u043b\u0430", "subject:wikidata": "Q317040", "subject:wikipedia": "ka:\u10d5\u10d0\u10df\u10d0-\u10e4\u10e8\u10d0\u10d5\u10d4\u10da\u10d0"}}, {"type": "node", "id": 4671947992, "lat": 42.2664744, "lon": 42.6864572, "tags": {"addr:housenumber": "4", "addr:postcode": "4600", "addr:street": "\u10e8\u10dd\u10d7\u10d0 \u10e0\u10e3\u10e1\u10e2\u10d0\u10d5\u10d4\u10da\u10d8\u10e1 VII \u10e8\u10d4\u10e1\u10d0\u10ee\u10d5\u10d4\u10d5\u10d8", "amenity": "restaurant", "contact:mobile": "+995 599 72 36 82", "cuisine": "georgian", "name": "\u10d0\u10dd\u10d3\u10d8 \u10dc\u10d0\u10ee\u10d4", "name:en": "Kusali", "name:ka": "\u10d0\u10dd\u10d3\u10d8 \u10dc\u10d0\u10ee\u10d4", "name:ru": "\u041a\u0443\u0441\u0430\u043b\u0438", "opening_hours": "Mo-Su 07:00-20:00"}}, {"type": "node", "id": 4757747222, "lat": 42.2710541, "lon": 42.6901688, "tags": {"name:en": "Hostel Nina and Giorgi", "tourism": "hostel"}}, {"type": "node", "id": 4758722326, "lat": 42.2690346, "lon": 42.6818623, "tags": {"addr:housenumber": "35", "addr:postcode": "4600", "addr:street": "\u10d5\u10d0\u10e1\u10d8\u10da \u10d1\u10d0\u10e0\u10dc\u10dd\u10d5\u10d8\u10e1 \u10e5\u10e3\u10e9\u10d0", "contact:mobile": "+995 595 91 95 45", "internet_access": "wlan", "opening_hours": "24/7", "operator": "Feride & Zurab", "tourism": "guest_house", "website": "https://www.airbnb.com/rooms/17487407?guests=1&s=41"}}, {"type": "node", "id": 4851528823, "lat": 42.2714249, "lon": 42.6836854, "tags": {"tourism": "guest_house"}}, {"type": "node", "id": 4907624921, "lat": 42.268158, "lon": 42.6927685, "tags": {"addr:housenumber": "42", "addr:street": "\u10e8\u10dd\u10d7\u10d0 \u10e0\u10e3\u10e1\u10d7\u10d0\u10d5\u10d4\u10da\u10d8\u10e1 \u10d2\u10d0\u10db\u10d6\u10d8\u10e0\u10d8", "check_date": "2024-05-05", "internet_access": "wlan", "name": "Nesthouse", "name:de": "Nesthouse", "name:en": "Nesthouse", "payment:cash": "yes", "payment:credit_cards": "yes", "payment:debit_cards": "yes", "tourism": "hostel", "wheelchair": "limited"}}, {"type": "node", "id": 5139511982, "lat": 42.260438, "lon": 42.6877523, "tags": {"addr:city": "\u10e5\u10e3\u10d7\u10d0\u10d8\u10e1\u10d8", "addr:housenumber": "23", "addr:postcode": "4600", "addr:street": "\u10d1\u10d4\u10e1\u10d8\u10d9\u10d8\u10e1 I \u10e8\u10d4\u10e1\u10d0\u10ee\u10d5\u10d4\u10d5\u10d8", "internet_access": "yes", "internet_access:fee": "no", "name": "Homestay Besiki 23", "tourism": "guest_house"}}, {"type": "node", "id": 5139913824, "lat": 42.2826856, "lon": 42.6826536, "tags": {"tourism": "picnic_site"}}, {"type": "node", "id": 5168543593, "lat": 42.276677, "lon": 42.6678847, "tags": {"historic": "wayside_cross"}}, {"type": "node", "id": 5250236622, "lat": 42.2582654, "lon": 42.6688845, "tags": {"artwork_type": "mosaic", "name:en": "Soviet Mural", "tourism": "artwork"}}, {"type": "node", "id": 5554501221, "lat": 42.2592043, "lon": 42.672174, "tags": {"amenity": "restaurant", "name": "\u10e1\u10d0\u10db\u10d4\u10e4\u10dd", "name:en": "Samepo"}}, {"type": "node", "id": 5708186123, "lat": 42.2561395, "lon": 42.6947052, "tags": {"addr:housenumber": "27", "addr:street": "\u10da\u10d0\u10d3\u10dd \u10d0\u10e1\u10d0\u10d7\u10d8\u10d0\u10dc\u10d8\u10e1 VI \u10e9\u10d8\u10ee\u10d8", "internet_access": "wlan", "name:en": "Art House Hostel", "tourism": "hotel"}}, {"type": "node", "id": 5763972353, "lat": 42.2512992, "lon": 42.6857062, "tags": {"addr:housenumber": "34", "addr:postcode": "4600", "addr:street": "\u10e1\u10d4\u10e0\u10d2\u10dd \u10d9\u10da\u10d3\u10d8\u10d0\u10e8\u10d5\u10d8\u10da\u10d8\u10e1 \u10e5\u10e3\u10e9\u10d0", "amenity": "restaurant", "contact:mobile": "+995 555 44 51 40", "cuisine": "georgian", "email": "tomaomiadze@ymail.com", "internet_access": "wlan", "name": "\u10d7\u10dd\u10db\u10d0\u10e1 \u10e6\u10d5\u10d8\u10dc\u10d8\u10e1 \u10db\u10d0\u10e0\u10d0\u10dc\u10d8", "name:en": "Toma's Wine Cellar", "opening_hours": "Mo-Su 15:00-23:00", "operator": "Toma"}}, {"type": "node", "id": 5851728986, "lat": 42.2690574, "lon": 42.6980238, "tags": {"amenity": "restaurant", "check_date": "2023-07-21", "contact:facebook": "https://www.facebook.com/HackerPschorrKutaisi/", "cuisine": "georgian", "internet_access": "wlan", "name": "\u1cb0\u10d0\u10de\u10d4\u10e0-\u10e4\u10e8\u10dd\u10e0\u10d8", "name:en": "Hacker-Pschorr", "name:ka": "\u1cb0\u10d0\u10de\u10d4\u10e0-\u10e4\u10e8\u10dd\u10e0\u10d8", "opening_hours": "Mo-Su 10:00-02:00"}}, {"type": "node", "id": 5861345034, "lat": 42.2633411, "lon": 42.6743157, "tags": {"addr:city": "\u10e5\u10e3\u10d7\u10d0\u10d8\u10e1\u10d8", "addr:housenumber": "15/a", "addr:postcode": "4608", "addr:street": "\u10df\u10d8\u10e3\u10da \u10e8\u10d0\u10e0\u10e2\u10d0\u10d5\u10d0\u10e1 I \u10e8\u10d4\u10e1\u10d0\u10ee\u10d5\u10d4\u10d5\u10d8", "contact:mobile": "+995 577 31 00 34", "email": "bakurmodebadze@gmail.com", "internet_access": "yes", "internet_access:fee": "no", "name": "Meridian", "opening_hours": "24/7", "operator": "Meridian", "rooms": "10", "smoking": "no", "tourism": "guest_house"}}, {"type": "node", "id": 5896641985, "lat": 42.2709304, "lon": 42.6983199, "tags": {"historic": "memorial", "memorial": "statue", "name": "\u10d2\u10d0\u10da\u10d0\u10d9\u10e2\u10d8\u10dd\u10dc \u10e2\u10d0\u10d1\u10d8\u10eb\u10d4", "name:en": "Galaktion Tabidze", "name:ka": "\u10d2\u10d0\u10da\u10d0\u10d9\u10e2\u10d8\u10dd\u10dc \u10e2\u10d0\u10d1\u10d8\u10eb\u10d4", "name:ru": "\u0413\u0430\u043b\u0430\u043a\u0442\u0438\u043e\u043d \u0422\u0430\u0431\u0438\u0434\u0437\u0435", "subject:wikidata": "Q144086", "subject:wikipedia": "\u10d2\u10d0\u10da\u10d0\u10d9\u10e2\u10d8\u10dd\u10dc \u10e2\u10d0\u10d1\u10d8\u10eb\u10d4"}}, {"type": "node", "id": 5930665885, "lat": 42.261829, "lon": 42.6712494, "tags": {"name": "Max comfort", "tourism": "hotel"}}, {"type": "node", "id": 5934470986, "lat": 42.2715106, "lon": 42.6986637, "tags": {"addr:city": "\u10e5\u10e3\u10d7\u10d0\u10d8\u10e1\u10d8", "addr:housenumber": "6", "addr:postcode": "4600", "addr:street": "\u10d2\u10d0\u10da\u10d0\u10d9\u10e2\u10d8\u10dd\u10dc \u10e2\u10d0\u10d1\u10d8\u10eb\u10d8\u10e1 \u10e5\u10e3\u10e9\u10d0", "description": "WELCOME", "internet_access": "yes", "internet_access:fee": "yes", "name": "GREEN PARK HOTEL", "rooms": "2", "smoking": "no", "tourism": "hostel"}}, {"type": "node", "id": 5983613541, "lat": 42.253456, "lon": 42.6886045, "tags": {"addr:housenumber": "16", "addr:street": "\u10db\u10d0\u10db\u10d8\u10d0 \u10d0\u10e1\u10d0\u10d7\u10d8\u10d0\u10dc\u10d8\u10e1 \u10e5\u10e3\u10e9\u10d0", "contact:mobile": "+995 574 03 01 93", "name": "Shota", "tourism": "guest_house"}}, {"type": "node", "id": 6439721566, "lat": 42.2549516, "lon": 42.6616046, "tags": {"addr:housenumber": "60", "addr:street": "\u10d6\u10d5\u10d8\u10d0\u10d3 \u10d2\u10d0\u10db\u10e1\u10d0\u10ee\u10e3\u10e0\u10d3\u10d8\u10d0\u10e1 \u10d2\u10d0\u10db\u10d6\u10d8\u10e0\u10d8", "name": "Hotel Aguna", "tourism": "hotel"}}, {"type": "node", "id": 6557165360, "lat": 42.2788066, "lon": 42.680573, "tags": {"tourism": "picnic_site"}}, {"type": "node", "id": 6707833187, "lat": 42.2624942, "lon": 42.6745239, "tags": {"check_date": "2024-04-04", "name:en": "Elma", "tourism": "hotel"}}, {"type": "node", "id": 6715249685, "lat": 42.2637388, "lon": 42.6617273, "tags": {"artwork_type": "sculpture", "tourism": "artwork"}}, {"type": "node", "id": 6717781190, "lat": 42.2633345, "lon": 42.6663686, "tags": {"name:en": "Steel Bridge", "name:ru": "\u0421\u0442\u0430\u043b\u044c\u043d\u043e\u0439 \u043c\u043e\u0441\u0442", "tourism": "attraction"}}, {"type": "node", "id": 6961454885, "lat": 42.2606423, "lon": 42.6868133, "tags": {"name:ru": "\u0433\u0438\u043e\u0440\u0433\u0438\u0430 \u0431\u043b\u0435\u0441\u0442\u0430\u0442\u0435\u043b\u044c /2", "tourism": "apartment"}}, {"type": "node", "id": 6966020105, "lat": 42.2622583, "lon": 42.6714942, "tags": {"amenity": "restaurant", "cuisine": "georgian"}}, {"type": "node", "id": 6966023486, "lat": 42.2620985, "lon": 42.6739036, "tags": {"amenity": "cafe", "check_date": "2024-04-04", "name:en": "Drive", "opening_hours": "24/7"}}, {"type": "node", "id": 6966450487, "lat": 42.2574979, "lon": 42.671441, "tags": {"amenity": "cafe", "name:en": "Terasa"}}, {"type": "node", "id": 6968369285, "lat": 42.2644656, "lon": 42.6776954, "tags": {"historic": "memorial", "memorial": "statue", "name": "\u10d5\u10d0\u10e1\u10d8\u10da \u10d9\u10d8\u10d9\u10d5\u10d8\u10eb\u10d4", "name:en": "Vaso Kikvidze", "name:ka": "\u10d5\u10d0\u10e1\u10d8\u10da \u10d9\u10d8\u10d9\u10d5\u10d8\u10eb\u10d4", "name:ru": "\u0412\u0430\u0441\u043e \u041a\u0438\u043a\u0432\u0438\u0434\u0437\u0435", "subject:wikidata": "Q2552070", "subject:wikipedia": "ka:\u10d5\u10d0\u10e1\u10d8\u10da \u10d9\u10d8\u10d9\u10d5\u10d8\u10eb\u10d4"}}, {"type": "node", "id": 6968978585, "lat": 42.2676795, "lon": 42.6935428, "tags": {"historic": "memorial"}}, {"type": "node", "id": 6987345185, "lat": 42.2679529, "lon": 42.6982583, "tags": {"name:ru": "#21", "tourism": "guest_house"}}, {"type": "node", "id": 6992618285, "lat": 42.2684139, "lon": 42.6997825, "tags": {"addr:housenumber": "11", "addr:postcode": "4600", "addr:street": "\u10d8\u10dd\u10e1\u10d4\u10d1 \u10d2\u10e0\u10d8\u10e8\u10d0\u10e8\u10d5\u10d8\u10da\u10d8\u10e1 \u10e5\u10e3\u10e9\u10d0", "amenity": "restaurant", "check_date": "2023-07-01", "contact:phone": "+995 32 219 71 00", "cuisine": "italian_pizza", "internet_access": "wlan", "name:en": "Pizzeria Tizziani", "name:fr": "Pizzeria Tizziani", "opening_hours": "Mo-Su 12:00-23:00", "website": "https://bwkutaisi.com/"}}, {"type": "node", "id": 7033822286, "lat": 42.2555991, "lon": 42.6969813, "tags": {"addr:housenumber": "89", "addr:street": "\u10da\u10d0\u10d3\u10dd \u10d0\u10e1\u10d0\u10d7\u10d8\u10d0\u10dc\u10d8\u10e1 \u10e5\u10e3\u10e9\u10d0", "check_date": "2023-07-01", "tourism": "guest_house"}}, {"type": "node", "id": 7038580585, "lat": 42.2559093, "lon": 42.6971632, "tags": {"addr:housenumber": "97", "tourism": "guest_house"}}, {"type": "node", "id": 7279087585, "lat": 42.2692277, "lon": 42.6980614, "tags": {"amenity": "cafe", "check_date": "2025-09-14", "name": "\u1ca9\u10d4\u10e0\u10d8", "name:en": "Cherry", "name:ka": "\u1ca9\u10d4\u10e0\u10d8", "name:pl": "Cherry"}}, {"type": "node", "id": 8337589717, "lat": 42.2656087, "lon": 42.6718115, "tags": {"addr:housenumber": "33", "addr:postcode": "4600", "addr:street": "\u10db\u10d8\u10ee\u10d4\u10d8\u10da \u10d1\u10e3\u10ee\u10d0\u10d8\u10eb\u10d8\u10e1 II \u10e8\u10d4\u10e1\u10d0\u10ee\u10d5\u10d4\u10d5\u10d8", "tourism": "apartment"}}, {"type": "node", "id": 9035711217, "lat": 42.2759552, "lon": 42.6973956, "tags": {"internet_access": "wlan", "name": "Orange Kutaisi", "tourism": "hotel"}}, {"type": "node", "id": 9134801441, "lat": 42.26977, "lon": 42.6861079, "tags": {"name": "Tea", "tourism": "guest_house"}}, {"type": "node", "id": 9244144317, "lat": 42.2715622, "lon": 42.6986828, "tags": {"amenity": "restaurant", "check_date": "2023-06-26", "cuisine": "georgian", "internet_access": "wlan", "name": "\u10db\u10d0\u10d2\u10dc\u10dd\u10da\u10d8\u10d0", "name:en": "Magnolia", "name:ka": "\u10db\u10d0\u10d2\u10dc\u10dd\u10da\u10d8\u10d0", "name:ru": "\u041c\u0430\u0433\u043d\u043e\u043b\u0438\u044f", "website": "https://magnolia.emenu.ge/"}}, {"type": "node", "id": 9782186517, "lat": 42.272535, "lon": 42.6934493, "tags": {"addr:housenumber": "4600", "addr:postcode": "4600, Kutaisi", "addr:street": "Vaja Pshavela Street", "contact:mobile": "+995 593 37 87 53", "internet_access": "wlan", "name": "Orjoni Hotel", "tourism": "hotel"}}, {"type": "node", "id": 10589346895, "lat": 42.2907926, "lon": 42.6899569, "tags": {"direction": "195", "tourism": "viewpoint"}}, {"type": "node", "id": 10743088169, "lat": 42.2624081, "lon": 42.6944711, "tags": {"addr:city": "\u10e5\u10e3\u10d7\u10d0\u10d8\u10e1\u10d8", "addr:housenumber": "7", "addr:postcode": "4600", "addr:street": "\u10dc\u10dd\u10d3\u10d0\u10e0 \u10d3\u10e3\u10db\u10d1\u10d0\u10eb\u10d8\u10e1 I \u10e8\u10d4\u10e1\u10d0\u10ee\u10d5\u10d4\u10d5\u10d8", "name": "Friendly Guest House", "tourism": "hotel"}}, {"type": "node", "id": 10777195705, "lat": 42.2561923, "lon": 42.6723293, "tags": {"level": "3", "name:en": "Hotel Okriba", "tourism": "hotel"}}, {"type": "node", "id": 10967638064, "lat": 42.2623573, "lon": 42.6762561, "tags": {"check_date": "2023-07-04", "name": "Green Palma", "tourism": "hotel"}}, {"type": "node", "id": 10967663041, "lat": 42.2709519, "lon": 42.6831441, "tags": {"name": "Tiflis Lux Boutique Guest House", "tourism": "guest_house"}}, {"type": "node", "id": 10968013815, "lat": 42.2709202, "lon": 42.6848137, "tags": {"name": "Aia", "tourism": "apartment"}}, {"type": "node", "id": 10990198542, "lat": 42.2639399, "lon": 42.6763735, "tags": {"artwork_type": "sculpture", "tourism": "artwork"}}, {"type": "node", "id": 11007542538, "lat": 42.2708011, "lon": 42.6960656, "tags": {"check_date": "2023-08-28", "name": "Park Hotel Kutaisi", "tourism": "hotel"}}, {"type": "node", "id": 11008386986, "lat": 42.2698601, "lon": 42.6984781, "tags": {"historic": "memorial", "material": "metal", "memorial": "bust", "name": "\u10d6\u10e3\u10e0\u10d0\u10d1 \u10d9\u10e3\u10ee\u10d8\u10d0\u10dc\u10d8\u10eb\u10d4", "name:en": "Zurab Kukhianidze", "name:ka": "\u10d6\u10e3\u10e0\u10d0\u10d1 \u10d9\u10e3\u10ee\u10d8\u10d0\u10dc\u10d8\u10eb\u10d4", "name:ru": "\u0417\u0443\u0440\u0430\u0431 \u041a\u0443\u0445\u0438\u0430\u043d\u0438\u0434\u0437\u0435", "subject:wikidata": "Q20559367", "subject:wikipedia": "ka:\u10d6\u10e3\u10e0\u10d0\u10d1 \u10d9\u10e3\u10ee\u10d8\u10d0\u10dc\u10d8\u10eb\u10d4"}}, {"type": "node", "id": 11012693829, "lat": 42.2646422, "lon": 42.6888219, "tags": {"check_date": "2023-07-11", "name": "Green Rooms", "tourism": "hotel"}}, {"type": "node", "id": 11016485274, "lat": 42.2666976, "lon": 42.6915299, "tags": {"check_date": "2023-07-07", "name": "Rustaveli", "tourism": "hotel"}}, {"type": "node", "id": 11017593019, "lat": 42.2574144, "lon": 42.6975122, "tags": {"check_date": "2023-07-01", "name": "Villa", "tourism": "hotel"}}, {"type": "node", "id": 11019762041, "lat": 42.2796885, "lon": 42.6996126, "tags": {"ele": "208", "information": "guidepost", "tourism": "information"}}, {"type": "node", "id": 11019762042, "lat": 42.2878697, "lon": 42.6916209, "tags": {"ele": "282", "information": "guidepost", "tourism": "information"}}, {"type": "node", "id": 11019762043, "lat": 42.2986481, "lon": 42.6847796, "tags": {"ele": "332", "information": "guidepost", "tourism": "information"}}, {"type": "node", "id": 11020572416, "lat": 42.2697908, "lon": 42.6984164, "tags": {"artwork_type": "mural", "tourism": "artwork"}}, {"type": "node", "id": 11022753872, "lat": 42.2597323, "lon": 42.670846, "tags": {"amenity": "cafe", "check_date": "2023-07-03"}}, {"type": "node", "id": 11025966303, "lat": 42.2615644, "lon": 42.6818257, "tags": {"amenity": "cafe", "check_date": "2024-04-04", "cuisine": "coffee_shop", "name:en": "Coffee Hub", "wheelchair": "yes"}}, {"type": "node", "id": 11026006744, "lat": 42.2622571, "lon": 42.675552, "tags": {"artwork_type": "mural", "tourism": "artwork"}}, {"type": "node", "id": 11026006745, "lat": 42.2626682, "lon": 42.6756391, "tags": {"check_date": "2024-04-04", "name:en": "La rooms", "tourism": "hotel"}}, {"type": "node", "id": 11026006778, "lat": 42.2623218, "lon": 42.6753339, "tags": {"artwork_type": "mural", "tourism": "artwork"}}, {"type": "node", "id": 11030473684, "lat": 42.2683335, "lon": 42.6995101, "tags": {"check_date": "2025-09-14", "name": "Best Western Kutaisi", "name:en": "Best Western Kutaisi", "tourism": "hotel"}}, {"type": "node", "id": 11030477373, "lat": 42.2619634, "lon": 42.682708, "tags": {"amenity": "cafe", "check_date": "2023-07-06", "cuisine": "coffee_shop"}}, {"type": "node", "id": 11030477381, "lat": 42.2615035, "lon": 42.6860214, "tags": {"check_date": "2024-04-04", "name:en": "Bessarion", "tourism": "hotel"}}, {"type": "node", "id": 11034114585, "lat": 42.2617374, "lon": 42.6950283, "tags": {"amenity": "cafe", "check_date": "2023-07-08", "name": "Friend's house"}}, {"type": "node", "id": 11034114588, "lat": 42.2617221, "lon": 42.6968423, "tags": {"check_date": "2023-07-08", "name": "Emi", "tourism": "hostel"}}, {"type": "node", "id": 11038011415, "lat": 42.2676693, "lon": 42.6995463, "tags": {"artwork_type": "mural", "tourism": "artwork"}}, {"type": "node", "id": 11039934647, "lat": 42.2667651, "lon": 42.6830413, "tags": {"artwork_type": "mural", "tourism": "artwork"}}, {"type": "node", "id": 11039958512, "lat": 42.2665106, "lon": 42.6871773, "tags": {"artwork_type": "mural", "tourism": "artwork"}}, {"type": "node", "id": 11042534658, "lat": 42.2620462, "lon": 42.6601702, "tags": {"historic": "memorial", "memorial": "statue"}}, {"type": "node", "id": 11045232175, "lat": 42.2624963, "lon": 42.6924838, "tags": {"historic": "memorial", "memorial": "war_memorial"}}, {"type": "node", "id": 11045268335, "lat": 42.2633531, "lon": 42.6942639, "tags": {"amenity": "cafe", "check_date": "2023-07-13"}}, {"type": "node", "id": 11046961787, "lat": 42.2619119, "lon": 42.6989685, "tags": {"artwork_type": "graffiti", "tourism": "artwork"}}, {"type": "node", "id": 11047652737, "lat": 42.2549072, "lon": 42.6764233, "tags": {"artwork_type": "mosaic", "tourism": "artwork"}}, {"type": "node", "id": 11057107348, "lat": 42.2538892, "lon": 42.6815724, "tags": {"artwork_type": "mural", "tourism": "artwork"}}, {"type": "node", "id": 11059881219, "lat": 42.2694863, "lon": 42.6984195, "tags": {"amenity": "restaurant", "check_date": "2025-09-14", "name": "\u10da\u10e3\u10d3\u10d8\u10e1 \u10db\u10e3\u10d6\u10d4\u10e3\u10db\u10d8", "name:en": "Beer Museum", "name:ka": "\u10da\u10e3\u10d3\u10d8\u10e1 \u10db\u10e3\u10d6\u10d4\u10e3\u10db\u10d8", "opening_hours": "24/7", "payment:american_express": "yes", "payment:contactless": "yes", "payment:credit_cards": "yes", "payment:debit_cards": "yes", "payment:mastercard": "yes", "payment:visa": "yes"}}, {"type": "node", "id": 11059895785, "lat": 42.2692737, "lon": 42.6980643, "tags": {"amenity": "cafe", "check_date": "2025-09-14", "name": "\u1c9b\u10d8\u10dc\u10d8\u10d0\u10e0\u10e2\u10d8", "name:en": "Mini art", "name:ka": "\u1c9b\u10d8\u10dc\u10d8\u10d0\u10e0\u10e2\u10d8", "opening_hours": "08:00-01:00"}}, {"type": "node", "id": 11068654506, "lat": 42.2759612, "lon": 42.6971001, "tags": {"addr:city": "\u10e5\u10e3\u10d7\u10d0\u10d8\u10e1\u10d8", "addr:housenumber": "13", "addr:postcode": "4600", "addr:street": "\u10d0\u10dc\u10e2\u10dd\u10dc \u10d9\u10d0\u10d7\u10d0\u10da\u10d8\u10d9\u10dd\u10e1\u10d8\u10e1 \u10e5\u10e3\u10e9\u10d0", "contact:mobile": "+995 574 01 91 23", "internet_access": "wlan", "internet_access:fee": "no", "name": "Family Hotel Banuri", "name:en": "Family Hotel Banuri", "rooms": "11", "tourism": "hotel", "website": "https://www.booking.com/Share-49PjXko"}}, {"type": "node", "id": 11110264553, "lat": 42.2625144, "lon": 42.686111, "tags": {"check_date": "2023-08-12", "name:en": "West Way", "tourism": "hotel"}}, {"type": "node", "id": 11148037257, "lat": 42.2660613, "lon": 42.6739944, "tags": {"amenity": "cafe", "cuisine": "coffee;bakery", "name": "\u10d7\u10e3 \u10da\u10d4 \u10df\u10e3", "name:en": "Tu Le Ju", "outdoor_seating": "yes"}}, {"type": "node", "id": 11148436707, "lat": 42.2739154, "lon": 42.6978158, "tags": {"name:nl": "Guesthouse Ana", "tourism": "guest_house"}}, {"type": "node", "id": 11150236461, "lat": 42.2672254, "lon": 42.6945228, "tags": {"artwork_type": "graffiti", "tourism": "artwork"}}, {"type": "node", "id": 11159095506, "lat": 42.2730277, "lon": 42.6953598, "tags": {"check_date": "2024-05-05", "internet_access": "wlan", "internet_access:fee": "customers", "name:en": "Guest house Jaba", "payment:cash": "yes", "payment:credit_cards": "yes", "payment:debit_cards": "yes", "tourism": "guest_house"}}, {"type": "node", "id": 11199359537, "lat": 42.2612973, "lon": 42.6732739, "tags": {"name": "\u10d1\u10d4\u10e0\u10db\u10e3\u10ee\u10d0", "name:en": "Soviet bas-relief \"Bermukha\"", "name:ka": "\u10d1\u10d0\u10e0\u10d4\u10da\u10d8\u10d4\u10e4\u10d8 \"\u10d1\u10d4\u10e0\u10db\u10e3\u10ee\u10d0\"", "tourism": "attraction"}}, {"type": "node", "id": 11199359637, "lat": 42.2612835, "lon": 42.6732401, "tags": {"amenity": "restaurant", "cuisine": "turkish"}}, {"type": "node", "id": 11202246437, "lat": 42.2679993, "lon": 42.674314, "tags": {"amenity": "restaurant", "name": "\u10e4\u10e3\u10dc\u10d7\u10e3\u10e8\u10d0"}}, {"type": "node", "id": 11202344337, "lat": 42.2660373, "lon": 42.6739937, "tags": {"amenity": "restaurant", "cuisine": "pizza", "name:en": "Leo d'Oro"}}, {"type": "node", "id": 11881016221, "lat": 42.2724083, "lon": 42.6938178, "tags": {"air_conditioning": "yes", "bar": "no", "building:levels": "1,2,3", "check_date": "2024-05-05", "contact:mobile": "+995 551 15 36 15", "internet_access": "wlan", "internet_access:fee": "customers", "name": "HILL HOTEL", "name:ka": "\u10f0\u10d8\u10da\u10d8", "payment:cash": "yes", "payment:credit_cards": "yes", "payment:debit_cards": "yes", "reservation": "yes", "rooms": "20", "smoking": "separated", "source": "survey", "tourism": "hotel", "wheelchair": "yes"}}, {"type": "node", "id": 11899263001, "lat": 42.2667083, "lon": 42.6929314, "tags": {"amenity": "cafe", "name": "\u10ee\u10d8\u10dc\u10d9\u10da\u10d8\u10e1 \u10e1\u10d0\u10ee\u10da\u10d8"}}, {"type": "node", "id": 11899263004, "lat": 42.2676978, "lon": 42.6938179, "tags": {"name": "Phasis", "tourism": "hotel"}}, {"type": "node", "id": 11899263014, "lat": 42.2686972, "lon": 42.6958913, "tags": {"name": "\u10d4\u10d5\u10e0\u10dd \u10f0\u10dd\u10e2\u10d4\u10da", "tourism": "hotel"}}, {"type": "node", "id": 11899263024, "lat": 42.2700915, "lon": 42.6981926, "tags": {"amenity": "restaurant", "name": "\u10e1\u10d4\u10db\u10d8\u10e0\u10d4\u10db\u10d8\u10d3\u10d0"}}, {"type": "node", "id": 12281704404, "lat": 42.2543918, "lon": 42.6775574, "tags": {"amenity": "cafe", "check_date": "2023-05-01", "cuisine": "georgian", "level": "-1", "name": "\u10db\u10d0\u10da\u10d4", "name:en": "Male", "website": "https://male.ge/"}}, {"type": "node", "id": 12520818118, "lat": 42.2688247, "lon": 42.69917, "tags": {"addr:city": "\u10e5\u10e3\u10d7\u10d0\u10d8\u10e1\u10d8", "addr:housenumber": "4", "addr:postcode": "4600", "addr:street": "\u10d8. \u10d2\u10e0\u10d8\u10e8\u10d0\u10e8\u10d5\u10d8\u10da\u10d8\u10e1 \u10db\u10d4-2 \u10e8\u10d4\u10e1\u10d0\u10ee\u10d5\u10d4\u10d5\u10d8", "amenity": "restaurant", "check_date": "2025-09-14", "contact:mobile": "+995 595 88 15 03", "cuisine": "ukrainian", "delivery": "yes", "diet:meat": "yes", "diet:non-vegetarian": "yes", "diet:vegetarian": "yes", "internet_access": "wlan", "internet_access:fee": "customers", "name": "\u10d3\u10d4\u10d1\u10d7\u10d0\u10dc", "name:en": "U sester", "name:ka": "\u10d3\u10d4\u10d1\u10d7\u10d0\u10dc", "name:ru": "\u0423 \u0441\u0435\u0441\u0442\u0451\u0440", "name:uk": "\u0423 \u0441\u0435\u0441\u0442\u0435\u0440", "opening_hours": "Mo-Su 12:00-22:00", "outdoor_seating": "yes", "toilets": "yes", "wheelchair": "yes"}}, {"type": "node", "id": 12619112826, "lat": 42.2565876, "lon": 42.6725379, "tags": {"amenity": "cafe", "check_date": "2023-05-01"}}, {"type": "node", "id": 12619112868, "lat": 42.2577911, "lon": 42.6690142, "tags": {"amenity": "cafe", "check_date": "2023-05-01"}}, {"type": "node", "id": 12619112886, "lat": 42.2579653, "lon": 42.6666377, "tags": {"check_date": "2023-05-01", "tourism": "hotel"}}, {"type": "node", "id": 12644201085, "lat": 42.2507587, "lon": 42.6846394, "tags": {"check_date": "2023-05-01", "name": "Mandaria", "tourism": "hostel"}}, {"type": "node", "id": 12812188502, "lat": 42.2812488, "lon": 42.6892484, "tags": {"addr:housenumber": "61", "addr:street": "\u10ec\u10e7\u10d0\u10e0\u10dd\u10e1 \u10e5\u10e3\u10e9\u10d0", "name:en": "Bebo Babu guesthouse", "tourism": "guest_house"}}, {"type": "node", "id": 12922934825, "lat": 42.2741757, "lon": 42.6963942, "tags": {"addr:city": "\u10e5\u10e3\u10d7\u10d0\u10d8\u10e1\u10d8", "addr:housenumber": "18", "addr:postcode": "4600", "addr:street": "\u10ea\u10d0\u10ea\u10ee\u10d5\u10d4\u10d1\u10d8\u10e1 \u10e5\u10e3\u10e9\u10d0", "bar": "yes", "catering": "breakfast", "contact:instagram": "https://www.instagram.com/thefriendshostel/", "contact:mobile": "+995 551 08 66 27", "email": "hostelthefriends@gmail.com", "internet_access": "wlan", "internet_access:fee": "no", "laundry_service": "yes", "name": "The friends hostel", "opening_hours": "Mo-Su 11:00-23:00", "payment:cash": "yes", "payment:credit_cards": "yes", "payment:google_pay": "yes", "phone": "+995551086627", "smoking": "separated", "swimming_pool": "yes", "tent": "yes", "tents": "yes", "tourism": "hostel"}}, {"type": "node", "id": 12994619901, "lat": 42.2587875, "lon": 42.6991066, "tags": {"addr:housenumber": "11", "addr:street": "Lado Asatiani 3rd Lane", "name": "Eleven", "tourism": "guest_house"}}, {"type": "node", "id": 13123195854, "lat": 42.2694776, "lon": 42.6980953, "tags": {"addr:housenumber": "12", "addr:street": "Galaktion Tabidze Street", "check_date": "2025-09-15", "contact:mobile": "+995 571 10 16 15", "name": "\u10d7\u10e3\u10d7\u10d0", "name:en": "Tuta", "name:ka": "\u10d7\u10e3\u10d7\u10d0", "tourism": "hotel"}}, {"type": "node", "id": 13141415541, "lat": 42.2685657, "lon": 42.6981711, "tags": {"amenity": "restaurant", "check_date": "2025-09-14", "name": "\u10d3\u10dd\u10da\u10d8", "name:en": "Doli", "outdoor_seating": "yes", "website": "https://dolirestaurant.com/doli-kutaisi/"}}, {"type": "node", "id": 13142021225, "lat": 42.2694351, "lon": 42.6980884, "tags": {"amenity": "cafe", "check_date": "2025-09-15", "cuisine": "breakfast;coffee_shop", "name": "\u10d7\u10e3\u10d7\u10d0", "name:en": "Tuta", "name:ka": "\u10d7\u10e3\u10d7\u10d0", "name:ru": "\u0422\u0443\u0442\u0430", "opening_hours": "08:00-22:00"}}, {"type": "node", "id": 13144837621, "lat": 42.2699909, "lon": 42.6990317, "tags": {"tourism": "viewpoint"}}, {"type": "node", "id": 13144837623, "lat": 42.2700412, "lon": 42.698999, "tags": {"tourism": "viewpoint"}}, {"type": "node", "id": 13144837625, "lat": 42.2700915, "lon": 42.6989664, "tags": {"tourism": "viewpoint"}}, {"type": "node", "id": 13144837626, "lat": 42.2699407, "lon": 42.6990643, "tags": {"tourism": "viewpoint"}}, {"type": "node", "id": 13183463016, "lat": 42.2545365, "lon": 42.6742152, "tags": {"amenity": "cafe"}}, {"type": "way", "id": 100742596, "nodes": [11067108391, 11067108390], "tags": {"bridge": "yes", "highway": "pedestrian", "layer": "1", "name": "\u10d7\u10d4\u10d7\u10e0\u10d8 \u10ee\u10d8\u10d3\u10d8", "name:de": "Wei\u00dfe Br\u00fccke", "name:en": "White Bridge", "name:hu": "Feh\u00e9r h\u00edd", "name:ka": "\u10d7\u10d4\u10d7\u10e0\u10d8 \u10ee\u10d8\u10d3\u10d8", "name:ru": "\u0411\u0435\u043b\u044b\u0439 \u043c\u043e\u0441\u0442", "name:uk": "\u0411\u0456\u043b\u0438\u0439 \u043c\u0456\u0441\u0442", "opening_hours": "24/7", "start_date": "1850", "surface": "metal", "tourism": "attraction", "wikidata": "Q42691138"}}, {"type": "way", "id": 100748143, "nodes": [1164518467, 13144831873, 1164517937, 1164516759, 1164519089, 1164442181, 1164516947, 1164518371, 1164518934, 1164518461, 1164516696, 1164518533, 1164517272, 1164517284, 1164519227, 1164517682, 1164518810, 1164517446, 1164518885, 1164518467], "tags": {"addr:city": "\u10e5\u10e3\u10d7\u10d0\u10d8\u10e1\u10d8", "addr:street": "\u10e0\u10d4\u10d5\u10d0\u10d6 \u10d7\u10d0\u10d1\u10e3\u10d9\u10d0\u10e8\u10d5\u10d8\u10da\u10d8\u10e1 \u10e5\u10e3\u10e9\u10d0", "barrier": "fence", "fence_type": "chain_link", "leisure": "park", "name": "\u10d0\u10ee\u10d0\u10da\u10d2\u10d0\u10d6\u10e0\u10d3\u10dd\u10d1\u10d8\u10e1 \u10de\u10d0\u10e0\u10d9\u10d8", "name:en": "Youth Park", "name:ka": "\u10d0\u10ee\u10d0\u10da\u10d2\u10d0\u10d6\u10e0\u10d3\u10dd\u10d1\u10d8\u10e1 \u10de\u10d0\u10e0\u10d9\u10d8", "source": "JumpStart International"}}, {"type": "way", "id": 100750067, "nodes": [1164530923, 10991724657, 1164533999, 1164532535, 1164533537, 1164527506, 1164533619, 1164527642, 1164530466, 1164527144, 1164531620, 10991724656, 1164530644, 10991724659, 1164529860, 1164533578, 1164527419, 10991724658, 1164530923], "tags": {"leisure": "park", "source": "JumpStart International"}}, {"type": "way", "id": 100750079, "nodes": [1164530574, 7037787700, 1164527570, 1164533104, 7037787701, 10990198541, 3599010445, 1164528803, 1164530574], "tags": {"leisure": "park", "name": "\u10d9\u10d8\u10d9\u10d5\u10d8\u10eb\u10d8\u10e1 \u10de\u10d0\u10e0\u10d9\u10d8", "operator": "\u10e5\u10e3\u10d7\u10d0\u10d8\u10e1\u10d8\u10e1 \u10db\u10d4\u10e0\u10d8\u10d0", "source": "JumpStart International"}}, {"type": "way", "id": 100750417, "nodes": [1164529262, 1164533232, 1164532011, 1164527274, 1164531493, 1164529779, 1164533025, 10991745011, 1164528760, 1164531297, 1164531575, 1164534045, 1164532694, 1164532067, 10991745010, 1164529262], "tags": {"leisure": "park", "source": "JumpStart International"}}, {"type": "way", "id": 100750548, "nodes": [1164527772, 1164533778, 1164530687, 1164530865, 1164533840, 1164527786, 10991745020, 1164528654, 1164533443, 1164528937, 1164534066, 1164530390, 1164529703, 10991745021, 1164527772], "tags": {"leisure": "park", "source": "JumpStart International"}}, {"type": "way", "id": 100750596, "nodes": [1164531171, 10991724652, 5846708207, 1164530742, 1164533311, 1164527356, 10991724653, 1164527406, 1164528254, 10991724654, 1164530758, 10991724655, 1164528481, 10991724651, 1164531917, 1164531171], "tags": {"leisure": "park", "source": "JumpStart International"}}, {"type": "way", "id": 100750740, "nodes": [1164533754, 10991724684, 10991724691, 10991724696, 10991745005, 1164532080, 10991745009, 1164529000, 10991724701, 1164533350, 1164532235, 1164531778, 10991724704, 10991724698, 10991724690, 10991724683, 1164531003, 1164531421, 1164530007, 10991724680, 1164532401, 1164530200, 1164533754], "tags": {"leisure": "park", "source": "JumpStart International"}}, {"type": "way", "id": 100750804, "nodes": [1164528536, 1164533714, 1164527196, 1164532895, 1164532494, 1164533371, 1164529202, 10991724670, 10991724662, 10991724660, 1164533572, 1164531979, 1164529095, 1164530131, 1164528373, 1164533552, 10991724661, 10991724663, 10991724664, 10991724669, 1164528536], "tags": {"leisure": "park", "source": "JumpStart International"}}, {"type": "way", "id": 100750947, "nodes": [5854817261, 5854817260, 1164529641, 1164534002, 5854817262, 5854817261], "tags": {"leisure": "park", "name": "\u10d3\u10d8\u10d3\u10d4\u10d1\u10d8\u10e1 \u10d1\u10d0\u10e6\u10d8", "name:en": "Garden of Glory", "name:ka": "\u10d3\u10d8\u10d3\u10d4\u10d1\u10d8\u10e1 \u10d1\u10d0\u10e6\u10d8", "source": "JumpStart International"}}, {"type": "way", "id": 204510466, "nodes": [2145101119, 2145101120, 2145101127, 2145101128, 2145101125, 2145101132, 2145101114, 2145101131, 2145101126, 2145101121, 2145101122, 7060374952, 2145101112, 2145101130, 2145101117, 2145101116, 2145101115, 2145101110, 2145101119], "tags": {"leisure": "park", "name": "\u10d9\u10e3\u10da\u10e2\u10e3\u10e0\u10d0 \u10d3\u10d0 \u10d3\u10d0\u10e1\u10d5\u10d4\u10dc\u10d4\u10d1\u10d8\u10e1 \u10de\u10d0\u10e0\u10d9\u10d8", "name:en": "B. Gabashvili kulture and rest park", "name:ru": "\u041f\u0430\u0440\u043a \u041a\u0443\u043b\u044c\u0442\u0443\u0440\u044b \u0438 \u043e\u0442\u0434\u044b\u0445\u0430"}}, {"type": "way", "id": 204510467, "nodes": [7060374960, 7060374961, 7060374962, 7060374963, 7060374964, 2145101111, 2145101124, 2145101118, 7060374953, 7060374954, 7060374955, 7060374956, 7060374957, 7060374958, 7060374959, 2145101113, 2145101129, 2145101123, 2145101109, 7060374960], "tags": {"check_date": "2023-08-28", "name": "\u10d9\u10e3\u10da\u10e2\u10e3\u10e0\u10d0 \u10d3\u10d0 \u10d3\u10d0\u10e1\u10d5\u10d4\u10dc\u10d4\u10d1\u10d8\u10e1 \u10de\u10d0\u10e0\u10d9\u10d8", "name:en": "Park of Culture and rest", "name:hu": "Kult\u00fara \u00e9s kikapcsol\u00f3d\u00e1s parkja", "name:ru": "\u041f\u0430\u0440\u043a \u041a\u0443\u043b\u044c\u0442\u0443\u0440\u044b \u0438 \u043e\u0442\u0434\u044b\u0445\u0430", "tourism": "theme_park"}}, {"type": "way", "id": 205467245, "nodes": [2154396840, 11008695452, 2154396806, 2154396813, 2154396793, 2154396825, 2154396807, 2154396789, 11053479209, 2154396795, 2154396774, 2154396766, 2154396776, 2154396812, 11053416991, 11053416990, 2154396833, 2154396822, 2154396834, 2154396840], "tags": {"leisure": "park"}}, {"type": "way", "id": 221323964, "nodes": [2303581541, 2303581526, 10991724675, 10991724679, 10991724674, 2303581536, 2303581556, 10991724677, 10991724678, 10991724676, 2303581541], "tags": {"leisure": "park", "source": "JumpStart International"}}, {"type": "way", "id": 263471565, "nodes": [2690898655, 2690898640, 2690898573, 2690898603, 11059332184, 2690898600, 11059332188, 11059332187, 2152966039, 11059332183, 11059332182, 2690898629, 2690898612, 2690898655], "tags": {"amenity": "marketplace", "landuse": "retail"}}, {"type": "way", "id": 353585438, "nodes": [3593975719, 3593975722, 3593975723, 11029956963, 11029956964, 3593975724, 3593975719], "tags": {"addr:city": "\u10e5\u10e3\u10d7\u10d0\u10d8\u10e1\u10d8", "addr:housenumber": "28", "addr:postcode": "4600", "addr:street": "\u10d3\u10d8\u10db\u10d8\u10e2\u10e0\u10d8 \u10db\u10ed\u10d4\u10d3\u10da\u10d8\u10eb\u10d8\u10e1 \u10e5\u10e3\u10e9\u10d0", "addr:street:en": "Dimitri Mtchedlidze Street", "amenity": "restaurant", "building": "yes", "name": "\u10d8\u10db\u10de\u10d4\u10e0\u10d8\u10d0\u10da\u10d8", "name:en": "Imperiali"}}, {"type": "way", "id": 353601666, "nodes": [3594157459, 3594157460, 3594157461, 11029957392, 11029957393, 3594157462, 3594157463, 11033986655, 3594157464, 3594157459], "tags": {"abandoned:tourism": "hotel", "addr:city": "\u10e5\u10e3\u10d7\u10d0\u10d8\u10e1\u10d8", "addr:housenumber": "2/21", "addr:postcode": "4600", "addr:street": "\u10da\u10d0\u10d3\u10dd \u10d0\u10e1\u10d0\u10d7\u10d8\u10d0\u10dc\u10d8\u10e1 \u10e5\u10e3\u10e9\u10d0", "addr:street:en": "Laso Asatiani Street", "building": "yes", "historic": "hotel", "name": "\u10d7\u10d1\u10d8\u10da\u10d8\u10e1\u10d8", "name:en": "Tbilisi"}}, {"type": "way", "id": 353839716, "nodes": [3596385993, 3596385994, 3596385995, 3596385996, 3596385993], "tags": {"addr:city": "\u10e5\u10e3\u10d7\u10d0\u10d8\u10e1\u10d8", "addr:postcode": "4600", "addr:street": "\u10d2\u10d0\u10da\u10d0\u10d9\u10e2\u10d8\u10dd\u10dc \u10e2\u10d0\u10d1\u10d8\u10eb\u10d8\u10e1 \u10e5\u10e3\u10e9\u10d0", "building": "commercial", "building:levels": "3", "name": "\u10d0\u10d8\u10d4\u10e2\u10d8\u10e1 \u10e1\u10d0\u10e1\u10d0\u10ee\u10da\u10d4", "name:en": "Aeetes Palace Hotel", "tourism": "hotel"}}, {"type": "way", "id": 408676260, "nodes": [4105790986, 5863382929, 4105790987, 4105790988, 4105791189, 5674515556, 4130627659, 4105790986], "tags": {"addr:city": "\u10d1\u10d0\u10dc\u10dd\u10ef\u10d0 (Banoja)", "amenity": "restaurant", "name": "\u10d2\u10e0\u10d0\u10dc\u10d3 \u10de\u10d0\u10da\u10d0\u10e1\u10d8 (Grand Palace)", "name:en": "Grand Palace", "name:ka": "\u10d2\u10e0\u10d0\u10dc\u10d3 \u10de\u10d0\u10da\u10d0\u10e1\u10d8"}}, {"type": "way", "id": 425323255, "nodes": [4246477022, 4246477023, 11037526498, 4246477024, 11037526494, 4246477025, 4246477022], "tags": {"addr:city": "\u10e5\u10e3\u10d7\u10d0\u10d8\u10e1\u10d8", "addr:housenumber": "10", "addr:postcode": "4600", "addr:street": "\u10d8\u10da\u10d8\u10d0 \u10ed\u10d0\u10d5\u10ed\u10d0\u10d5\u10d0\u10eb\u10d8\u10e1 \u10d2\u10d0\u10db\u10d6\u10d8\u10e0\u10d8", "building": "yes", "name": "\u10d0\u10d8\u10d0 (Aia)", "tourism": "hotel"}}, {"type": "way", "id": 618283612, "nodes": [5844137105, 5844137106, 5844137111, 5844137107, 11025162326, 5844137108, 11022425766, 5844137109, 11022425765, 11022425764, 5844137105], "tags": {"addr:housenumber": "10\u10d2", "addr:street": "\u10e1\u10d8\u10db\u10dd\u10dc \u10d2\u10e3\u10d2\u10e3\u10dc\u10d0\u10d5\u10d0\u10e1 \u10e5\u10e3\u10e9\u10d0", "building": "yes", "name": "\u10d9\u10dd\u10db\u10e4\u10dd\u10e0\u10e2\u10d8", "name:en": "Comfort", "name:ka": "\u10d9\u10dd\u10db\u10e4\u10dd\u10e0\u10e2\u10d8", "source": "JumpStart International", "tourism": "hotel"}}, {"type": "way", "id": 624063904, "nodes": [5892751910, 5892751909, 5892751908, 5892751907, 5892751910], "tags": {"building": "yes", "building:levels": "2", "internet_access": "wlan", "internet_access:fee": "no", "name": "Peradia", "rooms": "5", "tourism": "hotel"}}, {"type": "way", "id": 914367406, "nodes": [8493986687, 8493986688, 5141356075, 8493986686, 8493986689, 8493986690, 8493986691, 8493986645, 8493986687], "tags": {"leisure": "park"}}, {"type": "way", "id": 914367407, "nodes": [8493986699, 8493986692, 8493986693, 8493986694, 8493986695, 8493986696, 8493986646, 8493986655, 8493986697, 5141356072, 8493986698, 8493986699], "tags": {"leisure": "park"}}, {"type": "way", "id": 914367409, "nodes": [8493986701, 8493986702, 8493986778, 8493986779, 8493986780, 8493986701], "tags": {"leisure": "park"}}, {"type": "way", "id": 914367410, "nodes": [5141356074, 8493986781, 8493986782, 8493986703, 8493986704, 8493985502, 8493985501, 8493985500, 8493985499, 8493985498, 8493985497, 8493985496, 8493985495, 8493985494, 8493985493, 8493986705, 8493986706, 8493986707, 8493986708, 8493986709, 8493986710, 8493986711, 8493986712, 5141356073, 5141356074], "tags": {"leisure": "park"}}, {"type": "way", "id": 914367411, "nodes": [8493986713, 8493986726, 8493986725, 8493986714, 8493986715, 8493986716, 8493986717, 8493986718, 8493986719, 8493986720, 8493986721, 8493986722, 8493986723, 8493986724, 8493986727, 8493986713], "tags": {"leisure": "park"}}, {"type": "way", "id": 914367412, "nodes": [5081672084, 8493986728, 8493986729, 8493986647, 8493986730, 8493986731, 8493986732, 8493986733, 8493986734, 8493986735, 8493986736, 8493986737, 8493986738, 8493986739, 8493986740, 8493986741, 8493986742, 8493986777, 8493986743, 8493986744, 8493986661, 5081672080, 5081672066, 8493986662, 5081672104, 5081672087, 5081672093, 5081672072, 5081672091, 5081672105, 5081672077, 5081672085, 5081672055, 5081672050, 5081672084], "tags": {"leisure": "park"}}, {"type": "way", "id": 914367413, "nodes": [8493986641, 8493986745, 8493986746, 8493986747, 8493986748, 8493986749, 8493986750, 8493986751, 8493986752, 8493986753, 8493986754, 8493986755, 8493986756, 8493986757, 8493986758, 8493986776, 8493986759, 8493986760, 8493986761, 8493986762, 8493986763, 8493986764, 8493986765, 8493985492, 8493985491, 8493985490, 8493985489, 8493986643, 8493985488, 8493985487, 8493985486, 8493985485, 8493985484, 8493985483, 8493985482, 8493985481, 8493985480, 8493985479, 8493985478, 8493985477, 8493986642, 8493986641], "tags": {"leisure": "park"}}, {"type": "way", "id": 914367429, "nodes": [8493986674, 8493985454, 8493985455, 8493985456, 8493986770, 8493986769, 8493986768, 8493986744, 8493986661, 5081672080, 5081672066, 8493986662, 5081672104, 5081672087, 5081672093, 5081672072, 5081672091, 5081672105, 5081672077, 5081672085, 5081672055, 5081672050, 5081672084, 8493986728, 8493986729, 8493986644, 8493986691, 8493986690, 8493986685, 8493986836, 8493986674], "tags": {"leisure": "park"}}, {"type": "way", "id": 914367433, "nodes": [8493986847, 8493986848, 8493986837, 8493985504, 8493985505, 8493985506, 8493985507, 8493985508, 8493985509, 8493985510, 8493985511, 8493985512, 8493985513, 8493985514, 8493985515, 8493985516, 8493986617, 8493986618, 8493986619, 8493986620, 8493986621, 8493986622, 8493986623, 8493986624, 8493986625, 8493986626, 8493986627, 8493986628, 8493986629, 8493986630, 8493986631, 8493986632, 8493986633, 8493986634, 8493986635, 8493986636, 8493986637, 8493986638, 8493986639, 8493986847], "tags": {"leisure": "park"}}, {"type": "way", "id": 914367436, "nodes": [8493986660, 8493986876, 8493986877, 8493986878, 8493986879, 8493986880, 8493986881, 8493986882, 8493986883, 8493986884, 8493986885, 8493986886, 8493986887, 7560649990, 8493986888, 8493986889, 8493986890, 8493986891, 8493986892, 8493986893, 8493986894, 8493986859, 8493986858, 8493986857, 8493986856, 8493986855, 8493986854, 8493986853, 8493986852, 8493986851, 8493986850, 8493986849, 8493986775, 8493986774, 8493986773, 8493986772, 8493986771, 8493986895, 8493986660], "tags": {"leisure": "park"}}, {"type": "way", "id": 919755425, "nodes": [8541292750, 7461485847, 8541292738, 7461485850, 7461485845, 7461485849, 8541292744, 8541292742, 8541292746, 7461485848, 7461485846, 8541292751, 8541292741, 8541292750], "tags": {"leisure": "park"}}, {"type": "way", "id": 1051860928, "nodes": [10698696592, 9666111201, 9666111202, 9666111203, 9666111204, 9666111205, 9666111206, 9666111207, 10698696592], "tags": {"description": "Old prison of Kutaisi. Not in use anymore.", "disused:amenity": "prison", "historic": "yes", "landuse": "brownfield"}}, {"type": "way", "id": 1181029524, "nodes": [10968273017, 10968273014, 11059404688, 11059404689, 10968273015, 10968273016, 10968273017], "tags": {"addr:city": "\u10e5\u10e3\u10d7\u10d0\u10d8\u10e1\u10d8", "addr:housenumber": "7", "addr:street": "\u10da\u10d4\u10d5\u10d0\u10dc \u10e1\u10d0\u10dc\u10d8\u10d9\u10d8\u10eb\u10d8\u10e1 \u10e5\u10e3\u10e9\u10d0", "addr:street:en": "Levan Sanikidze Street", "building": "yes", "building:levels": "7", "internet_access": "wlan", "name": "Ponte Hotel", "tourism": "hotel"}}, {"type": "way", "id": 1181032195, "nodes": [10968297788, 10968297791, 10968297793, 10968297802, 10968297803, 10968297789, 10968297792, 10968297801, 10968297800, 10968297794, 10968297799, 10968297790, 10968297787, 10968297796, 10968297795, 10968297798, 10968297797, 10968297788], "tags": {"addr:city": "\u10e5\u10e3\u10d7\u10d0\u10d8\u10e1\u10d8", "addr:housenumber": "1", "addr:street": "\u10d6\u10d0\u10d6\u10d0 \u10db\u10d0\u10da\u10d0\u10dc\u10d8\u10d0\u10e1 \u10e5\u10e3\u10e9\u10d0", "addr:street:en": "Zaza Malania Street", "building": "yes", "historic": "prison"}}, {"type": "way", "id": 1181213620, "nodes": [10969836243, 10969836242, 10969836241, 10969836240, 10969836239, 10969836243], "tags": {"amenity": "marketplace", "name": "\u10dc\u10d8\u10dc\u10dd\u10e8\u10d5\u10d8\u10da\u10d8\u10e1 \u10d1\u10d0\u10d6\u10d0\u10e0\u10d8"}}, {"type": "way", "id": 1183881137, "nodes": [10994303693, 10994303692, 10994303691, 10994303690, 10994303686, 10994303693], "tags": {"leisure": "park"}}, {"type": "way", "id": 1184169552, "nodes": [10996878185, 10996878184, 10996878183, 10996878182, 10996878185], "tags": {"addr:housenumber": "44", "addr:street": "\u10d6\u10d5\u10d8\u10d0\u10d3 \u10d2\u10d0\u10db\u10e1\u10d0\u10ee\u10e3\u10e0\u10d3\u10d8\u10d0\u10e1 \u10d2\u10d0\u10db\u10d6\u10d8\u10e0\u10d8", "addr:street:en": "Zviad Gamsakhurdia Avenue", "building": "hotel", "check_date": "2022-12-01", "name": "\u10d5\u10d4\u10e1\u10e2 \u10e2\u10d0\u10e3\u10d4\u10e0\u10d8", "name:en": "West Tower", "tourism": "hotel"}}, {"type": "way", "id": 1184406846, "nodes": [5577390952, 10997065099, 10997065100, 5577390953, 11001248576, 11001248575, 5577390952], "tags": {"leisure": "park"}}, {"type": "way", "id": 1184493369, "nodes": [11001932470, 11001932467, 11001932468, 11001932469, 11001932470], "tags": {"amenity": "marketplace", "building": "retail", "name:en": "Indoor Clothes Market"}}, {"type": "way", "id": 1186311411, "nodes": [11018618582, 5609885221, 11018618580, 11018618581, 11018618582], "tags": {"amenity": "restaurant", "building": "yes", "check_date": "2025-09-14", "cuisine": "coffee_shop", "name": "\u10d0\u10e0\u10d2\u10dd", "name:de": "Argo", "name:en": "Argo", "name:ka": "\u10d0\u10e0\u10d2\u10dd", "website:menu": "https://cafeargo.emenu.ge/"}}, {"type": "way", "id": 1187275794, "nodes": [11025430041, 11025430040, 11025430039, 11025430038, 11025430037, 11025430036, 11025430035, 11025430034, 11025430033, 11025430032, 11025430031, 11025430041], "tags": {"leisure": "park"}}, {"type": "way", "id": 1189360006, "nodes": [11043854972, 11043854971, 11043854970, 11043854969, 11043854968, 11043854967, 11043854966, 11043854965, 11043854964, 11043854963, 11043854962, 11043854961, 11043854960, 11043854959, 11043854958, 11043854957, 11043854956, 11043854955, 11043854954, 11043854953, 11043854972], "tags": {"leisure": "park", "name": "\u10d5\u10da\u10d0\u10d3\u10d8\u10e1\u10da\u10d0\u10d5 \u10e0\u10d0\u10e9\u10d9\u10d4\u10d5\u10d8\u10e9\u10d8\u10e1 \u10e1\u10d0\u10ee\u10d4\u10da\u10dd\u10d1\u10d8\u10e1 \u10e1\u10d9\u10d5\u10d4\u10e0\u10d8", "name:en": "Square named after W\u0142adys\u0142aw Raczkiewicz", "name:ka": "\u10d5\u10da\u10d0\u10d3\u10d8\u10e1\u10da\u10d0\u10d5 \u10e0\u10d0\u10e9\u10d9\u10d4\u10d5\u10d8\u10e9\u10d8\u10e1 \u10e1\u10d0\u10ee\u10d4\u10da\u10dd\u10d1\u10d8\u10e1 \u10e1\u10d9\u10d5\u10d4\u10e0\u10d8", "name:ru": "\u0421\u043a\u0432\u0435\u0440 \u0438\u043c\u0435\u043d\u0438 \u0412\u043b\u0430\u0434\u0438\u0441\u043b\u0430\u0432\u0430 \u0420\u0430\u0447\u043a\u0435\u0432\u0438\u0447\u0430", "subject:wikidata": "Q55840", "subject:wikipedia": "ka:\u10d5\u10da\u10d0\u10d3\u10d8\u10e1\u10da\u10d0\u10d5 \u10e0\u10d0\u10e9\u10d9\u10d4\u10d5\u10d8\u10e9\u10d8"}}, {"type": "way", "id": 1359336572, "nodes": [12582259166, 12582259167, 12582259168, 12582259163, 12582259162, 12582259169, 12582259166], "tags": {"leisure": "park"}}, {"type": "way", "id": 1433756196, "nodes": [13176726690, 13176814831, 13176726687, 13176814843, 13176814822, 13176726700, 13176814844, 13176814811, 13176814806, 13176726688, 13176814846, 13176814816, 13176814836, 13176814812, 13176726690], "tags": {"area": "yes", "historic": "ruins"}}, {"type": "node", "id": 2152966039, "lat": 42.2536007, "lon": 42.6758981}, {"type": "node", "id": 11059332183, "lat": 42.2541626, "lon": 42.6743397}, {"type": "node", "id": 11059332184, "lat": 42.2543164, "lon": 42.6760456}, {"type": "node", "id": 11059332187, "lat": 42.2532571, "lon": 42.6767773}, {"type": "node", "id": 5577390952, "lat": 42.257788, "lon": 42.6701051}, {"type": "node", "id": 10996878182, "lat": 42.259047, "lon": 42.6679783}, {"type": "node", "id": 10996878183, "lat": 42.2588615, "lon": 42.6682035}, {"type": "node", "id": 10996878184, "lat": 42.2589103, "lon": 42.6682769}, {"type": "node", "id": 10996878185, "lat": 42.2590958, "lon": 42.6680517}, {"type": "node", "id": 10997065099, "lat": 42.2576666, "lon": 42.6703785}, {"type": "node", "id": 10997065100, "lat": 42.257654, "lon": 42.6703683}, {"type": "node", "id": 11001248575, "lat": 42.2576248, "lon": 42.6699786}, {"type": "node", "id": 2690898573, "lat": 42.2556632, "lon": 42.6737969}, {"type": "node", "id": 2690898603, "lat": 42.254618, "lon": 42.6762847}, {"type": "node", "id": 2690898612, "lat": 42.2553178, "lon": 42.6719328}, {"type": "node", "id": 2690898629, "lat": 42.254888, "lon": 42.6729038}, {"type": "node", "id": 2690898640, "lat": 42.2553838, "lon": 42.6735673}, {"type": "node", "id": 2690898655, "lat": 42.2559058, "lon": 42.6724247}, {"type": "node", "id": 5577390953, "lat": 42.2574266, "lon": 42.6708803}, {"type": "node", "id": 11001248576, "lat": 42.257276, "lon": 42.6707629}, {"type": "node", "id": 11001932467, "lat": 42.256636, "lon": 42.6736024}, {"type": "node", "id": 11001932468, "lat": 42.2562618, "lon": 42.6733087}, {"type": "node", "id": 11001932469, "lat": 42.2563816, "lon": 42.6730301}, {"type": "node", "id": 11001932470, "lat": 42.2567558, "lon": 42.6733238}, {"type": "node", "id": 11059332182, "lat": 42.2547798, "lon": 42.6731173}, {"type": "node", "id": 5081672050, "lat": 42.2632123, "lon": 42.6630722}, {"type": "node", "id": 5081672055, "lat": 42.2631845, "lon": 42.6629918}, {"type": "node", "id": 5081672066, "lat": 42.2629423, "lon": 42.6600534}, {"type": "node", "id": 5081672072, "lat": 42.2629308, "lon": 42.6611459}, {"type": "node", "id": 5081672077, "lat": 42.2630852, "lon": 42.6628952}, {"type": "node", "id": 5081672080, "lat": 42.2629745, "lon": 42.6597514}, {"type": "node", "id": 5081672084, "lat": 42.2631898, "lon": 42.6633514}, {"type": "node", "id": 5081672085, "lat": 42.2631368, "lon": 42.6629596}, {"type": "node", "id": 5081672087, "lat": 42.2628792, "lon": 42.6606631}, {"type": "node", "id": 5081672091, "lat": 42.2629983, "lon": 42.6623797}, {"type": "node", "id": 5081672093, "lat": 42.2629026, "lon": 42.6609855}, {"type": "node", "id": 5081672104, "lat": 42.2628748, "lon": 42.6603203}, {"type": "node", "id": 5081672105, "lat": 42.2630297, "lon": 42.6627075}, {"type": "node", "id": 5141356072, "lat": 42.2637735, "lon": 42.6627215}, {"type": "node", "id": 5141356073, "lat": 42.2640122, "lon": 42.6627119}, {"type": "node", "id": 5141356074, "lat": 42.2640194, "lon": 42.6630351}, {"type": "node", "id": 5141356075, "lat": 42.2637806, "lon": 42.6630448}, {"type": "node", "id": 7560649990, "lat": 42.2643231, "lon": 42.6583842}, {"type": "node", "id": 8493985454, "lat": 42.2627627, "lon": 42.6601507}, {"type": "node", "id": 8493985455, "lat": 42.2628043, "lon": 42.6600998}, {"type": "node", "id": 8493985456, "lat": 42.2628242, "lon": 42.6600435}, {"type": "node", "id": 8493985477, "lat": 42.2643999, "lon": 42.6611649}, {"type": "node", "id": 8493985478, "lat": 42.2644052, "lon": 42.6613817}, {"type": "node", "id": 8493985479, "lat": 42.2644343, "lon": 42.6613804}, {"type": "node", "id": 8493985480, "lat": 42.2644383, "lon": 42.6615358}, {"type": "node", "id": 8493985481, "lat": 42.2644467, "lon": 42.6615353}, {"type": "node", "id": 8493985482, "lat": 42.2644446, "lon": 42.6614631}, {"type": "node", "id": 8493985483, "lat": 42.2644738, "lon": 42.6614615}, {"type": "node", "id": 8493985484, "lat": 42.2644762, "lon": 42.6615411}, {"type": "node", "id": 8493985485, "lat": 42.2645379, "lon": 42.6615376}, {"type": "node", "id": 8493985486, "lat": 42.264547, "lon": 42.6618321}, {"type": "node", "id": 8493985487, "lat": 42.2645374, "lon": 42.6618326}, {"type": "node", "id": 8493985488, "lat": 42.2645326, "lon": 42.6616801}, {"type": "node", "id": 8493985489, "lat": 42.2645086, "lon": 42.6619775}, {"type": "node", "id": 8493985490, "lat": 42.2644487, "lon": 42.6619809}, {"type": "node", "id": 8493985491, "lat": 42.2644621, "lon": 42.6624103}, {"type": "node", "id": 8493985492, "lat": 42.2645108, "lon": 42.6624076}, {"type": "node", "id": 8493985493, "lat": 42.2645186, "lon": 42.6626596}, {"type": "node", "id": 8493985494, "lat": 42.2644507, "lon": 42.6626634}, {"type": "node", "id": 8493985495, "lat": 42.2644643, "lon": 42.6631037}, {"type": "node", "id": 8493985496, "lat": 42.264441, "lon": 42.663105}, {"type": "node", "id": 8493985497, "lat": 42.2644458, "lon": 42.6632608}, {"type": "node", "id": 8493985498, "lat": 42.264472, "lon": 42.66325}, {"type": "node", "id": 8493985499, "lat": 42.26447, "lon": 42.66317}, {"type": "node", "id": 8493985500, "lat": 42.2645328, "lon": 42.6631671}, {"type": "node", "id": 8493985501, "lat": 42.2645369, "lon": 42.6633301}, {"type": "node", "id": 8493985502, "lat": 42.2645886, "lon": 42.6633277}, {"type": "node", "id": 8493985504, "lat": 42.2646835, "lon": 42.6629098}, {"type": "node", "id": 8493985505, "lat": 42.2647076, "lon": 42.6629087}, {"type": "node", "id": 8493985506, "lat": 42.2647004, "lon": 42.662613}, {"type": "node", "id": 8493985507, "lat": 42.2646766, "lon": 42.662614}, {"type": "node", "id": 8493985508, "lat": 42.2646769, "lon": 42.6626296}, {"type": "node", "id": 8493985509, "lat": 42.2646539, "lon": 42.6626306}, {"type": "node", "id": 8493985510, "lat": 42.2646534, "lon": 42.6626074}, {"type": "node", "id": 8493985511, "lat": 42.2646883, "lon": 42.662606}, {"type": "node", "id": 8493985512, "lat": 42.2646873, "lon": 42.662558}, {"type": "node", "id": 8493985513, "lat": 42.2646711, "lon": 42.6625586}, {"type": "node", "id": 8493985514, "lat": 42.2646686, "lon": 42.6624345}, {"type": "node", "id": 8493985515, "lat": 42.2646762, "lon": 42.6624342}, {"type": "node", "id": 8493985516, "lat": 42.2646776, "lon": 42.6625109}, {"type": "node", "id": 8493986617, "lat": 42.2646964, "lon": 42.6625103}, {"type": "node", "id": 8493986618, "lat": 42.2646947, "lon": 42.6624108}, {"type": "node", "id": 8493986619, "lat": 42.2647074, "lon": 42.6624105}, {"type": "node", "id": 8493986620, "lat": 42.2647078, "lon": 42.6624343}, {"type": "node", "id": 8493986621, "lat": 42.2647552, "lon": 42.6624329}, {"type": "node", "id": 8493986622, "lat": 42.2647516, "lon": 42.6621961}, {"type": "node", "id": 8493986623, "lat": 42.2647139, "lon": 42.6621972}, {"type": "node", "id": 8493986624, "lat": 42.2647151, "lon": 42.6622726}, {"type": "node", "id": 8493986625, "lat": 42.2646868, "lon": 42.6622734}, {"type": "node", "id": 8493986626, "lat": 42.2646847, "lon": 42.6621373}, {"type": "node", "id": 8493986627, "lat": 42.2646722, "lon": 42.6621376}, {"type": "node", "id": 8493986628, "lat": 42.2646714, "lon": 42.6620857}, {"type": "node", "id": 8493986629, "lat": 42.2646816, "lon": 42.6620853}, {"type": "node", "id": 8493986630, "lat": 42.2646807, "lon": 42.6620314}, {"type": "node", "id": 8493986631, "lat": 42.264728, "lon": 42.6620298}, {"type": "node", "id": 8493986632, "lat": 42.264719, "lon": 42.6615392}, {"type": "node", "id": 8493986633, "lat": 42.2646914, "lon": 42.6615402}, {"type": "node", "id": 8493986634, "lat": 42.2646945, "lon": 42.6616944}, {"type": "node", "id": 8493986635, "lat": 42.2646609, "lon": 42.6616956}, {"type": "node", "id": 8493986636, "lat": 42.2646551, "lon": 42.6614138}, {"type": "node", "id": 8493986637, "lat": 42.2646794, "lon": 42.6614129}, {"type": "node", "id": 8493986638, "lat": 42.2646688, "lon": 42.6609402}, {"type": "node", "id": 8493986639, "lat": 42.2647348, "lon": 42.6609362}, {"type": "node", "id": 8493986641, "lat": 42.2644593, "lon": 42.6608653}, {"type": "node", "id": 8493986642, "lat": 42.2644664, "lon": 42.6611619}, {"type": "node", "id": 8493986643, "lat": 42.2644994, "lon": 42.661682}, {"type": "node", "id": 8493986644, "lat": 42.2633551, "lon": 42.6636822}, {"type": "node", "id": 8493986645, "lat": 42.2635253, "lon": 42.6636697}, {"type": "node", "id": 8493986646, "lat": 42.2634888, "lon": 42.6627592}, {"type": "node", "id": 8493986647, "lat": 42.2633185, "lon": 42.6627717}, {"type": "node", "id": 8493986655, "lat": 42.2637151, "lon": 42.6627497}, {"type": "node", "id": 8493986660, "lat": 42.2629425, "lon": 42.6593414}, {"type": "node", "id": 8493986661, "lat": 42.2629667, "lon": 42.6596029}, {"type": "node", "id": 8493986662, "lat": 42.2629183, "lon": 42.6601491}, {"type": "node", "id": 8493986674, "lat": 42.2626607, "lon": 42.6601649}, {"type": "node", "id": 8493986685, "lat": 42.263446, "lon": 42.6637248}, {"type": "node", "id": 8493986686, "lat": 42.2638185, "lon": 42.6630432}, {"type": "node", "id": 8493986687, "lat": 42.2634911, "lon": 42.6628162}, {"type": "node", "id": 8493986688, "lat": 42.2637755, "lon": 42.6628136}, {"type": "node", "id": 8493986689, "lat": 42.2638015, "lon": 42.6636527}, {"type": "node", "id": 8493986690, "lat": 42.263465, "lon": 42.6637181}, {"type": "node", "id": 8493986691, "lat": 42.263466, "lon": 42.6636741}, {"type": "node", "id": 8493986692, "lat": 42.2637269, "lon": 42.662467}, {"type": "node", "id": 8493986693, "lat": 42.2636051, "lon": 42.6625201}, {"type": "node", "id": 8493986694, "lat": 42.2635121, "lon": 42.6625962}, {"type": "node", "id": 8493986695, "lat": 42.2634597, "lon": 42.6626794}, {"type": "node", "id": 8493986696, "lat": 42.2634429, "lon": 42.6627613}, {"type": "node", "id": 8493986697, "lat": 42.2637744, "lon": 42.6627593}, {"type": "node", "id": 8493986698, "lat": 42.2638551, "lon": 42.6627183}, {"type": "node", "id": 8493986699, "lat": 42.2638521, "lon": 42.6624522}, {"type": "node", "id": 8493986701, "lat": 42.2638741, "lon": 42.663041}, {"type": "node", "id": 8493986702, "lat": 42.263845, "lon": 42.6634054}, {"type": "node", "id": 8493986703, "lat": 42.2638948, "lon": 42.6636466}, {"type": "node", "id": 8493986704, "lat": 42.2645931, "lon": 42.6635044}, {"type": "node", "id": 8493986705, "lat": 42.2645169, "lon": 42.6626049}, {"type": "node", "id": 8493986706, "lat": 42.2644395, "lon": 42.6625653}, {"type": "node", "id": 8493986707, "lat": 42.2642424, "lon": 42.662486}, {"type": "node", "id": 8493986708, "lat": 42.2641296, "lon": 42.6624657}, {"type": "node", "id": 8493986709, "lat": 42.2640378, "lon": 42.6624454}, {"type": "node", "id": 8493986710, "lat": 42.263907, "lon": 42.6624373}, {"type": "node", "id": 8493986711, "lat": 42.2638957, "lon": 42.6624576}, {"type": "node", "id": 8493986712, "lat": 42.2639008, "lon": 42.6627164}, {"type": "node", "id": 8493986713, "lat": 42.2637711, "lon": 42.6609803}, {"type": "node", "id": 8493986714, "lat": 42.2637102, "lon": 42.6612589}, {"type": "node", "id": 8493986715, "lat": 42.2636737, "lon": 42.6616194}, {"type": "node", "id": 8493986716, "lat": 42.2636851, "lon": 42.661986}, {"type": "node", "id": 8493986717, "lat": 42.2637148, "lon": 42.6622325}, {"type": "node", "id": 8493986718, "lat": 42.2637399, "lon": 42.6622787}, {"type": "node", "id": 8493986719, "lat": 42.2637741, "lon": 42.6622695}, {"type": "node", "id": 8493986720, "lat": 42.263806, "lon": 42.6622356}, {"type": "node", "id": 8493986721, "lat": 42.2639086, "lon": 42.661832}, {"type": "node", "id": 8493986722, "lat": 42.2639086, "lon": 42.6616163}, {"type": "node", "id": 8493986723, "lat": 42.2638881, "lon": 42.6614253}, {"type": "node", "id": 8493986724, "lat": 42.2637969, "lon": 42.6610217}, {"type": "node", "id": 8493986725, "lat": 42.2637506, "lon": 42.6610201}, {"type": "node", "id": 8493986726, "lat": 42.2637612, "lon": 42.6609922}, {"type": "node", "id": 8493986727, "lat": 42.2637842, "lon": 42.6609851}, {"type": "node", "id": 8493986728, "lat": 42.2631888, "lon": 42.6634266}, {"type": "node", "id": 8493986729, "lat": 42.2633482, "lon": 42.663445}, {"type": "node", "id": 8493986730, "lat": 42.2633775, "lon": 42.6627661}, {"type": "node", "id": 8493986731, "lat": 42.263391, "lon": 42.6626472}, {"type": "node", "id": 8493986732, "lat": 42.2634286, "lon": 42.6625841}, {"type": "node", "id": 8493986733, "lat": 42.2636124, "lon": 42.6624294}, {"type": "node", "id": 8493986734, "lat": 42.2636148, "lon": 42.6621488}, {"type": "node", "id": 8493986735, "lat": 42.2636168, "lon": 42.6619205}, {"type": "node", "id": 8493986736, "lat": 42.2636387, "lon": 42.6615337}, {"type": "node", "id": 8493986737, "lat": 42.2636559, "lon": 42.6612848}, {"type": "node", "id": 8493986738, "lat": 42.2637008, "lon": 42.6609224}, {"type": "node", "id": 8493986739, "lat": 42.2637233, "lon": 42.660754}, {"type": "node", "id": 8493986740, "lat": 42.263706, "lon": 42.6606418}, {"type": "node", "id": 8493986741, "lat": 42.2636507, "lon": 42.6605109}, {"type": "node", "id": 8493986742, "lat": 42.2635763, "lon": 42.6603846}, {"type": "node", "id": 8493986743, "lat": 42.2631492, "lon": 42.6597337}, {"type": "node", "id": 8493986744, "lat": 42.2630364, "lon": 42.6596026}, {"type": "node", "id": 8493986745, "lat": 42.2642303, "lon": 42.660872}, {"type": "node", "id": 8493986746, "lat": 42.2640676, "lon": 42.6608394}, {"type": "node", "id": 8493986747, "lat": 42.2638869, "lon": 42.660701}, {"type": "node", "id": 8493986748, "lat": 42.2638115, "lon": 42.6605585}, {"type": "node", "id": 8493986749, "lat": 42.2637784, "lon": 42.6604283}, {"type": "node", "id": 8493986750, "lat": 42.263688, "lon": 42.6602532}, {"type": "node", "id": 8493986751, "lat": 42.2635103, "lon": 42.6600293}, {"type": "node", "id": 8493986752, "lat": 42.2634621, "lon": 42.6599967}, {"type": "node", "id": 8493986753, "lat": 42.2634135, "lon": 42.6600009}, {"type": "node", "id": 8493986754, "lat": 42.2636327, "lon": 42.6603835}, {"type": "node", "id": 8493986755, "lat": 42.2637651, "lon": 42.6606612}, {"type": "node", "id": 8493986756, "lat": 42.2638793, "lon": 42.6611332}, {"type": "node", "id": 8493986757, "lat": 42.263966, "lon": 42.6615343}, {"type": "node", "id": 8493986758, "lat": 42.2639752, "lon": 42.6617935}, {"type": "node", "id": 8493986759, "lat": 42.2639226, "lon": 42.662031}, {"type": "node", "id": 8493986760, "lat": 42.2638793, "lon": 42.6621761}, {"type": "node", "id": 8493986761, "lat": 42.263893, "lon": 42.6622408}, {"type": "node", "id": 8493986762, "lat": 42.2639386, "lon": 42.6622902}, {"type": "node", "id": 8493986763, "lat": 42.2642691, "lon": 42.6624288}, {"type": "node", "id": 8493986764, "lat": 42.2644619, "lon": 42.6624611}, {"type": "node", "id": 8493986765, "lat": 42.2645124, "lon": 42.6624609}, {"type": "node", "id": 8493986768, "lat": 42.2629234, "lon": 42.6594806}, {"type": "node", "id": 8493986769, "lat": 42.2628617, "lon": 42.6594436}, {"type": "node", "id": 8493986770, "lat": 42.2627783, "lon": 42.6594493}, {"type": "node", "id": 8493986771, "lat": 42.2627719, "lon": 42.6593669}, {"type": "node", "id": 8493986772, "lat": 42.2628731, "lon": 42.6593788}, {"type": "node", "id": 8493986773, "lat": 42.2629165, "lon": 42.6594035}, {"type": "node", "id": 8493986774, "lat": 42.2630329, "lon": 42.6594992}, {"type": "node", "id": 8493986775, "lat": 42.2633321, "lon": 42.6598817}, {"type": "node", "id": 8493986776, "lat": 42.2639698, "lon": 42.6618177}, {"type": "node", "id": 8493986777, "lat": 42.2633452, "lon": 42.6599867}, {"type": "node", "id": 8493986778, "lat": 42.2639223, "lon": 42.6631191}, {"type": "node", "id": 8493986779, "lat": 42.2639262, "lon": 42.6631046}, {"type": "node", "id": 8493986780, "lat": 42.2639684, "lon": 42.6630372}, {"type": "node", "id": 8493986781, "lat": 42.263976, "lon": 42.6630957}, {"type": "node", "id": 8493986782, "lat": 42.2638974, "lon": 42.6634408}, {"type": "node", "id": 8493986836, "lat": 42.2630669, "lon": 42.6638024}, {"type": "node", "id": 8493986837, "lat": 42.2646967, "lon": 42.6634911}, {"type": "node", "id": 8493986847, "lat": 42.2647569, "lon": 42.66186}, {"type": "node", "id": 8493986848, "lat": 42.2647942, "lon": 42.6634861}, {"type": "node", "id": 8493986849, "lat": 42.2633677, "lon": 42.659934}, {"type": "node", "id": 8493986850, "lat": 42.2634343, "lon": 42.6599062}, {"type": "node", "id": 8493986851, "lat": 42.2634846, "lon": 42.6599278}, {"type": "node", "id": 8493986852, "lat": 42.2635257, "lon": 42.6599864}, {"type": "node", "id": 8493986853, "lat": 42.263786, "lon": 42.660332}, {"type": "node", "id": 8493986854, "lat": 42.2638088, "lon": 42.6603443}, {"type": "node", "id": 8493986855, "lat": 42.2638271, "lon": 42.6602734}, {"type": "node", "id": 8493986856, "lat": 42.2638088, "lon": 42.659789}, {"type": "node", "id": 8493986857, "lat": 42.2634983, "lon": 42.6598013}, {"type": "node", "id": 8493986858, "lat": 42.2634937, "lon": 42.6597334}, {"type": "node", "id": 8493986859, "lat": 42.263859, "lon": 42.6597088}, {"type": "node", "id": 8493986876, "lat": 42.2630007, "lon": 42.6593372}, {"type": "node", "id": 8493986877, "lat": 42.2630296, "lon": 42.6592274}, {"type": "node", "id": 8493986878, "lat": 42.2630427, "lon": 42.6590537}, {"type": "node", "id": 8493986879, "lat": 42.2630532, "lon": 42.6589368}, {"type": "node", "id": 8493986880, "lat": 42.2632499, "lon": 42.6589722}, {"type": "node", "id": 8493986881, "lat": 42.2632919, "lon": 42.6591033}, {"type": "node", "id": 8493986882, "lat": 42.2633994, "lon": 42.6591707}, {"type": "node", "id": 8493986883, "lat": 42.2635017, "lon": 42.6591565}, {"type": "node", "id": 8493986884, "lat": 42.2635778, "lon": 42.6591317}, {"type": "node", "id": 8493986885, "lat": 42.263722, "lon": 42.658958}, {"type": "node", "id": 8493986886, "lat": 42.2639666, "lon": 42.6585673}, {"type": "node", "id": 8493986887, "lat": 42.2641881, "lon": 42.6583943}, {"type": "node", "id": 8493986888, "lat": 42.2643221, "lon": 42.6585533}, {"type": "node", "id": 8493986889, "lat": 42.2641466, "lon": 42.6585673}, {"type": "node", "id": 8493986890, "lat": 42.2640635, "lon": 42.6586094}, {"type": "node", "id": 8493986891, "lat": 42.2640012, "lon": 42.6586702}, {"type": "node", "id": 8493986892, "lat": 42.2639389, "lon": 42.6587731}, {"type": "node", "id": 8493986893, "lat": 42.2638836, "lon": 42.6589601}, {"type": "node", "id": 8493986894, "lat": 42.2638489, "lon": 42.6593904}, {"type": "node", "id": 8493986895, "lat": 42.2627701, "lon": 42.659343}, {"type": "node", "id": 4105790986, "lat": 42.272484, "lon": 42.6556014}, {"type": "node", "id": 4105790987, "lat": 42.2724124, "lon": 42.6565861}, {"type": "node", "id": 4105790988, "lat": 42.2716444, "lon": 42.6565524}, {"type": "node", "id": 4105791189, "lat": 42.2717036, "lon": 42.6554866}, {"type": "node", "id": 4130627659, "lat": 42.2723458, "lon": 42.6555488}, {"type": "node", "id": 5674515556, "lat": 42.272064, "lon": 42.6555386}, {"type": "node", "id": 5863382929, "lat": 42.2724325, "lon": 42.6561363}, {"type": "node", "id": 1164527356, "lat": 42.2619177, "lon": 42.676012}, {"type": "node", "id": 1164527406, "lat": 42.2618926, "lon": 42.6760461}, {"type": "node", "id": 1164527419, "lat": 42.2618987, "lon": 42.6761621}, {"type": "node", "id": 1164527570, "lat": 42.2642517, "lon": 42.676249}, {"type": "node", "id": 1164528254, "lat": 42.2618634, "lon": 42.6760511}, {"type": "node", "id": 1164528481, "lat": 42.2618155, "lon": 42.675966}, {"type": "node", "id": 1164529860, "lat": 42.2618522, "lon": 42.6761573}, {"type": "node", "id": 1164530644, "lat": 42.2618107, "lon": 42.676191}, {"type": "node", "id": 1164530742, "lat": 42.261927, "lon": 42.6759618}, {"type": "node", "id": 1164530758, "lat": 42.261829, "lon": 42.6760217}, {"type": "node", "id": 1164530923, "lat": 42.2619216, "lon": 42.6761956}, {"type": "node", "id": 1164531171, "lat": 42.2619525, "lon": 42.6742143}, {"type": "node", "id": 1164531917, "lat": 42.2618496, "lon": 42.6740476}, {"type": "node", "id": 1164533104, "lat": 42.2636836, "lon": 42.676684}, {"type": "node", "id": 1164533311, "lat": 42.261925, "lon": 42.6759925}, {"type": "node", "id": 1164533578, "lat": 42.2618702, "lon": 42.6761565}, {"type": "node", "id": 5846708207, "lat": 42.2619268, "lon": 42.675912}, {"type": "node", "id": 10991724651, "lat": 42.2618166, "lon": 42.6759042}, {"type": "node", "id": 10991724652, "lat": 42.2619269, "lon": 42.6759041}, {"type": "node", "id": 10991724653, "lat": 42.2619082, "lon": 42.6760295}, {"type": "node", "id": 10991724654, "lat": 42.2618452, "lon": 42.6760416}, {"type": "node", "id": 10991724655, "lat": 42.2618204, "lon": 42.6760054}, {"type": "node", "id": 10991724658, "lat": 42.2619176, "lon": 42.6761743}, {"type": "node", "id": 10991724659, "lat": 42.2618214, "lon": 42.6761663}, {"type": "node", "id": 12582259162, "lat": 42.2650429, "lon": 42.6740165}, {"type": "node", "id": 12582259163, "lat": 42.2650424, "lon": 42.6738552}, {"type": "node", "id": 12582259166, "lat": 42.2651412, "lon": 42.67371}, {"type": "node", "id": 12582259167, "lat": 42.2649856, "lon": 42.6737109}, {"type": "node", "id": 12582259168, "lat": 42.2649861, "lon": 42.6738555}, {"type": "node", "id": 12582259169, "lat": 42.2651422, "lon": 42.674016}, {"type": "node", "id": 7461485845, "lat": 42.2688669, "lon": 42.6694098}, {"type": "node", "id": 7461485846, "lat": 42.2690801, "lon": 42.6698634}, {"type": "node", "id": 7461485847, "lat": 42.269115, "lon": 42.6693724}, {"type": "node", "id": 7461485848, "lat": 42.26886, "lon": 42.6698581}, {"type": "node", "id": 7461485849, "lat": 42.2688659, "lon": 42.66945}, {"type": "node", "id": 7461485850, "lat": 42.2688887, "lon": 42.669379}, {"type": "node", "id": 8541292738, "lat": 42.2689163, "lon": 42.6693786}, {"type": "node", "id": 8541292741, "lat": 42.2691847, "lon": 42.66961}, {"type": "node", "id": 8541292742, "lat": 42.2688637, "lon": 42.6696047}, {"type": "node", "id": 8541292744, "lat": 42.2688654, "lon": 42.6694878}, {"type": "node", "id": 8541292746, "lat": 42.268862, "lon": 42.6697197}, {"type": "node", "id": 8541292750, "lat": 42.2691859, "lon": 42.6693746}, {"type": "node", "id": 8541292751, "lat": 42.2691807, "lon": 42.6698658}, {"type": "node", "id": 1164517937, "lat": 42.2477945, "lon": 42.6814349}, {"type": "node", "id": 1164518467, "lat": 42.2471232, "lon": 42.6810243}, {"type": "node", "id": 1164518885, "lat": 42.2475772, "lon": 42.679843}, {"type": "node", "id": 13144831873, "lat": 42.2477736, "lon": 42.6814221}, {"type": "node", "id": 1164442181, "lat": 42.2509169, "lon": 42.683274}, {"type": "node", "id": 1164516696, "lat": 42.2513709, "lon": 42.6814919}, {"type": "node", "id": 1164516759, "lat": 42.2482273, "lon": 42.681707}, {"type": "node", "id": 1164516947, "lat": 42.2509884, "lon": 42.6833228}, {"type": "node", "id": 1164517272, "lat": 42.2512317, "lon": 42.6803064}, {"type": "node", "id": 1164517284, "lat": 42.2511957, "lon": 42.6800556}, {"type": "node", "id": 1164517446, "lat": 42.2482067, "lon": 42.6801471}, {"type": "node", "id": 1164517682, "lat": 42.2499315, "lon": 42.680476}, {"type": "node", "id": 1164518371, "lat": 42.2511379, "lon": 42.6829627}, {"type": "node", "id": 1164518461, "lat": 42.2514293, "lon": 42.6821825}, {"type": "node", "id": 1164518533, "lat": 42.2512953, "lon": 42.6808356}, {"type": "node", "id": 1164518810, "lat": 42.2490435, "lon": 42.6804401}, {"type": "node", "id": 1164518934, "lat": 42.2513068, "lon": 42.6824895}, {"type": "node", "id": 1164519089, "lat": 42.2500333, "lon": 42.6827538}, {"type": "node", "id": 1164519227, "lat": 42.2502469, "lon": 42.6804122}, {"type": "node", "id": 2690898600, "lat": 42.2536075, "lon": 42.6776311}, {"type": "node", "id": 5844137105, "lat": 42.2512788, "lon": 42.6776825}, {"type": "node", "id": 5844137106, "lat": 42.2510783, "lon": 42.67772}, {"type": "node", "id": 5844137107, "lat": 42.2511127, "lon": 42.678056}, {"type": "node", "id": 5844137108, "lat": 42.25126, "lon": 42.6780285}, {"type": "node", "id": 5844137109, "lat": 42.2512283, "lon": 42.677952}, {"type": "node", "id": 5844137111, "lat": 42.2510949, "lon": 42.6778821}, {"type": "node", "id": 11022425764, "lat": 42.2512895, "lon": 42.6777871}, {"type": "node", "id": 11022425765, "lat": 42.2512128, "lon": 42.6778014}, {"type": "node", "id": 11022425766, "lat": 42.2512517, "lon": 42.6779477}, {"type": "node", "id": 11025162326, "lat": 42.2511449, "lon": 42.67805}, {"type": "node", "id": 11059332188, "lat": 42.2530051, "lon": 42.6774806}, {"type": "node", "id": 4246477022, "lat": 42.250098, "lon": 42.6885056}, {"type": "node", "id": 4246477023, "lat": 42.2499774, "lon": 42.6884567}, {"type": "node", "id": 4246477024, "lat": 42.25003, "lon": 42.6882202}, {"type": "node", "id": 4246477025, "lat": 42.2501506, "lon": 42.6882691}, {"type": "node", "id": 11037526494, "lat": 42.2500934, "lon": 42.688246}, {"type": "node", "id": 11037526498, "lat": 42.2499976, "lon": 42.6883659}, {"type": "node", "id": 3593975719, "lat": 42.2575919, "lon": 42.6943871}, {"type": "node", "id": 3593975722, "lat": 42.2573829, "lon": 42.6943188}, {"type": "node", "id": 3593975723, "lat": 42.2573453, "lon": 42.6945288}, {"type": "node", "id": 3593975724, "lat": 42.2575543, "lon": 42.6945972}, {"type": "node", "id": 11029956963, "lat": 42.2573578, "lon": 42.6945329}, {"type": "node", "id": 11029956964, "lat": 42.2575368, "lon": 42.6945915}, {"type": "node", "id": 3594157463, "lat": 42.2608368, "lon": 42.6982604}, {"type": "node", "id": 3594157464, "lat": 42.2608353, "lon": 42.6985709}, {"type": "node", "id": 11033986655, "lat": 42.2608364, "lon": 42.6983402}, {"type": "node", "id": 1164527144, "lat": 42.2618034, "lon": 42.677293}, {"type": "node", "id": 1164527196, "lat": 42.2618021, "lon": 42.681915}, {"type": "node", "id": 1164527506, "lat": 42.2618853, "lon": 42.6773294}, {"type": "node", "id": 1164527642, "lat": 42.261829, "lon": 42.6773381}, {"type": "node", "id": 1164528373, "lat": 42.2618929, "lon": 42.6774895}, {"type": "node", "id": 1164528536, "lat": 42.2618351, "lon": 42.6818665}, {"type": "node", "id": 1164528803, "lat": 42.2645807, "lon": 42.6778726}, {"type": "node", "id": 1164529095, "lat": 42.2618266, "lon": 42.6774692}, {"type": "node", "id": 1164529202, "lat": 42.2617274, "lon": 42.6818592}, {"type": "node", "id": 1164530007, "lat": 42.2617573, "lon": 42.6823448}, {"type": "node", "id": 1164530131, "lat": 42.2618718, "lon": 42.6774698}, {"type": "node", "id": 1164530200, "lat": 42.2618096, "lon": 42.6823502}, {"type": "node", "id": 1164530466, "lat": 42.2618151, "lon": 42.6773191}, {"type": "node", "id": 1164530574, "lat": 42.2646187, "lon": 42.6777858}, {"type": "node", "id": 1164531003, "lat": 42.2617159, "lon": 42.6823847}, {"type": "node", "id": 1164531421, "lat": 42.2617312, "lon": 42.6823641}, {"type": "node", "id": 1164531620, "lat": 42.2617987, "lon": 42.6772426}, {"type": "node", "id": 1164531979, "lat": 42.2618023, "lon": 42.6774881}, {"type": "node", "id": 1164532401, "lat": 42.2617824, "lon": 42.6823412}, {"type": "node", "id": 1164532494, "lat": 42.2617428, "lon": 42.6819094}, {"type": "node", "id": 1164532535, "lat": 42.2619065, "lon": 42.6772736}, {"type": "node", "id": 1164532895, "lat": 42.2617709, "lon": 42.6819163}, {"type": "node", "id": 1164533371, "lat": 42.261728, "lon": 42.6818894}, {"type": "node", "id": 1164533537, "lat": 42.2618993, "lon": 42.6773042}, {"type": "node", "id": 1164533552, "lat": 42.2619016, "lon": 42.6775203}, {"type": "node", "id": 1164533572, "lat": 42.2617945, "lon": 42.6775193}, {"type": "node", "id": 1164533619, "lat": 42.2618614, "lon": 42.6773439}, {"type": "node", "id": 1164533714, "lat": 42.2618239, "lon": 42.6818999}, {"type": "node", "id": 1164533754, "lat": 42.2618321, "lon": 42.6823855}, {"type": "node", "id": 1164533999, "lat": 42.2619102, "lon": 42.677235}, {"type": "node", "id": 2303581526, "lat": 42.2618334, "lon": 42.6822548}, {"type": "node", "id": 2303581536, "lat": 42.2617166, "lon": 42.6822534}, {"type": "node", "id": 2303581541, "lat": 42.2618351, "lon": 42.6819967}, {"type": "node", "id": 2303581556, "lat": 42.2617208, "lon": 42.681994}, {"type": "node", "id": 3599010445, "lat": 42.2645402, "lon": 42.677905}, {"type": "node", "id": 7037787700, "lat": 42.2645989, "lon": 42.6776631}, {"type": "node", "id": 7037787701, "lat": 42.2644279, "lon": 42.6779124}, {"type": "node", "id": 10990198541, "lat": 42.2644956, "lon": 42.6779292}, {"type": "node", "id": 10991724656, "lat": 42.261799, "lon": 42.6772125}, {"type": "node", "id": 10991724657, "lat": 42.2619104, "lon": 42.677216}, {"type": "node", "id": 10991724660, "lat": 42.2617907, "lon": 42.6776011}, {"type": "node", "id": 10991724661, "lat": 42.2619004, "lon": 42.6775993}, {"type": "node", "id": 10991724662, "lat": 42.2617689, "lon": 42.6790704}, {"type": "node", "id": 10991724663, "lat": 42.2618778, "lon": 42.6790721}, {"type": "node", "id": 10991724664, "lat": 42.2618551, "lon": 42.6805569}, {"type": "node", "id": 10991724669, "lat": 42.2618356, "lon": 42.6818337}, {"type": "node", "id": 10991724670, "lat": 42.2617278, "lon": 42.6818306}, {"type": "node", "id": 10991724674, "lat": 42.2617469, "lon": 42.6822267}, {"type": "node", "id": 10991724675, "lat": 42.261806, "lon": 42.6822241}, {"type": "node", "id": 10991724676, "lat": 42.2618084, "lon": 42.6820202}, {"type": "node", "id": 10991724677, "lat": 42.2617489, "lon": 42.6820162}, {"type": "node", "id": 10991724678, "lat": 42.2617762, "lon": 42.6820276}, {"type": "node", "id": 10991724679, "lat": 42.2617772, "lon": 42.6822187}, {"type": "node", "id": 10991724680, "lat": 42.2617768, "lon": 42.682342}, {"type": "node", "id": 10991724683, "lat": 42.2617127, "lon": 42.6825577}, {"type": "node", "id": 10991724684, "lat": 42.2618286, "lon": 42.6825601}, {"type": "node", "id": 11025430031, "lat": 42.2656722, "lon": 42.6803371}, {"type": "node", "id": 11025430032, "lat": 42.265247, "lon": 42.6791804}, {"type": "node", "id": 11025430033, "lat": 42.2655387, "lon": 42.6789773}, {"type": "node", "id": 11025430034, "lat": 42.2656611, "lon": 42.6790215}, {"type": "node", "id": 11025430035, "lat": 42.2656623, "lon": 42.6791268}, {"type": "node", "id": 11025430036, "lat": 42.2657345, "lon": 42.6791258}, {"type": "node", "id": 11025430037, "lat": 42.2657367, "lon": 42.6794956}, {"type": "node", "id": 11025430038, "lat": 42.265802, "lon": 42.6794939}, {"type": "node", "id": 11025430039, "lat": 42.2658047, "lon": 42.6798845}, {"type": "node", "id": 11025430040, "lat": 42.2658732, "lon": 42.6798848}, {"type": "node", "id": 11025430041, "lat": 42.2658757, "lon": 42.6803123}, {"type": "node", "id": 1164527274, "lat": 42.2617003, "lon": 42.686615}, {"type": "node", "id": 1164527772, "lat": 42.2617406, "lon": 42.688137}, {"type": "node", "id": 1164527786, "lat": 42.2616268, "lon": 42.6881315}, {"type": "node", "id": 1164528760, "lat": 42.2616293, "lon": 42.687985}, {"type": "node", "id": 1164529000, "lat": 42.2617218, "lon": 42.6865177}, {"type": "node", "id": 1164529262, "lat": 42.2617632, "lon": 42.6866695}, {"type": "node", "id": 1164529779, "lat": 42.2616603, "lon": 42.6866317}, {"type": "node", "id": 1164530687, "lat": 42.2617008, "lon": 42.6881473}, {"type": "node", "id": 1164530865, "lat": 42.2616778, "lon": 42.6881467}, {"type": "node", "id": 1164531297, "lat": 42.261659, "lon": 42.688031}, {"type": "node", "id": 1164531493, "lat": 42.2616774, "lon": 42.6866213}, {"type": "node", "id": 1164531575, "lat": 42.2616822, "lon": 42.6880314}, {"type": "node", "id": 1164531778, "lat": 42.2616513, "lon": 42.6864675}, {"type": "node", "id": 1164532011, "lat": 42.2617236, "lon": 42.6866216}, {"type": "node", "id": 1164532067, "lat": 42.2617471, "lon": 42.6879815}, {"type": "node", "id": 1164532080, "lat": 42.2617705, "lon": 42.6864705}, {"type": "node", "id": 1164532235, "lat": 42.2616725, "lon": 42.6864981}, {"type": "node", "id": 1164532694, "lat": 42.2617279, "lon": 42.6880129}, {"type": "node", "id": 1164533025, "lat": 42.261649, "lon": 42.686656}, {"type": "node", "id": 1164533232, "lat": 42.2617541, "lon": 42.6866401}, {"type": "node", "id": 1164533350, "lat": 42.2616979, "lon": 42.686514}, {"type": "node", "id": 1164533778, "lat": 42.2617151, "lon": 42.6881432}, {"type": "node", "id": 1164533840, "lat": 42.2616553, "lon": 42.6881409}, {"type": "node", "id": 1164534045, "lat": 42.2617021, "lon": 42.6880279}, {"type": "node", "id": 10991724690, "lat": 42.2616925, "lon": 42.6836338}, {"type": "node", "id": 10991724691, "lat": 42.2618068, "lon": 42.6836372}, {"type": "node", "id": 10991724696, "lat": 42.261792, "lon": 42.6847936}, {"type": "node", "id": 10991724698, "lat": 42.2616757, "lon": 42.6847895}, {"type": "node", "id": 10991724701, "lat": 42.2617138, "lon": 42.6865165}, {"type": "node", "id": 10991724704, "lat": 42.2616539, "lon": 42.6862856}, {"type": "node", "id": 10991745005, "lat": 42.2617728, "lon": 42.686288}, {"type": "node", "id": 10991745009, "lat": 42.2617524, "lon": 42.6864948}, {"type": "node", "id": 10991745010, "lat": 42.2617491, "lon": 42.6878151}, {"type": "node", "id": 10991745011, "lat": 42.2616318, "lon": 42.6878124}, {"type": "node", "id": 10991745020, "lat": 42.2616098, "lon": 42.6894895}, {"type": "node", "id": 10991745021, "lat": 42.2617206, "lon": 42.6894908}, {"type": "node", "id": 1164528654, "lat": 42.2616012, "lon": 42.6901755}, {"type": "node", "id": 1164528937, "lat": 42.2616344, "lon": 42.6902346}, {"type": "node", "id": 1164529641, "lat": 42.2621529, "lon": 42.6915514}, {"type": "node", "id": 1164529703, "lat": 42.2617102, "lon": 42.6901917}, {"type": "node", "id": 1164530390, "lat": 42.2617036, "lon": 42.690213}, {"type": "node", "id": 1164533443, "lat": 42.2616096, "lon": 42.690203}, {"type": "node", "id": 1164534002, "lat": 42.2617906, "lon": 42.6926377}, {"type": "node", "id": 1164534066, "lat": 42.2616821, "lon": 42.6902376}, {"type": "node", "id": 5854817260, "lat": 42.2629449, "lon": 42.6920342}, {"type": "node", "id": 5854817261, "lat": 42.2626312, "lon": 42.6932359}, {"type": "node", "id": 5854817262, "lat": 42.2618372, "lon": 42.6927651}, {"type": "node", "id": 10969836239, "lat": 42.2637915, "lon": 42.693205}, {"type": "node", "id": 10969836240, "lat": 42.2636252, "lon": 42.6942799}, {"type": "node", "id": 10969836241, "lat": 42.2627474, "lon": 42.6935081}, {"type": "node", "id": 10969836242, "lat": 42.2627335, "lon": 42.6934357}, {"type": "node", "id": 10969836243, "lat": 42.2628585, "lon": 42.6928731}, {"type": "node", "id": 10994303686, "lat": 42.2665122, "lon": 42.6920481}, {"type": "node", "id": 10994303690, "lat": 42.2663664, "lon": 42.6920939}, {"type": "node", "id": 10994303691, "lat": 42.2663441, "lon": 42.6919276}, {"type": "node", "id": 10994303692, "lat": 42.2665396, "lon": 42.6918016}, {"type": "node", "id": 10994303693, "lat": 42.2666076, "lon": 42.6920182}, {"type": "node", "id": 3594157459, "lat": 42.2614039, "lon": 42.6985758}, {"type": "node", "id": 3594157460, "lat": 42.2614048, "lon": 42.6983978}, {"type": "node", "id": 3594157461, "lat": 42.2609162, "lon": 42.6983936}, {"type": "node", "id": 3594157462, "lat": 42.2610947, "lon": 42.6982626}, {"type": "node", "id": 9666111201, "lat": 42.2625954, "lon": 42.6999576}, {"type": "node", "id": 9666111202, "lat": 42.2632571, "lon": 42.7001078}, {"type": "node", "id": 9666111203, "lat": 42.2633848, "lon": 42.6990664}, {"type": "node", "id": 9666111204, "lat": 42.2632115, "lon": 42.6990633}, {"type": "node", "id": 9666111205, "lat": 42.2632206, "lon": 42.698977}, {"type": "node", "id": 9666111206, "lat": 42.2629789, "lon": 42.6989462}, {"type": "node", "id": 9666111207, "lat": 42.2629767, "lon": 42.6988785}, {"type": "node", "id": 10698696592, "lat": 42.2627121, "lon": 42.6988939}, {"type": "node", "id": 10968297787, "lat": 42.2628507, "lon": 42.69914}, {"type": "node", "id": 10968297788, "lat": 42.263063, "lon": 42.6991715}, {"type": "node", "id": 10968297789, "lat": 42.2630756, "lon": 42.6994182}, {"type": "node", "id": 10968297790, "lat": 42.2628471, "lon": 42.6991875}, {"type": "node", "id": 10968297791, "lat": 42.2630595, "lon": 42.6992165}, {"type": "node", "id": 10968297792, "lat": 42.2628155, "lon": 42.6993813}, {"type": "node", "id": 10968297793, "lat": 42.2631812, "lon": 42.6992338}, {"type": "node", "id": 10968297794, "lat": 42.26273, "lon": 42.6991708}, {"type": "node", "id": 10968297795, "lat": 42.2627498, "lon": 42.6989868}, {"type": "node", "id": 10968297796, "lat": 42.2627391, "lon": 42.6991241}, {"type": "node", "id": 10968297797, "lat": 42.2631824, "lon": 42.6991885}, {"type": "node", "id": 10968297798, "lat": 42.2631932, "lon": 42.6990498}, {"type": "node", "id": 10968297799, "lat": 42.2627315, "lon": 42.699171}, {"type": "node", "id": 10968297800, "lat": 42.2626837, "lon": 42.6997655}, {"type": "node", "id": 10968297801, "lat": 42.2627844, "lon": 42.6997798}, {"type": "node", "id": 10968297802, "lat": 42.2631334, "lon": 42.6998486}, {"type": "node", "id": 10968297803, "lat": 42.2630431, "lon": 42.6998358}, {"type": "node", "id": 11029957392, "lat": 42.2609164, "lon": 42.6983514}, {"type": "node", "id": 11029957393, "lat": 42.2610943, "lon": 42.6983529}, {"type": "node", "id": 2145101110, "lat": 42.2716435, "lon": 42.6953417}, {"type": "node", "id": 2145101111, "lat": 42.2718103, "lon": 42.6959338}, {"type": "node", "id": 2145101112, "lat": 42.2706166, "lon": 42.6946418}, {"type": "node", "id": 2145101114, "lat": 42.2695925, "lon": 42.6965831}, {"type": "node", "id": 2145101115, "lat": 42.2715846, "lon": 42.6947062}, {"type": "node", "id": 2145101116, "lat": 42.2717116, "lon": 42.6946414}, {"type": "node", "id": 2145101117, "lat": 42.2716372, "lon": 42.6942439}, {"type": "node", "id": 2145101118, "lat": 42.2714308, "lon": 42.6954287}, {"type": "node", "id": 2145101119, "lat": 42.2717834, "lon": 42.6955011}, {"type": "node", "id": 2145101120, "lat": 42.2719307, "lon": 42.6962225}, {"type": "node", "id": 2145101121, "lat": 42.2702356, "lon": 42.69491}, {"type": "node", "id": 2145101122, "lat": 42.2704261, "lon": 42.6950816}, {"type": "node", "id": 2145101124, "lat": 42.2716517, "lon": 42.6956384}, {"type": "node", "id": 2145101126, "lat": 42.2700002, "lon": 42.6952265}, {"type": "node", "id": 2145101130, "lat": 42.2707675, "lon": 42.6944594}, {"type": "node", "id": 2145101131, "lat": 42.2696429, "lon": 42.6958809}, {"type": "node", "id": 5892751907, "lat": 42.268465, "lon": 42.694871}, {"type": "node", "id": 5892751908, "lat": 42.2685142, "lon": 42.6950365}, {"type": "node", "id": 5892751909, "lat": 42.268451, "lon": 42.6950708}, {"type": "node", "id": 5892751910, "lat": 42.2684018, "lon": 42.6949054}, {"type": "node", "id": 7060374952, "lat": 42.2705094, "lon": 42.6948134}, {"type": "node", "id": 7060374953, "lat": 42.2711714, "lon": 42.6953273}, {"type": "node", "id": 7060374954, "lat": 42.2709018, "lon": 42.6953451}, {"type": "node", "id": 7060374955, "lat": 42.270651, "lon": 42.6954804}, {"type": "node", "id": 7060374956, "lat": 42.2704463, "lon": 42.6957183}, {"type": "node", "id": 7060374957, "lat": 42.2703099, "lon": 42.6960332}, {"type": "node", "id": 7060374958, "lat": 42.2702565, "lon": 42.6963909}, {"type": "node", "id": 7060374963, "lat": 42.2718802, "lon": 42.6966474}, {"type": "node", "id": 7060374964, "lat": 42.2718893, "lon": 42.6962827}, {"type": "node", "id": 13176726687, "lat": 42.2714156, "lon": 42.696651}, {"type": "node", "id": 13176726688, "lat": 42.2713826, "lon": 42.6965056}, {"type": "node", "id": 13176726690, "lat": 42.2713758, "lon": 42.6966481}, {"type": "node", "id": 13176726700, "lat": 42.2714486, "lon": 42.6965948}, {"type": "node", "id": 13176814806, "lat": 42.2714021, "lon": 42.6965044}, {"type": "node", "id": 13176814811, "lat": 42.2714189, "lon": 42.6965138}, {"type": "node", "id": 13176814812, "lat": 42.2713544, "lon": 42.6966042}, {"type": "node", "id": 13176814816, "lat": 42.2713484, "lon": 42.6965328}, {"type": "node", "id": 13176814822, "lat": 42.2714446, "lon": 42.6966165}, {"type": "node", "id": 13176814831, "lat": 42.2713964, "lon": 42.6966562}, {"type": "node", "id": 13176814836, "lat": 42.2713448, "lon": 42.6965603}, {"type": "node", "id": 13176814843, "lat": 42.2714323, "lon": 42.6966372}, {"type": "node", "id": 13176814844, "lat": 42.2714387, "lon": 42.6965546}, {"type": "node", "id": 13176814846, "lat": 42.2713645, "lon": 42.6965159}, {"type": "node", "id": 2145101109, "lat": 42.2711164, "lon": 42.6975353}, {"type": "node", "id": 2145101113, "lat": 42.2704124, "lon": 42.6970792}, {"type": "node", "id": 2145101123, "lat": 42.2708482, "lon": 42.6974929}, {"type": "node", "id": 2145101125, "lat": 42.2702038, "lon": 42.6981174}, {"type": "node", "id": 2145101127, "lat": 42.2719373, "lon": 42.698252}, {"type": "node", "id": 2145101128, "lat": 42.2711672, "lon": 42.6984022}, {"type": "node", "id": 2145101129, "lat": 42.2706047, "lon": 42.6973352}, {"type": "node", "id": 2145101132, "lat": 42.2698334, "lon": 42.6974044}, {"type": "node", "id": 2154396766, "lat": 42.2692667, "lon": 42.7016033}, {"type": "node", "id": 2154396774, "lat": 42.2693293, "lon": 42.7016702}, {"type": "node", "id": 2154396776, "lat": 42.2692022, "lon": 42.7014946}, {"type": "node", "id": 2154396789, "lat": 42.2694831, "lon": 42.7017977}, {"type": "node", "id": 2154396793, "lat": 42.2701317, "lon": 42.7012181}, {"type": "node", "id": 2154396795, "lat": 42.2694126, "lon": 42.7017534}, {"type": "node", "id": 2154396806, "lat": 42.2703374, "lon": 42.7005911}, {"type": "node", "id": 2154396807, "lat": 42.2696509, "lon": 42.7017868}, {"type": "node", "id": 2154396812, "lat": 42.2689561, "lon": 42.7008388}, {"type": "node", "id": 2154396813, "lat": 42.2701203, "lon": 42.7006562}, {"type": "node", "id": 2154396822, "lat": 42.2699887, "lon": 42.7001032}, {"type": "node", "id": 2154396825, "lat": 42.2696558, "lon": 42.7012423}, {"type": "node", "id": 2154396833, "lat": 42.2697649, "lon": 42.7007194}, {"type": "node", "id": 2154396834, "lat": 42.2702726, "lon": 42.6999114}, {"type": "node", "id": 2154396840, "lat": 42.2703385, "lon": 42.699908}, {"type": "node", "id": 3596385993, "lat": 42.2683692, "lon": 42.6977588}, {"type": "node", "id": 3596385994, "lat": 42.2683633, "lon": 42.6979405}, {"type": "node", "id": 3596385995, "lat": 42.2682234, "lon": 42.6979316}, {"type": "node", "id": 3596385996, "lat": 42.2682304, "lon": 42.6977534}, {"type": "node", "id": 5609885221, "lat": 42.2702746, "lon": 42.7000352}, {"type": "node", "id": 7060374959, "lat": 42.2702919, "lon": 42.6967526}, {"type": "node", "id": 7060374960, "lat": 42.2713802, "lon": 42.6974577}, {"type": "node", "id": 7060374961, "lat": 42.2716111, "lon": 42.6972685}, {"type": "node", "id": 7060374962, "lat": 42.271784, "lon": 42.6969883}, {"type": "node", "id": 10968273014, "lat": 42.2691741, "lon": 42.6986251}, {"type": "node", "id": 10968273015, "lat": 42.2691679, "lon": 42.6987677}, {"type": "node", "id": 10968273016, "lat": 42.2690833, "lon": 42.698782}, {"type": "node", "id": 10968273017, "lat": 42.2690704, "lon": 42.6986425}, {"type": "node", "id": 11008695452, "lat": 42.2703375, "lon": 42.7003879}, {"type": "node", "id": 11018618580, "lat": 42.2700567, "lon": 42.7002022}, {"type": "node", "id": 11018618581, "lat": 42.2700191, "lon": 42.7001124}, {"type": "node", "id": 11018618582, "lat": 42.2702369, "lon": 42.6999454}, {"type": "node", "id": 11043854953, "lat": 42.2713422, "lon": 42.700919}, {"type": "node", "id": 11043854954, "lat": 42.2713399, "lon": 42.7008899}, {"type": "node", "id": 11043854955, "lat": 42.2710346, "lon": 42.7009316}, {"type": "node", "id": 11043854956, "lat": 42.271032, "lon": 42.7007098}, {"type": "node", "id": 11043854957, "lat": 42.2709352, "lon": 42.7007133}, {"type": "node", "id": 11043854958, "lat": 42.2708289, "lon": 42.7006352}, {"type": "node", "id": 11043854959, "lat": 42.2707301, "lon": 42.7006319}, {"type": "node", "id": 11043854960, "lat": 42.2707284, "lon": 42.7003227}, {"type": "node", "id": 11043854961, "lat": 42.2707389, "lon": 42.7002585}, {"type": "node", "id": 11043854962, "lat": 42.2707636, "lon": 42.70018}, {"type": "node", "id": 11043854963, "lat": 42.2708005, "lon": 42.7000979}, {"type": "node", "id": 11043854964, "lat": 42.2708419, "lon": 42.7000468}, {"type": "node", "id": 11043854965, "lat": 42.2708991, "lon": 42.7000111}, {"type": "node", "id": 11043854966, "lat": 42.2709563, "lon": 42.6999969}, {"type": "node", "id": 11043854967, "lat": 42.2711393, "lon": 42.6999992}, {"type": "node", "id": 11043854968, "lat": 42.271178, "lon": 42.7000076}, {"type": "node", "id": 11043854969, "lat": 42.2712291, "lon": 42.7000325}, {"type": "node", "id": 11043854970, "lat": 42.2712748, "lon": 42.7000706}, {"type": "node", "id": 11043854971, "lat": 42.2713179, "lon": 42.700136}, {"type": "node", "id": 11043854972, "lat": 42.2714482, "lon": 42.7008855}, {"type": "node", "id": 11053416990, "lat": 42.2693065, "lon": 42.700793}, {"type": "node", "id": 11053416991, "lat": 42.2691001, "lon": 42.7007769}, {"type": "node", "id": 11053479209, "lat": 42.2694544, "lon": 42.7017888}, {"type": "node", "id": 11059404688, "lat": 42.2691775, "lon": 42.6986618}, {"type": "node", "id": 11059404689, "lat": 42.2691584, "lon": 42.698665}, {"type": "node", "id": 11067108390, "lat": 42.2689049, "lon": 42.7008793}, {"type": "node", "id": 11067108391, "lat": 42.2685901, "lon": 42.6998827}]}