{"version": 0.6, "generator": "Overpass API 0.7.62.8 e802775f", "osm3s": {"timestamp_osm_base": "2025-11-23T13:01:15Z", "copyright": "The data included in this document is from www.openstreetmap.org. The data is made available under ODbL."}, "elements": [{"type": "node", "id": 1430129386, "lat": 41.6641489, "lon": 41.6852036, "tags": {"amenity": "cafe", "source": "JumpStart International"}}, {"type": "node", "id": 4315008142, "lat": 41.6510224, "lon": 41.6666616, "tags": {"amenity": "restaurant", "check_date": "2025-01-16", "name": "\u10e0\u10d8\u10d5\u10d8\u10d4\u10e0\u10d0", "name:ka": "\u10e0\u10d8\u10d5\u10d8\u10d4\u10e0\u10d0", "name:ru": "Riviera"}}, {"type": "node", "id": 4421817989, "lat": 41.6764921, "lon": 41.6964693, "tags": {"addr:housenumber": "24", "addr:street": "\u10d7\u10d0\u10db\u10d0\u10e0 \u10db\u10d4\u10e4\u10d8\u10e1 \u10d2\u10d0\u10db\u10d6\u10d8\u10e0\u10d8", "amenity": "restaurant", "check_date": "2025-02-15", "cuisine": "georgian", "internet_access": "wlan", "name": "\u10db\u10d4\u10d2\u10e0\u10e3\u10da-\u10da\u10d0\u10d6\u10e3\u10e0\u10d8", "name:en": "Megrul-Lazuri", "name:ka": "\u10db\u10d4\u10d2\u10e0\u10e3\u10da-\u10da\u10d0\u10d6\u10e3\u10e0\u10d8", "name:ru": "\u041c\u0435\u0433\u0440\u0443\u043b-\u041b\u0430\u0437\u0443\u0440\u0438"}}, {"type": "node", "id": 4954163429, "lat": 41.6747622, "lon": 41.6994931, "tags": {"name:ru": "\u0414\u0430\u0442\u043e", "tourism": "guest_house"}}, {"type": "node", "id": 5743291021, "lat": 41.6774055, "lon": 41.6972461, "tags": {"amenity": "restaurant", "check_date": "2023-03-12", "cuisine": "georgian"}}, {"type": "node", "id": 6709335141, "lat": 41.6654249, "lon": 41.6873002, "tags": {"description": "Homestay-guesthouse, separate single, double and triple bed rooms. useful kitchen with washing-machine, bathrooms and wifi. 22 GEL/room/night (2019)", "name": "Homestay Chkonia", "tourism": "guest_house"}}, {"type": "node", "id": 6760266188, "lat": 41.6512925, "lon": 41.6703578, "tags": {"internet_access": "wlan", "name:en": "Guesthouse \"Abramyan`s\"", "opening_hours": "24/7", "tourism": "apartment"}}, {"type": "node", "id": 10230710484, "lat": 41.6612735, "lon": 41.6787958, "tags": {"amenity": "restaurant", "check_date": "2024-06-08", "cuisine": "seafood", "name": "\u10dd\u10e5\u10e0\u10dd\u10e1 \u10d7\u10d4\u10d5\u10d6\u10d8", "name:en": "Gold Fish", "name:ka": "\u10dd\u10e5\u10e0\u10dd\u10e1 \u10d7\u10d4\u10d5\u10d6\u10d8"}}, {"type": "node", "id": 10230710497, "lat": 41.6639544, "lon": 41.6836385, "tags": {"check_date": "2024-06-08", "name": "\u10d1\u10d4\u10da\u10d0 \u10d9\u10dd\u10e1\u10e2\u10d0", "name:en": "Bella Costa", "name:ka": "\u10d1\u10d4\u10da\u10d0 \u10d9\u10dd\u10e1\u10e2\u10d0", "tourism": "hotel"}}, {"type": "node", "id": 10230735998, "lat": 41.6589623, "lon": 41.6779446, "tags": {"amenity": "cafe", "check_date": "2022-12-01", "cuisine": "coffee_shop"}}, {"type": "node", "id": 10230735999, "lat": 41.6589016, "lon": 41.6778119, "tags": {"check_date": "2022-12-01", "information": "office", "tourism": "information"}}, {"type": "node", "id": 10564992750, "lat": 41.6584202, "lon": 41.6845653, "tags": {"amenity": "cafe", "check_date": "2023-01-18"}}, {"type": "node", "id": 10564992761, "lat": 41.6597833, "lon": 41.6825123, "tags": {"amenity": "cafe", "check_date": "2023-01-18"}}, {"type": "node", "id": 10677748005, "lat": 41.6614879, "lon": 41.678969, "tags": {"amenity": "cafe", "name": "\u10dd\u10e0\u10d7\u10d0\u10d1\u10d0\u10d7\u10e3\u10db\u10d8", "name:en": "Ortabatumi", "name:ka": "\u10dd\u10e0\u10d7\u10d0\u10d1\u10d0\u10d7\u10e3\u10db\u10d8", "name:ru": "\u041e\u0440\u0442\u0430\u0431\u0430\u0442\u0443\u043c\u0438"}}, {"type": "node", "id": 10699168105, "lat": 41.6804378, "lon": 41.6991408, "tags": {"addr:housenumber": "1", "addr:postcode": "6010", "addr:street": "\u10d0\u10ee\u10d0\u10da\u10d2\u10d0\u10d6\u10e0\u10d3\u10dd\u10d1\u10d8\u10e1 \u10e5\u10e3\u10e9\u10d0", "contact:mobile": "+995 579 22 62 20", "email": "kolesnikovandrei8@gmail.com", "internet_access": "wlan", "name:en": "Family Residence Lux", "opening_hours": "24/7", "tourism": "apartment", "website": "https://family-residence-lux.business.site/"}}, {"type": "node", "id": 10729797764, "lat": 41.6812682, "lon": 41.6982403, "tags": {"amenity": "cafe", "check_date": "2023-03-12", "name": "\u10d5\u10d4\u10e0\u10d0\u10dc\u10d3\u10d0", "name:en": "Veranda", "name:ka": "\u10d5\u10d4\u10e0\u10d0\u10dc\u10d3\u10d0"}}, {"type": "node", "id": 11300154530, "lat": 41.663412, "lon": 41.6856255, "tags": {"historic": "wayside_cross", "lit": "yes", "lit:colour": "green", "lit:type": "led", "material": "metal"}}, {"type": "node", "id": 11815481621, "lat": 41.6724833, "lon": 41.6952563, "tags": {"access": "private", "fireplace": "yes", "tourism": "picnic_site"}}, {"type": "node", "id": 12050736805, "lat": 41.661908, "lon": 41.6800627, "tags": {"information": "board", "name": "\u10dc\u10dd\u10d1\u10d4\u10da\u10d4\u10d1\u10d8", "name:en": "Nobels", "name:ka": "\u10dc\u10dd\u10d1\u10d4\u10da\u10d4\u10d1\u10d8", "tourism": "information"}}, {"type": "node", "id": 12050748710, "lat": 41.6758642, "lon": 41.6962915, "tags": {"artwork_type": "bust", "tourism": "artwork"}}, {"type": "node", "id": 12050748711, "lat": 41.6757579, "lon": 41.696449, "tags": {"historic": "memorial", "memorial": "war_memorial"}}, {"type": "node", "id": 12243939301, "lat": 41.6668096, "lon": 41.6874144, "tags": {"name": "Green House", "tourism": "chalet"}}, {"type": "node", "id": 12590271586, "lat": 41.6737396, "lon": 41.6937833, "tags": {"check_date": "2025-02-15", "name": "Crowne Plaza", "tourism": "hotel"}}, {"type": "node", "id": 12590340655, "lat": 41.6773441, "lon": 41.6975307, "tags": {"amenity": "cafe", "check_date": "2025-02-15"}}, {"type": "node", "id": 12873992201, "lat": 41.6710001, "lon": 41.6899828, "tags": {"addr:housenumber": "2", "addr:street": "\u10d7\u10d0\u10db\u10d0\u10e0 \u10db\u10d4\u10e4\u10d4\u10e1 I \u10e8\u10d4\u10e1\u10d0\u10ee\u10d5\u10d4\u10d5\u10d8", "name": "\u10d5\u10d8\u10da\u10d0 \u10e1\u10d8\u10d1\u10d8\u10e0\u10d8\u10d0\u10d9\u10dd\u10d5\u10d0", "tourism": "attraction"}}, {"type": "node", "id": 12992170202, "lat": 41.6729497, "lon": 41.693201, "tags": {"addr:housenumber": "1", "addr:street": "\u10d7\u10d0\u10db\u10d0\u10e0 \u10db\u10d4\u10e4\u10d4\u10e1 III \u10e8\u10d4\u10e1\u10d0\u10ee\u10d5\u10d4\u10d5\u10d8", "contact:mobile": "+995 577 20 26 94", "internet_access": "wlan", "name": "Queen Tamar", "opening_hours": "24/7", "tourism": "hotel"}}, {"type": "node", "id": 13097087180, "lat": 41.6593799, "lon": 41.683301, "tags": {"amenity": "marketplace", "check_date": "2025-08-25"}}, {"type": "way", "id": 120272554, "nodes": [12241432618, 12241432621, 12241432619, 12241432620, 12241432618], "tags": {"leisure": "park"}}, {"type": "way", "id": 120273691, "nodes": [1348989814, 1348989926, 1348989906, 12241402977, 12241402976, 8768932078, 1348989814], "tags": {"leisure": "park"}}, {"type": "way", "id": 131017861, "nodes": [7049549172, 7049549171, 7049549170, 7049549169, 9175126791, 7049549168, 7049549167, 7049549166, 7049549165, 7049549164, 7049549163, 7049549162, 7049584909, 8926529627, 8926529626, 8930967932, 8926529505, 8930967933, 8930967940, 8930967931, 8930967942, 1442671850, 8930967947, 10178934787, 8930967954, 1442671992, 1442672019, 1442672016, 1442672024, 1442672093, 1442671980, 1442671925, 10178934784, 10178934782, 1442672027, 1442672162, 1442672143, 10178934766, 10178934764, 10178934763, 10178934762, 10178934761, 10178934760, 10178934759, 10178934758, 1442672013, 1442672050, 1442672000, 1442671855, 8848155725, 1330798955, 1330797937, 1330798099, 1442672116, 1442672118, 1442672111, 1442672133, 1442671958, 1442671962, 12140742383, 1442672094, 1442671859, 1442671833, 7049549179, 12140742382, 7049549178, 7049549177, 7049549176, 7049549175, 7049549174, 7049549173, 7049549172], "tags": {"natural": "beach", "surface": "pebblestone"}}, {"type": "way", "id": 221197182, "nodes": [2299297459, 2302516951, 10231732433, 10231732434, 2302516948, 10231732432, 10231732431, 10231732430, 10231732429, 10231732435, 10231732436, 2302516954, 2299297459], "tags": {"building": "ruins", "historic": "fort", "historic:civilization": "georgian", "name": "\u10d7\u10d0\u10db\u10d0\u10e0\u10d8\u10e1 \u10ea\u10d8\u10ee\u10d4", "name:en": "Queen Tamara's fortress", "name:ru": "\u041a\u0440\u0435\u043f\u043e\u0441\u0442\u044c \u0426\u0430\u0440\u0438\u0446\u044b \u0422\u0430\u043c\u0430\u0440", "ruins": "yes", "wikidata": "Q12862357", "wikipedia": "tr:Losorion"}}, {"type": "way", "id": 247573555, "nodes": [2544578599, 2544578587, 2544578595, 2544578596, 2544578599], "tags": {"addr:housenumber": "11", "addr:street": "\u10db\u10d4\u10d2\u10dd\u10d1\u10e0\u10dd\u10d1\u10d8\u10e1 \u10e5\u10e3\u10e9\u10d0", "building": "yes", "name": "Wooden Cottage", "tourism": "guest_house"}}, {"type": "way", "id": 247573557, "nodes": [2544578578, 2544578582, 2544578584, 2544578589, 2544578578], "tags": {"addr:housenumber": "11", "addr:street": "\u10db\u10d4\u10d2\u10dd\u10d1\u10e0\u10dd\u10d1\u10d8\u10e1 \u10e5\u10e3\u10e9\u10d0", "building": "yes", "name": "Wooden Cottage", "tourism": "guest_house"}}, {"type": "way", "id": 278000635, "nodes": [2824322107, 2824322108, 10231732759, 10231732758, 10231732757, 2824322109, 10231732756, 10231732755, 10231732754, 2824322110, 2824322111, 2824322112, 10231732765, 10231732760, 10231732761, 10231732764, 10231732763, 10231732762, 10231732766, 10231732767, 10231732768, 10231732769, 2824322107], "tags": {"addr:housenumber": "3", "addr:street": "\u10d9\u10dd\u10dc\u10e1\u10e2\u10d0\u10dc\u10e2\u10d8\u10dc\u10d4 \u10da\u10d4\u10e1\u10d4\u10da\u10d8\u10eb\u10d4\u10e1 \u10e5\u10e3\u10e9\u10d0", "building": "public", "building:levels": "2", "check_date": "2025-06-12", "museum:start_date": "2007", "museum_type": "municipal", "name": "\u10eb\u10db\u10d4\u10d1\u10d8 \u10dc\u10dd\u10d1\u10d4\u10da\u10d4\u10d1\u10d8\u10e1 \u10e1\u10d0\u10ee\u10d4\u10da\u10dd\u10d1\u10d8\u10e1 \u10e2\u10d4\u10e5\u10dc\u10dd\u10da\u10dd\u10d2\u10d8\u10e3\u10e0\u10d8 \u10db\u10e3\u10d6\u10d4\u10e3\u10db\u10d8", "name:en": "Nobel Brothers Batumi Technological Museum", "name:ka": "\u10eb\u10db\u10d4\u10d1\u10d8 \u10dc\u10dd\u10d1\u10d4\u10da\u10d4\u10d1\u10d8\u10e1 \u10e1\u10d0\u10ee\u10d4\u10da\u10dd\u10d1\u10d8\u10e1 \u10e2\u10d4\u10e5\u10dc\u10dd\u10da\u10dd\u10d2\u10d8\u10e3\u10e0\u10d8 \u10db\u10e3\u10d6\u10d4\u10e3\u10db\u10d8", "name:ru": "\u0411\u0430\u0442\u0443\u043c\u0441\u043a\u0438\u0439 \u0442\u0435\u0445\u043d\u043e\u043b\u043e\u0433\u0438\u0447\u0435\u0441\u043a\u0438\u0439 \u043c\u0443\u0437\u0435\u0439 \u0438\u043c\u0435\u043d\u0438 \u0431\u0440\u0430\u0442\u044c\u0435\u0432 \u041d\u043e\u0431\u0435\u043b\u044c", "official_name:ka": "\u10eb\u10db\u10d4\u10d1\u10d8 \u10dc\u10dd\u10d1\u10d4\u10da\u10d4\u10d1\u10d8\u10e1 \u10e1\u10d0\u10ee\u10d4\u10da\u10dd\u10d1\u10d8\u10e1 \u10d1\u10d0\u10d7\u10e3\u10db\u10d8\u10e1 \u10e2\u10d4\u10e5\u10dc\u10dd\u10da\u10dd\u10d2\u10d8\u10e3\u10e0\u10d8 \u10db\u10e3\u10d6\u10d4\u10e3\u10db\u10d8", "opening_hours": "Tu-Su 10:00-18:00", "start_date": "1880", "tourism": "museum", "wikidata": "Q32946669"}}, {"type": "way", "id": 421444028, "nodes": [4212028650, 4212028657, 10231732654, 4212028643, 4212028641, 10231732537, 4212028650], "tags": {"addr:housenumber": "1", "addr:street": "\u10d7\u10d0\u10db\u10d0\u10e0 \u10db\u10d4\u10e4\u10d8\u10e1 \u10d2\u10d0\u10db\u10d6\u10d8\u10e0\u10d8", "addr:street:en": "Queen Tamar Avenue", "building": "hotel", "building:levels": "4", "check_date": "2022-12-01", "name": "Sanapiro", "tourism": "hotel"}}, {"type": "way", "id": 425222412, "nodes": [4245255964, 10012218517, 4245255951, 4245255957, 4245255964], "tags": {"addr:housenumber": "7", "addr:street": "\u10d0\u10db\u10d0\u10e6\u10da\u10d4\u10d1\u10d8\u10e1 \u10e5\u10e3\u10e9\u10d0", "building": "yes", "name:en": "Feride", "tourism": "guest_house", "website": "https://feride.tripcombined.com"}}, {"type": "way", "id": 555976942, "nodes": [5363484631, 5363484632, 5363484633, 5363484634, 5363484631], "tags": {"addr:city": "\u10d1\u10d0\u10d7\u10e3\u10db\u10d8", "addr:housenumber": "14", "addr:postcode": "6010", "addr:street": "\u10d7\u10d0\u10db\u10d0\u10e0 \u10db\u10d4\u10e4\u10d8\u10e1 \u10d2\u10d0\u10db\u10d6\u10d8\u10e0\u10d8\u10e1 II \u10e8\u10d4\u10e1\u10d0\u10ee\u10d5\u10d4\u10d5\u10d8", "building": "house", "building:levels": "3", "height": "10", "name": "SeaGardens family guest house", "tourism": "guest_house"}}, {"type": "way", "id": 947588452, "nodes": [12241432610, 12241432608, 12241432604, 12241432607, 12241432609, 12241432606, 12241432605, 12241432610], "tags": {"leisure": "park"}}, {"type": "way", "id": 947720468, "nodes": [8772245314, 10565869775, 10565869776, 10565869777, 10565869781, 10565869779, 8772245314], "tags": {"leisure": "park"}}, {"type": "way", "id": 947720497, "nodes": [12241432634, 12241432631, 12241432633, 12241432632, 8772251485, 12241432634], "tags": {"leisure": "park"}}, {"type": "way", "id": 947732423, "nodes": [10231732363, 10231732345, 10231732356, 10231732355, 10231732330, 10231732296, 10231732308, 10231732333, 8772346196, 10231732342, 10231732343, 10231732363], "tags": {"leisure": "park"}}, {"type": "way", "id": 947735656, "nodes": [8772338002, 8772338003, 10231732546, 928262996, 10231732670, 10231732160, 10231732304, 10231732684, 10231732682, 10231732685, 5816161045, 5816161046, 5816161047, 8772338002], "tags": {"leisure": "park"}}, {"type": "way", "id": 947735669, "nodes": [8772380852, 10231732672, 10231732673, 10231732674, 8772380853, 10231732544, 8772380861, 8772380852], "tags": {"leisure": "park"}}, {"type": "way", "id": 958484733, "nodes": [8868457103, 8868457104, 12348820774, 12197537786, 11300571541, 8868457105, 8868457106, 8868457103], "tags": {"leisure": "park"}}, {"type": "way", "id": 958484750, "nodes": [8868487725, 8868487724, 8868487723, 8868487722, 8868487721, 8868487720, 8868487806, 8868487807, 8930380352, 8868487808, 8868487809, 8868487810, 8868487811, 8868487812, 7049584891, 7049584890, 7049584889, 7049584888, 7049584887, 7049584886, 7049584885, 27856367, 27868191, 8868487805, 8868487725], "tags": {"natural": "beach", "surface": "pebblestone"}}, {"type": "way", "id": 964941898, "nodes": [1330798777, 8926529128, 8926529126, 1330798907, 8926529533, 1330799115, 8926529131, 8926529129, 1330799404, 1330797938, 1330799365, 8926529127, 1330798656, 1330798777], "tags": {"leisure": "park"}}, {"type": "way", "id": 964941921, "nodes": [8926529123, 8926529483, 8926529243, 8926529244, 8926529238, 8926529321, 8926529257, 9175126793, 8926529250, 8926529239, 1330799712, 8926529122, 8926529123], "tags": {"leisure": "park"}}, {"type": "way", "id": 964941925, "nodes": [8926529256, 8926529257, 9175126793, 8926529250, 8926529239, 8926529255, 8926529256], "tags": {"leisure": "park"}}, {"type": "way", "id": 964941976, "nodes": [7049584903, 8926529634, 8926529605, 8926529606, 8926529607, 8926529608, 8926529609, 8926529610, 8926529611, 8926529612, 8926529613, 8926529614, 8926529615, 8926529616, 8926529617, 8926529618, 8926529619, 8926529620, 8926529621, 8926529622, 8926529488, 8926529489, 8926529490, 8926529491, 8926529492, 8926529493, 8926529494, 8926529495, 8926529496, 8926529623, 8926529673, 8926529624, 8926529625, 8926529498, 8926529499, 8926529500, 8926529502, 8926529503, 8926529504, 8926529505, 8930967932, 8926529626, 8926529627, 7049584908, 7049584907, 8926529121, 7049584906, 7049584905, 7049584904, 7049584903], "tags": {"name": "Makhinjauri Beach", "natural": "beach", "surface": "pebblestone"}}, {"type": "way", "id": 964941986, "nodes": [8926529664, 8926529532, 8926529533, 1330799115, 4245255800, 8926554874, 8926554869, 1330798554, 8926554873, 1330799463, 8926529663, 8926529661, 8926529662, 8926529672, 8926529666, 8926529665, 8926529664], "tags": {"leisure": "park"}}, {"type": "way", "id": 1118739093, "nodes": [27830912, 5816133702, 27875696, 5816133703, 5816133704, 10231732676, 10231732677, 8772338002, 8772338003, 10231732655, 10231732656, 10231732657, 10231732658, 10231732538, 8772380852, 27830912], "tags": {"natural": "beach", "surface": "pebblestone"}}, {"type": "way", "id": 1118739133, "nodes": [10231732399, 10231732398, 10231732397, 10231732396, 10231732395, 10231732394, 10231732393, 10231732392, 10231732391, 10231732390, 10231732389, 10231732388, 10231732387, 10231732386, 10231732385, 10231732384, 10231732399], "tags": {"building": "church", "check_date": "2024-06-08", "name": "\u10d3\u10d0\u10d7\u10dd \u10d9\u10dd\u10db\u10d0\u10ee\u10d8\u10eb\u10d8\u10e1 \u10e1\u10d0\u10ee\u10d4\u10da\u10dd\u10d1\u10d8\u10e1 \u10e0\u10d4\u10da\u10d8\u10d2\u10d8\u10d8\u10e1 \u10db\u10e3\u10d6\u10d4\u10e3\u10db\u10d8", "name:en": "Museum of Religion named after Dato Komakhidze", "name:ka": "\u10d3\u10d0\u10d7\u10dd \u10d9\u10dd\u10db\u10d0\u10ee\u10d8\u10eb\u10d8\u10e1 \u10e1\u10d0\u10ee\u10d4\u10da\u10dd\u10d1\u10d8\u10e1 \u10e0\u10d4\u10da\u10d8\u10d2\u10d8\u10d8\u10e1 \u10db\u10e3\u10d6\u10d4\u10e3\u10db\u10d8", "name:ru": "\u041c\u0443\u0437\u0435\u0439 \u0440\u0435\u043b\u0438\u0433\u0438\u0438 \u0438\u043c\u0435\u043d\u0438 \u0414\u0430\u0442\u043e \u041a\u043e\u043c\u0430\u0445\u0438\u0434\u0437\u0435", "tourism": "museum"}}, {"type": "way", "id": 1382943371, "nodes": [12241432703, 12803797853, 12803797854, 12803797855, 12241432704, 12803797848, 8772251530, 12803797857, 12241432703], "tags": {"leisure": "park"}}, {"type": "node", "id": 27830912, "lat": 41.6621948, "lon": 41.6787596}, {"type": "node", "id": 27875696, "lat": 41.66284, "lon": 41.6789408}, {"type": "node", "id": 928262996, "lat": 41.6624227, "lon": 41.6802947}, {"type": "node", "id": 2824322107, "lat": 41.6618189, "lon": 41.6804845}, {"type": "node", "id": 2824322108, "lat": 41.6617348, "lon": 41.6806034}, {"type": "node", "id": 2824322109, "lat": 41.661717, "lon": 41.680646}, {"type": "node", "id": 2824322110, "lat": 41.6616976, "lon": 41.6806041}, {"type": "node", "id": 2824322111, "lat": 41.6616131, "lon": 41.6805034}, {"type": "node", "id": 2824322112, "lat": 41.6617001, "lon": 41.6803711}, {"type": "node", "id": 4212028641, "lat": 41.6619245, "lon": 41.6795737}, {"type": "node", "id": 4212028643, "lat": 41.6620365, "lon": 41.6797045}, {"type": "node", "id": 4212028650, "lat": 41.6621481, "lon": 41.6792535}, {"type": "node", "id": 4212028657, "lat": 41.6622554, "lon": 41.679387}, {"type": "node", "id": 5816133702, "lat": 41.6626563, "lon": 41.6788927}, {"type": "node", "id": 5816133703, "lat": 41.6629644, "lon": 41.6789329}, {"type": "node", "id": 5816133704, "lat": 41.6630983, "lon": 41.6788565}, {"type": "node", "id": 5816161045, "lat": 41.6635241, "lon": 41.6808189}, {"type": "node", "id": 5816161046, "lat": 41.6630644, "lon": 41.6803792}, {"type": "node", "id": 5816161047, "lat": 41.6632164, "lon": 41.6801394}, {"type": "node", "id": 8772338002, "lat": 41.662818, "lon": 41.6798502}, {"type": "node", "id": 8772338003, "lat": 41.6627538, "lon": 41.6797969}, {"type": "node", "id": 8772380852, "lat": 41.6620285, "lon": 41.6792164}, {"type": "node", "id": 8772380853, "lat": 41.6617918, "lon": 41.6795801}, {"type": "node", "id": 8772380861, "lat": 41.6618871, "lon": 41.6794126}, {"type": "node", "id": 10231732537, "lat": 41.6621228, "lon": 41.6792897}, {"type": "node", "id": 10231732538, "lat": 41.6620341, "lon": 41.6792207}, {"type": "node", "id": 10231732544, "lat": 41.6618184, "lon": 41.6795335}, {"type": "node", "id": 10231732546, "lat": 41.6624392, "lon": 41.6802698}, {"type": "node", "id": 10231732654, "lat": 41.6621157, "lon": 41.6795842}, {"type": "node", "id": 10231732655, "lat": 41.6622835, "lon": 41.6794038}, {"type": "node", "id": 10231732656, "lat": 41.6622985, "lon": 41.6793823}, {"type": "node", "id": 10231732657, "lat": 41.6621442, "lon": 41.6792348}, {"type": "node", "id": 10231732658, "lat": 41.6621081, "lon": 41.6792764}, {"type": "node", "id": 10231732670, "lat": 41.6624035, "lon": 41.6803249}, {"type": "node", "id": 10231732672, "lat": 41.6616108, "lon": 41.6789071}, {"type": "node", "id": 10231732673, "lat": 41.661539, "lon": 41.6790223}, {"type": "node", "id": 10231732674, "lat": 41.6614506, "lon": 41.6791636}, {"type": "node", "id": 10231732676, "lat": 41.662902, "lon": 41.6794723}, {"type": "node", "id": 10231732677, "lat": 41.6628786, "lon": 41.6795406}, {"type": "node", "id": 10231732685, "lat": 41.6635378, "lon": 41.6807965}, {"type": "node", "id": 10231732754, "lat": 41.6616953, "lon": 41.6806195}, {"type": "node", "id": 10231732755, "lat": 41.6617001, "lon": 41.6806349}, {"type": "node", "id": 10231732756, "lat": 41.6617074, "lon": 41.6806433}, {"type": "node", "id": 10231732757, "lat": 41.6617277, "lon": 41.6806399}, {"type": "node", "id": 10231732758, "lat": 41.6617342, "lon": 41.6806316}, {"type": "node", "id": 10231732759, "lat": 41.6617379, "lon": 41.6806178}, {"type": "node", "id": 10231732760, "lat": 41.6616936, "lon": 41.6803419}, {"type": "node", "id": 10231732761, "lat": 41.6617001, "lon": 41.6803248}, {"type": "node", "id": 10231732762, "lat": 41.6617362, "lon": 41.6803342}, {"type": "node", "id": 10231732763, "lat": 41.6617267, "lon": 41.6803208}, {"type": "node", "id": 10231732764, "lat": 41.6617119, "lon": 41.6803181}, {"type": "node", "id": 10231732765, "lat": 41.6616958, "lon": 41.6803586}, {"type": "node", "id": 10231732766, "lat": 41.6617374, "lon": 41.6803566}, {"type": "node", "id": 10231732767, "lat": 41.6617474, "lon": 41.6803426}, {"type": "node", "id": 10231732768, "lat": 41.6618126, "lon": 41.6804197}, {"type": "node", "id": 10231732769, "lat": 41.661792, "lon": 41.6804472}, {"type": "node", "id": 1348989814, "lat": 41.6577427, "lon": 41.6839367}, {"type": "node", "id": 1348989906, "lat": 41.6576581, "lon": 41.6848711}, {"type": "node", "id": 8768932078, "lat": 41.6575553, "lon": 41.6841942}, {"type": "node", "id": 8772251485, "lat": 41.6579037, "lon": 41.6857367}, {"type": "node", "id": 12241402976, "lat": 41.6572677, "lon": 41.6838817}, {"type": "node", "id": 12241402977, "lat": 41.6571038, "lon": 41.6841524}, {"type": "node", "id": 12241432631, "lat": 41.6576294, "lon": 41.6858974}, {"type": "node", "id": 12241432632, "lat": 41.6577346, "lon": 41.6855326}, {"type": "node", "id": 12241432633, "lat": 41.6577046, "lon": 41.6857231}, {"type": "node", "id": 12241432634, "lat": 41.6577146, "lon": 41.6860114}, {"type": "node", "id": 1348989926, "lat": 41.6580628, "lon": 41.6843496}, {"type": "node", "id": 2299297459, "lat": 41.6636698, "lon": 41.6827086}, {"type": "node", "id": 2302516948, "lat": 41.6635112, "lon": 41.6830812}, {"type": "node", "id": 2302516951, "lat": 41.6634919, "lon": 41.6827919}, {"type": "node", "id": 2302516954, "lat": 41.6637152, "lon": 41.6829282}, {"type": "node", "id": 8772245314, "lat": 41.6607278, "lon": 41.6818196}, {"type": "node", "id": 8772251530, "lat": 41.6617353, "lon": 41.6824743}, {"type": "node", "id": 8772346196, "lat": 41.6636639, "lon": 41.6835013}, {"type": "node", "id": 10231732160, "lat": 41.6629832, "lon": 41.681024}, {"type": "node", "id": 10231732296, "lat": 41.6641064, "lon": 41.6831046}, {"type": "node", "id": 10231732304, "lat": 41.6634929, "lon": 41.6816386}, {"type": "node", "id": 10231732308, "lat": 41.6640142, "lon": 41.6832675}, {"type": "node", "id": 10231732330, "lat": 41.6641888, "lon": 41.6829171}, {"type": "node", "id": 10231732333, "lat": 41.6638562, "lon": 41.6833943}, {"type": "node", "id": 10231732342, "lat": 41.6635909, "lon": 41.6835141}, {"type": "node", "id": 10231732343, "lat": 41.6635324, "lon": 41.6834716}, {"type": "node", "id": 10231732345, "lat": 41.6631286, "lon": 41.6827295}, {"type": "node", "id": 10231732355, "lat": 41.6636414, "lon": 41.6821382}, {"type": "node", "id": 10231732356, "lat": 41.6632286, "lon": 41.6823674}, {"type": "node", "id": 10231732363, "lat": 41.6630826, "lon": 41.6831458}, {"type": "node", "id": 10231732384, "lat": 41.6634039, "lon": 41.6820874}, {"type": "node", "id": 10231732385, "lat": 41.663389, "lon": 41.6821027}, {"type": "node", "id": 10231732386, "lat": 41.6633952, "lon": 41.6821136}, {"type": "node", "id": 10231732387, "lat": 41.6633519, "lon": 41.6821578}, {"type": "node", "id": 10231732388, "lat": 41.6633682, "lon": 41.6821864}, {"type": "node", "id": 10231732389, "lat": 41.6633187, "lon": 41.682237}, {"type": "node", "id": 10231732390, "lat": 41.6633037, "lon": 41.6822109}, {"type": "node", "id": 10231732391, "lat": 41.6632428, "lon": 41.6822732}, {"type": "node", "id": 10231732392, "lat": 41.6632034, "lon": 41.682204}, {"type": "node", "id": 10231732393, "lat": 41.6632636, "lon": 41.6821424}, {"type": "node", "id": 10231732394, "lat": 41.6632468, "lon": 41.6821132}, {"type": "node", "id": 10231732395, "lat": 41.6632989, "lon": 41.6820599}, {"type": "node", "id": 10231732396, "lat": 41.663315, "lon": 41.682088}, {"type": "node", "id": 10231732397, "lat": 41.6633562, "lon": 41.6820459}, {"type": "node", "id": 10231732398, "lat": 41.6633633, "lon": 41.6820584}, {"type": "node", "id": 10231732399, "lat": 41.6633785, "lon": 41.6820429}, {"type": "node", "id": 10231732429, "lat": 41.6635919, "lon": 41.6830214}, {"type": "node", "id": 10231732430, "lat": 41.6635889, "lon": 41.6830415}, {"type": "node", "id": 10231732431, "lat": 41.6635599, "lon": 41.6830489}, {"type": "node", "id": 10231732432, "lat": 41.6635408, "lon": 41.683073}, {"type": "node", "id": 10231732433, "lat": 41.6635378, "lon": 41.6829785}, {"type": "node", "id": 10231732434, "lat": 41.6634887, "lon": 41.6829959}, {"type": "node", "id": 10231732435, "lat": 41.6637047, "lon": 41.6829704}, {"type": "node", "id": 10231732436, "lat": 41.6636991, "lon": 41.6829369}, {"type": "node", "id": 10231732682, "lat": 41.6637202, "lon": 41.6809179}, {"type": "node", "id": 10231732684, "lat": 41.6638304, "lon": 41.6810065}, {"type": "node", "id": 10565869775, "lat": 41.660493, "lon": 41.6821253}, {"type": "node", "id": 10565869776, "lat": 41.6604391, "lon": 41.6820021}, {"type": "node", "id": 10565869777, "lat": 41.6604206, "lon": 41.6818806}, {"type": "node", "id": 10565869779, "lat": 41.6605349, "lon": 41.6817143}, {"type": "node", "id": 10565869781, "lat": 41.6604398, "lon": 41.6818179}, {"type": "node", "id": 12241432604, "lat": 41.6604219, "lon": 41.6842177}, {"type": "node", "id": 12241432605, "lat": 41.6607412, "lon": 41.6834841}, {"type": "node", "id": 12241432606, "lat": 41.6607871, "lon": 41.683983}, {"type": "node", "id": 12241432607, "lat": 41.6606989, "lon": 41.684563}, {"type": "node", "id": 12241432608, "lat": 41.6603412, "lon": 41.6843189}, {"type": "node", "id": 12241432609, "lat": 41.660745, "lon": 41.6843659}, {"type": "node", "id": 12241432610, "lat": 41.6602512, "lon": 41.6841935}, {"type": "node", "id": 12241432618, "lat": 41.6601545, "lon": 41.6846325}, {"type": "node", "id": 12241432619, "lat": 41.6593283, "lon": 41.6854985}, {"type": "node", "id": 12241432620, "lat": 41.6600567, "lon": 41.6845069}, {"type": "node", "id": 12241432621, "lat": 41.6594426, "lon": 41.6856513}, {"type": "node", "id": 12241432703, "lat": 41.6626251, "lon": 41.6836927}, {"type": "node", "id": 12241432704, "lat": 41.6618126, "lon": 41.6827632}, {"type": "node", "id": 12803797848, "lat": 41.6616633, "lon": 41.6825916}, {"type": "node", "id": 12803797853, "lat": 41.6625299, "lon": 41.6836832}, {"type": "node", "id": 12803797854, "lat": 41.6624618, "lon": 41.6835988}, {"type": "node", "id": 12803797855, "lat": 41.6624838, "lon": 41.6835625}, {"type": "node", "id": 12803797857, "lat": 41.662885, "lon": 41.6832988}, {"type": "node", "id": 27856367, "lat": 41.6679986, "lon": 41.6858562}, {"type": "node", "id": 27868191, "lat": 41.6677394, "lon": 41.6854475}, {"type": "node", "id": 7049584885, "lat": 41.6685895, "lon": 41.6863972}, {"type": "node", "id": 7049584886, "lat": 41.6689046, "lon": 41.6867037}, {"type": "node", "id": 7049584887, "lat": 41.6690288, "lon": 41.6868861}, {"type": "node", "id": 7049584888, "lat": 41.6692973, "lon": 41.6871168}, {"type": "node", "id": 8868457103, "lat": 41.6664376, "lon": 41.6848626}, {"type": "node", "id": 8868457104, "lat": 41.6660225, "lon": 41.6845916}, {"type": "node", "id": 8868457105, "lat": 41.6666623, "lon": 41.6851921}, {"type": "node", "id": 8868457106, "lat": 41.6663887, "lon": 41.6849925}, {"type": "node", "id": 8868487720, "lat": 41.6681899, "lon": 41.68641}, {"type": "node", "id": 8868487721, "lat": 41.6679837, "lon": 41.6861127}, {"type": "node", "id": 8868487722, "lat": 41.6678039, "lon": 41.6857552}, {"type": "node", "id": 8868487723, "lat": 41.6676267, "lon": 41.6853694}, {"type": "node", "id": 8868487724, "lat": 41.6675168, "lon": 41.685095}, {"type": "node", "id": 8868487725, "lat": 41.6674851, "lon": 41.6849959}, {"type": "node", "id": 8868487805, "lat": 41.6675809, "lon": 41.684949}, {"type": "node", "id": 8868487806, "lat": 41.6684476, "lon": 41.6867098}, {"type": "node", "id": 8868487807, "lat": 41.6687975, "lon": 41.6870179}, {"type": "node", "id": 11300571541, "lat": 41.6665836, "lon": 41.685379}, {"type": "node", "id": 12197537786, "lat": 41.6659306, "lon": 41.6848274}, {"type": "node", "id": 12348820774, "lat": 41.6659889, "lon": 41.6846777}, {"type": "node", "id": 7049584889, "lat": 41.6698222, "lon": 41.6875674}, {"type": "node", "id": 7049584890, "lat": 41.6701348, "lon": 41.6878463}, {"type": "node", "id": 7049584891, "lat": 41.6706557, "lon": 41.6882862}, {"type": "node", "id": 8868487808, "lat": 41.6695708, "lon": 41.6876095}, {"type": "node", "id": 8868487809, "lat": 41.6698239, "lon": 41.6878005}, {"type": "node", "id": 8868487810, "lat": 41.6701001, "lon": 41.6880285}, {"type": "node", "id": 8868487811, "lat": 41.670275, "lon": 41.6881086}, {"type": "node", "id": 8868487812, "lat": 41.6704591, "lon": 41.6882442}, {"type": "node", "id": 8930380352, "lat": 41.6694244, "lon": 41.6874975}, {"type": "node", "id": 5363484631, "lat": 41.6721525, "lon": 41.6935324}, {"type": "node", "id": 5363484632, "lat": 41.6720666, "lon": 41.6936133}, {"type": "node", "id": 5363484633, "lat": 41.671985, "lon": 41.6934582}, {"type": "node", "id": 5363484634, "lat": 41.6720709, "lon": 41.6933773}, {"type": "node", "id": 7049584903, "lat": 41.6735248, "lon": 41.6920199}, {"type": "node", "id": 7049584904, "lat": 41.6745746, "lon": 41.6929157}, {"type": "node", "id": 7049584905, "lat": 41.6757606, "lon": 41.6938706}, {"type": "node", "id": 8926529605, "lat": 41.6737012, "lon": 41.6925798}, {"type": "node", "id": 8926529606, "lat": 41.6737738, "lon": 41.6926054}, {"type": "node", "id": 8926529607, "lat": 41.674286, "lon": 41.693113}, {"type": "node", "id": 8926529608, "lat": 41.6744134, "lon": 41.6932248}, {"type": "node", "id": 8926529609, "lat": 41.6747557, "lon": 41.6936361}, {"type": "node", "id": 8926529610, "lat": 41.6751155, "lon": 41.6939768}, {"type": "node", "id": 8926529634, "lat": 41.673404, "lon": 41.6922554}, {"type": "node", "id": 1330797938, "lat": 41.6775731, "lon": 41.6974304}, {"type": "node", "id": 1330798656, "lat": 41.6774549, "lon": 41.6974116}, {"type": "node", "id": 1330798777, "lat": 41.6773883, "lon": 41.6973882}, {"type": "node", "id": 1330798907, "lat": 41.6775561, "lon": 41.6971643}, {"type": "node", "id": 1330799365, "lat": 41.6775181, "lon": 41.6974276}, {"type": "node", "id": 1330799404, "lat": 41.6776269, "lon": 41.6974233}, {"type": "node", "id": 1330799712, "lat": 41.6761559, "lon": 41.6957297}, {"type": "node", "id": 7049584906, "lat": 41.6773152, "lon": 41.6950239}, {"type": "node", "id": 8926529122, "lat": 41.6764828, "lon": 41.6960454}, {"type": "node", "id": 8926529123, "lat": 41.6760152, "lon": 41.6967454}, {"type": "node", "id": 8926529126, "lat": 41.6774828, "lon": 41.6971003}, {"type": "node", "id": 8926529127, "lat": 41.6774842, "lon": 41.6974178}, {"type": "node", "id": 8926529128, "lat": 41.6774422, "lon": 41.6971905}, {"type": "node", "id": 8926529238, "lat": 41.6755686, "lon": 41.6960656}, {"type": "node", "id": 8926529239, "lat": 41.675895, "lon": 41.6954447}, {"type": "node", "id": 8926529243, "lat": 41.6756194, "lon": 41.6964354}, {"type": "node", "id": 8926529244, "lat": 41.6755087, "lon": 41.6960959}, {"type": "node", "id": 8926529250, "lat": 41.6757777, "lon": 41.6956688}, {"type": "node", "id": 8926529255, "lat": 41.6754225, "lon": 41.6949027}, {"type": "node", "id": 8926529256, "lat": 41.6751829, "lon": 41.6953308}, {"type": "node", "id": 8926529257, "lat": 41.6757156, "lon": 41.6957866}, {"type": "node", "id": 8926529321, "lat": 41.6756541, "lon": 41.6959034}, {"type": "node", "id": 8926529483, "lat": 41.6758366, "lon": 41.6966055}, {"type": "node", "id": 8926529488, "lat": 41.6774434, "lon": 41.6955013}, {"type": "node", "id": 8926529533, "lat": 41.677604, "lon": 41.697224}, {"type": "node", "id": 8926529611, "lat": 41.6754402, "lon": 41.6942236}, {"type": "node", "id": 8926529612, "lat": 41.6756509, "lon": 41.6943587}, {"type": "node", "id": 8926529613, "lat": 41.6758396, "lon": 41.6944821}, {"type": "node", "id": 8926529614, "lat": 41.6760897, "lon": 41.6946819}, {"type": "node", "id": 8926529615, "lat": 41.6762257, "lon": 41.6948464}, {"type": "node", "id": 8926529616, "lat": 41.6762915, "lon": 41.6946642}, {"type": "node", "id": 8926529617, "lat": 41.676625, "lon": 41.6948875}, {"type": "node", "id": 8926529618, "lat": 41.6765987, "lon": 41.695005}, {"type": "node", "id": 8926529619, "lat": 41.6768576, "lon": 41.6951107}, {"type": "node", "id": 8926529620, "lat": 41.67702, "lon": 41.6951989}, {"type": "node", "id": 8926529621, "lat": 41.6771736, "lon": 41.6952987}, {"type": "node", "id": 8926529622, "lat": 41.6772745, "lon": 41.6953869}, {"type": "node", "id": 9175126793, "lat": 41.6757312, "lon": 41.695757}, {"type": "node", "id": 1330798554, "lat": 41.6781957, "lon": 41.6975556}, {"type": "node", "id": 1330799115, "lat": 41.6777137, "lon": 41.6973141}, {"type": "node", "id": 1330799463, "lat": 41.6785482, "lon": 41.6976407}, {"type": "node", "id": 1442671850, "lat": 41.6820183, "lon": 41.6984673}, {"type": "node", "id": 1442671992, "lat": 41.6840618, "lon": 41.7000011}, {"type": "node", "id": 2544578578, "lat": 41.6787785, "lon": 41.6989171}, {"type": "node", "id": 2544578582, "lat": 41.6787152, "lon": 41.6989202}, {"type": "node", "id": 2544578584, "lat": 41.6787185, "lon": 41.6990437}, {"type": "node", "id": 2544578587, "lat": 41.6788761, "lon": 41.6987736}, {"type": "node", "id": 2544578589, "lat": 41.6787818, "lon": 41.6990407}, {"type": "node", "id": 2544578595, "lat": 41.678872, "lon": 41.6989195}, {"type": "node", "id": 2544578596, "lat": 41.6789343, "lon": 41.6989227}, {"type": "node", "id": 2544578599, "lat": 41.6789384, "lon": 41.6987768}, {"type": "node", "id": 4245255800, "lat": 41.6778628, "lon": 41.6974061}, {"type": "node", "id": 4245255951, "lat": 41.6825685, "lon": 41.7000153}, {"type": "node", "id": 4245255957, "lat": 41.6826471, "lon": 41.6998258}, {"type": "node", "id": 4245255964, "lat": 41.6827501, "lon": 41.6999024}, {"type": "node", "id": 7049549162, "lat": 41.6820929, "lon": 41.6982126}, {"type": "node", "id": 7049549163, "lat": 41.6833811, "lon": 41.6990331}, {"type": "node", "id": 7049549164, "lat": 41.6840255, "lon": 41.6994463}, {"type": "node", "id": 7049584907, "lat": 41.6785813, "lon": 41.6959144}, {"type": "node", "id": 7049584908, "lat": 41.6801719, "lon": 41.6970356}, {"type": "node", "id": 7049584909, "lat": 41.6810827, "lon": 41.6975996}, {"type": "node", "id": 8926529121, "lat": 41.6782481, "lon": 41.69568}, {"type": "node", "id": 8926529129, "lat": 41.6776699, "lon": 41.6974064}, {"type": "node", "id": 8926529131, "lat": 41.677689, "lon": 41.6973809}, {"type": "node", "id": 8926529489, "lat": 41.6776772, "lon": 41.6956679}, {"type": "node", "id": 8926529490, "lat": 41.6778351, "lon": 41.6957858}, {"type": "node", "id": 8926529491, "lat": 41.6779232, "lon": 41.6958265}, {"type": "node", "id": 8926529492, "lat": 41.6780234, "lon": 41.6959119}, {"type": "node", "id": 8926529493, "lat": 41.6781297, "lon": 41.6960298}, {"type": "node", "id": 8926529494, "lat": 41.6782481, "lon": 41.6961761}, {"type": "node", "id": 8926529495, "lat": 41.6783301, "lon": 41.6962371}, {"type": "node", "id": 8926529496, "lat": 41.6785294, "lon": 41.6964474}, {"type": "node", "id": 8926529498, "lat": 41.6788084, "lon": 41.6965828}, {"type": "node", "id": 8926529499, "lat": 41.6789758, "lon": 41.696751}, {"type": "node", "id": 8926529500, "lat": 41.6793177, "lon": 41.6968771}, {"type": "node", "id": 8926529502, "lat": 41.679649, "lon": 41.6970592}, {"type": "node", "id": 8926529503, "lat": 41.6798653, "lon": 41.6972507}, {"type": "node", "id": 8926529504, "lat": 41.6799943, "lon": 41.6973347}, {"type": "node", "id": 8926529505, "lat": 41.6801754, "lon": 41.6974561}, {"type": "node", "id": 8926529532, "lat": 41.677702, "lon": 41.6969534}, {"type": "node", "id": 8926529623, "lat": 41.6786091, "lon": 41.6964931}, {"type": "node", "id": 8926529624, "lat": 41.6787253, "lon": 41.6963822}, {"type": "node", "id": 8926529625, "lat": 41.6787902, "lon": 41.6964468}, {"type": "node", "id": 8926529626, "lat": 41.6805726, "lon": 41.6974709}, {"type": "node", "id": 8926529627, "lat": 41.6806492, "lon": 41.6973365}, {"type": "node", "id": 8926529661, "lat": 41.6786545, "lon": 41.6975101}, {"type": "node", "id": 8926529662, "lat": 41.6787152, "lon": 41.6972482}, {"type": "node", "id": 8926529663, "lat": 41.6786212, "lon": 41.6976602}, {"type": "node", "id": 8926529664, "lat": 41.6777795, "lon": 41.6967619}, {"type": "node", "id": 8926529665, "lat": 41.6781779, "lon": 41.6969769}, {"type": "node", "id": 8926529666, "lat": 41.6783983, "lon": 41.6970797}, {"type": "node", "id": 8926529672, "lat": 41.6787168, "lon": 41.6972266}, {"type": "node", "id": 8926529673, "lat": 41.6786564, "lon": 41.696421}, {"type": "node", "id": 8926554869, "lat": 41.6781265, "lon": 41.6975246}, {"type": "node", "id": 8926554873, "lat": 41.6785108, "lon": 41.6976317}, {"type": "node", "id": 8926554874, "lat": 41.678024, "lon": 41.6974786}, {"type": "node", "id": 8930967931, "lat": 41.6809996, "lon": 41.6978635}, {"type": "node", "id": 8930967932, "lat": 41.6802905, "lon": 41.6974035}, {"type": "node", "id": 8930967933, "lat": 41.6803684, "lon": 41.6975753}, {"type": "node", "id": 8930967940, "lat": 41.6806728, "lon": 41.6977143}, {"type": "node", "id": 8930967942, "lat": 41.6817351, "lon": 41.6982995}, {"type": "node", "id": 8930967947, "lat": 41.6825446, "lon": 41.6988176}, {"type": "node", "id": 8930967954, "lat": 41.6840022, "lon": 41.699788}, {"type": "node", "id": 10012218517, "lat": 41.6826714, "lon": 41.7000918}, {"type": "node", "id": 10178934787, "lat": 41.6834889, "lon": 41.699443}, {"type": "node", "id": 1442672016, "lat": 41.6843342, "lon": 41.7003317}, {"type": "node", "id": 1442672019, "lat": 41.6841862, "lon": 41.7002044}, {"type": "node", "id": 1442672024, "lat": 41.684443, "lon": 41.7003196}, {"type": "node", "id": 1442672093, "lat": 41.6845557, "lon": 41.7003536}, {"type": "node", "id": 7049549165, "lat": 41.6855929, "lon": 41.7004672}, {"type": "node", "id": 1442671925, "lat": 41.6856809, "lon": 41.7010678}, {"type": "node", "id": 1442671980, "lat": 41.6848025, "lon": 41.7006436}, {"type": "node", "id": 1442672000, "lat": 41.6902852, "lon": 41.704216}, {"type": "node", "id": 1442672013, "lat": 41.6893694, "lon": 41.7033529}, {"type": "node", "id": 1442672027, "lat": 41.6865132, "lon": 41.7015241}, {"type": "node", "id": 1442672050, "lat": 41.690314, "lon": 41.7041445}, {"type": "node", "id": 1442672143, "lat": 41.6867378, "lon": 41.7016643}, {"type": "node", "id": 1442672162, "lat": 41.6866859, "lon": 41.7016434}, {"type": "node", "id": 7049549166, "lat": 41.6862542, "lon": 41.7008651}, {"type": "node", "id": 7049549167, "lat": 41.686571, "lon": 41.701046}, {"type": "node", "id": 7049549168, "lat": 41.6867985, "lon": 41.7012109}, {"type": "node", "id": 7049549169, "lat": 41.6870539, "lon": 41.7014717}, {"type": "node", "id": 7049549170, "lat": 41.6875017, "lon": 41.7016643}, {"type": "node", "id": 7049549171, "lat": 41.6880095, "lon": 41.7020452}, {"type": "node", "id": 7049549172, "lat": 41.6882695, "lon": 41.7022429}, {"type": "node", "id": 7049549173, "lat": 41.6886268, "lon": 41.7025279}, {"type": "node", "id": 7049549174, "lat": 41.6892567, "lon": 41.7030329}, {"type": "node", "id": 7049549175, "lat": 41.6901134, "lon": 41.7036338}, {"type": "node", "id": 7049549176, "lat": 41.6906694, "lon": 41.7039834}, {"type": "node", "id": 9175126791, "lat": 41.6869086, "lon": 41.7013416}, {"type": "node", "id": 10178934758, "lat": 41.6883567, "lon": 41.7026552}, {"type": "node", "id": 10178934759, "lat": 41.6881371, "lon": 41.7025053}, {"type": "node", "id": 10178934760, "lat": 41.6880269, "lon": 41.7024853}, {"type": "node", "id": 10178934761, "lat": 41.6877067, "lon": 41.702266}, {"type": "node", "id": 10178934762, "lat": 41.6876295, "lon": 41.702385}, {"type": "node", "id": 10178934763, "lat": 41.6871671, "lon": 41.7020553}, {"type": "node", "id": 10178934764, "lat": 41.6869822, "lon": 41.7021416}, {"type": "node", "id": 10178934766, "lat": 41.6869223, "lon": 41.7020301}, {"type": "node", "id": 10178934782, "lat": 41.6864421, "lon": 41.7015977}, {"type": "node", "id": 10178934784, "lat": 41.6863899, "lon": 41.7015584}, {"type": "node", "id": 1330797937, "lat": 41.691679, "lon": 41.7052058}, {"type": "node", "id": 1330798099, "lat": 41.6917764, "lon": 41.705267}, {"type": "node", "id": 1330798955, "lat": 41.6913779, "lon": 41.70501}, {"type": "node", "id": 1442671833, "lat": 41.6938851, "lon": 41.705893}, {"type": "node", "id": 1442671855, "lat": 41.6909368, "lon": 41.7046692}, {"type": "node", "id": 1442671859, "lat": 41.693817, "lon": 41.7060164}, {"type": "node", "id": 1442671958, "lat": 41.6921913, "lon": 41.705381}, {"type": "node", "id": 1442671962, "lat": 41.6923444, "lon": 41.7054519}, {"type": "node", "id": 1442672094, "lat": 41.6937905, "lon": 41.7060493}, {"type": "node", "id": 1442672111, "lat": 41.6920866, "lon": 41.7053751}, {"type": "node", "id": 1442672116, "lat": 41.6918835, "lon": 41.7052934}, {"type": "node", "id": 1442672118, "lat": 41.6920179, "lon": 41.7053685}, {"type": "node", "id": 1442672133, "lat": 41.692184, "lon": 41.7054222}, {"type": "node", "id": 7049549177, "lat": 41.6930324, "lon": 41.7053205}, {"type": "node", "id": 7049549178, "lat": 41.6935926, "lon": 41.7057323}, {"type": "node", "id": 7049549179, "lat": 41.6938993, "lon": 41.7058586}, {"type": "node", "id": 8848155725, "lat": 41.6912687, "lon": 41.7049192}, {"type": "node", "id": 12140742382, "lat": 41.6938756, "lon": 41.7058488}, {"type": "node", "id": 12140742383, "lat": 41.6932853, "lon": 41.7058406}]}