{"version": 0.6, "generator": "Overpass API 0.7.62.8 e802775f", "osm3s": {"timestamp_osm_base": "2025-11-20T03:19:23Z", "copyright": "The data included in this document is from www.openstreetmap.org. The data is made available under ODbL."}, "elements": [{"type": "node", "id": 1699712337, "lat": 13.6149778, "lon": 100.6211773, "tags": {"amenity": "restaurant", "cuisine": "thai", "name": "\u0e23\u0e2a\u0e2a\u0e38\u0e04\u0e19\u0e18\u0e4c", "name:en": "Rotsukhon Restaurant", "name:th": "\u0e23\u0e2a\u0e2a\u0e38\u0e04\u0e19\u0e18\u0e4c"}}, {"type": "node", "id": 2408052675, "lat": 13.648364, "lon": 100.627577, "tags": {"amenity": "cafe", "name": "Bellinee's Bake & Brew", "wheelchair": "yes"}}, {"type": "node", "id": 2768659657, "lat": 13.635595, "lon": 100.619339, "tags": {"addr:city": "Samut Prakan", "addr:postcode": "10270", "addr:street": "Soi Wat San Samrong", "amenity": "cafe", "atm": "no", "cuisine": "coffee_shop", "drive_through": "no", "internet_access": "wlan", "name": "Farm Wille", "opening_hours": "06:00-19:00", "outdoor_seating": "yes", "takeaway": "yes"}}, {"type": "node", "id": 3008446336, "lat": 13.635202, "lon": 100.631013, "tags": {"amenity": "restaurant", "cuisine": "japanese", "diet:vegetarian": "yes", "name": "Shibuya"}}, {"type": "node", "id": 3431296249, "lat": 13.6203921, "lon": 100.6206757, "tags": {"amenity": "cafe", "brand": "Starbucks", "brand:wikidata": "Q37158", "brand:wikipedia": "en:Starbucks", "cuisine": "coffee_shop", "name": "Starbucks", "name:en": "Starbucks Coffee", "name:th": "\u0e2a\u0e15\u0e32\u0e23\u0e4c\u0e1a\u0e31\u0e04\u0e2a\u0e4c", "official_name": "Starbucks Coffee", "shop": "coffee", "smoking": "no", "takeaway": "yes", "website": "https://www.starbucks.com/"}}, {"type": "node", "id": 3925692736, "lat": 13.6277226, "lon": 100.6043528, "tags": {"artwork_type": "sculpture", "name": "Louis de Montfort Statue", "tourism": "artwork"}}, {"type": "node", "id": 3925702847, "lat": 13.6281937, "lon": 100.6035979, "tags": {"historic": "memorial", "name": "Jesus Statue", "name:th": "\u0e23\u0e39\u0e1b\u0e1b\u0e31\u0e49\u0e19\u0e1e\u0e23\u0e30\u0e40\u0e22\u0e0b"}}, {"type": "node", "id": 4229167095, "lat": 13.6081234, "lon": 100.6417331, "tags": {"addr:housenumber": "80", "name": "supawan", "tourism": "attraction"}}, {"type": "node", "id": 4725831894, "lat": 13.6240898, "lon": 100.6225069, "tags": {"name": "Seasons condo", "name:th": "Seasons condo", "tourism": "attraction"}}, {"type": "node", "id": 5166998421, "lat": 13.648688, "lon": 100.6267997, "tags": {"amenity": "cafe", "name:en": "J Coffee"}}, {"type": "node", "id": 5260120841, "lat": 13.6336304, "lon": 100.6114236, "tags": {"leisure": "park"}}, {"type": "node", "id": 5284362605, "lat": 13.6329006, "lon": 100.6192441, "tags": {"name": "\u0e1b\u0e32\u0e25\u0e4c\u0e21\u0e1e\u0e32\u0e27\u0e34\u0e25\u0e40\u0e25\u0e35\u0e22\u0e19", "tourism": "apartment"}}, {"type": "node", "id": 5284362606, "lat": 13.633558, "lon": 100.6192879, "tags": {"amenity": "restaurant", "name": "\u0e40\u0e1e\u0e25\u0e22\u0e4c\u0e1f\u0e32\u0e23\u0e4c\u0e21"}}, {"type": "node", "id": 5284362607, "lat": 13.6334927, "lon": 100.6190286, "tags": {"amenity": "restaurant", "name": "\u0e23\u0e49\u0e32\u0e19\u0e2d\u0e32\u0e2b\u0e32\u0e23\u0e40\u0e1e\u0e25\u0e22\u0e4c\u0e1f\u0e32\u0e23\u0e4c\u0e21"}}, {"type": "node", "id": 5590302621, "lat": 13.6494516, "lon": 100.6379625, "tags": {"addr:housenumber": "1150", "addr:postcode": "10270", "addr:street": "\u0e16\u0e19\u0e19\u0e28\u0e23\u0e35\u0e19\u0e04\u0e23\u0e34\u0e19\u0e17\u0e23\u0e4c", "name": "\u0e41\u0e1a\u0e07\u0e04\u0e2d\u0e01\u0e0b\u0e34\u0e15\u0e35\u0e49 \u0e23\u0e35\u0e2a\u0e2d\u0e23\u0e4c\u0e15", "name:en": "Bangkok City Resort", "opening_hours": "24/7", "phone": "0834343330", "tourism": "hotel"}}, {"type": "node", "id": 5997039285, "lat": 13.6270223, "lon": 100.6364527, "tags": {"addr:postcode": "10540", "addr:street": "\u0e16\u0e19\u0e19\u0e27\u0e31\u0e14\u0e2b\u0e19\u0e32\u0e21\u0e41\u0e14\u0e07", "name": "\u0e04\u0e32\u0e0b\u0e34\u0e15\u0e49\u0e32 \u0e04\u0e2d\u0e19\u0e42\u0e14", "name:en": "Casitas Condiminium", "tourism": "apartment"}}, {"type": "node", "id": 6263380286, "lat": 13.6242699, "lon": 100.6062528, "tags": {"addr:postcode": "10270", "addr:street": "\u0e17\u0e34\u0e1e\u0e27\u0e31\u0e25 \u0e0b\u0e2d\u0e22 57", "tourism": "chalet"}}, {"type": "node", "id": 6575048461, "lat": 13.6476792, "lon": 100.6010148, "tags": {"access": "private", "addr:housenumber": "914 \u0e2b\u0e21\u0e39\u0e48 9", "addr:street": "Sukhumvit 113", "name": "Niche ID Sukhumvit 113", "operator": "Sena", "tourism": "apartment", "website": "https://www.sena.co.th/th/condominium/niche-id-sukhumvit113"}}, {"type": "node", "id": 7820739706, "lat": 13.6281509, "lon": 100.6033685, "tags": {"artwork_type": "statue", "name": "\u0e41\u0e21\u0e48\u0e1e\u0e23\u0e30\u0e2d\u0e31\u0e2a\u0e2a\u0e31\u0e21\u0e0a\u0e31\u0e0d", "tourism": "artwork"}}, {"type": "node", "id": 8447882117, "lat": 13.6481209, "lon": 100.6042302, "tags": {"amenity": "restaurant", "name:en": "Agalin Garden Room", "opening_hours": "Tu-Su 11:00-21:00", "phone": "081 926 5724", "website": "http://www.facebook.com/agalinth"}}, {"type": "node", "id": 9075687674, "lat": 13.6254976, "lon": 100.6412742, "tags": {"addr:city": "\u0e15\u0e33\u0e1a\u0e25\u0e1a\u0e32\u0e07\u0e41\u0e01\u0e49\u0e27", "addr:housenumber": "25/88", "addr:postcode": "10540", "addr:street": "\u0e16\u0e19\u0e19\u0e27\u0e31\u0e14\u0e2b\u0e19\u0e32\u0e21\u0e41\u0e14\u0e07", "amenity": "cafe", "name": "Mikka cafe PTT Park Mall", "opening_hours": "Mo-Su 08:00-17:30", "phone": "0841196569", "website": "https://wongn.ai/m083p"}}, {"type": "node", "id": 10559408607, "lat": 13.6256333, "lon": 100.6301396, "tags": {"amenity": "restaurant", "name": "\u0e2d\u0e38\u0e14\u0e21\u0e17\u0e23\u0e31\u0e1e\u0e22\u0e4c\u0e1a\u0e30\u0e2b\u0e21\u0e35\u0e48\u0e40\u0e1b\u0e47\u0e14\u0e22\u0e48\u0e32\u0e07"}}, {"type": "node", "id": 10565459979, "lat": 13.6269434, "lon": 100.6277529, "tags": {"amenity": "restaurant", "cuisine": "chinese", "name": "\u0e23\u0e49\u0e32\u0e19\u0e01\u0e4b\u0e27\u0e22\u0e40\u0e15\u0e35\u0e4b\u0e22\u0e27\u0e40\u0e1b\u0e47\u0e14\u0e1e\u0e30\u0e42\u0e25\u0e49\u0e2a\u0e39\u0e15\u0e23\u0e22\u0e32\u0e08\u0e35\u0e19\u0e41\u0e22\u0e01\u0e40\u0e17\u0e1e\u0e32\u0e23\u0e31\u0e01\u0e29\u0e4c \u0e2a\u0e32\u0e02\u0e321"}}, {"type": "node", "id": 10713549369, "lat": 13.6143093, "lon": 100.6207718, "tags": {"amenity": "restaurant", "name": "\u0e2a\u0e38\u0e01\u0e35\u0e49\u0e15\u0e35\u0e4b\u0e19\u0e49\u0e2d\u0e22 \u0e28\u0e23\u0e35\u0e19\u0e04\u0e23\u0e34\u0e19\u0e17\u0e23\u0e4c", "name:en": "Suki Teenoi Srinagarindra", "name:th": "\u0e2a\u0e38\u0e01\u0e35\u0e49\u0e15\u0e35\u0e4b\u0e19\u0e49\u0e2d\u0e22 \u0e28\u0e23\u0e35\u0e19\u0e04\u0e23\u0e34\u0e19\u0e17\u0e23\u0e4c"}}, {"type": "node", "id": 12484583395, "lat": 13.6206878, "lon": 100.6223974, "tags": {"amenity": "restaurant", "cuisine": "chinese", "name": "\u0e42\u0e01\u0e15\u0e31\u0e49\u0e21 \u0e15\u0e34\u0e48\u0e21\u0e0b\u0e33 \u0e2a\u0e32\u0e02\u0e32\u0e28\u0e23\u0e35\u0e19\u0e04\u0e23\u0e34\u0e19\u0e17\u0e23\u0e4c"}}, {"type": "node", "id": 12564841222, "lat": 13.6347889, "lon": 100.6006863, "tags": {"addr:district": "Mueang Samut Prakan", "addr:housenumber": "799", "addr:place": "Soi Theparak 18", "addr:postcode": "10270", "addr:province": "Samut Prakan", "addr:street": "Theparak", "addr:subdistrict": "Theparak", "amenity": "restaurant", "name": "Our Farm \u0e1f\u0e32\u0e23\u0e4c\u0e21\u0e40\u0e23\u0e32\u0e40\u0e2d\u0e07", "opening_hours": "Mo-Su 11:00-20:00", "phone": "065 548 2777", "website": "https://www.facebook.com/ourfarmcafe"}}, {"type": "node", "id": 12578959348, "lat": 13.6208631, "lon": 100.6178921, "tags": {"addr:district": "\u0e40\u0e21\u0e37\u0e2d\u0e07", "addr:housenumber": "19/180", "addr:postcode": "10270", "addr:province": "\u0e2a\u0e21\u0e38\u0e17\u0e23\u0e1b\u0e23\u0e32\u0e01\u0e32\u0e23", "addr:street": "\u0e28\u0e23\u0e35\u0e40\u0e1e\u0e0a\u0e23\u0e01\u0e32\u0e23\u0e40\u0e04\u0e2b\u0e30 \u0e0b\u0e2d\u0e22 4", "addr:subdistrict": "\u0e1a\u0e32\u0e07\u0e40\u0e21\u0e37\u0e2d\u0e07\u0e43\u0e2b\u0e21\u0e48", "amenity": "cafe", "check_date": "2025-09-16", "check_date:currency:XBT": "2025-09-16", "contact:email": "longkongcafe@gmail.com", "contact:facebook": "https://www.facebook.com/longkongcafe", "cuisine": "coffee_shop", "currency:XBT": "yes", "name": "Lonkong cafe", "opening_hours": "Sa-Su 09:00-18:00", "outdoor_seating": "yes", "payment:lightning": "yes", "payment:lightning_contactless": "no", "payment:onchain": "no", "phone": "+66 89 212 7971"}}, {"type": "node", "id": 12687811139, "lat": 13.6428152, "lon": 100.6496457, "tags": {"amenity": "restaurant", "name": "\u0e04\u0e23\u0e31\u0e27\u0e43\u0e1a\u0e15\u0e2d\u0e07"}}, {"type": "node", "id": 13044805002, "lat": 13.6110852, "lon": 100.6090344, "tags": {"addr:housenumber": "88/88", "internet_access": "wlan", "name": "KINTON HOTEL", "name:th": "\u0e42\u0e23\u0e07\u0e41\u0e23\u0e21", "phone": "+66 96 016 2226", "tourism": "hotel"}}, {"type": "node", "id": 13096107804, "lat": 13.6446434, "lon": 100.6372215, "tags": {"addr:district": "\u0e40\u0e21\u0e37\u0e2d\u0e07\u0e2a\u0e21\u0e38\u0e17\u0e23\u0e1b\u0e23\u0e32\u0e01\u0e32\u0e23", "addr:housenumber": "438/9", "addr:postcode": "10270", "addr:province": "\u0e2a\u0e21\u0e38\u0e17\u0e23\u0e1b\u0e23\u0e32\u0e01\u0e32\u0e23", "addr:street": "\u0e16\u0e19\u0e19\u0e28\u0e23\u0e35\u0e19\u0e04\u0e23\u0e34\u0e19\u0e17\u0e23\u0e4c", "addr:subdistrict": "\u0e2a\u0e33\u0e42\u0e23\u0e07\u0e40\u0e2b\u0e19\u0e37\u0e2d", "check_date": "2025-08-25", "check_date:currency:XBT": "2025-08-25", "contact:email": "contact@leesmark.com", "contact:facebook": "leesmark", "currency:XBT": "yes", "name": "Lee's Mark Residence", "name:th": "\u0e25\u0e35\u0e21\u0e32\u0e23\u0e4c\u0e04 \u0e40\u0e23\u0e2a\u0e0b\u0e34\u0e40\u0e14\u0e49\u0e19\u0e17\u0e4c", "opening_hours": "24/7", "payment:lightning": "yes", "payment:lightning_contactless": "no", "payment:onchain": "no", "phone": "+66 23 834 787", "tourism": "hotel", "website": "https://www.leesmark.com/"}}, {"type": "node", "id": 13167153010, "lat": 13.6035841, "lon": 100.6051347, "tags": {"addr:district": "\u0e40\u0e21\u0e37\u0e2d\u0e07", "addr:housenumber": "23/175", "addr:postcode": "10270", "addr:province": "\u0e2a\u0e21\u0e38\u0e17\u0e23\u0e1b\u0e23\u0e32\u0e01\u0e32\u0e23", "addr:street": "\u0e0b\u0e2d\u0e22\u0e2a\u0e21\u0e38\u0e17\u0e23\u0e19\u0e34\u0e40\u0e27\u0e28\u0e19\u0e4c 1", "addr:subdistrict": "\u0e1a\u0e32\u0e07\u0e40\u0e21\u0e37\u0e2d\u0e07", "amenity": "restaurant", "check_date": "2025-10-04", "check_date:currency:XBT": "2025-10-04", "contact:facebook": "https://www.facebook.com/patipat.wb", "currency:XBT": "yes", "diet:chicken": "yes", "diet:halal": "yes", "name": "\u0e2b\u0e27\u0e31\u0e07\u0e1a\u0e39\u0e48 \u0e2a\u0e21\u0e38\u0e17\u0e23\u0e19\u0e34\u0e40\u0e27\u0e28\u0e19\u0e4c", "name:en": "Wang Buu Samut Ni Wes", "opening_hours": "Mo-Su 06:00-15:00", "payment:lightning": "yes", "payment:lightning_contactless": "no", "payment:onchain": "no", "phone": "+66 64 617 4224", "survey:date": "2025-10-04"}}, {"type": "way", "id": 158010653, "nodes": [1702463496, 1702463494, 1702463506, 1702463509, 1702463496], "tags": {"building": "yes", "name": "Bay Hotel", "name:th": "\u0e42\u0e23\u0e07\u0e41\u0e23\u0e21\u0e40\u0e1a\u0e22\u0e4c", "tourism": "hotel"}}, {"type": "way", "id": 221578218, "nodes": [2306119971, 2306119973, 2306119975, 2306119977, 2306119971], "tags": {"addr:city": "Samut Prakan", "addr:postcode": "10270", "building": "yes", "name": "Color Living Hotel", "tourism": "hotel"}}, {"type": "way", "id": 221578618, "nodes": [2306121848, 2306121849, 2306121850, 2306121851, 2306121848], "tags": {"addr:city": "Samut Prakan", "addr:postcode": "10270", "building": "yes", "name": "Yamato Hotel", "tourism": "hotel"}}, {"type": "way", "id": 376417872, "nodes": [3798503200, 11618754885, 3798503208, 11618754901, 3798503206, 11618754888, 11618754889, 11618754890, 11618754891, 11618754893, 3798503199, 11618754900, 4774945243, 11618754899, 11618754884, 3798503200], "tags": {"amenity": "place_of_worship", "denomination": "thai_mahanikaya", "name": "\u0e27\u0e31\u0e14\u0e14\u0e48\u0e32\u0e19\u0e2a\u0e33\u0e42\u0e23\u0e07", "name:en": "Wat Dan Samrong", "name:th": "\u0e27\u0e31\u0e14\u0e14\u0e48\u0e32\u0e19\u0e2a\u0e33\u0e42\u0e23\u0e07", "religion": "buddhist", "wikidata": "Q98624166", "wikipedia": "th:\u0e27\u0e31\u0e14\u0e14\u0e48\u0e32\u0e19\u0e2a\u0e33\u0e42\u0e23\u0e07"}}, {"type": "way", "id": 544106505, "nodes": [1688055264, 1688055224, 5259654642, 5259654643, 5259654634, 1688055221, 1688055236, 1688055264], "tags": {"leisure": "park", "name": "Tippawan Park", "name:th": "\u0e2a\u0e27\u0e19\u0e2a\u0e32\u0e18\u0e32\u0e23\u0e13\u0e30\u0e17\u0e34\u0e1e\u0e27\u0e31\u0e25"}}, {"type": "way", "id": 544149558, "nodes": [5260116224, 5260116225, 5260116226, 5260116227, 5260116228, 5260116229, 5260116230, 5260116231, 5260116232, 8301955690, 5260116224], "tags": {"addr:city": "\u0e1a\u0e32\u0e07\u0e40\u0e21\u0e37\u0e2d\u0e07\u0e43\u0e2b\u0e21\u0e48", "addr:housenumber": "85/234", "addr:postcode": "10270", "addr:street": "\u0e1b\u0e23\u0e30\u0e14\u0e34\u0e29\u0e10\u0e2a\u0e42\u0e21\u0e2a\u0e23", "leisure": "park", "name": "puksa park"}}, {"type": "way", "id": 544274397, "nodes": [5261461517, 8277132299, 8277132298, 8277132302, 8277132301, 8277132303, 8277132300, 5261461520, 5261462160, 5261461518, 8274183507, 8274183506, 5261461519, 8276982474, 8276982473, 5261461517], "tags": {"leisure": "park", "name": "Dan Samrong Municipality Park"}}, {"type": "way", "id": 545790187, "nodes": [1688064315, 5274780082, 5274780083, 5274780084, 1688055013, 5274780085, 5274780086, 5274780087, 1688064315], "tags": {"leisure": "park", "name": "Sripetch Park", "name:th": "\u0e2a\u0e27\u0e19\u0e2a\u0e38\u0e02\u0e20\u0e32\u0e1e\u0e0a\u0e38\u0e21\u0e0a\u0e19\u0e28\u0e23\u0e35\u0e40\u0e1e\u0e0a\u0e23"}}, {"type": "way", "id": 545793054, "nodes": [1689131791, 5274810247, 1689131803, 1689131764, 1689131769, 1689131791], "tags": {"leisure": "park", "name": "\u0e2a\u0e27\u0e19\u0e2a\u0e32\u0e18\u0e32\u0e23\u0e13\u0e30\u0e1a\u0e49\u0e32\u0e19\u0e2a\u0e27\u0e19\u0e22\u0e31\u0e48\u0e07\u0e22\u0e37\u0e19"}}, {"type": "way", "id": 546758529, "nodes": [5283460857, 5283460858, 5283460859, 5283460860, 5283460857], "tags": {"leisure": "park", "name": "\u0e2a\u0e27\u0e19\u0e2a\u0e32\u0e18\u0e32\u0e23\u0e13\u0e30\u0e40\u0e2d\u0e37\u0e49\u0e2d\u0e2d\u0e32\u0e17\u0e23\u0e1e\u0e23\u0e49\u0e2d\u0e21\u0e21\u0e34\u0e15\u0e23 1"}}, {"type": "way", "id": 546871322, "nodes": [5284370923, 5284370924, 5284370925, 5284370926, 5284370923], "tags": {"leisure": "park", "name": "Dheva Park", "name:th": "\u0e2a\u0e27\u0e19\u0e2a\u0e32\u0e18\u0e32\u0e23\u0e13\u0e30\u0e0b\u0e2d\u0e22\u0e40\u0e17\u0e27\u0e32"}}, {"type": "way", "id": 548704310, "nodes": [5936151334, 5300744542, 5300744543, 5936151331, 5936151332, 5936151334], "tags": {"leisure": "park", "name": "Thanapirom Park", "name:th": "\u0e2a\u0e27\u0e19\u0e18\u0e19\u0e32\u0e20\u0e34\u0e23\u0e21\u0e22\u0e4c"}}, {"type": "way", "id": 555924306, "nodes": [5363028789, 5363028790, 5262097275, 5363028791, 5363028789], "tags": {"leisure": "park", "name": "Natural Park at Lotus"}}, {"type": "way", "id": 557845751, "nodes": [5379764748, 5379764749, 5379764750, 5379764751, 5379764752, 5379764753, 5379764754, 5379764755, 5379764756, 5379764757, 5379764758, 5379764759, 12972313238, 5379764748], "tags": {"leisure": "park", "name": "Nantawan Front Park"}}, {"type": "way", "id": 559350160, "nodes": [5395096981, 5395096982, 5395096983, 5395096984, 5395096981], "tags": {"leisure": "park", "name": "Promma public park", "name:th": "\u0e2a\u0e27\u0e19\u0e2a\u0e32\u0e18\u0e32\u0e23\u0e13\u0e30\u0e17\u0e49\u0e32\u0e27\u0e21\u0e2b\u0e32\u0e1e\u0e23\u0e2b\u0e21\u0e17\u0e34\u0e1e\u0e27\u0e31\u0e25"}}, {"type": "way", "id": 566777588, "nodes": [5457526379, 5457526380, 5395096988, 1688055194, 1688055198, 1688055200, 1688055206, 1688055219, 5457526381, 5457526379], "tags": {"leisure": "park", "name": "Iris Park", "name:th": "\u0e2a\u0e27\u0e19\u0e2a\u0e32\u0e18\u0e32\u0e23\u0e13\u0e30\u0e2b\u0e21\u0e39\u0e48\u0e1a\u0e49\u0e32\u0e19\u0e44\u0e2d\u0e23\u0e34\u0e2a"}}, {"type": "way", "id": 566777589, "nodes": [1688055202, 1688055214, 5457526382, 5457526383, 5457526384, 1688055186, 8359782831, 1688055190, 1688055197, 1688055202], "tags": {"leisure": "park", "name": "Iris Park", "name:th": "\u0e2a\u0e27\u0e19\u0e2a\u0e32\u0e18\u0e32\u0e23\u0e13\u0e30\u0e2b\u0e21\u0e39\u0e48\u0e1a\u0e49\u0e32\u0e19\u0e44\u0e2d\u0e23\u0e34\u0e2a"}}, {"type": "way", "id": 890385733, "nodes": [8275809418, 8275809419, 8275809420, 8275809421, 8275809418], "tags": {"amenity": "restaurant", "building": "yes", "cuisine": "vietnamese", "name": "VT \u0e41\u0e2b\u0e19\u0e21\u0e40\u0e19\u0e37\u0e2d\u0e07"}}, {"type": "way", "id": 890420240, "nodes": [8276021555, 8276021556, 8276021557, 8276021558, 8276021555], "tags": {"amenity": "restaurant", "building": "yes"}}, {"type": "way", "id": 890420241, "nodes": [8276021559, 8276021560, 8276021561, 8276021562, 8276021563, 8276021564, 8276021565, 8276021566, 8276021567, 8276021568, 8276021569, 8276021570, 8276021559], "tags": {"amenity": "restaurant", "building": "yes"}}, {"type": "way", "id": 890835507, "nodes": [8279538722, 8279538723, 8279538724, 8279538725, 8279538722], "tags": {"amenity": "restaurant", "building": "yes", "cuisine": "noodle"}}, {"type": "way", "id": 1112070096, "nodes": [10173936941, 10173936942, 10173936943, 10173936944, 10173936945, 10173936946, 10173936941], "tags": {"building": "yes", "tourism": "apartment"}}, {"type": "way", "id": 1112070097, "nodes": [10173936947, 10173936948, 10173936949, 10173936950, 10173936951, 10173936952, 10173936947], "tags": {"building": "yes", "tourism": "apartment"}}, {"type": "way", "id": 1112070098, "nodes": [10173936953, 10173936954, 10173936955, 10173936956, 10173936957, 7929860583, 10173936953], "tags": {"building": "yes", "tourism": "apartment"}}, {"type": "way", "id": 1112070099, "nodes": [10173936958, 10173936959, 10173936960, 10173936961, 10173936962, 10173936963, 10173936958], "tags": {"building": "yes", "tourism": "apartment"}}, {"type": "way", "id": 1112070100, "nodes": [10173936964, 5936272541, 10173936965, 10173936966, 10173936967, 10173936968, 10173936964], "tags": {"building": "yes", "tourism": "apartment"}}, {"type": "way", "id": 1112070101, "nodes": [10173936969, 10173936970, 10173936971, 10173936972, 10173936969], "tags": {"building": "yes", "name": "\u0e25\u0e32\u0e19\u0e14\u0e32\u0e27\u0e17\u0e32\u0e27\u0e40\u0e27\u0e2d\u0e23\u0e4c", "tourism": "apartment"}}, {"type": "way", "id": 1112070105, "nodes": [10173936983, 10173936984, 10173936985, 10173936986, 10173936983], "tags": {"building": "yes", "tourism": "apartment"}}, {"type": "way", "id": 1112189172, "nodes": [10175022754, 10175022755, 10175022756, 10175022757, 4403956409, 10175022754], "tags": {"building": "yes", "tourism": "motel"}}, {"type": "way", "id": 1112189839, "nodes": [10174990282, 10174990283, 10174990284, 10174990285, 10174990282], "tags": {"building": "yes", "tourism": "apartment"}}, {"type": "way", "id": 1112189841, "nodes": [10174990290, 10174990291, 10174990292, 10174990293, 10174990294, 10174990295, 10174990296, 10174990297, 10174990290], "tags": {"building": "yes", "tourism": "apartment"}}, {"type": "way", "id": 1132451130, "nodes": [10559408592, 10559413316, 10559408593, 10559413317, 10559408594, 10559408595, 10559408596, 10559413321, 10559408597, 10559408598, 10559413313, 10559408599, 10559413314, 10559408592], "tags": {"amenity": "marketplace", "name": "\u0e1e\u0e31\u0e12\u0e19\u0e30"}}, {"type": "way", "id": 1132451132, "nodes": [10559408608, 10559413309, 10559413310, 10559413311, 10559408608], "tags": {"amenity": "restaurant", "building": "yes", "name": "\u0e04\u0e23\u0e31\u0e27\u0e41\u0e15\u0e07\u0e42\u0e21"}}, {"type": "way", "id": 1133246782, "nodes": [10565695247, 10565695248, 10565695249, 10565695250, 10565695251, 10565695252, 10565695247], "tags": {"amenity": "marketplace"}}, {"type": "way", "id": 1151682959, "nodes": [10713549363, 10713549364, 10713549365, 10713549366, 10713549367, 10713549368, 10713549363], "tags": {"amenity": "restaurant", "building": "yes", "name": "\u0e2a\u0e38\u0e01\u0e35\u0e49\u0e15\u0e35\u0e4b\u0e19\u0e49\u0e2d\u0e22 \u0e28\u0e23\u0e35\u0e19\u0e04\u0e23\u0e34\u0e19\u0e17\u0e23\u0e4c", "name:en": "Suki Teenoi Srinagarindra", "name:th": "\u0e2a\u0e38\u0e01\u0e35\u0e49\u0e15\u0e35\u0e4b\u0e19\u0e49\u0e2d\u0e22 \u0e28\u0e23\u0e35\u0e19\u0e04\u0e23\u0e34\u0e19\u0e17\u0e23\u0e4c"}}, {"type": "way", "id": 1161703074, "nodes": [10804647167, 10804647168, 10804647169, 10804647170, 10804647167], "tags": {"building": "yes", "tourism": "motel"}}, {"type": "way", "id": 1161703075, "nodes": [10804647171, 10804647172, 10804647173, 10804647174, 10804647171], "tags": {"building": "yes", "tourism": "motel"}}, {"type": "way", "id": 1161703076, "nodes": [10804647175, 10804647176, 10804647158, 10804647159, 10804647175], "tags": {"building": "yes", "tourism": "motel"}}, {"type": "way", "id": 1199529913, "nodes": [11125627150, 11125627151, 12972774006, 1340398419, 11125627152, 11125627153, 11125627154, 11125627155, 11125627156, 11125627157, 11125627158, 11125627159, 11125627149, 11125627160, 8628721213, 11125627161, 11125627150], "tags": {"leisure": "park"}}, {"type": "way", "id": 1207491702, "nodes": [11188340226, 11188340227, 11188340228, 11188340229, 11188340226], "tags": {"amenity": "cafe", "brand": "\u0e04\u0e32\u0e40\u0e1f\u0e48 \u0e2d\u0e40\u0e21\u0e0b\u0e2d\u0e19", "brand:en": "Caf\u00e9 Amazon", "brand:th": "\u0e04\u0e32\u0e40\u0e1f\u0e48 \u0e2d\u0e40\u0e21\u0e0b\u0e2d\u0e19", "brand:wikidata": "Q43247503", "building": "yes", "cuisine": "coffee_shop", "name": "\u0e04\u0e32\u0e40\u0e1f\u0e48 \u0e2d\u0e40\u0e21\u0e0b\u0e2d\u0e19", "name:en": "Caf\u00e9 Amazon", "name:th": "\u0e04\u0e32\u0e40\u0e1f\u0e48 \u0e2d\u0e40\u0e21\u0e0b\u0e2d\u0e19", "takeaway": "yes"}}, {"type": "way", "id": 1207492153, "nodes": [11188322730, 11188322731, 11188322732, 11188322733, 11188322730], "tags": {"building": "yes", "name": "\u0e23\u0e34\u0e19\u0e25\u0e14\u0e32", "tourism": "apartment"}}, {"type": "way", "id": 1224506651, "nodes": [11356079608, 11356079609, 11356079610, 11356079611, 11356079608], "tags": {"historic": "wayside_shrine", "name": "\u0e28\u0e32\u0e25\u0e1e\u0e23\u0e30\u0e1e\u0e23\u0e2b\u0e21", "religion": "hindu"}}, {"type": "way", "id": 1229698049, "nodes": [5262092026, 11403404956, 12610203596, 12610203594, 12610203595, 11403404959, 11403404960, 11403404964, 11403404965, 11403404966, 11403404967, 11403404968, 11403405969, 5262092026], "tags": {"amenity": "place_of_worship", "denomination": "thai_mahanikaya", "name": "\u0e27\u0e31\u0e14\u0e1a\u0e32\u0e07\u0e1b\u0e34\u0e49\u0e07", "name:en": "Wat Bang Ping", "name:th": "\u0e27\u0e31\u0e14\u0e1a\u0e32\u0e07\u0e1b\u0e34\u0e49\u0e07", "religion": "buddhist", "wikidata": "Q99746748", "wikipedia": "th:\u0e27\u0e31\u0e14\u0e1a\u0e32\u0e07\u0e1b\u0e34\u0e49\u0e07 (\u0e08\u0e31\u0e07\u0e2b\u0e27\u0e31\u0e14\u0e2a\u0e21\u0e38\u0e17\u0e23\u0e1b\u0e23\u0e32\u0e01\u0e32\u0e23)"}}, {"type": "way", "id": 1240212202, "nodes": [11522402724, 11522402725, 11522402726, 11522402727, 11522402724], "tags": {"amenity": "restaurant", "building": "yes", "name": "\u0e04\u0e23\u0e31\u0e27\u0e1a\u0e49\u0e32\u0e19\u0e2a\u0e27\u0e19"}}, {"type": "way", "id": 1240212203, "nodes": [11522402728, 11522402729, 11522402730, 11522402731, 11522402728], "tags": {"amenity": "restaurant", "building": "yes"}}, {"type": "way", "id": 1240215854, "nodes": [11522430049, 11522430050, 11522430051, 11522430052, 11522430049], "tags": {"building": "yes", "tourism": "motel"}}, {"type": "way", "id": 1240215856, "nodes": [11522430059, 11522430060, 11522430061, 11522430062, 11522430059], "tags": {"building": "yes", "tourism": "motel"}}, {"type": "way", "id": 1240215857, "nodes": [11522430063, 11522430064, 11522430065, 11522430066, 11522430063], "tags": {"building": "yes", "tourism": "motel"}}, {"type": "way", "id": 1240215858, "nodes": [11522430067, 11522430068, 11522471369, 11522471370, 11522430067], "tags": {"building": "yes", "tourism": "motel"}}, {"type": "way", "id": 1240215859, "nodes": [11522471371, 11522471372, 11522471373, 11522471374, 11522471371], "tags": {"building": "yes", "tourism": "motel"}}, {"type": "way", "id": 1240215860, "nodes": [11522471375, 11522471376, 11522471377, 11522471378, 11522471375], "tags": {"building": "yes", "tourism": "motel"}}, {"type": "way", "id": 1240215861, "nodes": [11522471379, 11522471380, 11522471381, 11522471382, 11522471379], "tags": {"building": "yes", "tourism": "motel"}}, {"type": "way", "id": 1288067778, "nodes": [11945204244, 13069298949, 11945204245, 11945204246, 11945204247, 11945204248, 8606214137, 11945204249, 11945204250, 11945204251, 11945204252, 11945204253, 11945204254, 11945204255, 11945204256, 11945204244], "tags": {"amenity": "place_of_worship", "denomination": "thai_mahanikaya", "landuse": "religious", "name": "\u0e27\u0e31\u0e14\u0e2b\u0e19\u0e32\u0e21\u0e41\u0e14\u0e07", "name:en": "Wat Nam Daeng", "name:th": "\u0e27\u0e31\u0e14\u0e2b\u0e19\u0e32\u0e21\u0e41\u0e14\u0e07", "religion": "buddhist", "wikidata": "Q97823500", "wikimedia_commons": "Category:Wat Nam Daeng", "wikipedia": "th:\u0e27\u0e31\u0e14\u0e2b\u0e19\u0e32\u0e21\u0e41\u0e14\u0e07 (\u0e08\u0e31\u0e07\u0e2b\u0e27\u0e31\u0e14\u0e2a\u0e21\u0e38\u0e17\u0e23\u0e1b\u0e23\u0e32\u0e01\u0e32\u0e23)"}}, {"type": "way", "id": 1299830875, "nodes": [12040244478, 12040244479, 12040244480, 12040244481, 12040244482, 12040244483, 12040244478], "tags": {"abandoned": "yes", "building": "yes", "name": "PP hotel", "tourism": "hotel"}}, {"type": "way", "id": 1299830877, "nodes": [12040244491, 12040244492, 12040244493, 12040244494, 12040244491], "tags": {"building": "yes", "tourism": "apartment"}}, {"type": "way", "id": 1299830878, "nodes": [12040244495, 12040244496, 12040244497, 12040244498, 12040244495], "tags": {"building": "yes", "tourism": "apartment"}}, {"type": "way", "id": 1299830879, "nodes": [12040244499, 12040244500, 12040244501, 12040244502, 12040244499], "tags": {"building": "yes", "tourism": "apartment"}}, {"type": "way", "id": 1299830880, "nodes": [12040244503, 12040244504, 12040244505, 12040244506, 12040244503], "tags": {"building": "yes", "tourism": "apartment"}}, {"type": "way", "id": 1299830899, "nodes": [12040244603, 12040244604, 12040244605, 12040244606, 12040244607, 12040244608, 12040244609, 12040244610, 12040244603], "tags": {"amenity": "restaurant", "building": "yes"}}, {"type": "way", "id": 1300063479, "nodes": [12042131301, 12042131322, 12042131323, 12042131302, 12042131303, 12042131304, 12042131301], "tags": {"amenity": "marketplace", "name": "\u0e15\u0e25\u0e32\u0e14\u0e40\u0e17\u0e27\u0e32"}}, {"type": "way", "id": 1335094330, "nodes": [12351548273, 12351548274, 12351548275, 12351548276, 12351548273], "tags": {"amenity": "restaurant", "building": "yes", "name": "\u0e01\u0e27\u0e22\u0e08\u0e31\u0e4a\u0e1a\u0e19\u0e49\u0e33\u0e43\u0e2a\u0e40\u0e2e\u0e35\u0e22\u0e40\u0e01\u0e4a\u0e32 @PTT"}}, {"type": "way", "id": 1335094332, "nodes": [12351548281, 12351548282, 12351548283, 12351548284, 12351548281], "tags": {"amenity": "cafe", "building": "yes", "name": "amezone"}}, {"type": "way", "id": 1335094333, "nodes": [12351548285, 12351548286, 12351548287, 12351548288, 12351548285], "tags": {"amenity": "restaurant", "building": "yes", "name": "\u0e2d\u0e23\u0e48\u0e2d\u0e22 30"}}, {"type": "way", "id": 1349586326, "nodes": [12484729742, 12484729743, 12484729767, 12484729744, 12484729745, 12484729766, 12484729746, 12484729747, 12484729748, 12484729749, 12484729750, 12484729742], "tags": {"amenity": "marketplace", "name": "\u0e15\u0e25\u0e32\u0e14\u0e40\u0e17\u0e1e\u0e1b\u0e23\u0e30\u0e17\u0e32\u0e19"}}, {"type": "way", "id": 1349586333, "nodes": [12484729780, 12484729781, 12484729782, 12484729783, 12484729784, 12484763607, 12484729785, 12484729786, 12484729780], "tags": {"amenity": "marketplace", "name": "\u0e15\u0e25\u0e32\u0e14\u0e17\u0e23\u0e31\u0e1e\u0e22\u0e4c\u0e2a\u0e38\u0e27\u0e23\u0e23\u0e13"}}, {"type": "way", "id": 1349586336, "nodes": [12484729796, 12484729797, 12484763601, 12484729798, 12484729799, 12484729796], "tags": {"amenity": "marketplace"}}, {"type": "way", "id": 1349586340, "nodes": [12484763608, 12484725559, 12484763609, 12484763610, 12484725560, 12484763605, 12484763606, 12484763603, 12484763608], "tags": {"amenity": "marketplace", "building": "yes"}}, {"type": "way", "id": 1415648734, "nodes": [13009115012, 13009115013, 13009115014, 13009115015, 13009115012], "tags": {"amenity": "marketplace", "name": "\u0e15\u0e25\u0e32\u0e14\u0e24\u0e01\u0e29\u0e4c\u0e40\u0e21\u0e37\u0e2d\u0e07"}}, {"type": "node", "id": 11356079608, "lat": 13.6055258, "lon": 100.6014921}, {"type": "node", "id": 11356079609, "lat": 13.6054229, "lon": 100.6013088}, {"type": "node", "id": 11356079610, "lat": 13.6050996, "lon": 100.6015011}, {"type": "node", "id": 11356079611, "lat": 13.6052025, "lon": 100.6016843}, {"type": "node", "id": 13009115013, "lat": 13.6215237, "lon": 100.5999755}, {"type": "node", "id": 13009115014, "lat": 13.6212751, "lon": 100.6001789}, {"type": "node", "id": 13009115015, "lat": 13.6214263, "lon": 100.6004901}, {"type": "node", "id": 5259654642, "lat": 13.626443, "lon": 100.6039674}, {"type": "node", "id": 13009115012, "lat": 13.6216853, "lon": 100.6002836}, {"type": "node", "id": 1688055221, "lat": 13.627186, "lon": 100.6054242}, {"type": "node", "id": 1688055224, "lat": 13.6275914, "lon": 100.6045286}, {"type": "node", "id": 1688055236, "lat": 13.6274244, "lon": 100.6055253}, {"type": "node", "id": 1688055264, "lat": 13.6278062, "lon": 100.6053977}, {"type": "node", "id": 1689131764, "lat": 13.6228708, "lon": 100.6058858}, {"type": "node", "id": 1689131769, "lat": 13.6230126, "lon": 100.6055681}, {"type": "node", "id": 1689131791, "lat": 13.623133, "lon": 100.6055376}, {"type": "node", "id": 1689131803, "lat": 13.6232783, "lon": 100.6060929}, {"type": "node", "id": 5259654634, "lat": 13.6268106, "lon": 100.605254}, {"type": "node", "id": 5259654643, "lat": 13.6260327, "lon": 100.6048962}, {"type": "node", "id": 5274810247, "lat": 13.6232813, "lon": 100.6056903}, {"type": "node", "id": 5283460857, "lat": 13.6230339, "lon": 100.6079922}, {"type": "node", "id": 5283460858, "lat": 13.622797, "lon": 100.6085351}, {"type": "node", "id": 5283460859, "lat": 13.6229747, "lon": 100.6086287}, {"type": "node", "id": 5283460860, "lat": 13.6230284, "lon": 100.6085167}, {"type": "node", "id": 5457526379, "lat": 13.6270419, "lon": 100.6107889}, {"type": "node", "id": 5457526380, "lat": 13.6268676, "lon": 100.6107447}, {"type": "node", "id": 5395096981, "lat": 13.6323687, "lon": 100.6050086}, {"type": "node", "id": 5395096982, "lat": 13.6321516, "lon": 100.6049444}, {"type": "node", "id": 5395096983, "lat": 13.6322121, "lon": 100.6052182}, {"type": "node", "id": 5395096984, "lat": 13.6324014, "lon": 100.6051678}, {"type": "node", "id": 10804647158, "lat": 13.6401208, "lon": 100.6003696}, {"type": "node", "id": 10804647159, "lat": 13.6410074, "lon": 100.6008915}, {"type": "node", "id": 10804647167, "lat": 13.6400653, "lon": 100.600513}, {"type": "node", "id": 10804647168, "lat": 13.6406421, "lon": 100.6008699}, {"type": "node", "id": 10804647169, "lat": 13.6405428, "lon": 100.6010398}, {"type": "node", "id": 10804647170, "lat": 13.6399661, "lon": 100.6006828}, {"type": "node", "id": 10804647171, "lat": 13.6409141, "lon": 100.6010233}, {"type": "node", "id": 10804647172, "lat": 13.6408064, "lon": 100.6012154}, {"type": "node", "id": 10804647173, "lat": 13.640595, "lon": 100.6010899}, {"type": "node", "id": 10804647174, "lat": 13.6407027, "lon": 100.6008978}, {"type": "node", "id": 10804647175, "lat": 13.6409519, "lon": 100.6009879}, {"type": "node", "id": 10804647176, "lat": 13.6400695, "lon": 100.6004656}, {"type": "node", "id": 3798503199, "lat": 13.6456736, "lon": 100.5999832}, {"type": "node", "id": 3798503200, "lat": 13.6468524, "lon": 100.5990403}, {"type": "node", "id": 3798503206, "lat": 13.6476065, "lon": 100.6000891}, {"type": "node", "id": 3798503208, "lat": 13.6478462, "lon": 100.5996721}, {"type": "node", "id": 4774945243, "lat": 13.6460675, "lon": 100.5990459}, {"type": "node", "id": 11618754884, "lat": 13.6472051, "lon": 100.5984744}, {"type": "node", "id": 11618754885, "lat": 13.6476888, "lon": 100.599604}, {"type": "node", "id": 11618754888, "lat": 13.6470097, "lon": 100.5997458}, {"type": "node", "id": 11618754889, "lat": 13.6468612, "lon": 100.6000189}, {"type": "node", "id": 11618754890, "lat": 13.6467594, "lon": 100.599947}, {"type": "node", "id": 11618754891, "lat": 13.6466786, "lon": 100.5999067}, {"type": "node", "id": 11618754893, "lat": 13.6462798, "lon": 100.6003976}, {"type": "node", "id": 11618754899, "lat": 13.646679, "lon": 100.5981756}, {"type": "node", "id": 11618754900, "lat": 13.6459937, "lon": 100.5991549}, {"type": "node", "id": 11618754901, "lat": 13.6476806, "lon": 100.6000036}, {"type": "node", "id": 12351548273, "lat": 13.6055469, "lon": 100.615402}, {"type": "node", "id": 12351548274, "lat": 13.6055906, "lon": 100.6154207}, {"type": "node", "id": 12351548275, "lat": 13.6055358, "lon": 100.6155566}, {"type": "node", "id": 12351548276, "lat": 13.605492, "lon": 100.6155379}, {"type": "node", "id": 12351548281, "lat": 13.6052666, "lon": 100.6162479}, {"type": "node", "id": 12351548282, "lat": 13.6052369, "lon": 100.6163122}, {"type": "node", "id": 12351548283, "lat": 13.6053083, "lon": 100.6163472}, {"type": "node", "id": 12351548284, "lat": 13.605338, "lon": 100.6162829}, {"type": "node", "id": 12351548285, "lat": 13.6054884, "lon": 100.6163205}, {"type": "node", "id": 12351548286, "lat": 13.6054555, "lon": 100.6164001}, {"type": "node", "id": 12351548287, "lat": 13.6053263, "lon": 100.6163435}, {"type": "node", "id": 12351548288, "lat": 13.6053593, "lon": 100.6162639}, {"type": "node", "id": 5262092026, "lat": 13.6078188, "lon": 100.622084}, {"type": "node", "id": 11403404956, "lat": 13.6072707, "lon": 100.6216516}, {"type": "node", "id": 11403404959, "lat": 13.6065305, "lon": 100.6223169}, {"type": "node", "id": 11403404960, "lat": 13.6062894, "lon": 100.6226117}, {"type": "node", "id": 11403404964, "lat": 13.6065025, "lon": 100.6228626}, {"type": "node", "id": 11403404965, "lat": 13.6069265, "lon": 100.623287}, {"type": "node", "id": 11403404966, "lat": 13.607212, "lon": 100.6229932}, {"type": "node", "id": 11403404967, "lat": 13.6071741, "lon": 100.6229225}, {"type": "node", "id": 11403404968, "lat": 13.6073943, "lon": 100.6226641}, {"type": "node", "id": 11403405969, "lat": 13.6073599, "lon": 100.6225862}, {"type": "node", "id": 12610203594, "lat": 13.6070889, "lon": 100.621634}, {"type": "node", "id": 12610203595, "lat": 13.6069068, "lon": 100.6218604}, {"type": "node", "id": 12610203596, "lat": 13.6071494, "lon": 100.6215585}, {"type": "node", "id": 5379764748, "lat": 13.6134586, "lon": 100.621038}, {"type": "node", "id": 5379764749, "lat": 13.6130283, "lon": 100.6213084}, {"type": "node", "id": 5379764750, "lat": 13.6129495, "lon": 100.6215551}, {"type": "node", "id": 5379764751, "lat": 13.6130119, "lon": 100.6215956}, {"type": "node", "id": 5379764752, "lat": 13.6129561, "lon": 100.6217511}, {"type": "node", "id": 5379764753, "lat": 13.6129134, "lon": 100.6217477}, {"type": "node", "id": 5379764754, "lat": 13.6128641, "lon": 100.6218998}, {"type": "node", "id": 5379764755, "lat": 13.6129758, "lon": 100.6220316}, {"type": "node", "id": 5379764756, "lat": 13.6130579, "lon": 100.6219369}, {"type": "node", "id": 5379764757, "lat": 13.6129692, "lon": 100.6218694}, {"type": "node", "id": 5379764758, "lat": 13.6130612, "lon": 100.62167}, {"type": "node", "id": 5379764759, "lat": 13.6132123, "lon": 100.6217511}, {"type": "node", "id": 10713549363, "lat": 13.6142167, "lon": 100.620657}, {"type": "node", "id": 10713549364, "lat": 13.6144695, "lon": 100.6207878}, {"type": "node", "id": 10713549365, "lat": 13.6142747, "lon": 100.6211866}, {"type": "node", "id": 10713549366, "lat": 13.6141551, "lon": 100.6211247}, {"type": "node", "id": 10713549367, "lat": 13.6141164, "lon": 100.6212041}, {"type": "node", "id": 10713549368, "lat": 13.6139832, "lon": 100.6211352}, {"type": "node", "id": 12972313238, "lat": 13.6133396, "lon": 100.6213827}, {"type": "node", "id": 5262097275, "lat": 13.6193977, "lon": 100.6220013}, {"type": "node", "id": 5300744542, "lat": 13.6190851, "lon": 100.6192739}, {"type": "node", "id": 5300744543, "lat": 13.6188903, "lon": 100.6196144}, {"type": "node", "id": 5363028789, "lat": 13.6204617, "lon": 100.6222557}, {"type": "node", "id": 5363028790, "lat": 13.6204291, "lon": 100.6224228}, {"type": "node", "id": 5363028791, "lat": 13.619467, "lon": 100.6218419}, {"type": "node", "id": 5936151331, "lat": 13.6187884, "lon": 100.6197807}, {"type": "node", "id": 5936151332, "lat": 13.6191561, "lon": 100.6199751}, {"type": "node", "id": 5936151334, "lat": 13.6194324, "lon": 100.6194954}, {"type": "node", "id": 4403956409, "lat": 13.6206325, "lon": 100.6297143}, {"type": "node", "id": 10173936965, "lat": 13.6210336, "lon": 100.6272665}, {"type": "node", "id": 10173936966, "lat": 13.6211082, "lon": 100.6270643}, {"type": "node", "id": 10173936967, "lat": 13.6212165, "lon": 100.6271066}, {"type": "node", "id": 10173936968, "lat": 13.6211809, "lon": 100.6272032}, {"type": "node", "id": 10173936970, "lat": 13.6215425, "lon": 100.6296263}, {"type": "node", "id": 10173936971, "lat": 13.6214759, "lon": 100.6297623}, {"type": "node", "id": 10173936983, "lat": 13.6216069, "lon": 100.6290909}, {"type": "node", "id": 10173936984, "lat": 13.621413, "lon": 100.628998}, {"type": "node", "id": 10173936985, "lat": 13.6213143, "lon": 100.6292159}, {"type": "node", "id": 10173936986, "lat": 13.6215082, "lon": 100.6293089}, {"type": "node", "id": 10175022754, "lat": 13.620783, "lon": 100.6297844}, {"type": "node", "id": 10175022755, "lat": 13.6207185, "lon": 100.6299312}, {"type": "node", "id": 10175022756, "lat": 13.6205428, "lon": 100.6298494}, {"type": "node", "id": 10175022757, "lat": 13.6206073, "lon": 100.6297026}, {"type": "node", "id": 10174990292, "lat": 13.6216668, "lon": 100.6308705}, {"type": "node", "id": 1340398419, "lat": 13.6121103, "lon": 100.6377791}, {"type": "node", "id": 8628721213, "lat": 13.6127609, "lon": 100.6381638}, {"type": "node", "id": 11125627149, "lat": 13.6131451, "lon": 100.6383914}, {"type": "node", "id": 11125627150, "lat": 13.6119667, "lon": 100.6376042}, {"type": "node", "id": 11125627151, "lat": 13.6119353, "lon": 100.6376412}, {"type": "node", "id": 11125627152, "lat": 13.6121913, "lon": 100.637843}, {"type": "node", "id": 11125627153, "lat": 13.6125252, "lon": 100.6380756}, {"type": "node", "id": 11125627154, "lat": 13.6128845, "lon": 100.6383159}, {"type": "node", "id": 11125627155, "lat": 13.6130657, "lon": 100.638433}, {"type": "node", "id": 11125627156, "lat": 13.6131675, "lon": 100.63851}, {"type": "node", "id": 11125627157, "lat": 13.6132109, "lon": 100.6385439}, {"type": "node", "id": 11125627158, "lat": 13.6133247, "lon": 100.6386456}, {"type": "node", "id": 11125627159, "lat": 13.6133538, "lon": 100.6385896}, {"type": "node", "id": 11125627160, "lat": 13.612916, "lon": 100.6382697}, {"type": "node", "id": 11125627161, "lat": 13.612358, "lon": 100.6378862}, {"type": "node", "id": 12972774006, "lat": 13.6119776, "lon": 100.6376494}, {"type": "node", "id": 11945204244, "lat": 13.6199178, "lon": 100.6490902}, {"type": "node", "id": 11945204245, "lat": 13.6197203, "lon": 100.6495757}, {"type": "node", "id": 11945204246, "lat": 13.6195425, "lon": 100.6500067}, {"type": "node", "id": 11945204255, "lat": 13.6215471, "lon": 100.6498895}, {"type": "node", "id": 11945204256, "lat": 13.6208194, "lon": 100.6494862}, {"type": "node", "id": 12484725559, "lat": 13.6183651, "lon": 100.6467748}, {"type": "node", "id": 12484725560, "lat": 13.6182704, "lon": 100.6470635}, {"type": "node", "id": 12484729742, "lat": 13.6176118, "lon": 100.6497662}, {"type": "node", "id": 12484729743, "lat": 13.6176296, "lon": 100.6496462}, {"type": "node", "id": 12484729744, "lat": 13.6178825, "lon": 100.6496808}, {"type": "node", "id": 12484729745, "lat": 13.6178963, "lon": 100.6495731}, {"type": "node", "id": 12484729746, "lat": 13.617031, "lon": 100.649443}, {"type": "node", "id": 12484729747, "lat": 13.6164995, "lon": 100.6493312}, {"type": "node", "id": 12484729748, "lat": 13.6164798, "lon": 100.6494267}, {"type": "node", "id": 12484729749, "lat": 13.6167722, "lon": 100.6494755}, {"type": "node", "id": 12484729750, "lat": 13.6167425, "lon": 100.6496218}, {"type": "node", "id": 12484729766, "lat": 13.6178571, "lon": 100.6495672}, {"type": "node", "id": 12484729767, "lat": 13.6178313, "lon": 100.6496738}, {"type": "node", "id": 12484729780, "lat": 13.6183138, "lon": 100.6484293}, {"type": "node", "id": 12484729781, "lat": 13.6182347, "lon": 100.6486733}, {"type": "node", "id": 12484729782, "lat": 13.6174603, "lon": 100.6484212}, {"type": "node", "id": 12484729783, "lat": 13.6175334, "lon": 100.6482301}, {"type": "node", "id": 12484729784, "lat": 13.6180411, "lon": 100.6484029}, {"type": "node", "id": 12484729785, "lat": 13.6180984, "lon": 100.6482037}, {"type": "node", "id": 12484729786, "lat": 13.6183592, "lon": 100.648285}, {"type": "node", "id": 12484729796, "lat": 13.6187295, "lon": 100.6472921}, {"type": "node", "id": 12484729797, "lat": 13.6186055, "lon": 100.6472473}, {"type": "node", "id": 12484729798, "lat": 13.6185526, "lon": 100.6474022}, {"type": "node", "id": 12484729799, "lat": 13.6186769, "lon": 100.6474459}, {"type": "node", "id": 12484763601, "lat": 13.6186011, "lon": 100.647256}, {"type": "node", "id": 12484763603, "lat": 13.618789, "lon": 100.6471232}, {"type": "node", "id": 12484763605, "lat": 13.618663, "lon": 100.6472031}, {"type": "node", "id": 12484763606, "lat": 13.6187004, "lon": 100.6470917}, {"type": "node", "id": 12484763607, "lat": 13.6180545, "lon": 100.6483563}, {"type": "node", "id": 12484763608, "lat": 13.6188483, "lon": 100.6469465}, {"type": "node", "id": 12484763609, "lat": 13.6183516, "lon": 100.64677}, {"type": "node", "id": 12484763610, "lat": 13.6182549, "lon": 100.647058}, {"type": "node", "id": 13069298949, "lat": 13.6197398, "lon": 100.6495279}, {"type": "node", "id": 8606214137, "lat": 13.6198105, "lon": 100.6511433}, {"type": "node", "id": 11945204247, "lat": 13.6192659, "lon": 100.6506734}, {"type": "node", "id": 11945204248, "lat": 13.6192501, "lon": 100.650897}, {"type": "node", "id": 11945204249, "lat": 13.6198904, "lon": 100.6509673}, {"type": "node", "id": 11945204250, "lat": 13.6202426, "lon": 100.6511166}, {"type": "node", "id": 11945204251, "lat": 13.6205345, "lon": 100.6504407}, {"type": "node", "id": 11945204252, "lat": 13.6207338, "lon": 100.6504736}, {"type": "node", "id": 11945204253, "lat": 13.6207789, "lon": 100.6503084}, {"type": "node", "id": 11945204254, "lat": 13.6213461, "lon": 100.6505071}, {"type": "node", "id": 1688055013, "lat": 13.6229423, "lon": 100.6166371}, {"type": "node", "id": 1688055186, "lat": 13.6267111, "lon": 100.6114214}, {"type": "node", "id": 1688055190, "lat": 13.6268329, "lon": 100.6113735}, {"type": "node", "id": 1688055194, "lat": 13.6268302, "lon": 100.6111336}, {"type": "node", "id": 1688055197, "lat": 13.6268713, "lon": 100.6114064}, {"type": "node", "id": 1688055198, "lat": 13.6268683, "lon": 100.6112898}, {"type": "node", "id": 1688055200, "lat": 13.6269143, "lon": 100.6112896}, {"type": "node", "id": 1688055202, "lat": 13.6269238, "lon": 100.6114088}, {"type": "node", "id": 1688055206, "lat": 13.6269545, "lon": 100.6113407}, {"type": "node", "id": 1688055214, "lat": 13.6270221, "lon": 100.6116388}, {"type": "node", "id": 1688055219, "lat": 13.627121, "lon": 100.611254}, {"type": "node", "id": 1688064315, "lat": 13.6228183, "lon": 100.6154253}, {"type": "node", "id": 5274780082, "lat": 13.6236051, "lon": 100.6158301}, {"type": "node", "id": 5274780083, "lat": 13.6232481, "lon": 100.6166896}, {"type": "node", "id": 5274780084, "lat": 13.6229915, "lon": 100.6167376}, {"type": "node", "id": 5274780085, "lat": 13.6227603, "lon": 100.616299}, {"type": "node", "id": 5274780086, "lat": 13.6228608, "lon": 100.615952}, {"type": "node", "id": 5274780087, "lat": 13.6226587, "lon": 100.6158437}, {"type": "node", "id": 5395096988, "lat": 13.626822, "lon": 100.6109274}, {"type": "node", "id": 5457526381, "lat": 13.6269579, "lon": 100.6111752}, {"type": "node", "id": 5457526382, "lat": 13.6268347, "lon": 100.6115725}, {"type": "node", "id": 5457526383, "lat": 13.6268502, "lon": 100.6115079}, {"type": "node", "id": 5457526384, "lat": 13.6266977, "lon": 100.6114589}, {"type": "node", "id": 8359782831, "lat": 13.6267573, "lon": 100.611403}, {"type": "node", "id": 11522430049, "lat": 13.6273403, "lon": 100.6220225}, {"type": "node", "id": 11522430050, "lat": 13.6272346, "lon": 100.6222296}, {"type": "node", "id": 11522430051, "lat": 13.6270967, "lon": 100.6221551}, {"type": "node", "id": 11522430052, "lat": 13.6272024, "lon": 100.621948}, {"type": "node", "id": 11522430059, "lat": 13.6272592, "lon": 100.6223121}, {"type": "node", "id": 11522430060, "lat": 13.6269427, "lon": 100.6221363}, {"type": "node", "id": 11522430061, "lat": 13.6268424, "lon": 100.6223275}, {"type": "node", "id": 11522430062, "lat": 13.627159, "lon": 100.6225032}, {"type": "node", "id": 11522430063, "lat": 13.6271286, "lon": 100.6225426}, {"type": "node", "id": 11522430064, "lat": 13.626812, "lon": 100.6223668}, {"type": "node", "id": 11522430065, "lat": 13.6267117, "lon": 100.6225581}, {"type": "node", "id": 11522430066, "lat": 13.6270283, "lon": 100.6227338}, {"type": "node", "id": 11522430067, "lat": 13.6270083, "lon": 100.6227925}, {"type": "node", "id": 11522430068, "lat": 13.6266917, "lon": 100.6226167}, {"type": "node", "id": 11522471369, "lat": 13.6265915, "lon": 100.6228079}, {"type": "node", "id": 11522471370, "lat": 13.6269081, "lon": 100.6229836}, {"type": "node", "id": 11522471371, "lat": 13.6269183, "lon": 100.6221107}, {"type": "node", "id": 11522471372, "lat": 13.6266017, "lon": 100.6219349}, {"type": "node", "id": 11522471373, "lat": 13.6265015, "lon": 100.6221261}, {"type": "node", "id": 11522471374, "lat": 13.6268181, "lon": 100.6223018}, {"type": "node", "id": 11522471375, "lat": 13.6267876, "lon": 100.6223412}, {"type": "node", "id": 11522471376, "lat": 13.626471, "lon": 100.6221654}, {"type": "node", "id": 11522471377, "lat": 13.6263708, "lon": 100.6223567}, {"type": "node", "id": 11522471378, "lat": 13.6266874, "lon": 100.6225324}, {"type": "node", "id": 11522471379, "lat": 13.6266673, "lon": 100.6225911}, {"type": "node", "id": 11522471380, "lat": 13.6263508, "lon": 100.6224153}, {"type": "node", "id": 11522471381, "lat": 13.6262505, "lon": 100.6226065}, {"type": "node", "id": 11522471382, "lat": 13.6265671, "lon": 100.6227822}, {"type": "node", "id": 5260116224, "lat": 13.6336014, "lon": 100.6114463}, {"type": "node", "id": 5260116225, "lat": 13.6336451, "lon": 100.6115459}, {"type": "node", "id": 5260116226, "lat": 13.6337936, "lon": 100.6113096}, {"type": "node", "id": 5260116227, "lat": 13.633508, "lon": 100.6110543}, {"type": "node", "id": 5260116228, "lat": 13.6332685, "lon": 100.611401}, {"type": "node", "id": 5260116229, "lat": 13.6333414, "lon": 100.611508}, {"type": "node", "id": 5260116230, "lat": 13.633387, "lon": 100.6115483}, {"type": "node", "id": 5260116231, "lat": 13.6334469, "lon": 100.6115603}, {"type": "node", "id": 5260116232, "lat": 13.6335017, "lon": 100.6115966}, {"type": "node", "id": 8301955690, "lat": 13.6336117, "lon": 100.6115915}, {"type": "node", "id": 5284370923, "lat": 13.6330102, "lon": 100.6182669}, {"type": "node", "id": 5284370924, "lat": 13.6329075, "lon": 100.6183856}, {"type": "node", "id": 5284370925, "lat": 13.6328321, "lon": 100.6183484}, {"type": "node", "id": 5284370926, "lat": 13.6329158, "lon": 100.6182078}, {"type": "node", "id": 11188322730, "lat": 13.6311747, "lon": 100.6211413}, {"type": "node", "id": 11188322731, "lat": 13.6311058, "lon": 100.62128}, {"type": "node", "id": 11188322732, "lat": 13.6318763, "lon": 100.6216851}, {"type": "node", "id": 11188322733, "lat": 13.6319453, "lon": 100.6215462}, {"type": "node", "id": 11188340226, "lat": 13.6284809, "lon": 100.6239121}, {"type": "node", "id": 11188340229, "lat": 13.6283879, "lon": 100.6238645}, {"type": "node", "id": 11522402724, "lat": 13.6286428, "lon": 100.6228907}, {"type": "node", "id": 11522402725, "lat": 13.6285872, "lon": 100.6229996}, {"type": "node", "id": 11522402726, "lat": 13.6284544, "lon": 100.6229279}, {"type": "node", "id": 11522402727, "lat": 13.6285099, "lon": 100.622819}, {"type": "node", "id": 11522402728, "lat": 13.6284531, "lon": 100.6229183}, {"type": "node", "id": 11522402729, "lat": 13.6283323, "lon": 100.6228509}, {"type": "node", "id": 11522402730, "lat": 13.6283825, "lon": 100.6227557}, {"type": "node", "id": 11522402731, "lat": 13.6285033, "lon": 100.6228232}, {"type": "node", "id": 12040244478, "lat": 13.6319582, "lon": 100.6184278}, {"type": "node", "id": 12040244479, "lat": 13.6317231, "lon": 100.6182941}, {"type": "node", "id": 12040244480, "lat": 13.631816, "lon": 100.6181212}, {"type": "node", "id": 12040244481, "lat": 13.6319732, "lon": 100.6182106}, {"type": "node", "id": 12040244482, "lat": 13.6319261, "lon": 100.6182983}, {"type": "node", "id": 12040244483, "lat": 13.632004, "lon": 100.6183426}, {"type": "node", "id": 12040244491, "lat": 13.632524, "lon": 100.6188401}, {"type": "node", "id": 12040244492, "lat": 13.6327275, "lon": 100.6189668}, {"type": "node", "id": 12040244493, "lat": 13.6326427, "lon": 100.619111}, {"type": "node", "id": 12040244494, "lat": 13.6324392, "lon": 100.6189843}, {"type": "node", "id": 12040244495, "lat": 13.6327364, "lon": 100.6189735}, {"type": "node", "id": 12040244496, "lat": 13.6329399, "lon": 100.6191002}, {"type": "node", "id": 12040244497, "lat": 13.6328551, "lon": 100.6192444}, {"type": "node", "id": 12040244498, "lat": 13.6326516, "lon": 100.6191177}, {"type": "node", "id": 12040244499, "lat": 13.6329616, "lon": 100.6191097}, {"type": "node", "id": 12040244500, "lat": 13.6331652, "lon": 100.6192365}, {"type": "node", "id": 12040244501, "lat": 13.6330804, "lon": 100.6193806}, {"type": "node", "id": 12040244502, "lat": 13.6328769, "lon": 100.6192539}, {"type": "node", "id": 12040244503, "lat": 13.6331835, "lon": 100.6192495}, {"type": "node", "id": 12040244504, "lat": 13.633387, "lon": 100.6193763}, {"type": "node", "id": 12040244505, "lat": 13.6333022, "lon": 100.6195204}, {"type": "node", "id": 12040244506, "lat": 13.6330987, "lon": 100.6193937}, {"type": "node", "id": 12040244603, "lat": 13.6334253, "lon": 100.6192707}, {"type": "node", "id": 12040244604, "lat": 13.6334984, "lon": 100.6191467}, {"type": "node", "id": 12040244605, "lat": 13.6336486, "lon": 100.6192442}, {"type": "node", "id": 12040244606, "lat": 13.6336525, "lon": 100.6192178}, {"type": "node", "id": 12040244607, "lat": 13.6336979, "lon": 100.6190186}, {"type": "node", "id": 12040244608, "lat": 13.6337928, "lon": 100.6190511}, {"type": "node", "id": 12040244609, "lat": 13.6337592, "lon": 100.6192097}, {"type": "node", "id": 12040244610, "lat": 13.6336802, "lon": 100.6194353}, {"type": "node", "id": 12042131301, "lat": 13.6311353, "lon": 100.6200515}, {"type": "node", "id": 12042131302, "lat": 13.6307641, "lon": 100.6198091}, {"type": "node", "id": 12042131303, "lat": 13.6306569, "lon": 100.619983}, {"type": "node", "id": 12042131304, "lat": 13.6310282, "lon": 100.6202253}, {"type": "node", "id": 12042131322, "lat": 13.6310695, "lon": 100.6200078}, {"type": "node", "id": 12042131323, "lat": 13.6308895, "lon": 100.6198903}, {"type": "node", "id": 2306119971, "lat": 13.6252199, "lon": 100.6298779}, {"type": "node", "id": 2306119973, "lat": 13.6250463, "lon": 100.6297906}, {"type": "node", "id": 2306119975, "lat": 13.624791, "lon": 100.6303177}, {"type": "node", "id": 2306119977, "lat": 13.6249511, "lon": 100.6304}, {"type": "node", "id": 5936272541, "lat": 13.621861, "lon": 100.6275897}, {"type": "node", "id": 7929860583, "lat": 13.624047, "lon": 100.6282647}, {"type": "node", "id": 10173936941, "lat": 13.6261421, "lon": 100.6289878}, {"type": "node", "id": 10173936942, "lat": 13.6252349, "lon": 100.6287013}, {"type": "node", "id": 10173936943, "lat": 13.6252019, "lon": 100.6288091}, {"type": "node", "id": 10173936944, "lat": 13.6259745, "lon": 100.6290587}, {"type": "node", "id": 10173936945, "lat": 13.6259355, "lon": 100.6291603}, {"type": "node", "id": 10173936946, "lat": 13.6260673, "lon": 100.6292066}, {"type": "node", "id": 10173936947, "lat": 13.6251675, "lon": 100.628656}, {"type": "node", "id": 10173936948, "lat": 13.6242647, "lon": 100.6283287}, {"type": "node", "id": 10173936949, "lat": 13.6242321, "lon": 100.628424}, {"type": "node", "id": 10173936950, "lat": 13.6249874, "lon": 100.6286976}, {"type": "node", "id": 10173936951, "lat": 13.6249559, "lon": 100.6287898}, {"type": "node", "id": 10173936952, "lat": 13.6251034, "lon": 100.6288433}, {"type": "node", "id": 10173936953, "lat": 13.6241067, "lon": 100.6280873}, {"type": "node", "id": 10173936954, "lat": 13.6233017, "lon": 100.6278006}, {"type": "node", "id": 10173936955, "lat": 13.6232633, "lon": 100.6279147}, {"type": "node", "id": 10173936956, "lat": 13.6239692, "lon": 100.6281663}, {"type": "node", "id": 10173936957, "lat": 13.6239479, "lon": 100.6282294}, {"type": "node", "id": 10173936958, "lat": 13.6228172, "lon": 100.627788}, {"type": "node", "id": 10173936959, "lat": 13.6220461, "lon": 100.6275605}, {"type": "node", "id": 10173936960, "lat": 13.6220784, "lon": 100.6274448}, {"type": "node", "id": 10173936961, "lat": 13.6219779, "lon": 100.6274152}, {"type": "node", "id": 10173936962, "lat": 13.6219209, "lon": 100.6276198}, {"type": "node", "id": 10173936963, "lat": 13.6227925, "lon": 100.6278768}, {"type": "node", "id": 10173936964, "lat": 13.6219, "lon": 100.6274841}, {"type": "node", "id": 10173936969, "lat": 13.6220132, "lon": 100.6298705}, {"type": "node", "id": 10173936972, "lat": 13.6219465, "lon": 100.6300066}, {"type": "node", "id": 10174990282, "lat": 13.6228423, "lon": 100.6305148}, {"type": "node", "id": 10174990285, "lat": 13.6227771, "lon": 100.630478}, {"type": "node", "id": 10559408608, "lat": 13.6258703, "lon": 100.6298307}, {"type": "node", "id": 10559413309, "lat": 13.625695, "lon": 100.6297606}, {"type": "node", "id": 10559413310, "lat": 13.6256412, "lon": 100.6299033}, {"type": "node", "id": 10559413311, "lat": 13.6258164, "lon": 100.6299734}, {"type": "node", "id": 2306121848, "lat": 13.624338, "lon": 100.6325967}, {"type": "node", "id": 2306121849, "lat": 13.6242051, "lon": 100.6325377}, {"type": "node", "id": 2306121850, "lat": 13.6240878, "lon": 100.6328355}, {"type": "node", "id": 2306121851, "lat": 13.6242103, "lon": 100.6328945}, {"type": "node", "id": 10174990283, "lat": 13.6226709, "lon": 100.6308362}, {"type": "node", "id": 10174990284, "lat": 13.6225922, "lon": 100.6308252}, {"type": "node", "id": 10174990290, "lat": 13.622277, "lon": 100.6307857}, {"type": "node", "id": 10174990291, "lat": 13.6221507, "lon": 100.6310861}, {"type": "node", "id": 10174990293, "lat": 13.6218085, "lon": 100.6305337}, {"type": "node", "id": 10174990294, "lat": 13.6219839, "lon": 100.6306117}, {"type": "node", "id": 10174990295, "lat": 13.6219049, "lon": 100.6307995}, {"type": "node", "id": 10174990296, "lat": 13.6220608, "lon": 100.6308689}, {"type": "node", "id": 10174990297, "lat": 13.6221243, "lon": 100.6307177}, {"type": "node", "id": 10559408592, "lat": 13.6251546, "lon": 100.631197}, {"type": "node", "id": 10559408593, "lat": 13.6248123, "lon": 100.6310283}, {"type": "node", "id": 10559408594, "lat": 13.6247466, "lon": 100.6311712}, {"type": "node", "id": 10559408595, "lat": 13.6245605, "lon": 100.6310788}, {"type": "node", "id": 10559408596, "lat": 13.6245399, "lon": 100.6311234}, {"type": "node", "id": 10559408597, "lat": 13.6243546, "lon": 100.6310329}, {"type": "node", "id": 10559408598, "lat": 13.6242807, "lon": 100.6311919}, {"type": "node", "id": 10559408599, "lat": 13.6249947, "lon": 100.6315431}, {"type": "node", "id": 10559413313, "lat": 13.6249601, "lon": 100.6315261}, {"type": "node", "id": 10559413314, "lat": 13.6251157, "lon": 100.6312793}, {"type": "node", "id": 10559413316, "lat": 13.6248727, "lon": 100.6310559}, {"type": "node", "id": 10559413317, "lat": 13.6247841, "lon": 100.63109}, {"type": "node", "id": 10559413321, "lat": 13.6244548, "lon": 100.6310819}, {"type": "node", "id": 10565695247, "lat": 13.6249602, "lon": 100.63156}, {"type": "node", "id": 10565695248, "lat": 13.6249077, "lon": 100.6316599}, {"type": "node", "id": 10565695249, "lat": 13.6248043, "lon": 100.6316024}, {"type": "node", "id": 10565695250, "lat": 13.6247856, "lon": 100.6316379}, {"type": "node", "id": 10565695251, "lat": 13.6247189, "lon": 100.6316009}, {"type": "node", "id": 10565695252, "lat": 13.62479, "lon": 100.6314654}, {"type": "node", "id": 11188340227, "lat": 13.6284189, "lon": 100.6240403}, {"type": "node", "id": 11188340228, "lat": 13.628326, "lon": 100.6239928}, {"type": "node", "id": 5261461517, "lat": 13.6384171, "lon": 100.6202249}, {"type": "node", "id": 5261461518, "lat": 13.6401342, "lon": 100.6226529}, {"type": "node", "id": 5261461519, "lat": 13.6376012, "lon": 100.6211193}, {"type": "node", "id": 5261461520, "lat": 13.6405637, "lon": 100.6215204}, {"type": "node", "id": 5261462160, "lat": 13.6403763, "lon": 100.6220144}, {"type": "node", "id": 8274183506, "lat": 13.6391802, "lon": 100.6219206}, {"type": "node", "id": 8274183507, "lat": 13.6390967, "lon": 100.6221558}, {"type": "node", "id": 8276982473, "lat": 13.6380129, "lon": 100.6209657}, {"type": "node", "id": 8276982474, "lat": 13.6377353, "lon": 100.6208468}, {"type": "node", "id": 8277132298, "lat": 13.6392233, "lon": 100.6206553}, {"type": "node", "id": 8277132299, "lat": 13.6389286, "lon": 100.6204895}, {"type": "node", "id": 8277132300, "lat": 13.640412, "lon": 100.6214122}, {"type": "node", "id": 8277132301, "lat": 13.6397796, "lon": 100.6209894}, {"type": "node", "id": 8277132302, "lat": 13.6395331, "lon": 100.6208288}, {"type": "node", "id": 8277132303, "lat": 13.6401247, "lon": 100.6212135}, {"type": "node", "id": 1702463494, "lat": 13.6476304, "lon": 100.6383745}, {"type": "node", "id": 1702463496, "lat": 13.6477781, "lon": 100.6384938}, {"type": "node", "id": 1702463506, "lat": 13.6478019, "lon": 100.6381506}, {"type": "node", "id": 8279538722, "lat": 13.649959, "lon": 100.6237959}, {"type": "node", "id": 8279538723, "lat": 13.64989, "lon": 100.6239643}, {"type": "node", "id": 8279538724, "lat": 13.6498005, "lon": 100.6239255}, {"type": "node", "id": 8279538725, "lat": 13.6498696, "lon": 100.6237571}, {"type": "node", "id": 8275809418, "lat": 13.6497958, "lon": 100.6255779}, {"type": "node", "id": 8275809419, "lat": 13.6497255, "lon": 100.6257436}, {"type": "node", "id": 8275809420, "lat": 13.6495099, "lon": 100.6256468}, {"type": "node", "id": 8275809421, "lat": 13.6495803, "lon": 100.625481}, {"type": "node", "id": 8276021555, "lat": 13.649195, "lon": 100.6264477}, {"type": "node", "id": 8276021556, "lat": 13.649153, "lon": 100.6265557}, {"type": "node", "id": 8276021557, "lat": 13.6491004, "lon": 100.6265337}, {"type": "node", "id": 8276021558, "lat": 13.6491424, "lon": 100.6264257}, {"type": "node", "id": 8276021559, "lat": 13.6490005, "lon": 100.6263138}, {"type": "node", "id": 8276021560, "lat": 13.6489848, "lon": 100.6263595}, {"type": "node", "id": 8276021561, "lat": 13.6489349, "lon": 100.6263413}, {"type": "node", "id": 8276021562, "lat": 13.6489224, "lon": 100.6263778}, {"type": "node", "id": 8276021563, "lat": 13.6488975, "lon": 100.6263687}, {"type": "node", "id": 8276021564, "lat": 13.6488865, "lon": 100.6264007}, {"type": "node", "id": 8276021565, "lat": 13.6489099, "lon": 100.6264092}, {"type": "node", "id": 8276021566, "lat": 13.648895, "lon": 100.6264526}, {"type": "node", "id": 8276021567, "lat": 13.6489825, "lon": 100.6264846}, {"type": "node", "id": 8276021568, "lat": 13.6489691, "lon": 100.6265237}, {"type": "node", "id": 8276021569, "lat": 13.6488223, "lon": 100.6264701}, {"type": "node", "id": 8276021570, "lat": 13.6488901, "lon": 100.6262735}, {"type": "node", "id": 1702463509, "lat": 13.6479464, "lon": 100.638278}]}