{"version": 0.6, "generator": "Overpass API 0.7.62.8 e802775f", "osm3s": {"timestamp_osm_base": "2025-11-20T03:23:29Z", "copyright": "The data included in this document is from www.openstreetmap.org. The data is made available under ODbL."}, "elements": [{"type": "node", "id": 971363511, "lat": 13.9389596, "lon": 100.5843484, "tags": {"description": "Rooms with bath, TV and AC 500 Baht = 11 Euro Hotel is like a youth hostel With swimming pool and restaurant. Very quiet! Parking inside the hotel compound.", "email": "info@we-train.co.th", "name": "We Train Intl. House", "smoking": "no", "tourism": "hostel", "website": "www.we-train.co.th"}}, {"type": "node", "id": 1357415673, "lat": 13.9113154, "lon": 100.5818813, "tags": {"amenity": "restaurant", "cuisine": "thai", "name": "U & Me"}}, {"type": "node", "id": 1357415697, "lat": 13.9110863, "lon": 100.5820368, "tags": {"name": "Erewan Airport Hotel", "source": "GPS", "tourism": "hotel"}}, {"type": "node", "id": 2119804529, "lat": 13.948238, "lon": 100.5734335, "tags": {"amenity": "place_of_worship", "denomination": "thai_mahanikaya", "name": "\u0e27\u0e31\u0e14\u0e04\u0e25\u0e2d\u0e07\u0e1a\u0e49\u0e32\u0e19\u0e43\u0e2b\u0e21\u0e48", "name:en": "Wat Khlong Ban Mai", "name:th": "\u0e27\u0e31\u0e14\u0e04\u0e25\u0e2d\u0e07\u0e1a\u0e49\u0e32\u0e19\u0e43\u0e2b\u0e21\u0e48", "old_name:th": "\u0e27\u0e31\u0e14\u0e2a\u0e31\u0e19\u0e15\u0e34\u0e1a\u0e38\u0e0d\u0e21\u0e32\u0e23\u0e32\u0e21", "religion": "buddhist", "wikidata": "Q100698782", "wikipedia": "th:\u0e27\u0e31\u0e14\u0e04\u0e25\u0e2d\u0e07\u0e1a\u0e49\u0e32\u0e19\u0e43\u0e2b\u0e21\u0e48"}}, {"type": "node", "id": 2411891456, "lat": 13.9322721, "lon": 100.5550515, "tags": {"description": "\u0e1e\u0e23\u0e30\u0e23\u0e32\u0e0a\u0e32\u0e19\u0e38\u0e2a\u0e32\u0e27\u0e23\u0e35\u0e22\u0e4c\u0e2a\u0e21\u0e40\u0e14\u0e47\u0e08\u0e1e\u0e23\u0e30\u0e28\u0e23\u0e35\u0e19\u0e04\u0e23\u0e34\u0e19\u0e17\u0e23\u0e32\u0e1a\u0e23\u0e21\u0e23\u0e32\u0e0a\u0e0a\u0e19\u0e19\u0e35; Statue of Princess Srinagarindra", "historic": "memorial"}}, {"type": "node", "id": 2523582170, "lat": 13.9321535, "lon": 100.5548934, "tags": {"description": "Commemorative plaque", "historic": "memorial"}}, {"type": "node", "id": 2623116711, "lat": 13.9124664, "lon": 100.5957166, "tags": {"amenity": "restaurant"}}, {"type": "node", "id": 3431296277, "lat": 13.9145066, "lon": 100.5501676, "tags": {"amenity": "cafe", "brand": "Starbucks", "brand:wikidata": "Q37158", "brand:wikipedia": "en:Starbucks", "cuisine": "coffee_shop", "name": "Starbucks", "name:en": "Dunkin' Donuts", "name:it": "Dunkin' Donuts", "name:th": "\u0e2a\u0e15\u0e32\u0e23\u0e4c\u0e1a\u0e31\u0e04\u0e2a\u0e4c", "official_name": "Starbucks Coffee", "shop": "coffee", "smoking": "no", "takeaway": "yes", "website": "https://www.starbucks.com/"}}, {"type": "node", "id": 4187514098, "lat": 13.925718, "lon": 100.5984632, "tags": {"name": "Thip Mension", "tourism": "hotel"}}, {"type": "node", "id": 4224966391, "lat": 13.9235833, "lon": 100.5987473, "tags": {"addr:housenumber": "61", "addr:street": "\u0e16\u0e19\u0e19\u0e2a\u0e23\u0e07\u0e1b\u0e23\u0e30\u0e20\u0e32", "internet_access": "wlan", "name": "Phoom House", "phone": "+6625663216", "tourism": "hotel"}}, {"type": "node", "id": 4250026690, "lat": 13.9168495, "lon": 100.5842641, "tags": {"name": "Mon Lodge and Yoga Studio ", "tourism": "hotel"}}, {"type": "node", "id": 4270871690, "lat": 13.9228476, "lon": 100.596954, "tags": {"name": "K.D.M Hostel", "tourism": "hostel"}}, {"type": "node", "id": 4330995491, "lat": 13.9253325, "lon": 100.5986477, "tags": {"amenity": "restaurant", "cuisine": "asian", "name": "Krua Wan Jeab", "opening_hours": "Mo-Su 09:20-21:30", "phone": "081-387-5547"}}, {"type": "node", "id": 4362332292, "lat": 13.9466654, "lon": 100.5664351, "tags": {"amenity": "cafe"}}, {"type": "node", "id": 4580611302, "lat": 13.9243536, "lon": 100.5985902, "tags": {"amenity": "cafe", "cuisine": "breakfast;coffee_shop", "internet_access": "wlan", "name:en": "Iyen coffee"}}, {"type": "node", "id": 4580624792, "lat": 13.925223, "lon": 100.59871, "tags": {"amenity": "cafe", "name:en": "Street coffe"}}, {"type": "node", "id": 4580876793, "lat": 13.9240741, "lon": 100.5967528, "tags": {"amenity": "restaurant", "cuisine": "thai"}}, {"type": "node", "id": 4593858289, "lat": 13.9232619, "lon": 100.5969672, "tags": {"internet_access": "wlan", "name": "Zleep63 Hostel", "name:en": "Zleep63 Hostel", "name:th": "Zleep63 Hostel", "tourism": "hostel"}}, {"type": "node", "id": 4611805789, "lat": 13.9233325, "lon": 100.5968282, "tags": {"name:en": "Zleep63", "tourism": "hotel"}}, {"type": "node", "id": 4621628889, "lat": 13.9462182, "lon": 100.5552051, "tags": {"amenity": "restaurant", "cuisine": "international", "name:en": "Pata Plantation", "opening_hours": "Tu-Su 09:00-21:00"}}, {"type": "node", "id": 4702925092, "lat": 13.922504, "lon": 100.581298, "tags": {"addr:postcode": "10210", "addr:street": "\u0e16\u0e19\u0e19\u0e1b\u0e23\u0e30\u0e0a\u0e32\u0e2d\u0e38\u0e17\u0e34\u0e28", "name": "\u0e2b\u0e21\u0e39\u0e48\u0e1a\u0e49\u0e32\u0e19\u0e1b\u0e34\u0e48\u0e19\u0e17\u0e2d\u0e07", "name:th": "\u0e2b\u0e21\u0e39\u0e48\u0e1a\u0e49\u0e32\u0e19\u0e1b\u0e34\u0e48\u0e19\u0e17\u0e2d\u0e07", "tourism": "information"}}, {"type": "node", "id": 4702955891, "lat": 13.9336481, "lon": 100.5665922, "tags": {"addr:housenumber": "\u0e0a\u0e31\u0e49\u0e194\u0e2b\u0e49\u0e2d\u0e07\u0e02\u0e27\u0e32\u0e2a\u0e38\u0e14", "name": "\u0e41\u0e1f\u0e25\u0e15\u0e1e\u0e35\u0e48\u0e15\u0e38\u0e4a", "name:th": "\u0e41\u0e1f\u0e25\u0e15\u0e1e\u0e35\u0e48\u0e15\u0e38\u0e4a", "tourism": "hostel"}}, {"type": "node", "id": 4702957996, "lat": 13.9160793, "lon": 100.5838677, "tags": {"name": "\u0e2a\u0e35\u0e48\u0e41\u0e22\u0e01\u0e28\u0e34\u0e23\u0e34\u0e2a\u0e38\u0e02", "name:th": "\u0e2a\u0e35\u0e48\u0e41\u0e22\u0e01\u0e28\u0e34\u0e23\u0e34\u0e2a\u0e38\u0e02", "tourism": "information"}}, {"type": "node", "id": 4702965190, "lat": 13.9235099, "lon": 100.5850733, "tags": {"addr:postcode": "10210", "addr:street": "\u0e16\u0e19\u0e19\u0e2a\u0e23\u0e07\u0e1b\u0e23\u0e30\u0e20\u0e32", "name": "\u0e17\u0e32\u0e07\u0e40\u0e02\u0e49\u0e32\u0e2b\u0e21\u0e39\u0e48\u0e1a\u0e49\u0e32\u0e19\u0e23\u0e34\u0e21\u0e2a\u0e27\u0e19\u0e1f\u0e49\u0e32\u0e43\u0e2a", "name:th": "\u0e17\u0e32\u0e07\u0e40\u0e02\u0e49\u0e32\u0e2b\u0e21\u0e39\u0e48\u0e1a\u0e49\u0e32\u0e19\u0e23\u0e34\u0e21\u0e2a\u0e27\u0e19\u0e1f\u0e49\u0e32\u0e43\u0e2a", "tourism": "attraction"}}, {"type": "node", "id": 4702965589, "lat": 13.924503, "lon": 100.5822775, "tags": {"addr:street": "\u0e16\u0e19\u0e19\u0e1b\u0e23\u0e30\u0e0a\u0e32\u0e2d\u0e38\u0e17\u0e34\u0e28", "name": "\u0e2b\u0e21\u0e39\u0e48\u0e1a\u0e49\u0e32\u0e19\u0e01\u0e24\u0e15\u0e34\u0e01\u0e32", "name:th": "\u0e2b\u0e21\u0e39\u0e48\u0e1a\u0e49\u0e32\u0e19\u0e01\u0e24\u0e15\u0e34\u0e01\u0e32", "tourism": "information"}}, {"type": "node", "id": 4715921389, "lat": 13.9163154, "lon": 100.598474, "tags": {"addr:postcode": "10210", "addr:street": "119/153 Choet Wutthakat Soi, Don Mueang, Bangkok Thung Si Kan, 10210, Thailandia", "contact:instagram": "Sleepowlhostel", "internet_access": "wlan", "name:en": "Sleep Owl Hostel", "name:it": "Sleep Owl Hostel", "phone": "+66891159969", "tourism": "hostel"}}, {"type": "node", "id": 4759805337, "lat": 13.9148253, "lon": 100.5863006, "tags": {"amenity": "restaurant"}}, {"type": "node", "id": 4759805559, "lat": 13.9149636, "lon": 100.5861226, "tags": {"name": "Hoppers Place", "name:th": "Hoppers Place", "tourism": "hotel"}}, {"type": "node", "id": 4759805562, "lat": 13.9142072, "lon": 100.5878707, "tags": {"name": "Kung Val Mansion", "tourism": "hotel"}}, {"type": "node", "id": 4759805563, "lat": 13.9145043, "lon": 100.5875283, "tags": {"amenity": "restaurant"}}, {"type": "node", "id": 4759816324, "lat": 13.9150899, "lon": 100.5863972, "tags": {"amenity": "restaurant", "name": "Tumjungkho Restaurant", "name:th": "Tumjungkho Restaurant"}}, {"type": "node", "id": 4806755922, "lat": 13.92485, "lon": 100.5993659, "tags": {"addr:housenumber": "371/39", "addr:street": "Saranakhom 2 Alley", "internet_access": "wlan", "name:en": "Backpack Planet", "phone": "+66 81 170 3542", "tourism": "hostel"}}, {"type": "node", "id": 4968899825, "lat": 13.912598, "lon": 100.5914599, "tags": {"addr:housenumber": "160/352", "addr:street": "\u0e16\u0e19\u0e19\u0e0a\u0e48\u0e32\u0e07\u0e2d\u0e32\u0e01\u0e32\u0e28\u0e2d\u0e38\u0e17\u0e34\u0e28", "name": "Domingo Hostel Donmuang", "tourism": "hostel"}}, {"type": "node", "id": 5208140041, "lat": 13.9269969, "lon": 100.5999734, "tags": {"name": "Aung Hein Hote", "name:en": "AUNG HEIN HOTEL", "tourism": "hotel"}}, {"type": "node", "id": 5213802658, "lat": 13.927329, "lon": 100.5870211, "tags": {"addr:housenumber": "5", "addr:postcode": "10210", "addr:street": "\u0e16\u0e19\u0e19\u0e2a\u0e23\u0e07\u0e1b\u0e23\u0e30\u0e20\u0e32", "amenity": "restaurant", "cuisine": "seafood;thai", "name:en": "Baik baik", "opening_hours": "Mo-Su 10:00-01:00", "phone": "+66841089933"}}, {"type": "node", "id": 5314499221, "lat": 13.9330512, "lon": 100.5657822, "tags": {"amenity": "restaurant", "list:fmm_0000": "update", "name": "\u0e01\u0e4b\u0e27\u0e22\u0e40\u0e15\u0e35\u0e4b\u0e22\u0e27\u0e40\u0e1b\u0e48\u0e32\u0e1b\u0e32\u0e01"}}, {"type": "node", "id": 5364196658, "lat": 13.9002655, "lon": 100.5885788, "tags": {"addr:city": "\u0e14\u0e2d\u0e19\u0e40\u0e21\u0e37\u0e2d\u0e07", "addr:postcode": "10210", "addr:street": "\u0e16\u0e19\u0e19\u0e01\u0e33\u0e41\u0e1e\u0e07\u0e40\u0e1e\u0e0a\u0e23 6", "amenity": "place_of_worship", "name": "\u0e28\u0e32\u0e25\u0e40\u0e08\u0e49\u0e32\u0e41\u0e21\u0e48\u0e08\u0e38\u0e4b\u0e21\u0e08\u0e34\u0e4b\u0e21", "religion": "buddhist"}}, {"type": "node", "id": 5364215309, "lat": 13.9003795, "lon": 100.5885677, "tags": {"addr:city": "\u0e14\u0e2d\u0e19\u0e40\u0e21\u0e37\u0e2d\u0e07", "addr:postcode": "10210", "addr:street": "\u0e16\u0e19\u0e19\u0e01\u0e33\u0e41\u0e1e\u0e07\u0e40\u0e1e\u0e0a\u0e23 6", "amenity": "place_of_worship", "name": "\u0e28\u0e32\u0e25\u0e40\u0e08\u0e49\u0e32\u0e1e\u0e48\u0e2d\u0e15\u0e32\u0e2b\u0e27\u0e32\u0e19", "religion": "buddhist"}}, {"type": "node", "id": 5373698161, "lat": 13.9307278, "lon": 100.5512648, "tags": {"historic": "memorial", "name": "\u0e17\u0e38\u0e40\u0e23\u0e35\u0e22\u0e19\u0e40\u0e21\u0e37\u0e2d\u0e07\u0e19\u0e19\u0e17\u0e4c"}}, {"type": "node", "id": 5390051723, "lat": 13.925327, "lon": 100.5761445, "tags": {"name:en": "The Plant", "tourism": "guest_house"}}, {"type": "node", "id": 5390051724, "lat": 13.925155, "lon": 100.5759421, "tags": {"name:en": "The Plant", "tourism": "guest_house"}}, {"type": "node", "id": 5469385421, "lat": 13.9285225, "lon": 100.577125, "tags": {"name": "\u0e42\u0e2d\u0e42\u0e0a\u0e19", "name:en": "Open Air Night Market", "opening_hours": "Mo-Su 18:00-23:55", "tourism": "attraction"}}, {"type": "node", "id": 5510104323, "lat": 13.9168342, "lon": 100.5976318, "tags": {"name": "Sloth Hos", "name:de": "Sloth Hostel", "name:en": "Sloth Hostel", "name:th": "Sloth Hostel", "tourism": "hostel"}}, {"type": "node", "id": 5571315054, "lat": 13.9257525, "lon": 100.5989458, "tags": {"addr:city": "\u0e2a\u0e35\u0e01\u0e31\u0e19", "addr:housenumber": "235/21", "addr:postcode": "10210", "addr:street": "\u0e2a\u0e23\u0e13\u0e04\u0e21\u0e19\u0e4c", "name": "D HOUSE HOSTEL", "tourism": "hostel"}}, {"type": "node", "id": 5808180053, "lat": 13.9106224, "lon": 100.5541087, "tags": {"name": "\u0e2b\u0e2d\u0e1e\u0e31\u0e01T8", "tourism": "hostel"}}, {"type": "node", "id": 5984858785, "lat": 13.9290247, "lon": 100.5773817, "tags": {"amenity": "restaurant", "name": "JJ Chabu \u0e0a\u0e32\u0e1a\u0e39 \u0e1a\u0e38\u0e1f\u0e40\u0e1f\u0e48\u0e15\u0e4c"}}, {"type": "node", "id": 6026747788, "lat": 13.9116995, "lon": 100.5908433, "tags": {"amenity": "restaurant"}}, {"type": "node", "id": 6153376685, "lat": 13.9258408, "lon": 100.5977434, "tags": {"amenity": "restaurant", "cuisine": "thai", "name:en": "The Classic Room Restaurant"}}, {"type": "node", "id": 6274445092, "lat": 13.923508, "lon": 100.5994685, "tags": {"amenity": "restaurant"}}, {"type": "node", "id": 6274445093, "lat": 13.9234466, "lon": 100.5996536, "tags": {"amenity": "restaurant"}}, {"type": "node", "id": 6636481087, "lat": 13.9144046, "lon": 100.5998249, "tags": {"amenity": "restaurant", "brand": "Bonchon Chicken", "brand:wikidata": "Q4941248", "cuisine": "chicken;korean;sushi", "name": "Bonchon Chicken", "name:en": "BonChon"}}, {"type": "node", "id": 6847080351, "lat": 13.9265818, "lon": 100.5958532, "tags": {"addr:housenumber": "22 Soi Saranakhom 3", "addr:province": "\u0e01\u0e23\u0e38\u0e07\u0e40\u0e17\u0e1e\u0e21\u0e2b\u0e32\u0e19\u0e04\u0e23", "addr:street": "Songprapa Rd., Seegun, Don Mueang", "air_conditioning": "yes", "email": "byourhome24@gmail.com", "internet_access": "wlan", "internet_access:fee": "no", "name": "B-Your Home Hotel", "phone": "+66 25663088", "tourism": "hotel", "website": "http://www.b-yourhomedonmuangairport.com"}}, {"type": "node", "id": 6897991386, "lat": 13.9347853, "lon": 100.5617777, "tags": {"amenity": "cafe", "internet_access": "wlan", "list:fmm_0000": "update", "name": "\u0e1e\u0e34\u0e1e\u0e34\u0e18\u0e20\u0e31\u0e13\u0e11\u0e4c\u0e15\u0e39\u0e19\u0e19\u0e19\u0e35\u0e48", "name:en": "Tooney Museum", "tourism": "museum"}}, {"type": "node", "id": 7066187485, "lat": 13.9152219, "lon": 100.5976688, "tags": {"addr:housenumber": "9/1", "addr:street": "via Soi Choet Wutthakat", "amenity": "cafe", "name:en": "WiSDOM CAFE"}}, {"type": "node", "id": 7104635485, "lat": 13.9239805, "lon": 100.5756586, "tags": {"name:en": "The Connect", "tourism": "apartment"}}, {"type": "node", "id": 7855773373, "lat": 13.9449607, "lon": 100.5726922, "tags": {"amenity": "cafe", "name": "Tank Farm Cafe", "opening_hours": "Mo-Su 09:00-18:00"}}, {"type": "node", "id": 8067698600, "lat": 13.9129588, "lon": 100.5529542, "tags": {"amenity": "restaurant", "brand": "\u0e44\u0e2d\u0e14\u0e34\u0e19\u0e01\u0e25\u0e34\u0e48\u0e19\u0e04\u0e23\u0e01", "level": "1", "name": "\u0e44\u0e2d\u0e14\u0e34\u0e19\u0e01\u0e25\u0e34\u0e48\u0e19\u0e04\u0e23\u0e01"}}, {"type": "node", "id": 8067698601, "lat": 13.9130724, "lon": 100.5526269, "tags": {"amenity": "restaurant", "level": "1", "name": "Xoho Chinese Cafe"}}, {"type": "node", "id": 8067698605, "lat": 13.9130043, "lon": 100.5528233, "tags": {"amenity": "restaurant", "brand": "Santa Fe'", "cuisine": "steak", "level": "1", "name": "Santa Fe'"}}, {"type": "node", "id": 8067698606, "lat": 13.9131633, "lon": 100.552365, "tags": {"amenity": "restaurant", "brand": "Hachiban Ramen", "cuisine": "ramen", "level": "1", "name": "\u0e2e\u0e30\u0e08\u0e34\u0e1a\u0e31\u0e07 \u0e23\u0e32\u0e40\u0e21\u0e19", "name:en": "Hachiban Ramen"}}, {"type": "node", "id": 8067698608, "lat": 13.9129334, "lon": 100.5522793, "tags": {"amenity": "restaurant", "brand": "ShinkanZen", "cuisine": "sushi", "level": "1", "name": "ShinkanZen"}}, {"type": "node", "id": 8067698609, "lat": 13.9131179, "lon": 100.5524959, "tags": {"amenity": "restaurant", "brand": "MK Restaurants", "brand:wikidata": "Q62075359", "cuisine": "thai", "level": "1", "name": "MK Restaurants"}}, {"type": "node", "id": 8067698610, "lat": 13.9128967, "lon": 100.5524007, "tags": {"amenity": "restaurant", "brand": "Yayoi", "cuisine": "japanese", "level": "1", "name": "Yayoi"}}, {"type": "node", "id": 8067698611, "lat": 13.9132211, "lon": 100.5520071, "tags": {"amenity": "cafe", "brand": "Starbucks", "level": "1", "name": "Starbucks"}}, {"type": "node", "id": 8417390098, "lat": 13.9388771, "lon": 100.5871315, "tags": {"addr:city": "\u0e2a\u0e35\u0e01\u0e31\u0e19", "addr:housenumber": "188/94", "addr:postcode": "10210", "addr:street": "\u0e2a\u0e23\u0e07\u0e1b\u0e23\u0e30\u0e20\u0e32", "amenity": "cafe", "cuisine": "regional", "name": "Beeboy02 Corp.", "opening_hours": "Mo-Su 09:00-21:00", "phone": "0890901010"}}, {"type": "node", "id": 9239445198, "lat": 13.9398115, "lon": 100.5530723, "tags": {"amenity": "cafe", "brand": "Starbucks", "cuisine": "coffee_shop", "name": "Starbucks", "official_name": "Starbucks Coffee", "takeaway": "yes"}}, {"type": "node", "id": 9323486740, "lat": 13.9200342, "lon": 100.5678252, "tags": {"addr:city": "Donmueang", "addr:housenumber": "285", "addr:postcode": "10210", "addr:street": "\u0e16\u0e19\u0e19\u0e27\u0e31\u0e14\u0e40\u0e27\u0e2c\u0e38\u0e27\u0e19\u0e32\u0e23\u0e32\u0e21", "amenity": "cafe", "cuisine": "milktea", "internet_access": "yes", "internet_access:fee": "no", "internet_access:ssid": "Tuagom Donmueang", "list:fmm_0000": "update", "name": "Taugom Donmueang", "opening_hours": "Mo-Su 09:00-21:00", "phone": "+66990099969", "website": "www.facebook.com/TuaGomBubbleMilkTea"}}, {"type": "node", "id": 9509682817, "lat": 13.9367806, "lon": 100.5833908, "tags": {"addr:postcode": "10210", "addr:street": "\u0e40\u0e14\u0e0a\u0e30\u0e15\u0e38\u0e07\u0e04\u0e30 1", "amenity": "restaurant", "cuisine": "thai", "name": "Brooke&Ben Awesome House 502/520", "opening_hours": "24/7"}}, {"type": "node", "id": 9526566130, "lat": 13.9268096, "lon": 100.585639, "tags": {"addr:housenumber": "6", "addr:street": "\u0e16\u0e19\u0e19\u0e1b\u0e23\u0e30\u0e0a\u0e32\u0e2d\u0e38\u0e17\u0e34\u0e28", "amenity": "restaurant", "cuisine": "korean", "name": "ChonSons (\u0e0a\u0e2d\u0e19\u0e0b\u0e31\u0e19\u0e2a\u0e4c) - \u0e14\u0e2d\u0e19\u0e40\u0e21\u0e37\u0e2d\u0e07", "opening_hours": "Mo-Su 10:30-20:00", "phone": "+66994401956", "website": "https://page.line.me/chonsons?openQrModal=true"}}, {"type": "node", "id": 9893302340, "lat": 13.9247393, "lon": 100.5992446, "tags": {"name:ja": "\u30e2\u30ab\u30db\u30c6\u30eb", "tourism": "attraction"}}, {"type": "node", "id": 10101947821, "lat": 13.924763, "lon": 100.5830442, "tags": {"name:en": "airport house", "tourism": "hostel"}}, {"type": "node", "id": 10219192317, "lat": 13.9158612, "lon": 100.5982221, "tags": {"amenity": "cafe", "name:en": "Cafe Amazon", "opening_hours": "Mo-Su 06:00-18:00"}}, {"type": "node", "id": 10282347406, "lat": 13.9262593, "lon": 100.5989484, "tags": {"amenity": "restaurant", "description": "Pizza and steak", "name": "Khunpha Restaurant", "phone": "0944481614"}}, {"type": "node", "id": 10914324005, "lat": 13.9234135, "lon": 100.5973111, "tags": {"addr:postcode": "10200", "addr:street": "Soi Song Prapha 1, Si Kan", "internet_access": "wlan", "name:en": "Tuscany Land Ressort", "opening_hours": "24/7", "tourism": "hotel"}}, {"type": "node", "id": 11166512954, "lat": 13.9141459, "lon": 100.5511915, "tags": {"amenity": "cafe", "name": "Cafe Amazon"}}, {"type": "node", "id": 11396728665, "lat": 13.9236649, "lon": 100.5974963, "tags": {"amenity": "restaurant"}}, {"type": "node", "id": 11906598269, "lat": 13.9113521, "lon": 100.5917309, "tags": {"addr:postcode": "10210", "contact:facebook": "montriresort", "contact:instagram": "montriresortbkk", "contact:line": "montriresortbkk", "email": "Montriresort@gmail.com", "name": "Montri Tessort", "name:de": "Montri Ressort", "phone": "086 849 7878", "tourism": "hotel", "website": "https://www.montriresort-bangkok.com/"}}, {"type": "node", "id": 11925382070, "lat": 13.9264686, "lon": 100.5985802, "tags": {"name": "The best house&hostel", "tourism": "hotel"}}, {"type": "node", "id": 12246199529, "lat": 13.9233074, "lon": 100.5779453, "tags": {"amenity": "place_of_worship", "denomination": "thai_mahanikaya", "name": "\u0e27\u0e31\u0e14\u0e2a\u0e32\u0e22\u0e2d\u0e33\u0e1e\u0e31\u0e19\u0e18\u0e4c\u0e40\u0e2d\u0e21\u0e2a\u0e32\u0e23", "name:en": "Wat Sai Am Phan Em San", "name:th": "\u0e27\u0e31\u0e14\u0e2a\u0e32\u0e22\u0e2d\u0e33\u0e1e\u0e31\u0e19\u0e18\u0e4c\u0e40\u0e2d\u0e21\u0e2a\u0e32\u0e23", "religion": "buddhist"}}, {"type": "node", "id": 12246199530, "lat": 13.9217252, "lon": 100.5754053, "tags": {"amenity": "place_of_worship", "denomination": "thai_mahanikaya", "name": "\u0e27\u0e31\u0e14\u0e1e\u0e23\u0e2b\u0e21\u0e23\u0e31\u0e07\u0e29\u0e35", "name:en": "Wat Phrom Rangsi", "name:th": "\u0e27\u0e31\u0e14\u0e1e\u0e23\u0e2b\u0e21\u0e23\u0e31\u0e07\u0e29\u0e35", "religion": "buddhist", "wikidata": "Q100698780", "wikipedia": "th:\u0e27\u0e31\u0e14\u0e1e\u0e23\u0e2b\u0e21\u0e23\u0e31\u0e07\u0e29\u0e35 (\u0e40\u0e02\u0e15\u0e14\u0e2d\u0e19\u0e40\u0e21\u0e37\u0e2d\u0e07)"}}, {"type": "node", "id": 12275947802, "lat": 13.9129719, "lon": 100.555062, "tags": {"amenity": "cafe", "name:en": "Midnight Sweets"}}, {"type": "node", "id": 12388408566, "lat": 13.909955, "lon": 100.5536558, "tags": {"addr:district": "\u0e1b\u0e32\u0e01\u0e40\u0e01\u0e23\u0e47\u0e14", "addr:housenumber": "5/37", "addr:place": "\u0e40\u0e21\u0e37\u0e2d\u0e07\u0e17\u0e2d\u0e07\u0e18\u0e32\u0e19\u0e35", "addr:postcode": "11120", "addr:province": "\u0e19\u0e19\u0e17\u0e1a\u0e38\u0e23\u0e35", "addr:street": "\u0e16\u0e19\u0e19\u0e1b\u0e4a\u0e2d\u0e1b\u0e1b\u0e39\u0e25\u0e48\u0e32", "addr:subdistrict": "\u0e1a\u0e49\u0e32\u0e19\u0e43\u0e2b\u0e21\u0e48", "amenity": "restaurant", "cuisine": "steak_house", "diet:meat": "yes", "name": "\u0e2a\u0e40\u0e15\u0e47\u0e01\u0e0a\u0e31\u0e49\u0e191", "opening_hours": "Mo-Su 11:00-22:00", "phone": "0802877055", "website": "https://maps.app.goo.gl/iGYk4cebJFTga7iT7"}}, {"type": "node", "id": 12434844201, "lat": 13.9178405, "lon": 100.5792624, "tags": {"addr:housenumber": "553", "addr:street": "\u0e16\u0e19\u0e19\u0e0a\u0e48\u0e32\u0e07\u0e2d\u0e32\u0e01\u0e32\u0e28\u0e2d\u0e38\u0e17\u0e34\u0e28", "air_conditioning": "yes", "internet_access": "wlan", "internet_access:fee": "customers", "name": "Sabai Place Don Muang Airport", "opening_hours": "24/7", "phone": "+66 64 241 6694", "rooms": "20", "self_service": "no", "tourism": "hotel"}}, {"type": "node", "id": 12603267201, "lat": 13.9247212, "lon": 100.5995413, "tags": {"amenity": "restaurant", "cuisine": "thai", "diet:vegetarian": "yes", "name": "Vegetarian Restaurant"}}, {"type": "node", "id": 13098321501, "lat": 13.9120918, "lon": 100.5715561, "tags": {"addr:housenumber": "494", "addr:street": "\u0e0b\u0e2d\u0e22\u0e42\u0e01\u0e2a\u0e38\u0e21\u0e23\u0e27\u0e21\u0e43\u0e08 42", "contact:facebook": "BeigePoshtels", "contact:instagram": "Biegeposhtels", "internet_access": "wlan", "name": "Beige Poshtels", "opening_hours": "Mo-Su 12:00-22:00", "phone": "+66 83 438 1555", "tourism": "hotel"}}, {"type": "node", "id": 13099704001, "lat": 13.9104761, "lon": 100.5783511, "tags": {"amenity": "marketplace", "name": "Kosum Ruam Chai Market"}}, {"type": "node", "id": 13099704101, "lat": 13.9109019, "lon": 100.5785567, "tags": {"amenity": "cafe", "brand": "\u0e04\u0e32\u0e40\u0e1f\u0e48 \u0e2d\u0e40\u0e21\u0e0b\u0e2d\u0e19", "brand:en": "Caf\u00e9 Amazon", "brand:th": "\u0e04\u0e32\u0e40\u0e1f\u0e48 \u0e2d\u0e40\u0e21\u0e0b\u0e2d\u0e19", "brand:wikidata": "Q43247503", "cuisine": "coffee_shop", "name": "\u0e04\u0e32\u0e40\u0e1f\u0e48 \u0e2d\u0e40\u0e21\u0e0b\u0e2d\u0e19", "name:en": "Caf\u00e9 Amazon", "name:th": "\u0e04\u0e32\u0e40\u0e1f\u0e48 \u0e2d\u0e40\u0e21\u0e0b\u0e2d\u0e19", "opening_hours": "Mo-Su 06:00-19:00", "takeaway": "yes"}}, {"type": "way", "id": 124809690, "nodes": [1387912849, 7619861577, 2588028933, 1799396843, 2588028914, 1387912450, 7316130364, 1387912789, 7316130362, 7316127372, 2523581718, 1387912655, 2523581837, 1387912722, 1387912607, 1387912602, 2523582560, 2588051626, 2523582564, 2523582569, 2523582566, 1387912693, 2465272274, 2465272273, 2465272271, 2465272265, 2523582518, 2523582513, 2523582496, 2523582494, 2523582475, 2523582473, 2523582464, 2523582457, 1716565213, 2523582451, 2523582432, 2523582430, 2523582419, 1387912836, 2588029385, 1716565185, 1387912857, 2102056413, 2102056355, 2523582076, 2411891425, 2523581970, 1387912696, 2420675899, 5362376298, 5362376297, 1387912538, 5362376299, 1387912859, 1387912849], "tags": {"addr:street": "\u0e16\u0e19\u0e19\u0e28\u0e23\u0e35\u0e2a\u0e21\u0e32\u0e19", "alt_name:en": "Somdet Phra Srinagarindra Park Nonthaburi", "leisure": "park", "name": "\u0e2a\u0e27\u0e19\u0e2a\u0e21\u0e40\u0e14\u0e47\u0e08\u0e1e\u0e23\u0e30\u0e28\u0e23\u0e35\u0e19\u0e04\u0e23\u0e34\u0e19\u0e17\u0e23\u0e4c \u0e19\u0e19\u0e17\u0e1a\u0e38\u0e23\u0e35", "name:en": "Srinagarindra Park Nonthaburi"}}, {"type": "way", "id": 194758857, "nodes": [2052668214, 2052668210, 2052668207, 2052668196, 2052668200, 2052668214], "tags": {"alt_name": "\u0e27\u0e31\u0e14\u0e1e\u0e38\u0e17\u0e18\u0e2a\u0e22\u0e32\u0e21", "alt_name:en": "Wat Phuttha Siam", "alt_name:th": "\u0e27\u0e31\u0e14\u0e1e\u0e38\u0e17\u0e18\u0e2a\u0e22\u0e32\u0e21", "amenity": "place_of_worship", "denomination": "thai_mahanikaya", "name": "\u0e27\u0e31\u0e14\u0e2a\u0e35\u0e01\u0e31\u0e19", "name:en": "Wat Si Kan", "name:th": "\u0e27\u0e31\u0e14\u0e2a\u0e35\u0e01\u0e31\u0e19", "old_name:th": "\u0e27\u0e31\u0e14\u0e1e\u0e38\u0e17\u0e18\u0e2a\u0e22\u0e32\u0e21", "religion": "buddhist", "wikidata": "Q100698781", "wikipedia": "th:\u0e27\u0e31\u0e14\u0e2a\u0e35\u0e01\u0e31\u0e19"}}, {"type": "way", "id": 194758858, "nodes": [2052667927, 2052667929, 2052667931, 2052667933, 2052667937, 2052667941, 2052667939, 2052667936, 2053009764, 2052667928, 2052667927], "tags": {"amenity": "place_of_worship", "denomination": "thai_mahanikaya", "name": "\u0e27\u0e31\u0e14\u0e40\u0e27\u0e2c\u0e38\u0e27\u0e19\u0e32\u0e23\u0e32\u0e21", "name:en": "Wat Welu Wanaram", "name:th": "\u0e27\u0e31\u0e14\u0e40\u0e27\u0e2c\u0e38\u0e27\u0e19\u0e32\u0e23\u0e32\u0e21", "old_name:th": "\u0e27\u0e31\u0e14\u0e44\u0e1c\u0e48\u0e40\u0e02\u0e35\u0e22\u0e27", "religion": "buddhist", "wikidata": "Q100698775", "wikipedia": "th:\u0e27\u0e31\u0e14\u0e40\u0e27\u0e2c\u0e38\u0e27\u0e19\u0e32\u0e23\u0e32\u0e21 (\u0e01\u0e23\u0e38\u0e07\u0e40\u0e17\u0e1e\u0e21\u0e2b\u0e32\u0e19\u0e04\u0e23)"}}, {"type": "way", "id": 194796739, "nodes": [2053011555, 2053011551, 2053011547, 2053011543, 2053011541, 2053011538, 2053011536, 2053011532, 2053011520, 2053011513, 2053011511, 2053011499, 2053011494, 2053011496, 2053011501, 2053011509, 2053011507, 2053011503, 2053011505, 2053011540, 2053011549, 2053011556, 2053011555], "tags": {"addr:street": "\u0e16\u0e19\u0e19\u0e40\u0e27\u0e2c\u0e38\u0e27\u0e19\u0e32\u0e23\u0e32\u0e21", "leisure": "park", "name": "\u0e2a\u0e27\u0e19\u0e23\u0e21\u0e13\u0e35\u0e22\u0e4c\u0e17\u0e38\u0e48\u0e07\u0e2a\u0e35\u0e01\u0e31\u0e19", "name:en": "Rommani Thungsikan Park", "name:th": "\u0e2a\u0e27\u0e19\u0e23\u0e21\u0e13\u0e35\u0e22\u0e4c\u0e17\u0e38\u0e48\u0e07\u0e2a\u0e35\u0e01\u0e31\u0e19", "opening_hours": "05:00-21:00", "website": "http://203.155.220.217/office/ppdd/publicpark/thai/2011/park10.asp"}}, {"type": "way", "id": 194876464, "nodes": [2053929850, 2053929847, 2053929822, 2053929830, 2053929795, 10274557691, 10274557690, 2053929850], "tags": {"amenity": "place_of_worship", "denomination": "thai_mahanikaya", "name": "\u0e27\u0e31\u0e14\u0e14\u0e2d\u0e19\u0e40\u0e21\u0e37\u0e2d\u0e07", "name:en": "Wat Don Muang", "name:th": "\u0e27\u0e31\u0e14\u0e14\u0e2d\u0e19\u0e40\u0e21\u0e37\u0e2d\u0e07", "religion": "buddhist", "wikidata": "Q90916186", "wikimedia_commons": "Category:Wat Don Mueang", "wikipedia": "th:\u0e27\u0e31\u0e14\u0e14\u0e2d\u0e19\u0e40\u0e21\u0e37\u0e2d\u0e07"}}, {"type": "way", "id": 194876465, "nodes": [2053929633, 2053929623, 2053929610, 2053929619, 2053929636, 2053929633], "tags": {"amenity": "place_of_worship", "denomination": "thai_mahanikaya", "name": "\u0e27\u0e31\u0e14\u0e40\u0e17\u0e1e\u0e19\u0e34\u0e21\u0e34\u0e15\u0e15\u0e4c", "name:en": "Wat Thep Nimit", "name:th": "\u0e27\u0e31\u0e14\u0e40\u0e17\u0e1e\u0e19\u0e34\u0e21\u0e34\u0e15\u0e15\u0e4c", "religion": "buddhist", "wikidata": "Q100698777", "wikipedia": "th:\u0e27\u0e31\u0e14\u0e40\u0e17\u0e1e\u0e19\u0e34\u0e21\u0e34\u0e15\u0e15\u0e4c"}}, {"type": "way", "id": 194876474, "nodes": [2053929798, 2053929771, 2053929767, 1716296984, 5329375990, 2053929734, 2053929733, 2053929763, 2053929798], "tags": {"name": "Amari Don Muang Airport Hotel", "name:zh": "\u66fc\u8c37\u963f\u739b\u745e\u5eca\u66fc\u9152\u5e97", "phone": "+66 2 5661020", "toilets:wheelchair": "no", "tourism": "hotel", "website": "https://www.amari.com/donmuang/", "wheelchair": "limited"}}, {"type": "way", "id": 201986864, "nodes": [2119802825, 2119802809, 2119802843, 2119802840, 2119802866, 2119802881, 2119802860, 2119802825], "tags": {"leisure": "park", "name": "\u0e04\u0e48\u0e32\u0e22\u0e25\u0e39\u0e01\u0e40\u0e2a\u0e37\u0e2d\u0e01\u0e23\u0e38\u0e07\u0e40\u0e17\u0e1e\u0e21\u0e2b\u0e32\u0e19\u0e04\u0e23 \u0e1e\u0e34\u0e28\u0e25\u0e22\u0e1a\u0e38\u0e15\u0e23"}}, {"type": "way", "id": 233726943, "nodes": [2420675899, 5362376298, 5362376297, 1387912538, 2420675897, 2420675898, 2420675899], "tags": {"leisure": "park", "name": "\u0e2a\u0e27\u0e19\u0e44\u0e21\u0e49\u0e40\u0e21\u0e37\u0e2d\u0e07\u0e19\u0e19\u0e17\u0e4c", "name:en": "Garden Nonthaburi"}}, {"type": "way", "id": 256675381, "nodes": [2623116713, 2623116715, 2623116716, 2623116714, 2623116713], "tags": {"amenity": "restaurant", "name": "\u0e2d\u0e34\u0e48\u0e21\u0e08\u0e31\u0e07 \u0e2b\u0e21\u0e39\u0e01\u0e30\u0e17\u0e30", "name:th": "\u0e2d\u0e34\u0e48\u0e21\u0e08\u0e31\u0e07 \u0e2b\u0e21\u0e39\u0e01\u0e30\u0e17\u0e30"}}, {"type": "way", "id": 256675382, "nodes": [2623116718, 2623116720, 2623116719, 2623116717, 2623116718], "tags": {"name": "\u0e41\u0e21\u0e47\u0e01\u0e0b\u0e4c \u0e27\u0e31\u0e19 \u0e40\u0e2e\u0e49\u0e32\u0e2a", "name:en": "MAX ONE HOUSE", "name:th": "\u0e41\u0e21\u0e47\u0e01\u0e0b\u0e4c \u0e27\u0e31\u0e19 \u0e40\u0e2e\u0e49\u0e32\u0e2a", "tourism": "hotel"}}, {"type": "way", "id": 482514173, "nodes": [4753329224, 4753329223, 4753329222, 4753329221, 4753329224], "tags": {"amenity": "restaurant", "building": "yes", "diet:vegetarian": "yes"}}, {"type": "way", "id": 555016201, "nodes": [5355748713, 5355748714, 5355748715, 5355748716, 5355748717, 5355748713], "tags": {"addr:city": "\u0e01\u0e23\u0e38\u0e07\u0e40\u0e17\u0e1e\u0e21\u0e2b\u0e32\u0e19\u0e04\u0e23", "addr:postcode": "10210", "addr:street": "\u0e16\u0e19\u0e19\u0e2a\u0e23\u0e07\u0e1b\u0e23\u0e30\u0e20\u0e32", "leisure": "park", "name": "\u0e2a\u0e27\u0e19\u0e2a\u0e38\u0e02\u0e20\u0e32\u0e1e\u0e40\u0e09\u0e25\u0e34\u0e21\u0e1e\u0e23\u0e30\u0e40\u0e01\u0e35\u0e22\u0e23\u0e15\u0e34 80 \u0e1e\u0e23\u0e23\u0e29\u0e32", "name:en": "Chaloem Phrakiat 80 Phansa Public Park", "name:th": "\u0e2a\u0e27\u0e19\u0e2a\u0e38\u0e02\u0e20\u0e32\u0e1e\u0e40\u0e09\u0e25\u0e34\u0e21\u0e1e\u0e23\u0e30\u0e40\u0e01\u0e35\u0e22\u0e23\u0e15\u0e34 80 \u0e1e\u0e23\u0e23\u0e29\u0e32"}}, {"type": "way", "id": 555600650, "nodes": [5360192252, 5360207533, 5360192253, 5360192254, 5360192255, 5360192252], "tags": {"leisure": "park", "name": "\u0e2a\u0e27\u0e19\u0e2a\u0e32\u0e18\u0e32\u0e23\u0e13\u0e30\u0e1a\u0e36\u0e07\u0e2a\u0e35\u0e01\u0e31\u0e19"}}, {"type": "way", "id": 556070591, "nodes": [5364205455, 5364205456, 5364205457, 5365209195, 5365217927, 5364205458, 7400351355, 5364205455], "tags": {"addr:city": "\u0e14\u0e2d\u0e19\u0e40\u0e21\u0e37\u0e2d\u0e07", "addr:postcode": "10210", "addr:street": "\u0e16\u0e19\u0e19\u0e01\u0e33\u0e41\u0e1e\u0e07\u0e40\u0e1e\u0e0a\u0e23 6", "leisure": "park", "name": "\u0e2a\u0e19\u0e32\u0e21\u0e01\u0e35\u0e2c\u0e32\u0e40\u0e04\u0e2b\u0e30\u0e0a\u0e38\u0e21\u0e0a\u0e19\u0e17\u0e38\u0e48\u0e07\u0e2a\u0e2d\u0e07\u0e2b\u0e49\u0e2d\u0e07 4"}}, {"type": "way", "id": 556505248, "nodes": [5368343664, 5368343665, 1592593861, 5368343666, 1592591357, 5368343664], "tags": {"leisure": "park", "name": "\u0e2a\u0e27\u0e19\u0e01\u0e32\u0e23\u0e40\u0e04\u0e2b\u0e30\u0e17\u0e38\u0e48\u0e07\u0e2a\u0e2d\u0e07\u0e2b\u0e49\u0e2d\u0e07"}}, {"type": "way", "id": 616926344, "nodes": [5832132922, 5832132923, 5832132924, 5832132925, 5832132922], "tags": {"leisure": "park", "name": "Piamsuk village"}}, {"type": "way", "id": 636822415, "nodes": [6004701847, 6004701850, 6004701846, 6004701845, 6004701847], "tags": {"building": "yes", "name": "The Prima Residence", "tourism": "hotel"}}, {"type": "way", "id": 636822416, "nodes": [6004701851, 6004701848, 6004701849, 6004701844, 6004701851], "tags": {"building": "yes", "name": "The Prima Residence", "tourism": "hotel"}}, {"type": "way", "id": 780662652, "nodes": [4443183376, 7289795915, 7936822535, 7289795914, 7289795916, 4443183376], "tags": {"building": "hotel", "name": "Ibis Bangkok Impact", "tourism": "hotel"}}, {"type": "way", "id": 780662653, "nodes": [7936822509, 4443163774, 7289795920, 7936822517, 7936822516, 7289795919, 7936822509], "tags": {"amenity": "marketplace", "building": "roof", "name": "\u0e15\u0e25\u0e32\u0e14\u0e2a\u0e14\u0e23\u0e27\u0e21\u0e43\u0e08", "name:en": "Ruamjai Fresh Market", "name:th": "\u0e15\u0e25\u0e32\u0e14\u0e2a\u0e14\u0e23\u0e27\u0e21\u0e43\u0e08"}}, {"type": "way", "id": 1031901688, "nodes": [9509657813, 9509657814, 9509657815, 9509657816, 9509657813], "tags": {"amenity": "restaurant", "building": "yes"}}, {"type": "way", "id": 1157718336, "nodes": [10766581078, 10766581079, 10766581080, 10766581081, 10766581078], "tags": {"leisure": "park", "name": "O2 Park"}}, {"type": "way", "id": 1432424032, "nodes": [13166631013, 13166631014, 13166631015, 13166631016, 13166631013], "tags": {"addr:district": "\u0e1b\u0e32\u0e01\u0e40\u0e01\u0e23\u0e47\u0e14", "addr:postcode": "11120", "addr:province": "\u0e19\u0e19\u0e17\u0e1a\u0e38\u0e23\u0e35", "addr:street": "\u0e15\u0e34\u0e27\u0e32\u0e19\u0e19\u0e17\u0e4c", "addr:subdistrict": "\u0e1a\u0e49\u0e32\u0e19\u0e43\u0e2b\u0e21\u0e48", "amenity": "restaurant", "building": "yes", "check_date": "2025-09-24", "check_date:currency:XBT": "2025-09-24", "cuisine": "thai", "currency:XBT": "yes", "name": "Somtam-TAmsang", "opening_hours": "Mo-Sa 08:00-20:00", "payment:cash": "yes", "payment:contactless": "yes", "payment:lightning": "yes", "payment:lightning_contactless": "no", "payment:onchain": "yes", "phone": "+66 97 007 6213", "survey:date": "2025-09-24"}}, {"type": "node", "id": 4443183376, "lat": 13.9164137, "lon": 100.5518236}, {"type": "node", "id": 7289795915, "lat": 13.9161931, "lon": 100.5517212}, {"type": "node", "id": 4443163774, "lat": 13.9128546, "lon": 100.5539198}, {"type": "node", "id": 7289795914, "lat": 13.9158898, "lon": 100.5524146}, {"type": "node", "id": 7289795916, "lat": 13.9161104, "lon": 100.552517}, {"type": "node", "id": 7289795919, "lat": 13.9133623, "lon": 100.5544371}, {"type": "node", "id": 7289795920, "lat": 13.9127703, "lon": 100.5541486}, {"type": "node", "id": 7936822509, "lat": 13.913465, "lon": 100.5541587}, {"type": "node", "id": 7936822516, "lat": 13.9127701, "lon": 100.5542054}, {"type": "node", "id": 7936822517, "lat": 13.9127884, "lon": 100.5541557}, {"type": "node", "id": 7936822535, "lat": 13.9160686, "lon": 100.5520057}, {"type": "node", "id": 1387912849, "lat": 13.9296275, "lon": 100.5517592}, {"type": "node", "id": 1387912450, "lat": 13.927746, "lon": 100.5549781}, {"type": "node", "id": 1387912655, "lat": 13.9296565, "lon": 100.5536593}, {"type": "node", "id": 1387912789, "lat": 13.9287202, "lon": 100.5553882}, {"type": "node", "id": 1799396843, "lat": 13.9281351, "lon": 100.554335}, {"type": "node", "id": 2523581718, "lat": 13.9291387, "lon": 100.5546317}, {"type": "node", "id": 2588028914, "lat": 13.9280434, "lon": 100.5544898}, {"type": "node", "id": 2588028933, "lat": 13.9282419, "lon": 100.5541547}, {"type": "node", "id": 7316127372, "lat": 13.9289311, "lon": 100.555007}, {"type": "node", "id": 7316130362, "lat": 13.9287294, "lon": 100.5553716}, {"type": "node", "id": 7316130364, "lat": 13.9278816, "lon": 100.5550352}, {"type": "node", "id": 7619861577, "lat": 13.929116, "lon": 100.5526435}, {"type": "node", "id": 1387912538, "lat": 13.9307323, "lon": 100.5515232}, {"type": "node", "id": 1387912696, "lat": 13.9312582, "lon": 100.5505844}, {"type": "node", "id": 1387912857, "lat": 13.9328054, "lon": 100.5517145}, {"type": "node", "id": 2102056355, "lat": 13.9323834, "lon": 100.5513478}, {"type": "node", "id": 2102056413, "lat": 13.9328389, "lon": 100.5515564}, {"type": "node", "id": 2411891425, "lat": 13.9313902, "lon": 100.5506739}, {"type": "node", "id": 2420675897, "lat": 13.9301959, "lon": 100.5510367}, {"type": "node", "id": 2420675898, "lat": 13.9306008, "lon": 100.5505633}, {"type": "node", "id": 2420675899, "lat": 13.9310877, "lon": 100.5508888}, {"type": "node", "id": 2523581970, "lat": 13.9312824, "lon": 100.5506008}, {"type": "node", "id": 2523582076, "lat": 13.9316056, "lon": 100.5508201}, {"type": "node", "id": 5362376297, "lat": 13.93091, "lon": 100.551206}, {"type": "node", "id": 5362376298, "lat": 13.9309989, "lon": 100.5510474}, {"type": "node", "id": 5362376299, "lat": 13.9305231, "lon": 100.5517621}, {"type": "node", "id": 1387912602, "lat": 13.9327548, "lon": 100.5559009}, {"type": "node", "id": 1387912607, "lat": 13.9317088, "lon": 100.5554303}, {"type": "node", "id": 1387912693, "lat": 13.9329992, "lon": 100.5554536}, {"type": "node", "id": 1387912722, "lat": 13.9319124, "lon": 100.5549327}, {"type": "node", "id": 1387912836, "lat": 13.9324841, "lon": 100.5535564}, {"type": "node", "id": 1387912859, "lat": 13.9302826, "lon": 100.5520224}, {"type": "node", "id": 1716565185, "lat": 13.93251, "lon": 100.5533979}, {"type": "node", "id": 1716565213, "lat": 13.9325854, "lon": 100.5540903}, {"type": "node", "id": 2465272265, "lat": 13.9327348, "lon": 100.5545733}, {"type": "node", "id": 2465272271, "lat": 13.932952, "lon": 100.5545545}, {"type": "node", "id": 2465272273, "lat": 13.9329881, "lon": 100.5545524}, {"type": "node", "id": 2465272274, "lat": 13.9329981, "lon": 100.5548145}, {"type": "node", "id": 2523581837, "lat": 13.9299378, "lon": 100.5538244}, {"type": "node", "id": 2523582419, "lat": 13.9325353, "lon": 100.5537103}, {"type": "node", "id": 2523582430, "lat": 13.93256, "lon": 100.5538996}, {"type": "node", "id": 2523582432, "lat": 13.932573, "lon": 100.5539969}, {"type": "node", "id": 2523582451, "lat": 13.9325812, "lon": 100.5540588}, {"type": "node", "id": 2523582457, "lat": 13.9325966, "lon": 100.554201}, {"type": "node", "id": 2523582464, "lat": 13.9326118, "lon": 100.5543168}, {"type": "node", "id": 2523582473, "lat": 13.9326319, "lon": 100.5543149}, {"type": "node", "id": 2523582475, "lat": 13.9326334, "lon": 100.5543308}, {"type": "node", "id": 2523582494, "lat": 13.9326527, "lon": 100.5543289}, {"type": "node", "id": 2523582496, "lat": 13.9326576, "lon": 100.5543828}, {"type": "node", "id": 2523582513, "lat": 13.9326853, "lon": 100.5543788}, {"type": "node", "id": 2523582518, "lat": 13.9327123, "lon": 100.554375}, {"type": "node", "id": 2523582560, "lat": 13.9328309, "lon": 100.5559123}, {"type": "node", "id": 2523582564, "lat": 13.9329791, "lon": 100.5558143}, {"type": "node", "id": 2523582566, "lat": 13.9329987, "lon": 100.5555006}, {"type": "node", "id": 2523582569, "lat": 13.9329997, "lon": 100.5557219}, {"type": "node", "id": 2588029385, "lat": 13.9324916, "lon": 100.5535103}, {"type": "node", "id": 2588051626, "lat": 13.9329292, "lon": 100.5558653}, {"type": "node", "id": 5832132923, "lat": 13.943623, "lon": 100.5583726}, {"type": "node", "id": 13166631013, "lat": 13.9454461, "lon": 100.5570289}, {"type": "node", "id": 13166631014, "lat": 13.9454458, "lon": 100.5570905}, {"type": "node", "id": 13166631015, "lat": 13.945388, "lon": 100.5570862}, {"type": "node", "id": 13166631016, "lat": 13.9453909, "lon": 100.5570236}, {"type": "node", "id": 5360192254, "lat": 13.9033749, "lon": 100.5627119}, {"type": "node", "id": 5360192252, "lat": 13.9063336, "lon": 100.5607228}, {"type": "node", "id": 5360192253, "lat": 13.9039246, "lon": 100.5601637}, {"type": "node", "id": 5360192255, "lat": 13.9057729, "lon": 100.5632286}, {"type": "node", "id": 5360207533, "lat": 13.9051302, "lon": 100.5603924}, {"type": "node", "id": 1592591357, "lat": 13.902449, "lon": 100.5798682}, {"type": "node", "id": 1592593861, "lat": 13.9015794, "lon": 100.5789562}, {"type": "node", "id": 5368343664, "lat": 13.9021299, "lon": 100.5803394}, {"type": "node", "id": 5368343665, "lat": 13.9012238, "lon": 100.5798673}, {"type": "node", "id": 5368343666, "lat": 13.9025881, "lon": 100.5792933}, {"type": "node", "id": 5364205455, "lat": 13.9006255, "lon": 100.5886754}, {"type": "node", "id": 5364205456, "lat": 13.9002384, "lon": 100.5894414}, {"type": "node", "id": 5364205457, "lat": 13.9005185, "lon": 100.5896146}, {"type": "node", "id": 5364205458, "lat": 13.9008518, "lon": 100.5888437}, {"type": "node", "id": 5365209195, "lat": 13.9009045, "lon": 100.5888941}, {"type": "node", "id": 5365217927, "lat": 13.9008886, "lon": 100.5888667}, {"type": "node", "id": 7400351355, "lat": 13.9008369, "lon": 100.5888326}, {"type": "node", "id": 2052667927, "lat": 13.9133994, "lon": 100.5670286}, {"type": "node", "id": 2052667928, "lat": 13.9134577, "lon": 100.5671186}, {"type": "node", "id": 2052667929, "lat": 13.9138121, "lon": 100.5664758}, {"type": "node", "id": 2052667931, "lat": 13.9140791, "lon": 100.5666284}, {"type": "node", "id": 2052667933, "lat": 13.9143268, "lon": 100.5668535}, {"type": "node", "id": 2052667936, "lat": 13.9146885, "lon": 100.5683141}, {"type": "node", "id": 2052667937, "lat": 13.9147395, "lon": 100.5673712}, {"type": "node", "id": 2052667939, "lat": 13.9148123, "lon": 100.5678289}, {"type": "node", "id": 2052667941, "lat": 13.9148779, "lon": 100.5673962}, {"type": "node", "id": 2053009764, "lat": 13.9142668, "lon": 100.5679045}, {"type": "node", "id": 2053929610, "lat": 13.9132971, "lon": 100.5814117}, {"type": "node", "id": 2053929619, "lat": 13.913743, "lon": 100.5792786}, {"type": "node", "id": 2053929623, "lat": 13.9138711, "lon": 100.5813822}, {"type": "node", "id": 2053929633, "lat": 13.9144078, "lon": 100.5813499}, {"type": "node", "id": 2053929636, "lat": 13.9146754, "lon": 100.5794005}, {"type": "node", "id": 2623116718, "lat": 13.9160242, "lon": 100.5846434}, {"type": "node", "id": 2053011494, "lat": 13.927808, "lon": 100.5686845}, {"type": "node", "id": 2053011496, "lat": 13.927845, "lon": 100.5685144}, {"type": "node", "id": 2053011499, "lat": 13.9280927, "lon": 100.5687183}, {"type": "node", "id": 2053011501, "lat": 13.9281211, "lon": 100.5685819}, {"type": "node", "id": 2053011503, "lat": 13.9283688, "lon": 100.5667299}, {"type": "node", "id": 2053011505, "lat": 13.9284243, "lon": 100.5666771}, {"type": "node", "id": 2053011507, "lat": 13.928494, "lon": 100.5669821}, {"type": "node", "id": 2053011509, "lat": 13.9284983, "lon": 100.5670173}, {"type": "node", "id": 2053011511, "lat": 13.9285979, "lon": 100.5687652}, {"type": "node", "id": 2053011513, "lat": 13.9287331, "lon": 100.5687549}, {"type": "node", "id": 2053011520, "lat": 13.9287915, "lon": 100.5687271}, {"type": "node", "id": 2053011532, "lat": 13.9288854, "lon": 100.5686538}, {"type": "node", "id": 2053011536, "lat": 13.9289523, "lon": 100.5685804}, {"type": "node", "id": 2053011538, "lat": 13.9291971, "lon": 100.5682344}, {"type": "node", "id": 2053011540, "lat": 13.9292896, "lon": 100.5670833}, {"type": "node", "id": 2053011541, "lat": 13.9293024, "lon": 100.5681053}, {"type": "node", "id": 2053011543, "lat": 13.9294234, "lon": 100.5680012}, {"type": "node", "id": 2053011547, "lat": 13.9296113, "lon": 100.567925}, {"type": "node", "id": 2053011549, "lat": 13.9296284, "lon": 100.5672534}, {"type": "node", "id": 2052668196, "lat": 13.930807, "lon": 100.5671792}, {"type": "node", "id": 2052668200, "lat": 13.9311463, "lon": 100.5661271}, {"type": "node", "id": 2052668207, "lat": 13.9319372, "lon": 100.5676205}, {"type": "node", "id": 2052668210, "lat": 13.9325799, "lon": 100.5678715}, {"type": "node", "id": 2052668214, "lat": 13.9329225, "lon": 100.566744}, {"type": "node", "id": 2053011551, "lat": 13.9297892, "lon": 100.5678927}, {"type": "node", "id": 2053011555, "lat": 13.9299287, "lon": 100.567881}, {"type": "node", "id": 2053011556, "lat": 13.930071, "lon": 100.5674748}, {"type": "node", "id": 4753329221, "lat": 13.9319363, "lon": 100.5681081}, {"type": "node", "id": 4753329222, "lat": 13.9319064, "lon": 100.5682247}, {"type": "node", "id": 4753329223, "lat": 13.9319754, "lon": 100.5682462}, {"type": "node", "id": 4753329224, "lat": 13.9320079, "lon": 100.5681295}, {"type": "node", "id": 5355748713, "lat": 13.9340304, "lon": 100.567318}, {"type": "node", "id": 5355748714, "lat": 13.9332806, "lon": 100.567074}, {"type": "node", "id": 5355748715, "lat": 13.9331843, "lon": 100.5671115}, {"type": "node", "id": 5355748716, "lat": 13.9330177, "lon": 100.5676238}, {"type": "node", "id": 5355748717, "lat": 13.9338221, "lon": 100.5679095}, {"type": "node", "id": 2623116713, "lat": 13.9153819, "lon": 100.5856376}, {"type": "node", "id": 2623116714, "lat": 13.915479, "lon": 100.585393}, {"type": "node", "id": 2623116715, "lat": 13.9157668, "lon": 100.5858117}, {"type": "node", "id": 2623116716, "lat": 13.9158747, "lon": 100.5855523}, {"type": "node", "id": 2623116717, "lat": 13.9159115, "lon": 100.5849151}, {"type": "node", "id": 2623116719, "lat": 13.916158, "lon": 100.5850163}, {"type": "node", "id": 2623116720, "lat": 13.9162677, "lon": 100.5847624}, {"type": "node", "id": 6004701844, "lat": 13.9128365, "lon": 100.5926978}, {"type": "node", "id": 6004701845, "lat": 13.9126491, "lon": 100.5927032}, {"type": "node", "id": 6004701846, "lat": 13.9125449, "lon": 100.5929339}, {"type": "node", "id": 6004701847, "lat": 13.9127662, "lon": 100.5927569}, {"type": "node", "id": 6004701848, "lat": 13.9130005, "lon": 100.5929795}, {"type": "node", "id": 6004701849, "lat": 13.912761, "lon": 100.5928615}, {"type": "node", "id": 6004701850, "lat": 13.9126664, "lon": 100.5929822}, {"type": "node", "id": 6004701851, "lat": 13.9130787, "lon": 100.5928078}, {"type": "node", "id": 1716296984, "lat": 13.920843, "lon": 100.6007649}, {"type": "node", "id": 2053929733, "lat": 13.920358, "lon": 100.6004532}, {"type": "node", "id": 2053929734, "lat": 13.9203676, "lon": 100.6004937}, {"type": "node", "id": 2053929763, "lat": 13.9208736, "lon": 100.5994919}, {"type": "node", "id": 2053929767, "lat": 13.9209119, "lon": 100.6008036}, {"type": "node", "id": 2053929771, "lat": 13.9209621, "lon": 100.6007882}, {"type": "node", "id": 2053929795, "lat": 13.9214463, "lon": 100.6007345}, {"type": "node", "id": 2053929798, "lat": 13.921474, "lon": 100.5998338}, {"type": "node", "id": 2053929822, "lat": 13.9219395, "lon": 100.601588}, {"type": "node", "id": 2053929830, "lat": 13.9221556, "lon": 100.6011173}, {"type": "node", "id": 2053929847, "lat": 13.9226006, "lon": 100.6019705}, {"type": "node", "id": 2053929850, "lat": 13.9226809, "lon": 100.6019469}, {"type": "node", "id": 5329375990, "lat": 13.920632, "lon": 100.6006445}, {"type": "node", "id": 10274557691, "lat": 13.9218888, "lon": 100.5999788}, {"type": "node", "id": 2119802809, "lat": 13.9280761, "lon": 100.5941935}, {"type": "node", "id": 2119802825, "lat": 13.9286351, "lon": 100.5919027}, {"type": "node", "id": 2119802840, "lat": 13.9290918, "lon": 100.5949191}, {"type": "node", "id": 2119802843, "lat": 13.9291757, "lon": 100.5945684}, {"type": "node", "id": 10766581078, "lat": 13.9359699, "lon": 100.5888511}, {"type": "node", "id": 10766581079, "lat": 13.9358203, "lon": 100.5892141}, {"type": "node", "id": 10766581080, "lat": 13.9352848, "lon": 100.5889818}, {"type": "node", "id": 10766581081, "lat": 13.9354337, "lon": 100.588627}, {"type": "node", "id": 2119802860, "lat": 13.9298886, "lon": 100.5923292}, {"type": "node", "id": 2119802866, "lat": 13.930564, "lon": 100.5953739}, {"type": "node", "id": 2119802881, "lat": 13.931327, "lon": 100.592903}, {"type": "node", "id": 10274557690, "lat": 13.9231477, "lon": 100.6007111}, {"type": "node", "id": 5832132922, "lat": 13.9439552, "lon": 100.5585329}, {"type": "node", "id": 5832132924, "lat": 13.9435602, "lon": 100.5585196}, {"type": "node", "id": 5832132925, "lat": 13.9438255, "lon": 100.558722}, {"type": "node", "id": 9509657813, "lat": 13.9368633, "lon": 100.5833441}, {"type": "node", "id": 9509657814, "lat": 13.9367126, "lon": 100.5832923}, {"type": "node", "id": 9509657815, "lat": 13.936664, "lon": 100.5834259}, {"type": "node", "id": 9509657816, "lat": 13.9368211, "lon": 100.5834776}]}