{"version": 0.6, "generator": "Overpass API 0.7.62.8 e802775f", "osm3s": {"timestamp_osm_base": "2025-11-20T03:19:23Z", "copyright": "The data included in this document is from www.openstreetmap.org. The data is made available under ODbL."}, "elements": [{"type": "node", "id": 6413472606, "lat": 13.6414548, "lon": 100.4997763, "tags": {"addr:city": "\u0e17\u0e38\u0e48\u0e07\u0e04\u0e23\u0e38", "addr:housenumber": "18", "addr:postcode": "10140", "addr:street": "\u0e1b\u0e23\u0e30\u0e0a\u0e32\u0e2d\u0e38\u0e17\u0e34\u0e28", "amenity": "restaurant", "cuisine": "coffee_shop;italian", "internet_access": "wlan", "name": "Princess Coffee", "opening_hours": "10:00-21:00", "outdoor_seating": "yes", "takeaway": "yes"}}, {"type": "node", "id": 7882592337, "lat": 13.6491771, "lon": 100.4811724, "tags": {"addr:street": "Phutthabucha soi 36", "amenity": "restaurant", "description": "Family run grilled chicken, somtam, and other Thai food with vegetarian menu", "diet:vegetarian": "yes", "name": "Krua Je Leng", "opening_hours": "Tu-Su 09:30-20:00", "phone": "+66 2 426 3707"}}, {"type": "node", "id": 7904306524, "lat": 13.6499143, "lon": 100.480938, "tags": {"amenity": "restaurant", "description": "A la carte ramen and shabu-shabu buffet", "name": "Oooi Ramen", "opening_hours": "Mo, We-Su 11:00-22:00", "phone": "062-569-9469", "website": "https://www.facebook.com/OOOIRAMEN/"}}, {"type": "node", "id": 8027501272, "lat": 13.6499859, "lon": 100.4966342, "tags": {"amenity": "restaurant", "description": "Quaint ramen shop with Japanese decor", "name": "Manpuku Ramen", "opening_hours": "Mo-Su 11:30-21:00", "phone": "0946641651", "website": "https://m.facebook.com/pages/Manpuku-ramen/692270807881113"}}, {"type": "node", "id": 8027521216, "lat": 13.6498998, "lon": 100.4963393, "tags": {"amenity": "cafe", "description": "Bubble tea", "name": "BLK. Boba", "phone": "0829180920"}}, {"type": "node", "id": 8137671117, "lat": 13.6227784, "lon": 100.476623, "tags": {"name:en": "Assistant Nan.", "tourism": "apartment"}}, {"type": "node", "id": 8481672429, "lat": 13.6449101, "lon": 100.498663, "tags": {"amenity": "restaurant", "description": "Charming little restaurant in a beautifully renovated wooden boat with Mediterranean, Indian, and Thai dishes", "name": "Baan Pakistan", "opening_hours": "Mo-Su 10:00-21:00", "phone": "097-0720786", "website": "https://www.facebook.com/Baan-Pakistan-383129812559702/"}}, {"type": "node", "id": 10934581615, "lat": 13.6499629, "lon": 100.4825865, "tags": {"addr:city": "\u0e1a\u0e32\u0e07\u0e21\u0e14", "addr:housenumber": "266/4", "addr:postcode": "10140", "addr:street": "\u0e16\u0e19\u0e19\u0e1e\u0e38\u0e17\u0e18\u0e1a\u0e39\u0e0a\u0e32", "air_conditioning": "yes", "amenity": "restaurant", "branch": "\u0e2a\u0e32\u0e02\u0e32\u0e1e\u0e38\u0e17\u0e18\u0e1a\u0e39\u0e0a\u0e32-\u0e1a\u0e32\u0e07\u0e21\u0e14", "cuisine": "chinese;grill", "description": "\u0e23\u0e49\u0e32\u0e19\u0e2a\u0e38\u0e01\u0e35\u0e49\u0e2b\u0e21\u0e48\u0e32\u0e25\u0e48\u0e32\u0e2a\u0e32\u0e22\u0e1e\u0e32\u0e19\u0e2a\u0e39\u0e15\u0e23\u0e1e\u0e34\u0e40\u0e28\u0e29 \u0e40\u0e1e\u0e34\u0e48\u0e21\u0e40\u0e15\u0e32\u0e1b\u0e34\u0e49\u0e07\u0e22\u0e48\u0e32\u0e07\u0e1f\u0e23\u0e35 \u0e1a\u0e38\u0e1f\u0e40\u0e1f\u0e48\u0e15\u0e4c\u0e19\u0e49\u0e33\u0e08\u0e34\u0e49\u0e07\u0e14\u0e49\u0e27\u0e22\u0e19\u0e30 \u0e04\u0e31\u0e14\u0e2a\u0e23\u0e23\u0e04\u0e4c\u0e21\u0e32\u0e40\u0e1e\u0e37\u0e48\u0e2d\u0e25\u0e39\u0e01\u0e04\u0e49\u0e32\u0e42\u0e14\u0e22\u0e40\u0e09\u0e1e\u0e32\u0e30 \u0e15\u0e49\u0e19\u0e15\u0e33\u0e2b\u0e23\u0e31\u0e1a\u0e42\u0e14\u0e22\u0e40\u0e0a\u0e1f\u0e1d\u0e35\u0e21\u0e37\u0e2d\u0e14\u0e35\u0e08\u0e32\u0e01\u0e08\u0e35\u0e19\u0e42\u0e14\u0e22\u0e15\u0e23\u0e07 \u0e43\u0e2a\u0e48\u0e43\u0e08\u0e15\u0e31\u0e49\u0e07\u0e41\u0e15\u0e48\u0e19\u0e49\u0e33\u0e0b\u0e38\u0e1b \u0e1e\u0e23\u0e34\u0e01\u0e1c\u0e31\u0e14\u0e2b\u0e21\u0e48\u0e32\u0e25\u0e48\u0e32\u0e41\u0e25\u0e30\u0e19\u0e49\u0e33\u0e08\u0e34\u0e49\u0e21\u0e2a\u0e39\u0e15\u0e23\u0e02\u0e2d\u0e07\u0e17\u0e32\u0e07\u0e23\u0e49\u0e32\u0e19 \u0e21\u0e35\u0e25\u0e32\u0e19\u0e08\u0e2d\u0e14\u0e23\u0e16\u0e1f\u0e23\u0e35!", "name": "\u0e0b\u0e37\u0e2d\u0e2b\u0e27\u0e31\u0e07\u0e2a\u0e38\u0e01\u0e35\u0e49\u0e2b\u0e21\u0e48\u0e32\u0e25\u0e48\u0e32 \u0e2a\u0e32\u0e02\u0e32\u0e1e\u0e38\u0e17\u0e18\u0e1a\u0e39\u0e0a\u0e32-\u0e1a\u0e32\u0e07\u0e21\u0e14", "opening_hours": "Mo-Su 11:00-02:00", "phone": "+66855200216", "smoking": "no", "takeaway": "yes", "toilets": "yes", "website": "https://www.facebook.com/Sw.sukimala"}}, {"type": "node", "id": 11982390967, "lat": 13.6146394, "lon": 100.4681193, "tags": {"historic": "wayside_shrine"}}, {"type": "node", "id": 11982764843, "lat": 13.6309344, "lon": 100.4577917, "tags": {"historic": "wayside_shrine"}}, {"type": "node", "id": 11985750555, "lat": 13.6238331, "lon": 100.4977398, "tags": {"historic": "wayside_shrine"}}, {"type": "node", "id": 11990232625, "lat": 13.6014444, "lon": 100.478912, "tags": {"historic": "wayside_shrine"}}, {"type": "node", "id": 11990232626, "lat": 13.6014396, "lon": 100.4790131, "tags": {"historic": "wayside_shrine"}}, {"type": "node", "id": 11990232645, "lat": 13.6014758, "lon": 100.4794538, "tags": {"historic": "wayside_shrine"}}, {"type": "node", "id": 11990232731, "lat": 13.6010454, "lon": 100.4799572, "tags": {"historic": "wayside_shrine"}}, {"type": "node", "id": 12009827146, "lat": 13.6005037, "lon": 100.4740163, "tags": {"historic": "wayside_shrine"}}, {"type": "node", "id": 12009827301, "lat": 13.6011992, "lon": 100.4726278, "tags": {"historic": "wayside_shrine"}}, {"type": "node", "id": 12056824386, "lat": 13.6036349, "lon": 100.4852578, "tags": {"historic": "wayside_shrine"}}, {"type": "node", "id": 12063473099, "lat": 13.6402741, "lon": 100.4714695, "tags": {"historic": "wayside_shrine"}}, {"type": "node", "id": 12063473100, "lat": 13.6401013, "lon": 100.470581, "tags": {"historic": "wayside_shrine"}}, {"type": "node", "id": 12071330715, "lat": 13.6138976, "lon": 100.488485, "tags": {"historic": "wayside_shrine"}}, {"type": "node", "id": 12199151301, "lat": 13.607856, "lon": 100.4506972, "tags": {"historic": "wayside_shrine"}}, {"type": "node", "id": 12199151302, "lat": 13.6083585, "lon": 100.4514309, "tags": {"historic": "wayside_shrine"}}, {"type": "node", "id": 12202249522, "lat": 13.6138042, "lon": 100.4547213, "tags": {"historic": "wayside_shrine"}}, {"type": "way", "id": 26576748, "nodes": [291430866, 2179132575, 12336657084, 12336657083, 2179132576, 291430867, 2179132580, 330411836, 330411835, 12337609452, 12337609453, 12337609454, 12337609455, 291430868, 291430869, 291430870, 291430871, 12337609456, 291430872, 291430873, 291430874, 291430875, 291430876, 291430877, 291430878, 291430879, 291430880, 291430881, 291430882, 291430883, 11699868210, 291430884, 291430885, 291430886, 291430887, 291430888, 291430889, 291430890, 291430891, 291430892, 291430893, 291430894, 12336657082, 291430895, 291430866], "tags": {"addr:postcode": "10140", "addr:province": "\u0e01\u0e23\u0e38\u0e07\u0e40\u0e17\u0e1e\u0e21\u0e2b\u0e32\u0e19\u0e04\u0e23", "addr:street": "\u0e16\u0e19\u0e19\u0e1e\u0e38\u0e17\u0e18\u0e1a\u0e39\u0e0a\u0e32", "leisure": "park", "name": "\u0e2a\u0e27\u0e19\u0e18\u0e19\u0e1a\u0e38\u0e23\u0e35\u0e23\u0e21\u0e22\u0e4c", "name:en": "Thonburirom Park", "name:th": "\u0e2a\u0e27\u0e19\u0e18\u0e19\u0e1a\u0e38\u0e23\u0e35\u0e23\u0e21\u0e22\u0e4c", "opening_hours": "05:00-21:00", "website": "http://203.155.220.217/office/ppdd/publicpark/thai/2011/park16.asp"}}, {"type": "way", "id": 30014105, "nodes": [5930682125, 10149317779, 330409430, 12169889018, 12169702007, 12169702009, 12169702010, 330409432, 330409433, 12169702012, 12169702011, 330409434, 12169702017, 330409435, 12169702018, 12169702019, 12169702020, 330409437, 4811724178, 4811724177, 330409426, 330409429, 5930682125], "tags": {"amenity": "place_of_worship", "denomination": "thai_thammayut", "name": "\u0e27\u0e31\u0e14\u0e1e\u0e38\u0e17\u0e18\u0e1a\u0e39\u0e0a\u0e32", "name:en": "Wat Puttha Bucha", "name:th": "\u0e27\u0e31\u0e14\u0e1e\u0e38\u0e17\u0e18\u0e1a\u0e39\u0e0a\u0e32", "religion": "buddhist", "wikidata": "Q13020781", "wikipedia": "th:\u0e27\u0e31\u0e14\u0e1e\u0e38\u0e17\u0e18\u0e1a\u0e39\u0e0a\u0e32"}}, {"type": "way", "id": 378153792, "nodes": [3815717893, 3815717898, 3815717892, 3815717890, 3815717893], "tags": {"addr:district": "\u0e17\u0e38\u0e48\u0e07\u0e04\u0e23\u0e38", "addr:postcode": "10140", "addr:province": "\u0e01\u0e23\u0e38\u0e07\u0e40\u0e17\u0e1e\u0e21\u0e2b\u0e32\u0e19\u0e04\u0e23", "amenity": "marketplace", "building": "yes", "name": "\u0e15\u0e25\u0e32\u0e14\u0e43\u0e2b\u0e21\u0e48\u0e17\u0e38\u0e48\u0e07\u0e04\u0e23\u0e38", "organic": "no"}}, {"type": "way", "id": 420054257, "nodes": [4200317943, 4200396346, 4200396348, 4200396347, 4200317941, 4200317939, 4200317943], "tags": {"addr:district": "\u0e17\u0e38\u0e48\u0e07\u0e04\u0e23\u0e38", "addr:postcode": "10140", "addr:province": "\u0e01\u0e23\u0e38\u0e07\u0e40\u0e17\u0e1e\u0e21\u0e2b\u0e32\u0e19\u0e04\u0e23", "amenity": "cafe", "building": "yes", "name": "Kafe Delight"}}, {"type": "way", "id": 1244831731, "nodes": [11572134351, 11572134352, 11572134353, 11572134354, 11572134355, 11572134356, 11572134351], "tags": {"addr:district": "\u0e1a\u0e32\u0e07\u0e02\u0e38\u0e19\u0e40\u0e17\u0e35\u0e22\u0e19", "addr:postcode": "10150", "addr:province": "\u0e01\u0e23\u0e38\u0e07\u0e40\u0e17\u0e1e\u0e21\u0e2b\u0e32\u0e19\u0e04\u0e23", "addr:subdistrict": "\u0e17\u0e48\u0e32\u0e02\u0e49\u0e32\u0e21", "amenity": "restaurant", "building": "yes", "cuisine": "noodle", "name": "\u0e01\u0e4b\u0e27\u0e22\u0e40\u0e15\u0e35\u0e4b\u0e22\u0e27\u0e40\u0e23\u0e37\u0e2d\u0e2d\u0e22\u0e38\u0e18\u0e22\u0e32", "name:th": "\u0e01\u0e4b\u0e27\u0e22\u0e40\u0e15\u0e35\u0e4b\u0e22\u0e27\u0e40\u0e23\u0e37\u0e2d\u0e2d\u0e22\u0e38\u0e18\u0e22\u0e32"}}, {"type": "way", "id": 1244831732, "nodes": [11572134361, 11572134358, 11572134359, 11572134362, 11572134361], "tags": {"addr:district": "\u0e1a\u0e32\u0e07\u0e02\u0e38\u0e19\u0e40\u0e17\u0e35\u0e22\u0e19", "addr:postcode": "10150", "addr:province": "\u0e01\u0e23\u0e38\u0e07\u0e40\u0e17\u0e1e\u0e21\u0e2b\u0e32\u0e19\u0e04\u0e23", "addr:subdistrict": "\u0e17\u0e48\u0e32\u0e02\u0e49\u0e32\u0e21", "amenity": "restaurant", "building": "yes", "name": "\u0e19\u0e49\u0e32\u0e23\u0e27\u0e22 \u0e02\u0e49\u0e32\u0e27\u0e21\u0e31\u0e19\u0e44\u0e01\u0e48", "name:th": "\u0e19\u0e49\u0e32\u0e23\u0e27\u0e22 \u0e02\u0e49\u0e32\u0e27\u0e21\u0e31\u0e19\u0e44\u0e01\u0e48"}}, {"type": "way", "id": 1292552495, "nodes": [11982390327, 11982390328, 11982390329, 11982390330, 11982390331, 11982390332, 11982390333, 11982390334, 11982390327], "tags": {"leisure": "park", "name": "\u0e2a\u0e27\u0e19 City Sense", "name:th": "\u0e2a\u0e27\u0e19 City Sense"}}, {"type": "way", "id": 1292602392, "nodes": [11982764926, 11982764927, 11982764928, 11982764919, 11982764925, 11982764929, 11982764930, 11982764931, 11982764932, 11982764933, 11982764934, 11982764926], "tags": {"leisure": "park"}}, {"type": "way", "id": 1292602403, "nodes": [11982765026, 11982765027, 11982765028, 11982765029, 11982765030, 11982765031, 11982765032, 11982765033, 11982765008, 11982765026], "tags": {"leisure": "park"}}, {"type": "way", "id": 1292814962, "nodes": [11985173594, 11985173595, 11985173596, 11985173597, 11985173598, 11985173599, 11985173600, 11985173579, 11985173601, 11985173602, 11985173603, 11985173604, 11985173605, 11985173594], "tags": {"leisure": "park"}}, {"type": "way", "id": 1292814966, "nodes": [11985173645, 11985173646, 11985173647, 11985173648, 11985173649, 11985173645], "tags": {"leisure": "park"}}, {"type": "way", "id": 1292884908, "nodes": [11985750550, 11985750551, 11985750552, 11985750553, 11985750554, 11985750550], "tags": {"leisure": "park"}}, {"type": "way", "id": 1292884945, "nodes": [11985750752, 11985750753, 11985750754, 11985750755, 11985750756, 11985750757, 11985750758, 11985750759, 11985750760, 11985750761, 11985750762, 11985750763, 11985750764, 11985750765, 11985750752], "tags": {"leisure": "park"}}, {"type": "way", "id": 1292884955, "nodes": [11985750782, 11985750806, 11985750807, 11985750808, 11985750782], "tags": {"leisure": "park"}}, {"type": "way", "id": 1292884974, "nodes": [11985750917, 11985750918, 11985750919, 11985750920, 11985750921, 11985750922, 11985750923, 11985750924, 11985750917], "tags": {"leisure": "park"}}, {"type": "way", "id": 1292893505, "nodes": [11985811897, 11985811898, 11985811899, 11985811900, 11985811901, 11985811902, 11985811903, 11985811904, 11985811905, 11985811906, 11985811907, 11985811908, 11985811909, 11985811897], "tags": {"leisure": "park"}}, {"type": "way", "id": 1293690812, "nodes": [11992354248, 11992354249, 11992354250, 11992354251, 11992354252, 11992354253, 11992354254, 11992354255, 11992354256, 11992354257, 11992354258, 11992354259, 11992354260, 11992354248], "tags": {"leisure": "park"}}, {"type": "way", "id": 1293690825, "nodes": [11992361163, 11992361164, 11992361165, 11992361166, 11992361167, 11992361168, 11992361169, 11992361170, 11992361171, 11992361172, 11992361173, 11992361174, 11992361175, 11992361163], "tags": {"leisure": "park"}}, {"type": "way", "id": 1296084301, "nodes": [12009874240, 12009874241, 12009874242, 12009874243, 12009874244, 12009874245, 12009874246, 12009874247, 12009874248, 12009874249, 12009874250, 12009874251, 12009874252, 12009874253, 12009874254, 12009874240], "tags": {"leisure": "park"}}, {"type": "way", "id": 1296084310, "nodes": [12009874301, 12009874302, 12009874303, 12009874304, 12009874305, 12009874306, 12009874307, 12009874308, 12009874309, 12009874301], "tags": {"leisure": "park"}}, {"type": "way", "id": 1301705775, "nodes": [12056842519, 12056842522, 12056842523, 12056842524, 12056842525, 12056842526, 11985750570, 12056842520, 12056842519], "tags": {"leisure": "park"}}, {"type": "way", "id": 1302885851, "nodes": [3887296438, 12066496622, 12066496623, 12066496624, 12066496625, 12066496626, 12066496627, 12066496628, 12066496629, 13287853424, 12066496630, 12066496631, 12066496632, 3887296438], "tags": {"amenity": "place_of_worship", "denomination": "thai_mahanikaya", "name": "\u0e27\u0e31\u0e14\u0e1a\u0e31\u0e27\u0e1c\u0e31\u0e19", "name:en": "Wat Bua Phan", "name:th": "\u0e27\u0e31\u0e14\u0e1a\u0e31\u0e27\u0e1c\u0e31\u0e19", "religion": "buddhist", "wikidata": "Q100234751", "wikipedia": "th:\u0e27\u0e31\u0e14\u0e1a\u0e31\u0e27\u0e1c\u0e31\u0e19"}}, {"type": "way", "id": 1321841302, "nodes": [1524343672, 12231800014, 12231800015, 12231800016, 12231800017, 12231800018, 12231800019, 12231800020, 12231800047, 12231800021, 12231800056, 12231800022, 12231800023, 11999453678, 11999453707, 11999453706, 11999453705, 12231800030, 12231800024, 12231800025, 12231800026, 12231800027, 1524343672], "tags": {"amenity": "place_of_worship", "denomination": "thai_mahanikaya", "name": "\u0e27\u0e31\u0e14\u0e2b\u0e31\u0e27\u0e01\u0e23\u0e30\u0e1a\u0e37\u0e2d", "name:en": "Wat Hua Krabue", "name:th": "\u0e27\u0e31\u0e14\u0e2b\u0e31\u0e27\u0e01\u0e23\u0e30\u0e1a\u0e37\u0e2d", "religion": "buddhist", "wikidata": "Q100234746", "wikimedia_commons": "Category:Wat Hua Krabue", "wikipedia": "th:\u0e27\u0e31\u0e14\u0e2b\u0e31\u0e27\u0e01\u0e23\u0e30\u0e1a\u0e37\u0e2d"}}, {"type": "way", "id": 1321842558, "nodes": [12231814317, 12231814318, 12231826936, 12231826922, 12231826925, 12231826975, 12231826923, 12231826970, 12231826924, 12231814311, 12231814312, 12231814313, 12231814314, 12231814315, 12231814316, 12231814317], "tags": {"amenity": "marketplace"}}, {"type": "way", "id": 1333425889, "nodes": [12336656992, 12336656993, 12336656994, 12336656995, 12336656996, 12336656997, 12336656998, 12336656992], "tags": {"addr:district": "\u0e17\u0e38\u0e48\u0e07\u0e04\u0e23\u0e38", "addr:postcode": "10140", "addr:province": "\u0e01\u0e23\u0e38\u0e07\u0e40\u0e17\u0e1e\u0e21\u0e2b\u0e32\u0e19\u0e04\u0e23", "amenity": "cafe", "building": "yes", "cuisine": "coffee_shop;cake", "name": "Merlin"}}, {"type": "way", "id": 1448269862, "nodes": [13287853710, 12065075630, 12065075629, 12065075628, 13287853712, 13287853713, 13287853714, 13287853752, 13287853751, 12065075699, 12065075698, 12065075693, 12065075692, 12065075691, 12065075690, 12065075689, 13287853759, 13287853758, 13287853755, 13287853756, 13287853753, 13287853715, 13287853716, 13287853710], "tags": {"leisure": "park", "name": "\u0e2a\u0e27\u0e19\u0e1a\u0e27\u0e23\u0e1b\u0e23\u0e30\u0e0a\u0e32\u0e19\u0e31\u0e19\u0e17\u0e4c", "name:th": "\u0e2a\u0e27\u0e19\u0e1a\u0e27\u0e23\u0e1b\u0e23\u0e30\u0e0a\u0e32\u0e19\u0e31\u0e19\u0e17\u0e4c"}}, {"type": "node", "id": 11999453678, "lat": 13.6201039, "lon": 100.446527}, {"type": "node", "id": 11999453707, "lat": 13.6200779, "lon": 100.4466236}, {"type": "node", "id": 12231800023, "lat": 13.6188976, "lon": 100.4463507}, {"type": "node", "id": 1524343672, "lat": 13.6186051, "lon": 100.4500941}, {"type": "node", "id": 11572134351, "lat": 13.6173535, "lon": 100.4527152}, {"type": "node", "id": 11572134352, "lat": 13.6172699, "lon": 100.4527248}, {"type": "node", "id": 11572134353, "lat": 13.6172929, "lon": 100.4529371}, {"type": "node", "id": 11572134354, "lat": 13.6173315, "lon": 100.4529327}, {"type": "node", "id": 11572134355, "lat": 13.6173204, "lon": 100.4528298}, {"type": "node", "id": 11572134356, "lat": 13.6173654, "lon": 100.4528247}, {"type": "node", "id": 11572134358, "lat": 13.6170099, "lon": 100.4529952}, {"type": "node", "id": 11572134359, "lat": 13.6169219, "lon": 100.4530042}, {"type": "node", "id": 11572134361, "lat": 13.6169805, "lon": 100.4526895}, {"type": "node", "id": 11572134362, "lat": 13.6168925, "lon": 100.4526984}, {"type": "node", "id": 11999453705, "lat": 13.6198563, "lon": 100.4483107}, {"type": "node", "id": 11999453706, "lat": 13.6198537, "lon": 100.4480934}, {"type": "node", "id": 12231800014, "lat": 13.6186728, "lon": 100.4490042}, {"type": "node", "id": 12231800015, "lat": 13.6186391, "lon": 100.4489478}, {"type": "node", "id": 12231800016, "lat": 13.6185561, "lon": 100.4489051}, {"type": "node", "id": 12231800017, "lat": 13.6186002, "lon": 100.4484033}, {"type": "node", "id": 12231800018, "lat": 13.618717, "lon": 100.4481792}, {"type": "node", "id": 12231800019, "lat": 13.618691, "lon": 100.4480697}, {"type": "node", "id": 12231800020, "lat": 13.6185243, "lon": 100.4478406}, {"type": "node", "id": 12231800021, "lat": 13.6186196, "lon": 100.4474389}, {"type": "node", "id": 12231800022, "lat": 13.6186554, "lon": 100.4471475}, {"type": "node", "id": 12231800024, "lat": 13.6197215, "lon": 100.4491523}, {"type": "node", "id": 12231800025, "lat": 13.6195803, "lon": 100.4500215}, {"type": "node", "id": 12231800026, "lat": 13.6192359, "lon": 100.4500827}, {"type": "node", "id": 12231800027, "lat": 13.6188024, "lon": 100.4501184}, {"type": "node", "id": 12231800030, "lat": 13.6197387, "lon": 100.4490446}, {"type": "node", "id": 12231800047, "lat": 13.618577, "lon": 100.4476184}, {"type": "node", "id": 12231800056, "lat": 13.6186332, "lon": 100.4473286}, {"type": "node", "id": 12231814311, "lat": 13.6201477, "lon": 100.451227}, {"type": "node", "id": 12231814312, "lat": 13.6199681, "lon": 100.4506621}, {"type": "node", "id": 12231814313, "lat": 13.6198681, "lon": 100.4505275}, {"type": "node", "id": 12231814314, "lat": 13.6195012, "lon": 100.4506436}, {"type": "node", "id": 12231814315, "lat": 13.6194114, "lon": 100.450377}, {"type": "node", "id": 12231814316, "lat": 13.6198116, "lon": 100.4503374}, {"type": "node", "id": 12231814317, "lat": 13.6198944, "lon": 100.4503524}, {"type": "node", "id": 12231814318, "lat": 13.619981, "lon": 100.4500365}, {"type": "node", "id": 12231826922, "lat": 13.6203677, "lon": 100.4499735}, {"type": "node", "id": 12231826923, "lat": 13.6204101, "lon": 100.4504782}, {"type": "node", "id": 12231826924, "lat": 13.6204868, "lon": 100.4511345}, {"type": "node", "id": 12231826925, "lat": 13.6203835, "lon": 100.4501615}, {"type": "node", "id": 12231826936, "lat": 13.620252, "lon": 100.4499924}, {"type": "node", "id": 12231826970, "lat": 13.6204645, "lon": 100.4509437}, {"type": "node", "id": 12231826975, "lat": 13.6203968, "lon": 100.4503197}, {"type": "node", "id": 12065075628, "lat": 13.6237892, "lon": 100.4498705}, {"type": "node", "id": 12065075629, "lat": 13.6238656, "lon": 100.4499992}, {"type": "node", "id": 12065075630, "lat": 13.6240498, "lon": 100.4504641}, {"type": "node", "id": 12065075689, "lat": 13.6255501, "lon": 100.4494155}, {"type": "node", "id": 12065075690, "lat": 13.625484, "lon": 100.4493351}, {"type": "node", "id": 12065075691, "lat": 13.6252616, "lon": 100.4493474}, {"type": "node", "id": 12065075692, "lat": 13.6250902, "lon": 100.4494248}, {"type": "node", "id": 12065075693, "lat": 13.6250211, "lon": 100.4495454}, {"type": "node", "id": 12065075698, "lat": 13.6244229, "lon": 100.4497032}, {"type": "node", "id": 12065075699, "lat": 13.6243511, "lon": 100.4497015}, {"type": "node", "id": 13287853710, "lat": 13.6241738, "lon": 100.4507105}, {"type": "node", "id": 13287853712, "lat": 13.6237745, "lon": 100.4497952}, {"type": "node", "id": 13287853713, "lat": 13.6242204, "lon": 100.4496218}, {"type": "node", "id": 13287853714, "lat": 13.6242434, "lon": 100.4496657}, {"type": "node", "id": 13287853715, "lat": 13.6243535, "lon": 100.4498317}, {"type": "node", "id": 13287853716, "lat": 13.6246352, "lon": 100.4506009}, {"type": "node", "id": 13287853751, "lat": 13.6243034, "lon": 100.4496399}, {"type": "node", "id": 13287853752, "lat": 13.6242797, "lon": 100.4496736}, {"type": "node", "id": 13287853753, "lat": 13.6243426, "lon": 100.4498085}, {"type": "node", "id": 13287853755, "lat": 13.6248927, "lon": 100.4497339}, {"type": "node", "id": 13287853756, "lat": 13.6246092, "lon": 100.449799}, {"type": "node", "id": 13287853758, "lat": 13.6250134, "lon": 100.4496864}, {"type": "node", "id": 13287853759, "lat": 13.6255631, "lon": 100.4495084}, {"type": "node", "id": 11982765008, "lat": 13.6342329, "lon": 100.4510459}, {"type": "node", "id": 11982765026, "lat": 13.6339062, "lon": 100.4510288}, {"type": "node", "id": 11982765027, "lat": 13.6339512, "lon": 100.4510851}, {"type": "node", "id": 11982765028, "lat": 13.6337107, "lon": 100.4513552}, {"type": "node", "id": 11982765029, "lat": 13.6337133, "lon": 100.4513871}, {"type": "node", "id": 11982765030, "lat": 13.6337482, "lon": 100.4514257}, {"type": "node", "id": 11982765031, "lat": 13.6338723, "lon": 100.4514643}, {"type": "node", "id": 11982765032, "lat": 13.6344493, "lon": 100.4514415}, {"type": "node", "id": 11982765033, "lat": 13.6344133, "lon": 100.450926}, {"type": "node", "id": 11992361163, "lat": 13.6383741, "lon": 100.4519125}, {"type": "node", "id": 11992361164, "lat": 13.6383793, "lon": 100.45252}, {"type": "node", "id": 11992361165, "lat": 13.6381421, "lon": 100.4525267}, {"type": "node", "id": 11992361166, "lat": 13.638103, "lon": 100.4524771}, {"type": "node", "id": 11992361167, "lat": 13.6381252, "lon": 100.4517301}, {"type": "node", "id": 11992361168, "lat": 13.6381838, "lon": 100.4516389}, {"type": "node", "id": 11992361169, "lat": 13.6382086, "lon": 100.4515946}, {"type": "node", "id": 11992361170, "lat": 13.6384158, "lon": 100.4515343}, {"type": "node", "id": 11992361171, "lat": 13.6387338, "lon": 100.4514552}, {"type": "node", "id": 11992361172, "lat": 13.6390205, "lon": 100.4514713}, {"type": "node", "id": 11992361173, "lat": 13.639031, "lon": 100.4518722}, {"type": "node", "id": 11992361174, "lat": 13.6386973, "lon": 100.4519111}, {"type": "node", "id": 11992361175, "lat": 13.6385741, "lon": 100.4519003}, {"type": "node", "id": 12009874240, "lat": 13.6035493, "lon": 100.4990603}, {"type": "node", "id": 12009874241, "lat": 13.6033857, "lon": 100.4994176}, {"type": "node", "id": 12009874242, "lat": 13.602958, "lon": 100.4992933}, {"type": "node", "id": 12009874252, "lat": 13.6038699, "lon": 100.4992402}, {"type": "node", "id": 12009874253, "lat": 13.6038334, "lon": 100.4991711}, {"type": "node", "id": 12009874254, "lat": 13.6036032, "lon": 100.4990546}, {"type": "node", "id": 12009874301, "lat": 13.6053877, "lon": 100.49678}, {"type": "node", "id": 12009874302, "lat": 13.6046914, "lon": 100.4968196}, {"type": "node", "id": 12009874303, "lat": 13.6046438, "lon": 100.4968593}, {"type": "node", "id": 12009874304, "lat": 13.6046801, "lon": 100.497263}, {"type": "node", "id": 12009874305, "lat": 13.6050135, "lon": 100.4971183}, {"type": "node", "id": 12009874306, "lat": 13.6051949, "lon": 100.4970903}, {"type": "node", "id": 12009874307, "lat": 13.605433, "lon": 100.4970833}, {"type": "node", "id": 12009874308, "lat": 13.6054671, "lon": 100.4970646}, {"type": "node", "id": 12009874309, "lat": 13.605458, "lon": 100.496808}, {"type": "node", "id": 12009874243, "lat": 13.6026435, "lon": 100.5005306}, {"type": "node", "id": 12009874244, "lat": 13.6027416, "lon": 100.500541}, {"type": "node", "id": 12009874245, "lat": 13.6027844, "lon": 100.500484}, {"type": "node", "id": 12009874246, "lat": 13.6030664, "lon": 100.5001451}, {"type": "node", "id": 12009874247, "lat": 13.6032895, "lon": 100.4999566}, {"type": "node", "id": 12009874248, "lat": 13.6034344, "lon": 100.4998718}, {"type": "node", "id": 12009874249, "lat": 13.6037452, "lon": 100.4997159}, {"type": "node", "id": 12009874250, "lat": 13.6038891, "lon": 100.4996764}, {"type": "node", "id": 12009874251, "lat": 13.603914, "lon": 100.499629}, {"type": "node", "id": 3887296438, "lat": 13.613458, "lon": 100.4803392}, {"type": "node", "id": 12066496622, "lat": 13.6126019, "lon": 100.4802459}, {"type": "node", "id": 12066496623, "lat": 13.6125519, "lon": 100.4802789}, {"type": "node", "id": 12066496624, "lat": 13.6125006, "lon": 100.4810165}, {"type": "node", "id": 12066496625, "lat": 13.612474, "lon": 100.4815035}, {"type": "node", "id": 12066496626, "lat": 13.6125891, "lon": 100.4815194}, {"type": "node", "id": 12066496627, "lat": 13.6130608, "lon": 100.4815108}, {"type": "node", "id": 12066496628, "lat": 13.6134328, "lon": 100.4814703}, {"type": "node", "id": 12066496629, "lat": 13.6134679, "lon": 100.4810904}, {"type": "node", "id": 12066496630, "lat": 13.6135002, "lon": 100.4804838}, {"type": "node", "id": 12066496631, "lat": 13.6134988, "lon": 100.4804015}, {"type": "node", "id": 12066496632, "lat": 13.6134931, "lon": 100.4803682}, {"type": "node", "id": 13287853424, "lat": 13.6134693, "lon": 100.481065}, {"type": "node", "id": 11985173579, "lat": 13.6211924, "lon": 100.4826106}, {"type": "node", "id": 11985173595, "lat": 13.6213539, "lon": 100.4799905}, {"type": "node", "id": 11985173596, "lat": 13.6212691, "lon": 100.4800047}, {"type": "node", "id": 11985173597, "lat": 13.6208522, "lon": 100.4818833}, {"type": "node", "id": 11985173598, "lat": 13.6207789, "lon": 100.4820624}, {"type": "node", "id": 11985173599, "lat": 13.6208866, "lon": 100.4820931}, {"type": "node", "id": 11985173600, "lat": 13.6207063, "lon": 100.4828606}, {"type": "node", "id": 11985173601, "lat": 13.6214547, "lon": 100.4813647}, {"type": "node", "id": 11985173602, "lat": 13.6216013, "lon": 100.4814001}, {"type": "node", "id": 11985173603, "lat": 13.6216219, "lon": 100.4812893}, {"type": "node", "id": 11985173604, "lat": 13.6214845, "lon": 100.4812587}, {"type": "node", "id": 11982764919, "lat": 13.6309545, "lon": 100.4552415}, {"type": "node", "id": 11982764925, "lat": 13.6311758, "lon": 100.4554056}, {"type": "node", "id": 11982764926, "lat": 13.6307173, "lon": 100.4548335}, {"type": "node", "id": 11982764927, "lat": 13.6306874, "lon": 100.4554871}, {"type": "node", "id": 11982764928, "lat": 13.6307586, "lon": 100.4555216}, {"type": "node", "id": 11982764929, "lat": 13.6311969, "lon": 100.4554125}, {"type": "node", "id": 11982764930, "lat": 13.6316807, "lon": 100.4547523}, {"type": "node", "id": 11982764931, "lat": 13.6316807, "lon": 100.4546887}, {"type": "node", "id": 11982764932, "lat": 13.6316381, "lon": 100.4546558}, {"type": "node", "id": 11982764933, "lat": 13.63115, "lon": 100.4546624}, {"type": "node", "id": 11982764934, "lat": 13.6311414, "lon": 100.4548488}, {"type": "node", "id": 11992354248, "lat": 13.6325618, "lon": 100.4618097}, {"type": "node", "id": 11992354249, "lat": 13.6317556, "lon": 100.4619902}, {"type": "node", "id": 11992354250, "lat": 13.6317268, "lon": 100.4620467}, {"type": "node", "id": 11992354251, "lat": 13.631677, "lon": 100.4620925}, {"type": "node", "id": 11992354252, "lat": 13.6316928, "lon": 100.4629167}, {"type": "node", "id": 11992354253, "lat": 13.6317085, "lon": 100.4629463}, {"type": "node", "id": 11992354254, "lat": 13.6317268, "lon": 100.4629571}, {"type": "node", "id": 11992354255, "lat": 13.6318943, "lon": 100.462949}, {"type": "node", "id": 11992354256, "lat": 13.6318315, "lon": 100.4625127}, {"type": "node", "id": 11992354257, "lat": 13.6321561, "lon": 100.462413}, {"type": "node", "id": 11992354258, "lat": 13.6321822, "lon": 100.4624992}, {"type": "node", "id": 11992354259, "lat": 13.6324832, "lon": 100.462413}, {"type": "node", "id": 11992354260, "lat": 13.6327083, "lon": 100.4623295}, {"type": "node", "id": 11985173645, "lat": 13.622583, "lon": 100.4759526}, {"type": "node", "id": 11985173646, "lat": 13.622384, "lon": 100.4759071}, {"type": "node", "id": 11985173647, "lat": 13.6222581, "lon": 100.4758231}, {"type": "node", "id": 11985173648, "lat": 13.6221547, "lon": 100.4763547}, {"type": "node", "id": 11985173649, "lat": 13.6224451, "lon": 100.4765766}, {"type": "node", "id": 11982390327, "lat": 13.6299021, "lon": 100.4726549}, {"type": "node", "id": 11982390328, "lat": 13.6297962, "lon": 100.4725848}, {"type": "node", "id": 11982390329, "lat": 13.6297643, "lon": 100.4725997}, {"type": "node", "id": 11982390333, "lat": 13.629728, "lon": 100.47317}, {"type": "node", "id": 11982390334, "lat": 13.6296033, "lon": 100.4730834}, {"type": "node", "id": 11982390330, "lat": 13.6292609, "lon": 100.4734342}, {"type": "node", "id": 11982390331, "lat": 13.6293523, "lon": 100.473494}, {"type": "node", "id": 11982390332, "lat": 13.6294524, "lon": 100.4735537}, {"type": "node", "id": 11985173594, "lat": 13.6217365, "lon": 100.4800824}, {"type": "node", "id": 11985173605, "lat": 13.6217158, "lon": 100.4802215}, {"type": "node", "id": 11985811897, "lat": 13.6253618, "lon": 100.4887953}, {"type": "node", "id": 11985811898, "lat": 13.6254417, "lon": 100.4887679}, {"type": "node", "id": 11985811899, "lat": 13.6255653, "lon": 100.4888012}, {"type": "node", "id": 11985811900, "lat": 13.6261908, "lon": 100.4891318}, {"type": "node", "id": 11985811901, "lat": 13.6263011, "lon": 100.4892238}, {"type": "node", "id": 11985811902, "lat": 13.6263258, "lon": 100.4893098}, {"type": "node", "id": 11985811903, "lat": 13.626244, "lon": 100.4894331}, {"type": "node", "id": 11985811904, "lat": 13.626071, "lon": 100.4896776}, {"type": "node", "id": 11985811905, "lat": 13.6260368, "lon": 100.4896463}, {"type": "node", "id": 11985811906, "lat": 13.6261299, "lon": 100.4894624}, {"type": "node", "id": 11985811907, "lat": 13.626109, "lon": 100.4893901}, {"type": "node", "id": 11985811908, "lat": 13.6260368, "lon": 100.4892864}, {"type": "node", "id": 11985811909, "lat": 13.6255367, "lon": 100.4889166}, {"type": "node", "id": 11985750550, "lat": 13.6240107, "lon": 100.4977041}, {"type": "node", "id": 11985750551, "lat": 13.6238095, "lon": 100.4976955}, {"type": "node", "id": 11985750552, "lat": 13.6237845, "lon": 100.4980568}, {"type": "node", "id": 11985750553, "lat": 13.624001, "lon": 100.4980668}, {"type": "node", "id": 11985750554, "lat": 13.623994, "lon": 100.4979111}, {"type": "node", "id": 11985750752, "lat": 13.6263431, "lon": 100.4977631}, {"type": "node", "id": 11985750753, "lat": 13.6268515, "lon": 100.4978047}, {"type": "node", "id": 11985750754, "lat": 13.6271983, "lon": 100.4978397}, {"type": "node", "id": 11985750755, "lat": 13.6276386, "lon": 100.4980061}, {"type": "node", "id": 11985750756, "lat": 13.6276748, "lon": 100.4978069}, {"type": "node", "id": 11985750757, "lat": 13.6275748, "lon": 100.4977369}, {"type": "node", "id": 11985750758, "lat": 13.6273259, "lon": 100.4976077}, {"type": "node", "id": 11985750759, "lat": 13.6269792, "lon": 100.4974282}, {"type": "node", "id": 11985750760, "lat": 13.6267516, "lon": 100.4973713}, {"type": "node", "id": 11985750761, "lat": 13.6265601, "lon": 100.4973188}, {"type": "node", "id": 11985750762, "lat": 13.6264452, "lon": 100.4972991}, {"type": "node", "id": 11985750763, "lat": 13.6264027, "lon": 100.4973144}, {"type": "node", "id": 11985750764, "lat": 13.6263601, "lon": 100.4973538}, {"type": "node", "id": 11985750765, "lat": 13.6263474, "lon": 100.4974282}, {"type": "node", "id": 11985750570, "lat": 13.6252655, "lon": 100.4995353}, {"type": "node", "id": 12056842519, "lat": 13.6260955, "lon": 100.5000764}, {"type": "node", "id": 12056842520, "lat": 13.6254091, "lon": 100.4996469}, {"type": "node", "id": 12056842522, "lat": 13.6258999, "lon": 100.5002538}, {"type": "node", "id": 12056842523, "lat": 13.6254652, "lon": 100.4997258}, {"type": "node", "id": 12056842524, "lat": 13.6254214, "lon": 100.4996901}, {"type": "node", "id": 12056842525, "lat": 13.6252841, "lon": 100.4997662}, {"type": "node", "id": 12056842526, "lat": 13.6252195, "lon": 100.4995433}, {"type": "node", "id": 11985750782, "lat": 13.6291687, "lon": 100.4979921}, {"type": "node", "id": 11985750806, "lat": 13.6291907, "lon": 100.497912}, {"type": "node", "id": 11985750807, "lat": 13.6301568, "lon": 100.498323}, {"type": "node", "id": 11985750808, "lat": 13.6300856, "lon": 100.4984838}, {"type": "node", "id": 11985750917, "lat": 13.6343656, "lon": 100.496303}, {"type": "node", "id": 11985750918, "lat": 13.6339042, "lon": 100.4961178}, {"type": "node", "id": 11985750919, "lat": 13.6338697, "lon": 100.4961453}, {"type": "node", "id": 11985750920, "lat": 13.6336897, "lon": 100.4966123}, {"type": "node", "id": 11985750921, "lat": 13.6337357, "lon": 100.496632}, {"type": "node", "id": 11985750922, "lat": 13.6341952, "lon": 100.4968251}, {"type": "node", "id": 11985750923, "lat": 13.6342258, "lon": 100.4968113}, {"type": "node", "id": 11985750924, "lat": 13.6343847, "lon": 100.4963601}, {"type": "node", "id": 12336656992, "lat": 13.6468666, "lon": 100.4804863}, {"type": "node", "id": 12336656993, "lat": 13.6469365, "lon": 100.4802157}, {"type": "node", "id": 12336656994, "lat": 13.6467419, "lon": 100.4801604}, {"type": "node", "id": 12336656995, "lat": 13.6467348, "lon": 100.4801856}, {"type": "node", "id": 12336656996, "lat": 13.6467026, "lon": 100.480176}, {"type": "node", "id": 12336656997, "lat": 13.6466333, "lon": 100.4804215}, {"type": "node", "id": 12336656998, "lat": 13.6467006, "lon": 100.4804402}, {"type": "node", "id": 3815717890, "lat": 13.6446792, "lon": 100.4989781}, {"type": "node", "id": 3815717893, "lat": 13.6450742, "lon": 100.4988335}, {"type": "node", "id": 3815717892, "lat": 13.6449926, "lon": 100.4998846}, {"type": "node", "id": 3815717898, "lat": 13.6453876, "lon": 100.49974}, {"type": "node", "id": 330409426, "lat": 13.6512993, "lon": 100.4719108}, {"type": "node", "id": 330409429, "lat": 13.6494205, "lon": 100.4722996}, {"type": "node", "id": 4811724177, "lat": 13.6513659, "lon": 100.4727622}, {"type": "node", "id": 4811724178, "lat": 13.6513855, "lon": 100.4729661}, {"type": "node", "id": 5930682125, "lat": 13.6492101, "lon": 100.4732216}, {"type": "node", "id": 10149317779, "lat": 13.6487814, "lon": 100.473206}, {"type": "node", "id": 330409430, "lat": 13.6484515, "lon": 100.4737253}, {"type": "node", "id": 330409432, "lat": 13.6511697, "lon": 100.4741206}, {"type": "node", "id": 330409433, "lat": 13.6520436, "lon": 100.4740272}, {"type": "node", "id": 330409434, "lat": 13.6522327, "lon": 100.4738823}, {"type": "node", "id": 330409435, "lat": 13.6519208, "lon": 100.4735829}, {"type": "node", "id": 330409437, "lat": 13.6513991, "lon": 100.4732566}, {"type": "node", "id": 12169702007, "lat": 13.649169, "lon": 100.4747684}, {"type": "node", "id": 12169702009, "lat": 13.6495335, "lon": 100.4746285}, {"type": "node", "id": 12169702010, "lat": 13.6502282, "lon": 100.4743649}, {"type": "node", "id": 12169702011, "lat": 13.6521881, "lon": 100.4739342}, {"type": "node", "id": 12169702012, "lat": 13.6521182, "lon": 100.4739867}, {"type": "node", "id": 12169702017, "lat": 13.6522323, "lon": 100.4735742}, {"type": "node", "id": 12169702018, "lat": 13.6518977, "lon": 100.47329}, {"type": "node", "id": 12169702019, "lat": 13.6515068, "lon": 100.4733239}, {"type": "node", "id": 12169702020, "lat": 13.6515035, "lon": 100.4732513}, {"type": "node", "id": 12169889018, "lat": 13.6488247, "lon": 100.4742465}, {"type": "node", "id": 291430866, "lat": 13.6498292, "lon": 100.4904491}, {"type": "node", "id": 291430867, "lat": 13.6502654, "lon": 100.4909329}, {"type": "node", "id": 291430868, "lat": 13.6507407, "lon": 100.4911343}, {"type": "node", "id": 291430869, "lat": 13.6510987, "lon": 100.4913594}, {"type": "node", "id": 291430870, "lat": 13.6512316, "lon": 100.4914858}, {"type": "node", "id": 291430871, "lat": 13.6515108, "lon": 100.4920437}, {"type": "node", "id": 291430872, "lat": 13.6516917, "lon": 100.4922485}, {"type": "node", "id": 291430873, "lat": 13.6520585, "lon": 100.4926864}, {"type": "node", "id": 291430878, "lat": 13.6539651, "lon": 100.4924698}, {"type": "node", "id": 291430879, "lat": 13.654151, "lon": 100.4919601}, {"type": "node", "id": 291430880, "lat": 13.6542021, "lon": 100.4918206}, {"type": "node", "id": 291430881, "lat": 13.653793, "lon": 100.4916991}, {"type": "node", "id": 291430882, "lat": 13.6535908, "lon": 100.4916336}, {"type": "node", "id": 291430883, "lat": 13.65352, "lon": 100.4917925}, {"type": "node", "id": 291430884, "lat": 13.6529492, "lon": 100.4915379}, {"type": "node", "id": 291430885, "lat": 13.6530398, "lon": 100.4913294}, {"type": "node", "id": 291430886, "lat": 13.6525981, "lon": 100.4911163}, {"type": "node", "id": 291430887, "lat": 13.6527802, "lon": 100.4906927}, {"type": "node", "id": 291430888, "lat": 13.652261, "lon": 100.4904053}, {"type": "node", "id": 291430889, "lat": 13.6523548, "lon": 100.4899443}, {"type": "node", "id": 291430890, "lat": 13.6519652, "lon": 100.4897972}, {"type": "node", "id": 291430891, "lat": 13.6515465, "lon": 100.4896154}, {"type": "node", "id": 291430892, "lat": 13.6515814, "lon": 100.4894977}, {"type": "node", "id": 291430893, "lat": 13.6513304, "lon": 100.4894583}, {"type": "node", "id": 291430894, "lat": 13.6512606, "lon": 100.489524}, {"type": "node", "id": 291430895, "lat": 13.6504737, "lon": 100.4891412}, {"type": "node", "id": 330411835, "lat": 13.6504577, "lon": 100.4916321}, {"type": "node", "id": 330411836, "lat": 13.6500316, "lon": 100.4912889}, {"type": "node", "id": 2179132575, "lat": 13.6498209, "lon": 100.4904935}, {"type": "node", "id": 2179132576, "lat": 13.6498577, "lon": 100.490594}, {"type": "node", "id": 2179132580, "lat": 13.650128, "lon": 100.4911506}, {"type": "node", "id": 11699868210, "lat": 13.6533562, "lon": 100.4917194}, {"type": "node", "id": 12336657082, "lat": 13.6511615, "lon": 100.4894922}, {"type": "node", "id": 12336657083, "lat": 13.6498344, "lon": 100.4905616}, {"type": "node", "id": 12336657084, "lat": 13.6498222, "lon": 100.4905285}, {"type": "node", "id": 12337609452, "lat": 13.650473, "lon": 100.4916348}, {"type": "node", "id": 12337609453, "lat": 13.6504872, "lon": 100.4916189}, {"type": "node", "id": 12337609454, "lat": 13.6505063, "lon": 100.4915858}, {"type": "node", "id": 12337609455, "lat": 13.650535, "lon": 100.4915287}, {"type": "node", "id": 12337609456, "lat": 13.6516043, "lon": 100.4921411}, {"type": "node", "id": 291430874, "lat": 13.6523664, "lon": 100.4930183}, {"type": "node", "id": 291430875, "lat": 13.652805, "lon": 100.4932927}, {"type": "node", "id": 291430876, "lat": 13.6534184, "lon": 100.4937786}, {"type": "node", "id": 291430877, "lat": 13.653703, "lon": 100.4931009}, {"type": "node", "id": 4200317939, "lat": 13.6494129, "lon": 100.4943684}, {"type": "node", "id": 4200317941, "lat": 13.6494381, "lon": 100.4943273}, {"type": "node", "id": 4200317943, "lat": 13.6493757, "lon": 100.4943442}, {"type": "node", "id": 4200396346, "lat": 13.6494216, "lon": 100.4942696}, {"type": "node", "id": 4200396347, "lat": 13.6494587, "lon": 100.4942937}, {"type": "node", "id": 4200396348, "lat": 13.6494415, "lon": 100.4942825}]}