{"version": 0.6, "generator": "Overpass API 0.7.62.8 e802775f", "osm3s": {"timestamp_osm_base": "2025-11-20T03:18:22Z", "copyright": "The data included in this document is from www.openstreetmap.org. The data is made available under ODbL."}, "elements": [{"type": "node", "id": 1669111328, "lat": 13.5669041, "lon": 100.602083, "tags": {"amenity": "place_of_worship", "denomination": "thai_mahanikaya", "name": "\u0e27\u0e31\u0e14\u0e23\u0e32\u0e29\u0e0e\u0e23\u0e4c\u0e42\u0e1e\u0e18\u0e34\u0e4c\u0e17\u0e2d\u0e07", "name:en": "Wat Rat Pho Thong", "name:th": "\u0e27\u0e31\u0e14\u0e23\u0e32\u0e29\u0e0e\u0e23\u0e4c\u0e42\u0e1e\u0e18\u0e34\u0e4c\u0e17\u0e2d\u0e07", "religion": "buddhist", "wikidata": "Q100715959", "wikipedia": "th:\u0e27\u0e31\u0e14\u0e23\u0e32\u0e29\u0e0e\u0e23\u0e4c\u0e42\u0e1e\u0e18\u0e34\u0e4c\u0e17\u0e2d\u0e07"}}, {"type": "node", "id": 1669112792, "lat": 13.5916206, "lon": 100.6054282, "tags": {"amenity": "place_of_worship", "religion": "buddhist"}}, {"type": "node", "id": 2312258591, "lat": 13.5791471, "lon": 100.6079442, "tags": {"name": "lee", "tourism": "museum"}}, {"type": "node", "id": 3431296248, "lat": 13.5837764, "lon": 100.6092398, "tags": {"amenity": "cafe", "brand": "Starbucks", "brand:wikidata": "Q37158", "brand:wikipedia": "en:Starbucks", "cuisine": "coffee_shop", "name": "Starbucks", "name:en": "Starbucks Coffee", "name:th": "\u0e2a\u0e15\u0e32\u0e23\u0e4c\u0e1a\u0e31\u0e04\u0e2a\u0e4c", "official_name": "Starbucks Coffee", "shop": "coffee", "smoking": "no", "takeaway": "yes", "website": "https://www.starbucks.com/"}}, {"type": "node", "id": 5174494823, "lat": 13.5581999, "lon": 100.6117059, "tags": {"amenity": "cafe", "name": "Amazon Cafe"}}, {"type": "node", "id": 5247875787, "lat": 13.5969819, "lon": 100.6064243, "tags": {"addr:housenumber": "489/2", "addr:street": "Sukhumvit road \nSoi 37 Ploemtoem\nPak Nam, Samut Prakan \n10270", "name": "Star apartments", "tourism": "apartment"}}, {"type": "node", "id": 6269455564, "lat": 13.5530392, "lon": 100.6308542, "tags": {"name": "Thai Junk (113)", "tourism": "attraction"}}, {"type": "node", "id": 6269457274, "lat": 13.5534422, "lon": 100.6298145, "tags": {"name": "Sala of Ramayana (107)", "tourism": "attraction"}}, {"type": "node", "id": 6269471434, "lat": 13.5520358, "lon": 100.6270891, "tags": {"amenity": "fountain", "name": "Bodhisattva Avalokitesavara", "tourism": "yes"}}, {"type": "node", "id": 6269480267, "lat": 13.5514378, "lon": 100.6270309, "tags": {"name": "Mondop of Bodhisattva Avalokitesavara (105)", "tourism": "attraction"}}, {"type": "node", "id": 6269517337, "lat": 13.5513042, "lon": 100.6317656, "tags": {"name": "The Chedi of Cham Thewi (054)", "tourism": "attraction"}}, {"type": "node", "id": 6269518753, "lat": 13.5521907, "lon": 100.6322543, "tags": {"name": "Phra That Chom Kitti (061)", "tourism": "attraction"}}, {"type": "node", "id": 6269523152, "lat": 13.5516724, "lon": 100.6315833, "tags": {"name": "The Wihan at Sa-Moeng (056)", "tourism": "attraction"}}, {"type": "node", "id": 6269574320, "lat": 13.5526001, "lon": 100.6324515, "tags": {"name": "The Water Hall (059)", "tourism": "attraction"}}, {"type": "node", "id": 6269574321, "lat": 13.5525627, "lon": 100.6320711, "tags": {"name": "The Wihan of Wat Chiang (058)", "tourism": "attraction"}}, {"type": "node", "id": 6269574322, "lat": 13.5520278, "lon": 100.6316839, "tags": {"name": "Chedi Chet Yod (057)", "tourism": "attraction"}}, {"type": "node", "id": 8390996707, "lat": 13.599704, "lon": 100.6436569, "tags": {"amenity": "cafe", "name": "7 - eleven"}}, {"type": "node", "id": 9283440217, "lat": 13.550037, "lon": 100.6318743, "tags": {"name": "The Main Chedi of Wat Maha That, Sukhothai (051)", "tourism": "attraction"}}, {"type": "node", "id": 9283440218, "lat": 13.5505482, "lon": 100.6321101, "tags": {"name": "Phra Lo's Garden (052)", "tourism": "attraction"}}, {"type": "node", "id": 9283440219, "lat": 13.5508322, "lon": 100.6320842, "tags": {"name": "Ho Kham (053)", "tourism": "attraction"}}, {"type": "node", "id": 9283440220, "lat": 13.550761, "lon": 100.6311403, "tags": {"name": "Wat Chong Kham (055)", "tourism": "attraction"}}, {"type": "node", "id": 9336897560, "lat": 13.5526422, "lon": 100.6327951, "tags": {"name": "The Northern Thai Village (060)", "tourism": "attraction"}}, {"type": "node", "id": 9336897561, "lat": 13.5505571, "lon": 100.6328124, "tags": {"name": "The Wihan at Wat Phumin, Nan (062)", "tourism": "attraction"}}, {"type": "node", "id": 9339998760, "lat": 13.553373, "lon": 100.6289701, "tags": {"name": "Mondop Phra Si Thit (116)", "tourism": "attraction"}}, {"type": "node", "id": 9339998761, "lat": 13.5536859, "lon": 100.628273, "tags": {"name": "A Botanical Garden (109)", "tourism": "attraction"}}, {"type": "node", "id": 9339998763, "lat": 13.5511924, "lon": 100.6279424, "tags": {"name": "The Royal Water-Course Procession (104)", "tourism": "attraction"}}, {"type": "node", "id": 9339998766, "lat": 13.5521751, "lon": 100.630554, "tags": {"name": "Pavillon of Brahma Vihara (118)", "tourism": "attraction"}}, {"type": "node", "id": 9339998767, "lat": 13.5508477, "lon": 100.630658, "tags": {"name": "Sala Kong-Beng (115)", "tourism": "attraction"}}, {"type": "node", "id": 9339998768, "lat": 13.5515555, "lon": 100.6309249, "tags": {"name": "Sala 24 Katyu (114)", "tourism": "attraction"}}, {"type": "node", "id": 9339998769, "lat": 13.5517782, "lon": 100.6302971, "tags": {"name": "Phra That Mondop (108)", "tourism": "attraction"}}, {"type": "node", "id": 9339998772, "lat": 13.5515518, "lon": 100.6287768, "tags": {"name": "The Public Resting Pavillon (117)", "tourism": "attraction"}}, {"type": "node", "id": 9407468240, "lat": 13.552723, "lon": 100.62872, "tags": {"name": "Pavillion of Recallection (112)", "tourism": "attraction"}}, {"type": "node", "id": 12291685402, "lat": 13.5804399, "lon": 100.6022677, "tags": {"addr:housenumber": "427", "addr:street": "\u0e16\u0e19\u0e19\u0e2a\u0e32\u0e22\u0e25\u0e27\u0e14", "air_conditioning": "yes", "internet_access": "wlan", "internet_access:fee": "customers", "name": "Baan Paknam Hotel", "opening_hours": "24/7", "phone": "+66 91 5251999;+66 2 1019640", "self_service": "no", "tourism": "hotel"}}, {"type": "node", "id": 12531276586, "lat": 13.5966634, "lon": 100.6015404, "tags": {"addr:district": "\u0e2d\u0e33\u0e40\u0e20\u0e2d\u0e40\u0e21\u0e37\u0e2d\u0e07\u0e2a\u0e21\u0e38\u0e17\u0e23\u0e1b\u0e23\u0e32\u0e01\u0e32\u0e23", "addr:housenumber": "85/4", "addr:postcode": "10270", "addr:province": "\u0e2a\u0e21\u0e38\u0e17\u0e23\u0e1b\u0e23\u0e32\u0e01\u0e32\u0e23", "addr:street": "\u0e16\u0e19\u0e19\u0e40\u0e17\u0e28\u0e1a\u0e32\u0e25 12", "addr:subdistrict": "\u0e15\u0e33\u0e1a\u0e25\u0e1b\u0e32\u0e01\u0e19\u0e49\u0e33", "amenity": "restaurant", "check_date": "2025-08-08", "check_date:currency:XBT": "2025-08-08", "cuisine": "noodle", "currency:XBT": "yes", "name": "\u0e01\u0e4b\u0e27\u0e22\u0e40\u0e15\u0e35\u0e4b\u0e22\u0e27\u0e40\u0e19\u0e37\u0e49\u0e2d \u0e2b\u0e31\u0e27\u0e19\u0e49\u0e33\u0e27\u0e19", "opening_hours": "Mo-Su 06:00-16:00", "payment:lightning": "yes", "payment:lightning_contactless": "no", "payment:onchain": "no", "phone": "+66 89 536 7422", "survey:date": "2025-08-08"}}, {"type": "node", "id": 12827980128, "lat": 13.5850655, "lon": 100.6096104, "tags": {"addr:district": "\u0e40\u0e21\u0e37\u0e2d\u0e07\u0e2a\u0e21\u0e38\u0e17\u0e23\u0e1b\u0e23\u0e32\u0e01\u0e32\u0e23", "addr:postcode": "10280", "addr:province": "\u0e2a\u0e21\u0e38\u0e17\u0e23\u0e1b\u0e23\u0e32\u0e01\u0e32\u0e23", "addr:street": "\u0e16\u0e19\u0e19\u0e2a\u0e38\u0e02\u0e38\u0e21\u0e27\u0e34\u0e17", "addr:subdistrict": "\u0e17\u0e49\u0e32\u0e22\u0e1a\u0e49\u0e32\u0e19\u0e43\u0e2b\u0e21\u0e48", "amenity": "restaurant", "cuisine": "thai;fish", "name": "\u0e2a\u0e16\u0e32\u0e19\u0e35\u0e01\u0e38\u0e49\u0e07\u0e16\u0e31\u0e07 Black Market"}}, {"type": "node", "id": 13045051101, "lat": 13.5960152, "lon": 100.606158, "tags": {"amenity": "cafe", "contact:facebook": "100094576384894", "contact:line": "hom-cafe", "cuisine": "cake;coffee_shop;tea", "email": "Homcafe6@gmail.com", "internet_access": "wlan", "name": "HOM CAFE", "opening_hours": "Mo-Su 09:00-22:00", "phone": "+66 81 6359212"}}, {"type": "way", "id": 166114555, "nodes": [1775971919, 1775971903, 1775971902, 1775971901, 1775971900, 1775971898, 1775971897, 1775971899, 1775971896, 12397329749, 12397329748, 1775971895, 1775965562, 1775965561, 1775965536, 1775965488, 1775965516, 1775965485, 1775965486, 1775965483, 1775965475, 1775965473, 1775965472, 1775965470, 1775965590, 1775965589, 1775965514, 1775965588, 1775965587, 1775965515, 1775965584, 1775965580, 1775965577, 1775965525, 1775965507, 1775965508, 1775965527, 1775965591, 1775965564, 1775965566, 1775965570, 1775965573, 1775965575, 1775965567, 1775965568, 1775965571, 1775965574, 1775971906, 1775971907, 1775971908, 1775971909, 1775971905, 1775972542, 1775971919], "tags": {"area": "yes", "name": "\u0e40\u0e21\u0e37\u0e2d\u0e07\u0e42\u0e1a\u0e23\u0e32\u0e13", "name:en": "Ancient Siam", "name:ru": "\u0414\u0440\u0435\u0432\u043d\u0438\u0439 \u0421\u0438\u0430\u043c", "tourism": "theme_park", "wikidata": "Q257554", "wikimedia_commons": "Category:Mueang Boran", "wikipedia": "en:Ancient Siam"}}, {"type": "way", "id": 544931900, "nodes": [5267237046, 5267237047, 5267237048, 5267237049, 5267237050, 5267237051, 5267237052, 5267237053, 5267237054, 5267237055, 5267237056, 5267237057, 5267237058, 5267237046], "tags": {"leisure": "park", "name": "\u0e2d\u0e38\u0e17\u0e22\u0e32\u0e19\u0e01\u0e32\u0e23\u0e40\u0e23\u0e35\u0e22\u0e19\u0e23\u0e39\u0e49\u0e2a\u0e21\u0e38\u0e17\u0e23\u0e1b\u0e23\u0e32\u0e01\u0e32\u0e23", "name:th": "\u0e2d\u0e38\u0e17\u0e22\u0e32\u0e19\u0e01\u0e32\u0e23\u0e40\u0e23\u0e35\u0e22\u0e19\u0e23\u0e39\u0e49\u0e2a\u0e21\u0e38\u0e17\u0e23\u0e1b\u0e23\u0e32\u0e01\u0e32\u0e23"}}, {"type": "way", "id": 903651487, "nodes": [8392745010, 8392745011, 8392745012, 8392745013, 8392745014, 8392745015, 11246292229, 11246292224, 11246292228, 11246292227, 11246292226, 11246292225, 8392762817, 8392745016, 8392745010], "tags": {"amenity": "place_of_worship", "denomination": "thai_mahanikaya", "layer": "-1", "name": "\u0e27\u0e31\u0e14\u0e41\u0e1e\u0e23\u0e01\u0e29\u0e32", "name:en": "Wat Phraeksa", "name:th": "\u0e27\u0e31\u0e14\u0e41\u0e1e\u0e23\u0e01\u0e29\u0e32", "religion": "buddhist", "wikidata": "Q100715955", "wikipedia": "th:\u0e27\u0e31\u0e14\u0e41\u0e1e\u0e23\u0e01\u0e29\u0e32"}}, {"type": "way", "id": 1068544089, "nodes": [9808939645, 9808939646, 9808939647, 9808939648, 9808939645], "tags": {"amenity": "marketplace", "name": "\u0e15\u0e25\u0e32\u0e14\u0e17\u0e23\u0e31\u0e1e\u0e22\u0e4c\u0e1a\u0e38\u0e0d\u0e0a\u0e31\u0e22"}}, {"type": "way", "id": 1068544090, "nodes": [9808939649, 9808939650, 9808939651, 9808939652, 9808939649], "tags": {"amenity": "marketplace", "name": "\u0e15\u0e25\u0e32\u0e14\u0e17\u0e23\u0e31\u0e1e\u0e22\u0e4c\u0e1a\u0e38\u0e0d\u0e0a\u0e31\u0e22"}}, {"type": "way", "id": 1069556183, "nodes": [9816937844, 9816937845, 9816937846, 9816937847, 9816937844], "tags": {"building": "yes", "tourism": "hotel"}}, {"type": "way", "id": 1073078417, "nodes": [9844386939, 9844386940, 9844386941, 9844386942, 9844386939], "tags": {"historic": "wayside_shrine"}}, {"type": "way", "id": 1229700134, "nodes": [11395581415, 3867104576, 11403377119, 11403377120, 11403377121, 11403377122, 11403377123, 11403377124, 11403377125, 13069331530, 286780738, 13069331528, 11403377126, 11403377127, 11403377128, 11403377129, 11403377130, 11403377131, 11403377132, 11395581415], "tags": {"amenity": "place_of_worship", "denomination": "thai_mahanikaya", "name": "\u0e27\u0e31\u0e14\u0e01\u0e25\u0e32\u0e07\u0e27\u0e23\u0e27\u0e34\u0e2b\u0e32\u0e23", "name:en": "Wat Klang Worawihan", "name:th": "\u0e27\u0e31\u0e14\u0e01\u0e25\u0e32\u0e07\u0e27\u0e23\u0e27\u0e34\u0e2b\u0e32\u0e23", "religion": "buddhist", "wikidata": "Q56560928", "wikimedia_commons": "Category:Wat Klang Worawihan, Samut Prakan", "wikipedia": "th:\u0e27\u0e31\u0e14\u0e01\u0e25\u0e32\u0e07\u0e27\u0e23\u0e27\u0e34\u0e2b\u0e32\u0e23"}}, {"type": "way", "id": 1229700135, "nodes": [3867104556, 11403377133, 13069331555, 11403377134, 11403377135, 11403377136, 11403377137, 11403377138, 11403377139, 11403377140, 11403377141, 11403377142, 11403377143, 11403377144, 11403377146, 11403377147, 11403377145, 3867104556], "tags": {"amenity": "place_of_worship", "denomination": "thai_mahanikaya", "name": "\u0e27\u0e31\u0e14\u0e43\u0e19\u0e2a\u0e2d\u0e07\u0e27\u0e34\u0e2b\u0e32\u0e23", "name:en": "Wat Nai Song Wihan", "name:th": "\u0e27\u0e31\u0e14\u0e43\u0e19\u0e2a\u0e2d\u0e07\u0e27\u0e34\u0e2b\u0e32\u0e23", "religion": "buddhist", "wikidata": "Q99440479", "wikimedia_commons": "Category:Wat Nai Song Wihan", "wikipedia": "th:\u0e27\u0e31\u0e14\u0e43\u0e19\u0e2a\u0e2d\u0e07\u0e27\u0e34\u0e2b\u0e32\u0e23"}}, {"type": "way", "id": 1229700275, "nodes": [11403406160, 11403406161, 11403406162, 11403406163, 11403406164, 11403406165, 11403406166, 11403406167, 11403406168, 11403423269, 11403423270, 11403423271, 11403423272, 11403406160], "tags": {"amenity": "place_of_worship", "denomination": "thai_mahanikaya", "name": "\u0e27\u0e31\u0e14\u0e0a\u0e31\u0e22\u0e21\u0e07\u0e04\u0e25", "name:en": "Wat Chai Mongkhon", "name:th": "\u0e27\u0e31\u0e14\u0e0a\u0e31\u0e22\u0e21\u0e07\u0e04\u0e25", "religion": "buddhist", "wikidata": "Q100715958", "wikimedia_commons": "Category:Wat Chai Mongkhon, Samut Prakan province", "wikipedia": "th:\u0e27\u0e31\u0e14\u0e0a\u0e31\u0e22\u0e21\u0e07\u0e04\u0e25 (\u0e08\u0e31\u0e07\u0e2b\u0e27\u0e31\u0e14\u0e2a\u0e21\u0e38\u0e17\u0e23\u0e1b\u0e23\u0e32\u0e01\u0e32\u0e23)"}}, {"type": "way", "id": 1250408091, "nodes": [11623151427, 11623151428, 11623151429, 11623151430, 11623151431, 11623151432, 11623151433, 11623151434, 11623174343, 11623174344, 11623174345, 11623151435, 11623151436, 11623151437, 11623151438, 11623151439, 11623151440, 11623151441, 11623151442, 11623151443, 11623151444, 11623151427], "tags": {"amenity": "place_of_worship", "denomination": "thai_mahanikaya", "name": "\u0e27\u0e31\u0e14\u0e42\u0e2a\u0e18\u0e23\u0e19\u0e34\u0e21\u0e34\u0e15\u0e23", "name:en": "Wat Sothon Nimit", "name:th": "\u0e27\u0e31\u0e14\u0e42\u0e2a\u0e18\u0e23\u0e19\u0e34\u0e21\u0e34\u0e15\u0e23", "religion": "buddhist", "wikidata": "Q100715956", "wikipedia": "th:\u0e27\u0e31\u0e14\u0e42\u0e2a\u0e18\u0e23\u0e19\u0e34\u0e21\u0e34\u0e15\u0e15\u0e4c"}}, {"type": "way", "id": 1250408102, "nodes": [11623174360, 11623174361, 11623174362, 11623174363, 11623174360], "tags": {"amenity": "place_of_worship", "building": "yes", "religion": "buddhist"}}, {"type": "way", "id": 1250417794, "nodes": [11623190703, 11623190704, 11623190705, 11623190736, 11623190706, 11623190707, 11623190708, 11623190709, 11623190710, 11623190711, 11623190712, 11623190714, 12582011021, 11623190715, 11623190716, 11623190717, 11623190718, 11623190719, 11623190720, 11623190721, 11623190722, 11623190723, 11623190724, 11623190725, 11623190726, 11623190727, 11623190728, 11623190729, 11623190730, 12582011024, 12582011023, 12582011022, 11623190734, 11623190733, 11623190731, 11623190732, 11623190703], "tags": {"amenity": "place_of_worship", "denomination": "thai_mahanikaya", "name": "\u0e27\u0e31\u0e14\u0e1e\u0e38\u0e17\u0e18\u0e20\u0e32\u0e27\u0e19\u0e32\u0e23\u0e32\u0e21", "name:en": "Wat Phut Phawanaram", "name:th": "\u0e27\u0e31\u0e14\u0e1e\u0e38\u0e17\u0e18\u0e20\u0e32\u0e27\u0e19\u0e32\u0e23\u0e32\u0e21", "religion": "buddhist", "wikidata": "Q100715957", "wikipedia": "th:\u0e27\u0e31\u0e14\u0e1e\u0e38\u0e17\u0e18\u0e20\u0e32\u0e27\u0e19\u0e32\u0e23\u0e32\u0e21"}}, {"type": "way", "id": 1340223095, "nodes": [12397305343, 12397305344, 12397305345, 12397305346, 12397305343], "tags": {"amenity": "place_of_worship", "building": "yes", "religion": "buddhist"}}, {"type": "node", "id": 1775971902, "lat": 13.5415524, "lon": 100.6237901}, {"type": "node", "id": 1775971903, "lat": 13.5398944, "lon": 100.6226795}, {"type": "node", "id": 1775971905, "lat": 13.5385306, "lon": 100.6232723}, {"type": "node", "id": 1775971908, "lat": 13.5394068, "lon": 100.6234091}, {"type": "node", "id": 1775971909, "lat": 13.5390469, "lon": 100.6236183}, {"type": "node", "id": 1775971919, "lat": 13.5393755, "lon": 100.6223229}, {"type": "node", "id": 1775972542, "lat": 13.5389413, "lon": 100.6228149}, {"type": "node", "id": 1775971901, "lat": 13.5413469, "lon": 100.6241199}, {"type": "node", "id": 1775971906, "lat": 13.5425699, "lon": 100.6255629}, {"type": "node", "id": 1775971907, "lat": 13.5406741, "lon": 100.6242701}, {"type": "node", "id": 11623190723, "lat": 13.5747631, "lon": 100.6106744}, {"type": "node", "id": 11623190724, "lat": 13.5747887, "lon": 100.6106059}, {"type": "node", "id": 11623190725, "lat": 13.5748514, "lon": 100.6104369}, {"type": "node", "id": 11623190726, "lat": 13.5748866, "lon": 100.6103808}, {"type": "node", "id": 11623190727, "lat": 13.5749456, "lon": 100.610403}, {"type": "node", "id": 11623190728, "lat": 13.5750228, "lon": 100.6101964}, {"type": "node", "id": 11623190729, "lat": 13.5751385, "lon": 100.6100539}, {"type": "node", "id": 11623190730, "lat": 13.5752226, "lon": 100.6100171}, {"type": "node", "id": 11623190733, "lat": 13.5756917, "lon": 100.6101628}, {"type": "node", "id": 11623190734, "lat": 13.5753341, "lon": 100.6100646}, {"type": "node", "id": 12582011022, "lat": 13.5753122, "lon": 100.6100586}, {"type": "node", "id": 12582011023, "lat": 13.5753765, "lon": 100.6098858}, {"type": "node", "id": 12582011024, "lat": 13.5752756, "lon": 100.6098613}, {"type": "node", "id": 11623190703, "lat": 13.5770922, "lon": 100.6105198}, {"type": "node", "id": 11623190704, "lat": 13.576901, "lon": 100.6108595}, {"type": "node", "id": 11623190731, "lat": 13.5760691, "lon": 100.6102664}, {"type": "node", "id": 11623190732, "lat": 13.5762428, "lon": 100.6103108}, {"type": "node", "id": 286780738, "lat": 13.5912897, "lon": 100.5993842}, {"type": "node", "id": 3867104556, "lat": 13.5932728, "lon": 100.6040936}, {"type": "node", "id": 3867104576, "lat": 13.5927311, "lon": 100.6000491}, {"type": "node", "id": 11395581415, "lat": 13.5935505, "lon": 100.5997203}, {"type": "node", "id": 11403377119, "lat": 13.5926486, "lon": 100.6000719}, {"type": "node", "id": 11403377120, "lat": 13.5925013, "lon": 100.6001323}, {"type": "node", "id": 11403377121, "lat": 13.5921635, "lon": 100.6001841}, {"type": "node", "id": 11403377122, "lat": 13.5919748, "lon": 100.6002119}, {"type": "node", "id": 11403377123, "lat": 13.5916394, "lon": 100.5999161}, {"type": "node", "id": 11403377124, "lat": 13.5914777, "lon": 100.5997127}, {"type": "node", "id": 11403377125, "lat": 13.5913969, "lon": 100.5996265}, {"type": "node", "id": 11403377126, "lat": 13.5915765, "lon": 100.5990133}, {"type": "node", "id": 11403377127, "lat": 13.5916933, "lon": 100.5986714}, {"type": "node", "id": 11403377128, "lat": 13.5921575, "lon": 100.5987515}, {"type": "node", "id": 11403377129, "lat": 13.5921695, "lon": 100.5986221}, {"type": "node", "id": 11403377130, "lat": 13.5926709, "lon": 100.5987023}, {"type": "node", "id": 11403377131, "lat": 13.5926384, "lon": 100.5990691}, {"type": "node", "id": 11403377132, "lat": 13.5934174, "lon": 100.59904}, {"type": "node", "id": 11403377133, "lat": 13.5921958, "lon": 100.6038295}, {"type": "node", "id": 11403377134, "lat": 13.5921474, "lon": 100.6042089}, {"type": "node", "id": 11403406160, "lat": 13.5919609, "lon": 100.6039042}, {"type": "node", "id": 11403406167, "lat": 13.5908198, "lon": 100.6041167}, {"type": "node", "id": 11403406168, "lat": 13.5908378, "lon": 100.6040736}, {"type": "node", "id": 11403423269, "lat": 13.5907989, "lon": 100.6040366}, {"type": "node", "id": 11403423270, "lat": 13.5909456, "lon": 100.6035868}, {"type": "node", "id": 11403423271, "lat": 13.5914607, "lon": 100.6037409}, {"type": "node", "id": 11403423272, "lat": 13.5914607, "lon": 100.6038733}, {"type": "node", "id": 13069331528, "lat": 13.5914475, "lon": 100.5991802}, {"type": "node", "id": 13069331530, "lat": 13.5913062, "lon": 100.5994214}, {"type": "node", "id": 13069331555, "lat": 13.5921863, "lon": 100.6039036}, {"type": "node", "id": 11403377135, "lat": 13.5922427, "lon": 100.6046666}, {"type": "node", "id": 11403377136, "lat": 13.5922949, "lon": 100.6047483}, {"type": "node", "id": 11403377137, "lat": 13.5922609, "lon": 100.6052316}, {"type": "node", "id": 11403377138, "lat": 13.5921883, "lon": 100.6056006}, {"type": "node", "id": 11403377139, "lat": 13.5923267, "lon": 100.6056122}, {"type": "node", "id": 11403377140, "lat": 13.5923267, "lon": 100.6057173}, {"type": "node", "id": 11403377141, "lat": 13.5926286, "lon": 100.605701}, {"type": "node", "id": 11403377142, "lat": 13.5926399, "lon": 100.6056706}, {"type": "node", "id": 11403377143, "lat": 13.5930053, "lon": 100.605701}, {"type": "node", "id": 11403377144, "lat": 13.5930507, "lon": 100.6054161}, {"type": "node", "id": 11403377145, "lat": 13.5931694, "lon": 100.604708}, {"type": "node", "id": 11403377146, "lat": 13.5935916, "lon": 100.6054575}, {"type": "node", "id": 11403377147, "lat": 13.5936613, "lon": 100.6047916}, {"type": "node", "id": 11403406161, "lat": 13.5919579, "lon": 100.6047021}, {"type": "node", "id": 11403406162, "lat": 13.5919342, "lon": 100.605526}, {"type": "node", "id": 11403406163, "lat": 13.5919159, "lon": 100.6059068}, {"type": "node", "id": 11403406164, "lat": 13.5906821, "lon": 100.6059007}, {"type": "node", "id": 11403406165, "lat": 13.590727, "lon": 100.6049794}, {"type": "node", "id": 11403406166, "lat": 13.59076, "lon": 100.6046066}, {"type": "node", "id": 1775965483, "lat": 13.5484578, "lon": 100.6239293}, {"type": "node", "id": 1775965475, "lat": 13.5490107, "lon": 100.624278}, {"type": "node", "id": 1775965485, "lat": 13.548364, "lon": 100.6254796}, {"type": "node", "id": 1775965486, "lat": 13.5484161, "lon": 100.6247554}, {"type": "node", "id": 1775965488, "lat": 13.5481142, "lon": 100.6266163}, {"type": "node", "id": 1775965516, "lat": 13.548171, "lon": 100.6262253}, {"type": "node", "id": 1775965536, "lat": 13.5479363, "lon": 100.6270514}, {"type": "node", "id": 1775965561, "lat": 13.5479937, "lon": 100.6273196}, {"type": "node", "id": 1775965562, "lat": 13.5479593, "lon": 100.6274218}, {"type": "node", "id": 1775965567, "lat": 13.5442179, "lon": 100.6297819}, {"type": "node", "id": 1775965568, "lat": 13.5441814, "lon": 100.6296156}, {"type": "node", "id": 1775965571, "lat": 13.5440432, "lon": 100.6289511}, {"type": "node", "id": 1775965574, "lat": 13.5451008, "lon": 100.6272888}, {"type": "node", "id": 1775971895, "lat": 13.5477303, "lon": 100.6278428}, {"type": "node", "id": 1775971896, "lat": 13.5452349, "lon": 100.6264266}, {"type": "node", "id": 1775971897, "lat": 13.5451984, "lon": 100.6258794}, {"type": "node", "id": 1775971898, "lat": 13.5437668, "lon": 100.6251177}, {"type": "node", "id": 1775971899, "lat": 13.5454351, "lon": 100.6260566}, {"type": "node", "id": 1775971900, "lat": 13.5434721, "lon": 100.625571}, {"type": "node", "id": 12397329748, "lat": 13.5466929, "lon": 100.6272633}, {"type": "node", "id": 12397329749, "lat": 13.5460474, "lon": 100.6268771}, {"type": "node", "id": 1775965507, "lat": 13.5480041, "lon": 100.6359402}, {"type": "node", "id": 1775965508, "lat": 13.5477121, "lon": 100.6362728}, {"type": "node", "id": 1775965525, "lat": 13.547879, "lon": 100.635833}, {"type": "node", "id": 1775965527, "lat": 13.5472062, "lon": 100.6356935}, {"type": "node", "id": 1775965564, "lat": 13.546862, "lon": 100.6353394}, {"type": "node", "id": 1775965566, "lat": 13.5465543, "lon": 100.6351302}, {"type": "node", "id": 1775965570, "lat": 13.5454591, "lon": 100.6344221}, {"type": "node", "id": 1775965573, "lat": 13.5455061, "lon": 100.6332044}, {"type": "node", "id": 1775965575, "lat": 13.5440667, "lon": 100.6309728}, {"type": "node", "id": 1775965591, "lat": 13.5470518, "lon": 100.6355328}, {"type": "node", "id": 1775965470, "lat": 13.554523, "lon": 100.6278775}, {"type": "node", "id": 1775965472, "lat": 13.5528907, "lon": 100.6268207}, {"type": "node", "id": 1775965473, "lat": 13.5510393, "lon": 100.6256137}, {"type": "node", "id": 1775965514, "lat": 13.5543926, "lon": 100.6289933}, {"type": "node", "id": 1775965588, "lat": 13.5540797, "lon": 100.6299482}, {"type": "node", "id": 1775965589, "lat": 13.5543373, "lon": 100.6289239}, {"type": "node", "id": 1775965590, "lat": 13.554476, "lon": 100.628371}, {"type": "node", "id": 12397305343, "lat": 13.5500203, "lon": 100.628358}, {"type": "node", "id": 12397305344, "lat": 13.5499693, "lon": 100.6284157}, {"type": "node", "id": 12397305345, "lat": 13.5498808, "lon": 100.628333}, {"type": "node", "id": 12397305346, "lat": 13.5499317, "lon": 100.6282753}, {"type": "node", "id": 1775965515, "lat": 13.5532891, "lon": 100.6319118}, {"type": "node", "id": 1775965577, "lat": 13.5500015, "lon": 100.6338535}, {"type": "node", "id": 1775965580, "lat": 13.5516599, "lon": 100.6322656}, {"type": "node", "id": 1775965584, "lat": 13.5527447, "lon": 100.6331025}, {"type": "node", "id": 1775965587, "lat": 13.5534487, "lon": 100.6316863}, {"type": "node", "id": 11623151427, "lat": 13.5663693, "lon": 100.6170104}, {"type": "node", "id": 11623151428, "lat": 13.5662285, "lon": 100.616882}, {"type": "node", "id": 11623151429, "lat": 13.5660606, "lon": 100.6168773}, {"type": "node", "id": 11623151430, "lat": 13.5658313, "lon": 100.6168878}, {"type": "node", "id": 11623151431, "lat": 13.5655273, "lon": 100.6168191}, {"type": "node", "id": 11623151432, "lat": 13.5651935, "lon": 100.6167302}, {"type": "node", "id": 11623151433, "lat": 13.5649733, "lon": 100.6166485}, {"type": "node", "id": 11623151434, "lat": 13.5649052, "lon": 100.6164454}, {"type": "node", "id": 11623151435, "lat": 13.5657292, "lon": 100.6152825}, {"type": "node", "id": 11623151436, "lat": 13.5661218, "lon": 100.6156188}, {"type": "node", "id": 11623151437, "lat": 13.5664918, "lon": 100.6160624}, {"type": "node", "id": 11623151438, "lat": 13.5666984, "lon": 100.6161955}, {"type": "node", "id": 11623151439, "lat": 13.5669753, "lon": 100.6164851}, {"type": "node", "id": 11623151440, "lat": 13.5670093, "lon": 100.6166672}, {"type": "node", "id": 11623151441, "lat": 13.5671024, "lon": 100.6169754}, {"type": "node", "id": 11623151442, "lat": 13.5669844, "lon": 100.6170174}, {"type": "node", "id": 11623151443, "lat": 13.5667687, "lon": 100.6169567}, {"type": "node", "id": 11623151444, "lat": 13.5665758, "lon": 100.6169497}, {"type": "node", "id": 11623174343, "lat": 13.5652386, "lon": 100.6159749}, {"type": "node", "id": 11623174344, "lat": 13.5653864, "lon": 100.6157663}, {"type": "node", "id": 11623174345, "lat": 13.5655582, "lon": 100.6155238}, {"type": "node", "id": 11623174360, "lat": 13.5660066, "lon": 100.6161551}, {"type": "node", "id": 11623174361, "lat": 13.5658639, "lon": 100.6160569}, {"type": "node", "id": 11623174362, "lat": 13.5657827, "lon": 100.6161817}, {"type": "node", "id": 11623174363, "lat": 13.5659254, "lon": 100.6162799}, {"type": "node", "id": 11623190710, "lat": 13.575781, "lon": 100.6111778}, {"type": "node", "id": 11623190711, "lat": 13.5756661, "lon": 100.61129}, {"type": "node", "id": 11623190712, "lat": 13.5755703, "lon": 100.6113965}, {"type": "node", "id": 11623190714, "lat": 13.5754242, "lon": 100.611574}, {"type": "node", "id": 11623190715, "lat": 13.5752607, "lon": 100.611829}, {"type": "node", "id": 11623190716, "lat": 13.5751366, "lon": 100.6117631}, {"type": "node", "id": 11623190717, "lat": 13.5748228, "lon": 100.6116415}, {"type": "node", "id": 11623190718, "lat": 13.5749548, "lon": 100.6112811}, {"type": "node", "id": 11623190719, "lat": 13.5749715, "lon": 100.6112336}, {"type": "node", "id": 11623190720, "lat": 13.5748788, "lon": 100.6112022}, {"type": "node", "id": 11623190721, "lat": 13.5749326, "lon": 100.6109673}, {"type": "node", "id": 11623190722, "lat": 13.5746819, "lon": 100.6108735}, {"type": "node", "id": 12582011021, "lat": 13.5753352, "lon": 100.6116975}, {"type": "node", "id": 11623190705, "lat": 13.5768692, "lon": 100.6109296}, {"type": "node", "id": 11623190706, "lat": 13.5768613, "lon": 100.6109984}, {"type": "node", "id": 11623190707, "lat": 13.5760247, "lon": 100.6110761}, {"type": "node", "id": 11623190708, "lat": 13.575913, "lon": 100.6110855}, {"type": "node", "id": 11623190709, "lat": 13.5758723, "lon": 100.6110867}, {"type": "node", "id": 11623190736, "lat": 13.5768661, "lon": 100.6109568}, {"type": "node", "id": 8392745010, "lat": 13.5726897, "lon": 100.6392581}, {"type": "node", "id": 8392745011, "lat": 13.5724462, "lon": 100.6404116}, {"type": "node", "id": 8392745012, "lat": 13.5717203, "lon": 100.6402381}, {"type": "node", "id": 8392745013, "lat": 13.5717719, "lon": 100.6400612}, {"type": "node", "id": 8392745014, "lat": 13.5714554, "lon": 100.6399656}, {"type": "node", "id": 8392745015, "lat": 13.5715552, "lon": 100.6394843}, {"type": "node", "id": 8392745016, "lat": 13.5719997, "lon": 100.6390818}, {"type": "node", "id": 8392762817, "lat": 13.5722299, "lon": 100.6382314}, {"type": "node", "id": 11246292224, "lat": 13.5717051, "lon": 100.6391567}, {"type": "node", "id": 11246292225, "lat": 13.5722416, "lon": 100.6381828}, {"type": "node", "id": 11246292226, "lat": 13.5721688, "lon": 100.6381616}, {"type": "node", "id": 11246292227, "lat": 13.5720923, "lon": 100.638446}, {"type": "node", "id": 11246292228, "lat": 13.5720465, "lon": 100.6384263}, {"type": "node", "id": 11246292229, "lat": 13.5716608, "lon": 100.6392271}, {"type": "node", "id": 5267237046, "lat": 13.598772, "lon": 100.5985292}, {"type": "node", "id": 5267237047, "lat": 13.5979988, "lon": 100.5986355}, {"type": "node", "id": 5267237048, "lat": 13.5974974, "lon": 100.5990293}, {"type": "node", "id": 5267237049, "lat": 13.5979682, "lon": 100.5999429}, {"type": "node", "id": 5267237050, "lat": 13.598083, "lon": 100.6000138}, {"type": "node", "id": 5267237051, "lat": 13.5982591, "lon": 100.6000414}, {"type": "node", "id": 5267237052, "lat": 13.5989481, "lon": 100.599876}, {"type": "node", "id": 5267237053, "lat": 13.5990859, "lon": 100.5997342}, {"type": "node", "id": 5267237054, "lat": 13.5990399, "lon": 100.5994113}, {"type": "node", "id": 5267237055, "lat": 13.5988753, "lon": 100.5992735}, {"type": "node", "id": 5267237056, "lat": 13.5988332, "lon": 100.5989506}, {"type": "node", "id": 5267237057, "lat": 13.5989749, "lon": 100.5989309}, {"type": "node", "id": 5267237058, "lat": 13.5989098, "lon": 100.5985135}, {"type": "node", "id": 9816937844, "lat": 13.5988272, "lon": 100.6162251}, {"type": "node", "id": 9816937845, "lat": 13.5985159, "lon": 100.6160659}, {"type": "node", "id": 9816937846, "lat": 13.5984712, "lon": 100.6161774}, {"type": "node", "id": 9816937847, "lat": 13.5987756, "lon": 100.6163331}, {"type": "node", "id": 9808939645, "lat": 13.5998705, "lon": 100.6224869}, {"type": "node", "id": 9808939646, "lat": 13.599701, "lon": 100.6224936}, {"type": "node", "id": 9808939647, "lat": 13.599705, "lon": 100.6227122}, {"type": "node", "id": 9808939648, "lat": 13.5998809, "lon": 100.6227095}, {"type": "node", "id": 9808939649, "lat": 13.5996085, "lon": 100.622495}, {"type": "node", "id": 9808939650, "lat": 13.5994482, "lon": 100.6224976}, {"type": "node", "id": 9808939651, "lat": 13.5994443, "lon": 100.6229523}, {"type": "node", "id": 9808939652, "lat": 13.5996137, "lon": 100.6229509}, {"type": "node", "id": 9844386939, "lat": 13.5988235, "lon": 100.6198786}, {"type": "node", "id": 9844386940, "lat": 13.59876, "lon": 100.6198798}, {"type": "node", "id": 9844386941, "lat": 13.59876, "lon": 100.6199405}, {"type": "node", "id": 9844386942, "lat": 13.5988247, "lon": 100.6199405}]}