{"version": 0.6, "generator": "Overpass API 0.7.62.8 e802775f", "osm3s": {"timestamp_osm_base": "2025-11-20T03:23:29Z", "copyright": "The data included in this document is from www.openstreetmap.org. The data is made available under ODbL."}, "elements": [{"type": "node", "id": 4326810705, "lat": 13.9217611, "lon": 100.6905965, "tags": {"amenity": "restaurant", "source": "survey", "source:date": "2016-07-29"}}, {"type": "node", "id": 4379963116, "lat": 13.9188429, "lon": 100.6914385, "tags": {"building": "yes", "historic": "wayside_shrine", "religion": "buddhist", "source": "survey"}}, {"type": "node", "id": 4577043775, "lat": 13.9195428, "lon": 100.6845662, "tags": {"amenity": "restaurant", "cuisine": "thai", "outdoor_seating": "yes", "source": "survey", "source:date": "2016-12-28"}}, {"type": "node", "id": 4580622409, "lat": 13.9207957, "lon": 100.6878969, "tags": {"name": "Mansion", "tourism": "guest_house"}}, {"type": "node", "id": 4601066125, "lat": 13.9207142, "lon": 100.6893014, "tags": {"amenity": "restaurant", "cuisine": "thai", "outdoor_seating": "yes"}}, {"type": "node", "id": 4701496977, "lat": 13.922643, "lon": 100.6903935, "tags": {"amenity": "restaurant", "source": "survey"}}, {"type": "node", "id": 4798636133, "lat": 13.9204367, "lon": 100.6979721, "tags": {"air_conditioning": "yes", "amenity": "cafe", "brand": "\u0e04\u0e32\u0e40\u0e1f\u0e48 \u0e2d\u0e40\u0e21\u0e0b\u0e2d\u0e19", "brand:en": "Caf\u00e9 Amazon", "brand:th": "\u0e04\u0e32\u0e40\u0e1f\u0e48 \u0e2d\u0e40\u0e21\u0e0b\u0e2d\u0e19", "brand:wikidata": "Q43247503", "brand:wikipedia": "en:Caf\u00e9 Amazon", "contact:phone": "+66 1365", "cuisine": "coffee_shop", "dog": "no", "internet_access": "wlan", "internet_access:fee": "no", "name": "\u0e04\u0e32\u0e40\u0e1f\u0e48 \u0e2d\u0e40\u0e21\u0e0b\u0e2d\u0e19", "name:en": "Caf\u00e9 Amazon", "name:th": "\u0e04\u0e32\u0e40\u0e1f\u0e48 \u0e2d\u0e40\u0e21\u0e0b\u0e2d\u0e19", "opening_hours": "Mo-Su 06:00-20:00", "outdoor_seating": "yes", "smoking": "outside", "takeaway": "yes"}}, {"type": "node", "id": 4798636134, "lat": 13.9211409, "lon": 100.6978897, "tags": {"amenity": "restaurant"}}, {"type": "node", "id": 5044235438, "lat": 13.9192488, "lon": 100.6913656, "tags": {"amenity": "restaurant", "cuisine": "thai", "outdoor_seating": "yes"}}, {"type": "node", "id": 5355919695, "lat": 13.9205635, "lon": 100.6851865, "tags": {"amenity": "restaurant", "cuisine": "thai", "source": "survey", "source:date": "2023-02-12"}}, {"type": "node", "id": 5477010348, "lat": 13.9214359, "lon": 100.6929544, "tags": {"amenity": "cafe", "name": "Gee Coffee", "opening_hours": "06:30-16:00"}}, {"type": "node", "id": 5584354230, "lat": 13.9232211, "lon": 100.695134, "tags": {"amenity": "cafe", "name": "Bellinee's"}}, {"type": "node", "id": 5584354267, "lat": 13.9219226, "lon": 100.694963, "tags": {"amenity": "restaurant", "name": "Lambic"}}, {"type": "node", "id": 5584354278, "lat": 13.9220977, "lon": 100.69491, "tags": {"amenity": "restaurant", "cuisine": "japanese"}}, {"type": "node", "id": 5584354279, "lat": 13.9222871, "lon": 100.6952078, "tags": {"amenity": "restaurant", "cuisine": "japanese", "name": "Hikaru"}}, {"type": "node", "id": 5822833252, "lat": 13.9186686, "lon": 100.6859461, "tags": {"historic": "wayside_shrine", "religion": "buddhist"}}, {"type": "node", "id": 5822833253, "lat": 13.9184557, "lon": 100.6858744, "tags": {"historic": "wayside_shrine", "religion": "buddhist"}}, {"type": "node", "id": 5850098898, "lat": 13.9181395, "lon": 100.6864681, "tags": {"access": "destination", "tourism": "picnic_site"}}, {"type": "node", "id": 5863263203, "lat": 13.9194865, "lon": 100.6852914, "tags": {"religion": "buddhist", "shop": "religion"}}, {"type": "node", "id": 6009156509, "lat": 13.9212173, "lon": 100.6833656, "tags": {"amenity": "restaurant", "cuisine": "thai"}}, {"type": "node", "id": 6009353399, "lat": 13.9208685, "lon": 100.6837859, "tags": {"amenity": "place_of_worship", "historic": "wayside_shrine", "source": "buddhist"}}, {"type": "node", "id": 6009919320, "lat": 13.9214526, "lon": 100.6667726, "tags": {"amenity": "cafe", "brand": "\u0e04\u0e32\u0e40\u0e1f\u0e48 \u0e2d\u0e40\u0e21\u0e0b\u0e2d\u0e19", "brand:en": "Caf\u00e9 Amazon", "brand:th": "\u0e04\u0e32\u0e40\u0e1f\u0e48 \u0e2d\u0e40\u0e21\u0e0b\u0e2d\u0e19", "brand:wikidata": "Q43247503", "brand:wikipedia": "en:Caf\u00e9 Amazon", "cuisine": "coffee_shop", "name": "\u0e04\u0e32\u0e40\u0e1f\u0e48 \u0e2d\u0e40\u0e21\u0e0b\u0e2d\u0e19", "name:en": "Caf\u00e9 Amazon", "name:th": "\u0e04\u0e32\u0e40\u0e1f\u0e48 \u0e2d\u0e40\u0e21\u0e0b\u0e2d\u0e19", "takeaway": "yes"}}, {"type": "node", "id": 6011706356, "lat": 13.919635, "lon": 100.6841799, "tags": {"historic": "memorial", "memorial": "statue"}}, {"type": "node", "id": 6015237787, "lat": 13.9337463, "lon": 100.6820163, "tags": {"amenity": "cafe", "level": "0", "name": "Southern Coffee"}}, {"type": "node", "id": 6015237794, "lat": 13.9337516, "lon": 100.6823046, "tags": {"amenity": "restaurant", "brand": "MK Restaurants", "brand:wikidata": "Q62075359", "cuisine": "thai", "level": "0", "name": "MK Restaurants"}}, {"type": "node", "id": 6016798011, "lat": 13.9212472, "lon": 100.6847903, "tags": {"amenity": "restaurant", "cuisine": "thai"}}, {"type": "node", "id": 6016798012, "lat": 13.9212557, "lon": 100.6848366, "tags": {"amenity": "cafe", "name": "Sweet Bee"}}, {"type": "node", "id": 6021247841, "lat": 13.9213292, "lon": 100.6662961, "tags": {"historic": "wayside_shrine", "religion": "buddhist"}}, {"type": "node", "id": 6021271699, "lat": 13.9204245, "lon": 100.6663008, "tags": {"amenity": "cafe", "name": "The Farm"}}, {"type": "node", "id": 6033851255, "lat": 13.9215483, "lon": 100.6832671, "tags": {"amenity": "place_of_worship", "historic": "wayside_shrine", "religion": "buddhist"}}, {"type": "node", "id": 6033917248, "lat": 13.9200552, "lon": 100.6846987, "tags": {"religion": "buddhist", "shop": "religion"}}, {"type": "node", "id": 6033917249, "lat": 13.9200136, "lon": 100.6846545, "tags": {"religion": "buddhist", "shop": "religion"}}, {"type": "node", "id": 6033917256, "lat": 13.9197077, "lon": 100.6843447, "tags": {"amenity": "restaurant", "cuisine": "thai"}}, {"type": "node", "id": 6033917258, "lat": 13.9194448, "lon": 100.6850843, "tags": {"religion": "buddhist", "shop": "religion"}}, {"type": "node", "id": 6132597810, "lat": 13.9233747, "lon": 100.6876081, "tags": {"amenity": "place_of_worship", "historic": "wayside_shrine", "religion": "buddhist"}}, {"type": "node", "id": 6189811685, "lat": 13.921673, "lon": 100.6978984, "tags": {"historic": "wayside_shrine", "religion": "buddhist"}}, {"type": "node", "id": 6344855836, "lat": 13.9070485, "lon": 100.6717102, "tags": {"amenity": "cafe"}}, {"type": "node", "id": 6344915069, "lat": 13.904469, "lon": 100.6690461, "tags": {"amenity": "cafe"}}, {"type": "node", "id": 6918390687, "lat": 13.9221602, "lon": 100.6681974, "tags": {"name": "\u0e15\u0e25\u0e32\u0e14\u0e19\u0e31\u0e14\u0e2a\u0e32\u0e22\u0e44\u0e2b\u0e21", "name:en": "Sai Mai Night Market", "tourism": "attraction"}}, {"type": "node", "id": 8979216189, "lat": 13.9375065, "lon": 100.6958351, "tags": {"addr:city": "Pathum Thani", "addr:housenumber": "99/304/1", "addr:postcode": "12150", "addr:street": "Lam Luk ka 71", "brand": "\u0e4c\u0e37N-Siri Resort & Hotel", "internet_access": "yes", "internet_access:fee": "no", "name": "N-Siri Resort & Hotel \u0e42\u0e23\u0e07\u0e41\u0e23\u0e21\u0e40\u0e2d\u0e47\u0e19\u0e2a\u0e34\u0e23\u0e34", "tourism": "hotel"}}, {"type": "node", "id": 9673501797, "lat": 13.9219385, "lon": 100.6540359, "tags": {"amenity": "restaurant", "name": "Zong"}}, {"type": "node", "id": 9907186207, "lat": 13.9214927, "lon": 100.6914643, "tags": {"amenity": "place_of_worship", "building": "wayside_shrine", "religion": "buddhist"}}, {"type": "node", "id": 10216759752, "lat": 13.931832, "lon": 100.6606594, "tags": {"amenity": "place_of_worship", "historic": "wayside_shrine", "religion": "buddhist", "source": "survey", "source:date": "2022-11-25"}}, {"type": "node", "id": 10262018567, "lat": 13.9212492, "lon": 100.6840723, "tags": {"amenity": "restaurant", "brand": "Bonchon Chicken", "brand:wikidata": "Q4941248", "cuisine": "chicken;korean;sushi", "delivery": "yes", "indoor": "yes", "internet_access": "wlan", "name": "Bonchon Chicken", "source": "survey", "source:date": "2022-12-14", "takeaway": "yes"}}, {"type": "node", "id": 11461954819, "lat": 13.9189581, "lon": 100.6601471, "tags": {"amenity": "restaurant"}}, {"type": "node", "id": 11461954825, "lat": 13.9183151, "lon": 100.6601055, "tags": {"amenity": "restaurant", "name": "Took Lae Dee"}}, {"type": "node", "id": 11484425042, "lat": 13.9211987, "lon": 100.6805325, "tags": {"amenity": "restaurant", "contact:phone": "+66 2 0046268", "cuisine": "japanese", "dog": "no", "name": "Nittaya Kai Yang", "opening_hours": "Mo-Su 10:00-22:00", "smoking": "no", "source": "survey", "source:date": "2024-01-03"}}, {"type": "node", "id": 11484425043, "lat": 13.9210425, "lon": 100.6805352, "tags": {"amenity": "restaurant", "cuisine": "sushi", "dog": "no", "name": "Tairyo Sushi", "opening_hours": "Mo-Su 11:00-21:00", "smoking": "no", "source": "survey", "source:date": "2024-01-03"}}, {"type": "node", "id": 11484425044, "lat": 13.9211284, "lon": 100.6805352, "tags": {"amenity": "restaurant", "cuisine": "japanese", "name": "Seiko-En", "opening_hours": "Mo-Su 11:00-22:00", "source": "survey", "source:date": "2024-01-03"}}, {"type": "node", "id": 11484425047, "lat": 13.9207847, "lon": 100.6805366, "tags": {"amenity": "restaurant", "cuisine": "japanese", "dog": "no", "name": "Tokyo Bowls & Noodles", "smoking": "no", "source": "survey", "source:date": "2024-01-03", "takeaway": "yes"}}, {"type": "node", "id": 11484425048, "lat": 13.9207014, "lon": 100.6805352, "tags": {"amenity": "restaurant", "cuisine": "thai", "dog": "no", "opening_hours": "Mo-Su 09:00-22:00", "smoking": "no", "source": "survey", "source:date": "2024-01-03"}}, {"type": "node", "id": 11484425049, "lat": 13.9206207, "lon": 100.6805298, "tags": {"amenity": "restaurant", "cuisine": "sushi", "dog": "no", "name": "Shinkanzen Sushi", "opening_hours": "Mo-Su 10:00-21:30", "smoking": "no", "source": "survey", "source:date": "2024-01-03"}}, {"type": "node", "id": 11484425050, "lat": 13.9205296, "lon": 100.6805284, "tags": {"amenity": "restaurant", "name": "Meat Things", "opening_hours": "Mo-Su 10:00-22:00", "source": "survey", "source:date": "2024-01-03"}}, {"type": "node", "id": 11484425051, "lat": 13.9204437, "lon": 100.6805325, "tags": {"amenity": "restaurant", "contact:mobile": "+66 92 6056544", "contact:phone": "+66 2 5386666", "cuisine": "sushi", "name": "Suki Teenoi", "source": "survey", "source:date": "2024-01-03"}}, {"type": "node", "id": 11484425061, "lat": 13.9203708, "lon": 100.6804655, "tags": {"air_conditioning": "yes", "amenity": "restaurant", "brand": "Bar-B-Q Plaza", "brand:en": "Bar-B-Q Plaza", "brand:th": "\u0e1a\u0e32\u0e23\u0e4c\u0e1a\u0e35\u0e04\u0e34\u0e27\u0e1e\u0e25\u0e32\u0e0b\u0e48\u0e32", "brand:wikidata": "Q125861684", "cuisine": "barbecue;mongolian;japanese", "dog": "no", "name": "Bar-B-Q Plaza", "name:en": "Bar-B-Q Plaza", "name:th": "\u0e1a\u0e32\u0e23\u0e4c\u0e1a\u0e35\u0e04\u0e34\u0e27\u0e1e\u0e25\u0e32\u0e0b\u0e48\u0e32", "opening_hours": "Mo-Su 10:00-21:30", "source": "survey", "source:date": "2024-01-03"}}, {"type": "node", "id": 12483731183, "lat": 13.9044639, "lon": 100.6548877, "tags": {"amenity": "cafe", "brand": "\u0e04\u0e32\u0e40\u0e1f\u0e48 \u0e2d\u0e40\u0e21\u0e0b\u0e2d\u0e19", "brand:en": "Caf\u00e9 Amazon", "brand:th": "\u0e04\u0e32\u0e40\u0e1f\u0e48 \u0e2d\u0e40\u0e21\u0e0b\u0e2d\u0e19", "brand:wikidata": "Q43247503", "cuisine": "coffee_shop", "name": "\u0e04\u0e32\u0e40\u0e1f\u0e48 \u0e2d\u0e40\u0e21\u0e0b\u0e2d\u0e19", "name:en": "Caf\u00e9 Amazon", "name:th": "\u0e04\u0e32\u0e40\u0e1f\u0e48 \u0e2d\u0e40\u0e21\u0e0b\u0e2d\u0e19", "outdoor_seating": "no", "source": "survey", "source:date": "2025-01-08", "takeaway": "yes"}}, {"type": "node", "id": 12486021426, "lat": 13.9049057, "lon": 100.655306, "tags": {"tourism": "picnic_site"}}, {"type": "node", "id": 12487533674, "lat": 13.9049048, "lon": 100.6552404, "tags": {"tourism": "picnic_site"}}, {"type": "node", "id": 12487533675, "lat": 13.9048624, "lon": 100.6553088, "tags": {"tourism": "picnic_site"}}, {"type": "node", "id": 12487533676, "lat": 13.9048533, "lon": 100.6552565, "tags": {"tourism": "picnic_site"}}, {"type": "node", "id": 12522167656, "lat": 13.9021125, "lon": 100.6650532, "tags": {"amenity": "cafe", "brand": "\u0e04\u0e32\u0e40\u0e1f\u0e48 \u0e2d\u0e40\u0e21\u0e0b\u0e2d\u0e19", "brand:en": "Caf\u00e9 Amazon", "brand:th": "\u0e04\u0e32\u0e40\u0e1f\u0e48 \u0e2d\u0e40\u0e21\u0e0b\u0e2d\u0e19", "brand:wikidata": "Q43247503", "cuisine": "coffee_shop", "name": "\u0e04\u0e32\u0e40\u0e1f\u0e48 \u0e2d\u0e40\u0e21\u0e0b\u0e2d\u0e19", "name:en": "Caf\u00e9 Amazon", "name:th": "\u0e04\u0e32\u0e40\u0e1f\u0e48 \u0e2d\u0e40\u0e21\u0e0b\u0e2d\u0e19", "takeaway": "yes"}}, {"type": "node", "id": 12558286903, "lat": 13.9232558, "lon": 100.6933248, "tags": {"breakfast": "yes", "contact:email": "smartarthotel@gmail.com", "contact:facebook": "https://www.facebook.com/smartarthotel/", "contact:mobile": "+66 84 6972222", "contact:whatsapp": "+66 84 697 2222", "internet_access": "wlan", "name": "\u0e2a\u0e21\u0e32\u0e23\u0e4c\u0e17 \u0e42\u0e2e\u0e40\u0e17\u0e25", "name:de": "Smart Hotel", "name:th": "\u0e2a\u0e21\u0e32\u0e23\u0e4c\u0e17 \u0e42\u0e2e\u0e40\u0e17\u0e25", "source": "survey", "source:date": "2025-02-02", "tourism": "hotel"}}, {"type": "node", "id": 12558286911, "lat": 13.9235188, "lon": 100.6934764, "tags": {"amenity": "place_of_worship", "religion": "buddhist"}}, {"type": "node", "id": 12594363984, "lat": 13.9219183, "lon": 100.6988051, "tags": {"amenity": "restaurant", "cuisine": "pizza"}}, {"type": "node", "id": 13273657408, "lat": 13.9200754, "lon": 100.6604458, "tags": {"amenity": "restaurant", "brand": "Fuji", "brand:wikidata": "Q13018411", "cuisine": "thai;japanese", "name": "Fuji"}}, {"type": "node", "id": 13273657409, "lat": 13.920201, "lon": 100.6604458, "tags": {"amenity": "restaurant", "cuisine": "thai;japanese", "name": "\u0e19\u0e31\u0e21\u0e1a\u0e30 \u0e0a\u0e32\u0e1a\u0e39", "name:en": "Namba Shabu", "name:th": "\u0e19\u0e31\u0e21\u0e1a\u0e30 \u0e0a\u0e32\u0e1a\u0e39"}}, {"type": "way", "id": 313679048, "nodes": [5822691412, 5477174960, 5822691424, 5822691415, 5822691423, 12504219234, 5549249723, 11393289349, 12504219236, 11393289348, 5822833251, 5549249501, 12504219235, 3196927193, 4577068167, 3196917259, 3196917260, 3196917861, 3196917862, 5549249511, 3196917863, 3196917864, 5549249531, 3196917865, 5549249529, 4597395506, 4542217515, 5549249499, 4542217518, 5549249500, 4597395510, 4597395511, 5822691412], "tags": {"amenity": "place_of_worship", "denomination": "thai_mahanikaya", "landuse": "religious", "name": "\u0e27\u0e31\u0e14\u0e2b\u0e19\u0e2d\u0e07\u0e43\u0e2b\u0e0d\u0e48", "name:de": "Wat Nong Yai", "name:en": "Wat Nong Yai", "name:th": "\u0e27\u0e31\u0e14\u0e2b\u0e19\u0e2d\u0e07\u0e43\u0e2b\u0e0d\u0e48", "religion": "buddhist", "wikidata": "Q100698784", "wikimedia_commons": "Category:Wat Nong Yai, Bangkok", "wikipedia": "th:\u0e27\u0e31\u0e14\u0e2b\u0e19\u0e2d\u0e07\u0e43\u0e2b\u0e0d\u0e48 (\u0e01\u0e23\u0e38\u0e07\u0e40\u0e17\u0e1e\u0e21\u0e2b\u0e32\u0e19\u0e04\u0e23)"}}, {"type": "way", "id": 314055477, "nodes": [3200913753, 3200913754, 4912464548, 4912464549, 4912464550, 4912464551, 3200913755, 4912464552, 4912464554, 5477057257, 4912464555, 3200913753], "tags": {"leisure": "park"}}, {"type": "way", "id": 332355957, "nodes": [3394708397, 3394708398, 3394708399, 3394708400, 3394708397], "tags": {"leisure": "park"}}, {"type": "way", "id": 480012318, "nodes": [4730390710, 4730390711, 12466409882, 4730390712, 13273657431, 4730390713, 13273657430, 13273657429, 4730390715, 4730390716, 4730390717, 4730390718, 4730390710], "tags": {"amenity": "place_of_worship", "denomination": "thai_mahanikaya", "landuse": "religious", "name": "\u0e27\u0e31\u0e14\u0e2d\u0e22\u0e39\u0e48\u0e14\u0e35\u0e1a\u0e33\u0e23\u0e38\u0e07\u0e18\u0e23\u0e23\u0e21", "name:en": "Wat Yudi Bamrungtham", "name:th": "\u0e27\u0e31\u0e14\u0e2d\u0e22\u0e39\u0e48\u0e14\u0e35\u0e1a\u0e33\u0e23\u0e38\u0e07\u0e18\u0e23\u0e23\u0e21", "old_name:th": "\u0e27\u0e31\u0e14\u0e2d\u0e2d\u0e40\u0e07\u0e34\u0e19", "religion": "buddhist", "wikidata": "Q100698788", "wikimedia_commons": "Category:Wat Yu Di Bamrung Tham", "wikipedia": "th:\u0e27\u0e31\u0e14\u0e2d\u0e22\u0e39\u0e48\u0e14\u0e35\u0e1a\u0e33\u0e23\u0e38\u0e07\u0e18\u0e23\u0e23\u0e21"}}, {"type": "way", "id": 529982402, "nodes": [5147482455, 5147482456, 5147482457, 5147482458, 5147482455], "tags": {"addr:city": "\u0e1b\u0e17\u0e38\u0e21\u0e18\u0e32\u0e19\u0e35", "addr:housenumber": "99/304/1", "addr:postcode": "12150", "addr:street": "\u0e25\u0e33\u0e25\u0e39\u0e01\u0e01\u0e32\u0e0b\u0e2d\u0e2271", "building": "yes", "name": "N-Siri Resort & Hotel \u0e40\u0e2d\u0e47\u0e19\u0e2a\u0e34\u0e23\u0e34 \u0e23\u0e35\u0e2a\u0e2d\u0e23\u0e4c\u0e17 \u0e41\u0e2d\u0e19\u0e14\u0e4c \u0e42\u0e2e\u0e40\u0e17\u0e25", "tourism": "hotel"}}, {"type": "way", "id": 568549750, "nodes": [5936216723, 5936216724, 5936216730, 5936216725, 5936216726, 5936216723], "tags": {"leisure": "park"}}, {"type": "way", "id": 568549772, "nodes": [5469654279, 5469654296, 5469654302, 5469654304, 5469654306, 5469654308, 5469654310, 5469654312, 5469654297, 5469654298, 5469654279], "tags": {"leisure": "park"}}, {"type": "way", "id": 568549774, "nodes": [5469654298, 5469654297, 5469654314, 5469654316, 5469654318, 5469654271, 5469654423, 5469654425, 5469654427, 5469654273, 5469654298], "tags": {"leisure": "park"}}, {"type": "way", "id": 568549793, "nodes": [5469654433, 5469654434, 5469654435, 5469654436, 5469654433], "tags": {"leisure": "park"}}, {"type": "way", "id": 579425033, "nodes": [5549249620, 5822691395, 5822691394, 5549249721, 3196927193, 12504219235, 5549249501, 5822833251, 11393289348, 12504219237, 11393289349, 5822691401, 5549249724, 5549249725, 12504146255, 5822691397, 5822691398, 5822691396, 5822833248, 5549249729, 5549249620], "tags": {"leisure": "park"}}, {"type": "way", "id": 584175821, "nodes": [5584354130, 5584354131, 12578589815, 12578589816, 12578589814, 12578589813, 5584354132, 5584354133, 5584354130], "tags": {"leisure": "park"}}, {"type": "way", "id": 586120787, "nodes": [5600825484, 5600825485, 5600825486, 5600825487, 5600825484], "tags": {"leisure": "park"}}, {"type": "way", "id": 605784726, "nodes": [5744834435, 5744834436, 5744834437, 5744834438, 5744834435], "tags": {"amenity": "marketplace", "name": "\u0e15\u0e25\u0e32\u0e14\u0e2a\u0e32\u0e22\u0e2a\u0e31\u0e21\u0e1e\u0e31\u0e19\u0e18\u0e4c"}}, {"type": "way", "id": 677607702, "nodes": [6344605279, 6344605280, 6344605281, 6344605282, 6344605279], "tags": {"leisure": "park"}}, {"type": "way", "id": 677607705, "nodes": [6344607193, 6344607194, 6344607195, 6344607196, 6344607236, 6344607197, 6344607198, 6344607201, 6344607199, 6344607200, 6344607193], "tags": {"amenity": "place_of_worship", "landuse": "religious", "name": "\u0e27\u0e31\u0e14\u0e2a\u0e32\u0e22\u0e44\u0e2b\u0e21", "name:en": "Wat Sai Mai", "name:th": "\u0e27\u0e31\u0e14\u0e2a\u0e32\u0e22\u0e44\u0e2b\u0e21", "religion": "buddhist", "wikidata": "Q54834360", "wikimedia_commons": "Category:Wat Sai Mai"}}, {"type": "way", "id": 734098215, "nodes": [6874924994, 6874924995, 6874924996, 6874924997, 6874924998, 6874924999, 6874925000, 6874925001, 6874924994], "tags": {"leisure": "park"}}, {"type": "way", "id": 751807021, "nodes": [7028046344, 7028046345, 7028046346, 7183680441, 7183680449, 7028046347, 7183680444, 7183680440, 7028056575, 7183680456, 7183680454, 7183680457, 7028056577, 7028046344], "tags": {"amenity": "place_of_worship", "landuse": "religious", "name": "\u0e27\u0e31\u0e14\u0e04\u0e25\u0e2d\u0e07\u0e0a\u0e31\u0e19", "name:de": "Wat Khlong Chun", "name:en": "Wat Khlong Chun", "name:th": "\u0e27\u0e31\u0e14\u0e04\u0e25\u0e2d\u0e07\u0e0a\u0e31\u0e19", "religion": "buddhist", "wikidata": "Q100671280"}}, {"type": "way", "id": 1158498412, "nodes": [10773776583, 10773776584, 10773776585, 10773776587, 10773776586, 10773776583], "tags": {"amenity": "marketplace", "name": "\u0e15\u0e25\u0e32\u0e14\u0e41\u0e2a\u0e07\u0e2a\u0e35\u0e19\u0e34\u0e25"}}, {"type": "way", "id": 1158741793, "nodes": [10775924133, 10775924134, 10775924135, 10775924136, 10775924133], "tags": {"amenity": "cafe", "brand": "\u0e04\u0e32\u0e40\u0e1f\u0e48 \u0e2d\u0e40\u0e21\u0e0b\u0e2d\u0e19", "brand:en": "Caf\u00e9 Amazon", "brand:th": "\u0e04\u0e32\u0e40\u0e1f\u0e48 \u0e2d\u0e40\u0e21\u0e0b\u0e2d\u0e19", "brand:wikidata": "Q43247503", "building": "yes", "cuisine": "coffee_shop", "name": "\u0e04\u0e32\u0e40\u0e1f\u0e48 \u0e2d\u0e40\u0e21\u0e0b\u0e2d\u0e19", "name:en": "Caf\u00e9 Amazon", "name:th": "\u0e04\u0e32\u0e40\u0e1f\u0e48 \u0e2d\u0e40\u0e21\u0e0b\u0e2d\u0e19", "takeaway": "yes"}}, {"type": "way", "id": 1158743372, "nodes": [10775908711, 10775908712, 10775908713, 10775908714, 10775908711], "tags": {"amenity": "restaurant", "branch": "\u0e25\u0e33\u0e25\u0e39\u0e01\u0e01\u0e32 \u0e04\u0e25\u0e2d\u0e07 2", "building": "yes", "name": "\u0e2a\u0e38\u0e01\u0e35\u0e49\u0e15\u0e35\u0e4b\u0e19\u0e49\u0e2d\u0e22"}}, {"type": "way", "id": 1347572316, "nodes": [12465293313, 12465293314, 12465293315, 12465293316, 12465293317, 12465293318, 12465293313], "tags": {"amenity": "marketplace", "building": "yes", "name": "\u0e15\u0e25\u0e32\u0e14\u0e40\u0e04\u0e2b\u0e30\u0e2d\u0e2d\u0e40\u0e07\u0e34\u0e19"}}, {"type": "way", "id": 1363389589, "nodes": [12623831509, 12623831510, 12623831511, 12623831512, 12623831509], "tags": {"leisure": "park"}}, {"type": "way", "id": 1363614856, "nodes": [12625965516, 12625965517, 12625965519, 12625965521, 12625965523, 12625965525, 12625965527, 12625965529, 12625965531, 12625965530, 12625965528, 12625965526, 12625965524, 12625965522, 12625965520, 12625965518, 12625965516], "tags": {"leisure": "park"}}, {"type": "way", "id": 1363815533, "nodes": [12628181862, 12628181866, 12628181863, 12628181864, 12628181865, 12628181862], "tags": {"leisure": "park"}}, {"type": "way", "id": 1364248654, "nodes": [12633174227, 12633174228, 12633174229, 12633174232, 12633174230, 12633174231, 12633174227], "tags": {"leisure": "park"}}, {"type": "way", "id": 1364277173, "nodes": [12633435618, 12633435619, 12633435620, 12633435621, 12633435618], "tags": {"leisure": "park"}}, {"type": "way", "id": 1364277174, "nodes": [12633435622, 12633435623, 12633435624, 12633435625, 12633435622], "tags": {"leisure": "park"}}, {"type": "node", "id": 6874924994, "lat": 13.921631, "lon": 100.6602012}, {"type": "node", "id": 6874924995, "lat": 13.9216447, "lon": 100.6602136}, {"type": "node", "id": 6874924996, "lat": 13.921643, "lon": 100.6605994}, {"type": "node", "id": 6874924997, "lat": 13.9216533, "lon": 100.660656}, {"type": "node", "id": 6874924998, "lat": 13.9216241, "lon": 100.6607074}, {"type": "node", "id": 6874924999, "lat": 13.9215915, "lon": 100.6611834}, {"type": "node", "id": 6874925000, "lat": 13.9212669, "lon": 100.6611851}, {"type": "node", "id": 6874925001, "lat": 13.9213047, "lon": 100.6601942}, {"type": "node", "id": 6344605279, "lat": 13.9268175, "lon": 100.6574269}, {"type": "node", "id": 6344605280, "lat": 13.9268277, "lon": 100.6571494}, {"type": "node", "id": 6344605281, "lat": 13.9286251, "lon": 100.6572194}, {"type": "node", "id": 6344605282, "lat": 13.9286149, "lon": 100.6574969}, {"type": "node", "id": 10775908711, "lat": 13.9326442, "lon": 100.6528973}, {"type": "node", "id": 10775908712, "lat": 13.9324376, "lon": 100.6528973}, {"type": "node", "id": 10775908713, "lat": 13.9324306, "lon": 100.653186}, {"type": "node", "id": 10775908714, "lat": 13.9326302, "lon": 100.6531896}, {"type": "node", "id": 10775924133, "lat": 13.9332634, "lon": 100.650715}, {"type": "node", "id": 10775924134, "lat": 13.9331805, "lon": 100.6507123}, {"type": "node", "id": 10775924135, "lat": 13.9331681, "lon": 100.650845}, {"type": "node", "id": 10775924136, "lat": 13.9332591, "lon": 100.6508453}, {"type": "node", "id": 6344607193, "lat": 13.9306696, "lon": 100.6592889}, {"type": "node", "id": 6344607194, "lat": 13.9306878, "lon": 100.6581194}, {"type": "node", "id": 6344607195, "lat": 13.9307561, "lon": 100.6573731}, {"type": "node", "id": 6344607196, "lat": 13.9308329, "lon": 100.6573624}, {"type": "node", "id": 6344607197, "lat": 13.9311955, "lon": 100.6573456}, {"type": "node", "id": 6344607198, "lat": 13.9311889, "lon": 100.6575428}, {"type": "node", "id": 6344607199, "lat": 13.9319296, "lon": 100.6575843}, {"type": "node", "id": 6344607200, "lat": 13.9319218, "lon": 100.6592593}, {"type": "node", "id": 6344607201, "lat": 13.9316315, "lon": 100.6575689}, {"type": "node", "id": 6344607236, "lat": 13.9309781, "lon": 100.6573395}, {"type": "node", "id": 5600825484, "lat": 13.9412643, "lon": 100.6573561}, {"type": "node", "id": 5600825485, "lat": 13.9412268, "lon": 100.6579964}, {"type": "node", "id": 5600825486, "lat": 13.9409585, "lon": 100.6579943}, {"type": "node", "id": 5600825487, "lat": 13.9409862, "lon": 100.6573479}, {"type": "node", "id": 5744834435, "lat": 13.9369301, "lon": 100.6593677}, {"type": "node", "id": 5744834436, "lat": 13.9366679, "lon": 100.6593619}, {"type": "node", "id": 5744834437, "lat": 13.9366538, "lon": 100.6600349}, {"type": "node", "id": 5744834438, "lat": 13.9369161, "lon": 100.6600407}, {"type": "node", "id": 10773776583, "lat": 13.941659, "lon": 100.6602162}, {"type": "node", "id": 10773776584, "lat": 13.9413347, "lon": 100.6601365}, {"type": "node", "id": 10773776585, "lat": 13.9413523, "lon": 100.6597576}, {"type": "node", "id": 10773776586, "lat": 13.9416675, "lon": 100.6597702}, {"type": "node", "id": 10773776587, "lat": 13.9414897, "lon": 100.6597639}, {"type": "node", "id": 5469654271, "lat": 13.9033931, "lon": 100.6747869}, {"type": "node", "id": 5469654273, "lat": 13.9028762, "lon": 100.6734754}, {"type": "node", "id": 5469654423, "lat": 13.9033008, "lon": 100.67454}, {"type": "node", "id": 5469654425, "lat": 13.9031677, "lon": 100.6742139}, {"type": "node", "id": 5469654427, "lat": 13.9030317, "lon": 100.6738804}, {"type": "node", "id": 4730390710, "lat": 13.9063212, "lon": 100.6639624}, {"type": "node", "id": 4730390711, "lat": 13.9056963, "lon": 100.6640201}, {"type": "node", "id": 4730390712, "lat": 13.9050506, "lon": 100.6641851}, {"type": "node", "id": 4730390713, "lat": 13.9050393, "lon": 100.665152}, {"type": "node", "id": 4730390715, "lat": 13.9062717, "lon": 100.6652552}, {"type": "node", "id": 4730390716, "lat": 13.906342, "lon": 100.6647564}, {"type": "node", "id": 4730390717, "lat": 13.9063941, "lon": 100.6643567}, {"type": "node", "id": 4730390718, "lat": 13.9063889, "lon": 100.6641555}, {"type": "node", "id": 12466409882, "lat": 13.9054186, "lon": 100.664058}, {"type": "node", "id": 13273657429, "lat": 13.9061302, "lon": 100.6657227}, {"type": "node", "id": 13273657430, "lat": 13.9060075, "lon": 100.6657106}, {"type": "node", "id": 13273657431, "lat": 13.9050592, "lon": 100.6650031}, {"type": "node", "id": 5469654279, "lat": 13.9064044, "lon": 100.6735476}, {"type": "node", "id": 5469654296, "lat": 13.9064155, "lon": 100.674286}, {"type": "node", "id": 5469654297, "lat": 13.9045789, "lon": 100.6745912}, {"type": "node", "id": 5469654298, "lat": 13.9045944, "lon": 100.6735333}, {"type": "node", "id": 5469654302, "lat": 13.9063695, "lon": 100.6742937}, {"type": "node", "id": 5469654304, "lat": 13.9060408, "lon": 100.6743483}, {"type": "node", "id": 5469654306, "lat": 13.9056931, "lon": 100.6744061}, {"type": "node", "id": 5469654308, "lat": 13.9053394, "lon": 100.6744648}, {"type": "node", "id": 5469654310, "lat": 13.9049825, "lon": 100.6745241}, {"type": "node", "id": 5469654312, "lat": 13.9046278, "lon": 100.6745831}, {"type": "node", "id": 5469654314, "lat": 13.9042765, "lon": 100.6746414}, {"type": "node", "id": 5469654316, "lat": 13.9039122, "lon": 100.6747019}, {"type": "node", "id": 5469654318, "lat": 13.9035884, "lon": 100.6747558}, {"type": "node", "id": 5469654433, "lat": 13.9050256, "lon": 100.6727088}, {"type": "node", "id": 5469654434, "lat": 13.9049914, "lon": 100.6735057}, {"type": "node", "id": 5469654435, "lat": 13.9046478, "lon": 100.6734922}, {"type": "node", "id": 5469654436, "lat": 13.9046795, "lon": 100.6727164}, {"type": "node", "id": 12465293313, "lat": 13.9072283, "lon": 100.6736161}, {"type": "node", "id": 12465293314, "lat": 13.9072114, "lon": 100.6740345}, {"type": "node", "id": 12465293315, "lat": 13.9070864, "lon": 100.674056}, {"type": "node", "id": 12465293316, "lat": 13.9070851, "lon": 100.6740747}, {"type": "node", "id": 12465293317, "lat": 13.9064733, "lon": 100.6740828}, {"type": "node", "id": 12465293318, "lat": 13.906472, "lon": 100.6736107}, {"type": "node", "id": 5936216723, "lat": 13.9064469, "lon": 100.6786275}, {"type": "node", "id": 5936216724, "lat": 13.9061871, "lon": 100.6786442}, {"type": "node", "id": 5936216725, "lat": 13.9062279, "lon": 100.6794932}, {"type": "node", "id": 5936216726, "lat": 13.9065721, "lon": 100.6794359}, {"type": "node", "id": 5936216730, "lat": 13.9061067, "lon": 100.678665}, {"type": "node", "id": 12628181864, "lat": 13.909374, "lon": 100.6893743}, {"type": "node", "id": 12628181862, "lat": 13.9092542, "lon": 100.6898665}, {"type": "node", "id": 12628181863, "lat": 13.9090915, "lon": 100.689601}, {"type": "node", "id": 12628181865, "lat": 13.9095679, "lon": 100.689656}, {"type": "node", "id": 12628181866, "lat": 13.9091014, "lon": 100.6896498}, {"type": "node", "id": 12633435618, "lat": 13.9099924, "lon": 100.6969336}, {"type": "node", "id": 12633435620, "lat": 13.9097724, "lon": 100.697411}, {"type": "node", "id": 12633435621, "lat": 13.9096292, "lon": 100.6971254}, {"type": "node", "id": 12633435623, "lat": 13.9099208, "lon": 100.6974338}, {"type": "node", "id": 12633435624, "lat": 13.9100158, "lon": 100.6976806}, {"type": "node", "id": 3196917259, "lat": 13.919674, "lon": 100.6857315}, {"type": "node", "id": 3196917260, "lat": 13.9197027, "lon": 100.6859729}, {"type": "node", "id": 3196917861, "lat": 13.920183, "lon": 100.6859448}, {"type": "node", "id": 3196917862, "lat": 13.9201856, "lon": 100.6861366}, {"type": "node", "id": 3196917863, "lat": 13.920209, "lon": 100.6863545}, {"type": "node", "id": 3196917864, "lat": 13.9202046, "lon": 100.6868578}, {"type": "node", "id": 3196917865, "lat": 13.9202043, "lon": 100.6869716}, {"type": "node", "id": 3196927193, "lat": 13.9187427, "lon": 100.6857663}, {"type": "node", "id": 4542217515, "lat": 13.9199006, "lon": 100.6870458}, {"type": "node", "id": 4542217518, "lat": 13.9194874, "lon": 100.6870944}, {"type": "node", "id": 4577068167, "lat": 13.9195734, "lon": 100.6857372}, {"type": "node", "id": 4597395506, "lat": 13.9200515, "lon": 100.6870249}, {"type": "node", "id": 4597395510, "lat": 13.9193154, "lon": 100.6871095}, {"type": "node", "id": 4597395511, "lat": 13.9189818, "lon": 100.6871537}, {"type": "node", "id": 5477174960, "lat": 13.9186122, "lon": 100.6871728}, {"type": "node", "id": 5549249499, "lat": 13.9197118, "lon": 100.68706}, {"type": "node", "id": 5549249500, "lat": 13.9194627, "lon": 100.6870862}, {"type": "node", "id": 5549249501, "lat": 13.9187358, "lon": 100.6858864}, {"type": "node", "id": 5549249511, "lat": 13.9202103, "lon": 100.6861356}, {"type": "node", "id": 5549249529, "lat": 13.9201794, "lon": 100.6869718}, {"type": "node", "id": 5549249531, "lat": 13.9202045, "lon": 100.6869161}, {"type": "node", "id": 5549249620, "lat": 13.9184317, "lon": 100.6859496}, {"type": "node", "id": 5549249721, "lat": 13.9183984, "lon": 100.6857811}, {"type": "node", "id": 5549249723, "lat": 13.9186279, "lon": 100.6866452}, {"type": "node", "id": 5549249724, "lat": 13.9182871, "lon": 100.6866476}, {"type": "node", "id": 5549249725, "lat": 13.918302, "lon": 100.6863948}, {"type": "node", "id": 5549249729, "lat": 13.9186033, "lon": 100.6859586}, {"type": "node", "id": 5822691394, "lat": 13.9183888, "lon": 100.6860164}, {"type": "node", "id": 5822691395, "lat": 13.9184271, "lon": 100.6860197}, {"type": "node", "id": 5822691396, "lat": 13.9186209, "lon": 100.6860537}, {"type": "node", "id": 5822691397, "lat": 13.918367, "lon": 100.6864097}, {"type": "node", "id": 5822691398, "lat": 13.9186069, "lon": 100.6864166}, {"type": "node", "id": 5822691401, "lat": 13.9186277, "lon": 100.6866409}, {"type": "node", "id": 5822691412, "lat": 13.9186231, "lon": 100.6872119}, {"type": "node", "id": 5822691415, "lat": 13.9186086, "lon": 100.6871198}, {"type": "node", "id": 5822691423, "lat": 13.9186106, "lon": 100.6871084}, {"type": "node", "id": 5822691424, "lat": 13.9186086, "lon": 100.687141}, {"type": "node", "id": 5822833248, "lat": 13.9185984, "lon": 100.686053}, {"type": "node", "id": 5822833251, "lat": 13.9187187, "lon": 100.6860587}, {"type": "node", "id": 11393289348, "lat": 13.9187121, "lon": 100.6861439}, {"type": "node", "id": 11393289349, "lat": 13.9186665, "lon": 100.6864347}, {"type": "node", "id": 12504146255, "lat": 13.9183573, "lon": 100.6863922}, {"type": "node", "id": 12504219234, "lat": 13.9186119, "lon": 100.6870573}, {"type": "node", "id": 12504219235, "lat": 13.9187392, "lon": 100.6858188}, {"type": "node", "id": 12504219236, "lat": 13.9187016, "lon": 100.6862106}, {"type": "node", "id": 12504219237, "lat": 13.9186989, "lon": 100.6862093}, {"type": "node", "id": 7028046344, "lat": 13.9311615, "lon": 100.6890299}, {"type": "node", "id": 7028046347, "lat": 13.9328029, "lon": 100.6889976}, {"type": "node", "id": 7028056575, "lat": 13.9324445, "lon": 100.6890073}, {"type": "node", "id": 7028056577, "lat": 13.931683, "lon": 100.6890071}, {"type": "node", "id": 7183680440, "lat": 13.9324848, "lon": 100.6890062}, {"type": "node", "id": 7183680444, "lat": 13.9325514, "lon": 100.6890044}, {"type": "node", "id": 7183680449, "lat": 13.9328118, "lon": 100.6892215}, {"type": "node", "id": 7183680454, "lat": 13.9321322, "lon": 100.6890072}, {"type": "node", "id": 7183680456, "lat": 13.9321543, "lon": 100.6890072}, {"type": "node", "id": 7183680457, "lat": 13.9321035, "lon": 100.6890072}, {"type": "node", "id": 12623831509, "lat": 13.9119476, "lon": 100.6906054}, {"type": "node", "id": 12623831510, "lat": 13.9117621, "lon": 100.6907563}, {"type": "node", "id": 12623831511, "lat": 13.9114777, "lon": 100.6903365}, {"type": "node", "id": 12623831512, "lat": 13.9116743, "lon": 100.6901876}, {"type": "node", "id": 12625965516, "lat": 13.9133914, "lon": 100.6928479}, {"type": "node", "id": 12625965517, "lat": 13.9132528, "lon": 100.6929599}, {"type": "node", "id": 12625965518, "lat": 13.9131819, "lon": 100.6925837}, {"type": "node", "id": 12625965519, "lat": 13.9130631, "lon": 100.6926518}, {"type": "node", "id": 12625965520, "lat": 13.9130457, "lon": 100.6923744}, {"type": "node", "id": 12625965521, "lat": 13.912889, "lon": 100.6924024}, {"type": "node", "id": 12625965522, "lat": 13.9128365, "lon": 100.6920524}, {"type": "node", "id": 12625965523, "lat": 13.912648, "lon": 100.6920444}, {"type": "node", "id": 12625965524, "lat": 13.9126537, "lon": 100.6917339}, {"type": "node", "id": 12625965525, "lat": 13.9124628, "lon": 100.6917611}, {"type": "node", "id": 12625965526, "lat": 13.912445, "lon": 100.6913955}, {"type": "node", "id": 12625965527, "lat": 13.9122261, "lon": 100.6914267}, {"type": "node", "id": 12625965528, "lat": 13.9122249, "lon": 100.6910832}, {"type": "node", "id": 12625965529, "lat": 13.9119814, "lon": 100.6910618}, {"type": "node", "id": 12625965530, "lat": 13.9119853, "lon": 100.6906896}, {"type": "node", "id": 12625965531, "lat": 13.9118115, "lon": 100.6908248}, {"type": "node", "id": 12633174227, "lat": 13.9124306, "lon": 100.6958815}, {"type": "node", "id": 12633174228, "lat": 13.9125178, "lon": 100.6961068}, {"type": "node", "id": 12633174229, "lat": 13.9120102, "lon": 100.6963147}, {"type": "node", "id": 12633174230, "lat": 13.9117654, "lon": 100.6962154}, {"type": "node", "id": 12633174231, "lat": 13.9117563, "lon": 100.6961645}, {"type": "node", "id": 12633174232, "lat": 13.9119184, "lon": 100.6962878}, {"type": "node", "id": 12633435619, "lat": 13.9101174, "lon": 100.6972528}, {"type": "node", "id": 12633435622, "lat": 13.9101629, "lon": 100.6973359}, {"type": "node", "id": 12633435625, "lat": 13.910258, "lon": 100.69758}, {"type": "node", "id": 3200913753, "lat": 13.918737, "lon": 100.6940142}, {"type": "node", "id": 3200913754, "lat": 13.9184933, "lon": 100.6939718}, {"type": "node", "id": 3200913755, "lat": 13.9186598, "lon": 100.692113}, {"type": "node", "id": 4912464548, "lat": 13.9185226, "lon": 100.693689}, {"type": "node", "id": 4912464549, "lat": 13.9184972, "lon": 100.6936863}, {"type": "node", "id": 4912464550, "lat": 13.9185631, "lon": 100.6930843}, {"type": "node", "id": 4912464551, "lat": 13.9185516, "lon": 100.6930828}, {"type": "node", "id": 4912464552, "lat": 13.9186777, "lon": 100.692119}, {"type": "node", "id": 4912464554, "lat": 13.9186925, "lon": 100.6924029}, {"type": "node", "id": 4912464555, "lat": 13.918715, "lon": 100.6932475}, {"type": "node", "id": 5477057257, "lat": 13.9187065, "lon": 100.6929186}, {"type": "node", "id": 3394708397, "lat": 13.9254924, "lon": 100.6905576}, {"type": "node", "id": 3394708398, "lat": 13.9255027, "lon": 100.6908749}, {"type": "node", "id": 3394708399, "lat": 13.9249164, "lon": 100.6908884}, {"type": "node", "id": 3394708400, "lat": 13.92491, "lon": 100.6905832}, {"type": "node", "id": 5584354130, "lat": 13.925659, "lon": 100.6957583}, {"type": "node", "id": 5584354131, "lat": 13.9256626, "lon": 100.6960312}, {"type": "node", "id": 5584354132, "lat": 13.9252013, "lon": 100.6960455}, {"type": "node", "id": 5584354133, "lat": 13.9251976, "lon": 100.6957647}, {"type": "node", "id": 12578589813, "lat": 13.9252703, "lon": 100.6960445}, {"type": "node", "id": 12578589814, "lat": 13.9252696, "lon": 100.6959887}, {"type": "node", "id": 12578589815, "lat": 13.9255477, "lon": 100.6960328}, {"type": "node", "id": 12578589816, "lat": 13.9255471, "lon": 100.6959848}, {"type": "node", "id": 7028046345, "lat": 13.9312175, "lon": 100.6901913}, {"type": "node", "id": 7028046346, "lat": 13.9328524, "lon": 100.6902422}, {"type": "node", "id": 7183680441, "lat": 13.9328417, "lon": 100.6899738}, {"type": "node", "id": 5147482455, "lat": 13.9374279, "lon": 100.6960452}, {"type": "node", "id": 5147482456, "lat": 13.9376958, "lon": 100.6959884}, {"type": "node", "id": 5147482457, "lat": 13.9376232, "lon": 100.6956324}, {"type": "node", "id": 5147482458, "lat": 13.9374128, "lon": 100.6956401}]}