{"version": 0.6, "generator": "Overpass API 0.7.62.8 e802775f", "osm3s": {"timestamp_osm_base": "2025-11-20T03:23:29Z", "copyright": "The data included in this document is from www.openstreetmap.org. The data is made available under ODbL."}, "elements": [{"type": "node", "id": 1412990209, "lat": 13.9060492, "lon": 100.5094726, "tags": {"name": "TUB Room", "tourism": "hotel"}}, {"type": "node", "id": 1648163450, "lat": 13.9113682, "lon": 100.5405828, "tags": {"addr:housenumber": "50/835", "amenity": "restaurant", "name": "\u0e40\u0e01\u0e47\u0e08\u0e41\u0e01\u0e49\u0e27"}}, {"type": "node", "id": 1648163458, "lat": 13.9114558, "lon": 100.5400706, "tags": {"amenity": "restaurant", "name": "\u0e19\u0e34\u0e15\u0e22\u0e32\u0e44\u0e01\u0e48\u0e22\u0e48\u0e32\u0e07"}}, {"type": "node", "id": 1648899012, "lat": 13.900485, "lon": 100.5387155, "tags": {"amenity": "restaurant", "name": "\u0e40\u0e2b\u0e21\u0e37\u0e2d\u0e19\u0e1d\u0e31\u0e19"}}, {"type": "node", "id": 1656350504, "lat": 13.9242834, "lon": 100.5035267, "tags": {"amenity": "place_of_worship", "name": "\u0e27\u0e31\u0e14\u0e1a\u0e32\u0e07\u0e1e\u0e39\u0e14\u0e19\u0e2d\u0e01", "religion": "buddhist", "wikidata": "Q99642793"}}, {"type": "node", "id": 1687584773, "lat": 13.9092602, "lon": 100.5371334, "tags": {"artwork_type": "statue", "historic": "monument", "name": "\u0e1e\u0e23\u0e30\u0e1a\u0e23\u0e21\u0e23\u0e32\u0e0a\u0e32\u0e19\u0e38\u0e2a\u0e32\u0e27\u0e23\u0e35\u0e22\u0e4c\u0e23\u0e31\u0e0a\u0e01\u0e32\u0e25\u0e17\u0e35\u0e48 7", "name:es": "Estatua del rey Rama VII", "tourism": "artwork"}}, {"type": "node", "id": 1687719361, "lat": 13.9089804, "lon": 100.5381267, "tags": {"amenity": "restaurant", "name": "\u0e42\u0e15\u0e40\u0e1b\u0e47\u0e14\u0e22\u0e48\u0e32\u0e07"}}, {"type": "node", "id": 1687719367, "lat": 13.9091701, "lon": 100.5381081, "tags": {"amenity": "cafe", "operator": "Wawee"}}, {"type": "node", "id": 1694289642, "lat": 13.9042255, "lon": 100.5300381, "tags": {"amenity": "cafe", "name": "Doi Chang Coffee"}}, {"type": "node", "id": 1705000852, "lat": 13.9058432, "lon": 100.5378651, "tags": {"addr:housenumber": "58/126", "amenity": "cafe", "name": "Angelo Coffee"}}, {"type": "node", "id": 1705000866, "lat": 13.9064791, "lon": 100.5380958, "tags": {"addr:housenumber": "58/89", "amenity": "cafe", "name": "\u0e04\u0e32\u0e40\u0e1f\u0e48 \u0e1a\u0e35\u0e27\u0e34\u0e0a", "name:en": "Caf\u00e9 Bee Wish"}}, {"type": "node", "id": 1705000884, "lat": 13.9028261, "lon": 100.5382547, "tags": {"addr:housenumber": "58/57", "amenity": "restaurant", "name": "\u0e42\u0e0a\u0e04\u0e14\u0e35\u0e15\u0e34\u0e48\u0e21\u0e0b\u0e33", "name:en": "Chokdee Dimsun Restaurant"}}, {"type": "node", "id": 1705000912, "lat": 13.9072231, "lon": 100.5376652, "tags": {"amenity": "cafe", "name": "Flamingo"}}, {"type": "node", "id": 1705000919, "lat": 13.9068187, "lon": 100.5376623, "tags": {"amenity": "restaurant", "name": "Gyunobi"}}, {"type": "node", "id": 1705000972, "lat": 13.9022948, "lon": 100.5380402, "tags": {"addr:housenumber": "58/34", "amenity": "restaurant"}}, {"type": "node", "id": 1705001030, "lat": 13.9069112, "lon": 100.5376563, "tags": {"amenity": "restaurant", "name": "La Bonta Italian Restaurant"}}, {"type": "node", "id": 1705001061, "lat": 13.9064283, "lon": 100.5380991, "tags": {"addr:housenumber": "58/90", "amenity": "cafe", "name": "\u0e21\u0e34\u0e15\u0e40\u0e15\u0e49", "name:en": "MittE Coffee"}}, {"type": "node", "id": 1705001071, "lat": 13.9065808, "lon": 100.5380891, "tags": {"addr:housenumber": "58/87", "amenity": "cafe", "name": "My Caf\u00e9"}}, {"type": "node", "id": 1705001110, "lat": 13.9047546, "lon": 100.5378548, "tags": {"amenity": "restaurant", "cuisine": "italian", "level": "0", "name": "Pinocchio Italian Restaurant"}}, {"type": "node", "id": 1705001152, "lat": 13.9068598, "lon": 100.5380686, "tags": {"addr:housenumber": "58/81", "amenity": "restaurant", "name": "Sazio Pizzeria & Wine Restaurant"}}, {"type": "node", "id": 1705001243, "lat": 13.9059218, "lon": 100.5378432, "tags": {"addr:housenumber": "58/128", "amenity": "restaurant", "name": "White Tree"}}, {"type": "node", "id": 1705001533, "lat": 13.903018, "lon": 100.5380534, "tags": {"addr:housenumber": "58/56", "amenity": "cafe", "name": "\u0e01\u0e32\u0e41\u0e1f\u0e14\u0e2d\u0e22\u0e0a\u0e49\u0e32\u0e07"}}, {"type": "node", "id": 1705001541, "lat": 13.9030527, "lon": 100.5382336, "tags": {"amenity": "cafe", "name": "\u0e01\u0e32\u0e41\u0e1f\u0e14\u0e2d\u0e22\u0e0a\u0e49\u0e32\u0e07"}}, {"type": "node", "id": 1705001553, "lat": 13.9017235, "lon": 100.5379923, "tags": {"addr:housenumber": "58/16", "amenity": "restaurant", "name": "\u0e02\u0e32\u0e2b\u0e21\u0e39\u0e40\u0e21\u0e37\u0e2d\u0e07\u0e17\u0e2d\u0e07"}}, {"type": "node", "id": 1705001557, "lat": 13.9071736, "lon": 100.537669, "tags": {"amenity": "restaurant", "name": "\u0e02\u0e38\u0e19\u0e0a\u0e49\u0e32\u0e07"}}, {"type": "node", "id": 1705001649, "lat": 13.906128, "lon": 100.5380955, "tags": {"addr:housenumber": "58/133", "amenity": "restaurant", "name": "\u0e19\u0e23\u0e32\u0e17\u0e23"}}, {"type": "node", "id": 1705001807, "lat": 13.9028964, "lon": 100.5380541, "tags": {"addr:housenumber": "58/52", "amenity": "restaurant", "name": "\u0e22\u0e2d\u0e14\u0e1c\u0e31\u0e01\u0e40\u0e21\u0e37\u0e2d\u0e07\u0e17\u0e2d\u0e07"}}, {"type": "node", "id": 1705001945, "lat": 13.9050335, "lon": 100.5381725, "tags": {"addr:housenumber": "58/87", "amenity": "restaurant", "name": "\u0e2d\u0e32\u0e23\u0e35\u0e19\u0e32 II"}}, {"type": "node", "id": 1705001991, "lat": 13.906021, "lon": 100.5381035, "tags": {"addr:housenumber": "58/129", "amenity": "restaurant", "name": "\u0e40\u0e08\u0e35\u0e22\u0e07 \u0e25\u0e39\u0e01\u0e0a\u0e34\u0e49\u0e19\u0e1b\u0e25\u0e32"}}, {"type": "node", "id": 1705002000, "lat": 13.9026072, "lon": 100.5382525, "tags": {"addr:housenumber": "58/49", "amenity": "restaurant", "name": "\u0e40\u0e1b\u0e47\u0e14\u0e1e\u0e30\u0e42\u0e25\u0e49\u0e44\u0e1e\u0e25\u0e34\u0e19"}}, {"type": "node", "id": 1705002065, "lat": 13.9057699, "lon": 100.5378692, "tags": {"addr:housenumber": "58/122", "amenity": "restaurant", "name": "\u0e42\u0e08\u0e4a\u0e01\u0e23\u0e48\u0e27\u0e21\u0e43\u0e08"}}, {"type": "node", "id": 1705002075, "lat": 13.9024646, "lon": 100.5380519, "tags": {"addr:housenumber": "58/38", "amenity": "restaurant", "name": "789 \u0e1f\u0e39\u0e49\u0e14"}}, {"type": "node", "id": 1706519057, "lat": 13.9083969, "lon": 100.5380926, "tags": {"amenity": "restaurant", "name": "\u0e01\u0e4a\u0e33\u0e44\u0e01\u0e4a \u0e44\u0e01\u0e48\u0e17\u0e2d\u0e07", "name:en": "Kumkai Kaithong"}}, {"type": "node", "id": 1706519068, "lat": 13.9082484, "lon": 100.5380827, "tags": {"amenity": "restaurant", "name": "Tanpopo Shabu Shabu", "name:th": "\u0e17\u0e31\u0e21\u0e42\u0e1b\u0e30\u0e42\u0e1b\u0e30"}}, {"type": "node", "id": 1706519194, "lat": 13.9087181, "lon": 100.5381085, "tags": {"amenity": "restaurant"}}, {"type": "node", "id": 1706519281, "lat": 13.9080628, "lon": 100.5380704, "tags": {"amenity": "restaurant", "name": "\u0e01\u0e4b\u0e27\u0e22\u0e40\u0e15\u0e35\u0e4b\u0e22\u0e27\u0e40\u0e23\u0e37\u0e2d\u0e28\u0e23\u0e35\u0e2d\u0e22\u0e38\u0e18\u0e22\u0e32"}}, {"type": "node", "id": 1706519282, "lat": 13.9088305, "lon": 100.5381163, "tags": {"amenity": "restaurant", "cuisine": "vietnamese", "name": "\u0e04\u0e23\u0e31\u0e27\u0e14\u0e32\u0e19\u0e31\u0e07"}}, {"type": "node", "id": 1706519283, "lat": 13.9085082, "lon": 100.5381001, "tags": {"amenity": "restaurant", "name": "\u0e04\u0e23\u0e31\u0e27\u0e2b\u0e21\u0e48\u0e2d\u0e21\u0e40\u0e15\u0e48\u0e32"}}, {"type": "node", "id": 1706519286, "lat": 13.908868, "lon": 100.5381189, "tags": {"amenity": "restaurant", "name": "\u0e15\u0e31\u0e49\u0e07\u0e2e\u0e31\u0e49\u0e07\u0e0a\u0e27\u0e07 \u0e01\u0e4b\u0e27\u0e22\u0e40\u0e15\u0e35\u0e4b\u0e22\u0e27\u0e40\u0e1b\u0e47\u0e14"}}, {"type": "node", "id": 1706519294, "lat": 13.9089054, "lon": 100.5381215, "tags": {"amenity": "restaurant", "name": "\u0e15\u0e33\u0e21\u0e31\u0e48\u0e27 \u0e40\u0e21\u0e37\u0e2d\u0e07\u0e17\u0e2d\u0e07"}}, {"type": "node", "id": 1706519298, "lat": 13.9081742, "lon": 100.5380778, "tags": {"amenity": "restaurant", "name": "\u0e23\u0e49\u0e32\u0e19\u0e2b\u0e19\u0e49\u0e32\u0e27\u0e31\u0e07 (\u0e2d\u0e22\u0e38\u0e18\u0e22\u0e32) \u0e2a\u0e32\u0e02\u0e32\u0e40\u0e21\u0e37\u0e2d\u0e07\u0e17\u0e2d\u0e07\u0e18\u0e32\u0e19\u0e35 \u0e42\u0e23\u0e15\u0e35 \u0e21\u0e30\u0e15\u0e30\u0e1a\u0e30"}}, {"type": "node", "id": 1706519310, "lat": 13.9090928, "lon": 100.5381345, "tags": {"amenity": "restaurant", "name": "\u0e2d\u0e34\u0e48\u0e21 \u0e2d\u0e23\u0e48\u0e2d\u0e22"}}, {"type": "node", "id": 1706519321, "lat": 13.9082113, "lon": 100.5380803, "tags": {"amenity": "restaurant", "name": "8 Elephant", "name:th": "\u0e40\u0e2d\u0e17\u0e2d\u0e35\u0e40\u0e25\u0e40\u0e1f\u0e19\u0e15\u0e4c"}}, {"type": "node", "id": 1707064944, "lat": 13.9111478, "lon": 100.5419059, "tags": {"addr:housenumber": "50/801", "amenity": "restaurant", "name": "Dr. Lex"}}, {"type": "node", "id": 1707064968, "lat": 13.9113149, "lon": 100.5408902, "tags": {"addr:housenumber": "50/826", "amenity": "restaurant"}}, {"type": "node", "id": 1707064969, "lat": 13.9113208, "lon": 100.5408561, "tags": {"addr:housenumber": "50/827", "amenity": "restaurant"}}, {"type": "node", "id": 1707064983, "lat": 13.9114217, "lon": 100.5403082, "tags": {"amenity": "restaurant", "name": "Lucky \u0e02\u0e49\u0e32\u0e27\u0e21\u0e31\u0e19\u0e44\u0e01\u0e48"}}, {"type": "node", "id": 1707065051, "lat": 13.9114363, "lon": 100.5402064, "tags": {"amenity": "restaurant"}}, {"type": "node", "id": 1707065784, "lat": 13.9115434, "lon": 100.539546, "tags": {"amenity": "restaurant", "name": "\u0e19\u0e38\u0e15\u0e34 \u0e2a\u0e40\u0e15\u0e47\u0e01\u0e1e\u0e23\u0e34\u0e01\u0e44\u0e17\u0e22\u0e14\u0e33"}}, {"type": "node", "id": 1707065825, "lat": 13.9115259, "lon": 100.5396537, "tags": {"amenity": "restaurant", "name": "\u0e40\u0e1b\u0e47\u0e14\u0e15\u0e38\u0e4b\u0e19 \u0e2b\u0e31\u0e27\u0e2b\u0e34\u0e19"}}, {"type": "node", "id": 1707499113, "lat": 13.9145725, "lon": 100.5397031, "tags": {"addr:housenumber": "55/416", "amenity": "restaurant"}}, {"type": "node", "id": 1707499138, "lat": 13.9130171, "lon": 100.5393262, "tags": {"addr:housenumber": "55/454", "amenity": "restaurant", "name": "Pizza Hut", "name:en": "Pizza Hut Delivery", "takeaway": "only"}}, {"type": "node", "id": 1707499156, "lat": 13.9143904, "lon": 100.5396666, "tags": {"addr:housenumber": "55/421", "amenity": "restaurant", "name": "\u0e01\u0e2d\u0e40\u0e15\u0e47\u0e01\u0e40\u0e0a\u0e35\u0e22\u0e07 3"}}, {"type": "node", "id": 1707499157, "lat": 13.9129734, "lon": 100.5393163, "tags": {"addr:housenumber": "55/455", "amenity": "restaurant", "name": "\u0e01\u0e39\u0e4a\u0e14\u0e21\u0e2d\u0e23\u0e4c\u0e19\u0e34\u0e48\u0e07\u0e42\u0e08\u0e4a\u0e01"}}, {"type": "node", "id": 1707499158, "lat": 13.9143196, "lon": 100.5396484, "tags": {"addr:housenumber": "55/424", "amenity": "restaurant", "name": "\u0e01\u0e4b\u0e27\u0e22\u0e40\u0e15\u0e35\u0e4b\u0e22\u0e27 100 \u0e0a\u0e32\u0e21"}}, {"type": "node", "id": 1707499159, "lat": 13.9127913, "lon": 100.539267, "tags": {"addr:housenumber": "55/457", "amenity": "restaurant", "name": "\u0e01\u0e4b\u0e27\u0e22\u0e40\u0e15\u0e35\u0e4b\u0e22\u0e27\u0e1b\u0e25\u0e32\u0e40\u0e21\u0e37\u0e2d\u0e07\u0e17\u0e2d\u0e07"}}, {"type": "node", "id": 1707499169, "lat": 13.9144322, "lon": 100.5396797, "tags": {"addr:housenumber": "55/419", "amenity": "restaurant", "name": "\u0e1b\u0e32\u0e19\u0e43\u0e08"}}, {"type": "node", "id": 1707499171, "lat": 13.9130608, "lon": 100.5393361, "tags": {"addr:housenumber": "55/453", "amenity": "restaurant", "name": "\u0e22\u0e31\u0e21\u0e21\u0e35\u0e48 \u0e2d\u0e23\u0e48\u0e2d\u0e22\u0e40\u0e21\u0e37\u0e2d\u0e07\u0e17\u0e2d\u0e07"}}, {"type": "node", "id": 1707499172, "lat": 13.9134106, "lon": 100.5394153, "tags": {"addr:housenumber": "55/445", "amenity": "restaurant", "name": "\u0e23\u0e27\u0e21\u0e42\u0e0a\u0e04\u0e02\u0e49\u0e32\u0e27\u0e1c\u0e31\u0e14\u0e1b\u0e39"}}, {"type": "node", "id": 1707499174, "lat": 13.9154268, "lon": 100.5399325, "tags": {"addr:housenumber": "16/12", "amenity": "restaurant", "name": "\u0e25\u0e35 \u0e40\u0e1e\u0e25\u0e2a \u0e1a\u0e30\u0e2b\u0e21\u0e35\u0e48\u0e2e\u0e48\u0e2d\u0e07\u0e01\u0e07"}}, {"type": "node", "id": 1707499175, "lat": 13.9137547, "lon": 100.5394963, "tags": {"addr:housenumber": "55/458", "amenity": "restaurant", "name": "\u0e25\u0e39\u0e01\u0e0a\u0e34\u0e49\u0e19\u0e28\u0e23\u0e35\u0e22\u0e48\u0e32\u0e19 \u0e40\u0e21\u0e37\u0e2d\u0e07\u0e17\u0e2d\u0e07"}}, {"type": "node", "id": 1707499178, "lat": 13.9155277, "lon": 100.5399558, "tags": {"addr:housenumber": "16/15", "amenity": "restaurant", "name": "\u0e40\u0e08\u0e49\u0e32\u0e40\u0e01\u0e48\u0e32 \u0e23\u0e32\u0e0a\u0e32\u0e1a\u0e30\u0e2b\u0e21\u0e35\u0e48\u0e40\u0e01\u0e35\u0e4a\u0e22\u0e27"}}, {"type": "node", "id": 1707499181, "lat": 13.9137159, "lon": 100.5394873, "tags": {"addr:housenumber": "55/438", "amenity": "restaurant", "name": "\u0e40\u0e22\u0e32\u0e27\u0e23\u0e32\u0e0a\u0e1b\u0e2d\u0e40\u0e1b\u0e35\u0e4a\u0e22\u0e30\u0e2a\u0e14"}}, {"type": "node", "id": 1707499182, "lat": 13.9154605, "lon": 100.5399403, "tags": {"addr:housenumber": "16/13", "amenity": "restaurant", "name": "\u0e40\u0e22\u0e47\u0e19\u0e15\u0e32\u0e42\u0e1f \u0e2a\u0e30\u0e17\u0e49\u0e32\u0e19\u0e1f\u0e49\u0e32 (\u0e40\u0e21\u0e37\u0e2d\u0e07\u0e17\u0e2d\u0e07)"}}, {"type": "node", "id": 1707499183, "lat": 13.9136384, "lon": 100.5394694, "tags": {"addr:housenumber": "55/440", "amenity": "restaurant", "name": "\u0e41\u0e0a\u0e49\u0e21\u0e1b\u0e4c\u0e40\u0e21\u0e37\u0e2d\u0e07\u0e17\u0e2d\u0e07"}}, {"type": "node", "id": 1707499184, "lat": 13.9129296, "lon": 100.5393064, "tags": {"addr:housenumber": "55/456", "amenity": "restaurant", "name": "\u0e41\u0e21\u0e48\u0e1b\u0e23\u0e30\u0e22\u0e39\u0e23"}}, {"type": "node", "id": 1707499185, "lat": 13.9153595, "lon": 100.5399169, "tags": {"addr:housenumber": "16/10", "amenity": "restaurant", "name": "\u0e42\u0e01\u0e2e\u0e31\u0e1a"}}, {"type": "node", "id": 1716564698, "lat": 13.930428, "lon": 100.5499164, "tags": {"amenity": "place_of_worship", "list:fmm_0000": "yes", "name": "\u0e27\u0e31\u0e14\u0e40\u0e23\u0e37\u0e2d\u0e07\u0e40\u0e27\u0e0a\u0e21\u0e07\u0e04\u0e25", "religion": "buddhist"}}, {"type": "node", "id": 2448242718, "lat": 13.9128193, "lon": 100.5399462, "tags": {"addr:housenumber": "55/627", "amenity": "restaurant", "cuisine": "korean", "name": "Ahnnyung", "name:en": "Ahhnyung Korean Restaurant", "name:th": "\u0e2d\u0e31\u0e19\u0e22\u0e2d\u0e07", "opening_hours": "11:00-22:00"}}, {"type": "node", "id": 2448242724, "lat": 13.9128471, "lon": 100.5396834, "tags": {"addr:housenumber": "55/632", "amenity": "restaurant", "cuisine": "steak;noodle", "name": "Chef in the Box", "name:en": "Chef in the Box", "name:th": "\u0e40\u0e0a\u0e1f \u0e2d\u0e34\u0e19 \u0e40\u0e14\u0e2d\u0e30 \u0e1a\u0e4a\u0e2d\u0e01\u0e0b\u0e4c"}}, {"type": "node", "id": 2448242725, "lat": 13.91351, "lon": 100.5401843, "tags": {"addr:housenumber": "55/609", "amenity": "cafe", "name": "Dee Koff Coffee", "name:en": "Dee Koff Coffee", "name:th": "\u0e14\u0e35 \u0e04\u0e2d\u0e1f"}}, {"type": "node", "id": 2448242728, "lat": 13.9133683, "lon": 100.5399168, "tags": {"amenity": "cafe", "name": "Little Zoo Cafe"}}, {"type": "node", "id": 2448242733, "lat": 13.9128138, "lon": 100.5401584, "tags": {"addr:housenumber": "55/624", "amenity": "restaurant", "cuisine": "hot_pot", "name": "Hong Kong Suki", "name:en": "Hong Kong Suki", "name:th": "\u0e48\u0e2e\u0e48\u0e2d\u0e07\u0e01\u0e07 \u0e2a\u0e38\u0e01\u0e35\u0e49"}}, {"type": "node", "id": 2448242742, "lat": 13.9128133, "lon": 100.5399927, "tags": {"addr:housenumber": "55/626", "amenity": "cafe", "name": "II Spoons Tale", "name:en": "II Spoons Tale", "name:th": "\u0e17\u0e39 \u0e2a\u0e1b\u0e39\u0e19 \u0e40\u0e17\u0e25"}}, {"type": "node", "id": 2448242748, "lat": 13.9128375, "lon": 100.5397555, "tags": {"addr:housenumber": "55/630;55/631", "amenity": "restaurant", "cuisine": "bak_kut_teh", "name": "\u0e0b\u0e38\u0e19 \u0e2e\u0e27\u0e14 \u0e1a\u0e30\u0e01\u0e38\u0e4a\u0e14\u0e40\u0e15\u0e4b", "name:en": "Soon Huat Bak Kut Teh", "name:th": "\u0e0b\u0e38\u0e19 \u0e2e\u0e27\u0e14 \u0e1a\u0e30\u0e01\u0e38\u0e4a\u0e14\u0e40\u0e15\u0e4b"}}, {"type": "node", "id": 2448242855, "lat": 13.9131381, "lon": 100.5402299, "tags": {"addr:housenumber": "55/619", "amenity": "cafe", "name": "\u0e23\u0e49\u0e32\u0e19\u0e19\u0e21-\u0e02\u0e19\u0e21\u0e1b\u0e31\u0e07 Milk Toast Coffee Salad"}}, {"type": "node", "id": 3431296275, "lat": 13.9037293, "lon": 100.5276349, "tags": {"amenity": "cafe", "brand": "Starbucks", "brand:wikidata": "Q37158", "brand:wikipedia": "en:Starbucks", "cuisine": "coffee_shop", "name": "Starbucks", "name:en": "Starbucks Coffee", "name:th": "\u0e2a\u0e15\u0e32\u0e23\u0e4c\u0e1a\u0e31\u0e04\u0e2a\u0e4c", "official_name": "Starbucks Coffee", "shop": "coffee", "smoking": "no", "takeaway": "yes", "website": "https://www.starbucks.com/"}}, {"type": "node", "id": 3431296276, "lat": 13.913186, "lon": 100.5493403, "tags": {"amenity": "cafe", "brand": "Starbucks", "brand:wikidata": "Q37158", "brand:wikipedia": "en:Starbucks", "cuisine": "coffee_shop", "name": "Starbucks", "name:en": "Starbucks Coffee", "name:th": "\u0e2a\u0e15\u0e32\u0e23\u0e4c\u0e1a\u0e31\u0e04\u0e2a\u0e4c", "official_name": "Starbucks Coffee", "shop": "coffee", "smoking": "no", "takeaway": "yes", "website": "https://www.starbucks.com/"}}, {"type": "node", "id": 4231265190, "lat": 13.9429291, "lon": 100.543517, "tags": {"name": "\u0e42\u0e23\u0e07\u0e41\u0e23\u0e21 13 \u0e40\u0e2b\u0e23\u0e35\u0e22\u0e0d \u0e15\u0e34\u0e27\u0e32\u0e19\u0e19\u0e17\u0e4c (\u0e2d\u0e34\u0e21\u0e41\u0e1e\u0e47\u0e04\u0e2d\u0e32\u0e23\u0e35\u0e19\u0e48\u0e32)", "tourism": "hotel"}}, {"type": "node", "id": 4277609291, "lat": 13.9135403, "lon": 100.5397867, "tags": {"addr:postcode": "11120", "addr:street": "Bond St, Tambon Ban Mai, Amphoe Pak Kret, ", "amenity": "cafe", "name": "Little Zoo Cafe", "opening_hours": "Mo-Su 10:30-22:00"}}, {"type": "node", "id": 4332572753, "lat": 13.9120423, "lon": 100.5302217, "tags": {"name": "\u0e2d\u0e38\u0e17\u0e22\u0e32\u0e19\u0e17\u0e2d\u0e07", "tourism": "hostel"}}, {"type": "node", "id": 4373087289, "lat": 13.9381835, "lon": 100.5150478, "tags": {"amenity": "cafe"}}, {"type": "node", "id": 4443191530, "lat": 13.9170711, "lon": 100.5478798, "tags": {"amenity": "cafe", "name": "Reds Cafe"}}, {"type": "node", "id": 4607705693, "lat": 13.9160692, "lon": 100.5492436, "tags": {"amenity": "restaurant", "name:en": "Fisherman"}}, {"type": "node", "id": 4609360798, "lat": 13.9139319, "lon": 100.5485947, "tags": {"amenity": "cafe", "name:en": "Oh"}}, {"type": "node", "id": 4609360799, "lat": 13.9140606, "lon": 100.5488555, "tags": {"tourism": "information"}}, {"type": "node", "id": 4609360800, "lat": 13.9143061, "lon": 100.5480759, "tags": {"amenity": "restaurant", "cuisine": "thai", "name:en": "Manorah"}}, {"type": "node", "id": 4609360806, "lat": 13.9153825, "lon": 100.5479359, "tags": {"amenity": "restaurant", "cuisine": "italian", "name:en": "Prego", "opening_hours": "Mo-Su 17:30-22:30"}}, {"type": "node", "id": 4609360809, "lat": 13.9129435, "lon": 100.5484087, "tags": {"tourism": "information"}}, {"type": "node", "id": 4609360810, "lat": 13.9129212, "lon": 100.5482001, "tags": {"amenity": "cafe", "name:en": "Terrazza"}}, {"type": "node", "id": 4609386292, "lat": 13.9141137, "lon": 100.5487789, "tags": {"amenity": "restaurant", "name:en": "Zen"}}, {"type": "node", "id": 4609386303, "lat": 13.9129677, "lon": 100.5480626, "tags": {"amenity": "restaurant", "name:en": "Terrazza"}}, {"type": "node", "id": 4609387792, "lat": 13.9144191, "lon": 100.5480063, "tags": {"amenity": "restaurant", "name:en": "Flann O'Brien's"}}, {"type": "node", "id": 4609387793, "lat": 13.9144684, "lon": 100.5478606, "tags": {"amenity": "restaurant", "name:en": "Ramen Taisho Tei"}}, {"type": "node", "id": 4609387794, "lat": 13.9142082, "lon": 100.5476001, "tags": {"amenity": "cafe", "name:en": "Starbucks Coffee"}}, {"type": "node", "id": 4609387800, "lat": 13.9136335, "lon": 100.5486174, "tags": {"name:en": "Luggage Room", "tourism": "information"}}, {"type": "node", "id": 4609387897, "lat": 13.915187, "lon": 100.5491137, "tags": {"amenity": "restaurant", "name:en": "Noodle Nation"}}, {"type": "node", "id": 4609387992, "lat": 13.914547, "lon": 100.5480556, "tags": {"addr:street": "\u0e16\u0e19\u0e19\u0e1b\u0e4a\u0e2d\u0e1b\u0e1b\u0e39\u0e25\u0e48\u0e321", "amenity": "restaurant", "name:en": "Hong Kong Cafe'"}}, {"type": "node", "id": 4609388001, "lat": 13.9149374, "lon": 100.5491008, "tags": {"tourism": "information"}}, {"type": "node", "id": 4614428593, "lat": 13.9028808, "lon": 100.5337497, "tags": {"amenity": "restaurant", "name:en": "Papa Shabu"}}, {"type": "node", "id": 4614428594, "lat": 13.9030483, "lon": 100.5334677, "tags": {"amenity": "restaurant", "name:en": "Holy Shrimp"}}, {"type": "node", "id": 4614428790, "lat": 13.9029348, "lon": 100.5331928, "tags": {"amenity": "cafe", "name:en": "Sense Tea"}}, {"type": "node", "id": 4618422796, "lat": 13.9037047, "lon": 100.5274425, "tags": {"tourism": "information"}}, {"type": "node", "id": 4618460092, "lat": 13.9040724, "lon": 100.5282092, "tags": {"amenity": "cafe", "name:en": "Shoe"}}, {"type": "node", "id": 4618465993, "lat": 13.9040122, "lon": 100.5282315, "tags": {"tourism": "information"}}, {"type": "node", "id": 4618466289, "lat": 13.9040048, "lon": 100.5283933, "tags": {"amenity": "cafe", "name:en": "Mezzo Coffee"}}, {"type": "node", "id": 4621777393, "lat": 13.9427939, "lon": 100.5435769, "tags": {"amenity": "restaurant", "name:en": "13 Coins"}}, {"type": "node", "id": 4621816693, "lat": 13.9266292, "lon": 100.5436844, "tags": {"amenity": "restaurant", "name:en": "Highway Steak"}}, {"type": "node", "id": 4621816989, "lat": 13.9410724, "lon": 100.5426511, "tags": {"amenity": "restaurant"}}, {"type": "node", "id": 4623809991, "lat": 13.9100555, "lon": 100.5390201, "tags": {"amenity": "restaurant", "name:en": "MK"}}, {"type": "node", "id": 4623809992, "lat": 13.9103401, "lon": 100.5392874, "tags": {"amenity": "cafe", "name:en": "Starbucks"}}, {"type": "node", "id": 4623823592, "lat": 13.9229407, "lon": 100.5368102, "tags": {"amenity": "restaurant", "name:en": "Five Crossing"}}, {"type": "node", "id": 4623823593, "lat": 13.9249976, "lon": 100.5353603, "tags": {"amenity": "cafe", "name:en": "Loft Lek Lek"}}, {"type": "node", "id": 4623823594, "lat": 13.9101511, "lon": 100.5392185, "tags": {"amenity": "restaurant", "name:en": "Yayoi"}}, {"type": "node", "id": 4623846890, "lat": 13.9201315, "lon": 100.5392629, "tags": {"amenity": "restaurant", "name:en": "More than Food"}}, {"type": "node", "id": 4623869993, "lat": 13.9245724, "lon": 100.5357379, "tags": {"amenity": "cafe", "name:en": "DeBeste"}}, {"type": "node", "id": 4628626189, "lat": 13.9417218, "lon": 100.5412625, "tags": {"amenity": "cafe", "name:en": "Bann"}}, {"type": "node", "id": 4639508090, "lat": 13.9257736, "lon": 100.5443652, "tags": {"amenity": "restaurant"}}, {"type": "node", "id": 4639508091, "lat": 13.9220234, "lon": 100.5462445, "tags": {"amenity": "restaurant"}}, {"type": "node", "id": 4639531089, "lat": 13.9205576, "lon": 100.5463131, "tags": {"amenity": "restaurant"}}, {"type": "node", "id": 4639622691, "lat": 13.9149392, "lon": 100.5488032, "tags": {"amenity": "cafe", "name:en": "Starbucks Coffee"}}, {"type": "node", "id": 4648411794, "lat": 13.9390833, "lon": 100.541624, "tags": {"amenity": "cafe", "name:en": "Intanin"}}, {"type": "node", "id": 4648426392, "lat": 13.9267932, "lon": 100.5435471, "tags": {"amenity": "restaurant"}}, {"type": "node", "id": 4648466192, "lat": 13.9348912, "lon": 100.5368462, "tags": {"amenity": "restaurant", "name:en": "Ac"}}, {"type": "node", "id": 4655892492, "lat": 13.9385172, "lon": 100.541137, "tags": {"amenity": "cafe", "name:en": "Inthanin"}}, {"type": "node", "id": 4663245428, "lat": 13.9206404, "lon": 100.5463197, "tags": {"amenity": "restaurant", "name:en": "& Rice"}}, {"type": "node", "id": 4667615391, "lat": 13.9377487, "lon": 100.5402086, "tags": {"amenity": "cafe"}}, {"type": "node", "id": 4671903390, "lat": 13.9213073, "lon": 100.5463338, "tags": {"amenity": "restaurant"}}, {"type": "node", "id": 4673939190, "lat": 13.9266983, "lon": 100.5031834, "tags": {"amenity": "restaurant", "name:en": "Suan Thip", "wikidata": "Q95590020"}}, {"type": "node", "id": 4915983421, "lat": 13.9142771, "lon": 100.5196108, "tags": {"name:en": "ANNA-NAVA Pakkret Hotel", "tourism": "hotel"}}, {"type": "node", "id": 5614685622, "lat": 13.944366, "lon": 100.5439407, "tags": {"amenity": "restaurant", "name": "\u0e40\u0e08 \u0e40\u0e08 \u0e0a\u0e32\u0e1a\u0e39", "name:en": "JJ chabu", "name:th": "\u0e40\u0e08 \u0e40\u0e08 \u0e0a\u0e32\u0e1a\u0e39 & \u0e1b\u0e34\u0e49\u0e07\u0e22\u0e48\u0e32\u0e07  \u0e1a\u0e38\u0e1f\u0e40\u0e1f\u0e48\u0e15\u0e4c"}}, {"type": "node", "id": 5801109553, "lat": 13.9230698, "lon": 100.5299972, "tags": {"name": "\u0e2b\u0e49\u0e2d\u0e07\u0e1e\u0e31\u0e01\u0e23\u0e32\u0e22\u0e27\u0e31\u0e19", "tourism": "guest_house"}}, {"type": "node", "id": 5894221287, "lat": 13.9190091, "lon": 100.5437946, "tags": {"amenity": "restaurant", "cuisine": "japanese", "name": "Uwajima", "name:en": "Uwajima", "name:th": "\u0e2d\u0e38\u0e27\u0e30\u0e08\u0e34\u0e21\u0e30", "opening_hours": "Mo-Fr 17:00-00:00", "phone": "02 033 1853"}}, {"type": "node", "id": 5894230285, "lat": 13.9189651, "lon": 100.5434723, "tags": {"amenity": "restaurant", "cuisine": "thai;italian;italian_pizza", "name": "Breeze Caf\u00e9 & Bar", "name:en": "Breeze Caf\u00e9 & Bar", "name:th": "\u0e1a\u0e23\u0e35\u0e0b \u0e04\u0e32\u0e40\u0e1f\u0e48 \u0e41\u0e2d\u0e19\u0e14\u0e4c \u0e1a\u0e32\u0e23\u0e4c", "opening_hours": "Mo-Su 11:00-00:00", "phone": "02 033 1851"}}, {"type": "node", "id": 6056839485, "lat": 13.9050367, "lon": 100.5238887, "tags": {"amenity": "restaurant", "name:en": "Good health salad & organic", "opening_hours": "Mo-Su 08:00-20:00"}}, {"type": "node", "id": 6404047785, "lat": 13.9147409, "lon": 100.5125736, "tags": {"amenity": "restaurant", "name": "\u0e40\u0e2d - \u0e0b\u0e35 \u0e1a\u0e38\u0e1b\u0e40\u0e1f\u0e48\u0e15\u0e4c", "name:en": "A - Sea Buffet Karaoke"}}, {"type": "node", "id": 6815152516, "lat": 13.903652, "lon": 100.515914, "tags": {"amenity": "restaurant", "name": "Sawasdee"}}, {"type": "node", "id": 7407702697, "lat": 13.9150303, "lon": 100.542676, "tags": {"amenity": "restaurant", "check_date": "2023-01-06", "name": "CHUAN KITCHEN"}}, {"type": "node", "id": 8067091387, "lat": 13.9122064, "lon": 100.5425003, "tags": {"amenity": "restaurant", "cuisine": "curry", "name": "Coco Ichibanya"}}, {"type": "node", "id": 8067091388, "lat": 13.9124524, "lon": 100.5425915, "tags": {"amenity": "restaurant", "brand": "Fuji", "cuisine": "japanese", "name": "Fuji Restaurant"}}, {"type": "node", "id": 8067091390, "lat": 13.9122728, "lon": 100.5426224, "tags": {"amenity": "restaurant"}}, {"type": "node", "id": 8067091391, "lat": 13.9122116, "lon": 100.5426156, "tags": {"amenity": "restaurant"}}, {"type": "node", "id": 8067091392, "lat": 13.9121504, "lon": 100.5426089, "tags": {"amenity": "restaurant", "name": "Tummour Express"}}, {"type": "node", "id": 8067091393, "lat": 13.9120619, "lon": 100.5425969, "tags": {"amenity": "cafe", "name": "Mister Donut"}}, {"type": "node", "id": 8067091396, "lat": 13.9125566, "lon": 100.5429201, "tags": {"amenity": "cafe", "brand": "Caf\u00e9 Amazon", "name": "Caf\u00e9 Amazon"}}, {"type": "node", "id": 8067099412, "lat": 13.909763, "lon": 100.5383999, "tags": {"amenity": "cafe", "brand": "Inthanin", "name": "Inthanin"}}, {"type": "node", "id": 10538689928, "lat": 13.9176229, "lon": 100.5414615, "tags": {"amenity": "cafe", "check_date": "2023-01-11", "name": "\u0e02\u0e19\u0e21\u0e1a\u0e49\u0e32\u0e19\u0e2d\u0e31\u0e22\u0e01\u0e32\u0e23", "outdoor_seating": "yes"}}, {"type": "node", "id": 10583393215, "lat": 13.9210401, "lon": 100.5378643, "tags": {"addr:city": "\u0e1b\u0e32\u0e01\u0e40\u0e01\u0e23\u0e47\u0e14", "addr:housenumber": "29/353", "addr:postcode": "11120", "addr:street": "\u0e40\u0e21\u0e37\u0e2d\u0e07\u0e17\u0e2d\u0e07\u0e18\u0e32\u0e19\u0e35\u0e42\u0e04\u0e23\u0e07\u0e01\u0e32\u0e23 2 \u0e0b\u0e2d\u0e22 10", "description": "29/353 \u0e2b\u0e21\u0e39\u0e48\u0e1a\u0e49\u0e32\u0e19\u0e40\u0e21\u0e37\u0e2d\u0e07\u0e17\u0e2d\u0e07\u0e18\u0e32\u0e19\u0e35 \u0e42\u0e04\u0e23\u0e07\u0e01\u0e32\u0e23 2 \u0e0b\u0e2d\u0e22 10 \n\u0e15\u0e33\u0e1a\u0e25\u0e1a\u0e32\u0e07\u0e1e\u0e39\u0e14 \u0e2d\u0e33\u0e40\u0e20\u0e2d\u0e1b\u0e32\u0e01\u0e40\u0e01\u0e23\u0e47\u0e14\n\u0e08\u0e31\u0e07\u0e2b\u0e27\u0e31\u0e14\u0e19\u0e19\u0e17\u0e1a\u0e38\u0e23\u0e35 11120", "internet_access": "wlan", "name": "Audrey's Residence", "tourism": "guest_house"}}, {"type": "node", "id": 10967897704, "lat": 13.9210559, "lon": 100.5385029, "tags": {"amenity": "restaurant", "name": "bond street bar cafe", "name:en": "bond street bar cafe"}}, {"type": "node", "id": 11477728293, "lat": 13.9103032, "lon": 100.5123787, "tags": {"artwork_type": "statue", "material": "metal", "name": "\u0e1e\u0e23\u0e30\u0e1a\u0e23\u0e21\u0e23\u0e32\u0e0a\u0e32\u0e19\u0e38\u0e2a\u0e32\u0e27\u0e23\u0e35\u0e22\u0e4c\u0e23\u0e31\u0e0a\u0e01\u0e32\u0e25\u0e17\u0e35\u0e48 5", "name:en": "King Rama V Monument", "tourism": "artwork"}}, {"type": "node", "id": 11503801869, "lat": 13.9102448, "lon": 100.536272, "tags": {"historic": "monument", "name": "Hor Phra Puthamingmongkol Tammasataan"}}, {"type": "node", "id": 13011358326, "lat": 13.9192811, "lon": 100.5393828, "tags": {"amenity": "restaurant", "cuisine": "chinese", "name": "\u0e2b\u0e25\u0e07\u0e1e\u0e32\u0e13\u0e34\u0e0a\u0e22\u0e4c"}}, {"type": "node", "id": 13011358327, "lat": 13.9150362, "lon": 100.5392487, "tags": {"amenity": "restaurant", "branch": "\u0e40\u0e21\u0e37\u0e2d\u0e07\u0e17\u0e2d\u0e07\u0e18\u0e32\u0e19\u0e35", "name": "\u0e40\u0e2d\u0e35\u0e48\u0e22\u0e27\u0e44\u0e16\u0e48 \u0e2a\u0e38\u0e01\u0e35\u0e49\u0e42\u0e1a\u0e23\u0e32\u0e13"}}, {"type": "node", "id": 13146357427, "lat": 13.910167, "lon": 100.5406598, "tags": {"addr:district": "\u0e2d\u0e33\u0e40\u0e20\u0e2d\u0e1b\u0e32\u0e01\u0e40\u0e01\u0e23\u0e47\u0e14", "addr:housenumber": "50/924", "addr:postcode": "11120", "addr:province": "\u0e19\u0e19\u0e17\u0e1a\u0e38\u0e23\u0e35", "addr:street": "\u0e40\u0e21\u0e37\u0e2d\u0e07\u0e17\u0e2d\u0e07\u0e18\u0e32\u0e19\u0e35\u0e42\u0e04\u0e23\u0e07\u0e01\u0e32\u0e23 6 \u0e0b\u0e2d\u0e22 A3", "addr:subdistrict": "\u0e15\u0e33\u0e1a\u0e25\u0e1a\u0e32\u0e07\u0e1e\u0e39\u0e14", "amenity": "cafe", "check_date": "2025-09-16", "check_date:currency:XBT": "2025-09-16", "contact:email": "wscherry661@gmail.com", "contact:facebook": "https://www.facebook.com/OiCKETOCAFEByCherry", "contact:instagram": "https://www.instagram.com/oicketobycherry/", "cuisine": "coffee_shop;keto", "currency:XBT": "yes", "name": "OiC Keto\u200b Cafe By Cherry", "opening_hours": "Mo-Su 10:00-21:00", "payment:lightning": "yes", "payment:lightning_contactless": "yes", "payment:onchain": "yes", "phone": "+66 94 878 4546", "survey:date": "2025-10-07"}}, {"type": "way", "id": 32072848, "nodes": [360038013, 1687584907, 360038014, 360038015, 360038016, 1707065089, 2523622068, 360038013], "tags": {"amenity": "place_of_worship", "name": "\u0e27\u0e31\u0e14\u0e1c\u0e32\u0e2a\u0e38\u0e01\u0e21\u0e13\u0e35\u0e08\u0e31\u0e01\u0e23", "name:en": "Wat Phasuk Manichak", "name:th": "\u0e27\u0e31\u0e14\u0e1c\u0e32\u0e2a\u0e38\u0e01\u0e21\u0e13\u0e35\u0e08\u0e31\u0e01\u0e23", "religion": "buddhist", "wikidata": "Q99642797", "wikimedia_commons": "Category:Wat Phasuk Mani Chak"}}, {"type": "way", "id": 32073066, "nodes": [360040160, 11503801891, 11503801892, 11503801893, 11503801894, 11503801887, 11503801888, 8704102895, 11503801890, 11503801906, 11503801905, 11503801904, 360040163, 11503801903, 11503801902, 11503801901, 11503801900, 11503801899, 360040162, 11503801898, 11503801897, 11503801896, 11503801895, 360040161, 360040160], "tags": {"building": "yes", "historic": "monument", "layer": "1", "name": "\u0e2d\u0e32\u0e04\u0e32\u0e23\u0e2a\u0e31\u0e0d\u0e25\u0e31\u0e01\u0e29\u0e13\u0e4c\u0e21\u0e2b\u0e32\u0e27\u0e34\u0e17\u0e22\u0e32\u0e25\u0e31\u0e22\u0e2a\u0e38\u0e42\u0e02\u0e17\u0e31\u0e22\u0e18\u0e23\u0e23\u0e21\u0e32\u0e18\u0e34\u0e23\u0e32\u0e0a", "name:es": "El edificio simb\u00f3lico de la Universidad Abierta Sukhothai Thammathirat"}}, {"type": "way", "id": 127719134, "nodes": [1412988843, 1412988845, 1412988847, 1412988851, 1412988843], "tags": {"name": "TUB Mansion", "source": "http://www.tub-mansion.com/", "tourism": "hotel"}}, {"type": "way", "id": 151883608, "nodes": [10798779307, 1647233258, 1647233494, 11686667007, 11686667008, 1647233105, 1647232844, 1647233126, 1647232948, 1647233528, 1647232967, 1647233098, 1647233261, 1647233273, 1647232873, 1647232845, 11548830153, 1647233427, 1647233401, 1647233531, 1647233435, 10798779307], "tags": {"addr:housenumber": "78/8 \u0e2b\u0e21\u0e39\u0e48\u0e17\u0e35\u0e48 1", "addr:postcode": "11120", "amenity": "place_of_worship", "name": "\u0e27\u0e31\u0e14\u0e0a\u0e25\u0e1b\u0e23\u0e30\u0e17\u0e32\u0e19\u0e23\u0e31\u0e07\u0e2a\u0e24\u0e29\u0e0e\u0e4c", "religion": "buddhist", "source": "Bing", "wikidata": "Q13020659"}}, {"type": "way", "id": 151883654, "nodes": [1647232999, 1647233003, 1647233368, 1647233464, 1647233486, 1647233068, 5734432828, 1647232886, 1647233479, 1647232883, 1647233366, 1647232912, 1647233001, 5736746901, 1647232871, 1647233501, 5734432609, 1647233063, 1647233170, 1647232914, 5734432739, 5734432742, 1647232999], "tags": {"amenity": "place_of_worship", "name": "\u0e27\u0e31\u0e14\u0e1a\u0e32\u0e07\u0e1e\u0e39\u0e14\u0e43\u0e19", "religion": "buddhist", "wikidata": "Q99642792"}}, {"type": "way", "id": 151982337, "nodes": [1648163447, 1648163422, 1648163448, 11145476164, 1648163465, 1648163447], "tags": {"brand": "Novotel", "building": "yes", "name": "Novotel Impact", "name:zh": "\u66fc\u8c37\u56e0\u5e15\u7279\u8bfa\u5bcc\u7279\u9152\u5e97", "tourism": "hotel"}}, {"type": "way", "id": 156519413, "nodes": [1687584925, 1687584821, 1687584801, 1687584875, 1687584840, 1687584824, 1687584857, 1687606370, 1687606348, 1687584925], "tags": {"access": "yes", "leisure": "park", "name": "\u0e2d\u0e38\u0e17\u0e22\u0e32\u0e19\u0e01\u0e32\u0e23\u0e28\u0e36\u0e01\u0e29\u0e32\u0e23\u0e31\u0e0a\u0e21\u0e31\u0e07\u0e04\u0e25\u0e32\u0e20\u0e34\u0e40\u0e29\u0e01", "name:es": "Parque educativo Ratchamangkhalapisek"}}, {"type": "way", "id": 158459629, "nodes": [1706519236, 1706519235, 1706519228, 1706519230, 1706519236], "tags": {"amenity": "cafe", "building": "yes"}}, {"type": "way", "id": 158483472, "nodes": [1706759349, 1706759351, 1706759337, 1706759336, 1706759335, 1706759334, 1706759349], "tags": {"amenity": "restaurant", "area": "yes", "name": "\u0e28\u0e34\u0e23\u0e34\u0e27\u0e23\u0e23\u0e13"}}, {"type": "way", "id": 158483473, "nodes": [1706759353, 1706759354, 1706759346, 1706759344, 1706759342, 1706759340, 1706759353], "tags": {"amenity": "restaurant", "name": "\u0e2d\u0e34\u0e48\u0e21\u0e2d\u0e01 \u0e2d\u0e34\u0e48\u0e21\u0e43\u0e08"}}, {"type": "way", "id": 183388226, "nodes": [1937607808, 1937607809, 1937607810, 1937607807, 1937607808], "tags": {"amenity": "marketplace", "name": "\u0e40\u0e01\u0e49\u0e32\u0e2d\u0e35\u0e49\u0e44\u0e21\u0e49"}}, {"type": "way", "id": 236867279, "nodes": [1388450687, 5873386541, 2448297120, 2448297122, 2448297121, 2448297123, 2448297124, 1388450687], "tags": {"addr:housenumber": "335", "amenity": "restaurant", "building": "yes", "name": "S&P"}}, {"type": "way", "id": 236867287, "nodes": [2448297136, 2448297139, 2448297138, 1707110720, 2448297135, 2448297137, 2448297136], "tags": {"addr:housenumber": "341", "amenity": "restaurant", "building": "yes", "name": "\u0e44\u0e01\u0e48\u0e22\u0e48\u0e32\u0e07\u0e40\u0e02\u0e32\u0e2a\u0e27\u0e19\u0e01\u0e27\u0e32\u0e07"}}, {"type": "way", "id": 377487652, "nodes": [3808615392, 3808615389, 3808615391, 3808615399, 3808615397, 3808615392], "tags": {"amenity": "place_of_worship", "name": "\u0e27\u0e31\u0e14\u0e1a\u0e32\u0e07\u0e15\u0e30\u0e44\u0e19\u0e22\u0e4c", "name:th": "\u0e27\u0e31\u0e14\u0e1a\u0e32\u0e07\u0e15\u0e30\u0e44\u0e19\u0e22\u0e4c", "religion": "buddhist", "wikidata": "Q99658718"}}, {"type": "way", "id": 377487653, "nodes": [3808615462, 3808615457, 561250235, 3808615460, 3808615463, 3808615462], "tags": {"amenity": "place_of_worship", "religion": "buddhist"}}, {"type": "way", "id": 377487654, "nodes": [3808615449, 3808615436, 718361708, 3808615427, 3808615439, 3808615441, 3808615449], "tags": {"amenity": "place_of_worship", "name": "\u0e27\u0e31\u0e14\u0e40\u0e01\u0e32\u0e30\u0e40\u0e01\u0e23\u0e35\u0e22\u0e07", "name:th": "\u0e27\u0e31\u0e14\u0e40\u0e01\u0e32\u0e30\u0e40\u0e01\u0e23\u0e35\u0e22\u0e07", "religion": "buddhist", "wikidata": "Q99658723"}}, {"type": "way", "id": 377487659, "nodes": [3808615380, 4677533817, 4677533816, 4677533813, 4677533815, 8626578525, 4677533814, 3808615378, 3808615376, 11763833591, 3808615377, 3808615379, 4677533812, 4677533811, 4677533810, 4677533808, 4677533809, 3808615380], "tags": {"amenity": "place_of_worship", "name": "\u0e27\u0e31\u0e14\u0e01\u0e39\u0e49", "religion": "buddhist", "wikidata": "Q1145686", "wikimedia_commons": "Category:Wat Ku, Nonthaburi"}}, {"type": "way", "id": 377487660, "nodes": [3808615440, 3808615447, 3808615448, 3808615453, 3808615451, 3808615454, 561250273, 561250271, 3808615442, 3808615440], "tags": {"amenity": "place_of_worship", "name": "\u0e27\u0e31\u0e14\u0e0a\u0e48\u0e2d\u0e07\u0e25\u0e21", "religion": "buddhist", "wikidata": "Q99642800"}}, {"type": "way", "id": 377487661, "nodes": [3808615407, 3808615417, 3808615421, 561250246, 3808615422, 3808615420, 3808615410, 3808615408, 3808615405, 3808615407], "tags": {"amenity": "place_of_worship", "name": "\u0e27\u0e31\u0e14\u0e28\u0e23\u0e35\u0e23\u0e31\u0e15\u0e19\u0e32\u0e23\u0e32\u0e21 (\u0e1a\u0e32\u0e07\u0e1e\u0e31\u0e07)", "religion": "buddhist"}}, {"type": "way", "id": 377487662, "nodes": [3808615424, 3808615418, 3808615409, 3808615413, 3808615429, 3808615424], "tags": {"amenity": "place_of_worship", "name": "\u0e27\u0e31\u0e14\u0e2a\u0e25\u0e31\u0e01\u0e40\u0e2b\u0e19\u0e37\u0e2d", "religion": "buddhist", "wikidata": "Q99642801"}}, {"type": "way", "id": 377487663, "nodes": [3808615404, 3808615402, 3808615401, 3808615395, 3808615396, 3808615390, 3808615393, 3808615406, 3808615404], "tags": {"amenity": "place_of_worship", "name": "\u0e27\u0e31\u0e14\u0e2b\u0e07\u0e29\u0e4c\u0e17\u0e2d\u0e07", "religion": "buddhist", "wikidata": "Q99642795"}}, {"type": "way", "id": 377487664, "nodes": [5734432353, 5778035289, 5734432352, 11199035285, 8487536974, 3808615371, 3808615373, 3808615374, 3808615375, 5734432353], "tags": {"amenity": "place_of_worship", "name": "\u0e27\u0e31\u0e14\u0e40\u0e01\u0e32\u0e30\u0e1e\u0e0d\u0e32\u0e40\u0e08\u0e4b\u0e07", "religion": "buddhist", "wikidata": "Q96487375", "wikimedia_commons": "Category:Wat Ko Phaya Cheng, Nonthaburi"}}, {"type": "way", "id": 377487665, "nodes": [3808615412, 3808615394, 3808615398, 3808615415, 3808615412], "tags": {"amenity": "place_of_worship", "name": "\u0e27\u0e31\u0e14\u0e42\u0e1e\u0e18\u0e34\u0e4c\u0e1a\u0e49\u0e32\u0e19\u0e2d\u0e49\u0e2d\u0e22", "religion": "buddhist", "wikidata": "Q99642794"}}, {"type": "way", "id": 553186242, "nodes": [5340197930, 5340197931, 5340197932, 5340197933, 5340197934, 5340197935, 5340197936, 5340197930], "tags": {"access": "yes", "description": "the connect park", "leisure": "park", "name": "the connect park"}}, {"type": "way", "id": 553276553, "nodes": [5340913796, 5340913797, 5340913798, 5340913799, 5340913800, 5340913801, 2184393440, 2184393441, 2184393442, 2184393444, 7929822247, 5340913796], "tags": {"description": "\u0e2a\u0e27\u0e19\u0e21\u0e2b\u0e32\u0e21\u0e07\u0e04\u0e25 \u0e40\u0e17\u0e28\u0e1a\u0e32\u0e25\u0e19\u0e04\u0e23\u0e1b\u0e32\u0e01\u0e40\u0e01\u0e23\u0e47\u0e14", "leisure": "park", "name": "\u0e2a\u0e27\u0e19\u0e21\u0e2b\u0e32\u0e21\u0e07\u0e04\u0e25 \u0e40\u0e17\u0e28\u0e1a\u0e32\u0e25\u0e19\u0e04\u0e23\u0e1b\u0e32\u0e01\u0e40\u0e01\u0e23\u0e47\u0e14"}}, {"type": "way", "id": 563574229, "nodes": [1647309873, 5430888230, 5430888231, 5430888232, 5430888233, 1647309845, 1647309884, 1647309873], "tags": {"leisure": "park"}}, {"type": "way", "id": 564978950, "nodes": [5442351887, 11198957511, 11198957512, 5442351888, 5442351889, 5442351890, 5442351887], "tags": {"building": "yes", "name": "Villa Baron Hotel", "tourism": "hotel"}}, {"type": "way", "id": 610411822, "nodes": [5780996054, 5780996055, 5780996056, 5904467461, 5780996057, 5780996054], "tags": {"leisure": "park", "name": "\u0e2a\u0e27\u0e19\u0e23\u0e27\u0e21\u0e43\u0e08"}}, {"type": "way", "id": 616913317, "nodes": [5832034040, 5832034041, 5832034042, 5832034043, 5832034044, 5832034040], "tags": {"addr:city": "\u0e15\u0e33\u0e1a\u0e25\u0e1b\u0e32\u0e01\u0e40\u0e01\u0e23\u0e47\u0e14", "addr:housenumber": "102/27", "addr:postcode": "11120", "addr:street": "\u0e16\u0e19\u0e19\u0e15\u0e34\u0e27\u0e32\u0e19\u0e19\u0e17\u0e4c", "denomination": "nichiren", "landuse": "religious", "name": "\u0e2a\u0e21\u0e32\u0e04\u0e21\u0e2a\u0e23\u0e49\u0e32\u0e07\u0e04\u0e38\u0e13\u0e04\u0e48\u0e32\u0e41\u0e2b\u0e48\u0e07\u0e1b\u0e23\u0e30\u0e40\u0e17\u0e28\u0e44\u0e17\u0e22", "name:en": "Soka Gakkai Thailand", "name:ja": "\u30bf\u30a4\u5275\u4fa1\u5b66\u4f1a\u672c\u90e8", "religion": "buddhist"}}, {"type": "way", "id": 621739776, "nodes": [5873386541, 5873386542, 5873386543, 1388450645, 5873386544, 5873386545, 2448297120, 5873386541], "tags": {"leisure": "park", "name": "S&P Park"}}, {"type": "way", "id": 640488197, "nodes": [6033678056, 6033678057, 6033678058, 6033678059, 6033678060, 6033678061, 6033678056], "tags": {"leisure": "park", "name": "Green Park"}}, {"type": "way", "id": 761395825, "nodes": [7113697755, 7113697756, 7113697757, 7113697758, 7113697755], "tags": {"leisure": "park"}}, {"type": "way", "id": 818107472, "nodes": [7640661223, 7640661222, 7640661221, 7640661220, 7640661223], "tags": {"leisure": "park"}}, {"type": "way", "id": 828347022, "nodes": [7732982152, 7732982153, 7732982154, 7732982155, 7732982152], "tags": {"leisure": "park"}}, {"type": "way", "id": 828347056, "nodes": [7732982301, 7732982302, 11477728291, 7732982303, 11477728290, 7732982304, 11477728292, 7732982305, 7732982306, 11477728289, 10129815948, 7732982308, 7732982301], "tags": {"leisure": "park", "name": "\u0e25\u0e32\u0e19\u0e40\u0e2d\u0e19\u0e01\u0e1b\u0e23\u0e30\u0e2a\u0e07\u0e04\u0e4c", "name:en": "Multipurpose Field"}}, {"type": "way", "id": 983080655, "nodes": [6815074286, 9089881943, 359123869, 359123868, 2420675896, 6815074286], "tags": {"amenity": "marketplace", "landuse": "retail", "name": "\u0e15\u0e25\u0e32\u0e14\u0e19\u0e31\u0e14\u0e21\u0e30\u0e25\u0e34", "name:en": "Mali Market", "opening_hours": "Mo-Su 17:00-00:00"}}, {"type": "way", "id": 1096463604, "nodes": [10040990473, 10040990474, 10040990475, 10040990476, 10040990473], "tags": {"amenity": "restaurant", "building": "yes", "name": "\u0e04\u0e23\u0e31\u0e27\u0e41\u0e21\u0e48\u0e27\u0e31\u0e19\u0e14\u0e35"}}, {"type": "way", "id": 1104254926, "nodes": [5362796734, 10104966630, 10104966631, 10104966632, 10104966633, 10104966634, 5362796734], "tags": {"leisure": "park", "name": "park 19"}}, {"type": "way", "id": 1104256797, "nodes": [10104977133, 10104977134, 10104977135, 10104977136, 10104977137, 10104977133], "tags": {"leisure": "park", "name": "park"}}, {"type": "way", "id": 1104433682, "nodes": [10106472238, 10106472239, 10106472240, 10106472241, 10106472238], "tags": {"leisure": "park", "name": "PIM park"}}, {"type": "way", "id": 1106264272, "nodes": [10123214850, 10123214851, 10123214852, 10123214853, 10123214854, 10123214850], "tags": {"leisure": "park"}}, {"type": "way", "id": 1236191164, "nodes": [7732982253, 7732982256, 11477728297, 11477728298, 11477728299, 7732982253], "tags": {"leisure": "park", "name": "\u0e2a\u0e27\u0e19\u0e40\u0e2a\u0e23\u0e34\u0e21\u0e1b\u0e31\u0e0d\u0e0d\u0e32"}}, {"type": "node", "id": 2184393440, "lat": 13.9077941, "lon": 100.5038519}, {"type": "node", "id": 2184393441, "lat": 13.9078553, "lon": 100.5039021}, {"type": "node", "id": 2184393442, "lat": 13.9078966, "lon": 100.5040099}, {"type": "node", "id": 2184393444, "lat": 13.9079489, "lon": 100.5041385}, {"type": "node", "id": 5340913796, "lat": 13.9079501, "lon": 100.5043316}, {"type": "node", "id": 5340913797, "lat": 13.9078277, "lon": 100.50418}, {"type": "node", "id": 5340913798, "lat": 13.9077679, "lon": 100.504062}, {"type": "node", "id": 5340913799, "lat": 13.9077249, "lon": 100.5039145}, {"type": "node", "id": 5340913800, "lat": 13.9077262, "lon": 100.5038367}, {"type": "node", "id": 5340913801, "lat": 13.907738, "lon": 100.503796}, {"type": "node", "id": 5442351887, "lat": 13.9100199, "lon": 100.501791}, {"type": "node", "id": 5442351888, "lat": 13.9099916, "lon": 100.5021914}, {"type": "node", "id": 5442351889, "lat": 13.9096305, "lon": 100.5020548}, {"type": "node", "id": 5442351890, "lat": 13.9097419, "lon": 100.5017203}, {"type": "node", "id": 5832034040, "lat": 13.9046047, "lon": 100.5050033}, {"type": "node", "id": 5832034041, "lat": 13.9049242, "lon": 100.5055271}, {"type": "node", "id": 5832034043, "lat": 13.9055185, "lon": 100.5059022}, {"type": "node", "id": 5832034044, "lat": 13.9049207, "lon": 100.5048971}, {"type": "node", "id": 7929822247, "lat": 13.9080249, "lon": 100.5042532}, {"type": "node", "id": 11198957511, "lat": 13.9099558, "lon": 100.5019706}, {"type": "node", "id": 11198957512, "lat": 13.9099342, "lon": 100.5021133}, {"type": "node", "id": 1647232844, "lat": 13.9018416, "lon": 100.5073096}, {"type": "node", "id": 1647232845, "lat": 13.9002586, "lon": 100.5115019}, {"type": "node", "id": 1647232873, "lat": 13.9002716, "lon": 100.5113892}, {"type": "node", "id": 1647232948, "lat": 13.9016125, "lon": 100.5071433}, {"type": "node", "id": 1647232967, "lat": 13.9013964, "lon": 100.5067061}, {"type": "node", "id": 1647233098, "lat": 13.9016021, "lon": 100.5061804}, {"type": "node", "id": 1647233105, "lat": 13.9020203, "lon": 100.5073741}, {"type": "node", "id": 1647233126, "lat": 13.901839, "lon": 100.507197}, {"type": "node", "id": 1647233258, "lat": 13.9020082, "lon": 100.5080472}, {"type": "node", "id": 1647233261, "lat": 13.9015734, "lon": 100.5060999}, {"type": "node", "id": 1647233273, "lat": 13.8999539, "lon": 100.5067383}, {"type": "node", "id": 1647233401, "lat": 13.9014996, "lon": 100.5115637}, {"type": "node", "id": 1647233427, "lat": 13.9009251, "lon": 100.5115126}, {"type": "node", "id": 1647233435, "lat": 13.9015126, "lon": 100.5090666}, {"type": "node", "id": 1647233494, "lat": 13.9021969, "lon": 100.5081029}, {"type": "node", "id": 1647233528, "lat": 13.9014042, "lon": 100.5068644}, {"type": "node", "id": 1647233531, "lat": 13.9013235, "lon": 100.5090852}, {"type": "node", "id": 10798779307, "lat": 13.9016645, "lon": 100.5090825}, {"type": "node", "id": 11548830153, "lat": 13.9006066, "lon": 100.5115014}, {"type": "node", "id": 11686667007, "lat": 13.9023334, "lon": 100.5076173}, {"type": "node", "id": 11686667008, "lat": 13.9019889, "lon": 100.5074993}, {"type": "node", "id": 1647309845, "lat": 13.9021719, "lon": 100.5183749}, {"type": "node", "id": 1647309873, "lat": 13.9024197, "lon": 100.5185184}, {"type": "node", "id": 1647309884, "lat": 13.9023067, "lon": 100.5184704}, {"type": "node", "id": 5430888230, "lat": 13.9024125, "lon": 100.5189036}, {"type": "node", "id": 5430888231, "lat": 13.9021599, "lon": 100.518968}, {"type": "node", "id": 5430888232, "lat": 13.902127, "lon": 100.5190173}, {"type": "node", "id": 5430888233, "lat": 13.9019549, "lon": 100.5189651}, {"type": "node", "id": 1412988843, "lat": 13.9067782, "lon": 100.5101072}, {"type": "node", "id": 1412988845, "lat": 13.9057368, "lon": 100.509426}, {"type": "node", "id": 1412988847, "lat": 13.9058201, "lon": 100.5092168}, {"type": "node", "id": 1412988851, "lat": 13.9068303, "lon": 100.5099356}, {"type": "node", "id": 5832034042, "lat": 13.9053536, "lon": 100.5061925}, {"type": "node", "id": 7732982152, "lat": 13.9099751, "lon": 100.506748}, {"type": "node", "id": 7732982153, "lat": 13.9095818, "lon": 100.5072087}, {"type": "node", "id": 7732982154, "lat": 13.9099481, "lon": 100.5074952}, {"type": "node", "id": 7732982256, "lat": 13.9099259, "lon": 100.5137181}, {"type": "node", "id": 7732982301, "lat": 13.9098084, "lon": 100.5132332}, {"type": "node", "id": 11477728297, "lat": 13.9099247, "lon": 100.5139897}, {"type": "node", "id": 6033678056, "lat": 13.9014326, "lon": 100.5282952}, {"type": "node", "id": 6033678057, "lat": 13.901186, "lon": 100.528285}, {"type": "node", "id": 6033678058, "lat": 13.9011722, "lon": 100.529216}, {"type": "node", "id": 6033678059, "lat": 13.9012116, "lon": 100.5292181}, {"type": "node", "id": 6033678060, "lat": 13.9012195, "lon": 100.5288237}, {"type": "node", "id": 6033678061, "lat": 13.9014149, "lon": 100.5288217}, {"type": "node", "id": 10106472238, "lat": 13.9022109, "lon": 100.5318341}, {"type": "node", "id": 10106472239, "lat": 13.9022147, "lon": 100.5317191}, {"type": "node", "id": 10106472240, "lat": 13.9022843, "lon": 100.531719}, {"type": "node", "id": 10106472241, "lat": 13.9022962, "lon": 100.5318484}, {"type": "node", "id": 1937607807, "lat": 13.9054267, "lon": 100.52008}, {"type": "node", "id": 1937607808, "lat": 13.9058847, "lon": 100.5201925}, {"type": "node", "id": 1937607809, "lat": 13.9058827, "lon": 100.5204432}, {"type": "node", "id": 1937607810, "lat": 13.9053636, "lon": 100.5202988}, {"type": "node", "id": 7113697755, "lat": 13.9058491, "lon": 100.5209134}, {"type": "node", "id": 7113697756, "lat": 13.9057997, "lon": 100.5214377}, {"type": "node", "id": 7113697757, "lat": 13.9055322, "lon": 100.521371}, {"type": "node", "id": 7113697758, "lat": 13.9056625, "lon": 100.5208401}, {"type": "node", "id": 5362796734, "lat": 13.9085639, "lon": 100.5297346}, {"type": "node", "id": 10104966630, "lat": 13.9085615, "lon": 100.5298525}, {"type": "node", "id": 10104966631, "lat": 13.9084568, "lon": 100.5299332}, {"type": "node", "id": 10104966632, "lat": 13.908298, "lon": 100.529911}, {"type": "node", "id": 10104966633, "lat": 13.9083288, "lon": 100.5297239}, {"type": "node", "id": 10104966634, "lat": 13.9085273, "lon": 100.529724}, {"type": "node", "id": 10104977133, "lat": 13.9078964, "lon": 100.529737}, {"type": "node", "id": 10104977134, "lat": 13.9077593, "lon": 100.530522}, {"type": "node", "id": 10104977135, "lat": 13.907388, "lon": 100.5304756}, {"type": "node", "id": 10104977136, "lat": 13.907459, "lon": 100.5299838}, {"type": "node", "id": 10104977137, "lat": 13.9074365, "lon": 100.5296583}, {"type": "node", "id": 10123214850, "lat": 13.9031073, "lon": 100.5326049}, {"type": "node", "id": 10123214851, "lat": 13.9031375, "lon": 100.5324959}, {"type": "node", "id": 10123214852, "lat": 13.9032743, "lon": 100.5325768}, {"type": "node", "id": 10123214853, "lat": 13.9032395, "lon": 100.5326391}, {"type": "node", "id": 10123214854, "lat": 13.9032017, "lon": 100.5326422}, {"type": "node", "id": 360040160, "lat": 13.9094372, "lon": 100.536559}, {"type": "node", "id": 360040161, "lat": 13.9094213, "lon": 100.5367428}, {"type": "node", "id": 360040162, "lat": 13.9092072, "lon": 100.5367472}, {"type": "node", "id": 360040163, "lat": 13.9092175, "lon": 100.5365328}, {"type": "node", "id": 1687584824, "lat": 13.9092069, "lon": 100.5357159}, {"type": "node", "id": 1687584857, "lat": 13.9084024, "lon": 100.5356515}, {"type": "node", "id": 1687584925, "lat": 13.9083259, "lon": 100.5375544}, {"type": "node", "id": 1687606348, "lat": 13.9083529, "lon": 100.5371428}, {"type": "node", "id": 1687606370, "lat": 13.9083894, "lon": 100.536644}, {"type": "node", "id": 1706519228, "lat": 13.9093768, "lon": 100.5386299}, {"type": "node", "id": 1706519230, "lat": 13.9093965, "lon": 100.53857}, {"type": "node", "id": 1706519235, "lat": 13.909432, "lon": 100.5386492}, {"type": "node", "id": 1706519236, "lat": 13.9094517, "lon": 100.5385893}, {"type": "node", "id": 1706759334, "lat": 13.9039876, "lon": 100.5374832}, {"type": "node", "id": 1706759335, "lat": 13.9039954, "lon": 100.53762}, {"type": "node", "id": 1706759336, "lat": 13.9040121, "lon": 100.537619}, {"type": "node", "id": 1706759337, "lat": 13.9040198, "lon": 100.5377547}, {"type": "node", "id": 1706759340, "lat": 13.9040441, "lon": 100.5381789}, {"type": "node", "id": 1706759342, "lat": 13.904046, "lon": 100.5382199}, {"type": "node", "id": 1706759344, "lat": 13.9040963, "lon": 100.5382174}, {"type": "node", "id": 1706759346, "lat": 13.9040982, "lon": 100.5382573}, {"type": "node", "id": 1706759349, "lat": 13.9042593, "lon": 100.5374668}, {"type": "node", "id": 1706759351, "lat": 13.9042747, "lon": 100.5377394}, {"type": "node", "id": 1706759353, "lat": 13.9043093, "lon": 100.5381655}, {"type": "node", "id": 1706759354, "lat": 13.9043131, "lon": 100.5382465}, {"type": "node", "id": 8704102895, "lat": 13.9092904, "lon": 100.5364709}, {"type": "node", "id": 11503801887, "lat": 13.9093603, "lon": 100.5365218}, {"type": "node", "id": 11503801888, "lat": 13.9093643, "lon": 100.5364751}, {"type": "node", "id": 11503801890, "lat": 13.9092844, "lon": 100.5365166}, {"type": "node", "id": 11503801891, "lat": 13.9094267, "lon": 100.5365555}, {"type": "node", "id": 11503801892, "lat": 13.9094261, "lon": 100.5365453}, {"type": "node", "id": 11503801893, "lat": 13.9094134, "lon": 100.5365446}, {"type": "node", "id": 11503801894, "lat": 13.909413, "lon": 100.5365292}, {"type": "node", "id": 11503801895, "lat": 13.9094077, "lon": 100.5367428}, {"type": "node", "id": 11503801896, "lat": 13.9094051, "lon": 100.536756}, {"type": "node", "id": 11503801897, "lat": 13.909391, "lon": 100.5367538}, {"type": "node", "id": 11503801898, "lat": 13.9093903, "lon": 100.536766}, {"type": "node", "id": 11503801899, "lat": 13.9092085, "lon": 100.5367342}, {"type": "node", "id": 11503801900, "lat": 13.9091962, "lon": 100.5367326}, {"type": "node", "id": 11503801901, "lat": 13.9091965, "lon": 100.5367212}, {"type": "node", "id": 11503801902, "lat": 13.9091855, "lon": 100.5367194}, {"type": "node", "id": 11503801903, "lat": 13.9092058, "lon": 100.5365297}, {"type": "node", "id": 11503801904, "lat": 13.9092205, "lon": 100.5365198}, {"type": "node", "id": 11503801905, "lat": 13.9092357, "lon": 100.5365222}, {"type": "node", "id": 11503801906, "lat": 13.9092377, "lon": 100.5365132}, {"type": "node", "id": 1647232871, "lat": 13.9207215, "lon": 100.5042054}, {"type": "node", "id": 1647232883, "lat": 13.9218392, "lon": 100.504024}, {"type": "node", "id": 1647232886, "lat": 13.922024, "lon": 100.5037853}, {"type": "node", "id": 1647232912, "lat": 13.9214747, "lon": 100.5041957}, {"type": "node", "id": 1647232914, "lat": 13.9219712, "lon": 100.5021438}, {"type": "node", "id": 1647232999, "lat": 13.9225559, "lon": 100.5024332}, {"type": "node", "id": 1647233001, "lat": 13.9214022, "lon": 100.5044127}, {"type": "node", "id": 1647233003, "lat": 13.9221761, "lon": 100.5030057}, {"type": "node", "id": 1647233063, "lat": 13.9214695, "lon": 100.5022162}, {"type": "node", "id": 1647233068, "lat": 13.9220154, "lon": 100.5036566}, {"type": "node", "id": 1647233170, "lat": 13.9217142, "lon": 100.5020955}, {"type": "node", "id": 1647233366, "lat": 13.9216804, "lon": 100.5041179}, {"type": "node", "id": 1647233368, "lat": 13.9220318, "lon": 100.5030826}, {"type": "node", "id": 1647233464, "lat": 13.9219668, "lon": 100.5032247}, {"type": "node", "id": 1647233479, "lat": 13.9219485, "lon": 100.5039167}, {"type": "node", "id": 1647233486, "lat": 13.921966, "lon": 100.5034527}, {"type": "node", "id": 1647233501, "lat": 13.9211102, "lon": 100.5029512}, {"type": "node", "id": 3808615371, "lat": 13.9230032, "lon": 100.5013833}, {"type": "node", "id": 5734432609, "lat": 13.9213867, "lon": 100.5023857}, {"type": "node", "id": 5734432739, "lat": 13.9223778, "lon": 100.502345}, {"type": "node", "id": 5734432742, "lat": 13.9225405, "lon": 100.5024256}, {"type": "node", "id": 5734432828, "lat": 13.9220202, "lon": 100.5037286}, {"type": "node", "id": 5736746901, "lat": 13.9210361, "lon": 100.5042929}, {"type": "node", "id": 8487536974, "lat": 13.923115, "lon": 100.5012221}, {"type": "node", "id": 3808615373, "lat": 13.9238706, "lon": 100.501912}, {"type": "node", "id": 3808615374, "lat": 13.9243044, "lon": 100.5010627}, {"type": "node", "id": 3808615375, "lat": 13.9244699, "lon": 100.5005101}, {"type": "node", "id": 5734432352, "lat": 13.9233434, "lon": 100.500902}, {"type": "node", "id": 5734432353, "lat": 13.9237425, "lon": 100.5002682}, {"type": "node", "id": 5778035289, "lat": 13.9235437, "lon": 100.5005881}, {"type": "node", "id": 11199035285, "lat": 13.9231399, "lon": 100.5011859}, {"type": "node", "id": 3808615380, "lat": 13.9324973, "lon": 100.5026949}, {"type": "node", "id": 4677533808, "lat": 13.9324799, "lon": 100.5029968}, {"type": "node", "id": 4677533809, "lat": 13.9324569, "lon": 100.5028478}, {"type": "node", "id": 4677533810, "lat": 13.932431, "lon": 100.5035799}, {"type": "node", "id": 4677533811, "lat": 13.9321377, "lon": 100.5048274}, {"type": "node", "id": 4677533812, "lat": 13.9320426, "lon": 100.5051537}, {"type": "node", "id": 4677533813, "lat": 13.9316798, "lon": 100.5046034}, {"type": "node", "id": 4677533815, "lat": 13.9315389, "lon": 100.5049617}, {"type": "node", "id": 4677533816, "lat": 13.931998, "lon": 100.5034361}, {"type": "node", "id": 4677533817, "lat": 13.9321955, "lon": 100.5026281}, {"type": "node", "id": 8626578525, "lat": 13.9314798, "lon": 100.505112}, {"type": "node", "id": 3808615392, "lat": 13.9397213, "lon": 100.4994171}, {"type": "node", "id": 718361708, "lat": 13.9426047, "lon": 100.5039857}, {"type": "node", "id": 3808615389, "lat": 13.9387656, "lon": 100.5008697}, {"type": "node", "id": 3808615391, "lat": 13.939673, "lon": 100.5014327}, {"type": "node", "id": 3808615397, "lat": 13.9400609, "lon": 100.4996551}, {"type": "node", "id": 3808615399, "lat": 13.9404495, "lon": 100.4999266}, {"type": "node", "id": 3808615427, "lat": 13.9428211, "lon": 100.5036566}, {"type": "node", "id": 3808615436, "lat": 13.9433271, "lon": 100.5047865}, {"type": "node", "id": 3808615439, "lat": 13.9436016, "lon": 100.502398}, {"type": "node", "id": 3808615441, "lat": 13.9437031, "lon": 100.5023294}, {"type": "node", "id": 3808615449, "lat": 13.9444614, "lon": 100.5029505}, {"type": "node", "id": 7732982155, "lat": 13.9102786, "lon": 100.5071054}, {"type": "node", "id": 7732982302, "lat": 13.910089, "lon": 100.5124979}, {"type": "node", "id": 7732982303, "lat": 13.9101692, "lon": 100.5124082}, {"type": "node", "id": 7732982304, "lat": 13.9102564, "lon": 100.512386}, {"type": "node", "id": 7732982305, "lat": 13.9103387, "lon": 100.5124223}, {"type": "node", "id": 7732982306, "lat": 13.9103791, "lon": 100.5124728}, {"type": "node", "id": 11477728289, "lat": 13.9103928, "lon": 100.5125337}, {"type": "node", "id": 11477728290, "lat": 13.9102128, "lon": 100.5123893}, {"type": "node", "id": 11477728291, "lat": 13.9101246, "lon": 100.5124476}, {"type": "node", "id": 11477728292, "lat": 13.9102983, "lon": 100.512401}, {"type": "node", "id": 7732982253, "lat": 13.9100585, "lon": 100.5133305}, {"type": "node", "id": 7732982308, "lat": 13.9101303, "lon": 100.5133535}, {"type": "node", "id": 10129815948, "lat": 13.9103899, "lon": 100.512604}, {"type": "node", "id": 11477728298, "lat": 13.9100909, "lon": 100.5140593}, {"type": "node", "id": 11477728299, "lat": 13.9103274, "lon": 100.51343}, {"type": "node", "id": 3808615376, "lat": 13.9307662, "lon": 100.5068854}, {"type": "node", "id": 3808615377, "lat": 13.9312133, "lon": 100.5070963}, {"type": "node", "id": 3808615378, "lat": 13.9309041, "lon": 100.5064997}, {"type": "node", "id": 3808615379, "lat": 13.9316302, "lon": 100.5073074}, {"type": "node", "id": 4677533814, "lat": 13.9310199, "lon": 100.5062301}, {"type": "node", "id": 11763833591, "lat": 13.9311426, "lon": 100.507063}, {"type": "node", "id": 1687584801, "lat": 13.9107118, "lon": 100.5368532}, {"type": "node", "id": 1687584821, "lat": 13.9106311, "lon": 100.5378027}, {"type": "node", "id": 1687584840, "lat": 13.9101312, "lon": 100.5358447}, {"type": "node", "id": 1687584875, "lat": 13.9106935, "lon": 100.5360002}, {"type": "node", "id": 360038013, "lat": 13.9126957, "lon": 100.5402608}, {"type": "node", "id": 360038014, "lat": 13.9123434, "lon": 100.5422782}, {"type": "node", "id": 360038015, "lat": 13.9113313, "lon": 100.5420987}, {"type": "node", "id": 360038016, "lat": 13.9116876, "lon": 100.5401162}, {"type": "node", "id": 1687584907, "lat": 13.9124836, "lon": 100.5416174}, {"type": "node", "id": 1707065089, "lat": 13.912046, "lon": 100.5401924}, {"type": "node", "id": 2523622068, "lat": 13.9126398, "lon": 100.5402555}, {"type": "node", "id": 7640661220, "lat": 13.9162002, "lon": 100.5443296}, {"type": "node", "id": 7640661221, "lat": 13.9161351, "lon": 100.5447695}, {"type": "node", "id": 7640661222, "lat": 13.9163837, "lon": 100.5448902}, {"type": "node", "id": 7640661223, "lat": 13.9164631, "lon": 100.5443832}, {"type": "node", "id": 5780996054, "lat": 13.9185003, "lon": 100.5356889}, {"type": "node", "id": 5780996055, "lat": 13.9184013, "lon": 100.5355789}, {"type": "node", "id": 5780996056, "lat": 13.9179028, "lon": 100.5360121}, {"type": "node", "id": 5780996057, "lat": 13.9180056, "lon": 100.5361261}, {"type": "node", "id": 5904467461, "lat": 13.9179373, "lon": 100.5360504}, {"type": "node", "id": 10040990473, "lat": 13.921779, "lon": 100.5373361}, {"type": "node", "id": 10040990474, "lat": 13.9219139, "lon": 100.5372146}, {"type": "node", "id": 10040990475, "lat": 13.9220017, "lon": 100.5373181}, {"type": "node", "id": 10040990476, "lat": 13.9218669, "lon": 100.5374396}, {"type": "node", "id": 1388450645, "lat": 13.9171619, "lon": 100.5402139}, {"type": "node", "id": 1388450687, "lat": 13.9172913, "lon": 100.5402473}, {"type": "node", "id": 1707110720, "lat": 13.9178266, "lon": 100.5402796}, {"type": "node", "id": 2448297120, "lat": 13.9172742, "lon": 100.5404169}, {"type": "node", "id": 2448297121, "lat": 13.9173809, "lon": 100.5404519}, {"type": "node", "id": 2448297122, "lat": 13.9173832, "lon": 100.5404286}, {"type": "node", "id": 2448297123, "lat": 13.9174135, "lon": 100.5404554}, {"type": "node", "id": 2448297124, "lat": 13.917433, "lon": 100.5402625}, {"type": "node", "id": 2448297135, "lat": 13.917835, "lon": 100.5404735}, {"type": "node", "id": 2448297136, "lat": 13.9178668, "lon": 100.5404484}, {"type": "node", "id": 2448297137, "lat": 13.9178678, "lon": 100.5404719}, {"type": "node", "id": 2448297138, "lat": 13.9179372, "lon": 100.5402745}, {"type": "node", "id": 2448297139, "lat": 13.9179447, "lon": 100.5404448}, {"type": "node", "id": 5873386541, "lat": 13.9172859, "lon": 100.540301}, {"type": "node", "id": 5873386542, "lat": 13.9172607, "lon": 100.540298}, {"type": "node", "id": 5873386543, "lat": 13.9171475, "lon": 100.5402819}, {"type": "node", "id": 5873386544, "lat": 13.917088, "lon": 100.540196}, {"type": "node", "id": 5873386545, "lat": 13.9170454, "lon": 100.5403731}, {"type": "node", "id": 1648163422, "lat": 13.9150581, "lon": 100.5483023}, {"type": "node", "id": 1648163447, "lat": 13.9151114, "lon": 100.5481509}, {"type": "node", "id": 1648163448, "lat": 13.9159573, "lon": 100.5486387}, {"type": "node", "id": 1648163465, "lat": 13.9160107, "lon": 100.5484874}, {"type": "node", "id": 11145476164, "lat": 13.9159643, "lon": 100.5486187}, {"type": "node", "id": 5340197930, "lat": 13.9222349, "lon": 100.5466401}, {"type": "node", "id": 5340197931, "lat": 13.9222257, "lon": 100.546392}, {"type": "node", "id": 5340197932, "lat": 13.9224391, "lon": 100.5463367}, {"type": "node", "id": 5340197933, "lat": 13.9224862, "lon": 100.5465309}, {"type": "node", "id": 5340197934, "lat": 13.9223304, "lon": 100.5467076}, {"type": "node", "id": 5340197935, "lat": 13.9222925, "lon": 100.546663}, {"type": "node", "id": 5340197936, "lat": 13.9222519, "lon": 100.5466779}, {"type": "node", "id": 359123868, "lat": 13.9257624, "lon": 100.5443913}, {"type": "node", "id": 2420675896, "lat": 13.9253995, "lon": 100.5440382}, {"type": "node", "id": 6815074286, "lat": 13.9279376, "lon": 100.5418833}, {"type": "node", "id": 9089881943, "lat": 13.9291209, "lon": 100.543313}, {"type": "node", "id": 359123869, "lat": 13.9267102, "lon": 100.5456379}, {"type": "node", "id": 3808615394, "lat": 13.9399853, "lon": 100.5114325}, {"type": "node", "id": 3808615398, "lat": 13.940237, "lon": 100.5121679}, {"type": "node", "id": 3808615412, "lat": 13.9416817, "lon": 100.5107966}, {"type": "node", "id": 3808615415, "lat": 13.9419058, "lon": 100.5115852}, {"type": "node", "id": 3808615390, "lat": 13.9396302, "lon": 100.5139726}, {"type": "node", "id": 3808615393, "lat": 13.9399336, "lon": 100.5148394}, {"type": "node", "id": 3808615395, "lat": 13.9399991, "lon": 100.5136812}, {"type": "node", "id": 3808615396, "lat": 13.9400543, "lon": 100.5138731}, {"type": "node", "id": 3808615401, "lat": 13.9405508, "lon": 100.5135249}, {"type": "node", "id": 3808615402, "lat": 13.9407818, "lon": 100.5135072}, {"type": "node", "id": 3808615404, "lat": 13.9410059, "lon": 100.5140578}, {"type": "node", "id": 3808615406, "lat": 13.94113, "lon": 100.5144131}, {"type": "node", "id": 561250235, "lat": 13.9454595, "lon": 100.509265}, {"type": "node", "id": 3808615457, "lat": 13.9452735, "lon": 100.508635}, {"type": "node", "id": 3808615460, "lat": 13.9459238, "lon": 100.5091927}, {"type": "node", "id": 3808615462, "lat": 13.9464357, "lon": 100.5083342}, {"type": "node", "id": 3808615463, "lat": 13.9466124, "lon": 100.5090697}, {"type": "node", "id": 561250246, "lat": 13.9421597, "lon": 100.5231478}, {"type": "node", "id": 3808615405, "lat": 13.9410347, "lon": 100.5226903}, {"type": "node", "id": 3808615407, "lat": 13.9412959, "lon": 100.5226572}, {"type": "node", "id": 3808615408, "lat": 13.941298, "lon": 100.5238506}, {"type": "node", "id": 3808615410, "lat": 13.941602, "lon": 100.5247153}, {"type": "node", "id": 3808615417, "lat": 13.9420195, "lon": 100.5225601}, {"type": "node", "id": 3808615420, "lat": 13.942058, "lon": 100.5244219}, {"type": "node", "id": 3808615421, "lat": 13.9421506, "lon": 100.5225422}, {"type": "node", "id": 3808615422, "lat": 13.9423098, "lon": 100.5242686}, {"type": "node", "id": 3808615409, "lat": 13.9414504, "lon": 100.5300398}, {"type": "node", "id": 3808615413, "lat": 13.9417582, "lon": 100.5306211}, {"type": "node", "id": 3808615418, "lat": 13.9420431, "lon": 100.5296669}, {"type": "node", "id": 3808615424, "lat": 13.9425845, "lon": 100.5293939}, {"type": "node", "id": 3808615429, "lat": 13.9428752, "lon": 100.5300604}, {"type": "node", "id": 561250271, "lat": 13.9445755, "lon": 100.5329325}, {"type": "node", "id": 561250273, "lat": 13.9446338, "lon": 100.5328982}, {"type": "node", "id": 3808615440, "lat": 13.943645, "lon": 100.5334946}, {"type": "node", "id": 3808615442, "lat": 13.9437036, "lon": 100.5334627}, {"type": "node", "id": 3808615447, "lat": 13.9440828, "lon": 100.5344076}, {"type": "node", "id": 3808615448, "lat": 13.9443759, "lon": 100.5347842}, {"type": "node", "id": 3808615451, "lat": 13.9445035, "lon": 100.5339742}, {"type": "node", "id": 3808615453, "lat": 13.9446862, "lon": 100.5343117}, {"type": "node", "id": 3808615454, "lat": 13.9449995, "lon": 100.5335183}]}