{"version": 0.6, "generator": "Overpass API 0.7.62.8 e802775f", "osm3s": {"timestamp_osm_base": "2025-11-20T03:20:30Z", "copyright": "The data included in this document is from www.openstreetmap.org. The data is made available under ODbL."}, "elements": [{"type": "node", "id": 1915361266, "lat": 13.7167581, "lon": 100.7311642, "tags": {"internet_access": "wlan", "name": "Paragon Inn", "phone": "02 346 4224", "tourism": "hotel"}}, {"type": "node", "id": 1937870935, "lat": 13.7027822, "lon": 100.7364015, "tags": {"amenity": "restaurant", "name": "Restaurant"}}, {"type": "node", "id": 2501282153, "lat": 13.7193954, "lon": 100.7161646, "tags": {"addr:housenumber": "136", "addr:province": "\u0e01\u0e23\u0e38\u0e07\u0e40\u0e17\u0e1e\u0e21\u0e2b\u0e32\u0e19\u0e04\u0e23", "addr:street": "Soi Lat-Krabang", "name": "Siam Place Airport Hotel", "source": "local_knowledge", "tourism": "hotel"}}, {"type": "node", "id": 3200611807, "lat": 13.7325125, "lon": 100.745715, "tags": {"tourism": "hostel"}}, {"type": "node", "id": 3200611808, "lat": 13.7327779, "lon": 100.7462873, "tags": {"amenity": "restaurant", "cuisine": "thai"}}, {"type": "node", "id": 3285467732, "lat": 13.714673, "lon": 100.7403157, "tags": {"amenity": "cafe", "cuisine": "coffee_shop", "name": "Coffee shop", "source": "Bing"}}, {"type": "node", "id": 3540810561, "lat": 13.7209432, "lon": 100.726907, "tags": {"amenity": "cafe", "name": "Black Canyon Coffee"}}, {"type": "node", "id": 3540892813, "lat": 13.7212545, "lon": 100.7269459, "tags": {"amenity": "restaurant", "cuisine": "pizza", "name": "Scoozi Pizza"}}, {"type": "node", "id": 3743754388, "lat": 13.7347232, "lon": 100.7163565, "tags": {"amenity": "restaurant", "cuisine": "thai", "delivery": "yes", "name": "\u0e23\u0e49\u0e32\u0e19\u0e1b\u0e49\u0e32\u0e40\u0e20\u0e32", "name:en": "Pa Phao", "name:th": "\u0e23\u0e49\u0e32\u0e19\u0e1b\u0e49\u0e32\u0e40\u0e20\u0e32", "phone": "0879246161"}}, {"type": "node", "id": 4133011589, "lat": 13.7211321, "lon": 100.7040365, "tags": {"name": "\u0e25\u0e38\u0e21\u0e1e\u0e34\u0e19\u0e35\u0e27\u0e34\u0e25\u0e25\u0e4c \u0e2d\u0e48\u0e2d\u0e19\u0e19\u0e38\u0e0a-\u0e25\u0e32\u0e14\u0e01\u0e23\u0e30\u0e1a\u0e31\u0e07 2", "tourism": "hostel"}}, {"type": "node", "id": 4145222789, "lat": 13.7037799, "lon": 100.7357216, "tags": {"amenity": "cafe", "name:en": "Inthanin Coffee"}}, {"type": "node", "id": 4145222790, "lat": 13.7039662, "lon": 100.7345682, "tags": {"description:en": "Moderate price, free airport shuttle, TV, refrigerator, wifi, comfortable beds, nice bathrooms.", "internet_access": "wlan", "internet_access:fee": "no", "name": "Thongtha Residence", "name:en": "Thongtha Residence", "stars": "3", "tourism": "hotel", "website": "https://www.thongtharesidence.com/"}}, {"type": "node", "id": 4215255390, "lat": 13.7115478, "lon": 100.7348372, "tags": {"internet_access": "wlan", "name": "Dwella Suvarnabhumi Hotel", "phone": "+66 2 181 2551", "tourism": "hotel", "website": "https://www.dwellaresort.com/"}}, {"type": "node", "id": 4450437590, "lat": 13.7201591, "lon": 100.7401202, "tags": {"name:en": "A-port", "tourism": "hotel"}}, {"type": "node", "id": 4450443789, "lat": 13.7168616, "lon": 100.7402312, "tags": {"name:en": "The Bloom Residence", "tourism": "hotel"}}, {"type": "node", "id": 4451070598, "lat": 13.7206276, "lon": 100.7374272, "tags": {"name:en": "Sinsuvan Airport Suites", "phone": "+6621812418", "tourism": "hotel"}}, {"type": "node", "id": 4451073195, "lat": 13.7227912, "lon": 100.7369876, "tags": {"name": "Golden Jade Hotel", "name:en": "Golden Jade Hotel", "tourism": "hotel"}}, {"type": "node", "id": 4627608637, "lat": 13.7091726, "lon": 100.7344524, "tags": {"amenity": "place_of_worship", "historic": "wayside_shrine", "religion": "buddhist", "source": "survey"}}, {"type": "node", "id": 4627631573, "lat": 13.7093576, "lon": 100.7346274, "tags": {"contact:email": "sales@plaigarden.com", "contact:fax": "+66 2 738 5155", "contact:mobile": "+66 86 326 3121", "contact:phone": "+66 2 181 2255", "description": "elevator available", "internet_access": "wlan", "internet_access:fee": "no", "name": "OYO Plai and Herbs Suvarnabhumi", "rooms": "65", "smoking": "no", "source": "survey", "source:date": "2017-01-24", "tourism": "guest_house", "website": "http://www.plaigarden.com/"}}, {"type": "node", "id": 4627631574, "lat": 13.7091804, "lon": 100.7346019, "tags": {"amenity": "restaurant", "cuisine": "thai"}}, {"type": "node", "id": 4818431830, "lat": 13.7274233, "lon": 100.7356421, "tags": {"addr:housenumber": "432", "addr:street": "Prachathon Alley", "tourism": "hotel"}}, {"type": "node", "id": 4818431831, "lat": 13.7271055, "lon": 100.7356394, "tags": {"addr:housenumber": "162/1", "addr:street": "Prachathon Alley", "internet_access": "wlan", "internet_access:fee": "no", "name": "Sunny Residence", "phone": "+66 2 1812531", "tourism": "hotel"}}, {"type": "node", "id": 5112503252, "lat": 13.7211885, "lon": 100.7332101, "tags": {"addr:housenumber": "458/4-8", "addr:street": "Soi Lat Krabang 24/1, Lat Krabang Road, Bangkok, Lat Krabang, 10520, Thailand", "name": "At Residence Suvarnabhumi", "phone": "+66 2 737 1505", "tourism": "hotel"}}, {"type": "node", "id": 5521607457, "lat": 13.7101346, "lon": 100.7321875, "tags": {"amenity": "place_of_worship", "religion": "buddhist"}}, {"type": "node", "id": 5521607458, "lat": 13.70999, "lon": 100.7321969, "tags": {"check_date": "2025-07-18", "contact:phone": "+66 2 738 4988", "name": "\u0e27\u0e34\u0e2a\u0e21\u0e32\u0e22\u0e32\u0e2a\u0e38\u0e27\u0e23\u0e23\u0e13\u0e20\u0e39\u0e21\u0e34", "name:en": "Vismaya Suvarnabhumi", "name:th": "\u0e27\u0e34\u0e2a\u0e21\u0e32\u0e22\u0e32\u0e2a\u0e38\u0e27\u0e23\u0e23\u0e13\u0e20\u0e39\u0e21\u0e34", "note": "Somebody deleted all my tags of this hotel. I cannot accept this!", "source": "local knowledge", "source:date": "2018-04-02", "tourism": "hotel", "website": "http://thevismaya.com/"}}, {"type": "node", "id": 5525160504, "lat": 13.7019386, "lon": 100.7329109, "tags": {"amenity": "cafe", "name": "Amazon"}}, {"type": "node", "id": 5837586175, "lat": 13.7404714, "lon": 100.7467808, "tags": {"amenity": "restaurant", "cuisine": "vietnamese", "name:en": "Kua Sai Ngon"}}, {"type": "node", "id": 5930779695, "lat": 13.7301024, "lon": 100.7335124, "tags": {"addr:city": "KHLONGSONGTONNOON, LADKRABANG BANGKOK", "addr:housenumber": "14/5", "addr:postcode": "10520", "addr:street": "MOTORWAY ROAD", "internet_access": "wlan", "internet_access:fee": "yes", "name": "Siam Golden Place", "operator": "+6621717499", "rooms": "84", "smoking": "yes", "tourism": "hostel"}}, {"type": "node", "id": 6001740959, "lat": 13.723202, "lon": 100.7241633, "tags": {"contact:email": "reservations.suv@park9living.com", "contact:phone": "+66 2 019 9111", "internet_access": "wlan", "name": "The Park Nine Hotel & Serviced Residence Suvarnabhumi", "swimming_pool": "yes", "tourism": "hotel", "website": "http://www.park9suvarnabhumi.com/"}}, {"type": "node", "id": 6414092785, "lat": 13.7290049, "lon": 100.7011863, "tags": {"name": "\u0e17\u0e38\u0e48\u0e07\u0e17\u0e32\u0e19\u0e15\u0e30\u0e27\u0e31\u0e19 \u0e1b\u0e23\u0e30\u0e40\u0e27\u0e28", "tourism": "information"}}, {"type": "node", "id": 6544166323, "lat": 13.7215218, "lon": 100.7253783, "tags": {"amenity": "cafe", "name": "Grand Coffee Boy"}}, {"type": "node", "id": 6544166324, "lat": 13.722039, "lon": 100.7269796, "tags": {"amenity": "place_of_worship", "historic": "wayside_shrine", "religion": "buddhist"}}, {"type": "node", "id": 6547358270, "lat": 13.7207959, "lon": 100.7275934, "tags": {"amenity": "restaurant", "brand": "Pizza Hut", "brand:wikidata": "Q191615", "brand:wikipedia": "en:Pizza Hut", "cuisine": "pizza", "name": "Pizza Hut"}}, {"type": "node", "id": 6547358278, "lat": 13.7219346, "lon": 100.7268839, "tags": {"amenity": "marketplace", "name": "The Paseo Food Mall", "opening_hours": "PH,Mo-Su 08:00-19:00"}}, {"type": "node", "id": 6602214485, "lat": 13.7063859, "lon": 100.7060804, "tags": {"addr:street": "65/2 Sukhaphiban 2, Khwaeng Prawet, Khet Prawet, Krung Thep Maha Nakhon 10250", "amenity": "restaurant", "cuisine": "italian;italian_pizza", "email": "gm@ardente.co.th", "internet_access": "wlan", "name": "\u0e23\u0e49\u0e32\u0e19\u0e2d\u0e32\u0e2b\u0e32\u0e23 Ardente \u0e2d\u0e34\u0e15\u0e32\u0e40\u0e25\u0e35\u0e48\u0e22\u0e19", "name:en": "Ardente Il Ristorante Italiano", "opening_hours": "Mo-Su 17:00-23:30", "website": "https://www.ardente.co.th/"}}, {"type": "node", "id": 6938860286, "lat": 13.7302957, "lon": 100.7260115, "tags": {"name": "taro", "tourism": "attraction"}}, {"type": "node", "id": 7203163332, "lat": 13.7225109, "lon": 100.7331376, "tags": {"addr:housenumber": "733", "addr:postcode": "10520", "addr:province": "\u0e01\u0e23\u0e38\u0e07\u0e40\u0e17\u0e1e\u0e21\u0e2b\u0e32\u0e19\u0e04\u0e23", "addr:street": "Lat Krabang Road", "internet_access": "wlan", "internet_access:fee": "yes", "name": "Port Canary Boutique Hotel", "phone": "+66 98 285 5941", "tourism": "hotel"}}, {"type": "node", "id": 7273911586, "lat": 13.7362193, "lon": 100.7461272, "tags": {"amenity": "cafe", "name:en": "Cafe Amazon"}}, {"type": "node", "id": 7925159785, "lat": 13.7433469, "lon": 100.7260163, "tags": {"name": "Alisa Maison", "name:en": "Maison", "tourism": "attraction"}}, {"type": "node", "id": 9279262817, "lat": 13.7028902, "lon": 100.7340716, "tags": {"amenity": "restaurant", "name": "\u0e15\u0e49\u0e21\u0e40\u0e25\u0e37\u0e2d\u0e14\u0e2b\u0e21\u0e39 \u0e41\u0e01\u0e49\u0e21\u0e1a\u0e38\u0e4b\u0e21 (\u0e40\u0e08\u0e49\u0e32\u0e40\u0e01\u0e48\u0e32)"}}, {"type": "node", "id": 10120097117, "lat": 13.7233932, "lon": 100.7379429, "tags": {"tourism": "camp_site"}}, {"type": "node", "id": 10743129462, "lat": 13.7212697, "lon": 100.7332926, "tags": {"amenity": "restaurant", "cuisine": "thai", "name": "@Home Cafe & Eatery"}}, {"type": "node", "id": 10753324990, "lat": 13.7209541, "lon": 100.7325944, "tags": {"name": "@ Ville Suvarnabhumi", "tourism": "hotel"}}, {"type": "node", "id": 11265917169, "lat": 13.7081611, "lon": 100.7343228, "tags": {"tourism": "hotel"}}, {"type": "node", "id": 11621185199, "lat": 13.7322433, "lon": 100.7159103, "tags": {"amenity": "restaurant", "name": "\u0e09\u0e31\u0e19\u0e04\u0e37\u0e2d\u0e01\u0e30\u0e40\u0e1e\u0e23\u0e32"}}, {"type": "node", "id": 11681978634, "lat": 13.7394226, "lon": 100.7467525, "tags": {"historic": "wayside_shrine"}}, {"type": "node", "id": 11922268409, "lat": 13.7325949, "lon": 100.7318145, "tags": {"addr:city": "\u0e41\u0e02\u0e27\u0e07\u0e04\u0e25\u0e2d\u0e07\u0e2a\u0e2d\u0e07\u0e15\u0e49\u0e19\u0e19\u0e38\u0e48\u0e19", "addr:housenumber": "6/2", "addr:postcode": "10520", "addr:street": "\u0e16\u0e19\u0e19\u0e1e\u0e31\u0e12\u0e19\u0e32\u0e0a\u0e19\u0e1a\u0e17 \u0e54", "air_conditioning": "yes", "amenity": "cafe", "cuisine": "thai;coffee", "internet_access": "wlan", "internet_access:fee": "no", "name": "Swan Cafe \u0e1e\u0e31\u0e12\u0e19\u0e32\u0e0a\u0e19\u0e1a\u0e174", "opening_hours": "Mo-Fr 09:00-16:30", "outdoor_seating": "yes", "phone": "+64 146 1469"}}, {"type": "node", "id": 12253828406, "lat": 13.7250722, "lon": 100.7194823, "tags": {"amenity": "place_of_worship", "denomination": "thai_mahanikaya", "name": "\u0e27\u0e31\u0e14\u0e25\u0e32\u0e19\u0e1a\u0e38\u0e0d", "name:en": "Wat Lan Bun", "name:th": "\u0e27\u0e31\u0e14\u0e25\u0e32\u0e19\u0e1a\u0e38\u0e0d", "old_name:th": "\u0e27\u0e31\u0e14\u0e2b\u0e19\u0e36\u0e48\u0e07", "religion": "buddhist", "wikidata": "Q100698831", "wikipedia": "th:\u0e27\u0e31\u0e14\u0e25\u0e32\u0e19\u0e1a\u0e38\u0e0d"}}, {"type": "node", "id": 12253828407, "lat": 13.7248977, "lon": 100.73763, "tags": {"amenity": "place_of_worship", "denomination": "thai_mahanikaya", "loc_name:th": "\u0e27\u0e31\u0e14\u0e2a\u0e2d\u0e07", "name": "\u0e27\u0e31\u0e14\u0e2a\u0e31\u0e07\u0e06\u0e23\u0e32\u0e0a\u0e32", "name:en": "Wat Sangkha Racha", "name:th": "\u0e27\u0e31\u0e14\u0e2a\u0e31\u0e07\u0e06\u0e23\u0e32\u0e0a\u0e32", "religion": "buddhist", "wikidata": "Q66439431", "wikipedia": "th:\u0e27\u0e31\u0e14\u0e2a\u0e31\u0e07\u0e06\u0e23\u0e32\u0e0a\u0e32"}}, {"type": "node", "id": 12279532666, "lat": 13.7310223, "lon": 100.7089323, "tags": {"amenity": "place_of_worship", "denomination": "thai_thammayut", "name": "\u0e27\u0e31\u0e14\u0e04\u0e38\u0e13\u0e41\u0e21\u0e48\u0e08\u0e31\u0e19\u0e17\u0e23\u0e4c", "name:en": "Wat Khun Mae Chan", "name:th": "\u0e27\u0e31\u0e14\u0e04\u0e38\u0e13\u0e41\u0e21\u0e48\u0e08\u0e31\u0e19\u0e17\u0e23\u0e4c", "religion": "buddhist", "wikidata": "Q100698858", "wikipedia": "th:\u0e27\u0e31\u0e14\u0e04\u0e38\u0e13\u0e41\u0e21\u0e48\u0e08\u0e31\u0e19\u0e17\u0e23\u0e4c"}}, {"type": "node", "id": 12600858098, "lat": 13.7303766, "lon": 100.7324716, "tags": {"addr:district": "\u0e25\u0e32\u0e14\u0e01\u0e23\u0e30\u0e1a\u0e31\u0e07", "addr:housenumber": "36/54", "addr:place": "Bangkok", "addr:postcode": "10520", "addr:province": "\u0e01\u0e23\u0e38\u0e07\u0e40\u0e17\u0e1e\u0e21\u0e2b\u0e32\u0e19\u0e04\u0e23", "addr:street": "\u0e16\u0e19\u0e19\u0e01\u0e23\u0e38\u0e07\u0e40\u0e17\u0e1e\u0e2f-\u0e0a\u0e25\u0e1a\u0e38\u0e23\u0e35", "addr:subdistrict": "\u0e04\u0e25\u0e2d\u0e07\u0e2a\u0e2d\u0e07\u0e15\u0e49\u0e19\u0e19\u0e38\u0e48\u0e19", "amenity": "cafe", "check_date": "2025-08-15", "check_date:currency:XBT": "2025-08-15", "contact:email": "cs@coffeecompany.asia", "contact:facebook": "coffeecompanythailand", "contact:instagram": "coffeecompanythailand", "cuisine": "coffee_shop", "currency:XBT": "yes", "description": "Coffee Change The World", "name": "Coffee Company - RK Biz Center", "opening_hours": "Mo-Fr 07:30-16:00; Sa-Su 08:00-16:00", "payment:lightning": "yes", "payment:lightning_contactless": "yes", "payment:onchain": "no", "phone": "+66 24 740 153", "survey:date": "2025-08-06", "website": "https://www.coffeecompany.asia/"}}, {"type": "node", "id": 12783885957, "lat": 13.7230384, "lon": 100.7272355, "tags": {"amenity": "restaurant"}}, {"type": "node", "id": 13240098089, "lat": 13.7098643, "lon": 100.7300007, "tags": {"air_conditioning": "yes", "check_date": "2025-10-17", "name": "Gate43 Airport Hotel", "tourism": "hotel"}}, {"type": "node", "id": 13240098091, "lat": 13.7066935, "lon": 100.7358239, "tags": {"amenity": "cafe", "brand:wikidata": "Q43247503", "check_date": "2025-10-18", "cuisine": "coffee_shop", "name": "\u0e04\u0e32\u0e40\u0e1f\u0e48 \u0e2d\u0e40\u0e21\u0e0b\u0e2d\u0e19", "name:en": "Caf\u00e9 Amazon", "takeaway": "yes"}}, {"type": "way", "id": 321780928, "nodes": [3285462702, 3285463428, 3285462708, 3285462717, 3285462702], "tags": {"building": "yes", "name": "OK Mansion", "source": "Bing", "tourism": "hotel"}}, {"type": "way", "id": 321780937, "nodes": [3285462747, 3285462718, 3285462741, 3285462733, 3285462747], "tags": {"building": "yes", "name": "PA Mansion (2)", "source": "local_knowledge", "tourism": "hotel"}}, {"type": "way", "id": 321780948, "nodes": [3285463402, 3285462740, 3285462714, 3285462759, 3285462727, 3285463368, 3285463369, 3285463403, 3285463402], "tags": {"amenity": "restaurant", "cuisine": "seafood", "name": "Koh Lanta", "phone": "+66 27384811", "tourism": "attraction"}}, {"type": "way", "id": 321781545, "nodes": [3285467729, 3285467730, 3285467733, 3285467731, 3285467729], "tags": {"building": "yes", "name": "PA Mansion (1)", "source": "local_knowledge", "tourism": "hotel"}}, {"type": "way", "id": 340108299, "nodes": [3473123998, 3473123996, 3473124003, 3473123995, 3473123997, 3473124000, 3473124009, 3473123998], "tags": {"amenity": "marketplace", "area": "yes", "name": "Banyutsup Village", "source": "local_knowledge"}}, {"type": "way", "id": 340108300, "nodes": [3473124006, 3473124005, 3473124007, 3473124004, 3473124006], "tags": {"amenity": "marketplace", "area": "yes", "name": "Banyutsup Village (Food Market)"}}, {"type": "way", "id": 340717729, "nodes": [3479677492, 3473146191, 3473146174, 3473146164, 3479677490, 3479677491, 3479677492], "tags": {"addr:housenumber": "836/2", "addr:postcode": "10520", "addr:province": "\u0e01\u0e23\u0e38\u0e07\u0e40\u0e17\u0e1e\u0e21\u0e2b\u0e32\u0e19\u0e04\u0e23", "addr:street": "Lat Krabang Soi 30/4", "name": "B S Residence Apartments", "tourism": "hotel", "website": "http://www.bssuvarnabhumi.com/"}}, {"type": "way", "id": 340717730, "nodes": [3479677488, 3479677486, 3479677487, 3479677489, 3479677488], "tags": {"addr:district": "\u0e25\u0e32\u0e14\u0e01\u0e23\u0e30\u0e1a\u0e31\u0e07", "addr:postcode": "10520", "addr:province": "\u0e01\u0e23\u0e38\u0e07\u0e40\u0e17\u0e1e\u0e21\u0e2b\u0e32\u0e19\u0e04\u0e23", "building": "yes", "name": "B S Residence Hotel", "source": "Bing, GPS", "tourism": "hotel"}}, {"type": "way", "id": 347833391, "nodes": [3540775145, 3540784705, 3540784704, 3540784719, 3540784733, 3540784706, 3540784701, 3540784743, 3540775145], "tags": {"addr:district": "\u0e25\u0e32\u0e14\u0e01\u0e23\u0e30\u0e1a\u0e31\u0e07", "addr:postcode": "10520", "addr:province": "\u0e01\u0e23\u0e38\u0e07\u0e40\u0e17\u0e1e\u0e21\u0e2b\u0e32\u0e19\u0e04\u0e23", "amenity": "restaurant", "brand": "MK Restaurants", "brand:wikidata": "Q62075359", "building": "yes", "cuisine": "thai", "name": "MK Restaurants", "name:en": "MK Restaurants", "operator": "MK Restaurants", "phone": "1642", "website": "https://www.mkrestaurant.com/"}}, {"type": "way", "id": 347852472, "nodes": [3431296258, 3540892793, 3540892794, 3540892818, 3431296258], "tags": {"addr:district": "\u0e25\u0e32\u0e14\u0e01\u0e23\u0e30\u0e1a\u0e31\u0e07", "addr:postcode": "10520", "addr:province": "\u0e01\u0e23\u0e38\u0e07\u0e40\u0e17\u0e1e\u0e21\u0e2b\u0e32\u0e19\u0e04\u0e23", "amenity": "cafe", "brand": "Starbucks", "brand:wikidata": "Q37158", "brand:wikipedia": "en:Starbucks", "building": "yes", "cuisine": "coffee_shop", "name": "Starbucks", "name:en": "Starbucks Coffee", "name:th": "\u0e2a\u0e15\u0e32\u0e23\u0e4c\u0e1a\u0e31\u0e04\u0e2a\u0e4c", "official_name": "Starbucks Coffee", "takeaway": "yes", "website": "www.starbuckscard.in.th"}}, {"type": "way", "id": 352252035, "nodes": [3580070948, 3580068958, 3580068959, 3580070962, 3580070960, 3580068992, 3580070894, 3580071195, 3580070904, 3473124019, 3580070935, 3580070948], "tags": {"addr:district": "\u0e25\u0e32\u0e14\u0e01\u0e23\u0e30\u0e1a\u0e31\u0e07", "addr:postcode": "10520", "addr:province": "\u0e01\u0e23\u0e38\u0e07\u0e40\u0e17\u0e1e\u0e21\u0e2b\u0e32\u0e19\u0e04\u0e23", "amenity": "restaurant", "building": "yes", "name": "Ban Suan Sangjan Restaurant"}}, {"type": "way", "id": 352252037, "nodes": [3580070938, 3580070896, 3580070932, 3580068980, 3580070938], "tags": {"amenity": "marketplace", "area": "yes", "name": "Market", "source": "local_knowledge"}}, {"type": "way", "id": 352252038, "nodes": [2789872230, 3580070958, 3580070931, 3580068985, 2789872230], "tags": {"addr:district": "\u0e25\u0e32\u0e14\u0e01\u0e23\u0e30\u0e1a\u0e31\u0e07", "addr:postcode": "10520", "addr:province": "\u0e01\u0e23\u0e38\u0e07\u0e40\u0e17\u0e1e\u0e21\u0e2b\u0e32\u0e19\u0e04\u0e23", "building": "yes", "name": "Sinsuvarn Airport Suite", "tourism": "hotel"}}, {"type": "way", "id": 488262130, "nodes": [4805856739, 4805856740, 4805856741, 4805856742, 4805856743, 4805856744, 4805856739], "tags": {"addr:district": "\u0e25\u0e32\u0e14\u0e01\u0e23\u0e30\u0e1a\u0e31\u0e07", "addr:postcode": "10520", "addr:province": "\u0e01\u0e23\u0e38\u0e07\u0e40\u0e17\u0e1e\u0e21\u0e2b\u0e32\u0e19\u0e04\u0e23", "addr:street": "\u0e16\u0e19\u0e19\u0e23\u0e48\u0e21\u0e40\u0e01\u0e25\u0e49\u0e32", "amenity": "restaurant", "building": "yes", "name": "\u0e2e\u0e30\u0e40\u0e0b\u0e49\u0e07 \u0e23\u0e32\u0e0a\u0e32\u0e40\u0e1b\u0e47\u0e14\u0e22\u0e48\u0e32\u0e07 2", "name:en": "Ha Seng Roast Duck 2", "outdoor_seating": "yes", "phone": "02 360 9137"}}, {"type": "way", "id": 606251106, "nodes": [11828794014, 5748517085, 5748517086, 7940830055, 7940830056, 5748517087, 11828794014], "tags": {"brand": "Courtyard", "brand:wikidata": "Q1053170", "name": "Courtyard by Marriott Bangkok Suvarnabhumi Airport", "official_name": "Courtyard by Marriott", "phone": "+66 2-7803588", "tourism": "hotel", "website": "https://www.marriott.com/en-us/hotels/bkkap-courtyard-bangkok-suvarnabhumi-airport/overview/"}}, {"type": "way", "id": 617542036, "nodes": [5837586142, 5837586143, 11681978635, 11681978567, 5837586144, 5837586145, 11653186066, 11653186069, 11653186068, 5837586142], "tags": {"amenity": "marketplace", "name": "\u0e15\u0e25\u0e32\u0e14\u0e23\u0e31\u0e1a\u0e25\u0e21\u0e23\u0e31\u0e19\u0e40\u0e27\u0e22\u0e4c", "name:en": "Runway Night Market", "name:th": "\u0e23\u0e31\u0e1a\u0e25\u0e21\u0e23\u0e31\u0e19\u0e40\u0e27\u0e22\u0e4c"}}, {"type": "way", "id": 686524093, "nodes": [6434919919, 6434919920, 6434919921, 6434919922, 6434919923, 6434919924, 6434919925, 6434919926, 6434919927, 6434919928, 6434919919], "tags": {"addr:district": "\u0e25\u0e32\u0e14\u0e01\u0e23\u0e30\u0e1a\u0e31\u0e07", "addr:housenumber": "999", "addr:postcode": "10520", "addr:province": "\u0e01\u0e23\u0e38\u0e07\u0e40\u0e17\u0e1e\u0e21\u0e2b\u0e32\u0e19\u0e04\u0e23", "addr:street": "Lat Krabang Soi 1/8", "building": "commercial", "building:levels": "5", "name": "Aranta Airport Hotel", "swimming_pool": "yes", "tourism": "hotel", "website": "http://www.arantaairporthotelbangkok.com/"}}, {"type": "way", "id": 764845432, "nodes": [7144532679, 7144532680, 7144532681, 7144532682, 7144532679], "tags": {"addr:district": "\u0e25\u0e32\u0e14\u0e01\u0e23\u0e30\u0e1a\u0e31\u0e07", "addr:postcode": "10520", "addr:province": "\u0e01\u0e23\u0e38\u0e07\u0e40\u0e17\u0e1e\u0e21\u0e2b\u0e32\u0e19\u0e04\u0e23", "amenity": "restaurant", "building": "yes", "name": "\u0e23\u0e49\u0e32\u0e19\u0e2d\u0e32\u0e2b\u0e32\u0e23\u0e40\u0e1e\u0e25\u0e34\u0e19\u0e40\u0e1e\u0e25\u0e34\u0e19", "name:en": "Ploen Ploen", "phone": "02 376 9377", "website": "https://www.facebook.com/ploenploenrestaurant"}}, {"type": "way", "id": 764845433, "nodes": [7144532683, 7144532684, 7144534685, 7144534686, 7144534687, 7144534688, 7144534689, 7144534690, 7144532683], "tags": {"area": "yes", "name": "Ploen Pirom", "tourism": "hotel"}}, {"type": "way", "id": 953331202, "nodes": [8824032859, 8824032860, 8824032861, 8824032862, 8824032863, 8824032864, 8824032865, 8824032866, 8824032867, 8824032868, 8824032869, 8824032870, 8824032871, 8824032872, 8824032873, 8824032874, 8824032875, 8824032876, 8824032877, 8824032878, 8824032879, 8824032880, 8824032859], "tags": {"leisure": "park", "name": "\u0e2a\u0e27\u0e19\u0e2a\u0e32\u0e18\u0e23\u0e13\u0e30 \u0e2b\u0e21\u0e39\u0e48\u0e1a\u0e49\u0e32\u0e19\u0e19\u0e31\u0e19\u0e17\u0e27\u0e31\u0e19\u0e1e\u0e23\u0e30\u0e23\u0e32\u0e21\u0e40\u0e01\u0e49\u0e32-\u0e2d\u0e48\u0e2d\u0e19\u0e19\u0e38\u0e0a"}}, {"type": "way", "id": 1098163550, "nodes": [10055200276, 10055200277, 10055200278, 10055200279, 10055200276], "tags": {"leisure": "park"}}, {"type": "way", "id": 1106307547, "nodes": [10123577912, 10123623322, 10123623324, 10123623317, 10123577911, 10123577912], "tags": {"addr:district": "\u0e25\u0e32\u0e14\u0e01\u0e23\u0e30\u0e1a\u0e31\u0e07", "addr:postcode": "10520", "addr:province": "\u0e01\u0e23\u0e38\u0e07\u0e40\u0e17\u0e1e\u0e21\u0e2b\u0e32\u0e19\u0e04\u0e23", "amenity": "restaurant", "building": "commercial", "name": "\u0e2a\u0e38\u0e01\u0e35\u0e49 \u0e15\u0e35\u0e4b\u0e19\u0e49\u0e2d\u0e22", "name:en": "Suki Teenoi", "opening_hours": "12:00-05:00", "wheelchair": "no"}}, {"type": "way", "id": 1250152337, "nodes": [11621056433, 11621056434, 11621056435, 11621056436, 11621185174, 11621056420, 11621056421, 11621056408, 11621056409, 11621056433], "tags": {"amenity": "marketplace", "landuse": "residential", "name": "\u0e15\u0e25\u0e32\u0e14\u0e19\u0e31\u0e14\u0e1b\u0e32\u0e01\u0e0b\u0e2d\u0e22\u0e1e\u0e31\u0e12\u0e19\u0e32\u0e0a\u0e19\u0e1a\u0e17 3", "name:th": "\u0e15\u0e25\u0e32\u0e14\u0e19\u0e31\u0e14\u0e1b\u0e32\u0e01\u0e0b\u0e2d\u0e22\u0e1e\u0e31\u0e12\u0e19\u0e32\u0e0a\u0e19\u0e1a\u0e17 3"}}, {"type": "way", "id": 1250152346, "nodes": [3743761425, 11621185204, 11621185205, 11621185206, 11621185207, 11621185208, 3743761425], "tags": {"addr:district": "\u0e25\u0e32\u0e14\u0e01\u0e23\u0e30\u0e1a\u0e31\u0e07", "addr:postcode": "10520", "addr:province": "\u0e01\u0e23\u0e38\u0e07\u0e40\u0e17\u0e1e\u0e21\u0e2b\u0e32\u0e19\u0e04\u0e23", "amenity": "cafe", "building": "yes", "internet_access": "yes", "name": "I-Style Cofe", "name:en": "I-Style Cofe", "name:th": "I-Style Cofe"}}, {"type": "way", "id": 1254688297, "nodes": [11663607196, 11663607218, 11663607219, 11663607220, 11663607221, 11663607222, 11663607223, 11663607224, 11663607225, 11663607226, 11663607227, 11663607228, 11663607229, 11663607230, 11663607231, 11663607199, 11663607196], "tags": {"leisure": "park"}}, {"type": "node", "id": 8824032859, "lat": 13.7269179, "lon": 100.7065806}, {"type": "node", "id": 8824032860, "lat": 13.7268476, "lon": 100.7066135}, {"type": "node", "id": 8824032861, "lat": 13.7267825, "lon": 100.7066712}, {"type": "node", "id": 8824032862, "lat": 13.7266928, "lon": 100.7068861}, {"type": "node", "id": 8824032863, "lat": 13.7268072, "lon": 100.7069555}, {"type": "node", "id": 8824032864, "lat": 13.7268035, "lon": 100.7069732}, {"type": "node", "id": 8824032865, "lat": 13.7267586, "lon": 100.7070448}, {"type": "node", "id": 8824032866, "lat": 13.7267773, "lon": 100.707108}, {"type": "node", "id": 8824032867, "lat": 13.7268012, "lon": 100.7071465}, {"type": "node", "id": 8824032868, "lat": 13.7268544, "lon": 100.707155}, {"type": "node", "id": 8824032869, "lat": 13.7271183, "lon": 100.7071573}, {"type": "node", "id": 8824032870, "lat": 13.7271939, "lon": 100.7071573}, {"type": "node", "id": 8824032871, "lat": 13.7272665, "lon": 100.7071573}, {"type": "node", "id": 8824032872, "lat": 13.7272672, "lon": 100.7071396}, {"type": "node", "id": 8824032873, "lat": 13.7273802, "lon": 100.7071365}, {"type": "node", "id": 8824032874, "lat": 13.7274266, "lon": 100.7071473}, {"type": "node", "id": 8824032875, "lat": 13.727464, "lon": 100.7071634}, {"type": "node", "id": 8824032876, "lat": 13.7274588, "lon": 100.7071072}, {"type": "node", "id": 8824032877, "lat": 13.7275179, "lon": 100.7071064}, {"type": "node", "id": 8824032878, "lat": 13.7276743, "lon": 100.7071041}, {"type": "node", "id": 8824032879, "lat": 13.7276729, "lon": 100.7068518}, {"type": "node", "id": 8824032880, "lat": 13.7276702, "lon": 100.7065901}, {"type": "node", "id": 11621056408, "lat": 13.7322365, "lon": 100.7154597}, {"type": "node", "id": 11621056420, "lat": 13.7322384, "lon": 100.7145428}, {"type": "node", "id": 11621056421, "lat": 13.7322053, "lon": 100.7145485}, {"type": "node", "id": 11621056436, "lat": 13.7325923, "lon": 100.7145337}, {"type": "node", "id": 11621185174, "lat": 13.7325188, "lon": 100.7145356}, {"type": "node", "id": 10055200276, "lat": 13.7420575, "lon": 100.7124701}, {"type": "node", "id": 10055200277, "lat": 13.7417311, "lon": 100.7124768}, {"type": "node", "id": 10055200278, "lat": 13.7417395, "lon": 100.7129149}, {"type": "node", "id": 10055200279, "lat": 13.742066, "lon": 100.7129082}, {"type": "node", "id": 3431296258, "lat": 13.7208027, "lon": 100.7271284}, {"type": "node", "id": 3540775145, "lat": 13.721867, "lon": 100.7274486}, {"type": "node", "id": 3540784701, "lat": 13.7219532, "lon": 100.7275127}, {"type": "node", "id": 3540784704, "lat": 13.7217894, "lon": 100.7275407}, {"type": "node", "id": 3540784705, "lat": 13.7218197, "lon": 100.7274864}, {"type": "node", "id": 3540784706, "lat": 13.7219283, "lon": 100.727563}, {"type": "node", "id": 3540784719, "lat": 13.721816, "lon": 100.7276018}, {"type": "node", "id": 3540784733, "lat": 13.7218799, "lon": 100.727602}, {"type": "node", "id": 3540784743, "lat": 13.7219283, "lon": 100.7274528}, {"type": "node", "id": 3540892793, "lat": 13.7208542, "lon": 100.7271796}, {"type": "node", "id": 3540892794, "lat": 13.7209563, "lon": 100.7270709}, {"type": "node", "id": 3540892818, "lat": 13.7209049, "lon": 100.7270197}, {"type": "node", "id": 5748517085, "lat": 13.7223341, "lon": 100.7266242}, {"type": "node", "id": 5748517086, "lat": 13.7223857, "lon": 100.7278357}, {"type": "node", "id": 5748517087, "lat": 13.723872, "lon": 100.7276304}, {"type": "node", "id": 7940830055, "lat": 13.7231347, "lon": 100.7277907}, {"type": "node", "id": 7940830056, "lat": 13.7231317, "lon": 100.727626}, {"type": "node", "id": 11828794014, "lat": 13.7238582, "lon": 100.7265302}, {"type": "node", "id": 3285462702, "lat": 13.7144486, "lon": 100.7403063}, {"type": "node", "id": 3285462708, "lat": 13.7145158, "lon": 100.7405402}, {"type": "node", "id": 3285462714, "lat": 13.7160081, "lon": 100.7418329}, {"type": "node", "id": 3285462717, "lat": 13.7143683, "lon": 100.7404571}, {"type": "node", "id": 3285462718, "lat": 13.7140069, "lon": 100.7402891}, {"type": "node", "id": 3285462727, "lat": 13.7157777, "lon": 100.7418997}, {"type": "node", "id": 3285462733, "lat": 13.7135739, "lon": 100.7402345}, {"type": "node", "id": 3285462740, "lat": 13.7161932, "lon": 100.7418106}, {"type": "node", "id": 3285462741, "lat": 13.7139335, "lon": 100.7404313}, {"type": "node", "id": 3285462747, "lat": 13.7136473, "lon": 100.7400924}, {"type": "node", "id": 3285462759, "lat": 13.7160125, "lon": 100.7418713}, {"type": "node", "id": 3285463368, "lat": 13.715772, "lon": 100.74185}, {"type": "node", "id": 3285463369, "lat": 13.7155736, "lon": 100.741874}, {"type": "node", "id": 3285463402, "lat": 13.7161729, "lon": 100.7416328}, {"type": "node", "id": 3285463403, "lat": 13.7155546, "lon": 100.7417076}, {"type": "node", "id": 3285463428, "lat": 13.7145961, "lon": 100.7403895}, {"type": "node", "id": 3285467729, "lat": 13.7142166, "lon": 100.7401693}, {"type": "node", "id": 3285467730, "lat": 13.7144146, "lon": 100.7402799}, {"type": "node", "id": 3285467731, "lat": 13.7141364, "lon": 100.7403212}, {"type": "node", "id": 3285467733, "lat": 13.7143344, "lon": 100.7404318}, {"type": "node", "id": 3473146174, "lat": 13.7196108, "lon": 100.7392474}, {"type": "node", "id": 3473146191, "lat": 13.7196714, "lon": 100.7396227}, {"type": "node", "id": 6434919919, "lat": 13.7237768, "lon": 100.7325202}, {"type": "node", "id": 6434919920, "lat": 13.7234655, "lon": 100.7325604}, {"type": "node", "id": 6434919921, "lat": 13.723485, "lon": 100.73272}, {"type": "node", "id": 6434919922, "lat": 13.723502, "lon": 100.732716}, {"type": "node", "id": 6434919923, "lat": 13.7235085, "lon": 100.7327334}, {"type": "node", "id": 6434919924, "lat": 13.7235984, "lon": 100.7327227}, {"type": "node", "id": 6434919925, "lat": 13.7235971, "lon": 100.7326959}, {"type": "node", "id": 6434919926, "lat": 13.723726, "lon": 100.7326731}, {"type": "node", "id": 6434919927, "lat": 13.7237195, "lon": 100.7325752}, {"type": "node", "id": 6434919928, "lat": 13.7237821, "lon": 100.7325671}, {"type": "node", "id": 10123577911, "lat": 13.721955, "lon": 100.7330009}, {"type": "node", "id": 10123577912, "lat": 13.7220456, "lon": 100.7329841}, {"type": "node", "id": 10123623317, "lat": 13.7216272, "lon": 100.7330649}, {"type": "node", "id": 10123623322, "lat": 13.7220812, "lon": 100.7331797}, {"type": "node", "id": 10123623324, "lat": 13.721663, "lon": 100.7332603}, {"type": "node", "id": 2789872230, "lat": 13.7205395, "lon": 100.7371999}, {"type": "node", "id": 3473123995, "lat": 13.7221725, "lon": 100.739556}, {"type": "node", "id": 3473123996, "lat": 13.7219921, "lon": 100.7397315}, {"type": "node", "id": 3473123997, "lat": 13.7222519, "lon": 100.7394696}, {"type": "node", "id": 3473123998, "lat": 13.7215718, "lon": 100.7398067}, {"type": "node", "id": 3473124000, "lat": 13.7222519, "lon": 100.7392012}, {"type": "node", "id": 3473124003, "lat": 13.7219729, "lon": 100.7395927}, {"type": "node", "id": 3473124004, "lat": 13.722275, "lon": 100.7391835}, {"type": "node", "id": 3473124005, "lat": 13.7218035, "lon": 100.7390019}, {"type": "node", "id": 3473124006, "lat": 13.7222404, "lon": 100.738937}, {"type": "node", "id": 3473124007, "lat": 13.721838, "lon": 100.7392484}, {"type": "node", "id": 3473124009, "lat": 13.7214935, "lon": 100.7393195}, {"type": "node", "id": 3473124019, "lat": 13.720558, "lon": 100.7395631}, {"type": "node", "id": 3473146164, "lat": 13.7201741, "lon": 100.739151}, {"type": "node", "id": 3479677486, "lat": 13.7203076, "lon": 100.7393653}, {"type": "node", "id": 3479677487, "lat": 13.7203255, "lon": 100.739493}, {"type": "node", "id": 3479677488, "lat": 13.7204763, "lon": 100.7393402}, {"type": "node", "id": 3479677489, "lat": 13.7204942, "lon": 100.739468}, {"type": "node", "id": 3479677490, "lat": 13.7207449, "lon": 100.7390533}, {"type": "node", "id": 3479677491, "lat": 13.7207711, "lon": 100.7392158}, {"type": "node", "id": 3479677492, "lat": 13.7208055, "lon": 100.7394286}, {"type": "node", "id": 3580068958, "lat": 13.720836, "lon": 100.7395498}, {"type": "node", "id": 3580068959, "lat": 13.7207632, "lon": 100.7395623}, {"type": "node", "id": 3580068980, "lat": 13.7215615, "lon": 100.7384158}, {"type": "node", "id": 3580068985, "lat": 13.7205306, "lon": 100.7376484}, {"type": "node", "id": 3580068992, "lat": 13.7209068, "lon": 100.7399772}, {"type": "node", "id": 3580070894, "lat": 13.7208094, "lon": 100.7399939}, {"type": "node", "id": 3580070896, "lat": 13.7221436, "lon": 100.7386331}, {"type": "node", "id": 3580070904, "lat": 13.7206204, "lon": 100.7399482}, {"type": "node", "id": 3580070931, "lat": 13.7207209, "lon": 100.7376524}, {"type": "node", "id": 3580070932, "lat": 13.7216078, "lon": 100.7387195}, {"type": "node", "id": 3580070935, "lat": 13.7205478, "lon": 100.7394998}, {"type": "node", "id": 3580070938, "lat": 13.7220974, "lon": 100.7383293}, {"type": "node", "id": 3580070948, "lat": 13.7208204, "lon": 100.7394531}, {"type": "node", "id": 3580070958, "lat": 13.7207298, "lon": 100.737204}, {"type": "node", "id": 3580070960, "lat": 13.7208888, "lon": 100.7398662}, {"type": "node", "id": 3580070962, "lat": 13.7208144, "lon": 100.7398789}, {"type": "node", "id": 3580071195, "lat": 13.7207971, "lon": 100.7399179}, {"type": "node", "id": 3743761425, "lat": 13.732365, "lon": 100.7164488}, {"type": "node", "id": 11621056409, "lat": 13.7322644, "lon": 100.7158222}, {"type": "node", "id": 11621056433, "lat": 13.7319105, "lon": 100.7158496}, {"type": "node", "id": 11621056434, "lat": 13.7319227, "lon": 100.7162321}, {"type": "node", "id": 11621056435, "lat": 13.7326839, "lon": 100.7161887}, {"type": "node", "id": 11621185204, "lat": 13.7322617, "lon": 100.7164498}, {"type": "node", "id": 11621185205, "lat": 13.7322629, "lon": 100.7165818}, {"type": "node", "id": 11621185206, "lat": 13.7324363, "lon": 100.7165802}, {"type": "node", "id": 11621185207, "lat": 13.7324358, "lon": 100.7165324}, {"type": "node", "id": 11621185208, "lat": 13.7323657, "lon": 100.716533}, {"type": "node", "id": 7144532679, "lat": 13.7337443, "lon": 100.7375183}, {"type": "node", "id": 7144532680, "lat": 13.7335644, "lon": 100.737517}, {"type": "node", "id": 7144532681, "lat": 13.7335651, "lon": 100.7374151}, {"type": "node", "id": 7144532682, "lat": 13.733745, "lon": 100.7374164}, {"type": "node", "id": 7144532683, "lat": 13.7342465, "lon": 100.7369693}, {"type": "node", "id": 7144532684, "lat": 13.7336767, "lon": 100.7369742}, {"type": "node", "id": 7144534685, "lat": 13.7336792, "lon": 100.737288}, {"type": "node", "id": 7144534686, "lat": 13.7338443, "lon": 100.7372866}, {"type": "node", "id": 7144534687, "lat": 13.7338466, "lon": 100.7375756}, {"type": "node", "id": 7144534688, "lat": 13.7341136, "lon": 100.7375734}, {"type": "node", "id": 7144534689, "lat": 13.7341123, "lon": 100.7374086}, {"type": "node", "id": 7144534690, "lat": 13.7342501, "lon": 100.7374074}, {"type": "node", "id": 11663607196, "lat": 13.7296369, "lon": 100.7444164}, {"type": "node", "id": 11663607199, "lat": 13.7297281, "lon": 100.746404}, {"type": "node", "id": 11663607218, "lat": 13.7298454, "lon": 100.7444164}, {"type": "node", "id": 11663607219, "lat": 13.7298506, "lon": 100.7441482}, {"type": "node", "id": 11663607220, "lat": 13.7298714, "lon": 100.7439605}, {"type": "node", "id": 11663607221, "lat": 13.7299001, "lon": 100.7438532}, {"type": "node", "id": 11663607222, "lat": 13.7300251, "lon": 100.7437378}, {"type": "node", "id": 11663607223, "lat": 13.7301997, "lon": 100.7436896}, {"type": "node", "id": 11663607224, "lat": 13.7303326, "lon": 100.743711}, {"type": "node", "id": 11663607225, "lat": 13.7304186, "lon": 100.7438183}, {"type": "node", "id": 11663607226, "lat": 13.7304655, "lon": 100.7439739}, {"type": "node", "id": 11663607227, "lat": 13.7304941, "lon": 100.7459963}, {"type": "node", "id": 11663607228, "lat": 13.7304577, "lon": 100.7461277}, {"type": "node", "id": 11663607229, "lat": 13.7303613, "lon": 100.7462538}, {"type": "node", "id": 11663607230, "lat": 13.7301919, "lon": 100.7463208}, {"type": "node", "id": 11663607231, "lat": 13.7300538, "lon": 100.7463503}, {"type": "node", "id": 5837586143, "lat": 13.7394654, "lon": 100.7467022}, {"type": "node", "id": 11681978567, "lat": 13.7394624, "lon": 100.7472185}, {"type": "node", "id": 11681978635, "lat": 13.7394648, "lon": 100.746803}, {"type": "node", "id": 5837586144, "lat": 13.7394527, "lon": 100.7488935}, {"type": "node", "id": 5837586142, "lat": 13.7403589, "lon": 100.746722}, {"type": "node", "id": 11653186066, "lat": 13.7403612, "lon": 100.7482907}, {"type": "node", "id": 11653186068, "lat": 13.7403605, "lon": 100.7478455}, {"type": "node", "id": 11653186069, "lat": 13.740361, "lon": 100.7481352}, {"type": "node", "id": 5837586145, "lat": 13.7403621, "lon": 100.7489057}, {"type": "node", "id": 4805856739, "lat": 13.7486125, "lon": 100.7466716}, {"type": "node", "id": 4805856740, "lat": 13.7486206, "lon": 100.7468937}, {"type": "node", "id": 4805856741, "lat": 13.7483143, "lon": 100.7469055}, {"type": "node", "id": 4805856742, "lat": 13.7483069, "lon": 100.746703}, {"type": "node", "id": 4805856743, "lat": 13.7484223, "lon": 100.7466986}, {"type": "node", "id": 4805856744, "lat": 13.7484216, "lon": 100.746679}]}