{"version": 0.6, "generator": "Overpass API 0.7.62.8 e802775f", "osm3s": {"timestamp_osm_base": "2025-11-20T03:20:30Z", "copyright": "The data included in this document is from www.openstreetmap.org. The data is made available under ODbL."}, "elements": [{"type": "node", "id": 3431296255, "lat": 13.6913488, "lon": 100.7527348, "tags": {"amenity": "cafe", "brand": "Starbucks", "brand:wikidata": "Q37158", "brand:wikipedia": "en:Starbucks", "cuisine": "coffee_shop", "indoor_seating": "yes", "name": "Starbucks", "name:en": "Starbucks Coffee", "name:th": "\u0e2a\u0e15\u0e32\u0e23\u0e4c\u0e1a\u0e31\u0e04\u0e2a\u0e4c", "official_name": "Starbucks Coffee", "opening_hours": "24/7", "outdoor_seating": "no", "smoking": "no", "takeaway": "yes", "website": "https://www.starbucks.co.th/"}}, {"type": "node", "id": 3431296256, "lat": 13.6924155, "lon": 100.7506822, "tags": {"amenity": "cafe", "brand": "Starbucks", "brand:wikidata": "Q37158", "brand:wikipedia": "en:Starbucks", "cuisine": "coffee_shop", "indoor_seating": "yes", "name": "Starbucks", "name:en": "Starbucks Coffee", "name:th": "\u0e2a\u0e15\u0e32\u0e23\u0e4c\u0e1a\u0e31\u0e04\u0e2a\u0e4c", "official_name": "Starbucks Coffee", "opening_hours": "24/7", "outdoor_seating": "no", "shop": "coffee", "smoking": "no", "takeaway": "yes", "website": "https://www.starbucks.com/"}}, {"type": "node", "id": 4410787090, "lat": 13.6921998, "lon": 100.7517599, "tags": {"amenity": "restaurant", "cuisine": "thai", "indoor_seating": "yes", "name:en": "Eat tion", "outdoor_seating": "no"}}, {"type": "node", "id": 4410788594, "lat": 13.6922346, "lon": 100.7516184, "tags": {"amenity": "restaurant", "cuisine": "chinese", "indoor_seating": "yes", "name:en": "China Town", "outdoor_seating": "no"}}, {"type": "node", "id": 4410788990, "lat": 13.692148, "lon": 100.7519577, "tags": {"amenity": "cafe", "cuisine": "thai", "indoor_seating": "yes", "name:en": "Tate Cafe", "outdoor_seating": "no"}}, {"type": "node", "id": 4410789190, "lat": 13.6925116, "lon": 100.7503233, "tags": {"amenity": "restaurant", "cuisine": "thai;international", "indoor_seating": "yes", "name:en": "S&P", "outdoor_seating": "no"}}, {"type": "node", "id": 4778502814, "lat": 13.6902704, "lon": 100.7544492, "tags": {"amenity": "cafe", "name": "Caffe Ritazza", "opening_hours": "24/7"}}, {"type": "node", "id": 4778503553, "lat": 13.690161, "lon": 100.7548438, "tags": {"amenity": "cafe", "brand": "Starbucks", "brand:wikidata": "Q37158", "brand:wikipedia": "en:Starbucks", "cuisine": "coffee_shop", "name": "Starbucks", "official_name": "Starbucks Coffee", "opening_hours": "24/7", "takeaway": "yes", "toilets:wheelchair": "yes", "wheelchair": "yes"}}, {"type": "node", "id": 5046245821, "lat": 13.691428, "lon": 100.7546267, "tags": {"amenity": "cafe", "diet:vegetarian": "yes", "name:en": "Bangkok Airways Lounge"}}, {"type": "node", "id": 5289185723, "lat": 13.6917576, "lon": 100.7504815, "tags": {"amenity": "restaurant", "cuisine": "japanese", "indoor_seating": "yes", "name:ja": "\u30de\u30b8\u30c3\u30af\u30d5\u30fc\u30c9\u30dd\u30a4\u30f3\u30c8", "outdoor_seating": "no", "wheelchair": "yes"}}, {"type": "node", "id": 6681622468, "lat": 13.6924817, "lon": 100.7809772, "tags": {"description": "Tour operator and Transportation services in Thailand.", "information": "office", "name": "GoldenThaiAgency Company Limited.", "tourism": "information"}}, {"type": "node", "id": 12645537690, "lat": 13.6857725, "lon": 100.7873847, "tags": {"alt_name": "\u0e27\u0e31\u0e14\u0e2a\u0e38\u0e27\u0e23\u0e23\u0e13\u0e20\u0e39\u0e21\u0e34\u0e1e\u0e38\u0e17\u0e18\u0e0a\u0e22\u0e31\u0e19\u0e15\u0e35 989", "amenity": "place_of_worship", "denomination": "thai_mahanikaya", "name": "\u0e27\u0e31\u0e14\u0e2a\u0e38\u0e27\u0e23\u0e23\u0e13\u0e20\u0e39\u0e21\u0e34\u0e1e\u0e38\u0e17\u0e18\u0e0a\u0e22\u0e31\u0e19\u0e15\u0e35", "name:en": "Watsuvarnabhumi Buddhachayanti", "name:th": "\u0e27\u0e31\u0e14\u0e2a\u0e38\u0e27\u0e23\u0e23\u0e13\u0e20\u0e39\u0e21\u0e34\u0e1e\u0e38\u0e17\u0e18\u0e0a\u0e22\u0e31\u0e19\u0e15\u0e35", "religion": "buddhist", "website": "http://www.watsuvarnabhumi.net", "wikidata": "Q100715932", "wikipedia": "th:\u0e27\u0e31\u0e14\u0e2a\u0e38\u0e27\u0e23\u0e23\u0e13\u0e20\u0e39\u0e21\u0e34\u0e1e\u0e38\u0e17\u0e18\u0e0a\u0e22\u0e31\u0e19\u0e15\u0e35"}}, {"type": "node", "id": 12645537703, "lat": 13.6691621, "lon": 100.7992583, "tags": {"amenity": "place_of_worship", "denomination": "thai_mahanikaya", "name": "\u0e27\u0e31\u0e14\u0e28\u0e23\u0e35\u0e27\u0e32\u0e23\u0e35\u0e19\u0e49\u0e2d\u0e22", "name:en": "Wat Si Wari Noi", "name:th": "\u0e27\u0e31\u0e14\u0e28\u0e23\u0e35\u0e27\u0e32\u0e23\u0e35\u0e19\u0e49\u0e2d\u0e22", "religion": "buddhist", "wikidata": "Q100715929", "wikimedia_commons": "Category:Wat Si Wari Noi", "wikipedia": "th:\u0e27\u0e31\u0e14\u0e28\u0e23\u0e35\u0e27\u0e32\u0e23\u0e35\u0e19\u0e49\u0e2d\u0e22"}}, {"type": "way", "id": 1182947161, "nodes": [10984525696, 10984525697, 10984525687, 10984525698, 10984525696], "tags": {"leisure": "park"}}, {"type": "way", "id": 1263432053, "nodes": [11738568298, 11738568299, 11738568300, 11738568301, 11738568302, 12630760956, 11738568298], "tags": {"alt_name": "\u0e27\u0e31\u0e14\u0e2b\u0e19\u0e2d\u0e07\u0e1b\u0e23\u0e37\u0e2d", "alt_name:th": "\u0e27\u0e31\u0e14\u0e2b\u0e19\u0e2d\u0e07\u0e1b\u0e23\u0e37\u0e2d", "amenity": "place_of_worship", "denomination": "thai_mahanikaya", "name": "\u0e27\u0e31\u0e14\u0e23\u0e32\u0e29\u0e0e\u0e23\u0e4c\u0e19\u0e34\u0e21\u0e34\u0e15\u0e28\u0e23\u0e31\u0e17\u0e18\u0e32\u0e18\u0e23\u0e23\u0e21", "name:en": "Wat Rat Nimit Sattha Tham", "name:th": "\u0e27\u0e31\u0e14\u0e23\u0e32\u0e29\u0e0e\u0e23\u0e4c\u0e19\u0e34\u0e21\u0e34\u0e15\u0e28\u0e23\u0e31\u0e17\u0e18\u0e32\u0e18\u0e23\u0e23\u0e21", "religion": "buddhist", "wikidata": "Q100715933", "wikipedia": "th:\u0e27\u0e31\u0e14\u0e23\u0e32\u0e29\u0e0e\u0e23\u0e4c\u0e19\u0e34\u0e21\u0e34\u0e15\u0e28\u0e23\u0e31\u0e17\u0e18\u0e32\u0e18\u0e23\u0e23\u0e21"}}, {"type": "node", "id": 11738568299, "lat": 13.668456, "lon": 100.7660391}, {"type": "node", "id": 11738568300, "lat": 13.6687167, "lon": 100.766082}, {"type": "node", "id": 11738568301, "lat": 13.670197, "lon": 100.7667365}, {"type": "node", "id": 11738568298, "lat": 13.6676131, "lon": 100.7683946}, {"type": "node", "id": 11738568302, "lat": 13.6691095, "lon": 100.7691139}, {"type": "node", "id": 12630760956, "lat": 13.668335, "lon": 100.7687457}, {"type": "node", "id": 10984525687, "lat": 13.6865792, "lon": 100.7916548}, {"type": "node", "id": 10984525696, "lat": 13.6867567, "lon": 100.7912163}, {"type": "node", "id": 10984525697, "lat": 13.6868766, "lon": 100.7914261}, {"type": "node", "id": 10984525698, "lat": 13.6865263, "lon": 100.7913617}]}