{"version": 0.6, "generator": "Overpass API 0.7.62.8 e802775f", "osm3s": {"timestamp_osm_base": "2025-11-20T03:22:29Z", "copyright": "The data included in this document is from www.openstreetmap.org. The data is made available under ODbL."}, "elements": [{"type": "node", "id": 1099272107, "lat": 13.881174, "lon": 100.4830644, "tags": {"amenity": "restaurant", "name": "\u0e23\u0e30\u0e40\u0e1a\u0e35\u0e22\u0e07\u0e19\u0e49\u0e33"}}, {"type": "node", "id": 4391281189, "lat": 13.8812812, "lon": 100.4983591, "tags": {"amenity": "restaurant", "name": "\u0e01\u0e4b\u0e27\u0e22\u0e40\u0e15\u0e35\u0e4b\u0e22\u0e27\u0e2b\u0e21\u0e39\u0e15\u0e38\u0e4b\u0e19  om1863596", "name:th": "\u0e01\u0e4b\u0e27\u0e22\u0e40\u0e15\u0e35\u0e4b\u0e22\u0e27\u0e2b\u0e21\u0e39\u0e15\u0e38\u0e4b\u0e19  om1863596"}}, {"type": "node", "id": 4391355491, "lat": 13.8749372, "lon": 100.4994989, "tags": {"amenity": "restaurant", "name": "\u0e20\u0e32\u0e01\u0e23 \u0e01\u0e36\u0e48\u0e07\u0e01\u0e25\u0e32\u0e07", "name:th": "\u0e20\u0e32\u0e01\u0e23 \u0e01\u0e36\u0e48\u0e07\u0e01\u0e25\u0e32\u0e07"}}, {"type": "node", "id": 4391369989, "lat": 13.8761573, "lon": 100.499798, "tags": {"name": "\u0e2a\u0e38\u0e14\u0e32 \u0e40\u0e16\u0e37\u0e2d\u0e19\u0e40\u0e21\u0e37\u0e2d\u0e07", "name:th": "\u0e2a\u0e38\u0e14\u0e32 \u0e40\u0e16\u0e37\u0e2d\u0e19\u0e40\u0e21\u0e37\u0e2d\u0e07", "tourism": "hostel"}}, {"type": "node", "id": 4391392291, "lat": 13.8812405, "lon": 100.4973416, "tags": {"amenity": "restaurant", "name": "\u0e23\u0e27\u0e22\u0e2d\u0e34\u0e48\u0e21\u0e14\u0e35", "name:th": "\u0e23\u0e27\u0e22\u0e2d\u0e34\u0e48\u0e21\u0e14\u0e35"}}, {"type": "node", "id": 4391394691, "lat": 13.8791531, "lon": 100.4966205, "tags": {"amenity": "restaurant", "name": "\u0e2a\u0e40\u0e15\u0e01\u0e25\u0e38\u0e07\u0e2d\u0e49\u0e27\u0e19", "name:th": "\u0e2a\u0e40\u0e15\u0e01\u0e25\u0e38\u0e07\u0e2d\u0e49\u0e27\u0e19"}}, {"type": "node", "id": 4391423790, "lat": 13.8756873, "lon": 100.4956115, "tags": {"amenity": "restaurant", "name": "\u0e04\u0e23\u0e31\u0e27\u0e02\u0e21\u0e34\u0e49\u0e19", "name:th": "\u0e04\u0e23\u0e31\u0e27\u0e02\u0e21\u0e34\u0e49\u0e19"}}, {"type": "node", "id": 4421905590, "lat": 13.8829692, "lon": 100.4682847, "tags": {"addr:postcode": "11000", "addr:street": "\u0e44\u0e17\u0e23\u0e21\u0e49\u0e32 \u0e0b\u0e2d\u0e22 3", "name": "\u0e2b\u0e21\u0e39\u0e48\u0e1a\u0e49\u0e32\u0e19\u0e40\u0e1e\u0e2d\u0e23\u0e4c\u0e40\u0e1f\u0e04 \u0e40\u0e1e\u0e25\u0e2a \u0e23\u0e31\u0e15\u0e19\u0e32\u0e18\u0e34\u0e40\u0e1a\u0e28\u0e23\u0e4c", "name:en": "Perfect Place Rattanathibet", "name:th": "\u0e2b\u0e21\u0e39\u0e48\u0e1a\u0e49\u0e32\u0e19\u0e40\u0e1e\u0e2d\u0e23\u0e4c\u0e40\u0e1f\u0e04 \u0e40\u0e1e\u0e25\u0e2a \u0e23\u0e31\u0e15\u0e19\u0e32\u0e18\u0e34\u0e40\u0e1a\u0e28\u0e23\u0e4c", "tourism": "guest_house"}}, {"type": "node", "id": 4483367789, "lat": 13.8848746, "lon": 100.465763, "tags": {"addr:postcode": "11000", "addr:street": "\u0e44\u0e17\u0e23\u0e21\u0e49\u0e32 \u0e0b\u0e2d\u0e22 3", "amenity": "cafe", "name:en": "Route16 coffee cafe"}}, {"type": "node", "id": 5261373032, "lat": 13.8580885, "lon": 100.4952933, "tags": {"amenity": "restaurant", "capacity": "50", "cuisine": "regional;steak_house", "name": "\u0e41\u0e21\u0e48\u0e0a\u0e49\u0e2d\u0e22 \u0e14\u0e2d\u0e22\u0e2b\u0e25\u0e27\u0e07", "outdoor_seating": "yes", "smoking": "outside", "takeaway": "yes"}}, {"type": "node", "id": 5316325123, "lat": 13.8771467, "lon": 100.4596471, "tags": {"addr:postcode": "11000", "addr:street": "\u0e16\u0e19\u0e19\u0e44\u0e17\u0e23\u0e21\u0e49\u0e32-\u0e1a\u0e32\u0e07\u0e23\u0e31\u0e01\u0e19\u0e49\u0e2d\u0e22-\u0e17\u0e48\u0e32\u0e2d\u0e34\u0e10", "amenity": "restaurant", "name:en": "The Brick"}}, {"type": "node", "id": 5321211894, "lat": 13.8811073, "lon": 100.4966502, "tags": {"amenity": "cafe", "name": "Brown Sugar", "smoking": "no"}}, {"type": "node", "id": 5321211917, "lat": 13.8805331, "lon": 100.497119, "tags": {"amenity": "restaurant", "cuisine": "thai", "name": "\u0e04\u0e23\u0e31\u0e27\u0e04\u0e38\u0e13\u0e2d\u0e34\u0e49\u0e19"}}, {"type": "node", "id": 5321211918, "lat": 13.8806794, "lon": 100.4965638, "tags": {"amenity": "cafe", "name": "\u0e1a\u0e32\u0e07\u0e2b\u0e27\u0e32\u0e19"}}, {"type": "node", "id": 5321211919, "lat": 13.8806675, "lon": 100.4966451, "tags": {"amenity": "restaurant", "name": "Brown Spoon"}}, {"type": "node", "id": 5424168321, "lat": 13.8856448, "lon": 100.4502552, "tags": {"amenity": "cafe", "internet_access": "wlan", "name": "\u0e27\u0e35\u0e40\u0e0b\u0e25 \u0e04\u0e2d\u0e1f\u0e1f\u0e35\u0e48", "name:en": "Weasel Coffee"}}, {"type": "node", "id": 5751550623, "lat": 13.8632138, "lon": 100.4748959, "tags": {"amenity": "place_of_worship", "denomination": "thai_mahanikaya", "name": "\u0e27\u0e31\u0e14\u0e44\u0e17\u0e23\u0e21\u0e49\u0e32\u0e40\u0e2b\u0e19\u0e37\u0e2d", "name:en": "Wat Sai Ma Nuea", "name:th": "\u0e27\u0e31\u0e14\u0e44\u0e17\u0e23\u0e21\u0e49\u0e32\u0e40\u0e2b\u0e19\u0e37\u0e2d", "religion": "buddhist", "wikidata": "Q99630922"}}, {"type": "node", "id": 5751576821, "lat": 13.8616706, "lon": 100.4758379, "tags": {"amenity": "place_of_worship", "denomination": "thai_mahanikaya", "name": "\u0e27\u0e31\u0e14\u0e44\u0e17\u0e23\u0e21\u0e49\u0e32\u0e43\u0e15\u0e49", "name:en": "Wat Sai Ma Tai", "name:th": "\u0e27\u0e31\u0e14\u0e44\u0e17\u0e23\u0e21\u0e49\u0e32\u0e43\u0e15\u0e49", "religion": "buddhist", "wikidata": "Q99630924"}}, {"type": "node", "id": 5803153669, "lat": 13.8565991, "lon": 100.4805478, "tags": {"amenity": "restaurant", "name:en": "Thai cuisine by the Chao Phraya River"}}, {"type": "node", "id": 6019307287, "lat": 13.8560146, "lon": 100.4846192, "tags": {"addr:postcode": "11000", "addr:street": "\u0e16\u0e19\u0e19\u0e19\u0e19\u0e17\u0e1a\u0e38\u0e23\u0e35 1 (\u0e17\u0e32\u0e07\u0e02\u0e19\u0e32\u0e19)", "name": "\u0e23\u0e48\u0e21\u0e42\u0e1e\u0e18", "name:en": "RomPho Condominium", "name:th": "\u0e23\u0e48\u0e21\u0e42\u0e1e\u0e18\u0e34\u0e4c \u0e04\u0e2d\u0e19\u0e42\u0e14\u0e21\u0e34\u0e40\u0e19\u0e35\u0e22\u0e21", "tourism": "hostel"}}, {"type": "node", "id": 6435755087, "lat": 13.8801875, "lon": 100.4773216, "tags": {"amenity": "restaurant", "name:en": "Samsen Villa life River"}}, {"type": "node", "id": 6447129986, "lat": 13.8828949, "lon": 100.4553409, "tags": {"amenity": "restaurant", "name": "\u0e0b\u0e49\u0e07\u0e40\u0e15\u0e35\u0e4b\u0e22\u0e27\u0e40\u0e23\u0e37\u0e2d \u0e2a\u0e32\u0e02\u0e321 \u0e23\u0e34\u0e21\u0e2a\u0e27\u0e19\u0e17\u0e48\u0e32\u0e2d\u0e34\u0e10"}}, {"type": "node", "id": 6594375585, "lat": 13.8828655, "lon": 100.455689, "tags": {"amenity": "restaurant", "name": "\u0e1a\u0e32\u0e07\u0e23\u0e31\u0e01\u0e19\u0e49\u0e2d\u0e22 cafe & shabu"}}, {"type": "node", "id": 6597090686, "lat": 13.874626, "lon": 100.492214, "tags": {"name:fr": "h\u00f4tel Rembrandt", "tourism": "hotel"}}, {"type": "node", "id": 6755272685, "lat": 13.8774213, "lon": 100.4746179, "tags": {"amenity": "restaurant", "name:en": "Friend Zone Cafe&Restaurant"}}, {"type": "node", "id": 6862312631, "lat": 13.8660108, "lon": 100.4969232, "tags": {"amenity": "restaurant", "cuisine": "japanese", "name": "Yayoi"}}, {"type": "node", "id": 7066038188, "lat": 13.86546, "lon": 100.4748832, "tags": {"amenity": "cafe", "name": "\u0e21\u0e32\u0e19\u0e35\u0e21\u0e32\u0e42\u0e19\u0e0a"}}, {"type": "node", "id": 7708856922, "lat": 13.8853464, "lon": 100.4915531, "tags": {"addr:city": "\u0e15\u0e33\u0e1a\u0e25\u0e17\u0e48\u0e32\u0e17\u0e23\u0e32\u0e22", "addr:housenumber": "34", "addr:postcode": "11000", "addr:street": "\u0e0b\u0e2d\u0e22\u0e19\u0e19\u0e17\u0e1a\u0e38\u0e23\u0e35 29", "amenity": "cafe", "cuisine": "coffee_shop", "internet_access": "no", "name": "\u0e14\u0e33\u0e1b\u0e31\u0e07", "opening_hours": "Mo-Su 09:00-21:00", "outdoor_seating": "no"}}, {"type": "node", "id": 7749904940, "lat": 13.8819177, "lon": 100.4581697, "tags": {"addr:city": "\u0e15\u0e33\u0e1a\u0e25\u0e1a\u0e32\u0e07\u0e23\u0e31\u0e01\u0e19\u0e49\u0e2d\u0e22", "addr:housenumber": "169/1\u0e45", "addr:postcode": "11000", "addr:street": "\u0e16\u0e19\u0e19\u0e44\u0e17\u0e23\u0e21\u0e49\u0e32-\u0e1a\u0e32\u0e07\u0e23\u0e31\u0e01\u0e19\u0e49\u0e2d\u0e22-\u0e17\u0e48\u0e32\u0e2d\u0e34\u0e10", "air_conditioning": "yes", "amenity": "restaurant", "cuisine": "japanese;sushi", "delivery": "yes", "name": "Sushi Corner \u0e17\u0e48\u0e32\u0e2d\u0e34\u0e10", "opening_hours": "Mo-Su 11:30-20:30", "phone": "+66619904888", "takeaway": "yes"}}, {"type": "node", "id": 8752019017, "lat": 13.8833332, "lon": 100.4932892, "tags": {"amenity": "restaurant", "name": "\u0e02\u0e49\u0e32\u0e27\u0e21\u0e31\u0e19\u0e44\u0e01\u0e48 \u0e13\u0e34\u0e0a\u0e32"}}, {"type": "node", "id": 8752019217, "lat": 13.8841023, "lon": 100.4917933, "tags": {"amenity": "restaurant", "name": "\u0e40\u0e08\u0e49\u0e27\u0e23\u0e23\u0e13 \u0e2d\u0e32\u0e2b\u0e32\u0e23\u0e15\u0e32\u0e21\u0e2a\u0e31\u0e48\u0e07"}}, {"type": "node", "id": 10747962907, "lat": 13.8685543, "lon": 100.4651327, "tags": {"amenity": "cafe", "name:en": "Camel Cactus Coffee Shop"}}, {"type": "node", "id": 10747980805, "lat": 13.8539913, "lon": 100.4676845, "tags": {"name:en": "Durian Shrine", "tourism": "viewpoint"}}, {"type": "node", "id": 11675957870, "lat": 13.8557542, "lon": 100.4722062, "tags": {"name": "\u0e1a\u0e49\u0e32\u0e19 \u0e2d.\u0e40\u0e2d.  129  \u0e19\u0e19\u0e17\u0e1a\u0e38\u0e23\u0e35", "tourism": "attraction"}}, {"type": "node", "id": 12536178999, "lat": 13.8742657, "lon": 100.458184, "tags": {"amenity": "cafe", "cuisine": "coffee_shop", "name": "Ithanin Coffee"}}, {"type": "node", "id": 12896751444, "lat": 13.8836719, "lon": 100.4698383, "tags": {"amenity": "restaurant", "cuisine": "thai", "name": "O-Lakeng Farm | Caf\u00e8 & Restaurant"}}, {"type": "node", "id": 13049956019, "lat": 13.863862, "lon": 100.4975433, "tags": {"amenity": "restaurant", "contact:line": "siriwanbaanhoitod", "delivery": "GrabFood; Line MAN", "name": "\u0e28\u0e34\u0e23\u0e34\u0e27\u0e23\u0e23\u0e13\u0e1a\u0e49\u0e32\u0e19\u0e2b\u0e2d\u0e22\u0e17\u0e2d\u0e14", "opening_hours": "Mo-Su 09:00-20:00", "opening_hours:note": "Except last monday of each month", "parking": "customers", "payment:credit_cards": "yes", "phone": "+66814835000"}}, {"type": "way", "id": 152627226, "nodes": [1654324952, 1654324945, 1654324962, 1654324954, 1654324947, 1654324949, 1654324951, 1654324960, 1654324956, 1654324955, 1654324952], "tags": {"amenity": "place_of_worship", "name": "\u0e27\u0e31\u0e14\u0e15\u0e33\u0e2b\u0e19\u0e31\u0e01\u0e43\u0e15\u0e49", "religion": "buddhist", "source": "Bing", "wikidata": "Q96252489", "wikimedia_commons": "Category:Wat Tamnak Tai, Nonthaburi"}}, {"type": "way", "id": 164588367, "nodes": [1762064819, 1762064818, 1762064840, 1762064829, 1762064823, 1762064827, 1762064816, 1762064821, 1762064824, 1762064812, 1762064813, 1762064825, 1762064844, 1762064817, 1762064815, 1762064826, 1762064846, 1762064828, 1762067672, 1762064822, 3263987927, 1762064830, 305723728, 1762064831, 1762064833, 305723730, 1762064814, 305723731, 1762064842, 1762064819], "tags": {"leisure": "park", "name": "\u0e2d\u0e38\u0e17\u0e22\u0e32\u0e19\u0e40\u0e09\u0e25\u0e34\u0e21\u0e01\u0e32\u0e0d\u0e08\u0e19\u0e32\u0e20\u0e34\u0e40\u0e29\u0e01", "name:en": "Utthayan Chalerm Karnchanapisek", "name:th": "\u0e2d\u0e38\u0e17\u0e22\u0e32\u0e19\u0e40\u0e09\u0e25\u0e34\u0e21\u0e01\u0e32\u0e0d\u0e08\u0e19\u0e32\u0e20\u0e34\u0e40\u0e29\u0e01", "opening_hours": "Mo-Su 05:30-18:30", "tourism": "attraction", "website": "https://thailandtourismdirectory.go.th/th/info/attraction/detail/itemid/2194"}}, {"type": "way", "id": 200002710, "nodes": [2099870984, 2099870957, 2099870964, 2099870977, 2099870988, 2099871002, 2099870984], "tags": {"amenity": "place_of_worship", "denomination": "thai_mahanikaya", "name": "\u0e27\u0e31\u0e14\u0e41\u0e04\u0e19\u0e2d\u0e01", "name:en": "Wat Khae Nok", "name:th": "\u0e27\u0e31\u0e14\u0e41\u0e04\u0e19\u0e2d\u0e01", "religion": "buddhist", "wikidata": "Q96252461"}}, {"type": "way", "id": 200582175, "nodes": [2105504052, 2105504078, 2105504076, 2105504090, 2105504117, 2105504122, 2105504113, 2105504128, 305723821, 2105504189, 2105504174, 2105504108, 2105504094, 2105504083, 2105504064, 2105504074, 2105504027, 2105504037, 2105504088, 2105504099, 2105504052], "tags": {"amenity": "place_of_worship", "name": "\u0e27\u0e31\u0e14\u0e40\u0e0a\u0e34\u0e07\u0e40\u0e25\u0e19", "name:en": "Wat Choeng Len", "religion": "buddhist", "wikidata": "Q99642789"}}, {"type": "way", "id": 376466920, "nodes": [3798784520, 3798784519, 3798784515, 3798784516, 3798784517, 3798784518, 3798784520], "tags": {"amenity": "place_of_worship", "name": "\u0e27\u0e31\u0e14\u0e0a\u0e21\u0e20\u0e39\u0e40\u0e27\u0e01", "name:en": "Wat Chom Phu Wek", "name:th": "\u0e27\u0e31\u0e14\u0e0a\u0e21\u0e20\u0e39\u0e40\u0e27\u0e01", "religion": "buddhist", "wikidata": "Q1631707", "wikimedia_commons": "Category:Wat Chom Phu Wek, Nonthaburi", "wikipedia": "en:Wat Chomphuwek"}}, {"type": "way", "id": 376679543, "nodes": [1848979062, 1848979058, 305724178, 3800771302, 3800771301, 3800771300, 3800771299, 3800771298, 3800771296, 3800771295, 3800771293, 3800771292, 3800771294, 3800771297, 3800771303, 3800771304, 1848979062], "tags": {"amenity": "place_of_worship", "denomination": "theravada", "name": "\u0e1e\u0e38\u0e17\u0e18\u0e2a\u0e16\u0e32\u0e19\u0e40\u0e0a\u0e34\u0e07\u0e17\u0e48\u0e32\u0e2b\u0e19\u0e49\u0e32\u0e42\u0e1a\u0e2a\u0e16\u0e4c", "name:th": "\u0e1e\u0e38\u0e17\u0e18\u0e2a\u0e16\u0e32\u0e19\u0e40\u0e0a\u0e34\u0e07\u0e17\u0e48\u0e32\u0e2b\u0e19\u0e49\u0e32\u0e42\u0e1a\u0e2a\u0e16\u0e4c", "religion": "buddhist", "wikidata": "Q99461847", "wikimedia_commons": "Category:Wat Choeng Tha, Nonthaburi"}}, {"type": "way", "id": 376679548, "nodes": [3800771291, 3800771290, 3800771288, 10783934785, 3800771289, 3800771291], "tags": {"amenity": "place_of_worship", "name": "Wat Daeng Thammasat", "religion": "buddhist"}}, {"type": "way", "id": 377540286, "nodes": [3809197296, 3809197297, 3809197295, 3809197294, 3809197296], "tags": {"amenity": "place_of_worship", "name": "\u0e27\u0e31\u0e14\u0e41\u0e08\u0e49\u0e07\u0e28\u0e34\u0e23\u0e34\u0e2a\u0e31\u0e21\u0e1e\u0e31\u0e19\u0e18\u0e4c", "name:en": "Wat Chaeng Siri Samphan", "name:th": "\u0e27\u0e31\u0e14\u0e41\u0e08\u0e49\u0e07\u0e28\u0e34\u0e23\u0e34\u0e2a\u0e31\u0e21\u0e1e\u0e31\u0e19\u0e18\u0e4c", "religion": "buddhist", "wikidata": "Q99628500"}}, {"type": "way", "id": 377882406, "nodes": [3812895510, 3812895509, 1712828862, 1712827633, 1712827029, 1712826944, 1712827617, 3812895516, 3812895515, 3812895514, 3812895513, 3812895512, 3812895511, 3812895510], "tags": {"amenity": "place_of_worship", "name": "\u0e27\u0e31\u0e14\u0e01\u0e25\u0e32\u0e07\u0e1a\u0e32\u0e07\u0e0b\u0e37\u0e48\u0e2d", "name:en": "Wat Klang Bang Sue", "name:th": "\u0e27\u0e31\u0e14\u0e01\u0e25\u0e32\u0e07\u0e1a\u0e32\u0e07\u0e0b\u0e37\u0e48\u0e2d", "religion": "buddhist", "wikidata": "Q99628499"}}, {"type": "way", "id": 377882408, "nodes": [3812895502, 3812895504, 3812895508, 3812895507, 3812895506, 3812895505, 3812895503, 3812895500, 3812895501, 3812895502], "tags": {"amenity": "place_of_worship", "denomination": "thai_mahanikaya", "name": "\u0e27\u0e31\u0e14\u0e17\u0e49\u0e32\u0e22\u0e40\u0e21\u0e37\u0e2d\u0e07", "name:en": "Wat Tai Mueang", "name:th": "\u0e27\u0e31\u0e14\u0e17\u0e49\u0e32\u0e22\u0e40\u0e21\u0e37\u0e2d\u0e07", "religion": "buddhist", "wikidata": "Q99628271"}}, {"type": "way", "id": 377883789, "nodes": [3812909295, 3812909301, 3812909302, 3812909300, 3812909299, 3812909297, 3812909295], "tags": {"amenity": "place_of_worship", "religion": "buddhist"}}, {"type": "way", "id": 377883790, "nodes": [3812909291, 3812909294, 3812909296, 2105504465, 305723843, 3812909298, 3812909292, 3812909293, 3812909290, 3812909291], "tags": {"amenity": "place_of_worship", "name": "Wat Tha It", "religion": "buddhist", "wikidata": "Q99617427"}}, {"type": "way", "id": 428921557, "nodes": [4280397718, 4280397722, 4280397720, 4280397721, 4280397716, 4280397714, 4280397710, 4280397711, 4280397708, 4280397718], "tags": {"amenity": "place_of_worship", "name": "\u0e27\u0e31\u0e14\u0e1a\u0e32\u0e07\u0e23\u0e31\u0e01\u0e19\u0e49\u0e2d\u0e22", "name:en": "Wat Bang Rak Noi", "name:th": "\u0e27\u0e31\u0e14\u0e1a\u0e32\u0e07\u0e23\u0e31\u0e01\u0e19\u0e49\u0e2d\u0e22", "religion": "buddhist", "wikidata": "Q99630927"}}, {"type": "way", "id": 700619118, "nodes": [6579497485, 6579497486, 6579497487, 6579497488, 6579497489, 6579497490, 6579497485], "tags": {"amenity": "place_of_worship", "denomination": "thai_mahanikaya", "name": "\u0e27\u0e31\u0e14\u0e02\u0e27\u0e31\u0e0d\u0e40\u0e21\u0e37\u0e2d\u0e07", "name:en": "Wat Khwan Mueang", "name:th": "\u0e27\u0e31\u0e14\u0e02\u0e27\u0e31\u0e0d\u0e40\u0e21\u0e37\u0e2d\u0e07", "religion": "buddhist", "wikidata": "Q99630931"}}, {"type": "way", "id": 750743232, "nodes": [7019462023, 7019462025, 7019462026, 7019462027, 7019462024, 7019462023], "tags": {"amenity": "place_of_worship", "denomination": "thai_mahanikaya", "name": "\u0e27\u0e31\u0e14\u0e2a\u0e21\u0e23\u0e42\u0e01\u0e0f\u0e34", "name:en": "Wat Samon Kot", "name:th": "\u0e27\u0e31\u0e14\u0e2a\u0e21\u0e23\u0e42\u0e01\u0e0f\u0e34", "religion": "buddhist", "wikidata": "Q58632357", "wikimedia_commons": "Category:Wat Samorakot, Nonthaburi"}}, {"type": "way", "id": 750944120, "nodes": [7020771429, 7020771430, 7020771431, 7020771432, 7020771433, 7020771434, 7020771429], "tags": {"amenity": "place_of_worship", "denomination": "thai_mahanikaya", "name": "\u0e27\u0e31\u0e14\u0e1a\u0e32\u0e07\u0e41\u0e1e\u0e23\u0e01\u0e40\u0e2b\u0e19\u0e37\u0e2d", "name:en": "Wat Bang Phreak Naue", "name:th": "\u0e27\u0e31\u0e14\u0e1a\u0e32\u0e07\u0e41\u0e1e\u0e23\u0e01\u0e40\u0e2b\u0e19\u0e37\u0e2d", "religion": "buddhist", "wikidata": "Q99628273", "wikimedia_commons": "Category:Wat Bang Phraek Nuea"}}, {"type": "way", "id": 779235826, "nodes": [7276010745, 7276010746, 7276010747, 7276010748, 7276010749, 7276010750, 7276010751, 7276010752, 7276010753, 7276010754, 7276010755, 7276010756, 7276010757, 7276010758, 7276010759, 7276010760, 7276010761, 7276010762, 7276010763, 7276010745], "tags": {"amenity": "place_of_worship", "denomination": "thai_mahanikaya", "fixme": "estimated area from aerial image.", "name": "\u0e27\u0e31\u0e14\u0e19\u0e49\u0e2d\u0e22\u0e19\u0e2d\u0e01", "name:en": "Wat Noi Nok", "name:th": "\u0e27\u0e31\u0e14\u0e19\u0e49\u0e2d\u0e22\u0e19\u0e2d\u0e01", "religion": "buddhist", "wikidata": "Q99628502"}}, {"type": "way", "id": 828070347, "nodes": [7730554405, 7730554406, 7730554407, 7730554408, 7730554409, 7730554410, 7730554411, 7730554412, 7730554405], "tags": {"leisure": "park"}}, {"type": "way", "id": 1364029936, "nodes": [6815048686, 12630303177, 12630303178, 12630303179, 12630303180, 12630303181, 12630303182, 12630303183, 12630303184, 12630303185, 12630303186, 12630303187, 12630303188, 12630303189, 12630303190, 12630303191, 12630303192, 12630303193, 6815048686], "tags": {"amenity": "marketplace", "name": "\u0e15\u0e25\u0e32\u0e14\u0e19\u0e01\u0e2e\u0e39\u0e01", "name:en": "The Owl Market", "name:th": "\u0e15\u0e25\u0e32\u0e14\u0e19\u0e01\u0e2e\u0e39\u0e01", "name:th-Latn": "Talad Nokhook", "opening_hours": "Mo-Su 17:00-00:00", "tourism": "attraction"}}, {"type": "way", "id": 1420659005, "nodes": [13051927737, 13055490640, 13055490641, 13055490642, 13055490643, 13055490644, 13055490645, 13055490646, 13055490647, 13055490648, 13051927737], "tags": {"addr:district": "\u0e40\u0e21\u0e37\u0e2d\u0e07\u0e19\u0e19\u0e17\u0e1a\u0e38\u0e23\u0e35", "addr:housenumber": "121/10", "addr:place": "3", "addr:postcode": "11000", "addr:province": "\u0e19\u0e19\u0e17\u0e1a\u0e38\u0e23\u0e35", "addr:street": "\u0e16\u0e19\u0e19\u0e23\u0e31\u0e15\u0e19\u0e32\u0e18\u0e34\u0e40\u0e1a\u0e28\u0e23\u0e4c", "addr:subdistrict": "\u0e44\u0e17\u0e23\u0e21\u0e49\u0e32", "amenity": "restaurant", "building": "yes", "contact:facebook": "\u0e42\u0e04\u0e15\u0e23\u0e22\u0e33\u0e04\u0e32\u0e40\u0e1f\u0e48 \u0e23\u0e31\u0e15\u0e19\u0e32\u0e18\u0e34\u0e40\u0e1a\u0e28\u0e23\u0e4c", "cuisine": "thai", "diet:seafood": "yes", "name": "\u0e42\u0e04\u0e15\u0e23\u0e22\u0e33\u0e04\u0e32\u0e40\u0e1f\u0e48 \u0e23\u0e31\u0e15\u0e19\u0e32\u0e18\u0e34\u0e40\u0e1a\u0e28\u0e23\u0e4c", "opening_hours": "Mo-Su 11:00-22:00", "phone": "+66919356655"}}, {"type": "node", "id": 6579497487, "lat": 13.8499673, "lon": 100.4561863}, {"type": "node", "id": 6579497488, "lat": 13.8501652, "lon": 100.4558645}, {"type": "node", "id": 6579497489, "lat": 13.8508006, "lon": 100.4562078}, {"type": "node", "id": 6579497485, "lat": 13.8519986, "lon": 100.4556177}, {"type": "node", "id": 6579497486, "lat": 13.8511444, "lon": 100.4569964}, {"type": "node", "id": 6579497490, "lat": 13.8514465, "lon": 100.4551939}, {"type": "node", "id": 1762064816, "lat": 13.8496484, "lon": 100.4790903}, {"type": "node", "id": 1762064821, "lat": 13.8489765, "lon": 100.4791118}, {"type": "node", "id": 1762064823, "lat": 13.8508984, "lon": 100.4792298}, {"type": "node", "id": 1762064824, "lat": 13.8488617, "lon": 100.4793728}, {"type": "node", "id": 1762064827, "lat": 13.8499244, "lon": 100.4791815}, {"type": "node", "id": 1762064818, "lat": 13.8521065, "lon": 100.479439}, {"type": "node", "id": 1762064819, "lat": 13.8524086, "lon": 100.4796211}, {"type": "node", "id": 1762064829, "lat": 13.8511172, "lon": 100.479262}, {"type": "node", "id": 1762064840, "lat": 13.8517419, "lon": 100.4793532}, {"type": "node", "id": 1762064842, "lat": 13.8522576, "lon": 100.4797928}, {"type": "node", "id": 305723728, "lat": 13.850107, "lon": 100.483118}, {"type": "node", "id": 1762064812, "lat": 13.8488671, "lon": 100.4798679}, {"type": "node", "id": 1762064813, "lat": 13.8488203, "lon": 100.4799216}, {"type": "node", "id": 1762064815, "lat": 13.8483619, "lon": 100.4809301}, {"type": "node", "id": 1762064817, "lat": 13.8484348, "lon": 100.4806618}, {"type": "node", "id": 1762064822, "lat": 13.8491656, "lon": 100.4840023}, {"type": "node", "id": 1762064825, "lat": 13.848513, "lon": 100.4799055}, {"type": "node", "id": 1762064826, "lat": 13.8483616, "lon": 100.4821194}, {"type": "node", "id": 1762064828, "lat": 13.8482739, "lon": 100.4834293}, {"type": "node", "id": 1762064830, "lat": 13.8496505, "lon": 100.4842611}, {"type": "node", "id": 1762064831, "lat": 13.8503372, "lon": 100.4825752}, {"type": "node", "id": 1762064833, "lat": 13.850987, "lon": 100.4815845}, {"type": "node", "id": 1762064844, "lat": 13.8484505, "lon": 100.4800181}, {"type": "node", "id": 1762064846, "lat": 13.8482838, "lon": 100.4821317}, {"type": "node", "id": 1762067672, "lat": 13.8494036, "lon": 100.4834782}, {"type": "node", "id": 3263987927, "lat": 13.849296, "lon": 100.4840719}, {"type": "node", "id": 305723730, "lat": 13.8512005, "lon": 100.4811876}, {"type": "node", "id": 305723731, "lat": 13.8518305, "lon": 100.480399}, {"type": "node", "id": 1762064814, "lat": 13.8516199, "lon": 100.4806672}, {"type": "node", "id": 7020771430, "lat": 13.8506432, "lon": 100.4946557}, {"type": "node", "id": 7020771431, "lat": 13.8506846, "lon": 100.4944855}, {"type": "node", "id": 7020771432, "lat": 13.8502348, "lon": 100.4943693}, {"type": "node", "id": 7020771433, "lat": 13.8503477, "lon": 100.4939054}, {"type": "node", "id": 7020771429, "lat": 13.8524549, "lon": 100.495123}, {"type": "node", "id": 7020771434, "lat": 13.8526091, "lon": 100.4944892}, {"type": "node", "id": 4280397708, "lat": 13.8623401, "lon": 100.4534927}, {"type": "node", "id": 4280397710, "lat": 13.8627279, "lon": 100.4530769}, {"type": "node", "id": 4280397711, "lat": 13.8627958, "lon": 100.4531592}, {"type": "node", "id": 4280397714, "lat": 13.8629597, "lon": 100.4528834}, {"type": "node", "id": 4280397716, "lat": 13.8631436, "lon": 100.4529781}, {"type": "node", "id": 4280397721, "lat": 13.8635473, "lon": 100.4534763}, {"type": "node", "id": 3812909301, "lat": 13.9010581, "lon": 100.453387}, {"type": "node", "id": 4280397718, "lat": 13.8632115, "lon": 100.454732}, {"type": "node", "id": 4280397720, "lat": 13.8633314, "lon": 100.4539497}, {"type": "node", "id": 4280397722, "lat": 13.8635832, "lon": 100.4542709}, {"type": "node", "id": 3809197294, "lat": 13.8681222, "lon": 100.4797493}, {"type": "node", "id": 3809197296, "lat": 13.8686685, "lon": 100.4796868}, {"type": "node", "id": 13051927737, "lat": 13.87197, "lon": 100.4655802}, {"type": "node", "id": 13055490640, "lat": 13.8716367, "lon": 100.4654297}, {"type": "node", "id": 13055490641, "lat": 13.8715889, "lon": 100.4655405}, {"type": "node", "id": 13055490642, "lat": 13.871796, "lon": 100.4656294}, {"type": "node", "id": 13055490643, "lat": 13.8717827, "lon": 100.4656554}, {"type": "node", "id": 13055490644, "lat": 13.8719355, "lon": 100.4657184}, {"type": "node", "id": 13055490645, "lat": 13.8719248, "lon": 100.4657539}, {"type": "node", "id": 13055490646, "lat": 13.8719859, "lon": 100.4657785}, {"type": "node", "id": 13055490647, "lat": 13.8720377, "lon": 100.4656117}, {"type": "node", "id": 13055490648, "lat": 13.8719634, "lon": 100.4655925}, {"type": "node", "id": 7276010748, "lat": 13.8719812, "lon": 100.4797372}, {"type": "node", "id": 7276010749, "lat": 13.8718396, "lon": 100.479725}, {"type": "node", "id": 7276010750, "lat": 13.871811, "lon": 100.4797013}, {"type": "node", "id": 7276010751, "lat": 13.8716195, "lon": 100.4797004}, {"type": "node", "id": 7276010752, "lat": 13.8716205, "lon": 100.4796193}, {"type": "node", "id": 7276010753, "lat": 13.8714831, "lon": 100.4796152}, {"type": "node", "id": 7276010754, "lat": 13.8714779, "lon": 100.4796583}, {"type": "node", "id": 7276010755, "lat": 13.8714072, "lon": 100.4796637}, {"type": "node", "id": 7276010756, "lat": 13.8714125, "lon": 100.4791948}, {"type": "node", "id": 7276010757, "lat": 13.8712529, "lon": 100.479176}, {"type": "node", "id": 7276010758, "lat": 13.8710865, "lon": 100.479765}, {"type": "node", "id": 1712826944, "lat": 13.8607264, "lon": 100.4818476}, {"type": "node", "id": 1712827029, "lat": 13.8606874, "lon": 100.4815713}, {"type": "node", "id": 1712827617, "lat": 13.8607447, "lon": 100.4821104}, {"type": "node", "id": 1712827633, "lat": 13.8606952, "lon": 100.4813084}, {"type": "node", "id": 1712828862, "lat": 13.8607316, "lon": 100.4804474}, {"type": "node", "id": 3812895500, "lat": 13.8576691, "lon": 100.4812125}, {"type": "node", "id": 3812895501, "lat": 13.8577179, "lon": 100.4808542}, {"type": "node", "id": 3812895502, "lat": 13.8577172, "lon": 100.4807132}, {"type": "node", "id": 3812895503, "lat": 13.8581436, "lon": 100.4812992}, {"type": "node", "id": 3812895504, "lat": 13.8583632, "lon": 100.480564}, {"type": "node", "id": 3812895505, "lat": 13.8584069, "lon": 100.4813427}, {"type": "node", "id": 3812895506, "lat": 13.858431, "lon": 100.4812226}, {"type": "node", "id": 3812895507, "lat": 13.8584973, "lon": 100.480821}, {"type": "node", "id": 3812895508, "lat": 13.8585152, "lon": 100.480551}, {"type": "node", "id": 3812895509, "lat": 13.8607061, "lon": 100.4803657}, {"type": "node", "id": 3812895510, "lat": 13.8612988, "lon": 100.4803489}, {"type": "node", "id": 3812895511, "lat": 13.8613183, "lon": 100.4804823}, {"type": "node", "id": 3812895512, "lat": 13.8613442, "lon": 100.4810191}, {"type": "node", "id": 3812895513, "lat": 13.8614607, "lon": 100.4810457}, {"type": "node", "id": 3812895514, "lat": 13.8614737, "lon": 100.4812058}, {"type": "node", "id": 3812895515, "lat": 13.8618233, "lon": 100.4812691}, {"type": "node", "id": 3812895516, "lat": 13.8619171, "lon": 100.4820727}, {"type": "node", "id": 7730554405, "lat": 13.862623, "lon": 100.4856366}, {"type": "node", "id": 7730554406, "lat": 13.8624801, "lon": 100.48565}, {"type": "node", "id": 7730554407, "lat": 13.8624706, "lon": 100.4857893}, {"type": "node", "id": 7730554408, "lat": 13.8625816, "lon": 100.485791}, {"type": "node", "id": 7730554409, "lat": 13.8626123, "lon": 100.4857771}, {"type": "node", "id": 7730554410, "lat": 13.8626199, "lon": 100.4857475}, {"type": "node", "id": 7730554411, "lat": 13.8626199, "lon": 100.4856926}, {"type": "node", "id": 7730554412, "lat": 13.8626199, "lon": 100.4856472}, {"type": "node", "id": 3809197295, "lat": 13.868242, "lon": 100.4808598}, {"type": "node", "id": 3809197297, "lat": 13.8687883, "lon": 100.4807972}, {"type": "node", "id": 12630303184, "lat": 13.8696728, "lon": 100.4928129}, {"type": "node", "id": 12630303185, "lat": 13.8697377, "lon": 100.4926358}, {"type": "node", "id": 12630303186, "lat": 13.8694817, "lon": 100.4925728}, {"type": "node", "id": 12630303189, "lat": 13.8693595, "lon": 100.4924233}, {"type": "node", "id": 12630303190, "lat": 13.868535, "lon": 100.4921316}, {"type": "node", "id": 7019462023, "lat": 13.8610121, "lon": 100.4981208}, {"type": "node", "id": 7019462024, "lat": 13.8608246, "lon": 100.4990649}, {"type": "node", "id": 7019462025, "lat": 13.8603142, "lon": 100.4979867}, {"type": "node", "id": 7019462026, "lat": 13.859309, "lon": 100.4978311}, {"type": "node", "id": 7019462027, "lat": 13.8592413, "lon": 100.4986733}, {"type": "node", "id": 6815048686, "lat": 13.8684262, "lon": 100.4952852}, {"type": "node", "id": 12630303177, "lat": 13.8694456, "lon": 100.4957288}, {"type": "node", "id": 12630303178, "lat": 13.8697701, "lon": 100.4958353}, {"type": "node", "id": 12630303179, "lat": 13.8703796, "lon": 100.4958037}, {"type": "node", "id": 12630303180, "lat": 13.8703949, "lon": 100.4951623}, {"type": "node", "id": 12630303187, "lat": 13.8692678, "lon": 100.4931316}, {"type": "node", "id": 12630303188, "lat": 13.8691264, "lon": 100.4930726}, {"type": "node", "id": 12630303191, "lat": 13.8682126, "lon": 100.4933223}, {"type": "node", "id": 12630303192, "lat": 13.8682445, "lon": 100.4936902}, {"type": "node", "id": 12630303193, "lat": 13.8679221, "lon": 100.4950216}, {"type": "node", "id": 7276010745, "lat": 13.8720962, "lon": 100.4802215}, {"type": "node", "id": 7276010746, "lat": 13.8721025, "lon": 100.4800047}, {"type": "node", "id": 7276010747, "lat": 13.8720685, "lon": 100.4798606}, {"type": "node", "id": 7276010759, "lat": 13.871073, "lon": 100.4799464}, {"type": "node", "id": 7276010760, "lat": 13.8712247, "lon": 100.4800886}, {"type": "node", "id": 7276010761, "lat": 13.8716932, "lon": 100.4800607}, {"type": "node", "id": 7276010762, "lat": 13.8717094, "lon": 100.4802839}, {"type": "node", "id": 7276010763, "lat": 13.8720812, "lon": 100.4803387}, {"type": "node", "id": 2099870957, "lat": 13.8787337, "lon": 100.4830124}, {"type": "node", "id": 2099870964, "lat": 13.8789086, "lon": 100.4824765}, {"type": "node", "id": 2099870977, "lat": 13.8793596, "lon": 100.481793}, {"type": "node", "id": 2099870984, "lat": 13.879447, "lon": 100.4834148}, {"type": "node", "id": 2099870988, "lat": 13.8796024, "lon": 100.4814901}, {"type": "node", "id": 2099871002, "lat": 13.8804514, "lon": 100.4821736}, {"type": "node", "id": 12630303181, "lat": 13.8708686, "lon": 100.4942572}, {"type": "node", "id": 12630303182, "lat": 13.8712889, "lon": 100.4942926}, {"type": "node", "id": 12630303183, "lat": 13.8714837, "lon": 100.4934622}, {"type": "node", "id": 3812909295, "lat": 13.8996751, "lon": 100.4540353}, {"type": "node", "id": 3812909297, "lat": 13.8999522, "lon": 100.4546948}, {"type": "node", "id": 3812909299, "lat": 13.9002484, "lon": 100.4545975}, {"type": "node", "id": 3812909300, "lat": 13.9009128, "lon": 100.4543152}, {"type": "node", "id": 3812909302, "lat": 13.9013364, "lon": 100.4540714}, {"type": "node", "id": 3800771288, "lat": 13.8862699, "lon": 100.4830622}, {"type": "node", "id": 3800771289, "lat": 13.886906, "lon": 100.4813993}, {"type": "node", "id": 3800771290, "lat": 13.886906, "lon": 100.4823133}, {"type": "node", "id": 3800771291, "lat": 13.8873794, "lon": 100.4817352}, {"type": "node", "id": 10783934785, "lat": 13.8858507, "lon": 100.4826278}, {"type": "node", "id": 1654324945, "lat": 13.8869118, "lon": 100.4895053}, {"type": "node", "id": 1654324947, "lat": 13.8859484, "lon": 100.4887837}, {"type": "node", "id": 1654324949, "lat": 13.885925, "lon": 100.4890037}, {"type": "node", "id": 1654324951, "lat": 13.8858139, "lon": 100.4893982}, {"type": "node", "id": 1654324952, "lat": 13.8865603, "lon": 100.4906828}, {"type": "node", "id": 1654324954, "lat": 13.8862296, "lon": 100.4880354}, {"type": "node", "id": 1654324955, "lat": 13.8864987, "lon": 100.4906964}, {"type": "node", "id": 1654324956, "lat": 13.8856516, "lon": 100.4904199}, {"type": "node", "id": 1654324960, "lat": 13.8857453, "lon": 100.4897091}, {"type": "node", "id": 1654324962, "lat": 13.8871982, "lon": 100.4887435}, {"type": "node", "id": 2105504064, "lat": 13.89654, "lon": 100.4862349}, {"type": "node", "id": 2105504083, "lat": 13.8966392, "lon": 100.4862094}, {"type": "node", "id": 2105504094, "lat": 13.8967083, "lon": 100.4862806}, {"type": "node", "id": 2105504108, "lat": 13.8968466, "lon": 100.4861546}, {"type": "node", "id": 305724178, "lat": 13.8937322, "lon": 100.4917487}, {"type": "node", "id": 1848979058, "lat": 13.894207, "lon": 100.4918649}, {"type": "node", "id": 1848979062, "lat": 13.8943013, "lon": 100.4920422}, {"type": "node", "id": 2105504027, "lat": 13.8962954, "lon": 100.4864942}, {"type": "node", "id": 2105504037, "lat": 13.8963787, "lon": 100.4868228}, {"type": "node", "id": 2105504052, "lat": 13.8964712, "lon": 100.4871651}, {"type": "node", "id": 2105504074, "lat": 13.8965789, "lon": 100.4864175}, {"type": "node", "id": 2105504076, "lat": 13.8965846, "lon": 100.4878862}, {"type": "node", "id": 2105504078, "lat": 13.8966005, "lon": 100.4877365}, {"type": "node", "id": 2105504088, "lat": 13.8966676, "lon": 100.4867406}, {"type": "node", "id": 2105504090, "lat": 13.8966785, "lon": 100.4883536}, {"type": "node", "id": 2105504099, "lat": 13.8967597, "lon": 100.4870875}, {"type": "node", "id": 2105504113, "lat": 13.8968778, "lon": 100.48886}, {"type": "node", "id": 2105504117, "lat": 13.8968871, "lon": 100.4887808}, {"type": "node", "id": 2105504122, "lat": 13.8969109, "lon": 100.488835}, {"type": "node", "id": 3800771292, "lat": 13.8929598, "lon": 100.4924929}, {"type": "node", "id": 3800771293, "lat": 13.8929857, "lon": 100.4922769}, {"type": "node", "id": 3800771294, "lat": 13.893014, "lon": 100.4927355}, {"type": "node", "id": 3800771295, "lat": 13.8930681, "lon": 100.4922769}, {"type": "node", "id": 3800771296, "lat": 13.8934238, "lon": 100.4923861}, {"type": "node", "id": 3800771297, "lat": 13.8934968, "lon": 100.4927258}, {"type": "node", "id": 3800771298, "lat": 13.8935369, "lon": 100.4922818}, {"type": "node", "id": 3800771299, "lat": 13.8935793, "lon": 100.4922308}, {"type": "node", "id": 3800771300, "lat": 13.8935958, "lon": 100.4921386}, {"type": "node", "id": 3800771301, "lat": 13.893657, "lon": 100.4919615}, {"type": "node", "id": 3800771302, "lat": 13.89369, "lon": 100.491879}, {"type": "node", "id": 3800771303, "lat": 13.8940574, "lon": 100.492687}, {"type": "node", "id": 3800771304, "lat": 13.8943236, "lon": 100.4926385}, {"type": "node", "id": 3798784515, "lat": 13.886222, "lon": 100.4970053}, {"type": "node", "id": 3798784516, "lat": 13.8865511, "lon": 100.4954385}, {"type": "node", "id": 3798784517, "lat": 13.8873621, "lon": 100.4955026}, {"type": "node", "id": 3798784518, "lat": 13.8873983, "lon": 100.4953078}, {"type": "node", "id": 3798784519, "lat": 13.8876367, "lon": 100.4969893}, {"type": "node", "id": 3798784520, "lat": 13.8881394, "lon": 100.4954492}, {"type": "node", "id": 305723843, "lat": 13.9001521, "lon": 100.4805315}, {"type": "node", "id": 2105504465, "lat": 13.9000728, "lon": 100.4805416}, {"type": "node", "id": 3812909290, "lat": 13.8985714, "lon": 100.4804886}, {"type": "node", "id": 3812909291, "lat": 13.8988514, "lon": 100.4799685}, {"type": "node", "id": 3812909292, "lat": 13.8989432, "lon": 100.4810607}, {"type": "node", "id": 3812909293, "lat": 13.8990717, "lon": 100.480829}, {"type": "node", "id": 3812909294, "lat": 13.8996363, "lon": 100.4804224}, {"type": "node", "id": 3812909296, "lat": 13.8997281, "lon": 100.4803846}, {"type": "node", "id": 3812909298, "lat": 13.9000082, "lon": 100.4818026}, {"type": "node", "id": 305723821, "lat": 13.8978202, "lon": 100.4884672}, {"type": "node", "id": 2105504128, "lat": 13.896962, "lon": 100.4889979}, {"type": "node", "id": 2105504174, "lat": 13.8974036, "lon": 100.4879155}, {"type": "node", "id": 2105504189, "lat": 13.897501, "lon": 100.4881145}]}