{"version": 0.6, "generator": "Overpass API 0.7.62.8 e802775f", "osm3s": {"timestamp_osm_base": "2025-11-20T03:18:22Z", "copyright": "The data included in this document is from www.openstreetmap.org. The data is made available under ODbL."}, "elements": [{"type": "node", "id": 304195460, "lat": 13.5727787, "lon": 100.5992262, "tags": {"name:en": "Holy Monkey Palace", "tourism": "attraction"}}, {"type": "node", "id": 1669111734, "lat": 13.573509, "lon": 100.5955089, "tags": {"amenity": "place_of_worship", "religion": "buddhist"}}, {"type": "node", "id": 1669113249, "lat": 13.5963972, "lon": 100.5979322, "tags": {"amenity": "place_of_worship", "name": "\u0e27\u0e31\u0e14\u0e1e\u0e34\u0e0a\u0e31\u0e22\u0e2a\u0e07\u0e04\u0e23\u0e32\u0e21", "religion": "buddhist", "wikidata": "Q99198731", "wikimedia_commons": "Category:Wat Phichai Songkhram, Samut Prakan"}}, {"type": "node", "id": 3667974665, "lat": 13.5945714, "lon": 100.5962378, "tags": {"amenity": "marketplace", "name": "\u0e15\u0e25\u0e32\u0e14\u0e2a\u0e14\u0e2a\u0e21\u0e38\u0e17\u0e23\u0e1b\u0e23\u0e32\u0e01\u0e32\u0e23"}}, {"type": "node", "id": 3667982115, "lat": 13.5754908, "lon": 100.5739135, "tags": {"addr:postcode": "10290", "amenity": "restaurant", "name": "\u0e23\u0e49\u0e32\u0e19\u0e40\u0e2b\u0e25\u0e32\u0e42\u0e20\u0e0a\u0e19\u0e32"}}, {"type": "node", "id": 3667986896, "lat": 13.5814996, "lon": 100.5779217, "tags": {"amenity": "place_of_worship", "denomination": "thai_mahanikaya", "name": "\u0e27\u0e31\u0e14\u0e44\u0e15\u0e23\u0e21\u0e34\u0e15\u0e23\u0e27\u0e23\u0e32\u0e23\u0e32\u0e21", "name:en": "Wat Traimit Wararam", "name:th": "\u0e27\u0e31\u0e14\u0e44\u0e15\u0e23\u0e21\u0e34\u0e15\u0e23\u0e27\u0e23\u0e32\u0e23\u0e32\u0e21", "religion": "buddhist", "wikidata": "Q64685226", "wikipedia": "th:\u0e27\u0e31\u0e14\u0e44\u0e15\u0e23\u0e21\u0e34\u0e15\u0e23\u0e27\u0e23\u0e32\u0e23\u0e32\u0e21"}}, {"type": "node", "id": 3667989841, "lat": 13.5936574, "lon": 100.5800726, "tags": {"addr:postcode": "10290", "amenity": "restaurant", "capacity": "100", "cuisine": "thai", "name": "\u0e23\u0e49\u0e32\u0e19\u0e42\u0e08\u0e4a\u0e01\u0e08\u0e30\u0e23\u0e27\u0e21\u0e43\u0e08 \u0e2a\u0e32\u0e21\u0e41\u0e22\u0e01\u0e40\u0e08\u0e14\u0e35\u0e22\u0e4c", "opening_hours": "15:30-07:00", "smoking": "isolated", "takeaway": "yes"}}, {"type": "node", "id": 3752927040, "lat": 13.5680893, "lon": 100.566689, "tags": {"leisure": "park", "name": "\u0e2a\u0e19\u0e32\u0e21\u0e01\u0e35\u0e2c\u0e32 \u0e2d\u0e33\u0e40\u0e20\u0e2d\u0e1e\u0e23\u0e30\u0e2a\u0e21\u0e38\u0e17\u0e23\u0e40\u0e08\u0e14\u0e35\u0e22\u0e4c"}}, {"type": "node", "id": 4104680089, "lat": 13.5898607, "lon": 100.5657114, "tags": {"addr:housenumber": "\u0e1a\u0e49\u0e32\u0e19", "addr:street": "\u0e0b\u0e2d\u0e22\u0e2b\u0e21\u0e39\u0e48\u0e1a\u0e49\u0e32\u0e19\u0e23\u0e48\u0e21\u0e40\u0e22\u0e47\u0e19\u0e19\u0e34\u0e40\u0e27\u0e28\u0e19\u0e4c", "name": "\u0e2b\u0e21\u0e39\u0e48\u0e1a\u0e49\u0e32\u0e19\u0e1e\u0e24\u0e29\u0e3256 \u0e2a\u0e38\u0e02\u0e2a\u0e27\u0e31\u0e2a\u0e02\u0e4c", "tourism": "hostel"}}, {"type": "node", "id": 4126724289, "lat": 13.5898344, "lon": 100.5660086, "tags": {"addr:housenumber": "189/70", "addr:street": "\u0e0b\u0e2d\u0e22\u0e2b\u0e21\u0e39\u0e48\u0e1a\u0e49\u0e32\u0e19\u0e23\u0e48\u0e21\u0e40\u0e22\u0e47\u0e19\u0e19\u0e34\u0e40\u0e27\u0e28\u0e19\u0e4c", "name": "\u0e2b\u0e21\u0e39\u0e48\u0e1a\u0e49\u0e32\u0e19\u0e1e\u0e24\u0e29\u0e32 56 \u0e2a\u0e38\u0e02\u0e2a\u0e27\u0e31\u0e2a\u0e02\u0e4c", "tourism": "hostel"}}, {"type": "node", "id": 4149696289, "lat": 13.5898016, "lon": 100.5658633, "tags": {"addr:street": "\u0e0b\u0e2d\u0e22\u0e2b\u0e21\u0e39\u0e48\u0e1a\u0e49\u0e32\u0e19\u0e23\u0e48\u0e21\u0e40\u0e22\u0e47\u0e19\u0e19\u0e34\u0e40\u0e27\u0e28\u0e19\u0e4c", "name": "\u0e1a\u0e49\u0e32\u0e19\u0e1e\u0e24\u0e29\u0e3256 \u0e2a\u0e38\u0e02\u0e2a\u0e27\u0e31\u0e2a\u0e02\u0e4c", "tourism": "hostel"}}, {"type": "node", "id": 4192190290, "lat": 13.5898319, "lon": 100.5657816, "tags": {"addr:street": "\u0e2a\u0e38\u0e02\u0e2a\u0e27\u0e31\u0e2a\u0e14\u0e34\u0e4c", "name": "\u0e2b\u0e21\u0e39\u0e48\u0e1a\u0e49\u0e32\u0e19 \u0e1e\u0e24\u0e29\u0e3256 \u0e2a\u0e38\u0e02\u0e2a\u0e27\u0e31\u0e2a\u0e02\u0e4c", "tourism": "hostel"}}, {"type": "node", "id": 4702924591, "lat": 13.572166, "lon": 100.5730061, "tags": {"name": "\u0e17\u0e32\u0e07\u0e40\u0e02\u0e49\u0e32\u0e27\u0e31\u0e14\u0e2a\u0e32\u0e02\u0e25\u0e32", "name:th": "\u0e17\u0e32\u0e07\u0e40\u0e02\u0e49\u0e32\u0e27\u0e31\u0e14\u0e2a\u0e32\u0e02\u0e25\u0e32", "tourism": "attraction"}}, {"type": "node", "id": 4702953790, "lat": 13.594925, "lon": 100.5957299, "tags": {"name": "\u0e17\u0e48\u0e32\u0e40\u0e23\u0e37\u0e2d\u0e02\u0e49\u0e32\u0e21\u0e1f\u0e32\u0e01\u0e44\u0e1b\u0e1e\u0e23\u0e30\u0e2a\u0e21\u0e38\u0e17\u0e23\u0e40\u0e08\u0e14\u0e35\u0e2b\u0e4c", "name:th": "\u0e17\u0e48\u0e32\u0e40\u0e23\u0e37\u0e2d\u0e02\u0e49\u0e32\u0e21\u0e1f\u0e32\u0e01\u0e44\u0e1b\u0e1e\u0e23\u0e30\u0e2a\u0e21\u0e38\u0e17\u0e23\u0e40\u0e08\u0e14\u0e35\u0e2b\u0e4c", "tourism": "information"}}, {"type": "node", "id": 4702957993, "lat": 13.5945254, "lon": 100.579722, "tags": {"name": "\u0e41\u0e22\u0e01\u0e1e\u0e23\u0e30\u0e2a\u0e21\u0e38\u0e17\u0e23\u0e40\u0e08\u0e14\u0e35\u0e2b\u0e4c", "name:th": "\u0e41\u0e22\u0e01\u0e1e\u0e23\u0e30\u0e2a\u0e21\u0e38\u0e17\u0e23\u0e40\u0e08\u0e14\u0e35\u0e2b\u0e4c", "tourism": "attraction"}}, {"type": "node", "id": 4740974423, "lat": 13.5915933, "lon": 100.5800348, "tags": {"amenity": "restaurant"}}, {"type": "node", "id": 4740974424, "lat": 13.5915605, "lon": 100.5803168, "tags": {"amenity": "restaurant"}}, {"type": "node", "id": 4740974425, "lat": 13.5796329, "lon": 100.5756282, "tags": {"amenity": "cafe", "name:en": "Coffee house"}}, {"type": "node", "id": 5528633119, "lat": 13.5741608, "lon": 100.5956162, "tags": {"amenity": "place_of_worship", "name": "\u0e27\u0e31\u0e14\u0e17\u0e2d\u0e07\u0e04\u0e07", "name:en": "Wat Thong Kong", "name:th": "\u0e27\u0e31\u0e14\u0e17\u0e2d\u0e07\u0e04\u0e07", "religion": "buddhist", "wikidata": "Q100715961"}}, {"type": "node", "id": 5608474021, "lat": 13.5979716, "lon": 100.5850893, "tags": {"addr:street": "\u0e16\u0e19\u0e19\u0e2a\u0e38\u0e02\u0e2a\u0e27\u0e31\u0e2a\u0e14\u0e34\u0e4c", "amenity": "cafe", "cuisine": "coffee_shop", "internet_access": "wlan", "name:en": "Amazon Cafe", "opening_hours": "Mo-Su 06:00-19:00", "phone": "0624635546"}}, {"type": "node", "id": 11355625919, "lat": 13.5956527, "lon": 100.5875849, "tags": {"name": "\u0e01\u0e33\u0e41\u0e1e\u0e07\u0e40\u0e01\u0e48\u0e32", "name:en": "The Old Wall", "name:th": "\u0e01\u0e33\u0e41\u0e1e\u0e07\u0e40\u0e01\u0e48\u0e32", "tourism": "attraction"}}, {"type": "node", "id": 11355625920, "lat": 13.5950204, "lon": 100.5872647, "tags": {"artwork_type": "sculpture", "historic": "cannon", "name": "\u0e2b\u0e25\u0e38\u0e21\u0e1b\u0e37\u0e19\u0e40\u0e2a\u0e37\u0e2d\u0e2b\u0e21\u0e2d\u0e1a", "name:th": "\u0e2b\u0e25\u0e38\u0e21\u0e1b\u0e37\u0e19\u0e40\u0e2a\u0e37\u0e2d\u0e2b\u0e21\u0e2d\u0e1a", "tourism": "artwork"}}, {"type": "node", "id": 11355625921, "lat": 13.5949319, "lon": 100.5874457, "tags": {"artwork_type": "sculpture", "historic": "cannon", "name": "\u0e2b\u0e25\u0e38\u0e21\u0e1b\u0e37\u0e19\u0e40\u0e2a\u0e37\u0e2d\u0e2b\u0e21\u0e2d\u0e1a", "name:th": "\u0e2b\u0e25\u0e38\u0e21\u0e1b\u0e37\u0e19\u0e40\u0e2a\u0e37\u0e2d\u0e2b\u0e21\u0e2d\u0e1a", "tourism": "artwork"}}, {"type": "node", "id": 11355625922, "lat": 13.5949594, "lon": 100.5876514, "tags": {"artwork_type": "sculpture", "historic": "cannon", "name": "\u0e2b\u0e25\u0e38\u0e21\u0e1b\u0e37\u0e19\u0e40\u0e2a\u0e37\u0e2d\u0e2b\u0e21\u0e2d\u0e1a", "name:th": "\u0e2b\u0e25\u0e38\u0e21\u0e1b\u0e37\u0e19\u0e40\u0e2a\u0e37\u0e2d\u0e2b\u0e21\u0e2d\u0e1a", "tourism": "artwork"}}, {"type": "node", "id": 11355625950, "lat": 13.5956008, "lon": 100.5880638, "tags": {"historic": "yes", "name": "\u0e42\u0e02\u0e19\u0e40\u0e23\u0e37\u0e2d\u0e42\u0e1a\u0e23\u0e32\u0e13", "name:th": "\u0e42\u0e02\u0e19\u0e40\u0e23\u0e37\u0e2d\u0e42\u0e1a\u0e23\u0e32\u0e13"}}, {"type": "node", "id": 12293293101, "lat": 13.5951244, "lon": 100.5965368, "tags": {"amenity": "cafe", "brand": "\u0e04\u0e32\u0e40\u0e1f\u0e48 \u0e2d\u0e40\u0e21\u0e0b\u0e2d\u0e19", "brand:en": "Caf\u00e9 Amazon", "brand:th": "\u0e04\u0e32\u0e40\u0e1f\u0e48 \u0e2d\u0e40\u0e21\u0e0b\u0e2d\u0e19", "brand:wikidata": "Q43247503", "cuisine": "coffee_shop", "name": "\u0e04\u0e32\u0e40\u0e1f\u0e48 \u0e2d\u0e40\u0e21\u0e0b\u0e2d\u0e19", "name:en": "Caf\u00e9 Amazon", "name:th": "\u0e04\u0e32\u0e40\u0e1f\u0e48 \u0e2d\u0e40\u0e21\u0e0b\u0e2d\u0e19", "opening_hours": "Mo-Su 06:00-18:00", "takeaway": "yes"}}, {"type": "node", "id": 12578966799, "lat": 13.5926392, "lon": 100.5984521, "tags": {"addr:district": "mueang", "addr:housenumber": "378", "addr:place": "\u0e2b\u0e19\u0e49\u0e32 \u0e27\u0e31\u0e14\u0e01\u0e25\u0e32\u0e07", "addr:postcode": "10270", "addr:province": "samutprakan", "addr:street": "\u0e16\u0e19\u0e19\u0e01\u0e32\u0e22\u0e2a\u0e34\u0e17\u0e18\u0e34\u0e4c", "addr:subdistrict": "paknam", "amenity": "cafe", "check_date": "2025-08-14", "check_date:currency:XBT": "2025-08-14", "contact:facebook": "https://www.facebook.com/profile.php?id=61559402850021", "contact:instagram": "ramita_coffee_and_bistro", "cuisine": "coffee_shop;bistro", "currency:XBT": "yes", "name": "Ramita Coffee & Bistro", "opening_hours": "Mo-Th 07:00-17:00; Fr-Su 07:00-22:00", "outdoor_seating": "yes", "payment:lightning": "yes", "payment:lightning_contactless": "no", "payment:onchain": "no", "phone": "+66 62 882 9639", "survey:date": "2025-08-14"}}, {"type": "node", "id": 12675566950, "lat": 13.5927293, "lon": 100.5987065, "tags": {"addr:district": "mueang", "addr:postcode": "10270", "addr:province": "samutprakan", "addr:street": "\u0e16\u0e19\u0e19\u0e01\u0e32\u0e22\u0e2a\u0e34\u0e17\u0e18\u0e34\u0e4c", "addr:subdistrict": "paknam", "amenity": "restaurant", "check_date": "2025-08-13", "check_date:currency:XBT": "2025-08-13", "cuisine": "thai", "currency:XBT": "yes", "diet:pork": "yes", "name": "\u0e02\u0e49\u0e32\u0e27\u0e2b\u0e21\u0e39\u0e41\u0e14\u0e07 \u0e2a\u0e32\u0e21\u0e0a\u0e31\u0e22", "name:en": "Roast pork Samchai", "name:th": "\u0e02\u0e49\u0e32\u0e27\u0e2b\u0e21\u0e39\u0e41\u0e14\u0e07 \u0e2a\u0e32\u0e21\u0e0a\u0e31\u0e22", "opening_hours": "08:00-15:00; We off", "payment:lightning": "yes", "payment:lightning_contactless": "no", "payment:onchain": "no", "phone": "+66 89 490 7414", "survey:date": "2025-08-12"}}, {"type": "node", "id": 13045217302, "lat": 13.5887542, "lon": 100.5981158, "tags": {"addr:housenumber": "59", "addr:street": "\u0e16\u0e19\u0e19\u0e2a\u0e32\u0e22\u0e25\u0e27\u0e14", "amenity": "restaurant", "contact:facebook": "Banyuanvietnamfood", "cuisine": "vietnamese", "name": "Baanyuan Vietnamese Cuisine", "name:th": "\u0e1a\u0e49\u0e32\u0e19\u0e0d\u0e27\u0e19", "opening_hours": "Mo-Su 10:00-21:30", "phone": "+66 02 7016162"}}, {"type": "node", "id": 13302742065, "lat": 13.5529881, "lon": 100.5892321, "tags": {"amenity": "restaurant"}}, {"type": "way", "id": 29976964, "nodes": [330007461, 330007462, 330007463, 330007464, 330007461], "tags": {"amenity": "place_of_worship", "name": "\u0e2d\u0e07\u0e04\u0e4c\u0e1e\u0e23\u0e30\u0e2a\u0e21\u0e38\u0e17\u0e23\u0e40\u0e08\u0e14\u0e35\u0e22\u0e4c", "religion": "buddhist"}}, {"type": "way", "id": 378274467, "nodes": [3816751903, 3816751908, 3816751925, 3816751935, 3816751940, 3816751942, 3816751936, 3816751918, 3816751910, 3816751893, 3816751890, 3816751891, 3816751903], "tags": {"amenity": "place_of_worship", "denomination": "thai_mahanikaya", "loc_name": "\u0e27\u0e31\u0e14\u0e43\u0e2b\u0e0d\u0e48\u0e1a\u0e32\u0e07\u0e1b\u0e25\u0e32\u0e01\u0e14", "name": "\u0e27\u0e31\u0e14\u0e43\u0e2b\u0e0d\u0e48", "name:en": "Wat Yai", "name:th": "\u0e27\u0e31\u0e14\u0e43\u0e2b\u0e0d\u0e48", "religion": "buddhist", "wikidata": "Q100715973", "wikimedia_commons": "Category:Wat Yai, Samut Prakan province", "wikipedia": "th:\u0e27\u0e31\u0e14\u0e43\u0e2b\u0e0d\u0e48 (\u0e08\u0e31\u0e07\u0e2b\u0e27\u0e31\u0e14\u0e2a\u0e21\u0e38\u0e17\u0e23\u0e1b\u0e23\u0e32\u0e01\u0e32\u0e23)"}}, {"type": "way", "id": 378274468, "nodes": [3816751843, 3816751839, 3816751861, 3816751869, 3816751843], "tags": {"amenity": "place_of_worship", "denomination": "thai_mahanikaya", "name": "\u0e27\u0e31\u0e14\u0e43\u0e2b\u0e21\u0e48", "name:en": "Wat Mai", "name:th": "\u0e27\u0e31\u0e14\u0e43\u0e2b\u0e21\u0e48", "religion": "buddhist", "wikidata": "Q100715972", "wikimedia_commons": "Category:Wat Mai, Samut Prakan province", "wikipedia": "th:\u0e27\u0e31\u0e14\u0e43\u0e2b\u0e21\u0e48 (\u0e08\u0e31\u0e07\u0e2b\u0e27\u0e31\u0e14\u0e2a\u0e21\u0e38\u0e17\u0e23\u0e1b\u0e23\u0e32\u0e01\u0e32\u0e23)"}}, {"type": "way", "id": 479541259, "nodes": [4726237308, 247799604, 2496697742, 2496697739, 247799596, 4726237309, 4726237310, 5319553267, 5319553269, 5319553268, 5942131938, 8628213700, 5242094807, 11403450872, 4726237311, 5242094808, 4726237312, 5242094810, 4726237313, 5242094809, 4726237308], "tags": {"leisure": "park", "name": "\u0e40\u0e02\u0e37\u0e48\u0e2d\u0e19\u0e23\u0e34\u0e21\u0e41\u0e21\u0e48\u0e19\u0e49\u0e33\u0e40\u0e08\u0e49\u0e32\u0e1e\u0e23\u0e30\u0e22\u0e32\u0e2a\u0e21\u0e38\u0e17\u0e23\u0e1b\u0e23\u0e32\u0e01\u0e32\u0e23"}}, {"type": "way", "id": 544580047, "nodes": [5264067566, 5264067567, 5264067568, 5264067569, 5264067570, 5264067571, 5264067572, 5264067566], "tags": {"leisure": "park", "name": "Pom Peek Ka Park"}}, {"type": "way", "id": 544931900, "nodes": [5267237046, 5267237047, 5267237048, 5267237049, 5267237050, 5267237051, 5267237052, 5267237053, 5267237054, 5267237055, 5267237056, 5267237057, 5267237058, 5267237046], "tags": {"leisure": "park", "name": "\u0e2d\u0e38\u0e17\u0e22\u0e32\u0e19\u0e01\u0e32\u0e23\u0e40\u0e23\u0e35\u0e22\u0e19\u0e23\u0e39\u0e49\u0e2a\u0e21\u0e38\u0e17\u0e23\u0e1b\u0e23\u0e32\u0e01\u0e32\u0e23", "name:th": "\u0e2d\u0e38\u0e17\u0e22\u0e32\u0e19\u0e01\u0e32\u0e23\u0e40\u0e23\u0e35\u0e22\u0e19\u0e23\u0e39\u0e49\u0e2a\u0e21\u0e38\u0e17\u0e23\u0e1b\u0e23\u0e32\u0e01\u0e32\u0e23"}}, {"type": "way", "id": 544931901, "nodes": [9827105317, 11395586577, 8927855303, 8927855304, 5267237059, 5267237071, 5267237060, 9593803404, 5267237061, 5267237062, 5267237063, 8927855299, 8927855300, 8927855301, 5267237064, 5267237065, 5267237066, 5267237067, 5267237068, 5267237069, 5267237070, 9827105317], "tags": {"building": "yes", "name": "\u0e2b\u0e2d\u0e0a\u0e21\u0e40\u0e21\u0e37\u0e2d\u0e07\u0e2a\u0e21\u0e38\u0e17\u0e23\u0e1b\u0e23\u0e32\u0e01\u0e32\u0e23", "name:en": "Samut Prakan Observation Tower", "name:th": "\u0e2b\u0e2d\u0e0a\u0e21\u0e40\u0e21\u0e37\u0e2d\u0e07\u0e2a\u0e21\u0e38\u0e17\u0e23\u0e1b\u0e23\u0e32\u0e01\u0e32\u0e23", "tourism": "attraction"}}, {"type": "way", "id": 1151915604, "nodes": [10715911220, 10715911221, 10715911222, 10715911223, 10715911224, 10715911225, 10715911226, 10715911227, 10715911220], "tags": {"amenity": "marketplace"}}, {"type": "way", "id": 1224439620, "nodes": [247799657, 10107467280, 10107467279, 10107467278, 10107467277, 10107467276, 247799656, 9173888159, 9173888158, 9173888157, 9173888156, 9173888155, 9173888154, 9173888153, 9173888162, 9173888161, 9173888160, 247803616, 247803615, 247803614, 247803613, 247803612, 11355625795, 247803611, 247803610, 247803609, 247803608, 247803607, 247803606, 247799660, 247799659, 247799658, 10107467285, 10107467284, 10107467283, 10107467282, 10107467281, 247799657], "tags": {"fee": "yes", "historic": "fort", "leisure": "park", "name": "\u0e1b\u0e49\u0e2d\u0e21\u0e1c\u0e35\u0e40\u0e2a\u0e37\u0e49\u0e2d\u0e2a\u0e21\u0e38\u0e17\u0e23", "name:en": "Phi Suea Samut Fort", "name:th": "\u0e1b\u0e49\u0e2d\u0e21\u0e1c\u0e35\u0e40\u0e2a\u0e37\u0e49\u0e2d\u0e2a\u0e21\u0e38\u0e17\u0e23", "tourism": "museum", "wikidata": "Q16304359", "wikipedia": "th:\u0e1b\u0e49\u0e2d\u0e21\u0e1c\u0e35\u0e40\u0e2a\u0e37\u0e49\u0e2d\u0e2a\u0e21\u0e38\u0e17\u0e23"}}, {"type": "way", "id": 1224439623, "nodes": [11355555361, 11355555362, 11355555363, 11355555364, 11355555361], "tags": {"building": "yes", "historic": "building", "name": "\u0e04\u0e25\u0e31\u0e07\u0e17\u0e38\u0e48\u0e19\u0e23\u0e30\u0e40\u0e1a\u0e34\u0e14", "name:en": "Land Mine Arsenal", "name:th": "\u0e04\u0e25\u0e31\u0e07\u0e17\u0e38\u0e48\u0e19\u0e23\u0e30\u0e40\u0e1a\u0e34\u0e14"}}, {"type": "way", "id": 1224439624, "nodes": [11355555365, 11355555366, 11355555367, 11355555368, 11355555365], "tags": {"building": "yes", "fee": "no", "name": "\u0e1e\u0e34\u0e1e\u0e34\u0e18\u0e20\u0e31\u0e13\u0e11\u0e4c\u0e1b\u0e49\u0e2d\u0e21\u0e1c\u0e35\u0e40\u0e2a\u0e37\u0e49\u0e2d\u0e2a\u0e21\u0e38\u0e17\u0e23", "name:en": "Phi Suea Samut Fort Museum", "name:th": "\u0e1e\u0e34\u0e1e\u0e34\u0e18\u0e20\u0e31\u0e13\u0e11\u0e4c\u0e1b\u0e49\u0e2d\u0e21\u0e1c\u0e35\u0e40\u0e2a\u0e37\u0e49\u0e2d\u0e2a\u0e21\u0e38\u0e17\u0e23", "tourism": "museum"}}, {"type": "way", "id": 1224445645, "nodes": [11355625904, 11355625905, 11355625906, 11355625907, 11355625904], "tags": {"building": "yes", "historic": "building", "name": "\u0e04\u0e25\u0e31\u0e07\u0e40\u0e01\u0e47\u0e1a\u0e14\u0e34\u0e19\u0e1b\u0e37\u0e19", "name:en": "Gunpowder Arsenal", "name:th": "\u0e04\u0e25\u0e31\u0e07\u0e40\u0e01\u0e47\u0e1a\u0e14\u0e34\u0e19\u0e1b\u0e37\u0e19"}}, {"type": "way", "id": 1224445646, "nodes": [11355625908, 11355625909, 11355625910, 11355625911, 11355625908], "tags": {"building": "yes", "historic": "building", "name": "\u0e04\u0e25\u0e31\u0e07\u0e40\u0e01\u0e47\u0e1a\u0e14\u0e34\u0e19\u0e1b\u0e37\u0e19", "name:en": "Gunpowder Arsenal", "name:th": "\u0e04\u0e25\u0e31\u0e07\u0e40\u0e01\u0e47\u0e1a\u0e14\u0e34\u0e19\u0e1b\u0e37\u0e19"}}, {"type": "way", "id": 1224445650, "nodes": [11355625944, 11355625945, 11355625946, 11355625947, 11355625944], "tags": {"building": "yes", "historic": "wayside_shrine", "name": "\u0e28\u0e32\u0e25\u0e40\u0e08\u0e49\u0e32\u0e1e\u0e48\u0e2d\u0e25\u0e34\u0e49\u0e19\u0e17\u0e30\u0e40\u0e25\u0e14\u0e33", "name:en": "Pho Lin Thalay Dam Shine", "name:th": "\u0e28\u0e32\u0e25\u0e40\u0e08\u0e49\u0e32\u0e1e\u0e48\u0e2d\u0e25\u0e34\u0e49\u0e19\u0e17\u0e30\u0e40\u0e25\u0e14\u0e33"}}, {"type": "way", "id": 1228796793, "nodes": [11395586573, 11395586574, 11395586575, 11395586576, 11395586573], "tags": {"historic": "monument", "name": "\u0e23\u0e16\u0e44\u0e1f\u0e2a\u0e32\u0e22\u0e41\u0e23\u0e01\u0e02\u0e2d\u0e07\u0e44\u0e17\u0e22"}}, {"type": "way", "id": 1229700134, "nodes": [11395581415, 3867104576, 11403377119, 11403377120, 11403377121, 11403377122, 11403377123, 11403377124, 11403377125, 13069331530, 286780738, 13069331528, 11403377126, 11403377127, 11403377128, 11403377129, 11403377130, 11403377131, 11403377132, 11395581415], "tags": {"amenity": "place_of_worship", "denomination": "thai_mahanikaya", "name": "\u0e27\u0e31\u0e14\u0e01\u0e25\u0e32\u0e07\u0e27\u0e23\u0e27\u0e34\u0e2b\u0e32\u0e23", "name:en": "Wat Klang Worawihan", "name:th": "\u0e27\u0e31\u0e14\u0e01\u0e25\u0e32\u0e07\u0e27\u0e23\u0e27\u0e34\u0e2b\u0e32\u0e23", "religion": "buddhist", "wikidata": "Q56560928", "wikimedia_commons": "Category:Wat Klang Worawihan, Samut Prakan", "wikipedia": "th:\u0e27\u0e31\u0e14\u0e01\u0e25\u0e32\u0e07\u0e27\u0e23\u0e27\u0e34\u0e2b\u0e32\u0e23"}}, {"type": "way", "id": 1229700648, "nodes": [11403384237, 11403384238, 11403384239, 11403384240, 11403384241, 11403384242, 11403384243, 11403384244, 11403384245, 11403384246, 11403384247, 11559069089, 11403384248, 11403384249, 11403384250, 11403384251, 11403384252, 11403384253, 11403384254, 11403384237], "tags": {"amenity": "place_of_worship", "denomination": "thai_mahanikaya", "name": "\u0e27\u0e31\u0e14\u0e1e\u0e34\u0e0a\u0e31\u0e22\u0e2a\u0e07\u0e04\u0e23\u0e32\u0e21", "name:en": "Wat Phichaisongkhram", "name:th": "\u0e27\u0e31\u0e14\u0e1e\u0e34\u0e0a\u0e31\u0e22\u0e2a\u0e07\u0e04\u0e23\u0e32\u0e21", "religion": "buddhist", "wikidata": "Q99198731", "wikimedia_commons": "Category:Wat Phichai Songkhram, Samut Prakan", "wikipedia": "th:\u0e27\u0e31\u0e14\u0e1e\u0e34\u0e0a\u0e31\u0e22\u0e2a\u0e07\u0e04\u0e23\u0e32\u0e21 (\u0e08\u0e31\u0e07\u0e2b\u0e27\u0e31\u0e14\u0e2a\u0e21\u0e38\u0e17\u0e23\u0e1b\u0e23\u0e32\u0e01\u0e32\u0e23)"}}, {"type": "way", "id": 1231407626, "nodes": [11420538125, 11420538126, 11420538127, 11420538128, 11420538125], "tags": {"historic": "wayside_shrine", "name": "\u0e28\u0e32\u0e25\u0e40\u0e08\u0e49\u0e32\u0e1e\u0e48\u0e2d\u0e40\u0e2a\u0e37\u0e2d"}}, {"type": "way", "id": 1231407640, "nodes": [11420567678, 11420567695, 11420567696, 11420567697, 11420567679, 11420567678], "tags": {"amenity": "marketplace", "name": "\u0e15\u0e25\u0e32\u0e14\u0e23\u0e32\u0e0a\u0e32"}}, {"type": "way", "id": 1336674593, "nodes": [12363493021, 304195875, 12363493023, 12363493024, 12363493025, 12363493026, 12363493027, 12363493028, 12363493029, 12363493030, 12363493031, 12363493032, 12363493033, 12363493034, 12363493035, 12363493036, 12363493037, 12363493038, 10967778446, 10967778445, 10967778444, 11090322264, 10967778441, 10967778440, 10967778439, 12363493039, 12363493040, 12363493041, 12363493042, 12363493043, 12363493044, 12363493045, 12363493046, 12363493021], "tags": {"name": "\u0e1f\u0e32\u0e23\u0e4c\u0e21\u0e08\u0e23\u0e30\u0e40\u0e02\u0e49\u0e41\u0e25\u0e30\u0e2a\u0e27\u0e19\u0e2a\u0e31\u0e15\u0e27\u0e4c\u0e2a\u0e21\u0e38\u0e17\u0e23\u0e1b\u0e23\u0e32\u0e01\u0e32\u0e23", "name:en": "Samutprakarn Crocodile Farm & Zoo", "name:th": "\u0e1f\u0e32\u0e23\u0e4c\u0e21\u0e08\u0e23\u0e30\u0e40\u0e02\u0e49\u0e41\u0e25\u0e30\u0e2a\u0e27\u0e19\u0e2a\u0e31\u0e15\u0e27\u0e4c\u0e2a\u0e21\u0e38\u0e17\u0e23\u0e1b\u0e23\u0e32\u0e01\u0e32\u0e23", "tourism": "zoo", "wikidata": "Q4925552", "wikimedia_commons": "Category:Samutprakarn Crocodile Farm and Zoo", "wikipedia": "th:\u0e1f\u0e32\u0e23\u0e4c\u0e21\u0e08\u0e23\u0e30\u0e40\u0e02\u0e49\u0e41\u0e25\u0e30\u0e2a\u0e27\u0e19\u0e2a\u0e31\u0e15\u0e27\u0e4c\u0e2a\u0e21\u0e38\u0e17\u0e23\u0e1b\u0e23\u0e32\u0e01\u0e32\u0e23"}}, {"type": "way", "id": 1342286869, "nodes": [12417762262, 12417762263, 12417762264, 12417762265, 12417762266, 12417762267, 12417762262], "tags": {"amenity": "marketplace", "name": "\u0e15\u0e25\u0e32\u0e14\u0e17\u0e49\u0e32\u0e22\u0e1a\u0e49\u0e32\u0e19", "name:th": "\u0e15\u0e25\u0e32\u0e14\u0e17\u0e49\u0e32\u0e22\u0e1a\u0e49\u0e32\u0e19"}}, {"type": "way", "id": 1354127906, "nodes": [12531231170, 12531231171, 12531231172, 12531231184, 12531231173, 12531231174, 9173848368, 9173848367, 9173848366, 12531231175, 12531231176, 12531231177, 12531231178, 12531231179, 12531231180, 12531231181, 12531231182, 12531231183, 12531231185, 12531231186, 12531231170], "tags": {"amenity": "place_of_worship", "area": "yes", "denomination": "thai_mahanikaya", "name": "\u0e27\u0e31\u0e14\u0e1e\u0e23\u0e30\u0e2a\u0e21\u0e38\u0e17\u0e23\u0e40\u0e08\u0e14\u0e35\u0e22\u0e4c", "name:en": "Wat Phra Samut Chedi", "name:th": "\u0e27\u0e31\u0e14\u0e1e\u0e23\u0e30\u0e2a\u0e21\u0e38\u0e17\u0e23\u0e40\u0e08\u0e14\u0e35\u0e22\u0e4c", "religion": "buddhist", "wikidata": "Q16004349", "wikimedia_commons": "Category:Wat Phra Samut Chedi", "wikipedia": "th:\u0e27\u0e31\u0e14\u0e1e\u0e23\u0e30\u0e2a\u0e21\u0e38\u0e17\u0e23\u0e40\u0e08\u0e14\u0e35\u0e22\u0e4c"}}, {"type": "way", "id": 1378299804, "nodes": [12762050840, 12762050841, 12762050842, 12762050843, 12762050844, 12762050845, 12762050840], "tags": {"amenity": "marketplace"}}, {"type": "node", "id": 12762050840, "lat": 13.5807834, "lon": 100.5632267}, {"type": "node", "id": 12762050841, "lat": 13.5803885, "lon": 100.5638241}, {"type": "node", "id": 12762050842, "lat": 13.5799729, "lon": 100.5637052}, {"type": "node", "id": 12762050843, "lat": 13.5803816, "lon": 100.5630214}, {"type": "node", "id": 12762050844, "lat": 13.5807105, "lon": 100.5630879}, {"type": "node", "id": 12762050845, "lat": 13.5807903, "lon": 100.5631106}, {"type": "node", "id": 3816751839, "lat": 13.5873378, "lon": 100.5593725}, {"type": "node", "id": 3816751843, "lat": 13.5877062, "lon": 100.558759}, {"type": "node", "id": 3816751861, "lat": 13.5886596, "lon": 100.5601932}, {"type": "node", "id": 3816751869, "lat": 13.5889521, "lon": 100.5595679}, {"type": "node", "id": 3816751890, "lat": 13.5900956, "lon": 100.5616732}, {"type": "node", "id": 3816751891, "lat": 13.5901032, "lon": 100.5614778}, {"type": "node", "id": 3816751893, "lat": 13.5902628, "lon": 100.5620523}, {"type": "node", "id": 3816751903, "lat": 13.5909351, "lon": 100.5601062}, {"type": "node", "id": 3816751908, "lat": 13.5911478, "lon": 100.5601335}, {"type": "node", "id": 3816751910, "lat": 13.5911706, "lon": 100.5618647}, {"type": "node", "id": 3816751918, "lat": 13.5914972, "lon": 100.5615247}, {"type": "node", "id": 3816751925, "lat": 13.5915998, "lon": 100.5604032}, {"type": "node", "id": 3816751935, "lat": 13.5917669, "lon": 100.560579}, {"type": "node", "id": 3816751936, "lat": 13.5917935, "lon": 100.5612668}, {"type": "node", "id": 3816751940, "lat": 13.5918543, "lon": 100.5608526}, {"type": "node", "id": 3816751942, "lat": 13.5918885, "lon": 100.5611105}, {"type": "node", "id": 10967778439, "lat": 13.5730877, "lon": 100.5958226}, {"type": "node", "id": 10967778440, "lat": 13.5716446, "lon": 100.5954967}, {"type": "node", "id": 10967778441, "lat": 13.5717541, "lon": 100.595034}, {"type": "node", "id": 10967778444, "lat": 13.5719327, "lon": 100.5947457}, {"type": "node", "id": 10967778445, "lat": 13.5719679, "lon": 100.5946357}, {"type": "node", "id": 10967778446, "lat": 13.5720435, "lon": 100.5941797}, {"type": "node", "id": 11090322264, "lat": 13.5718251, "lon": 100.5950573}, {"type": "node", "id": 12363493026, "lat": 13.5696003, "lon": 100.597221}, {"type": "node", "id": 12363493027, "lat": 13.5697802, "lon": 100.5970439}, {"type": "node", "id": 12363493028, "lat": 13.5696133, "lon": 100.5966845}, {"type": "node", "id": 12363493029, "lat": 13.569569, "lon": 100.5964351}, {"type": "node", "id": 12363493030, "lat": 13.5696967, "lon": 100.5964244}, {"type": "node", "id": 12363493031, "lat": 13.5692587, "lon": 100.5959523}, {"type": "node", "id": 12363493032, "lat": 13.5695925, "lon": 100.595507}, {"type": "node", "id": 12363493033, "lat": 13.5696785, "lon": 100.595271}, {"type": "node", "id": 12363493034, "lat": 13.5694517, "lon": 100.5951664}, {"type": "node", "id": 12363493035, "lat": 13.5698349, "lon": 100.5947882}, {"type": "node", "id": 12363493036, "lat": 13.5700852, "lon": 100.5947882}, {"type": "node", "id": 12363493037, "lat": 13.5702156, "lon": 100.594638}, {"type": "node", "id": 12363493038, "lat": 13.5708779, "lon": 100.5935866}, {"type": "node", "id": 12363493039, "lat": 13.5729872, "lon": 100.5962017}, {"type": "node", "id": 12363493040, "lat": 13.5729481, "lon": 100.5962017}, {"type": "node", "id": 12363493041, "lat": 13.5729194, "lon": 100.5962956}, {"type": "node", "id": 12363493042, "lat": 13.5728464, "lon": 100.5962661}, {"type": "node", "id": 12363493043, "lat": 13.5726743, "lon": 100.596765}, {"type": "node", "id": 12363493044, "lat": 13.5731775, "lon": 100.5969286}, {"type": "node", "id": 12417762262, "lat": 13.5815649, "lon": 100.5931889}, {"type": "node", "id": 12417762263, "lat": 13.5806433, "lon": 100.5955717}, {"type": "node", "id": 12417762264, "lat": 13.5820927, "lon": 100.5958881}, {"type": "node", "id": 12417762267, "lat": 13.5819083, "lon": 100.593448}, {"type": "node", "id": 304195875, "lat": 13.5700201, "lon": 100.598259}, {"type": "node", "id": 12363493021, "lat": 13.5705467, "lon": 100.5988357}, {"type": "node", "id": 12363493023, "lat": 13.5696941, "lon": 100.5984628}, {"type": "node", "id": 12363493024, "lat": 13.5694621, "lon": 100.5978888}, {"type": "node", "id": 12363493025, "lat": 13.5698089, "lon": 100.5977681}, {"type": "node", "id": 12363493045, "lat": 13.5714228, "lon": 100.5982053}, {"type": "node", "id": 12363493046, "lat": 13.5707058, "lon": 100.5987311}, {"type": "node", "id": 5264067566, "lat": 13.5884657, "lon": 100.5960192}, {"type": "node", "id": 5264067567, "lat": 13.5880528, "lon": 100.5963116}, {"type": "node", "id": 5264067568, "lat": 13.5880714, "lon": 100.5965291}, {"type": "node", "id": 5264067569, "lat": 13.587717, "lon": 100.5966891}, {"type": "node", "id": 5264067570, "lat": 13.5875678, "lon": 100.5964652}, {"type": "node", "id": 5264067571, "lat": 13.5877357, "lon": 100.5963884}, {"type": "node", "id": 5264067572, "lat": 13.587524, "lon": 100.595897}, {"type": "node", "id": 12417762265, "lat": 13.5826989, "lon": 100.5945668}, {"type": "node", "id": 12417762266, "lat": 13.582752, "lon": 100.5942646}, {"type": "node", "id": 247799656, "lat": 13.5951825, "lon": 100.5883707}, {"type": "node", "id": 247799657, "lat": 13.5947387, "lon": 100.5883576}, {"type": "node", "id": 247799658, "lat": 13.5948061, "lon": 100.5880559}, {"type": "node", "id": 247799659, "lat": 13.5948512, "lon": 100.5878037}, {"type": "node", "id": 247799660, "lat": 13.5946253, "lon": 100.5874174}, {"type": "node", "id": 247803606, "lat": 13.594627, "lon": 100.5873911}, {"type": "node", "id": 247803607, "lat": 13.5947712, "lon": 100.5872758}, {"type": "node", "id": 247803608, "lat": 13.5949297, "lon": 100.5871384}, {"type": "node", "id": 247803609, "lat": 13.5950132, "lon": 100.587044}, {"type": "node", "id": 247803610, "lat": 13.5950298, "lon": 100.5868209}, {"type": "node", "id": 247803611, "lat": 13.5950966, "lon": 100.5867694}, {"type": "node", "id": 247803612, "lat": 13.5952217, "lon": 100.5867951}, {"type": "node", "id": 247803613, "lat": 13.5953635, "lon": 100.5867694}, {"type": "node", "id": 9173888159, "lat": 13.595199, "lon": 100.5882796}, {"type": "node", "id": 10107467276, "lat": 13.5949282, "lon": 100.5883152}, {"type": "node", "id": 10107467277, "lat": 13.5948168, "lon": 100.5883817}, {"type": "node", "id": 10107467278, "lat": 13.5948024, "lon": 100.5883561}, {"type": "node", "id": 10107467279, "lat": 13.5947808, "lon": 100.588369}, {"type": "node", "id": 10107467280, "lat": 13.5947653, "lon": 100.5883416}, {"type": "node", "id": 10107467281, "lat": 13.5946532, "lon": 100.5882061}, {"type": "node", "id": 10107467282, "lat": 13.5946799, "lon": 100.5881901}, {"type": "node", "id": 10107467283, "lat": 13.5946675, "lon": 100.5881682}, {"type": "node", "id": 10107467284, "lat": 13.5946903, "lon": 100.5881546}, {"type": "node", "id": 10107467285, "lat": 13.5946778, "lon": 100.5881324}, {"type": "node", "id": 11355555362, "lat": 13.5953229, "lon": 100.5879201}, {"type": "node", "id": 11355555363, "lat": 13.5952871, "lon": 100.588087}, {"type": "node", "id": 11355625795, "lat": 13.595187, "lon": 100.586788}, {"type": "node", "id": 11355625904, "lat": 13.5954139, "lon": 100.5874312}, {"type": "node", "id": 11355625905, "lat": 13.595258, "lon": 100.5873985}, {"type": "node", "id": 11355625906, "lat": 13.5952428, "lon": 100.5874748}, {"type": "node", "id": 11355625907, "lat": 13.5953988, "lon": 100.5875075}, {"type": "node", "id": 11355625908, "lat": 13.5953921, "lon": 100.5875724}, {"type": "node", "id": 11355625909, "lat": 13.5952362, "lon": 100.5875397}, {"type": "node", "id": 11355625910, "lat": 13.595221, "lon": 100.587616}, {"type": "node", "id": 11355625911, "lat": 13.595377, "lon": 100.5876487}, {"type": "node", "id": 11355625944, "lat": 13.5953342, "lon": 100.5868991}, {"type": "node", "id": 11355625945, "lat": 13.5952819, "lon": 100.5868883}, {"type": "node", "id": 11355625946, "lat": 13.5952742, "lon": 100.5869275}, {"type": "node", "id": 11355625947, "lat": 13.5953265, "lon": 100.5869383}, {"type": "node", "id": 10715911220, "lat": 13.5928036, "lon": 100.5956513}, {"type": "node", "id": 10715911221, "lat": 13.5932224, "lon": 100.5959304}, {"type": "node", "id": 10715911222, "lat": 13.593335, "lon": 100.5958796}, {"type": "node", "id": 10715911223, "lat": 13.5933468, "lon": 100.5957612}, {"type": "node", "id": 10715911224, "lat": 13.5935732, "lon": 100.5957851}, {"type": "node", "id": 10715911225, "lat": 13.5935207, "lon": 100.5963105}, {"type": "node", "id": 10715911226, "lat": 13.5934358, "lon": 100.5963573}, {"type": "node", "id": 10715911227, "lat": 13.5926773, "lon": 100.595852}, {"type": "node", "id": 11395586573, "lat": 13.5949568, "lon": 100.5965969}, {"type": "node", "id": 11395586574, "lat": 13.5949162, "lon": 100.5965995}, {"type": "node", "id": 11395586575, "lat": 13.5949234, "lon": 100.596717}, {"type": "node", "id": 11395586576, "lat": 13.594964, "lon": 100.5967143}, {"type": "node", "id": 11403384243, "lat": 13.5954451, "lon": 100.5976145}, {"type": "node", "id": 11420538125, "lat": 13.5912059, "lon": 100.597223}, {"type": "node", "id": 11420538126, "lat": 13.5911464, "lon": 100.5972171}, {"type": "node", "id": 11420538127, "lat": 13.5911438, "lon": 100.5972453}, {"type": "node", "id": 11420538128, "lat": 13.5912033, "lon": 100.5972512}, {"type": "node", "id": 11420567678, "lat": 13.5927817, "lon": 100.5977079}, {"type": "node", "id": 11420567679, "lat": 13.5926474, "lon": 100.5976713}, {"type": "node", "id": 11420567696, "lat": 13.5921989, "lon": 100.5976408}, {"type": "node", "id": 11420567697, "lat": 13.5922305, "lon": 100.5975372}, {"type": "node", "id": 286780738, "lat": 13.5912897, "lon": 100.5993842}, {"type": "node", "id": 3867104576, "lat": 13.5927311, "lon": 100.6000491}, {"type": "node", "id": 11395581415, "lat": 13.5935505, "lon": 100.5997203}, {"type": "node", "id": 11403377119, "lat": 13.5926486, "lon": 100.6000719}, {"type": "node", "id": 11403377120, "lat": 13.5925013, "lon": 100.6001323}, {"type": "node", "id": 11403377121, "lat": 13.5921635, "lon": 100.6001841}, {"type": "node", "id": 11403377122, "lat": 13.5919748, "lon": 100.6002119}, {"type": "node", "id": 11403377123, "lat": 13.5916394, "lon": 100.5999161}, {"type": "node", "id": 11403377124, "lat": 13.5914777, "lon": 100.5997127}, {"type": "node", "id": 11403377125, "lat": 13.5913969, "lon": 100.5996265}, {"type": "node", "id": 11403377126, "lat": 13.5915765, "lon": 100.5990133}, {"type": "node", "id": 11403377127, "lat": 13.5916933, "lon": 100.5986714}, {"type": "node", "id": 11403377128, "lat": 13.5921575, "lon": 100.5987515}, {"type": "node", "id": 11403377129, "lat": 13.5921695, "lon": 100.5986221}, {"type": "node", "id": 11403377130, "lat": 13.5926709, "lon": 100.5987023}, {"type": "node", "id": 11403377131, "lat": 13.5926384, "lon": 100.5990691}, {"type": "node", "id": 11403377132, "lat": 13.5934174, "lon": 100.59904}, {"type": "node", "id": 11403384245, "lat": 13.5952732, "lon": 100.5978422}, {"type": "node", "id": 11403384246, "lat": 13.5953345, "lon": 100.598328}, {"type": "node", "id": 11403384247, "lat": 13.595374, "lon": 100.5984703}, {"type": "node", "id": 11403384248, "lat": 13.5953957, "lon": 100.5984764}, {"type": "node", "id": 11420567695, "lat": 13.5927343, "lon": 100.5977994}, {"type": "node", "id": 11559069089, "lat": 13.5953871, "lon": 100.5984774}, {"type": "node", "id": 13069331528, "lat": 13.5914475, "lon": 100.5991802}, {"type": "node", "id": 13069331530, "lat": 13.5913062, "lon": 100.5994214}, {"type": "node", "id": 9173848367, "lat": 13.6010864, "lon": 100.5844298}, {"type": "node", "id": 9173848368, "lat": 13.6010343, "lon": 100.5844298}, {"type": "node", "id": 12531231170, "lat": 13.5989711, "lon": 100.5846502}, {"type": "node", "id": 12531231171, "lat": 13.5993229, "lon": 100.5846004}, {"type": "node", "id": 12531231172, "lat": 13.5996916, "lon": 100.5845603}, {"type": "node", "id": 12531231173, "lat": 13.6003833, "lon": 100.5844806}, {"type": "node", "id": 12531231174, "lat": 13.6007169, "lon": 100.5844406}, {"type": "node", "id": 12531231184, "lat": 13.6002603, "lon": 100.5844952}, {"type": "node", "id": 247803614, "lat": 13.5954803, "lon": 100.5867264}, {"type": "node", "id": 247803615, "lat": 13.5955638, "lon": 100.5867093}, {"type": "node", "id": 247803616, "lat": 13.5957556, "lon": 100.586735}, {"type": "node", "id": 330007461, "lat": 13.6008954, "lon": 100.5864848}, {"type": "node", "id": 330007462, "lat": 13.6008454, "lon": 100.5872573}, {"type": "node", "id": 330007463, "lat": 13.5997275, "lon": 100.5871199}, {"type": "node", "id": 330007464, "lat": 13.5997775, "lon": 100.586356}, {"type": "node", "id": 9173848366, "lat": 13.6011052, "lon": 100.5851443}, {"type": "node", "id": 9173888153, "lat": 13.5960833, "lon": 100.587015}, {"type": "node", "id": 9173888154, "lat": 13.5958711, "lon": 100.5881896}, {"type": "node", "id": 9173888155, "lat": 13.5958693, "lon": 100.5883142}, {"type": "node", "id": 9173888156, "lat": 13.5958413, "lon": 100.5883611}, {"type": "node", "id": 9173888157, "lat": 13.5957904, "lon": 100.5883917}, {"type": "node", "id": 9173888158, "lat": 13.595708, "lon": 100.5884008}, {"type": "node", "id": 9173888160, "lat": 13.5957877, "lon": 100.586746}, {"type": "node", "id": 9173888161, "lat": 13.5957618, "lon": 100.5868963}, {"type": "node", "id": 9173888162, "lat": 13.5959329, "lon": 100.5869423}, {"type": "node", "id": 11355555361, "lat": 13.5956443, "lon": 100.5879931}, {"type": "node", "id": 11355555364, "lat": 13.5956084, "lon": 100.5881601}, {"type": "node", "id": 11355555365, "lat": 13.5956971, "lon": 100.5876988}, {"type": "node", "id": 11355555366, "lat": 13.5955892, "lon": 100.5876732}, {"type": "node", "id": 11355555367, "lat": 13.595527, "lon": 100.5879495}, {"type": "node", "id": 11355555368, "lat": 13.595635, "lon": 100.5879752}, {"type": "node", "id": 12531231175, "lat": 13.6011059, "lon": 100.5851573}, {"type": "node", "id": 12531231176, "lat": 13.6009347, "lon": 100.5851727}, {"type": "node", "id": 12531231177, "lat": 13.6007873, "lon": 100.5851758}, {"type": "node", "id": 12531231178, "lat": 13.6007226, "lon": 100.5851745}, {"type": "node", "id": 12531231179, "lat": 13.6004448, "lon": 100.5851767}, {"type": "node", "id": 12531231180, "lat": 13.6001089, "lon": 100.5851772}, {"type": "node", "id": 12531231181, "lat": 13.5998327, "lon": 100.5851793}, {"type": "node", "id": 12531231182, "lat": 13.5995554, "lon": 100.5851715}, {"type": "node", "id": 12531231183, "lat": 13.5991236, "lon": 100.585164}, {"type": "node", "id": 12531231185, "lat": 13.5990987, "lon": 100.5847692}, {"type": "node", "id": 12531231186, "lat": 13.5989931, "lon": 100.5847811}, {"type": "node", "id": 247799596, "lat": 13.598697, "lon": 100.5960674}, {"type": "node", "id": 247799604, "lat": 13.6002852, "lon": 100.5958586}, {"type": "node", "id": 2496697739, "lat": 13.5991801, "lon": 100.5960039}, {"type": "node", "id": 2496697742, "lat": 13.5993156, "lon": 100.5959861}, {"type": "node", "id": 4726237308, "lat": 13.6008856, "lon": 100.5957483}, {"type": "node", "id": 4726237309, "lat": 13.5977835, "lon": 100.5961875}, {"type": "node", "id": 4726237310, "lat": 13.5978095, "lon": 100.5963693}, {"type": "node", "id": 4726237311, "lat": 13.6008182, "lon": 100.5962598}, {"type": "node", "id": 4726237312, "lat": 13.601601, "lon": 100.5956875}, {"type": "node", "id": 4726237313, "lat": 13.6011423, "lon": 100.5954088}, {"type": "node", "id": 5242094807, "lat": 13.5995886, "lon": 100.5964285}, {"type": "node", "id": 5242094808, "lat": 13.6009433, "lon": 100.5959753}, {"type": "node", "id": 5242094809, "lat": 13.6009782, "lon": 100.5956005}, {"type": "node", "id": 5242094810, "lat": 13.6014292, "lon": 100.5954676}, {"type": "node", "id": 5319553267, "lat": 13.5984118, "lon": 100.5963954}, {"type": "node", "id": 5319553268, "lat": 13.5990078, "lon": 100.5964751}, {"type": "node", "id": 5319553269, "lat": 13.5985206, "lon": 100.5965526}, {"type": "node", "id": 5942131938, "lat": 13.5990477, "lon": 100.5964719}, {"type": "node", "id": 8628213700, "lat": 13.5992208, "lon": 100.596458}, {"type": "node", "id": 11403384240, "lat": 13.5965634, "lon": 100.5975027}, {"type": "node", "id": 11403384241, "lat": 13.5961524, "lon": 100.5975698}, {"type": "node", "id": 11403384242, "lat": 13.5957237, "lon": 100.5976145}, {"type": "node", "id": 11403450872, "lat": 13.6007233, "lon": 100.5962728}, {"type": "node", "id": 5267237046, "lat": 13.598772, "lon": 100.5985292}, {"type": "node", "id": 5267237047, "lat": 13.5979988, "lon": 100.5986355}, {"type": "node", "id": 5267237048, "lat": 13.5974974, "lon": 100.5990293}, {"type": "node", "id": 5267237049, "lat": 13.5979682, "lon": 100.5999429}, {"type": "node", "id": 5267237050, "lat": 13.598083, "lon": 100.6000138}, {"type": "node", "id": 5267237051, "lat": 13.5982591, "lon": 100.6000414}, {"type": "node", "id": 5267237052, "lat": 13.5989481, "lon": 100.599876}, {"type": "node", "id": 5267237053, "lat": 13.5990859, "lon": 100.5997342}, {"type": "node", "id": 5267237054, "lat": 13.5990399, "lon": 100.5994113}, {"type": "node", "id": 5267237055, "lat": 13.5988753, "lon": 100.5992735}, {"type": "node", "id": 5267237056, "lat": 13.5988332, "lon": 100.5989506}, {"type": "node", "id": 5267237057, "lat": 13.5989749, "lon": 100.5989309}, {"type": "node", "id": 5267237058, "lat": 13.5989098, "lon": 100.5985135}, {"type": "node", "id": 5267237059, "lat": 13.598564, "lon": 100.5989339}, {"type": "node", "id": 5267237060, "lat": 13.5984582, "lon": 100.5987289}, {"type": "node", "id": 5267237061, "lat": 13.5983615, "lon": 100.5986658}, {"type": "node", "id": 5267237062, "lat": 13.5982498, "lon": 100.5986401}, {"type": "node", "id": 5267237063, "lat": 13.5981362, "lon": 100.5986548}, {"type": "node", "id": 5267237064, "lat": 13.5979023, "lon": 100.5990193}, {"type": "node", "id": 5267237065, "lat": 13.59793, "lon": 100.5991241}, {"type": "node", "id": 5267237066, "lat": 13.5979882, "lon": 100.5992148}, {"type": "node", "id": 5267237067, "lat": 13.5980709, "lon": 100.5992822}, {"type": "node", "id": 5267237068, "lat": 13.59817, "lon": 100.5993196}, {"type": "node", "id": 5267237069, "lat": 13.5982755, "lon": 100.5993233}, {"type": "node", "id": 5267237070, "lat": 13.5983768, "lon": 100.5992929}, {"type": "node", "id": 5267237071, "lat": 13.5985284, "lon": 100.5988219}, {"type": "node", "id": 8927855299, "lat": 13.5980341, "lon": 100.5987081}, {"type": "node", "id": 8927855300, "lat": 13.5979556, "lon": 100.5987938}, {"type": "node", "id": 8927855301, "lat": 13.5979099, "lon": 100.5989018}, {"type": "node", "id": 8927855303, "lat": 13.5985278, "lon": 100.599145}, {"type": "node", "id": 8927855304, "lat": 13.5985623, "lon": 100.5990424}, {"type": "node", "id": 9593803404, "lat": 13.5984357, "lon": 100.5987142}, {"type": "node", "id": 9827105317, "lat": 13.5984638, "lon": 100.5992314}, {"type": "node", "id": 11395586577, "lat": 13.598485, "lon": 100.5992028}, {"type": "node", "id": 11403384237, "lat": 13.5970435, "lon": 100.5985903}, {"type": "node", "id": 11403384238, "lat": 13.5967906, "lon": 100.5980963}, {"type": "node", "id": 11403384239, "lat": 13.5968202, "lon": 100.5980414}, {"type": "node", "id": 11403384244, "lat": 13.5954728, "lon": 100.5978178}, {"type": "node", "id": 11403384249, "lat": 13.5955123, "lon": 100.5984663}, {"type": "node", "id": 11403384250, "lat": 13.5955479, "lon": 100.5991696}, {"type": "node", "id": 11403384251, "lat": 13.5958304, "lon": 100.5990862}, {"type": "node", "id": 11403384252, "lat": 13.5959015, "lon": 100.5993241}, {"type": "node", "id": 11403384253, "lat": 13.5966088, "lon": 100.5991493}, {"type": "node", "id": 11403384254, "lat": 13.596518, "lon": 100.598822}]}