{"version": 0.6, "generator": "Overpass API 0.7.62.8 e802775f", "osm3s": {"timestamp_osm_base": "2025-11-20T03:23:29Z", "copyright": "The data included in this document is from www.openstreetmap.org. The data is made available under ODbL."}, "elements": [{"type": "node", "id": 1682448619, "lat": 13.9409502, "lon": 100.6408222, "tags": {"addr:postcode": "10220", "amenity": "place_of_worship", "name": "\u0e27\u0e31\u0e14\u0e42\u0e1e\u0e2a\u0e1e", "religion": "buddhist"}}, {"type": "node", "id": 2186950898, "lat": 13.9410912, "lon": 100.6113549, "tags": {"addr:housenumber": "1/26", "addr:postcode": "10210", "amenity": "restaurant", "diet:vegetarian": "only", "name": "\u0e2d\u0e32\u0e2b\u0e32\u0e23\u0e40\u0e08 \u0e1a\u0e49\u0e32\u0e19\u0e16\u0e31\u0e48\u0e27\u0e40\u0e2b\u0e25\u0e37\u0e2d\u0e07"}}, {"type": "node", "id": 3431296278, "lat": 13.9156453, "lon": 100.6000527, "tags": {"amenity": "cafe", "brand": "Starbucks", "brand:wikidata": "Q37158", "brand:wikipedia": "en:Starbucks", "cuisine": "coffee_shop", "name": "Starbucks", "name:en": "Starbucks Coffee", "name:th": "\u0e2a\u0e15\u0e32\u0e23\u0e4c\u0e1a\u0e31\u0e04\u0e2a\u0e4c", "official_name": "Starbucks Coffee", "shop": "coffee", "smoking": "no", "takeaway": "yes", "website": "https://www.starbucks.com/", "wheelchair": "yes"}}, {"type": "node", "id": 3431296279, "lat": 13.9178668, "lon": 100.6016357, "tags": {"amenity": "cafe", "brand": "Starbucks", "brand:wikidata": "Q37158", "brand:wikipedia": "en:Starbucks", "cuisine": "coffee_shop", "name": "Starbucks", "name:en": "Starbucks Coffee", "name:th": "\u0e2a\u0e15\u0e32\u0e23\u0e4c\u0e1a\u0e31\u0e04\u0e2a\u0e4c", "official_name": "Starbucks Coffee", "shop": "coffee", "smoking": "no", "takeaway": "yes", "website": "https://www.starbucks.com/"}}, {"type": "node", "id": 3889578878, "lat": 13.9196475, "lon": 100.6221304, "tags": {"name": "Royal Thai Air Force Museum", "name:ru": "\u041a\u043e\u0440\u043e\u043b\u0435\u0432\u0441\u043a\u0438\u0439 \u043c\u0443\u0437\u0435\u0439 \u0432\u043e\u0435\u043d\u043d\u043e-\u0432\u043e\u0437\u0434\u0443\u0448\u043d\u043e\u0439 \u0442\u0435\u0445\u043d\u0438\u043a\u0438", "opening_hours": "Mo-Su 09:00-16:00", "operator": "Royal Thai Air Force", "tourism": "museum", "wikidata": "Q4922129", "wikimedia_commons": "Category:Royal Thai Air Force Museum", "wikipedia": "en:Royal Thai Air Force Museum"}}, {"type": "node", "id": 4469439389, "lat": 13.9194193, "lon": 100.6017058, "tags": {"tourism": "picnic_site"}}, {"type": "node", "id": 4568177623, "lat": 13.9212511, "lon": 100.6027207, "tags": {"amenity": "cafe", "name": "The Coffee Club"}}, {"type": "node", "id": 4579360550, "lat": 13.923491, "lon": 100.6254239, "tags": {"historic": "memorial", "memorial": "war_memorial"}}, {"type": "node", "id": 5130510225, "lat": 13.9138972, "lon": 100.6006839, "tags": {"name": "\u0e2a\u0e19\u0e32\u0e21\u0e1a\u0e34\u0e19\u0e14\u0e2d\u0e19\u0e40\u0e21\u0e37\u0e2d\u0e07", "tourism": "attraction"}}, {"type": "node", "id": 5185739082, "lat": 13.9230726, "lon": 100.6022258, "tags": {"amenity": "restaurant", "cuisine": "thai"}}, {"type": "node", "id": 5185762861, "lat": 13.9234231, "lon": 100.6008673, "tags": {"contact:mobile": "+66 91 796 6124", "contact:phone": "+66 2 929 8915", "description": "hot coffee free; exactly 11 minutes to walk from here to Airport Don Muang, Terminal 2!", "facebook": "https://www.facebook.com/D.DonMuangHostel/", "internet_access": "wlan", "internet_access:fee": "no", "name": "D.DonMuang Hostel", "rooms": "3", "tourism": "hostel"}}, {"type": "node", "id": 5185906614, "lat": 13.9233935, "lon": 100.6009651, "tags": {"alt_name": "The Nine Backpacker", "alt_name_1": "The 9 Hostel", "contact:mobile": "+66 94 152 4565", "facebook": "http://www.facebook.com/ninenine.hongpak", "tourism": "hostel"}}, {"type": "node", "id": 5185990331, "lat": 13.9236805, "lon": 100.6012978, "tags": {"contact:phone": "+66 2 929 9607", "fixme": "position estimated", "name": "Add Home Hostel", "note": "Check-in Desk southeast from here!", "tourism": "hostel"}}, {"type": "node", "id": 6274391197, "lat": 13.9211254, "lon": 100.6013338, "tags": {"amenity": "restaurant"}}, {"type": "node", "id": 6274391198, "lat": 13.9219682, "lon": 100.601806, "tags": {"amenity": "restaurant"}}, {"type": "node", "id": 6274453994, "lat": 13.9214691, "lon": 100.6015423, "tags": {"amenity": "restaurant"}}, {"type": "node", "id": 6274454097, "lat": 13.9230188, "lon": 100.6041732, "tags": {"amenity": "restaurant", "name:de": "Flughafen Kantine (mehr f\u00fcr Personal)"}}, {"type": "node", "id": 6318053646, "lat": 13.9204843, "lon": 100.6046881, "tags": {"amenity": "cafe", "indoor_seating": "yes", "name": "Au We White Coffee", "outdoor_seating": "no"}}, {"type": "node", "id": 6318053673, "lat": 13.9204243, "lon": 100.6048001, "tags": {"amenity": "cafe", "indoor_seating": "yes", "name": "Starbucks", "outdoor_seating": "no"}}, {"type": "node", "id": 6318054221, "lat": 13.9203566, "lon": 100.6049426, "tags": {"amenity": "cafe", "indoor_seating": "yes", "name": "Caf\u00e9 Ritazza", "outdoor_seating": "no"}}, {"type": "node", "id": 6395393584, "lat": 13.9250239, "lon": 100.6000873, "tags": {"internet_access": "wlan", "name": "Don Mueang Airport Modern Bangkok Hotel", "tourism": "hotel"}}, {"type": "node", "id": 6609221788, "lat": 13.9187307, "lon": 100.6016136, "tags": {"addr:floor": "4", "amenity": "restaurant", "check_date": "2024-02-03", "name:en": "Food court (4th floor)"}}, {"type": "node", "id": 6609440385, "lat": 13.9180849, "lon": 100.6038051, "tags": {"amenity": "cafe", "brand": "Black Canyon", "brand:wikidata": "Q125870828", "cuisine": "coffee_shop", "name": "Black Canyon", "name:en": "Black Canyon", "takeaway": "yes"}}, {"type": "node", "id": 6609488086, "lat": 13.9185651, "lon": 100.6023449, "tags": {"amenity": "cafe"}}, {"type": "node", "id": 6609488101, "lat": 13.917717, "lon": 100.6017581, "tags": {"tourism": "information"}}, {"type": "node", "id": 6609488187, "lat": 13.9182117, "lon": 100.603573, "tags": {"amenity": "cafe", "name:en": "Au We White Coffee"}}, {"type": "node", "id": 6609488189, "lat": 13.9186692, "lon": 100.6031287, "tags": {"amenity": "cafe", "name:en": "Dao Coffee"}}, {"type": "node", "id": 6609503988, "lat": 13.9188135, "lon": 100.6028809, "tags": {"amenity": "cafe", "name:en": "Wu We White Coffee"}}, {"type": "node", "id": 6609504787, "lat": 13.9181332, "lon": 100.6021057, "tags": {"amenity": "cafe", "name:en": "Milch Caf\u00e9"}}, {"type": "node", "id": 6609505787, "lat": 13.917375, "lon": 100.6016537, "tags": {"amenity": "restaurant"}}, {"type": "node", "id": 6609531786, "lat": 13.917345, "lon": 100.6012035, "tags": {"amenity": "restaurant", "name:en": "China Town"}}, {"type": "node", "id": 6609577385, "lat": 13.9170024, "lon": 100.6014396, "tags": {"amenity": "cafe", "name:en": "Coffee club"}}, {"type": "node", "id": 6609629085, "lat": 13.9194293, "lon": 100.6027927, "tags": {"amenity": "cafe"}}, {"type": "node", "id": 6609660787, "lat": 13.9172482, "lon": 100.601589, "tags": {"amenity": "cafe", "brand": "Starbucks", "brand:wikidata": "Q37158", "cuisine": "coffee_shop", "name": "Starbucks", "name:en": "Starbucks", "official_name": "Starbucks Coffee", "takeaway": "yes"}}, {"type": "node", "id": 6609660790, "lat": 13.9164466, "lon": 100.6018411, "tags": {"amenity": "cafe"}}, {"type": "node", "id": 6609758386, "lat": 13.9162849, "lon": 100.6017922, "tags": {"amenity": "cafe", "name:en": "Camden"}}, {"type": "node", "id": 6609760787, "lat": 13.9158925, "lon": 100.6025253, "tags": {"amenity": "cafe", "brand": "Black Canyon", "brand:wikidata": "Q125870828", "cuisine": "coffee_shop", "name": "Black Canyon", "name:en": "Black Canyon", "takeaway": "yes"}}, {"type": "node", "id": 6609760788, "lat": 13.9161936, "lon": 100.6023783, "tags": {"amenity": "cafe", "name:en": "Dao Coffee"}}, {"type": "node", "id": 6609760885, "lat": 13.9167692, "lon": 100.6013176, "tags": {"amenity": "cafe", "name:en": "Mr Cup T"}}, {"type": "node", "id": 6609760889, "lat": 13.9156272, "lon": 100.603051, "tags": {"amenity": "cafe", "name:en": "Au We White Coffee"}}, {"type": "node", "id": 6609760985, "lat": 13.9166292, "lon": 100.6015398, "tags": {"amenity": "cafe", "name:en": "Magic"}}, {"type": "node", "id": 6609761085, "lat": 13.9165973, "lon": 100.6016154, "tags": {"amenity": "cafe", "name:en": "Doi Chang"}}, {"type": "node", "id": 6609769885, "lat": 13.9189466, "lon": 100.6020942, "tags": {"amenity": "cafe", "name:en": "Doi Chang Coffee"}}, {"type": "node", "id": 6609786985, "lat": 13.9210251, "lon": 100.604115, "tags": {"amenity": "cafe", "indoor_seating": "yes", "outdoor_seating": "no"}}, {"type": "node", "id": 6609787085, "lat": 13.9206827, "lon": 100.6048373, "tags": {"amenity": "cafe"}}, {"type": "node", "id": 6636474285, "lat": 13.9157312, "lon": 100.6006902, "tags": {"amenity": "cafe", "name:en": "Corol lounge"}}, {"type": "node", "id": 6636474385, "lat": 13.9156667, "lon": 100.6006589, "tags": {"amenity": "cafe", "name:en": "Miracle lounge"}}, {"type": "node", "id": 6636481092, "lat": 13.9141162, "lon": 100.6002563, "tags": {"amenity": "cafe", "name:en": "Coral caf\u00e9"}}, {"type": "node", "id": 6636481097, "lat": 13.9142469, "lon": 100.6007589, "tags": {"amenity": "cafe", "brand": "Black Canyon", "brand:wikidata": "Q125870828", "cuisine": "coffee_shop", "name": "Black Canyon", "name:en": "Black Canyon Coffee", "takeaway": "yes"}}, {"type": "node", "id": 6636481101, "lat": 13.9134084, "lon": 100.6013024, "tags": {"amenity": "cafe", "brand": "Black Canyon", "brand:wikidata": "Q125870828", "cuisine": "coffee_shop", "name": "Black Canyon", "name:en": "Black Canyon Coffee", "takeaway": "yes"}}, {"type": "node", "id": 6636481188, "lat": 13.9134023, "lon": 100.6018059, "tags": {"amenity": "cafe", "name:en": "Check in"}}, {"type": "node", "id": 6636481385, "lat": 13.914063, "lon": 100.6001166, "tags": {"amenity": "cafe", "name:en": "Ko Kai"}}, {"type": "node", "id": 6717768085, "lat": 13.9423256, "lon": 100.636982, "tags": {"addr:street": "Soi chuen sin 29 alley", "internet_access": "wlan", "name:en": "Nidhra Residence", "tourism": "apartment"}}, {"type": "node", "id": 6944296515, "lat": 13.9175097, "lon": 100.6010341, "tags": {"amenity": "cafe", "name": "Punthai Coffee"}}, {"type": "node", "id": 6991219687, "lat": 13.9288826, "lon": 100.6130022, "tags": {"name": "Picasso", "tourism": "hotel"}}, {"type": "node", "id": 9030201485, "lat": 13.9268043, "lon": 100.6270996, "tags": {"amenity": "restaurant"}}, {"type": "node", "id": 10280863490, "lat": 13.9262577, "lon": 100.6008889, "tags": {"addr:housenumber": "327/25", "addr:street": "\u0e2a\u0e23\u0e13\u0e04\u0e21\u0e19\u0e4c 10", "alt_name:en": "CheckIn Hostel @ Don Meung Airport", "charge": "500 THB", "internet_access": "yes", "internet_access:fee": "no", "name:en": "CheckIn Hostel", "phone": "+66 95 287 8965", "tourism": "hostel", "wheelchair": "limited"}}, {"type": "node", "id": 11265419029, "lat": 13.9498274, "lon": 100.6231281, "tags": {"amenity": "marketplace", "name": "Yaek Lam Luk Ka Market", "name:th": "\u0e15\u0e25\u0e32\u0e14\u0e2a\u0e14\u0e41\u0e22\u0e01\u0e25\u0e33\u0e25\u0e39\u0e01\u0e01\u0e32"}}, {"type": "node", "id": 11593759469, "lat": 13.9241998, "lon": 100.6003639, "tags": {"email": "youyenhostel@gmail.com", "internet_access": "wlan", "name:en": "Youyen Hostel", "tourism": "hostel"}}, {"type": "node", "id": 11757119796, "lat": 13.9179061, "lon": 100.6020075, "tags": {"amenity": "cafe", "cuisine": "coffee_shop", "name": "Red Diamond"}}, {"type": "node", "id": 12246199532, "lat": 13.9255553, "lon": 100.6378175, "tags": {"amenity": "place_of_worship", "denomination": "thai_mahanikaya", "name": "\u0e27\u0e31\u0e14\u0e40\u0e08\u0e23\u0e34\u0e0d\u0e18\u0e23\u0e23\u0e21\u0e32\u0e23\u0e32\u0e21", "name:en": "Wat Charoen Thammaram", "name:th": "\u0e27\u0e31\u0e14\u0e40\u0e08\u0e23\u0e34\u0e0d\u0e18\u0e23\u0e23\u0e21\u0e32\u0e23\u0e32\u0e21", "religion": "buddhist", "wikidata": "Q66382996", "wikipedia": "th:\u0e27\u0e31\u0e14\u0e40\u0e08\u0e23\u0e34\u0e0d\u0e18\u0e23\u0e23\u0e21\u0e32\u0e23\u0e32\u0e21 (\u0e01\u0e23\u0e38\u0e07\u0e40\u0e17\u0e1e\u0e21\u0e2b\u0e32\u0e19\u0e04\u0e23)"}}, {"type": "node", "id": 12411893575, "lat": 13.9252083, "lon": 100.6263814, "tags": {"historic": "memorial", "memorial": "war_memorial"}}, {"type": "node", "id": 12487584428, "lat": 13.9083131, "lon": 100.6320656, "tags": {"man_made": "tower", "religion": "buddhist", "tower:type": "pagoda"}}, {"type": "node", "id": 12495518301, "lat": 13.923281, "lon": 100.6012155, "tags": {"amenity": "cafe", "internet_access": "wlan", "name": "HeadShop 24h", "opening_hours": "24/7"}}, {"type": "node", "id": 12580297601, "lat": 13.9231801, "lon": 100.6015144, "tags": {"name": "The Alex", "tourism": "hotel"}}, {"type": "way", "id": 194876464, "nodes": [2053929850, 2053929847, 2053929822, 2053929830, 2053929795, 10274557691, 10274557690, 2053929850], "tags": {"amenity": "place_of_worship", "denomination": "thai_mahanikaya", "name": "\u0e27\u0e31\u0e14\u0e14\u0e2d\u0e19\u0e40\u0e21\u0e37\u0e2d\u0e07", "name:en": "Wat Don Muang", "name:th": "\u0e27\u0e31\u0e14\u0e14\u0e2d\u0e19\u0e40\u0e21\u0e37\u0e2d\u0e07", "religion": "buddhist", "wikidata": "Q90916186", "wikimedia_commons": "Category:Wat Don Mueang", "wikipedia": "th:\u0e27\u0e31\u0e14\u0e14\u0e2d\u0e19\u0e40\u0e21\u0e37\u0e2d\u0e07"}}, {"type": "way", "id": 194876474, "nodes": [2053929798, 2053929771, 2053929767, 1716296984, 5329375990, 2053929734, 2053929733, 2053929763, 2053929798], "tags": {"name": "Amari Don Muang Airport Hotel", "name:zh": "\u66fc\u8c37\u963f\u739b\u745e\u5eca\u66fc\u9152\u5e97", "phone": "+66 2 5661020", "toilets:wheelchair": "no", "tourism": "hotel", "website": "https://www.amari.com/donmuang/", "wheelchair": "limited"}}, {"type": "way", "id": 221951343, "nodes": [2309310629, 2309310627, 2309310617, 2309310621, 2309310623, 2309310619, 2309310625, 2309310629], "tags": {"amenity": "marketplace", "name": "\u0e15\u0e25\u0e32\u0e14\u0e2a\u0e14\u0e41\u0e22\u0e01\u0e25\u0e33\u0e25\u0e39\u0e01\u0e01\u0e32"}}, {"type": "way", "id": 446930376, "nodes": [4441450813, 4441450814, 4441450815, 4441450816, 4441450813], "tags": {"amenity": "place_of_worship", "building": "yes", "religion": "buddhist", "source": "survey"}}, {"type": "way", "id": 534816202, "nodes": [5185753780, 5185753781, 5185753782, 5185753783, 5185753780], "tags": {"addr:city": "\u0e01\u0e23\u0e38\u0e07\u0e40\u0e17\u0e1e\u0e21\u0e2b\u0e32\u0e19\u0e04\u0e23", "addr:district": "\u0e14\u0e2d\u0e19\u0e40\u0e21\u0e37\u0e2d\u0e07", "addr:housenumber": "14", "addr:postcode": "10210", "addr:province": "\u0e01\u0e23\u0e38\u0e07\u0e40\u0e17\u0e1e\u0e21\u0e2b\u0e32\u0e19\u0e04\u0e23", "addr:street": "\u0e16\u0e19\u0e19 \u0e2a\u0e23\u0e07\u0e1b\u0e23\u0e30\u0e20\u0e32 \u0e41\u0e02\u0e27\u0e07 \u0e40\u0e02\u0e15\u0e14\u0e2d\u0e19\u0e40\u0e21\u0e37\u0e2d\u0e07", "addr:subdistrict": "\u0e2a\u0e35\u0e01\u0e31\u0e19", "air_conditioning": "yes", "building": "yes", "guest_house": "hostel", "internet_access": "wlan", "internet_access:fee": "customers", "internet_access:ssid": "Dragon_14", "name": "Dragon XIV Hostel", "opening_hours": "Mo-Su 14:00-24:00", "phone": "0925163956", "reservation": "yes", "tourism": "hostel", "website": "https://dragon-xiv-hostel.business.site/"}}, {"type": "way", "id": 534816206, "nodes": [5185753796, 5185753797, 5185753804, 5185753798, 5185753796], "tags": {"addr:postcode": "10210", "addr:province": "\u0e01\u0e23\u0e38\u0e07\u0e40\u0e17\u0e1e\u0e21\u0e2b\u0e32\u0e19\u0e04\u0e23", "addr:street": "Thanon Song Prapha, \u0e14\u0e2d\u0e19\u0e40\u0e21\u0e37\u0e2d\u0e07 Don Mueang", "amenity": "restaurant", "building": "yes", "cuisine": "thai", "diet:egg_free": "yes", "diet:healthy": "yes", "diet:local": "yes", "diet:plant-based": "yes", "diet:vegan": "yes", "diet:vegetarian": "yes", "name": "\u0e2a\u0e34\u0e19\u0e32\u0e17\u0e2d\u0e32\u0e2b\u0e32\u0e23\u0e40\u0e08 Sinart Vegan", "opening_hours": "Mon-Sun 08:30-17:00", "phone": "0869880999", "website": "https://www.facebook.com/107103504539284/posts/412360024013629"}}, {"type": "way", "id": 553313313, "nodes": [5341192370, 5341192371, 5341192372, 5341192373, 5341192370], "tags": {"leisure": "park", "name": "Child Park"}}, {"type": "way", "id": 553449403, "nodes": [5342336707, 5599242732, 5342336708, 5599242733, 5342336709, 5342336710, 5599242734, 5595800569, 5342336711, 5599242735, 2309381426, 11380996855, 5341905053, 5812359748, 5812359743, 9819885041, 9819868410, 9819868407, 5342336707], "tags": {"leisure": "park", "name": "\u0e2a\u0e27\u0e19\u0e2a\u0e38\u0e02\u0e20\u0e32\u0e1e \u0e17\u0e2d.\u0e40\u0e09\u0e25\u0e34\u0e21\u0e1e\u0e23\u0e30\u0e40\u0e01\u0e35\u0e22\u0e23\u0e15\u0e34"}}, {"type": "way", "id": 556158016, "nodes": [5365099890, 5365099891, 5365099892, 5365099893, 5365099890], "tags": {"leisure": "park", "name": "Park"}}, {"type": "way", "id": 583512012, "nodes": [5578565003, 5578565004, 5578565005, 5578565006, 5578565009, 5578565007, 5578565008, 5578565003], "tags": {"leisure": "park", "name": "\u0e2a\u0e27\u0e19\u0e2a\u0e32\u0e18\u0e32\u0e23\u0e13\u0e30\u0e01\u0e2d\u0e07\u0e17\u0e31\u0e1e\u0e2d\u0e32\u0e01\u0e32\u0e28", "name:th": "\u0e2a\u0e27\u0e19\u0e2a\u0e32\u0e18\u0e32\u0e23\u0e13\u0e30\u0e01\u0e2d\u0e07\u0e17\u0e31\u0e1e\u0e2d\u0e32\u0e01\u0e32\u0e28"}}, {"type": "way", "id": 585587376, "nodes": [5595800570, 5595800571, 5595800572, 5595800573, 5595800570], "tags": {"leisure": "park", "name": "Thaninthorn Park"}}, {"type": "way", "id": 586112986, "nodes": [5600732489, 5600732490, 5600732491, 5600732492, 5600732493, 5600732494, 5600732495, 5600732489], "tags": {"leisure": "park"}}, {"type": "way", "id": 1069931134, "nodes": [9819885038, 9819885039, 12816383381, 9819885040, 9819885041, 9819885038], "tags": {"amenity": "marketplace", "name": "\u0e21\u0e34\u0e15\u0e23\u0e21\u0e32\u0e23\u0e4c\u0e40\u0e01\u0e47\u0e15 \u0e14\u0e2d\u0e19\u0e40\u0e21\u0e37\u0e2d\u0e07", "name:en": "MITR Market Donmueang", "name:th": "\u0e21\u0e34\u0e15\u0e23\u0e21\u0e32\u0e23\u0e4c\u0e40\u0e01\u0e47\u0e15 \u0e14\u0e2d\u0e19\u0e40\u0e21\u0e37\u0e2d\u0e07"}}, {"type": "way", "id": 1158743373, "nodes": [10775908715, 10775908716, 10775908717, 10775908718, 10775908715], "tags": {"amenity": "marketplace", "name": "\u0e15\u0e25\u0e32\u0e14\u0e2a\u0e14\u0e0b\u0e2d\u0e2225"}}, {"type": "way", "id": 1241667805, "nodes": [11537079423, 11537079424, 11537079425, 11537079426, 11537079427, 11537079428, 11537079429, 11537079430, 11537079431, 11537079432, 11537079433, 9030201487, 9030201486, 12885876730, 11537079434, 12885876729, 11537079423], "tags": {"amenity": "marketplace", "name": "\u0e40\u0e0b\u0e1e\u0e27\u0e31\u0e19\u0e42\u0e01", "name:en": "Save One Go Market"}}, {"type": "way", "id": 1247074554, "nodes": [11593587566, 11593587567, 11593587568, 11593672169, 11593672170, 11593672171, 11593672172, 11593672173, 11593587566], "tags": {"leisure": "park", "name": "\u0e2a\u0e27\u0e19\u0e2a\u0e38\u0e02\u0e20\u0e32\u0e1e"}}, {"type": "way", "id": 1349896970, "nodes": [12487579538, 12487579539, 12487579540, 12487579541, 12487579542, 12487579544, 12487579543, 12487584575, 12487579545, 12487579551, 12487579550, 12487579538], "tags": {"amenity": "place_of_worship", "landuse": "religious", "name": "\u0e27\u0e31\u0e14\u0e40\u0e01\u0e32\u0e30\u0e2a\u0e38\u0e27\u0e23\u0e23\u0e13\u0e32\u0e23\u0e32\u0e21", "name:en": "Wat Koh Suwanaram", "name:th": "\u0e27\u0e31\u0e14\u0e40\u0e01\u0e32\u0e30\u0e2a\u0e38\u0e27\u0e23\u0e23\u0e13\u0e32\u0e23\u0e32\u0e21", "religion": "buddhist"}}, {"type": "way", "id": 1370279804, "nodes": [12690471672, 12690471673, 12692926146, 12692926145, 12690471674, 12690471675, 12690471676, 12690471677, 12690471678, 12690471672], "tags": {"addr:postcode": "10220", "addr:street": "\u0e1e\u0e2b\u0e25\u0e42\u0e22\u0e18\u0e34\u0e19 58", "amenity": "marketplace", "building": "marketplace", "building:levels": "0", "name": "\u0e15\u0e25\u0e32\u0e14\u0e19\u0e31\u0e14\u0e41\u0e2d\u0e19\u0e40\u0e19\u0e01\u0e0b\u0e4c", "name:en": "Annex Market", "official_name": "\u0e15\u0e25\u0e32\u0e14\u0e19\u0e31\u0e14 \u0e1e\u0e2b\u0e25\u0e42\u0e22\u0e18\u0e34\u0e19 58", "official_name:en": "Pahon Yothin 58 Market"}}, {"type": "way", "id": 1392039114, "nodes": [1598505984, 12886086354, 12886086376, 12886086363, 12886086356, 10758530982, 12886086357, 12886086358, 12886086359, 12886086360, 6710127649, 6710127650, 12886086361, 12886086362, 1598505984], "tags": {"amenity": "marketplace", "landuse": "commercial", "name": "\u0e15\u0e25\u0e32\u0e14 \u0e40\u0e2d.\u0e0b\u0e4a.\u0e2a\u0e32\u0e22\u0e44\u0e2b\u0e21", "name:th": "\u0e15\u0e25\u0e32\u0e14 \u0e40\u0e2d.\u0e0b\u0e4a.\u0e2a\u0e32\u0e22\u0e44\u0e2b\u0e21"}}, {"type": "node", "id": 4441450815, "lat": 13.9099874, "lon": 100.6176559}, {"type": "node", "id": 4441450816, "lat": 13.9100227, "lon": 100.6175934}, {"type": "node", "id": 5578565003, "lat": 13.9097099, "lon": 100.6221178}, {"type": "node", "id": 5578565007, "lat": 13.9065373, "lon": 100.6214024}, {"type": "node", "id": 5578565008, "lat": 13.9071804, "lon": 100.6206639}, {"type": "node", "id": 5578565009, "lat": 13.9071871, "lon": 100.6231427}, {"type": "node", "id": 5578565004, "lat": 13.9081861, "lon": 100.6248424}, {"type": "node", "id": 5578565005, "lat": 13.9078621, "lon": 100.6246078}, {"type": "node", "id": 5578565006, "lat": 13.9075994, "lon": 100.6242469}, {"type": "node", "id": 12487579538, "lat": 13.907849, "lon": 100.6318343}, {"type": "node", "id": 12487579539, "lat": 13.9084608, "lon": 100.6317189}, {"type": "node", "id": 12487579540, "lat": 13.9085728, "lon": 100.6322111}, {"type": "node", "id": 12487579541, "lat": 13.9087042, "lon": 100.632187}, {"type": "node", "id": 12487579542, "lat": 13.9087563, "lon": 100.6324217}, {"type": "node", "id": 12487579543, "lat": 13.9085884, "lon": 100.6333954}, {"type": "node", "id": 12487579544, "lat": 13.9089585, "lon": 100.6333345}, {"type": "node", "id": 12487579545, "lat": 13.907886, "lon": 100.6335043}, {"type": "node", "id": 12487579550, "lat": 13.9080854, "lon": 100.6329983}, {"type": "node", "id": 12487579551, "lat": 13.9078257, "lon": 100.6330214}, {"type": "node", "id": 12487584575, "lat": 13.9084613, "lon": 100.6334151}, {"type": "node", "id": 1716296984, "lat": 13.920843, "lon": 100.6007649}, {"type": "node", "id": 2053929733, "lat": 13.920358, "lon": 100.6004532}, {"type": "node", "id": 2053929734, "lat": 13.9203676, "lon": 100.6004937}, {"type": "node", "id": 2053929763, "lat": 13.9208736, "lon": 100.5994919}, {"type": "node", "id": 2053929767, "lat": 13.9209119, "lon": 100.6008036}, {"type": "node", "id": 2053929771, "lat": 13.9209621, "lon": 100.6007882}, {"type": "node", "id": 2053929795, "lat": 13.9214463, "lon": 100.6007345}, {"type": "node", "id": 2053929798, "lat": 13.921474, "lon": 100.5998338}, {"type": "node", "id": 2053929822, "lat": 13.9219395, "lon": 100.601588}, {"type": "node", "id": 2053929830, "lat": 13.9221556, "lon": 100.6011173}, {"type": "node", "id": 2053929847, "lat": 13.9226006, "lon": 100.6019705}, {"type": "node", "id": 2053929850, "lat": 13.9226809, "lon": 100.6019469}, {"type": "node", "id": 5185753780, "lat": 13.9231129, "lon": 100.6015803}, {"type": "node", "id": 5329375990, "lat": 13.920632, "lon": 100.6006445}, {"type": "node", "id": 10274557691, "lat": 13.9218888, "lon": 100.5999788}, {"type": "node", "id": 5185753781, "lat": 13.9231726, "lon": 100.60142}, {"type": "node", "id": 5185753782, "lat": 13.9232525, "lon": 100.6014531}, {"type": "node", "id": 5185753783, "lat": 13.9231929, "lon": 100.6016134}, {"type": "node", "id": 5185753796, "lat": 13.9233722, "lon": 100.6011076}, {"type": "node", "id": 5185753797, "lat": 13.9233071, "lon": 100.6010823}, {"type": "node", "id": 5185753798, "lat": 13.9233965, "lon": 100.6010411}, {"type": "node", "id": 5185753804, "lat": 13.9233315, "lon": 100.6010159}, {"type": "node", "id": 10274557690, "lat": 13.9231477, "lon": 100.6007111}, {"type": "node", "id": 4441450813, "lat": 13.910111, "lon": 100.6176462}, {"type": "node", "id": 4441450814, "lat": 13.9100758, "lon": 100.6177088}, {"type": "node", "id": 2309381426, "lat": 13.9251878, "lon": 100.6222601}, {"type": "node", "id": 5342336708, "lat": 13.9296817, "lon": 100.6217973}, {"type": "node", "id": 5342336711, "lat": 13.9276212, "lon": 100.6215797}, {"type": "node", "id": 5595800569, "lat": 13.928385, "lon": 100.6214083}, {"type": "node", "id": 5599242732, "lat": 13.9296342, "lon": 100.6218429}, {"type": "node", "id": 5599242735, "lat": 13.9264125, "lon": 100.621892}, {"type": "node", "id": 11380996855, "lat": 13.9250753, "lon": 100.6224597}, {"type": "node", "id": 5342336709, "lat": 13.9302986, "lon": 100.6217067}, {"type": "node", "id": 5342336710, "lat": 13.9302898, "lon": 100.6211822}, {"type": "node", "id": 5599242733, "lat": 13.9302466, "lon": 100.6217488}, {"type": "node", "id": 5599242734, "lat": 13.9302505, "lon": 100.621141}, {"type": "node", "id": 5341905053, "lat": 13.9241514, "lon": 100.6240981}, {"type": "node", "id": 5342336707, "lat": 13.929649, "lon": 100.6242712}, {"type": "node", "id": 5812359743, "lat": 13.9266759, "lon": 100.6241821}, {"type": "node", "id": 5812359748, "lat": 13.9245221, "lon": 100.6241098}, {"type": "node", "id": 9030201486, "lat": 13.926309, "lon": 100.6279989}, {"type": "node", "id": 9030201487, "lat": 13.9258005, "lon": 100.6277743}, {"type": "node", "id": 9819868407, "lat": 13.9295258, "lon": 100.6242675}, {"type": "node", "id": 9819868410, "lat": 13.9274311, "lon": 100.6242047}, {"type": "node", "id": 9819885038, "lat": 13.9295484, "lon": 100.6243011}, {"type": "node", "id": 9819885039, "lat": 13.9295052, "lon": 100.6258238}, {"type": "node", "id": 9819885040, "lat": 13.9272569, "lon": 100.6262712}, {"type": "node", "id": 9819885041, "lat": 13.9273395, "lon": 100.624202}, {"type": "node", "id": 11537079423, "lat": 13.9276556, "lon": 100.6269544}, {"type": "node", "id": 11537079424, "lat": 13.9275827, "lon": 100.6268552}, {"type": "node", "id": 11537079425, "lat": 13.9274161, "lon": 100.6267881}, {"type": "node", "id": 11537079426, "lat": 13.9272339, "lon": 100.6268069}, {"type": "node", "id": 11537079427, "lat": 13.9268642, "lon": 100.6268391}, {"type": "node", "id": 11537079428, "lat": 13.9266247, "lon": 100.626831}, {"type": "node", "id": 11537079429, "lat": 13.9263253, "lon": 100.6268015}, {"type": "node", "id": 11537079430, "lat": 13.9260181, "lon": 100.6267425}, {"type": "node", "id": 11537079431, "lat": 13.9258957, "lon": 100.6266889}, {"type": "node", "id": 11537079432, "lat": 13.9249871, "lon": 100.6284699}, {"type": "node", "id": 11537079433, "lat": 13.9254311, "lon": 100.6285736}, {"type": "node", "id": 11537079434, "lat": 13.9273201, "lon": 100.6299032}, {"type": "node", "id": 12816383381, "lat": 13.9290751, "lon": 100.6259094}, {"type": "node", "id": 12885876729, "lat": 13.9276778, "lon": 100.6297687}, {"type": "node", "id": 12885876730, "lat": 13.9262194, "lon": 100.6297852}, {"type": "node", "id": 5365099890, "lat": 13.9188366, "lon": 100.6371184}, {"type": "node", "id": 5365099891, "lat": 13.918817, "lon": 100.6374134}, {"type": "node", "id": 5365099892, "lat": 13.9186075, "lon": 100.6373973}, {"type": "node", "id": 5365099893, "lat": 13.9186205, "lon": 100.6371077}, {"type": "node", "id": 6710127649, "lat": 13.9219961, "lon": 100.6422639}, {"type": "node", "id": 6710127650, "lat": 13.9226127, "lon": 100.6422918}, {"type": "node", "id": 12886086358, "lat": 13.9223263, "lon": 100.6433165}, {"type": "node", "id": 12886086359, "lat": 13.9223095, "lon": 100.6434706}, {"type": "node", "id": 12886086360, "lat": 13.9219766, "lon": 100.6434554}, {"type": "node", "id": 1598505984, "lat": 13.9267963, "lon": 100.6424693}, {"type": "node", "id": 10758530982, "lat": 13.926717, "lon": 100.643514}, {"type": "node", "id": 12886086354, "lat": 13.9267752, "lon": 100.6430885}, {"type": "node", "id": 12886086356, "lat": 13.9267543, "lon": 100.6435154}, {"type": "node", "id": 12886086357, "lat": 13.9241842, "lon": 100.6434246}, {"type": "node", "id": 12886086361, "lat": 13.9253333, "lon": 100.6424089}, {"type": "node", "id": 12886086362, "lat": 13.9265138, "lon": 100.642462}, {"type": "node", "id": 12886086363, "lat": 13.9267611, "lon": 100.6433773}, {"type": "node", "id": 12886086376, "lat": 13.9267663, "lon": 100.6432702}, {"type": "node", "id": 5341192370, "lat": 13.9375792, "lon": 100.6143072}, {"type": "node", "id": 5341192371, "lat": 13.9376657, "lon": 100.6143755}, {"type": "node", "id": 5341192372, "lat": 13.9379676, "lon": 100.6140265}, {"type": "node", "id": 5341192373, "lat": 13.9377909, "lon": 100.6139203}, {"type": "node", "id": 5595800570, "lat": 13.9390284, "lon": 100.6124329}, {"type": "node", "id": 5595800571, "lat": 13.9389559, "lon": 100.6125543}, {"type": "node", "id": 5595800572, "lat": 13.9386296, "lon": 100.6123722}, {"type": "node", "id": 5595800573, "lat": 13.9386885, "lon": 100.6122508}, {"type": "node", "id": 2309310617, "lat": 13.9493496, "lon": 100.6231863}, {"type": "node", "id": 12690471672, "lat": 13.9372395, "lon": 100.631716}, {"type": "node", "id": 12690471673, "lat": 13.9368361, "lon": 100.6316973}, {"type": "node", "id": 12690471674, "lat": 13.9366391, "lon": 100.6321543}, {"type": "node", "id": 12690471675, "lat": 13.9371896, "lon": 100.6321924}, {"type": "node", "id": 12690471676, "lat": 13.9372168, "lon": 100.6319635}, {"type": "node", "id": 12690471677, "lat": 13.9372304, "lon": 100.6318468}, {"type": "node", "id": 12690471678, "lat": 13.9372304, "lon": 100.6317907}, {"type": "node", "id": 12692926145, "lat": 13.9366516, "lon": 100.6318785}, {"type": "node", "id": 12692926146, "lat": 13.9368083, "lon": 100.6318873}, {"type": "node", "id": 2309310619, "lat": 13.9499754, "lon": 100.6230496}, {"type": "node", "id": 2309310621, "lat": 13.9493807, "lon": 100.6233791}, {"type": "node", "id": 2309310623, "lat": 13.9498296, "lon": 100.6232964}, {"type": "node", "id": 2309310625, "lat": 13.9499207, "lon": 100.6227036}, {"type": "node", "id": 2309310627, "lat": 13.9497411, "lon": 100.623114}, {"type": "node", "id": 2309310629, "lat": 13.9496838, "lon": 100.6227438}, {"type": "node", "id": 10775908715, "lat": 13.9371401, "lon": 100.6418996}, {"type": "node", "id": 10775908716, "lat": 13.9370635, "lon": 100.641898}, {"type": "node", "id": 10775908717, "lat": 13.9370297, "lon": 100.6427508}, {"type": "node", "id": 10775908718, "lat": 13.9371062, "lon": 100.6427614}, {"type": "node", "id": 5600732489, "lat": 13.9399434, "lon": 100.6465032}, {"type": "node", "id": 5600732490, "lat": 13.9397826, "lon": 100.6465672}, {"type": "node", "id": 5600732491, "lat": 13.9397441, "lon": 100.6466099}, {"type": "node", "id": 5600732492, "lat": 13.9397431, "lon": 100.646863}, {"type": "node", "id": 5600732493, "lat": 13.9397944, "lon": 100.646982}, {"type": "node", "id": 5600732494, "lat": 13.9399632, "lon": 100.646919}, {"type": "node", "id": 5600732495, "lat": 13.9399563, "lon": 100.6465133}, {"type": "node", "id": 11593587566, "lat": 13.9415415, "lon": 100.646234}, {"type": "node", "id": 11593587567, "lat": 13.9413937, "lon": 100.6462325}, {"type": "node", "id": 11593587568, "lat": 13.9413773, "lon": 100.6463602}, {"type": "node", "id": 11593672169, "lat": 13.9414937, "lon": 100.646591}, {"type": "node", "id": 11593672170, "lat": 13.9417864, "lon": 100.6464571}, {"type": "node", "id": 11593672171, "lat": 13.9416132, "lon": 100.6464602}, {"type": "node", "id": 11593672172, "lat": 13.9415968, "lon": 100.6463587}, {"type": "node", "id": 11593672173, "lat": 13.94154, "lon": 100.646354}]}