{"version": 0.6, "generator": "Overpass API 0.7.62.8 e802775f", "osm3s": {"timestamp_osm_base": "2025-11-20T03:22:29Z", "copyright": "The data included in this document is from www.openstreetmap.org. The data is made available under ODbL."}, "elements": [{"type": "node", "id": 891272542, "lat": 13.8550248, "lon": 100.5676698, "tags": {"name": "\u0e1e\u0e34\u0e1e\u0e34\u0e18\u0e20\u0e31\u0e13\u0e11\u0e4c\u0e2a\u0e31\u0e15\u0e27\u0e4c\u0e19\u0e49\u0e33\u0e1a\u0e32\u0e07\u0e40\u0e02\u0e19", "tourism": "museum"}}, {"type": "node", "id": 891275584, "lat": 13.8552919, "lon": 100.5698924, "tags": {"amenity": "restaurant", "name": "\u0e1a\u0e32\u0e23\u0e4c\u0e04\u0e13\u0e30\u0e1b\u0e23\u0e30\u0e21\u0e07"}}, {"type": "node", "id": 893975260, "lat": 13.8603841, "lon": 100.5510824, "tags": {"amenity": "restaurant", "name": "\u0e23\u0e32\u0e14\u0e2b\u0e19\u0e49\u0e32", "shop": "convenience"}}, {"type": "node", "id": 893975261, "lat": 13.8600195, "lon": 100.5518227, "tags": {"amenity": "restaurant", "name": "\u0e2d\u0e32\u0e2b\u0e32\u0e23\u0e15\u0e32\u0e21\u0e2a\u0e31\u0e48\u0e07", "shop": "doityourself"}}, {"type": "node", "id": 893975262, "lat": 13.86003, "lon": 100.5520373, "tags": {"amenity": "restaurant", "name": "\u0e1c\u0e31\u0e14\u0e44\u0e17"}}, {"type": "node", "id": 893975265, "lat": 13.8695817, "lon": 100.5534106, "tags": {"amenity": "restaurant", "name": "\u0e01\u0e4b\u0e27\u0e22\u0e40\u0e15\u0e35\u0e4b\u0e22\u0e27\u0e40\u0e23\u0e37\u0e2d\u0e2d\u0e22\u0e38\u0e18\u0e22\u0e32"}}, {"type": "node", "id": 893975266, "lat": 13.873153, "lon": 100.554535, "tags": {"amenity": "marketplace", "name": "\u0e15\u0e25\u0e32\u0e14\u0e17\u0e48\u0e32\u0e17\u0e23\u0e32\u0e22"}}, {"type": "node", "id": 893975285, "lat": 13.8701025, "lon": 100.5563074, "tags": {"amenity": "restaurant", "name": "The Corner"}}, {"type": "node", "id": 942310465, "lat": 13.8930434, "lon": 100.5617395, "tags": {"addr:district": "\u0e2b\u0e25\u0e31\u0e01\u0e2a\u0e35\u0e48", "addr:province": "\u0e01\u0e23\u0e38\u0e07\u0e40\u0e17\u0e1e\u0e21\u0e2b\u0e32\u0e19\u0e04\u0e23", "addr:subdistrict": "\u0e17\u0e38\u0e48\u0e07\u0e2a\u0e2d\u0e07\u0e2b\u0e49\u0e2d\u0e07", "name": "\u0e42\u0e23\u0e07\u0e41\u0e23\u0e21\u0e08\u0e31\u0e21\u0e42\u0e1b\u0e40\u0e17\u0e25", "name:en": "Jumbotel Hotel", "name:th": "\u0e42\u0e23\u0e07\u0e41\u0e23\u0e21\u0e08\u0e31\u0e21\u0e42\u0e1b\u0e40\u0e17\u0e25", "source": "GPS; sign", "tourism": "hotel"}}, {"type": "node", "id": 942310585, "lat": 13.8956724, "lon": 100.5616046, "tags": {"addr:district": "\u0e2b\u0e25\u0e31\u0e01\u0e2a\u0e35\u0e48", "addr:province": "\u0e01\u0e23\u0e38\u0e07\u0e40\u0e17\u0e1e\u0e21\u0e2b\u0e32\u0e19\u0e04\u0e23", "addr:subdistrict": "\u0e17\u0e38\u0e48\u0e07\u0e2a\u0e2d\u0e07\u0e2b\u0e49\u0e2d\u0e07", "amenity": "marketplace", "name": "\u0e15\u0e25\u0e32\u0e14\u0e40\u0e21\u0e37\u0e2d\u0e07\u0e17\u0e2d\u0e07 1", "name:en": "Talat Mueang Thong 1", "name:th": "\u0e15\u0e25\u0e32\u0e14\u0e40\u0e21\u0e37\u0e2d\u0e07\u0e17\u0e2d\u0e07 1"}}, {"type": "node", "id": 942310690, "lat": 13.8913703, "lon": 100.5612895, "tags": {"addr:district": "\u0e2b\u0e25\u0e31\u0e01\u0e2a\u0e35\u0e48", "addr:housenumber": "54/7", "addr:postcode": "10210", "addr:province": "\u0e01\u0e23\u0e38\u0e07\u0e40\u0e17\u0e1e\u0e21\u0e2b\u0e32\u0e19\u0e04\u0e23", "addr:subdistrict": "\u0e17\u0e38\u0e48\u0e07\u0e2a\u0e2d\u0e07\u0e2b\u0e49\u0e2d\u0e07", "name": "\u0e42\u0e23\u0e07\u0e41\u0e23\u0e21 \u0e17\u0e35\u0e40\u0e04.\u0e1e\u0e32\u0e40\u0e25\u0e0b", "name:en": "TK. Palace Hotel", "name:th": "\u0e42\u0e23\u0e07\u0e41\u0e23\u0e21 \u0e17\u0e35\u0e40\u0e04.\u0e1e\u0e32\u0e40\u0e25\u0e0b", "phone": "+66 2 5741588", "source": "GPS; sign", "tourism": "hotel", "url": "http://www.tkpalace.com/"}}, {"type": "node", "id": 1063304340, "lat": 13.8879252, "lon": 100.5821582, "tags": {"amenity": "place_of_worship", "denomination": "theravada", "name": "\u0e27\u0e31\u0e14\u0e2b\u0e25\u0e31\u0e01\u0e2a\u0e35\u0e48", "name:en": "Laksi Temple", "religion": "buddhist", "wikidata": "Q99148582", "wikimedia_commons": "Category:Wat Lak Si"}}, {"type": "node", "id": 1376627926, "lat": 13.8536606, "lon": 100.5711377, "tags": {"amenity": "restaurant", "name": "\u0e2b\u0e49\u0e2d\u0e07\u0e2d\u0e32\u0e2b\u0e32\u0e23\u0e2a\u0e2b\u0e42\u0e20\u0e0a\u0e19\u0e4c"}}, {"type": "node", "id": 1597530473, "lat": 13.8501233, "lon": 100.5815374, "tags": {"addr:street": "\u0e16\u0e19\u0e19\u0e1e\u0e2b\u0e25\u0e42\u0e22\u0e18\u0e34\u0e19", "amenity": "restaurant", "cuisine": "noodle", "name": "\u0e0a\u0e32\u0e22\u0e2a\u0e35\u0e48\u0e1a\u0e30\u0e2b\u0e21\u0e35\u0e48\u0e40\u0e01\u0e35\u0e4a\u0e22\u0e27", "outdoor_seating": "yes", "smoking": "no", "takeaway": "yes"}}, {"type": "node", "id": 1952131179, "lat": 13.8743003, "lon": 100.5819752, "tags": {"name": "Louis Tavern", "tourism": "hotel"}}, {"type": "node", "id": 1954012310, "lat": 13.8749558, "lon": 100.5785943, "tags": {"amenity": "cafe", "name": "Wawee Coffee"}}, {"type": "node", "id": 1954015766, "lat": 13.87431, "lon": 100.579753, "tags": {"amenity": "cafe", "name": "Snowberry"}}, {"type": "node", "id": 1955998701, "lat": 13.8752617, "lon": 100.5798561, "tags": {"name": "Ebina House Service Apartment", "tourism": "hotel"}}, {"type": "node", "id": 1956017840, "lat": 13.8738295, "lon": 100.5799822, "tags": {"amenity": "restaurant", "cuisine": "vietnamese", "name": "Long Do"}}, {"type": "node", "id": 2664103703, "lat": 13.8904808, "lon": 100.5616559, "tags": {"email": "delightresidence@gmail.com", "internet_access": "wlan", "internet_access:fee": "no", "name": "Delight Residence", "name:en": "Delight Residence", "name:th": "\u0e14\u0e35\u0e44\u0e25\u0e17\u0e4c \u0e40\u0e23\u0e2a\u0e0b\u0e34\u0e40\u0e14\u0e19\u0e0a\u0e4c", "phone": "+66 86 2281515", "tourism": "hotel", "website": "http://www.delightresidence.com/"}}, {"type": "node", "id": 2664103704, "lat": 13.8938116, "lon": 100.5600504, "tags": {"amenity": "restaurant", "brand": "MK Restaurants", "brand:wikidata": "Q62075359", "cuisine": "thai", "name": "MK Restaurants", "name:en": "MK Restaurants", "operator": "MK Restaurants", "phone": "1642", "website": "https://www.mkrestaurant.com/"}}, {"type": "node", "id": 3431296272, "lat": 13.8800091, "lon": 100.5502956, "tags": {"amenity": "cafe", "brand": "Starbucks", "brand:wikidata": "Q37158", "brand:wikipedia": "en:Starbucks", "cuisine": "coffee_shop", "name": "Starbucks", "name:en": "Starbucks Coffee", "name:th": "\u0e2a\u0e15\u0e32\u0e23\u0e4c\u0e1a\u0e31\u0e04\u0e2a\u0e4c", "official_name": "Starbucks Coffee", "shop": "coffee", "smoking": "no", "takeaway": "yes", "website": "https://www.starbucks.com/"}}, {"type": "node", "id": 3431296274, "lat": 13.8941476, "lon": 100.5589445, "tags": {"amenity": "cafe", "brand": "Starbucks", "brand:wikidata": "Q37158", "brand:wikipedia": "en:Starbucks", "cuisine": "coffee_shop", "name": "Starbucks", "name:en": "Starbucks Coffee", "name:th": "\u0e2a\u0e15\u0e32\u0e23\u0e4c\u0e1a\u0e31\u0e04\u0e2a\u0e4c", "official_name": "Starbucks Coffee", "shop": "coffee", "smoking": "no", "takeaway": "yes", "website": "https://www.starbucks.com/"}}, {"type": "node", "id": 4347024040, "lat": 13.8712428, "lon": 100.5500632, "tags": {"historic": "memorial", "name": "\u0e2d\u0e19\u0e38\u0e2a\u0e32\u0e27\u0e23\u0e35\u0e22\u0e4c \u0e14\u0e23.\u0e44\u0e2a\u0e27 \u0e2a\u0e38\u0e17\u0e18\u0e34\u0e1e\u0e34\u0e17\u0e31\u0e01\u0e29\u0e4c \u0e41\u0e25\u0e30 \u0e2d.\u0e2a\u0e19\u0e31\u0e48\u0e19 \u0e40\u0e01\u0e15\u0e38\u0e17\u0e31\u0e15"}}, {"type": "node", "id": 4455984090, "lat": 13.8926659, "lon": 100.5625461, "tags": {"amenity": "cafe", "name:en": "DogCafe"}}, {"type": "node", "id": 4541209610, "lat": 13.8780805, "lon": 100.5944644, "tags": {"name:en": "Regent Home 15", "tourism": "hostel"}}, {"type": "node", "id": 4641922791, "lat": 13.8891206, "lon": 100.5704632, "tags": {"name:en": "Customer Service Center", "tourism": "information"}}, {"type": "node", "id": 4684549802, "lat": 13.8921531, "lon": 100.5803854, "tags": {"name": "baankerk", "tourism": "hostel"}}, {"type": "node", "id": 4696397792, "lat": 13.892612, "lon": 100.5532675, "tags": {"amenity": "restaurant", "name:de": "About Hip"}}, {"type": "node", "id": 5362852436, "lat": 13.8835383, "lon": 100.5672347, "tags": {"leisure": "park"}}, {"type": "node", "id": 5392819022, "lat": 13.8949945, "lon": 100.5579756, "tags": {"addr:street": "\u0e16\u0e19\u0e19\u0e41\u0e08\u0e49\u0e07\u0e27\u0e31\u0e12\u0e19\u0e30", "amenity": "restaurant", "cuisine": "korean", "internet_access": "wlan", "name": "\u0e40\u0e14\u0e2d\u0e30 \u0e2e\u0e31\u0e19\u0e0b\u0e34\u0e01", "name:en": "The Hansik", "name:ko": "\ub354 \ud55c\uc2dd", "opening_hours": "Mo-Su 11:00-22:00", "phone": "025736439"}}, {"type": "node", "id": 5488251023, "lat": 13.873945, "lon": 100.581968, "tags": {"name:en": "The Halls", "tourism": "hotel"}}, {"type": "node", "id": 7168720159, "lat": 13.8964798, "lon": 100.5523192, "tags": {"addr:city": "\u0e19\u0e19\u0e17\u0e1a\u0e38\u0e23\u0e35", "addr:housenumber": "77/19", "addr:postcode": "11120", "addr:street": "\u0e16\u0e19\u0e19\u0e41\u0e08\u0e49\u0e07\u0e27\u0e31\u0e12\u0e19\u0e30", "amenity": "cafe", "cuisine": "coffee_shop;bubble_tea", "delivery": "yes", "internet_access": "yes", "internet_access:fee": "yes", "name": "FOMU", "opening_hours": "Mo-Su 11:00-17:00"}}, {"type": "node", "id": 7626368917, "lat": 13.858126, "lon": 100.5588798, "tags": {"amenity": "restaurant", "cuisine": "thai", "name": "\u0e2a\u0e49\u0e21\u0e15\u0e33\u0e2a\u0e21\u0e32\u0e19"}}, {"type": "node", "id": 8968915970, "lat": 13.8694782, "lon": 100.5560104, "tags": {"addr:housenumber": "54/4", "addr:postcode": "10210", "addr:province": "\u0e01\u0e23\u0e38\u0e07\u0e40\u0e17\u0e1e\u0e21\u0e2b\u0e32\u0e19\u0e04\u0e23", "addr:street": "\u0e07\u0e32\u0e21\u0e27\u0e07\u0e28\u0e4c\u0e27\u0e32\u0e19 47 \u0e41\u0e22\u0e01 40", "amenity": "cafe", "cuisine": "coffee_shop", "internet_access": "yes", "internet_access:fee": "customers", "name": "La Pluie Cafe", "opening_hours": "Mo-Su 07:00-19:00", "outdoor_seating": "yes", "phone": "0917261236", "website": "https://www.facebook.com/lapluieCafe"}}, {"type": "node", "id": 9739218026, "lat": 13.8982692, "lon": 100.5540303, "tags": {"amenity": "cafe", "list:fmm_0000": "yes", "name": "Hidden Backyard Cafe and Hangout", "opening_hours": "Mo-Su 11:00-23:45"}}, {"type": "node", "id": 10059784310, "lat": 13.8529665, "lon": 100.568457, "tags": {"amenity": "cafe", "name": "A little rabit cafe"}}, {"type": "node", "id": 10059784311, "lat": 13.8529937, "lon": 100.5685271, "tags": {"amenity": "cafe", "cuisine": "coffee_shop", "name": "We Quit Sugar Cafe in Campus"}}, {"type": "node", "id": 10093297017, "lat": 13.8901091, "lon": 100.5500843, "tags": {"tourism": "apartment"}}, {"type": "node", "id": 10588184743, "lat": 13.8868004, "lon": 100.5519385, "tags": {"amenity": "cafe", "name": "Addicted"}}, {"type": "node", "id": 10761806034, "lat": 13.8791417, "lon": 100.5511628, "tags": {"access": "permit", "historic": "monument", "name": "\u0e1e\u0e23\u0e30\u0e1a\u0e23\u0e21\u0e23\u0e32\u0e0a\u0e32\u0e19\u0e38\u0e2a\u0e32\u0e27\u0e23\u0e35\u0e22\u0e4c \u0e23\u0e31\u0e0a\u0e01\u0e32\u0e25\u0e17\u0e35\u0e48 5"}}, {"type": "node", "id": 10761806035, "lat": 13.8806721, "lon": 100.5526286, "tags": {"access": "permit", "historic": "monument", "name": "\u0e1e\u0e23\u0e30\u0e41\u0e21\u0e48\u0e18\u0e23\u0e13\u0e35\u0e1a\u0e35\u0e1a\u0e21\u0e27\u0e22\u0e1c\u0e21"}}, {"type": "node", "id": 10908695906, "lat": 13.8797609, "lon": 100.5989232, "tags": {"addr:housenumber": "235/8", "addr:postcode": "10220", "addr:street": "Phahon Yothin Road", "internet_access": "wlan", "name:en": "Best Western Nada Don Mueang", "phone": "+66 2 551 2222", "tourism": "hotel"}}, {"type": "node", "id": 11093619909, "lat": 13.8523224, "lon": 100.5806037, "tags": {"amenity": "restaurant", "cuisine": "thai", "name": "\u0e04\u0e23\u0e31\u0e27\u0e28\u0e34\u0e25\u0e32"}}, {"type": "node", "id": 12288430801, "lat": 13.8921115, "lon": 100.5806999, "tags": {"addr:district": "\u0e2b\u0e25\u0e31\u0e01\u0e2a\u0e35\u0e48", "addr:housenumber": "100/599", "addr:postcode": "10210", "addr:province": "\u0e01\u0e23\u0e38\u0e07\u0e40\u0e17\u0e1e\u0e21\u0e2b\u0e32\u0e19\u0e04\u0e23", "addr:street": "\u0e41\u0e08\u0e49\u0e07\u0e27\u0e31\u0e12\u0e19\u0e30 10 \u0e41\u0e22\u0e01 9-3", "addr:subdistrict": "\u0e17\u0e38\u0e48\u0e07\u0e2a\u0e2d\u0e07\u0e2b\u0e49\u0e2d\u0e07", "email": "info@wayhahostel.com", "internet_access": "wlan", "name": "\u0e40\u0e27\u0e2b\u0e32 \u0e42\u0e2e\u0e2a\u0e40\u0e17\u0e25", "name:en": "Wayha Hostel", "name:th": "\u0e40\u0e27\u0e2b\u0e32 \u0e42\u0e2e\u0e2a\u0e40\u0e17\u0e25", "opening_hours": "24/7", "phone": "+66 61 051 5959", "tourism": "hostel", "website": "https://wayhahostel.com/"}}, {"type": "node", "id": 12289845202, "lat": 13.8955571, "lon": 100.5843333, "tags": {"amenity": "restaurant", "cuisine": "noodles;thai", "name": "\u0e01\u0e4b\u0e27\u0e22\u0e40\u0e15\u0e35\u0e4b\u0e22\u0e27\u0e40\u0e23\u0e37\u0e2d\u0e2d\u0e22\u0e38\u0e18\u0e22\u0e32"}}, {"type": "node", "id": 12290247201, "lat": 13.8950419, "lon": 100.5842368, "tags": {"air_conditioning": "yes", "internet_access": "yes", "internet_access:fee": "customers", "level": "3", "name": "NJoy Prestige", "opening_hours": "24/7", "phone": "+66 2 574 6359", "tourism": "hotel", "website": "https://www.njoyprestige.com/"}}, {"type": "node", "id": 12294850301, "lat": 13.8991324, "lon": 100.5856666, "tags": {"addr:housenumber": "9", "addr:street": "\u0e01\u0e33\u0e41\u0e1e\u0e07\u0e40\u0e1e\u0e0a\u0e23 6 \u0e0b\u0e2d\u0e22 7", "air_conditioning": "yes", "internet_access": "wlan", "internet_access:fee": "customers", "name": "Pool Villa @ Donmueang", "opening_hours": "24/7", "phone": "+66 90 6934422;+66 90 6934433", "rooms": "40", "self_service": "no", "tourism": "hotel"}}, {"type": "node", "id": 12311437844, "lat": 13.8701593, "lon": 100.5579738, "tags": {"amenity": "restaurant", "cuisine": "thai", "name": "\u0e2a\u0e49\u0e21\u0e15\u0e33\u0e2d\u0e34\u0e2b\u0e22\u0e31\u0e07\u0e27\u0e30", "name:th": "\u0e2a\u0e49\u0e21\u0e15\u0e33\u0e2d\u0e34\u0e2b\u0e22\u0e31\u0e07\u0e27\u0e30"}}, {"type": "node", "id": 12725911675, "lat": 13.8790599, "lon": 100.5938239, "tags": {"amenity": "restaurant", "cuisine": "thai"}}, {"type": "node", "id": 13195276887, "lat": 13.8812148, "lon": 100.5944551, "tags": {"addr:district": "Bang Khen", "addr:housenumber": "99", "addr:postcode": "10220", "addr:province": "Bangkok", "addr:street": "Chaeng Watthana 4 Alley", "addr:subdistrict": "Anusawari", "amenity": "restaurant", "cuisine": "thai", "name": "\u0e40\u0e15\u0e47\u0e21\u0e08\u0e32\u0e19 by \u0e04\u0e23\u0e31\u0e27\u0e1a\u0e49\u0e32\u0e19\u0e17\u0e49\u0e32\u0e22\u0e0b\u0e2d\u0e22", "opening_hours": "Di-Su 11:00-20:00", "phone": "+66 859053589", "takeaway": "yes", "website": "https://www.wongnai.com/restaurants/406544Xd-%E0%B8%84%E0%B8%A3%E0%B8%B1%E0%B8%A7%E0%B8%9A%E0%B9%89%E0%B8%B2%E0%B8%99%E0%B8%97%E0%B9%89%E0%B8%B2%E0%B8%A2%E0%B8%8B%E0%B8%AD%E0%B8%A2"}}, {"type": "way", "id": 31134648, "nodes": [346200192, 7513958966, 4007425417, 4007425420, 4007425416, 4007425415, 346200196, 4007425414, 4007425418, 4007425419, 4007425413, 346200197, 4007425423, 4007425421, 346200198, 346200200, 4007425428, 4007425429, 4007425430, 4007425431, 346200202, 4007425433, 4007425425, 4007425427, 4007425426, 4007425424, 4007425422, 346200204, 7513958967, 346200205, 346200192], "tags": {"building": "yes", "name": "Rama Garden", "tourism": "hotel"}}, {"type": "way", "id": 146156749, "nodes": [5340706521, 1594268638, 5340706524, 4007383760, 1594269226, 11238807699, 1594268995, 1594269182, 11238807730, 1594269184, 7613331480, 1594268440, 5340706413, 5340706521], "tags": {"amenity": "place_of_worship", "denomination": "thai_thammayut", "name": "\u0e27\u0e31\u0e14\u0e1e\u0e23\u0e30\u0e28\u0e23\u0e35\u0e21\u0e2b\u0e32\u0e18\u0e32\u0e15\u0e38", "name:de": "Wat Mahathat", "name:en": "Wat Phra Sri Mahathat", "name:th": "\u0e27\u0e31\u0e14\u0e1e\u0e23\u0e30\u0e28\u0e23\u0e35\u0e21\u0e2b\u0e32\u0e18\u0e32\u0e15\u0e38", "religion": "buddhist", "wikidata": "Q2552358", "wikimedia_commons": "Category:Wat Phra Si Mahathat", "wikipedia": "en:Wat Phra Si Mahathat"}}, {"type": "way", "id": 191907096, "nodes": [2024670678, 2024670839, 2024670842, 2024670848, 2024670858, 2024670871, 2024670924, 2024670932, 2024670685, 2024670678], "tags": {"leisure": "park"}}, {"type": "way", "id": 191960067, "nodes": [2025195433, 2025195423, 2025195393, 2025195107, 2025195216, 2025195433], "tags": {"landuse": "commercial", "name": "Miracle Grand Convention Hotel", "phone": "+66 2 5755599", "tourism": "hotel", "website": "https://www.miraclegrandhotel.com/"}}, {"type": "way", "id": 248978431, "nodes": [2556841702, 2177068657, 2556841700, 2556841701, 2556841702], "tags": {"addr:postcode": "10900", "addr:street": "\u0e16\u0e19\u0e19\u0e01\u0e33\u0e41\u0e1e\u0e07\u0e40\u0e1e\u0e0a\u0e23 6", "alt_name:en": "Museum Of Contemporary Art", "building": "yes", "museum": "art", "name": "\u0e1e\u0e34\u0e1e\u0e34\u0e18\u0e20\u0e31\u0e13\u0e11\u0e4c\u0e28\u0e34\u0e25\u0e1b\u0e30\u0e44\u0e17\u0e22\u0e23\u0e48\u0e27\u0e21\u0e2a\u0e21\u0e31\u0e22", "name:en": "Museum of Contemporary Art", "name:ko": "\ubc29\ucf55 \ud604\ub300\ubbf8\uc220\uad00", "name:th": "\u0e1e\u0e34\u0e1e\u0e34\u0e18\u0e20\u0e31\u0e13\u0e11\u0e4c\u0e28\u0e34\u0e25\u0e1b\u0e30\u0e44\u0e17\u0e22\u0e23\u0e48\u0e27\u0e21\u0e2a\u0e21\u0e31\u0e22", "short_name": "MOCA", "tourism": "museum", "wikidata": "Q1130188", "wikimedia_commons": "Category:Bangkok Art and Culture Centre", "wikipedia": "en:Bangkok Art and Culture Centre"}}, {"type": "way", "id": 259496930, "nodes": [2649308485, 2649308513, 2649308514, 2649308510, 2649308506, 2649308500, 2649308495, 2649308488, 2649308485], "tags": {"leisure": "park"}}, {"type": "way", "id": 262320357, "nodes": [2680040797, 2680040795, 2680040779, 2680040778, 2680040776, 2680040775, 2680040771, 2680040760, 2680040757, 2680040755, 2680040756, 2680040758, 2680040761, 2680040764, 2680040765, 2680040770, 2680040769, 2680040772, 2680040781, 2680040780, 2680040794, 2680040791, 2680040752, 2680040751, 2680040797], "tags": {"leisure": "park"}}, {"type": "way", "id": 263155915, "nodes": [2687901132, 2687901133, 2687901134, 2687901136, 2687901135, 2687901129, 2687901130, 2687901131, 2687901132], "tags": {"leisure": "park"}}, {"type": "way", "id": 427247602, "nodes": [4264835352, 6331817413, 4264835353, 4264835354, 4264835355, 5334177811, 6331845471, 4264835352], "tags": {"amenity": "restaurant", "building": "yes", "name": "\u0e28\u0e39\u0e19\u0e22\u0e4c\u0e2d\u0e32\u0e2b\u0e32\u0e23"}}, {"type": "way", "id": 427247605, "nodes": [4264835356, 4264835357, 4264835358, 4264835359, 4264835360, 4264835361, 4264835362, 4264835363, 4264835364, 4264835365, 4264835356], "tags": {"building": "yes", "name": "DPU PLACE", "tourism": "hotel"}}, {"type": "way", "id": 464377038, "nodes": [4594916518, 4594916524, 4594916525, 4594916526, 4594916527, 4594916528, 4594916529, 4594916530, 4594916531, 4594916522, 4594916532, 4594916533, 4594916518], "tags": {"amenity": "restaurant", "building": "yes"}}, {"type": "way", "id": 464377061, "nodes": [4594916749, 4594916750, 4594916751, 4594916752, 4594916753, 4594916754, 4594916755, 4594916737, 4594916738, 4594916741, 4594916742, 4594916743, 4594916744, 4594916745, 4594916746, 4594916747, 4594916748, 4594916739, 4594916740, 4594916749], "tags": {"amenity": "place_of_worship", "building": "yes", "religion": "buddhist"}}, {"type": "way", "id": 555773901, "nodes": [5361670053, 5741821069, 5741821067, 5741821068, 5741821066, 5741821065, 5361670055, 5361670056, 2223232057, 5361670053], "tags": {"leisure": "park", "name": "DPU Building 9 Park"}}, {"type": "way", "id": 555778074, "nodes": [5361716496, 5361716497, 5361716498, 5361716499, 5361716496], "tags": {"description": "The Three Birds Park for everyone ", "leisure": "park", "name": "The Three Birds Park"}}, {"type": "way", "id": 555898386, "nodes": [5362818405, 5362818406, 5362818407, 5362818408, 5362818405], "tags": {"leisure": "park", "name": "Anniversary Park at PNRU"}}, {"type": "way", "id": 556168060, "nodes": [5365182259, 5365182260, 5365220632, 5365220629, 5365182261, 5365182262, 5365182259], "tags": {"leisure": "park", "name": "\u0e25\u0e32\u0e19\u0e01\u0e35\u0e2c\u0e32\u0e40\u0e04\u0e2b\u0e30\u0e17\u0e38\u0e48\u0e07\u0e2a\u0e2d\u0e07\u0e2b\u0e49\u0e2d\u0e07"}}, {"type": "way", "id": 556475369, "nodes": [5368075283, 5368075284, 5368075285, 5368075286, 5368075283], "tags": {"leisure": "park", "name": "DPU 3 Park"}}, {"type": "way", "id": 556475381, "nodes": [5368075339, 5368075340, 5368075341, 5368075342, 5368075339], "tags": {"leisure": "park"}}, {"type": "way", "id": 560232021, "nodes": [5402782927, 5402782928, 5402782929, 5402782930, 5402782931, 5402782932, 5402782933, 5402782927], "tags": {"leisure": "park"}}, {"type": "way", "id": 605351819, "nodes": [5741821070, 5741821071, 5741821072, 5741821073, 5741821070], "tags": {"leisure": "park", "name": "DPU Building 12 Park"}}, {"type": "way", "id": 676109303, "nodes": [6331816662, 6331816663, 6331816664, 6331816665, 6331816662], "tags": {"historic": "monument"}}, {"type": "way", "id": 707597770, "nodes": [891249606, 6649528905, 6649528904, 6649528903, 891249606], "tags": {"amenity": "place_of_worship", "name": "\u0e1e\u0e38\u0e17\u0e18\u0e40\u0e01\u0e29\u0e15\u0e23", "religion": "buddhist"}}, {"type": "way", "id": 815065805, "nodes": [7613336593, 7613336592, 7613336591, 7613336590, 7613336589, 7613336588, 7613336593], "tags": {"leisure": "park"}}, {"type": "way", "id": 863619151, "nodes": [8045025279, 8045025280, 8045025281, 8045025282, 8045025279], "tags": {"amenity": "marketplace"}}, {"type": "way", "id": 1148690901, "nodes": [10687197528, 10687197529, 10687197530, 10687197531, 10687197532, 10687197533, 10687197528], "tags": {"leisure": "park"}}, {"type": "way", "id": 1212829140, "nodes": [11236788363, 13171504072, 11236788364, 11236788365, 13171504071, 11236788366, 13171504069, 13171504070, 13171504068, 13171504067, 11236788367, 13171504082, 13171504073, 13171504074, 11236788368, 11236788363], "tags": {"alt_name": "\u0e27\u0e31\u0e14\u0e40\u0e17\u0e27\u0e2a\u0e38\u0e19\u0e17\u0e23 (\u0e2a\u0e38\u0e19\u0e17\u0e23\u0e34\u0e01\u0e32\u0e23\u0e32\u0e21)", "amenity": "place_of_worship", "contact:facebook": "https://www.facebook.com/watthawasunthon.bankok", "name": "\u0e27\u0e31\u0e14\u0e40\u0e17\u0e27\u0e2a\u0e38\u0e19\u0e17\u0e23", "name:en": "Wat Thewa Sunthon", "name:th": "\u0e27\u0e31\u0e14\u0e40\u0e17\u0e27\u0e2a\u0e38\u0e19\u0e17\u0e23", "old_name": "\u0e27\u0e31\u0e14\u0e2a\u0e35\u0e48\u0e41\u0e22\u0e01;\u0e27\u0e31\u0e14\u0e41\u0e04\u0e23\u0e32\u0e22\u0e40\u0e2b\u0e19\u0e37\u0e2d", "religion": "buddhist", "website": "http://www.thewasunthorn.com/", "wikidata": "Q99539453", "wikimedia_commons": "Category:Wat Thewa Sunthon", "wikipedia": "th:\u0e27\u0e31\u0e14\u0e40\u0e17\u0e27\u0e2a\u0e38\u0e19\u0e17\u0e23 (\u0e2a\u0e38\u0e19\u0e17\u0e23\u0e34\u0e01\u0e32\u0e23\u0e32\u0e21)"}}, {"type": "way", "id": 1230090274, "nodes": [11407351419, 11407351420, 11407351421, 11407351422, 11407351423, 11407351424, 11407351425, 11407351426, 11407351427, 11407351428, 11407351429, 11407351430, 11407351431, 11407351432, 11407351433, 11407351434, 11407351435, 11407351436, 11407351437, 11407351438, 11407351439, 11407351440, 11407351441, 11407351442, 11407351443, 11407351444, 11407351445, 11407351446, 11407351447, 11407351448, 11407351449, 11407351450, 11407351451, 11407351452, 11407351453, 11407351454, 11407351419], "tags": {"aircraft:type": "airliner", "description": "Sud-Aviation SE 210 Caravelle de Royal Air Cambodge.", "historic": "aircraft", "name": "Sud-Aviation SE 210 Caravelle Royal Air Cambodge (XU-JTB)", "ref": "XU-JTB", "tourism": "attraction", "wikidata": "Q123740963", "wikipedia": "fr:Sud-Aviation SE 210 Caravelle"}}, {"type": "way", "id": 1276460884, "nodes": [11850566526, 11850566527, 11850566528, 11850566529, 11850566530, 11850566531, 11850566532, 11850566533, 11850566534, 11850566535, 11850566536, 11850566537, 11850566538, 11850566539, 11850566526], "tags": {"natural": "beach"}}, {"type": "way", "id": 1341525513, "nodes": [12409239898, 12409239899, 12409239900, 12409327401, 12409327402, 12409327403, 12409327404, 12409327405, 12409327406, 12409327407, 12409327408, 12409327409, 12409327410, 12409327411, 12409327412, 12409327413, 12409327414, 12409327415, 12409327416, 12409327417, 12409327418, 12409327419, 12409327420, 12409327421, 12409327422, 12409327423, 12409327424, 12409327425, 12409327426, 12409327427, 12409327428, 12409327429, 12409327430, 12409327431, 12409327432, 12409327433, 12409327434, 12409327435, 12409327436, 12409327437, 12409239898], "tags": {"leisure": "park"}}, {"type": "way", "id": 1344927548, "nodes": [12442801161, 12442801162, 7315842676, 12442801163, 12442801161], "tags": {"landuse": "commercial", "name": "Asawin Grand Convention Hotel", "tourism": "hotel"}}, {"type": "way", "id": 1366484801, "nodes": [12655446580, 7298121378, 12655446581, 12655446582, 12655446583, 12655446584, 12655446585, 12655446586, 10826241094, 12655446587, 12655446588, 12655446589, 12655446590, 12655446591, 13133669630, 12655446592, 12655446593, 12655446580], "tags": {"amenity": "place_of_worship", "area": "yes", "denomination": "thai_mahanikaya", "name": "\u0e27\u0e31\u0e14\u0e1a\u0e32\u0e07\u0e1a\u0e31\u0e27", "name:en": "Wat Bang Bua", "name:th": "\u0e27\u0e31\u0e14\u0e1a\u0e32\u0e07\u0e1a\u0e31\u0e27", "religion": "buddhist", "wikidata": "Q100698792", "wikipedia": "th:\u0e27\u0e31\u0e14\u0e1a\u0e32\u0e07\u0e1a\u0e31\u0e27"}}, {"type": "way", "id": 1374435504, "nodes": [12725911665, 12725911666, 12725911667, 12725911668, 12725911665], "tags": {"addr:district": "\u0e1a\u0e32\u0e07\u0e40\u0e02\u0e19", "addr:housenumber": "18", "addr:postcode": "10220", "addr:province": "\u0e01\u0e23\u0e38\u0e07\u0e40\u0e17\u0e1e\u0e21\u0e2b\u0e32\u0e19\u0e04\u0e23", "addr:street": "\u0e0b\u0e2d\u0e22\u0e41\u0e08\u0e49\u0e07\u0e27\u0e31\u0e12\u0e19\u0e30 4", "building": "yes", "name": "\u0e42\u0e23\u0e07\u0e41\u0e23\u0e21\u0e1a\u0e35\u0e17\u0e39 \u0e14\u0e2d\u0e19\u0e40\u0e21\u0e37\u0e2d\u0e07 \u0e1e\u0e23\u0e35\u0e40\u0e21\u0e35\u0e22\u0e23\u0e4c", "name:en": "B2 Don Mueang Premier Hotel", "tourism": "hotel", "website": "https://www.b2hotel.com/bangkok/b2-don-mueang-premier-hotel/"}}, {"type": "way", "id": 1389900796, "nodes": [893975302, 12865277179, 12865277180, 12865277181, 893975302], "tags": {"amenity": "school", "historic": "monument", "name": "\u0e23\u0e07\u0e40\u0e23\u0e35\u0e22\u0e19\u0e23\u0e32\u0e0a\u0e27\u0e34\u0e19\u0e34\u0e15\u0e1a\u0e32\u0e07\u0e40\u0e02\u0e19", "operator": "\u0e01\u0e23\u0e30\u0e17\u0e23\u0e27\u0e07\u0e28\u0e36\u0e01\u0e29\u0e32\u0e2f", "shop": "doityourself"}}, {"type": "way", "id": 1390020846, "nodes": [12866391105, 12866391106, 12866391107, 12866391108, 12866391109, 12866391110, 12866391105], "tags": {"leisure": "park"}}, {"type": "way", "id": 1411094633, "nodes": [12965872704, 12965872705, 12965872706, 12965872707, 12965872708, 12965872709, 12965872710, 12965872711, 12965872712, 12409290833, 12965872704], "tags": {"leisure": "park", "name": "\u0e2a\u0e27\u0e19\u0e40\u0e1b\u0e23\u0e21\u0e1b\u0e23\u0e30\u0e0a\u0e32\u0e27\u0e19\u0e32\u0e23\u0e31\u0e01\u0e29\u0e4c", "name:en": "Prem Pracha Vana Rak Park", "name:th": "\u0e2a\u0e27\u0e19\u0e40\u0e1b\u0e23\u0e21\u0e1b\u0e23\u0e30\u0e0a\u0e32\u0e27\u0e19\u0e32\u0e23\u0e31\u0e01\u0e29\u0e4c"}}, {"type": "node", "id": 2649308485, "lat": 13.8499822, "lon": 100.5657072}, {"type": "node", "id": 2649308488, "lat": 13.8500607, "lon": 100.56577}, {"type": "node", "id": 2649308495, "lat": 13.8501381, "lon": 100.565837}, {"type": "node", "id": 2649308500, "lat": 13.8502032, "lon": 100.5659061}, {"type": "node", "id": 2649308506, "lat": 13.8502775, "lon": 100.5659933}, {"type": "node", "id": 2649308510, "lat": 13.8503415, "lon": 100.5660837}, {"type": "node", "id": 2649308513, "lat": 13.8503715, "lon": 100.5657062}, {"type": "node", "id": 2649308514, "lat": 13.8503869, "lon": 100.566157}, {"type": "node", "id": 2680040751, "lat": 13.8493252, "lon": 100.567922}, {"type": "node", "id": 2680040752, "lat": 13.8493112, "lon": 100.5689187}, {"type": "node", "id": 2680040755, "lat": 13.8493744, "lon": 100.5682055}, {"type": "node", "id": 2680040756, "lat": 13.8493744, "lon": 100.5684228}, {"type": "node", "id": 2680040757, "lat": 13.8494807, "lon": 100.5682055}, {"type": "node", "id": 2680040758, "lat": 13.8494807, "lon": 100.5684344}, {"type": "node", "id": 2680040760, "lat": 13.8494855, "lon": 100.5679616}, {"type": "node", "id": 2680040761, "lat": 13.8494855, "lon": 100.5686982}, {"type": "node", "id": 2680040764, "lat": 13.8496192, "lon": 100.5687048}, {"type": "node", "id": 2680040765, "lat": 13.8496192, "lon": 100.5687911}, {"type": "node", "id": 2680040769, "lat": 13.8498431, "lon": 100.5687015}, {"type": "node", "id": 2680040770, "lat": 13.8498447, "lon": 100.5687894}, {"type": "node", "id": 2680040771, "lat": 13.8499349, "lon": 100.5679583}, {"type": "node", "id": 2680040772, "lat": 13.8499478, "lon": 100.5687065}, {"type": "node", "id": 2680040775, "lat": 13.8499752, "lon": 100.5679749}, {"type": "node", "id": 2680040776, "lat": 13.8499768, "lon": 100.5680744}, {"type": "node", "id": 2680040778, "lat": 13.8500235, "lon": 100.5680744}, {"type": "node", "id": 2680040779, "lat": 13.8500267, "lon": 100.5682204}, {"type": "node", "id": 2680040780, "lat": 13.850029, "lon": 100.5685323}, {"type": "node", "id": 2680040781, "lat": 13.8500299, "lon": 100.5686285}, {"type": "node", "id": 2680040791, "lat": 13.8503411, "lon": 100.56892}, {"type": "node", "id": 2680040794, "lat": 13.8503415, "lon": 100.568592}, {"type": "node", "id": 2680040795, "lat": 13.8503501, "lon": 100.5680543}, {"type": "node", "id": 2680040797, "lat": 13.8503503, "lon": 100.5679236}, {"type": "node", "id": 2687901129, "lat": 13.8493101, "lon": 100.5678532}, {"type": "node", "id": 2687901130, "lat": 13.8493257, "lon": 100.567506}, {"type": "node", "id": 2687901131, "lat": 13.8501807, "lon": 100.567516}, {"type": "node", "id": 2687901132, "lat": 13.8502014, "lon": 100.566953}, {"type": "node", "id": 2687901133, "lat": 13.8502424, "lon": 100.5667319}, {"type": "node", "id": 2687901134, "lat": 13.8502914, "lon": 100.5667187}, {"type": "node", "id": 2687901135, "lat": 13.8503427, "lon": 100.5678763}, {"type": "node", "id": 2687901136, "lat": 13.8503529, "lon": 100.5667355}, {"type": "node", "id": 2177068657, "lat": 13.8521494, "lon": 100.5623454}, {"type": "node", "id": 2556841700, "lat": 13.8521603, "lon": 100.5629533}, {"type": "node", "id": 2556841701, "lat": 13.8516812, "lon": 100.5626985}, {"type": "node", "id": 2556841702, "lat": 13.8516603, "lon": 100.5623525}, {"type": "node", "id": 11236788363, "lat": 13.8546789, "lon": 100.5614327}, {"type": "node", "id": 11236788364, "lat": 13.8549831, "lon": 100.5628142}, {"type": "node", "id": 11236788365, "lat": 13.8550417, "lon": 100.563187}, {"type": "node", "id": 11236788366, "lat": 13.8547082, "lon": 100.5628862}, {"type": "node", "id": 11236788367, "lat": 13.8541514, "lon": 100.5625844}, {"type": "node", "id": 11236788368, "lat": 13.8541318, "lon": 100.5614255}, {"type": "node", "id": 12409290833, "lat": 13.8556672, "lon": 100.5649167}, {"type": "node", "id": 12965872705, "lat": 13.8573291, "lon": 100.5646514}, {"type": "node", "id": 12965872706, "lat": 13.855204, "lon": 100.5634924}, {"type": "node", "id": 12965872707, "lat": 13.8552014, "lon": 100.5635675}, {"type": "node", "id": 12965872708, "lat": 13.8555072, "lon": 100.5637491}, {"type": "node", "id": 12965872709, "lat": 13.8554384, "lon": 100.5638719}, {"type": "node", "id": 12965872710, "lat": 13.8553057, "lon": 100.5638931}, {"type": "node", "id": 12965872711, "lat": 13.8553939, "lon": 100.5644792}, {"type": "node", "id": 12965872712, "lat": 13.8555965, "lon": 100.5644469}, {"type": "node", "id": 13171504067, "lat": 13.8541898, "lon": 100.5626055}, {"type": "node", "id": 13171504068, "lat": 13.8542831, "lon": 100.5627142}, {"type": "node", "id": 13171504069, "lat": 13.8546331, "lon": 100.5628568}, {"type": "node", "id": 13171504070, "lat": 13.8544656, "lon": 100.5628121}, {"type": "node", "id": 13171504071, "lat": 13.8546642, "lon": 100.5630167}, {"type": "node", "id": 13171504072, "lat": 13.8548537, "lon": 100.5620932}, {"type": "node", "id": 13171504073, "lat": 13.85416, "lon": 100.5617552}, {"type": "node", "id": 13171504074, "lat": 13.8541387, "lon": 100.5616315}, {"type": "node", "id": 13171504082, "lat": 13.8541525, "lon": 100.5624821}, {"type": "node", "id": 12409239898, "lat": 13.8557724, "lon": 100.5673262}, {"type": "node", "id": 12409239899, "lat": 13.8556859, "lon": 100.567344}, {"type": "node", "id": 12409239900, "lat": 13.8560437, "lon": 100.5691902}, {"type": "node", "id": 12409327401, "lat": 13.856121, "lon": 100.5697988}, {"type": "node", "id": 12409327433, "lat": 13.8563339, "lon": 100.5713874}, {"type": "node", "id": 12409327434, "lat": 13.8562495, "lon": 100.5702045}, {"type": "node", "id": 12409327435, "lat": 13.8562345, "lon": 100.5697787}, {"type": "node", "id": 12409327436, "lat": 13.8561989, "lon": 100.5694359}, {"type": "node", "id": 12409327437, "lat": 13.8560714, "lon": 100.5687938}, {"type": "node", "id": 12965872704, "lat": 13.8568587, "lon": 100.5655665}, {"type": "node", "id": 891249606, "lat": 13.8506693, "lon": 100.5718921}, {"type": "node", "id": 6649528903, "lat": 13.8506692, "lon": 100.5722178}, {"type": "node", "id": 6649528904, "lat": 13.8508735, "lon": 100.5722179}, {"type": "node", "id": 6649528905, "lat": 13.8508735, "lon": 100.5718921}, {"type": "node", "id": 12409327402, "lat": 13.8563423, "lon": 100.5723057}, {"type": "node", "id": 12409327403, "lat": 13.8564567, "lon": 100.5729488}, {"type": "node", "id": 12409327404, "lat": 13.8568345, "lon": 100.5748462}, {"type": "node", "id": 12409327405, "lat": 13.857142, "lon": 100.5764133}, {"type": "node", "id": 12409327406, "lat": 13.8571955, "lon": 100.5768816}, {"type": "node", "id": 12409327421, "lat": 13.8573755, "lon": 100.5779872}, {"type": "node", "id": 12409327422, "lat": 13.857322, "lon": 100.5769859}, {"type": "node", "id": 12409327423, "lat": 13.857277, "lon": 100.576337}, {"type": "node", "id": 12409327424, "lat": 13.8572273, "lon": 100.575833}, {"type": "node", "id": 12409327425, "lat": 13.8570098, "lon": 100.5752623}, {"type": "node", "id": 12409327426, "lat": 13.8568561, "lon": 100.5744831}, {"type": "node", "id": 12409327427, "lat": 13.8567961, "lon": 100.5738033}, {"type": "node", "id": 12409327428, "lat": 13.8568036, "lon": 100.573615}, {"type": "node", "id": 12409327429, "lat": 13.8567689, "lon": 100.5733543}, {"type": "node", "id": 12409327430, "lat": 13.8564858, "lon": 100.5726127}, {"type": "node", "id": 12409327431, "lat": 13.8564361, "lon": 100.5722941}, {"type": "node", "id": 12409327432, "lat": 13.8564305, "lon": 100.5720546}, {"type": "node", "id": 12409327407, "lat": 13.857263, "lon": 100.5781446}, {"type": "node", "id": 12409327408, "lat": 13.8574097, "lon": 100.5791029}, {"type": "node", "id": 12409327409, "lat": 13.8575254, "lon": 100.5800382}, {"type": "node", "id": 12409327418, "lat": 13.8575573, "lon": 100.5794627}, {"type": "node", "id": 12409327419, "lat": 13.8575508, "lon": 100.5790929}, {"type": "node", "id": 12409327420, "lat": 13.8575208, "lon": 100.5788148}, {"type": "node", "id": 7298121378, "lat": 13.8531375, "lon": 100.587698}, {"type": "node", "id": 10826241094, "lat": 13.8541196, "lon": 100.5885223}, {"type": "node", "id": 12655446580, "lat": 13.8531337, "lon": 100.5875736}, {"type": "node", "id": 12655446581, "lat": 13.8531464, "lon": 100.5879858}, {"type": "node", "id": 12655446582, "lat": 13.853161, "lon": 100.5884116}, {"type": "node", "id": 12655446583, "lat": 13.8535739, "lon": 100.588468}, {"type": "node", "id": 12655446584, "lat": 13.8536932, "lon": 100.5884876}, {"type": "node", "id": 12655446585, "lat": 13.8536932, "lon": 100.5885122}, {"type": "node", "id": 12655446586, "lat": 13.8540514, "lon": 100.5885188}, {"type": "node", "id": 12655446587, "lat": 13.8541588, "lon": 100.5885243}, {"type": "node", "id": 12655446588, "lat": 13.8543711, "lon": 100.5885329}, {"type": "node", "id": 12655446589, "lat": 13.8547232, "lon": 100.5885525}, {"type": "node", "id": 12655446590, "lat": 13.8548126, "lon": 100.588391}, {"type": "node", "id": 12655446591, "lat": 13.854885, "lon": 100.5879742}, {"type": "node", "id": 12655446592, "lat": 13.8549426, "lon": 100.5876315}, {"type": "node", "id": 12655446593, "lat": 13.8549568, "lon": 100.5875448}, {"type": "node", "id": 13133669630, "lat": 13.85494, "lon": 100.5876472}, {"type": "node", "id": 893975302, "lat": 13.8590293, "lon": 100.5538926}, {"type": "node", "id": 12865277179, "lat": 13.8576908, "lon": 100.5540911}, {"type": "node", "id": 12865277180, "lat": 13.8578764, "lon": 100.5550458}, {"type": "node", "id": 12865277181, "lat": 13.8591814, "lon": 100.5548346}, {"type": "node", "id": 4264835352, "lat": 13.8696475, "lon": 100.5507528}, {"type": "node", "id": 4264835353, "lat": 13.8693519, "lon": 100.5507774}, {"type": "node", "id": 4264835354, "lat": 13.8693921, "lon": 100.5512908}, {"type": "node", "id": 4264835355, "lat": 13.8696877, "lon": 100.5512662}, {"type": "node", "id": 4264835356, "lat": 13.8696812, "lon": 100.5512845}, {"type": "node", "id": 4264835357, "lat": 13.8695586, "lon": 100.551294}, {"type": "node", "id": 4264835358, "lat": 13.8695843, "lon": 100.5516545}, {"type": "node", "id": 4264835359, "lat": 13.8696062, "lon": 100.5516513}, {"type": "node", "id": 4264835360, "lat": 13.8696104, "lon": 100.5517089}, {"type": "node", "id": 4264835361, "lat": 13.869633, "lon": 100.5517072}, {"type": "node", "id": 4264835362, "lat": 13.8696381, "lon": 100.5517767}, {"type": "node", "id": 4264835363, "lat": 13.8696945, "lon": 100.5517724}, {"type": "node", "id": 4264835364, "lat": 13.8696892, "lon": 100.5516997}, {"type": "node", "id": 4264835365, "lat": 13.8697112, "lon": 100.551698}, {"type": "node", "id": 5334177811, "lat": 13.869678, "lon": 100.5511422}, {"type": "node", "id": 6331817413, "lat": 13.8696274, "lon": 100.5507545}, {"type": "node", "id": 6331845471, "lat": 13.8696532, "lon": 100.5508259}, {"type": "node", "id": 11850566526, "lat": 13.8705399, "lon": 100.5507382}, {"type": "node", "id": 11850566527, "lat": 13.8702851, "lon": 100.5506881}, {"type": "node", "id": 11850566528, "lat": 13.8702758, "lon": 100.5507366}, {"type": "node", "id": 11850566529, "lat": 13.8703205, "lon": 100.5507438}, {"type": "node", "id": 11850566530, "lat": 13.8703058, "lon": 100.5508433}, {"type": "node", "id": 11850566531, "lat": 13.8702734, "lon": 100.5508404}, {"type": "node", "id": 11850566532, "lat": 13.8702598, "lon": 100.5509359}, {"type": "node", "id": 11850566533, "lat": 13.8703418, "lon": 100.5509502}, {"type": "node", "id": 11850566534, "lat": 13.870371, "lon": 100.5509718}, {"type": "node", "id": 11850566535, "lat": 13.87039, "lon": 100.5509115}, {"type": "node", "id": 11850566536, "lat": 13.8704193, "lon": 100.5508933}, {"type": "node", "id": 11850566537, "lat": 13.8704586, "lon": 100.5508981}, {"type": "node", "id": 11850566538, "lat": 13.8704712, "lon": 100.5509278}, {"type": "node", "id": 11850566539, "lat": 13.8705028, "lon": 100.5509328}, {"type": "node", "id": 5361670055, "lat": 13.8703981, "lon": 100.5520285}, {"type": "node", "id": 5361670056, "lat": 13.8704203, "lon": 100.5533283}, {"type": "node", "id": 5368075283, "lat": 13.8720519, "lon": 100.5515064}, {"type": "node", "id": 5368075284, "lat": 13.8718956, "lon": 100.5514953}, {"type": "node", "id": 5368075285, "lat": 13.871867, "lon": 100.5518487}, {"type": "node", "id": 5368075286, "lat": 13.8720121, "lon": 100.5518449}, {"type": "node", "id": 5368075339, "lat": 13.8729311, "lon": 100.5498954}, {"type": "node", "id": 5368075340, "lat": 13.8728194, "lon": 100.5507862}, {"type": "node", "id": 5368075341, "lat": 13.8727504, "lon": 100.5507779}, {"type": "node", "id": 5368075342, "lat": 13.87286, "lon": 100.5498828}, {"type": "node", "id": 6331816662, "lat": 13.8712952, "lon": 100.5500083}, {"type": "node", "id": 6331816663, "lat": 13.8712829, "lon": 100.5500058}, {"type": "node", "id": 6331816664, "lat": 13.8712669, "lon": 100.5501022}, {"type": "node", "id": 6331816665, "lat": 13.8712829, "lon": 100.5501048}, {"type": "node", "id": 2223232057, "lat": 13.87081, "lon": 100.5533433}, {"type": "node", "id": 5361670053, "lat": 13.8708131, "lon": 100.5526718}, {"type": "node", "id": 5361716496, "lat": 13.8709938, "lon": 100.5559231}, {"type": "node", "id": 5361716497, "lat": 13.8710026, "lon": 100.5561122}, {"type": "node", "id": 5361716498, "lat": 13.8707215, "lon": 100.5561219}, {"type": "node", "id": 5361716499, "lat": 13.8707188, "lon": 100.5559364}, {"type": "node", "id": 5741821065, "lat": 13.870796, "lon": 100.5520086}, {"type": "node", "id": 5741821066, "lat": 13.8708031, "lon": 100.5523491}, {"type": "node", "id": 5741821067, "lat": 13.8708104, "lon": 100.5524412}, {"type": "node", "id": 5741821068, "lat": 13.8708047, "lon": 100.5523949}, {"type": "node", "id": 5741821069, "lat": 13.8708095, "lon": 100.552557}, {"type": "node", "id": 5741821070, "lat": 13.8711755, "lon": 100.5519852}, {"type": "node", "id": 5741821071, "lat": 13.8709903, "lon": 100.5519934}, {"type": "node", "id": 5741821072, "lat": 13.8710063, "lon": 100.5524281}, {"type": "node", "id": 5741821073, "lat": 13.8711994, "lon": 100.5524137}, {"type": "node", "id": 346200192, "lat": 13.8601662, "lon": 100.570724}, {"type": "node", "id": 346200196, "lat": 13.8594772, "lon": 100.5712247}, {"type": "node", "id": 346200198, "lat": 13.8599328, "lon": 100.5713625}, {"type": "node", "id": 346200204, "lat": 13.8598778, "lon": 100.571142}, {"type": "node", "id": 346200205, "lat": 13.8602627, "lon": 100.5708676}, {"type": "node", "id": 4007425414, "lat": 13.8596031, "lon": 100.5714121}, {"type": "node", "id": 4007425415, "lat": 13.8596128, "lon": 100.5711281}, {"type": "node", "id": 4007425416, "lat": 13.8596548, "lon": 100.5711907}, {"type": "node", "id": 4007425417, "lat": 13.8596605, "lon": 100.5710845}, {"type": "node", "id": 4007425418, "lat": 13.8596709, "lon": 100.5713638}, {"type": "node", "id": 4007425419, "lat": 13.8597022, "lon": 100.5714104}, {"type": "node", "id": 4007425420, "lat": 13.8597069, "lon": 100.5711536}, {"type": "node", "id": 4007425421, "lat": 13.8598747, "lon": 100.571404}, {"type": "node", "id": 4007425422, "lat": 13.8599117, "lon": 100.5711924}, {"type": "node", "id": 4007425423, "lat": 13.8599201, "lon": 100.5714715}, {"type": "node", "id": 4007425424, "lat": 13.8599804, "lon": 100.5711435}, {"type": "node", "id": 4007425425, "lat": 13.8602346, "lon": 100.5714575}, {"type": "node", "id": 4007425426, "lat": 13.8602429, "lon": 100.5715342}, {"type": "node", "id": 4007425427, "lat": 13.8602721, "lon": 100.5715134}, {"type": "node", "id": 4007425433, "lat": 13.8605089, "lon": 100.571262}, {"type": "node", "id": 7513958966, "lat": 13.8599189, "lon": 100.5708973}, {"type": "node", "id": 7513958967, "lat": 13.8600143, "lon": 100.5710452}, {"type": "node", "id": 346200197, "lat": 13.859422, "lon": 100.5718266}, {"type": "node", "id": 346200200, "lat": 13.8602183, "lon": 100.5717875}, {"type": "node", "id": 346200202, "lat": 13.860714, "lon": 100.5715672}, {"type": "node", "id": 4007425413, "lat": 13.8593236, "lon": 100.5716802}, {"type": "node", "id": 4007425428, "lat": 13.8602818, "lon": 100.5717422}, {"type": "node", "id": 4007425429, "lat": 13.8603004, "lon": 100.5717699}, {"type": "node", "id": 4007425430, "lat": 13.8603293, "lon": 100.5717492}, {"type": "node", "id": 4007425431, "lat": 13.8603712, "lon": 100.5718115}, {"type": "node", "id": 12409327410, "lat": 13.8576436, "lon": 100.5812152}, {"type": "node", "id": 12409327411, "lat": 13.8576904, "lon": 100.5834091}, {"type": "node", "id": 12409327412, "lat": 13.8577645, "lon": 100.5834081}, {"type": "node", "id": 12409327413, "lat": 13.8578011, "lon": 100.5830972}, {"type": "node", "id": 12409327414, "lat": 13.8577945, "lon": 100.5823788}, {"type": "node", "id": 12409327415, "lat": 13.8578376, "lon": 100.5817869}, {"type": "node", "id": 12409327416, "lat": 13.8578076, "lon": 100.5815474}, {"type": "node", "id": 12409327417, "lat": 13.8577908, "lon": 100.5813301}, {"type": "node", "id": 10687197528, "lat": 13.8675179, "lon": 100.572975}, {"type": "node", "id": 10687197529, "lat": 13.8673981, "lon": 100.5729213}, {"type": "node", "id": 10687197530, "lat": 13.8673591, "lon": 100.5737501}, {"type": "node", "id": 10687197531, "lat": 13.8675283, "lon": 100.5738279}, {"type": "node", "id": 10687197532, "lat": 13.8676898, "lon": 100.5737528}, {"type": "node", "id": 10687197533, "lat": 13.8675674, "lon": 100.573439}, {"type": "node", "id": 2025195107, "lat": 13.875787, "lon": 100.5759124}, {"type": "node", "id": 2025195216, "lat": 13.8762219, "lon": 100.5751388}, {"type": "node", "id": 2025195393, "lat": 13.8768106, "lon": 100.5765547}, {"type": "node", "id": 2025195423, "lat": 13.8768799, "lon": 100.5764301}, {"type": "node", "id": 2025195433, "lat": 13.8769138, "lon": 100.5755973}, {"type": "node", "id": 4594916737, "lat": 13.8765719, "lon": 100.5778988}, {"type": "node", "id": 4594916738, "lat": 13.8765773, "lon": 100.5778989}, {"type": "node", "id": 4594916739, "lat": 13.8765755, "lon": 100.5779332}, {"type": "node", "id": 4594916740, "lat": 13.8765698, "lon": 100.5779326}, {"type": "node", "id": 4594916741, "lat": 13.8765823, "lon": 100.5779007}, {"type": "node", "id": 4594916742, "lat": 13.8765866, "lon": 100.5779041}, {"type": "node", "id": 4594916743, "lat": 13.8765896, "lon": 100.5779087}, {"type": "node", "id": 4594916744, "lat": 13.8765911, "lon": 100.5779141}, {"type": "node", "id": 4594916745, "lat": 13.8765908, "lon": 100.5779196}, {"type": "node", "id": 4594916746, "lat": 13.8765888, "lon": 100.5779248}, {"type": "node", "id": 4594916747, "lat": 13.8765853, "lon": 100.5779291}, {"type": "node", "id": 4594916748, "lat": 13.8765807, "lon": 100.577932}, {"type": "node", "id": 4594916749, "lat": 13.8765647, "lon": 100.5779301}, {"type": "node", "id": 4594916750, "lat": 13.8765607, "lon": 100.577926}, {"type": "node", "id": 4594916751, "lat": 13.8765582, "lon": 100.5779207}, {"type": "node", "id": 4594916752, "lat": 13.8765576, "lon": 100.5779149}, {"type": "node", "id": 4594916753, "lat": 13.8765589, "lon": 100.5779092}, {"type": "node", "id": 4594916754, "lat": 13.876562, "lon": 100.5779043}, {"type": "node", "id": 4594916755, "lat": 13.8765665, "lon": 100.5779007}, {"type": "node", "id": 7315842676, "lat": 13.8741734, "lon": 100.5740353}, {"type": "node", "id": 12442801161, "lat": 13.8749611, "lon": 100.575472}, {"type": "node", "id": 12442801162, "lat": 13.8753964, "lon": 100.5746798}, {"type": "node", "id": 12442801163, "lat": 13.873744, "lon": 100.5748226}, {"type": "node", "id": 4594916518, "lat": 13.8762537, "lon": 100.5794643}, {"type": "node", "id": 4594916522, "lat": 13.8764745, "lon": 100.5796493}, {"type": "node", "id": 4594916524, "lat": 13.8763187, "lon": 100.5794691}, {"type": "node", "id": 4594916525, "lat": 13.8763261, "lon": 100.5794784}, {"type": "node", "id": 4594916526, "lat": 13.8763425, "lon": 100.5794835}, {"type": "node", "id": 4594916527, "lat": 13.8763425, "lon": 100.5794945}, {"type": "node", "id": 4594916528, "lat": 13.8763843, "lon": 100.5795071}, {"type": "node", "id": 4594916529, "lat": 13.8763843, "lon": 100.5795223}, {"type": "node", "id": 4594916530, "lat": 13.8764229, "lon": 100.5795359}, {"type": "node", "id": 4594916531, "lat": 13.8764956, "lon": 100.5795066}, {"type": "node", "id": 4594916532, "lat": 13.8762277, "lon": 100.5795147}, {"type": "node", "id": 4594916533, "lat": 13.8762374, "lon": 100.5794614}, {"type": "node", "id": 12866391105, "lat": 13.8732978, "lon": 100.5808429}, {"type": "node", "id": 12866391106, "lat": 13.8727349, "lon": 100.5807567}, {"type": "node", "id": 12866391107, "lat": 13.8728668, "lon": 100.580532}, {"type": "node", "id": 12866391108, "lat": 13.8729021, "lon": 100.5805159}, {"type": "node", "id": 12866391109, "lat": 13.8734938, "lon": 100.5808563}, {"type": "node", "id": 12866391110, "lat": 13.873465, "lon": 100.580929}, {"type": "node", "id": 1594268638, "lat": 13.8742508, "lon": 100.5909525}, {"type": "node", "id": 1594269226, "lat": 13.8730115, "lon": 100.5909628}, {"type": "node", "id": 5340706521, "lat": 13.8744923, "lon": 100.5904839}, {"type": "node", "id": 5362818405, "lat": 13.8752019, "lon": 100.5906296}, {"type": "node", "id": 5362818406, "lat": 13.87449, "lon": 100.590457}, {"type": "node", "id": 5362818407, "lat": 13.8745468, "lon": 100.5897268}, {"type": "node", "id": 5362818408, "lat": 13.8755997, "lon": 100.5897823}, {"type": "node", "id": 1594268440, "lat": 13.8763352, "lon": 100.5921948}, {"type": "node", "id": 1594268995, "lat": 13.8713092, "lon": 100.5940174}, {"type": "node", "id": 1594269182, "lat": 13.8712936, "lon": 100.5940442}, {"type": "node", "id": 1594269184, "lat": 13.8743475, "lon": 100.5958188}, {"type": "node", "id": 4007383760, "lat": 13.8734974, "lon": 100.5912585}, {"type": "node", "id": 5340706413, "lat": 13.8766136, "lon": 100.59169}, {"type": "node", "id": 5340706524, "lat": 13.8739509, "lon": 100.5915345}, {"type": "node", "id": 7613331480, "lat": 13.8746235, "lon": 100.5952984}, {"type": "node", "id": 7613336588, "lat": 13.8761812, "lon": 100.5977109}, {"type": "node", "id": 7613336593, "lat": 13.8768634, "lon": 100.5977511}, {"type": "node", "id": 11238807699, "lat": 13.872128, "lon": 100.5925482}, {"type": "node", "id": 11238807730, "lat": 13.8722062, "lon": 100.5945745}, {"type": "node", "id": 12725911665, "lat": 13.8789433, "lon": 100.5932343}, {"type": "node", "id": 12725911666, "lat": 13.878797, "lon": 100.5935061}, {"type": "node", "id": 12725911667, "lat": 13.8786679, "lon": 100.5934324}, {"type": "node", "id": 12725911668, "lat": 13.8788142, "lon": 100.5931606}, {"type": "node", "id": 7613336589, "lat": 13.8761291, "lon": 100.5980167}, {"type": "node", "id": 7613336590, "lat": 13.8759651, "lon": 100.5979979}, {"type": "node", "id": 7613336591, "lat": 13.8759468, "lon": 100.598124}, {"type": "node", "id": 7613336592, "lat": 13.8765171, "lon": 100.598419}, {"type": "node", "id": 2024670678, "lat": 13.8864606, "lon": 100.5693078}, {"type": "node", "id": 2024670685, "lat": 13.8866479, "lon": 100.568689}, {"type": "node", "id": 2024670839, "lat": 13.8887241, "lon": 100.5700108}, {"type": "node", "id": 2024670842, "lat": 13.8887406, "lon": 100.5699376}, {"type": "node", "id": 2024670848, "lat": 13.8887746, "lon": 100.5698999}, {"type": "node", "id": 2024670858, "lat": 13.8888239, "lon": 100.5698715}, {"type": "node", "id": 2024670871, "lat": 13.8888772, "lon": 100.5698786}, {"type": "node", "id": 2024670924, "lat": 13.8895161, "lon": 100.5700813}, {"type": "node", "id": 2024670932, "lat": 13.8896751, "lon": 100.5696223}, {"type": "node", "id": 5402782927, "lat": 13.8862432, "lon": 100.5745721}, {"type": "node", "id": 5402782928, "lat": 13.8873004, "lon": 100.5748886}, {"type": "node", "id": 5402782929, "lat": 13.8876111, "lon": 100.5750463}, {"type": "node", "id": 5402782930, "lat": 13.8880408, "lon": 100.5742384}, {"type": "node", "id": 5402782931, "lat": 13.8874045, "lon": 100.5740357}, {"type": "node", "id": 5402782932, "lat": 13.8873577, "lon": 100.5741215}, {"type": "node", "id": 5402782933, "lat": 13.8864568, "lon": 100.5738425}, {"type": "node", "id": 8045025279, "lat": 13.8884577, "lon": 100.5789815}, {"type": "node", "id": 8045025280, "lat": 13.8881441, "lon": 100.5796908}, {"type": "node", "id": 8045025281, "lat": 13.8889183, "lon": 100.5800541}, {"type": "node", "id": 8045025282, "lat": 13.8890097, "lon": 100.5792403}, {"type": "node", "id": 11407351419, "lat": 13.8945262, "lon": 100.597611}, {"type": "node", "id": 11407351420, "lat": 13.8944773, "lon": 100.5975875}, {"type": "node", "id": 11407351421, "lat": 13.8944638, "lon": 100.5975817}, {"type": "node", "id": 11407351422, "lat": 13.894451, "lon": 100.5975783}, {"type": "node", "id": 11407351423, "lat": 13.8944399, "lon": 100.5975776}, {"type": "node", "id": 11407351424, "lat": 13.8944327, "lon": 100.5975807}, {"type": "node", "id": 11407351425, "lat": 13.8944297, "lon": 100.597586}, {"type": "node", "id": 11407351426, "lat": 13.8944297, "lon": 100.5975943}, {"type": "node", "id": 11407351427, "lat": 13.8944351, "lon": 100.5976017}, {"type": "node", "id": 11407351428, "lat": 13.8944519, "lon": 100.5976128}, {"type": "node", "id": 11407351429, "lat": 13.8945087, "lon": 100.5976427}, {"type": "node", "id": 11407351432, "lat": 13.8945607, "lon": 100.5976707}, {"type": "node", "id": 11407351433, "lat": 13.8945775, "lon": 100.5976784}, {"type": "node", "id": 11407351434, "lat": 13.8945775, "lon": 100.5976861}, {"type": "node", "id": 11407351435, "lat": 13.8945799, "lon": 100.5976907}, {"type": "node", "id": 11407351436, "lat": 13.8946227, "lon": 100.5977099}, {"type": "node", "id": 11407351437, "lat": 13.8946289, "lon": 100.5977002}, {"type": "node", "id": 11407351438, "lat": 13.8946388, "lon": 100.5977021}, {"type": "node", "id": 11407351439, "lat": 13.8946451, "lon": 100.5977443}, {"type": "node", "id": 11407351440, "lat": 13.8946573, "lon": 100.5977465}, {"type": "node", "id": 11407351441, "lat": 13.8946651, "lon": 100.5977092}, {"type": "node", "id": 11407351442, "lat": 13.8946801, "lon": 100.5977123}, {"type": "node", "id": 11407351443, "lat": 13.8946696, "lon": 100.5977006}, {"type": "node", "id": 11407351444, "lat": 13.8946982, "lon": 100.5976722}, {"type": "node", "id": 11407351445, "lat": 13.8946856, "lon": 100.5976596}, {"type": "node", "id": 11407351446, "lat": 13.8946457, "lon": 100.5976843}, {"type": "node", "id": 11407351447, "lat": 13.8946382, "lon": 100.5976732}, {"type": "node", "id": 11407351448, "lat": 13.8946424, "lon": 100.5976658}, {"type": "node", "id": 11407351449, "lat": 13.8946068, "lon": 100.5976396}, {"type": "node", "id": 11407351450, "lat": 13.8946002, "lon": 100.5976405}, {"type": "node", "id": 11407351451, "lat": 13.8945921, "lon": 100.5976494}, {"type": "node", "id": 11407351452, "lat": 13.8945778, "lon": 100.5976399}, {"type": "node", "id": 11407351453, "lat": 13.8946564, "lon": 100.5975259}, {"type": "node", "id": 11407351454, "lat": 13.8946388, "lon": 100.5975163}, {"type": "node", "id": 11407351430, "lat": 13.8945024, "lon": 100.5977989}, {"type": "node", "id": 11407351431, "lat": 13.8945183, "lon": 100.5978044}, {"type": "node", "id": 5365182259, "lat": 13.8997417, "lon": 100.5881727}, {"type": "node", "id": 5365182260, "lat": 13.8999005, "lon": 100.5882586}, {"type": "node", "id": 5365182261, "lat": 13.8994761, "lon": 100.5890445}, {"type": "node", "id": 5365182262, "lat": 13.8993199, "lon": 100.5889613}, {"type": "node", "id": 5365220629, "lat": 13.8995382, "lon": 100.5889296}, {"type": "node", "id": 5365220632, "lat": 13.899878, "lon": 100.5883003}]}