{"version": 0.6, "generator": "Overpass API 0.7.62.8 e802775f", "osm3s": {"timestamp_osm_base": "2025-11-20T03:22:29Z", "copyright": "The data included in this document is from www.openstreetmap.org. The data is made available under ODbL."}, "elements": [{"type": "node", "id": 346317206, "lat": 13.8195901, "lon": 100.696324, "tags": {"amenity": "place_of_worship", "loc_name": "\u0e27\u0e31\u0e14\u0e1a\u0e32\u0e07\u0e0a\u0e31\u0e19", "loc_name:en": "Wat Bang Chan", "loc_name:th": "\u0e27\u0e31\u0e14\u0e1a\u0e32\u0e07\u0e0a\u0e31\u0e19", "name": "\u0e27\u0e31\u0e14\u0e23\u0e32\u0e29\u0e0e\u0e23\u0e4c\u0e28\u0e23\u0e31\u0e17\u0e18\u0e32\u0e18\u0e23\u0e23\u0e21", "name:en": "Wat Rat Satthatham", "name:th": "\u0e27\u0e31\u0e14\u0e23\u0e32\u0e29\u0e0e\u0e23\u0e4c\u0e28\u0e23\u0e31\u0e17\u0e18\u0e32\u0e18\u0e23\u0e23\u0e21", "religion": "buddhist"}}, {"type": "node", "id": 518809385, "lat": 13.8176707, "lon": 100.6662267, "tags": {"amenity": "restaurant"}}, {"type": "node", "id": 518809621, "lat": 13.8158704, "lon": 100.6643641, "tags": {"amenity": "cafe", "name:en": "coffee shop"}}, {"type": "node", "id": 1583787176, "lat": 13.8204506, "lon": 100.6686557, "tags": {"amenity": "restaurant", "cuisine": "international", "name": "Foodtalk"}}, {"type": "node", "id": 1828329846, "lat": 13.8072463, "lon": 100.6529983, "tags": {"amenity": "restaurant", "cuisine": "chinese", "name": "\u0e2d\u0e38\u0e44\u0e23\u0e40\u0e1b\u0e47\u0e14\u0e22\u0e48\u0e32\u0e07", "name:en": "Urai ped yang", "name:th": "\u0e2d\u0e38\u0e44\u0e23\u0e40\u0e1b\u0e47\u0e14\u0e22\u0e48\u0e32\u0e07"}}, {"type": "node", "id": 1828332953, "lat": 13.8074745, "lon": 100.65308, "tags": {"amenity": "cafe", "name": "Sincere 49"}}, {"type": "node", "id": 2075726962, "lat": 13.8266547, "lon": 100.6778689, "tags": {"amenity": "restaurant", "level": "2"}}, {"type": "node", "id": 2075726963, "lat": 13.8270141, "lon": 100.6775148, "tags": {"amenity": "restaurant", "level": "2"}}, {"type": "node", "id": 2075726964, "lat": 13.8271756, "lon": 100.6773378, "tags": {"amenity": "restaurant", "level": "2"}}, {"type": "node", "id": 2075726965, "lat": 13.8264099, "lon": 100.6774612, "tags": {"amenity": "restaurant", "level": "2"}}, {"type": "node", "id": 2075726967, "lat": 13.8273163, "lon": 100.677193, "tags": {"amenity": "restaurant", "level": "2"}}, {"type": "node", "id": 2075727137, "lat": 13.8272902, "lon": 100.6766351, "tags": {"amenity": "restaurant", "level": "2"}}, {"type": "node", "id": 2089911687, "lat": 13.8299463, "lon": 100.6752187, "tags": {"name": "Syn Siri Resort", "source": "GPS", "tourism": "hotel"}}, {"type": "node", "id": 2099238991, "lat": 13.8269537, "lon": 100.6765063, "tags": {"amenity": "cafe", "level": "1", "name": "Mont Blanc"}}, {"type": "node", "id": 2099238992, "lat": 13.826537, "lon": 100.6768096, "tags": {"amenity": "restaurant", "level": "1", "name": "HAP de NOUS"}}, {"type": "node", "id": 2099238993, "lat": 13.8268912, "lon": 100.6770136, "tags": {"amenity": "restaurant", "cuisine": "japanese", "level": "1", "name": "Marugame Seimen"}}, {"type": "node", "id": 2099238994, "lat": 13.826662, "lon": 100.6770323, "tags": {"amenity": "cafe", "level": "1", "name": "Bake a wish"}}, {"type": "node", "id": 2099238995, "lat": 13.8267377, "lon": 100.6770534, "tags": {"amenity": "restaurant", "cuisine": "japanese", "level": "1", "name": "Jin E Mon"}}, {"type": "node", "id": 2099238996, "lat": 13.8269044, "lon": 100.6775684, "tags": {"amenity": "restaurant", "cuisine": "italian", "level": "1", "name": "Buono Bistro Italian Restaurant & Wine"}}, {"type": "node", "id": 2099238997, "lat": 13.8271282, "lon": 100.6765358, "tags": {"amenity": "restaurant", "cuisine": "japanese", "level": "1", "name": "Jeong Won"}}, {"type": "node", "id": 2099239000, "lat": 13.8269666, "lon": 100.6769385, "tags": {"amenity": "cafe", "level": "1", "name": "Sweet Minutes"}}, {"type": "node", "id": 2099239006, "lat": 13.8272064, "lon": 100.676812, "tags": {"amenity": "restaurant", "level": "1", "name": "Chateaubriand"}}, {"type": "node", "id": 2099239011, "lat": 13.8266412, "lon": 100.6763695, "tags": {"amenity": "restaurant", "level": "1", "name": "JOE's TABLE"}}, {"type": "node", "id": 2099239032, "lat": 13.8268756, "lon": 100.6765465, "tags": {"amenity": "restaurant", "level": "1", "name": "\u0e15\u0e33\u0e15\u0e33 Malakor"}}, {"type": "node", "id": 2099239038, "lat": 13.8271648, "lon": 100.6766109, "tags": {"amenity": "restaurant", "cuisine": "japanese", "level": "1", "name": "Mo-Mo-Paradise"}}, {"type": "node", "id": 2099239045, "lat": 13.8266281, "lon": 100.6772765, "tags": {"amenity": "restaurant", "cuisine": "thai", "level": "1", "name": "Banana Leaf"}}, {"type": "node", "id": 2099239063, "lat": 13.8270736, "lon": 100.677086, "tags": {"amenity": "restaurant", "cuisine": "japanese", "level": "1", "name": "Saboten"}}, {"type": "node", "id": 2099239070, "lat": 13.8265877, "lon": 100.6773516, "tags": {"amenity": "restaurant", "level": "1", "name": "Giants"}}, {"type": "node", "id": 2099239075, "lat": 13.8271387, "lon": 100.6770052, "tags": {"amenity": "restaurant", "level": "1", "name": "Cafeinteria insoired by BLACK CANYON"}}, {"type": "node", "id": 2099239079, "lat": 13.8264667, "lon": 100.6770561, "tags": {"amenity": "restaurant", "cuisine": "japanese", "level": "1", "name": "Ai Japanese Village"}}, {"type": "node", "id": 2099239092, "lat": 13.826649, "lon": 100.6771098, "tags": {"amenity": "restaurant", "cuisine": "mexican", "level": "1", "name": "Sunrise Tacos", "website": "https://www.sunrisetacos.com/"}}, {"type": "node", "id": 2099239093, "lat": 13.8269485, "lon": 100.6765948, "tags": {"amenity": "restaurant", "cuisine": "japanese", "level": "1", "name": "Fumi"}}, {"type": "node", "id": 2099239095, "lat": 13.8267374, "lon": 100.6773328, "tags": {"amenity": "restaurant", "cuisine": "chinese", "level": "1", "name": "\u0e2b\u0e25\u0e34\u0e27 \u0e40\u0e0b\u0e35\u0e22\u0e07 \u0e1f\u0e07"}}, {"type": "node", "id": 2099239097, "lat": 13.8270449, "lon": 100.6764046, "tags": {"amenity": "restaurant", "name": "\u0e40\u0e23\u0e37\u0e2d\u0e19\u0e41\u0e21\u0e48\u0e2b\u0e25\u0e38\u0e22", "\u0e2a\u0e33\u0e2d\u0e33\u0e2a": "1"}}, {"type": "node", "id": 2099239102, "lat": 13.8267036, "lon": 100.6765362, "tags": {"amenity": "restaurant", "level": "1", "name": "\u0e01\u0e4b\u0e27\u0e22\u0e40\u0e14\u0e35\u0e4b\u0e22\u0e27\u0e0d\u0e27\u0e19"}}, {"type": "node", "id": 2099239106, "lat": 13.8270944, "lon": 100.6764664, "tags": {"amenity": "restaurant", "cuisine": "japanese", "level": "1", "name": "TOHKAI"}}, {"type": "node", "id": 3488544763, "lat": 13.8138894, "lon": 100.6874012, "tags": {"amenity": "cafe", "brand": "Starbucks", "brand:wikidata": "Q37158", "cuisine": "coffee_shop", "name": "Starbucks", "name:en": "Starbucks", "official_name": "Starbucks Coffee", "takeaway": "yes", "website": "www.starbuckscard.in.th"}}, {"type": "node", "id": 3488544764, "lat": 13.8263604, "lon": 100.6770829, "tags": {"amenity": "cafe", "brand": "Starbucks", "brand:wikidata": "Q37158", "brand:wikipedia": "en:Starbucks", "cuisine": "coffee_shop", "name": "Starbucks", "name:en": "Starbucks Coffee", "name:th": "\u0e2a\u0e15\u0e32\u0e23\u0e4c\u0e1a\u0e31\u0e04\u0e2a\u0e4c", "official_name": "Starbucks Coffee", "shop": "coffee", "smoking": "no", "takeaway": "yes", "website": "https://www.starbucks.com/"}}, {"type": "node", "id": 3488544765, "lat": 13.8271106, "lon": 100.6762864, "tags": {"amenity": "cafe", "brand": "Starbucks", "brand:wikidata": "Q37158", "brand:wikipedia": "en:Starbucks", "cuisine": "coffee_shop", "name": "Starbucks", "name:en": "Starbucks Coffee", "name:th": "\u0e2a\u0e15\u0e32\u0e23\u0e4c\u0e1a\u0e31\u0e04\u0e2a\u0e4c", "official_name": "Starbucks Coffee", "shop": "coffee", "smoking": "no", "takeaway": "yes", "website": "https://www.starbucks.com/"}}, {"type": "node", "id": 4755790430, "lat": 13.8137882, "lon": 100.6879654, "tags": {"amenity": "restaurant", "name:en": "King Kong Yakiniku Buffet Restaurant"}}, {"type": "node", "id": 4755790431, "lat": 13.8137104, "lon": 100.6881475, "tags": {"amenity": "cafe", "brand": "Starbucks", "brand:wikidata": "Q37158", "cuisine": "coffee_shop", "name": "Starbucks", "name:en": "Starbucks", "official_name": "Starbucks Coffee", "takeaway": "yes"}}, {"type": "node", "id": 4755790432, "lat": 13.8136397, "lon": 100.688021, "tags": {"amenity": "restaurant", "name:en": "MK Buffet Restaurant"}}, {"type": "node", "id": 4755790434, "lat": 13.8135735, "lon": 100.6877162, "tags": {"amenity": "restaurant", "name:en": "Yayoi Japanese Restaurant"}}, {"type": "node", "id": 5114724021, "lat": 13.8413158, "lon": 100.6963068, "tags": {"amenity": "restaurant", "name": "Origi \u0e21\u0e31\u0e07\u0e2a\u0e27\u0e34\u0e23\u0e31\u0e15\u0e34"}}, {"type": "node", "id": 6317643551, "lat": 13.8055044, "lon": 100.6971584, "tags": {"amenity": "restaurant", "name": "\u0e42\u0e0b\u0e19\u0e2d\u0e32\u0e2b\u0e32\u0e23"}}, {"type": "node", "id": 7125483685, "lat": 13.8003294, "lon": 100.6917197, "tags": {"name": "p\u00e9tanque", "tourism": "attraction"}}, {"type": "node", "id": 7796929361, "lat": 13.8429174, "lon": 100.6627637, "tags": {"addr:city": "\u0e01\u0e23\u0e38\u0e07\u0e40\u0e17\u0e1e\u0e21\u0e2b\u0e32\u0e19\u0e04\u0e23", "addr:housenumber": "7 \u0e0b\u0e2d\u0e22\u0e04\u0e39\u0e49\u0e1a\u0e2d\u0e19 5", "addr:postcode": "10230", "addr:street": "\u0e16\u0e19\u0e19 \u0e04\u0e39\u0e49\u0e1a\u0e2d\u0e19", "amenity": "restaurant", "cuisine": "thai;\u0e2d\u0e32\u0e2b\u0e32\u0e23\u0e40\u0e0a\u0e49\u0e32;\u0e01\u0e32\u0e41\u0e1f;\u0e42\u0e08\u0e4a\u0e01;\u0e44\u0e02\u0e48\u0e01\u0e23\u0e30\u0e17\u0e30;\u0e19\u0e21\u0e16\u0e31\u0e48\u0e27\u0e40\u0e2b\u0e25\u0e37\u0e2d\u0e07;\u0e02\u0e19\u0e21\u0e1b\u0e31\u0e07\u0e1b\u0e34\u0e49\u0e07", "name": "\u0e1a\u0e49\u0e32\u0e19\u0e19\u0e34\u0e04", "opening_hours": "Mo-Su 06:00-21:00", "phone": "+66 63 993 6665", "website": "https://www.facebook.com/bannnickhomemade"}}, {"type": "node", "id": 9742503317, "lat": 13.8350828, "lon": 100.6570902, "tags": {"addr:postcode": "10230", "addr:street": "\u0e0b\u0e2d\u0e22\u0e19\u0e27\u0e21\u0e34\u0e19\u0e17\u0e23\u0e4c 163", "name": "\u0e40\u0e14\u0e2d\u0e30\u0e04\u0e34\u0e17\u0e17\u0e4c \u0e1e\u0e25\u0e31\u0e2a \u0e19\u0e27\u0e21\u0e34\u0e19\u0e17\u0e23\u0e4c", "name:en": "the kit plus nawamin", "tourism": "hostel"}}, {"type": "node", "id": 9893302329, "lat": 13.8408395, "lon": 100.6744314, "tags": {"name:ja": "Phak", "tourism": "apartment"}}, {"type": "node", "id": 10291367405, "lat": 13.8205251, "lon": 100.6684232, "tags": {"amenity": "restaurant", "name": "\u0e1d\u0e39\u0e48\u0e2b\u0e21\u0e34\u0e07\u0e02\u0e49\u0e32\u0e27\u0e21\u0e31\u0e19\u0e44\u0e01\u0e48"}}, {"type": "node", "id": 10292450741, "lat": 13.8151272, "lon": 100.675398, "tags": {"amenity": "restaurant", "name": "\u0e19\u0e32\u0e40\u0e14\u0e2d \u0e1a\u0e32\u0e07\u0e01\u0e2d\u0e01"}}, {"type": "node", "id": 10292494705, "lat": 13.8193129, "lon": 100.6649776, "tags": {"amenity": "restaurant", "name": "\u0e23\u0e49\u0e32\u0e19\u0e40\u0e08\u0e4a\u0e2d\u0e38\u0e48\u0e19\u0e02\u0e49\u0e32\u0e27\u0e15\u0e49\u0e21\u0e42\u0e15\u0e49\u0e23\u0e38\u0e48\u0e07"}}, {"type": "node", "id": 10292494706, "lat": 13.8193786, "lon": 100.6654292, "tags": {"amenity": "restaurant", "name": "\u0e04\u0e23\u0e31\u0e27\u0e04\u0e38\u0e13\u0e19\u0e49\u0e2d\u0e22By\u0e2a\u0e32\u0e21\u0e41\u0e21\u0e48\u0e04\u0e23\u0e31\u0e27"}}, {"type": "node", "id": 10292713808, "lat": 13.8112481, "lon": 100.6501629, "tags": {"amenity": "cafe", "brand": "Starbucks", "brand:wikidata": "Q37158", "cuisine": "coffee_shop", "name": "Starbucks", "official_name": "Starbucks Coffee", "takeaway": "yes"}}, {"type": "node", "id": 10292742342, "lat": 13.8137834, "lon": 100.6525895, "tags": {"amenity": "marketplace", "name": "\u0e15\u0e25\u0e32\u0e14\u0e1b\u0e31\u0e10\u0e27\u0e34\u0e01\u0e23\u0e13\u0e4c", "name:en": "Patthavikorn Market", "name:th": "\u0e15\u0e25\u0e32\u0e14\u0e1b\u0e31\u0e10\u0e27\u0e34\u0e01\u0e23\u0e13\u0e4c"}}, {"type": "node", "id": 10292978142, "lat": 13.8090337, "lon": 100.661173, "tags": {"amenity": "restaurant", "name": "\u0e40\u0e1b\u0e34\u0e14\u0e0b\u0e34\u0e07 \u0e0b\u0e35\u0e1f\u0e39\u0e4a\u0e14"}}, {"type": "node", "id": 10294396450, "lat": 13.8191277, "lon": 100.6553725, "tags": {"amenity": "restaurant", "cuisine": "thai", "name": "\u0e2b\u0e21\u0e39\u0e01\u0e30\u0e17\u0e30\u0e40\u0e21\u0e37\u0e2d\u0e07\u0e01\u0e23\u0e38\u0e07"}}, {"type": "node", "id": 10294396451, "lat": 13.8189979, "lon": 100.6554032, "tags": {"amenity": "restaurant", "cuisine": "thai", "name": "\u0e40\u0e2b\u0e47\u0e19\u0e2b\u0e21\u0e35 \u0e41\u0e21\u0e47\u0e01\u0e0b\u0e4c\u0e41\u0e27\u0e25\u0e39 \u0e19\u0e27\u0e21\u0e34\u0e19\u0e17\u0e23\u0e4c"}}, {"type": "node", "id": 10294396452, "lat": 13.8188682, "lon": 100.6554339, "tags": {"amenity": "restaurant", "cuisine": "thai", "name": "\u0e04\u0e23\u0e31\u0e27\u0e2d\u0e31\u0e1b\u0e2a\u0e23"}}, {"type": "node", "id": 10294396482, "lat": 13.8169532, "lon": 100.6533604, "tags": {"amenity": "restaurant", "cuisine": "japanese", "name": "\u0e22\u0e32\u0e01\u0e39\u0e0b\u0e48\u0e32\u0e0b\u0e39\u0e0a\u0e34 (Yakuza Sushi)"}}, {"type": "node", "id": 10294396491, "lat": 13.8172849, "lon": 100.6535195, "tags": {"amenity": "restaurant", "cuisine": "japanese", "name": "\u0e0b\u0e39\u0e0a\u0e34\u0e21\u0e32\u0e40\u0e2a\u0e30"}}, {"type": "node", "id": 10294396493, "lat": 13.8173704, "lon": 100.6535205, "tags": {"amenity": "cafe", "name": "MOJI Cafe'"}}, {"type": "node", "id": 10294458083, "lat": 13.8108068, "lon": 100.6500235, "tags": {"amenity": "restaurant", "brand": "Bonchon Chicken", "brand:wikidata": "Q4941248", "cuisine": "chicken;korean;sushi", "name": "Bonchon Chicken"}}, {"type": "node", "id": 10295030531, "lat": 13.811085, "lon": 100.6500424, "tags": {"amenity": "cafe", "brand": "\u0e04\u0e32\u0e40\u0e1f\u0e48 \u0e2d\u0e40\u0e21\u0e0b\u0e2d\u0e19", "brand:en": "Caf\u00e9 Amazon", "brand:th": "\u0e04\u0e32\u0e40\u0e1f\u0e48 \u0e2d\u0e40\u0e21\u0e0b\u0e2d\u0e19", "brand:wikidata": "Q43247503", "cuisine": "coffee_shop", "name": "\u0e04\u0e32\u0e40\u0e1f\u0e48 \u0e2d\u0e40\u0e21\u0e0b\u0e2d\u0e19", "name:en": "Caf\u00e9 Amazon", "name:th": "\u0e04\u0e32\u0e40\u0e1f\u0e48 \u0e2d\u0e40\u0e21\u0e0b\u0e2d\u0e19", "takeaway": "yes"}}, {"type": "node", "id": 10767862718, "lat": 13.8317744, "lon": 100.6676994, "tags": {"addr:housenumber": "121/211", "addr:postcode": "10230", "addr:province": "\u0e01\u0e23\u0e38\u0e07\u0e40\u0e17\u0e1e\u0e21\u0e2b\u0e32\u0e19\u0e04\u0e23", "addr:street": "\u0e0b\u0e2d\u0e22\u0e23\u0e32\u0e21\u0e2d\u0e34\u0e19\u0e17\u0e23\u0e32 60 \u0e2b\u0e21\u0e39\u0e48\u0e1a\u0e49\u0e32\u0e19\u0e0a\u0e37\u0e48\u0e19\u0e01\u0e21\u0e25 \u0e40\u0e02\u0e15\u0e04\u0e31\u0e19\u0e19\u0e32\u0e22\u0e32\u0e27", "amenity": "cafe", "cuisine": "coffee_shop;thai;cake;dessert", "internet_access": "wlan", "internet_access:fee": "no", "name": "1PEN Cafe and Co", "name:th": "\u0e27\u0e31\u0e19\u0e40\u0e1e\u0e47\u0e0d\u0e04\u0e32\u0e40\u0e1f\u0e48", "opening_hours": "Mo-Su 07:30-18:00", "outdoor_seating": "yes", "phone": "+66952347576", "website": "https://linktr.ee/1pencafe"}}, {"type": "node", "id": 11245404671, "lat": 13.8456487, "lon": 100.6509121, "tags": {"amenity": "cafe", "cuisine": "coffee_shop", "name": "Coffee Journey"}}, {"type": "node", "id": 11272504385, "lat": 13.8438077, "lon": 100.6536216, "tags": {"amenity": "cafe", "cuisine": "coffee_shop", "name": "\u0e42\u0e1f\u0e42\u0e15\u0e49 \u0e04\u0e2d\u0e1f\u0e1f\u0e35\u0e48", "name:en": "Foto Coffee", "name:th": "\u0e42\u0e1f\u0e42\u0e15\u0e49 \u0e04\u0e2d\u0e1f\u0e1f\u0e35\u0e48"}}, {"type": "node", "id": 11272504407, "lat": 13.8447271, "lon": 100.6533757, "tags": {"amenity": "restaurant", "cuisine": "pizza;crepe", "name": "\u0e40\u0e04\u0e23\u0e1b\u0e1a\u0e38\u0e1f\u0e40\u0e1f\u0e15\u0e4c"}}, {"type": "node", "id": 11272504412, "lat": 13.8441953, "lon": 100.6527902, "tags": {"amenity": "restaurant", "cuisine": "chicken", "name": "\u0e02\u0e49\u0e32\u0e27\u0e21\u0e31\u0e19\u0e44\u0e01\u0e48\u0e19\u0e32\u0e22\u0e40\u0e1a\u0e47\u0e19\u0e0b\u0e4c"}}, {"type": "node", "id": 11272504415, "lat": 13.8443763, "lon": 100.6527427, "tags": {"amenity": "cafe", "cuisine": "coffee_shop", "name": "\u0e1e\u0e35\u0e48\u0e2b\u0e25\u0e27\u0e07\u0e01\u0e32\u0e41\u0e1f\u0e19\u0e21\u0e2a\u0e14"}}, {"type": "node", "id": 11272504419, "lat": 13.8443197, "lon": 100.653063, "tags": {"amenity": "restaurant", "cuisine": "noodle", "name": "\u0e23\u0e32\u0e14\u0e2b\u0e19\u0e49\u0e32 \u0e40\u0e08\u0e49\u0e32\u0e40\u0e01\u0e48\u0e32 \u0e01\u0e21.7"}}, {"type": "node", "id": 11272504422, "lat": 13.8444593, "lon": 100.6530335, "tags": {"amenity": "restaurant", "cuisine": "noodle", "name": "\u0e23\u0e49\u0e32\u0e19\u0e2d\u0e32\u0e23\u0e35\u0e22\u0e4c\u0e1a\u0e30\u0e2b\u0e21\u0e35\u0e48\u0e40\u0e01\u0e35\u0e49\u0e22\u0e27"}}, {"type": "node", "id": 11272504423, "lat": 13.8444667, "lon": 100.6530996, "tags": {"amenity": "restaurant", "cuisine": "thai", "name": "\u0e22\u0e33\u0e23\u0e2a\u0e40\u0e14\u0e47\u0e14\u0e01\u0e34\u0e42\u0e25 7"}}, {"type": "node", "id": 11272504424, "lat": 13.8445168, "lon": 100.6527816, "tags": {"amenity": "restaurant", "cuisine": "porridge", "name": "\u0e42\u0e08\u0e4a\u0e01\u0e2b\u0e21\u0e39 \u0e15\u0e49\u0e21\u0e40\u0e25\u0e37\u0e2d\u0e14\u0e2b\u0e21\u0e39"}}, {"type": "node", "id": 11272504425, "lat": 13.8445361, "lon": 100.6528407, "tags": {"amenity": "restaurant", "cuisine": "soy_milk", "name": "\u0e23\u0e49\u0e32\u0e19\u0e19\u0e49\u0e33\u0e40\u0e15\u0e49\u0e32\u0e2b\u0e39\u0e49 \u0e40\u0e2e\u0e35\u0e22\u0e40\u0e1b\u0e35\u0e4a\u0e22\u0e01 1979 \u0e40\u0e08\u0e49\u0e32\u0e40\u0e01\u0e48\u0e32"}}, {"type": "node", "id": 11272504426, "lat": 13.8445799, "lon": 100.652799, "tags": {"amenity": "restaurant", "cuisine": "noodle", "name": "\u0e40\u0e2d\u0e21 \u0e01\u0e4b\u0e27\u0e22\u0e40\u0e15\u0e35\u0e4b\u0e22\u0e27\u0e2b\u0e21\u0e39"}}, {"type": "node", "id": 11272504427, "lat": 13.8446021, "lon": 100.65286, "tags": {"amenity": "restaurant", "name": "\u0e02\u0e49\u0e32\u0e27\u0e2b\u0e21\u0e39\u0e17\u0e2d\u0e14 \u0e41\u0e21\u0e48\u0e41\u0e14\u0e07"}}, {"type": "node", "id": 11272504429, "lat": 13.844682, "lon": 100.6528273, "tags": {"amenity": "restaurant", "name": "\u0e2b\u0e21\u0e39\u0e2a\u0e30\u0e40\u0e15\u0e4a\u0e30 \u0e01\u0e21.7"}}, {"type": "node", "id": 11272504430, "lat": 13.8447054, "lon": 100.6528904, "tags": {"amenity": "restaurant", "name": "\u0e02\u0e49\u0e32\u0e27\u0e15\u0e49\u0e21\u0e1b\u0e25\u0e32\u0e21\u0e32\u0e13\u0e34\u0e14\u0e32"}}, {"type": "node", "id": 11272504432, "lat": 13.8447778, "lon": 100.6529117, "tags": {"amenity": "restaurant", "cuisine": "noodle", "name": "\u0e0a\u0e32\u0e27\u0e17\u0e31\u0e01\u0e29\u0e34\u0e13 \u0e1a\u0e30\u0e2b\u0e21\u0e35\u0e48\u0e40\u0e01\u0e35\u0e4a\u0e22\u0e27 \u0e1b\u0e39 \u0e2b\u0e21\u0e39\u0e41\u0e14\u0e07"}}, {"type": "node", "id": 11272504437, "lat": 13.8449602, "lon": 100.6529043, "tags": {"amenity": "restaurant", "name": "\u0e1b.\u0e1b\u0e25\u0e32\u0e15\u0e32\u0e21\u0e2a\u0e31\u0e48\u0e07"}}, {"type": "node", "id": 11274288377, "lat": 13.8450345, "lon": 100.6529248, "tags": {"amenity": "restaurant", "name": "\u0e02\u0e49\u0e32\u0e27\u0e02\u0e32\u0e2b\u0e21\u0e39 \u0e01\u0e21.7"}}, {"type": "node", "id": 11274288381, "lat": 13.8452776, "lon": 100.6530657, "tags": {"amenity": "restaurant", "name": "\u0e42\u0e15 \u0e02\u0e49\u0e32\u0e27\u0e21\u0e31\u0e19\u0e44\u0e01\u0e48\u0e15\u0e2d\u0e19"}}, {"type": "node", "id": 11274288384, "lat": 13.8454846, "lon": 100.653003, "tags": {"amenity": "cafe", "cuisine": "coffee_shop", "name": "\u0e0a\u0e32\u0e22\u0e19\u0e4c\u0e40\u0e1f\u0e48", "name:en": "Chayfe 2639", "name:th": "\u0e0a\u0e32\u0e22\u0e19\u0e4c\u0e40\u0e1f\u0e48"}}, {"type": "node", "id": 11274288421, "lat": 13.8450673, "lon": 100.6533065, "tags": {"amenity": "restaurant", "name": "\u0e01\u0e34\u0e19\u0e44\u0e14\u0e49\u0e0a\u0e34\u0e27\u0e14\u0e35"}}, {"type": "node", "id": 11274288424, "lat": 13.8449746, "lon": 100.6532256, "tags": {"amenity": "restaurant", "name": "\u0e40\u0e08\u0e4a\u0e40\u0e2e\u0e35\u0e22\u0e07"}}, {"type": "node", "id": 11274288425, "lat": 13.8449271, "lon": 100.6532647, "tags": {"amenity": "restaurant", "cuisine": "noodle", "name": "\u0e28\u0e32\u0e25\u0e32\u0e41\u0e14\u0e07\u0e40\u0e22\u0e47\u0e19\u0e15\u0e32\u0e42\u0e1f (\u0e14\u0e31\u0e49\u0e07\u0e40\u0e14\u0e34\u0e21)"}}, {"type": "node", "id": 11274288440, "lat": 13.8464875, "lon": 100.653168, "tags": {"amenity": "restaurant", "cuisine": "noodle", "name": "\u0e01\u0e4b\u0e27\u0e22\u0e40\u0e15\u0e35\u0e4b\u0e22\u0e27\u0e15\u0e49\u0e21\u0e22\u0e33 \u0e1e\u0e38\u0e07\u0e42\u0e15"}}, {"type": "node", "id": 11276799815, "lat": 13.8486063, "lon": 100.6526017, "tags": {"amenity": "restaurant", "cuisine": "thai", "name": "\u0e15\u0e49\u0e2d\u0e22\u0e1c\u0e31\u0e14\u0e44\u0e17"}}, {"type": "node", "id": 11276799817, "lat": 13.8487077, "lon": 100.652647, "tags": {"amenity": "restaurant", "cuisine": "thai", "name": "\u0e02\u0e49\u0e32\u0e27\u0e41\u0e01\u0e07\u0e44\u0e15\u0e49"}}, {"type": "node", "id": 12312255296, "lat": 13.8101682, "lon": 100.6934205, "tags": {"addr:district": "\u0e04\u0e31\u0e19\u0e19\u0e32\u0e22\u0e32\u0e27", "addr:housenumber": "74/232", "addr:postcode": "10230", "addr:province": "\u0e01\u0e23\u0e38\u0e07\u0e40\u0e17\u0e1e\u0e21\u0e2b\u0e32\u0e19\u0e04\u0e23", "addr:street": "\u0e23\u0e32\u0e21\u0e2d\u0e34\u0e19\u0e17\u0e23\u0e32 74", "addr:subdistrict": "\u0e04\u0e31\u0e19\u0e19\u0e32\u0e22\u0e32\u0e27", "amenity": "cafe", "cuisine": "coffee_shop;bakery", "name": "Nomore Coffee & Nomore Baked", "website": "instagram.com/nomorecoffee.bkk"}}, {"type": "node", "id": 12401531983, "lat": 13.8358156, "lon": 100.660738, "tags": {"amenity": "cafe", "brand": "\u0e04\u0e32\u0e40\u0e1f\u0e48 \u0e2d\u0e40\u0e21\u0e0b\u0e2d\u0e19", "brand:en": "Caf\u00e9 Amazon", "brand:th": "\u0e04\u0e32\u0e40\u0e1f\u0e48 \u0e2d\u0e40\u0e21\u0e0b\u0e2d\u0e19", "brand:wikidata": "Q43247503", "cuisine": "coffee_shop", "name": "\u0e04\u0e32\u0e40\u0e1f\u0e48 \u0e2d\u0e40\u0e21\u0e0b\u0e2d\u0e19", "name:en": "Caf\u00e9 Amazon", "name:th": "\u0e04\u0e32\u0e40\u0e1f\u0e48 \u0e2d\u0e40\u0e21\u0e0b\u0e2d\u0e19", "takeaway": "yes"}}, {"type": "node", "id": 12444832647, "lat": 13.8304951, "lon": 100.6502405, "tags": {"amenity": "cafe", "brand": "\u0e04\u0e32\u0e40\u0e1f\u0e48 \u0e2d\u0e40\u0e21\u0e0b\u0e2d\u0e19", "brand:en": "Caf\u00e9 Amazon", "brand:th": "\u0e04\u0e32\u0e40\u0e1f\u0e48 \u0e2d\u0e40\u0e21\u0e0b\u0e2d\u0e19", "brand:wikidata": "Q43247503", "cuisine": "coffee_shop", "name": "\u0e04\u0e32\u0e40\u0e1f\u0e48 \u0e2d\u0e40\u0e21\u0e0b\u0e2d\u0e19", "name:en": "Caf\u00e9 Amazon", "name:th": "\u0e04\u0e32\u0e40\u0e1f\u0e48 \u0e2d\u0e40\u0e21\u0e0b\u0e2d\u0e19", "takeaway": "yes"}}, {"type": "node", "id": 12597790301, "lat": 13.8006872, "lon": 100.6940288, "tags": {"amenity": "cafe"}}, {"type": "node", "id": 12597800401, "lat": 13.8010869, "lon": 100.6936182, "tags": {"amenity": "cafe"}}, {"type": "node", "id": 12603485901, "lat": 13.8395821, "lon": 100.6638996, "tags": {"addr:street": "\u0e0b\u0e2d\u0e22\u0e23\u0e32\u0e21\u0e2d\u0e34\u0e19\u0e17\u0e23\u0e32 73/1", "amenity": "marketplace", "name": "\u0e15\u0e25\u0e32\u0e14\u0e2a\u0e32\u0e22\u0e40\u0e19\u0e15\u0e23", "opening_hours": "24/7"}}, {"type": "way", "id": 33227119, "nodes": [376929222, 376929252, 376929242, 10292662563, 376929233, 376929222], "tags": {"leisure": "park", "name": "\u0e2a\u0e27\u0e19\u0e0a\u0e38\u0e21\u0e0a\u0e19\u0e1b\u0e31\u0e10\u0e27\u0e34\u0e01\u0e23\u0e13\u0e4c 1"}}, {"type": "way", "id": 205873179, "nodes": [2158601705, 1579262592, 2158601728, 2158601715, 2158601707, 2158601727, 2158601702, 3857235066, 2158601706, 2158601734, 2158601731, 2158601705], "tags": {"amenity": "restaurant", "name": "Chocolate Ville", "tourism": "attraction"}}, {"type": "way", "id": 320501167, "nodes": [3270271301, 3270271302, 3270271303, 3270271304, 3270271305, 3270271306, 3270271307, 3270271301], "tags": {"amenity": "marketplace"}}, {"type": "way", "id": 556615351, "nodes": [5369301161, 12948745132, 5369301162, 5369301163, 5369301164, 5369301161], "tags": {"amenity": "place_of_worship", "denomination": "thai_mahanikaya", "name": "\u0e27\u0e31\u0e14\u0e2a\u0e38\u0e27\u0e23\u0e23\u0e13\u0e1b\u0e23\u0e30\u0e2a\u0e34\u0e17\u0e18\u0e34\u0e4c", "name:en": "Wat Suwan Prasit", "name:th": "\u0e27\u0e31\u0e14\u0e2a\u0e38\u0e27\u0e23\u0e23\u0e13\u0e1b\u0e23\u0e30\u0e2a\u0e34\u0e17\u0e18\u0e34\u0e4c", "not:building": "yes", "religion": "buddhist", "wikidata": "Q100698851", "wikipedia": "th:\u0e27\u0e31\u0e14\u0e2a\u0e38\u0e27\u0e23\u0e23\u0e13\u0e1b\u0e23\u0e30\u0e2a\u0e34\u0e17\u0e18\u0e34\u0e4c"}}, {"type": "way", "id": 626542398, "nodes": [5915063172, 5915063173, 5915063174, 5915063175, 5915063172], "tags": {"addr:district": "\u0e04\u0e31\u0e19\u0e19\u0e32\u0e22\u0e32\u0e27", "addr:postcode": "10230", "addr:province": "\u0e01\u0e23\u0e38\u0e07\u0e40\u0e17\u0e1e\u0e21\u0e2b\u0e32\u0e19\u0e04\u0e23", "addr:subdistrict": "\u0e23\u0e32\u0e21\u0e2d\u0e34\u0e19\u0e17\u0e23\u0e32", "amenity": "restaurant", "building": "yes", "layer": "1"}}, {"type": "way", "id": 626542399, "nodes": [5915063180, 5915063181, 5915063182, 5915063183, 5915063180], "tags": {"addr:district": "\u0e04\u0e31\u0e19\u0e19\u0e32\u0e22\u0e32\u0e27", "addr:postcode": "10230", "addr:province": "\u0e01\u0e23\u0e38\u0e07\u0e40\u0e17\u0e1e\u0e21\u0e2b\u0e32\u0e19\u0e04\u0e23", "addr:subdistrict": "\u0e23\u0e32\u0e21\u0e2d\u0e34\u0e19\u0e17\u0e23\u0e32", "amenity": "restaurant", "building": "yes", "layer": "1"}}, {"type": "way", "id": 626542400, "nodes": [5915063184, 5915063285, 5915063286, 5915063287, 5915063184], "tags": {"addr:district": "\u0e04\u0e31\u0e19\u0e19\u0e32\u0e22\u0e32\u0e27", "addr:postcode": "10230", "addr:province": "\u0e01\u0e23\u0e38\u0e07\u0e40\u0e17\u0e1e\u0e21\u0e2b\u0e32\u0e19\u0e04\u0e23", "addr:subdistrict": "\u0e23\u0e32\u0e21\u0e2d\u0e34\u0e19\u0e17\u0e23\u0e32", "amenity": "restaurant", "building": "yes", "layer": "1"}}, {"type": "way", "id": 626542402, "nodes": [5915063292, 5915063293, 5915063294, 5915063295, 5915063292], "tags": {"addr:district": "\u0e04\u0e31\u0e19\u0e19\u0e32\u0e22\u0e32\u0e27", "addr:postcode": "10230", "addr:province": "\u0e01\u0e23\u0e38\u0e07\u0e40\u0e17\u0e1e\u0e21\u0e2b\u0e32\u0e19\u0e04\u0e23", "addr:subdistrict": "\u0e23\u0e32\u0e21\u0e2d\u0e34\u0e19\u0e17\u0e23\u0e32", "amenity": "restaurant", "building": "yes"}}, {"type": "way", "id": 626542403, "nodes": [5915063296, 5915063297, 5915063298, 5915063299, 5915063300, 5915063301, 5915063302, 5915063303, 5915063296], "tags": {"addr:district": "\u0e04\u0e31\u0e19\u0e19\u0e32\u0e22\u0e32\u0e27", "addr:postcode": "10230", "addr:province": "\u0e01\u0e23\u0e38\u0e07\u0e40\u0e17\u0e1e\u0e21\u0e2b\u0e32\u0e19\u0e04\u0e23", "addr:subdistrict": "\u0e23\u0e32\u0e21\u0e2d\u0e34\u0e19\u0e17\u0e23\u0e32", "amenity": "restaurant", "building": "yes"}}, {"type": "way", "id": 626542404, "nodes": [5915063304, 5915063305, 5915063306, 5915063307, 5915063304], "tags": {"addr:district": "\u0e04\u0e31\u0e19\u0e19\u0e32\u0e22\u0e32\u0e27", "addr:postcode": "10230", "addr:province": "\u0e01\u0e23\u0e38\u0e07\u0e40\u0e17\u0e1e\u0e21\u0e2b\u0e32\u0e19\u0e04\u0e23", "addr:subdistrict": "\u0e23\u0e32\u0e21\u0e2d\u0e34\u0e19\u0e17\u0e23\u0e32", "amenity": "restaurant", "building": "yes"}}, {"type": "way", "id": 626542405, "nodes": [5915063308, 5915063309, 5915063310, 5915063311, 5915063308], "tags": {"addr:district": "\u0e04\u0e31\u0e19\u0e19\u0e32\u0e22\u0e32\u0e27", "addr:postcode": "10230", "addr:province": "\u0e01\u0e23\u0e38\u0e07\u0e40\u0e17\u0e1e\u0e21\u0e2b\u0e32\u0e19\u0e04\u0e23", "addr:subdistrict": "\u0e23\u0e32\u0e21\u0e2d\u0e34\u0e19\u0e17\u0e23\u0e32", "amenity": "restaurant", "building": "yes"}}, {"type": "way", "id": 626542406, "nodes": [5915063312, 5915063313, 5915063314, 5915063315, 5915063312], "tags": {"addr:district": "\u0e04\u0e31\u0e19\u0e19\u0e32\u0e22\u0e32\u0e27", "addr:postcode": "10230", "addr:province": "\u0e01\u0e23\u0e38\u0e07\u0e40\u0e17\u0e1e\u0e21\u0e2b\u0e32\u0e19\u0e04\u0e23", "addr:subdistrict": "\u0e23\u0e32\u0e21\u0e2d\u0e34\u0e19\u0e17\u0e23\u0e32", "amenity": "restaurant", "building": "yes"}}, {"type": "way", "id": 626816282, "nodes": [5917500394, 5917500395, 5917500396, 5917500397, 5917500398, 5917500399, 5917500400, 5917500382, 5917500383, 5917500386, 5917500387, 5917500388, 5917500389, 5917500390, 5917500391, 5917500392, 5917500393, 5917500384, 5917500385, 5917500394], "tags": {"name": "\u0e1a\u0e2d\u0e25\u0e25\u0e39\u0e19\u0e40\u0e2b\u0e34\u0e19\u0e1f\u0e49\u0e32", "tourism": "attraction"}}, {"type": "way", "id": 733670886, "nodes": [6871531326, 6871531327, 6871531328, 6871531329, 6871531330, 6871531331, 6871531326], "tags": {"leisure": "park", "name": "\u0e1b\u0e31\u0e0d\u0e0d\u0e32\u0e27\u0e34\u0e25\u0e40\u0e25\u0e08"}}, {"type": "way", "id": 733907876, "nodes": [6873351431, 12965561510, 6873351432, 6873351433, 6873351434, 6873351435, 6873351436, 6873351437, 6873351438, 6873351439, 6873351440, 6873351431], "tags": {"leisure": "park"}}, {"type": "way", "id": 733907968, "nodes": [6873389177, 6873389178, 6873389179, 7693856658, 3841765576, 6873389181, 7693856659, 6873389182, 6873389183, 6873389184, 6873422385, 6873422386, 6873422387, 6873422388, 6873422389, 6873422390, 6873422391, 6873422392, 6873422393, 6873422394, 6873422395, 6873422396, 6873422397, 6873422398, 6873422399, 6873422400, 6873422401, 6873422402, 6873422403, 6873389177], "tags": {"leisure": "park"}}, {"type": "way", "id": 733908211, "nodes": [6873386220, 6873386221, 6873386222, 6873386223, 6873386224, 6873386225, 6873386226, 6873386227, 6873386228, 6873386229, 6873386230, 6873386231, 6873386232, 6873386233, 6873386234, 6873386235, 6873386236, 6873386237, 6873386220], "tags": {"leisure": "park"}}, {"type": "way", "id": 733908368, "nodes": [6873420363, 6873420364, 6873420365, 6873420366, 6873420367, 6873420368, 6873420369, 6873420370, 6873420371, 6873420372, 6873420373, 6873420374, 6873420375, 3841671250, 6873420363], "tags": {"leisure": "park"}}, {"type": "way", "id": 733911674, "nodes": [6873392937, 6873392938, 6873392939, 6873392940, 6873392941, 6873392942, 6873392943, 6873392944, 6873392945, 6873392946, 6873392947, 6873392948, 6873392949, 6873392950, 6873392951, 6873392952, 6873392953, 6873392954, 6873392955, 6873392956, 6873392957, 6873392958, 6873392959, 6873392960, 6873392961, 6873392962, 6873392963, 6873392964, 6873392937], "tags": {"leisure": "park"}}, {"type": "way", "id": 758315724, "nodes": [510100459, 519551890, 1692760654, 7081933372, 510100456, 510100459], "tags": {"leisure": "park", "name": "\u0e2a\u0e27\u0e19\u0e0a\u0e21\u0e0a\u0e38\u0e19\u0e1b\u0e10\u0e27\u0e34\u0e01\u0e23\u0e13\u0e4c\u0e4c"}}, {"type": "way", "id": 758318510, "nodes": [510100459, 1692760662, 1692760664, 1692760665, 519551890, 1692760660, 1692760654, 7081933372, 510100456, 1692760648, 1692760652, 1692760659, 510100459], "tags": {"leisure": "park", "name": "\u0e2a\u0e27\u0e19\u0e0a\u0e38\u0e21\u0e0a\u0e19\u0e1b\u0e10\u0e27\u0e34\u0e01\u0e23\u0e13\u0e4c"}}, {"type": "way", "id": 812777572, "nodes": [7591723041, 1042474131, 11116099773, 7591723043, 7591723041], "tags": {"leisure": "park", "name": "\u0e2a\u0e27\u0e19\u0e40\u0e2a\u0e19\u0e32\u0e1e\u0e32\u0e04"}}, {"type": "way", "id": 832285306, "nodes": [7770413906, 7770413907, 7770413908, 7770413909, 7770413910, 7770413911, 7770413912, 7770413913, 7770413926, 7770413927, 7770413928, 7770413929, 12546053242, 7770413930, 7770413931, 7770413932, 7770413933, 7770413934, 7770413935, 7770413936, 7770413937, 7770413938, 7770413939, 7770413940, 12546139434, 12546053243, 12546053297, 7770413941, 12546053241, 12546053240, 12546053239, 12546114644, 12546139207, 12546139293, 12546053238, 12546114624, 12546114625, 7770413906], "tags": {"addr:city": "\u0e04\u0e31\u0e19\u0e19\u0e32\u0e22\u0e32\u0e27", "addr:housenumber": "203", "addr:postcode": "10230", "addr:street": "\u0e16\u0e19\u0e19\u0e2a\u0e27\u0e19\u0e2a\u0e22\u0e32\u0e21", "alt_name": "\u0e2a\u0e27\u0e19\u0e2a\u0e22\u0e32\u0e21", "alt_name:en": "Suan Siam", "alt_name:th": "\u0e2a\u0e27\u0e19\u0e2a\u0e22\u0e32\u0e21", "name": "Siam Amazing Park", "name:en": "Siam Amazing Park", "name:th": "\u0e2a\u0e22\u0e32\u0e21\u0e2d\u0e30\u0e40\u0e21\u0e0b\u0e34\u0e48\u0e07\u0e1e\u0e32\u0e23\u0e4c\u0e04", "tourism": "theme_park", "website": "https://www.siamamazingpark.com/", "wikidata": "Q1016030"}}, {"type": "way", "id": 1066302916, "nodes": [9791720418, 9791720419, 9791720420, 9791720421, 9791720422, 9791720423, 9791720418], "tags": {"amenity": "marketplace"}}, {"type": "way", "id": 1125309505, "nodes": [10290623571, 10290623572, 10290623573, 10290623574, 10290623571], "tags": {"addr:district": "\u0e04\u0e31\u0e19\u0e19\u0e32\u0e22\u0e32\u0e27", "addr:postcode": "10230", "addr:province": "\u0e01\u0e23\u0e38\u0e07\u0e40\u0e17\u0e1e\u0e21\u0e2b\u0e32\u0e19\u0e04\u0e23", "addr:subdistrict": "\u0e23\u0e32\u0e21\u0e2d\u0e34\u0e19\u0e17\u0e23\u0e32", "amenity": "restaurant", "building": "yes", "name": "\u0e1a\u0e36\u0e07\u0e19\u0e27\u0e21\u0e34\u0e19\u0e17\u0e23\u0e4c"}}, {"type": "way", "id": 1125309506, "nodes": [10290623575, 10290623576, 10290623577, 10290623578, 10290623575], "tags": {"addr:district": "\u0e04\u0e31\u0e19\u0e19\u0e32\u0e22\u0e32\u0e27", "addr:postcode": "10230", "addr:province": "\u0e01\u0e23\u0e38\u0e07\u0e40\u0e17\u0e1e\u0e21\u0e2b\u0e32\u0e19\u0e04\u0e23", "addr:subdistrict": "\u0e23\u0e32\u0e21\u0e2d\u0e34\u0e19\u0e17\u0e23\u0e32", "amenity": "restaurant", "building": "yes"}}, {"type": "way", "id": 1125309507, "nodes": [10290623579, 10290623580, 10290623581, 10290623582, 10290623579], "tags": {"addr:district": "\u0e04\u0e31\u0e19\u0e19\u0e32\u0e22\u0e32\u0e27", "addr:postcode": "10230", "addr:province": "\u0e01\u0e23\u0e38\u0e07\u0e40\u0e17\u0e1e\u0e21\u0e2b\u0e32\u0e19\u0e04\u0e23", "addr:subdistrict": "\u0e23\u0e32\u0e21\u0e2d\u0e34\u0e19\u0e17\u0e23\u0e32", "amenity": "restaurant", "building": "yes"}}, {"type": "way", "id": 1125310085, "nodes": [10290585163, 10290585164, 10290585165, 10290585166, 10290585163], "tags": {"addr:district": "\u0e04\u0e31\u0e19\u0e19\u0e32\u0e22\u0e32\u0e27", "addr:postcode": "10230", "addr:province": "\u0e01\u0e23\u0e38\u0e07\u0e40\u0e17\u0e1e\u0e21\u0e2b\u0e32\u0e19\u0e04\u0e23", "addr:subdistrict": "\u0e23\u0e32\u0e21\u0e2d\u0e34\u0e19\u0e17\u0e23\u0e32", "amenity": "restaurant", "building": "yes", "name": "Ni Tui Beef Noodle Halal"}}, {"type": "way", "id": 1125404225, "nodes": [10291378911, 10291378912, 10291378913, 10291378914, 10291378911], "tags": {"addr:district": "\u0e04\u0e31\u0e19\u0e19\u0e32\u0e22\u0e32\u0e27", "addr:postcode": "10230", "addr:province": "\u0e01\u0e23\u0e38\u0e07\u0e40\u0e17\u0e1e\u0e21\u0e2b\u0e32\u0e19\u0e04\u0e23", "addr:subdistrict": "\u0e23\u0e32\u0e21\u0e2d\u0e34\u0e19\u0e17\u0e23\u0e32", "amenity": "restaurant", "building": "yes"}}, {"type": "way", "id": 1125404226, "nodes": [10291378915, 10291378916, 10291378917, 10291378918, 10291378915], "tags": {"addr:district": "\u0e04\u0e31\u0e19\u0e19\u0e32\u0e22\u0e32\u0e27", "addr:postcode": "10230", "addr:province": "\u0e01\u0e23\u0e38\u0e07\u0e40\u0e17\u0e1e\u0e21\u0e2b\u0e32\u0e19\u0e04\u0e23", "addr:subdistrict": "\u0e23\u0e32\u0e21\u0e2d\u0e34\u0e19\u0e17\u0e23\u0e32", "amenity": "restaurant", "building": "yes"}}, {"type": "way", "id": 1125404227, "nodes": [10291378919, 10291378920, 10291378921, 10291378922, 10291378919], "tags": {"addr:district": "\u0e04\u0e31\u0e19\u0e19\u0e32\u0e22\u0e32\u0e27", "addr:postcode": "10230", "addr:province": "\u0e01\u0e23\u0e38\u0e07\u0e40\u0e17\u0e1e\u0e21\u0e2b\u0e32\u0e19\u0e04\u0e23", "addr:subdistrict": "\u0e23\u0e32\u0e21\u0e2d\u0e34\u0e19\u0e17\u0e23\u0e32", "amenity": "restaurant", "building": "yes"}}, {"type": "way", "id": 1125404228, "nodes": [10291378923, 10291378924, 10291378925, 10291378926, 10291378923], "tags": {"addr:district": "\u0e04\u0e31\u0e19\u0e19\u0e32\u0e22\u0e32\u0e27", "addr:postcode": "10230", "addr:province": "\u0e01\u0e23\u0e38\u0e07\u0e40\u0e17\u0e1e\u0e21\u0e2b\u0e32\u0e19\u0e04\u0e23", "addr:subdistrict": "\u0e23\u0e32\u0e21\u0e2d\u0e34\u0e19\u0e17\u0e23\u0e32", "amenity": "restaurant", "building": "yes"}}, {"type": "way", "id": 1125526619, "nodes": [10292448957, 10292448958, 10292448959, 10292448960, 10292448961, 10292448968, 10292448962, 10292448957], "tags": {"addr:district": "\u0e04\u0e31\u0e19\u0e19\u0e32\u0e22\u0e32\u0e27", "addr:postcode": "10230", "addr:province": "\u0e01\u0e23\u0e38\u0e07\u0e40\u0e17\u0e1e\u0e21\u0e2b\u0e32\u0e19\u0e04\u0e23", "addr:subdistrict": "\u0e23\u0e32\u0e21\u0e2d\u0e34\u0e19\u0e17\u0e23\u0e32", "amenity": "cafe", "building": "yes", "name": "\u0e2b\u0e21\u0e2d\u0e01 \u0e04\u0e32\u0e40\u0e1f\u0e48 (Mok cafe)"}}, {"type": "way", "id": 1125526625, "nodes": [10292448987, 10292448988, 10292448992, 10292448989, 10292448990, 10292448991, 10292448987], "tags": {"addr:district": "\u0e04\u0e31\u0e19\u0e19\u0e32\u0e22\u0e32\u0e27", "addr:postcode": "10230", "addr:province": "\u0e01\u0e23\u0e38\u0e07\u0e40\u0e17\u0e1e\u0e21\u0e2b\u0e32\u0e19\u0e04\u0e23", "addr:subdistrict": "\u0e23\u0e32\u0e21\u0e2d\u0e34\u0e19\u0e17\u0e23\u0e32", "amenity": "restaurant", "bar": "yes", "building": "yes", "name": "\u0e08\u0e36\u0e01 \u0e40\u0e17\u0e2d\u0e23\u0e4c\u0e40\u0e23\u0e2a", "opening_hours": "Mo-Fr 17:00 - 01:30", "phone": "+66616525450", "website": "https://www.facebook.com/jugterrace"}}, {"type": "way", "id": 1125527542, "nodes": [10292443738, 10292443739, 10292443740, 10292443741, 10292443738], "tags": {"addr:district": "\u0e04\u0e31\u0e19\u0e19\u0e32\u0e22\u0e32\u0e27", "addr:postcode": "10230", "addr:province": "\u0e01\u0e23\u0e38\u0e07\u0e40\u0e17\u0e1e\u0e21\u0e2b\u0e32\u0e19\u0e04\u0e23", "addr:subdistrict": "\u0e23\u0e32\u0e21\u0e2d\u0e34\u0e19\u0e17\u0e23\u0e32", "amenity": "restaurant", "building": "yes", "name": "\u0e44\u0e01\u0e48\u0e22\u0e48\u0e32\u0e07\u0e1a\u0e32\u0e07\u0e15\u0e32\u0e25 \u0e23\u0e34\u0e21\u0e1a\u0e36\u0e07"}}, {"type": "way", "id": 1125527549, "nodes": [10292443766, 10292443767, 10292443768, 10292443769, 10292443766], "tags": {"addr:district": "\u0e04\u0e31\u0e19\u0e19\u0e32\u0e22\u0e32\u0e27", "addr:postcode": "10230", "addr:province": "\u0e01\u0e23\u0e38\u0e07\u0e40\u0e17\u0e1e\u0e21\u0e2b\u0e32\u0e19\u0e04\u0e23", "addr:subdistrict": "\u0e23\u0e32\u0e21\u0e2d\u0e34\u0e19\u0e17\u0e23\u0e32", "amenity": "restaurant", "building": "yes"}}, {"type": "way", "id": 1125527550, "nodes": [10292443770, 10292443771, 10292443772, 10292443773, 10292443770], "tags": {"addr:district": "\u0e04\u0e31\u0e19\u0e19\u0e32\u0e22\u0e32\u0e27", "addr:postcode": "10230", "addr:province": "\u0e01\u0e23\u0e38\u0e07\u0e40\u0e17\u0e1e\u0e21\u0e2b\u0e32\u0e19\u0e04\u0e23", "addr:subdistrict": "\u0e23\u0e32\u0e21\u0e2d\u0e34\u0e19\u0e17\u0e23\u0e32", "amenity": "restaurant", "building": "yes"}}, {"type": "way", "id": 1125527551, "nodes": [10292443774, 10292443775, 10292443776, 10292443777, 10292443774], "tags": {"addr:district": "\u0e04\u0e31\u0e19\u0e19\u0e32\u0e22\u0e32\u0e27", "addr:postcode": "10230", "addr:province": "\u0e01\u0e23\u0e38\u0e07\u0e40\u0e17\u0e1e\u0e21\u0e2b\u0e32\u0e19\u0e04\u0e23", "addr:subdistrict": "\u0e23\u0e32\u0e21\u0e2d\u0e34\u0e19\u0e17\u0e23\u0e32", "amenity": "restaurant", "building": "yes"}}, {"type": "way", "id": 1125528767, "nodes": [10292450752, 10292450753, 10292450754, 10292450755, 10292450756, 10292450757, 10292450752], "tags": {"addr:district": "\u0e04\u0e31\u0e19\u0e19\u0e32\u0e22\u0e32\u0e27", "addr:postcode": "10230", "addr:province": "\u0e01\u0e23\u0e38\u0e07\u0e40\u0e17\u0e1e\u0e21\u0e2b\u0e32\u0e19\u0e04\u0e23", "addr:subdistrict": "\u0e23\u0e32\u0e21\u0e2d\u0e34\u0e19\u0e17\u0e23\u0e32", "amenity": "restaurant", "building": "yes", "layer": "1", "name": "\u0e04\u0e23\u0e31\u0e27\u0e41\u0e2a\u0e07\u0e14\u0e32\u0e27\u0e40\u0e2a\u0e37\u0e2d"}}, {"type": "way", "id": 1125554183, "nodes": [10292597907, 10292597908, 10292688109, 10292688110, 10292597907], "tags": {"addr:district": "\u0e04\u0e31\u0e19\u0e19\u0e32\u0e22\u0e32\u0e27", "addr:postcode": "10230", "addr:province": "\u0e01\u0e23\u0e38\u0e07\u0e40\u0e17\u0e1e\u0e21\u0e2b\u0e32\u0e19\u0e04\u0e23", "addr:subdistrict": "\u0e23\u0e32\u0e21\u0e2d\u0e34\u0e19\u0e17\u0e23\u0e32", "amenity": "restaurant", "building": "yes", "name": "\u0e23\u0e49\u0e32\u0e19\u0e40\u0e14\u0e48\u0e19\u0e2a\u0e38\u0e14"}}, {"type": "way", "id": 1125554184, "nodes": [10292688111, 10292688112, 10292688141, 10292688113, 10292688140, 10292688133, 10292688139, 10292688114, 10292688111], "tags": {"addr:district": "\u0e04\u0e31\u0e19\u0e19\u0e32\u0e22\u0e32\u0e27", "addr:postcode": "10230", "addr:province": "\u0e01\u0e23\u0e38\u0e07\u0e40\u0e17\u0e1e\u0e21\u0e2b\u0e32\u0e19\u0e04\u0e23", "addr:subdistrict": "\u0e23\u0e32\u0e21\u0e2d\u0e34\u0e19\u0e17\u0e23\u0e32", "amenity": "restaurant", "building": "yes", "layer": "1", "name": "\u0e23\u0e49\u0e32\u0e19\u0e25\u0e32\u0e1a 101"}}, {"type": "way", "id": 1125558140, "nodes": [10292713867, 10292713868, 10292713869, 10292713870, 10292713871, 10292713872, 10292713867], "tags": {"amenity": "marketplace"}}, {"type": "way", "id": 1125560413, "nodes": [10292698896, 10292698897, 10292698898, 10292698899, 10292698896], "tags": {"amenity": "marketplace"}}, {"type": "way", "id": 1125561787, "nodes": [10292725704, 10292725705, 10292725706, 10292725707, 10292725704], "tags": {"amenity": "marketplace"}}, {"type": "way", "id": 1125561788, "nodes": [10292725708, 10292742309, 10292742310, 10292742311, 10292725708], "tags": {"amenity": "marketplace"}}, {"type": "way", "id": 1125561789, "nodes": [10292742312, 10292742313, 10292742314, 10292742315, 10292742312], "tags": {"amenity": "marketplace"}}, {"type": "way", "id": 1125561790, "nodes": [10292742316, 10292742317, 10292742318, 10292742319, 10292742320, 10292742321, 10292742322, 10292742323, 10292742324, 10292742325, 10292742316], "tags": {"amenity": "marketplace"}}, {"type": "way", "id": 1125561791, "nodes": [10292742326, 10292742327, 10292742328, 10292742329, 10292742330, 10292742331, 10292742332, 10292742333, 10292742326], "tags": {"amenity": "marketplace"}}, {"type": "way", "id": 1125561793, "nodes": [10292742338, 10292742339, 10292742340, 10292742341, 10292742338], "tags": {"amenity": "marketplace"}}, {"type": "way", "id": 1125591040, "nodes": [10292957299, 10292957300, 10292957301, 10292957302, 10292957299], "tags": {"addr:district": "\u0e1a\u0e36\u0e07\u0e01\u0e38\u0e48\u0e21", "addr:postcode": "10240", "addr:province": "\u0e01\u0e23\u0e38\u0e07\u0e40\u0e17\u0e1e\u0e21\u0e2b\u0e32\u0e19\u0e04\u0e23", "addr:subdistrict": "\u0e04\u0e25\u0e2d\u0e07\u0e01\u0e38\u0e48\u0e21", "amenity": "cafe", "brand": "\u0e04\u0e32\u0e40\u0e1f\u0e48 \u0e2d\u0e40\u0e21\u0e0b\u0e2d\u0e19", "brand:en": "Caf\u00e9 Amazon", "brand:th": "\u0e04\u0e32\u0e40\u0e1f\u0e48 \u0e2d\u0e40\u0e21\u0e0b\u0e2d\u0e19", "brand:wikidata": "Q43247503", "building": "yes", "cuisine": "coffee_shop", "name": "\u0e04\u0e32\u0e40\u0e1f\u0e48 \u0e2d\u0e40\u0e21\u0e0b\u0e2d\u0e19", "name:en": "Caf\u00e9 Amazon", "name:th": "\u0e04\u0e32\u0e40\u0e1f\u0e48 \u0e2d\u0e40\u0e21\u0e0b\u0e2d\u0e19", "takeaway": "yes"}}, {"type": "way", "id": 1125591044, "nodes": [10292978115, 10292978116, 10292978117, 10292978118, 10292978119, 10292978120, 10292978115], "tags": {"addr:district": "\u0e1a\u0e36\u0e07\u0e01\u0e38\u0e48\u0e21", "addr:postcode": "10240", "addr:province": "\u0e01\u0e23\u0e38\u0e07\u0e40\u0e17\u0e1e\u0e21\u0e2b\u0e32\u0e19\u0e04\u0e23", "addr:subdistrict": "\u0e04\u0e25\u0e2d\u0e07\u0e01\u0e38\u0e48\u0e21", "amenity": "cafe", "building": "yes", "name": "Loose cafe & studio"}}, {"type": "way", "id": 1125591046, "nodes": [10292978126, 10292978127, 10292978128, 10292978129, 10292978130, 10292978131, 10292978132, 10292978133, 10292978134, 10292978135, 10292978136, 10292978137, 10292978126], "tags": {"addr:district": "\u0e1a\u0e36\u0e07\u0e01\u0e38\u0e48\u0e21", "addr:postcode": "10240", "addr:province": "\u0e01\u0e23\u0e38\u0e07\u0e40\u0e17\u0e1e\u0e21\u0e2b\u0e32\u0e19\u0e04\u0e23", "addr:subdistrict": "\u0e04\u0e25\u0e2d\u0e07\u0e01\u0e38\u0e48\u0e21", "amenity": "cafe", "building": "yes", "name": "TANK cafe & garage"}}, {"type": "way", "id": 1125591047, "nodes": [10292978138, 10292978139, 10292978140, 10292978141, 10292978138], "tags": {"addr:district": "\u0e1a\u0e36\u0e07\u0e01\u0e38\u0e48\u0e21", "addr:postcode": "10240", "addr:province": "\u0e01\u0e23\u0e38\u0e07\u0e40\u0e17\u0e1e\u0e21\u0e2b\u0e32\u0e19\u0e04\u0e23", "addr:subdistrict": "\u0e04\u0e25\u0e2d\u0e07\u0e01\u0e38\u0e48\u0e21", "amenity": "restaurant", "building": "yes", "name": "\u0e02\u0e49\u0e32\u0e27\u0e41\u0e01\u0e07\u0e2d\u0e31\u0e19\u0e14\u0e32\u0e21\u0e31\u0e19 \u0e2d\u0e32\u0e2b\u0e32\u0e23\u0e1b\u0e31\u0e01\u0e29\u0e4c\u0e43\u0e15\u0e49"}}, {"type": "way", "id": 1125591048, "nodes": [10292978143, 10292978144, 10292978145, 10292978146, 10292978143], "tags": {"addr:district": "\u0e1a\u0e36\u0e07\u0e01\u0e38\u0e48\u0e21", "addr:postcode": "10240", "addr:province": "\u0e01\u0e23\u0e38\u0e07\u0e40\u0e17\u0e1e\u0e21\u0e2b\u0e32\u0e19\u0e04\u0e23", "addr:subdistrict": "\u0e04\u0e25\u0e2d\u0e07\u0e01\u0e38\u0e48\u0e21", "amenity": "restaurant", "building": "yes", "name": "\u0e04\u0e23\u0e31\u0e27\u0e41\u0e21\u0e48\u0e2a\u0e21\u0e43\u0e08 \u0e41\u0e0b\u0e48\u0e1a\u0e2d\u0e34\u0e19\u0e40\u0e15\u0e2d\u0e23\u0e4c"}}, {"type": "way", "id": 1125591949, "nodes": [10292977594, 10292977595, 10292977596, 10292977597, 10292977594], "tags": {"addr:district": "\u0e1a\u0e36\u0e07\u0e01\u0e38\u0e48\u0e21", "addr:postcode": "10240", "addr:province": "\u0e01\u0e23\u0e38\u0e07\u0e40\u0e17\u0e1e\u0e21\u0e2b\u0e32\u0e19\u0e04\u0e23", "addr:subdistrict": "\u0e04\u0e25\u0e2d\u0e07\u0e01\u0e38\u0e48\u0e21", "amenity": "restaurant", "building": "yes", "name": "\u0e42\u0e01\u0e1a\u0e39\u0e49\u0e23\u0e2a\u0e0b\u0e34\u0e48\u0e07 \u0e2a\u0e32\u0e02\u0e324 (\u0e16.\u0e1b\u0e23\u0e30\u0e40\u0e2a\u0e23\u0e34\u0e10\u0e21\u0e19\u0e39\u0e01\u0e34\u0e08)"}}, {"type": "way", "id": 1125591952, "nodes": [10292977608, 10292984709, 10292984710, 10292984711, 10292977608], "tags": {"addr:district": "\u0e1a\u0e36\u0e07\u0e01\u0e38\u0e48\u0e21", "addr:postcode": "10240", "addr:province": "\u0e01\u0e23\u0e38\u0e07\u0e40\u0e17\u0e1e\u0e21\u0e2b\u0e32\u0e19\u0e04\u0e23", "addr:subdistrict": "\u0e04\u0e25\u0e2d\u0e07\u0e01\u0e38\u0e48\u0e21", "amenity": "cafe", "building": "yes", "name": "Nun Espresso"}}, {"type": "way", "id": 1125591953, "nodes": [10292984712, 10292984713, 10292984714, 10292984715, 10292984712], "tags": {"addr:district": "\u0e1a\u0e36\u0e07\u0e01\u0e38\u0e48\u0e21", "addr:postcode": "10240", "addr:province": "\u0e01\u0e23\u0e38\u0e07\u0e40\u0e17\u0e1e\u0e21\u0e2b\u0e32\u0e19\u0e04\u0e23", "addr:subdistrict": "\u0e04\u0e25\u0e2d\u0e07\u0e01\u0e38\u0e48\u0e21", "amenity": "restaurant", "building": "yes", "name": "\u0e23\u0e49\u0e32\u0e19\u0e02\u0e19\u0e21\u0e08\u0e35\u0e19 40 \u0e1a\u0e32\u0e17"}}, {"type": "way", "id": 1125592387, "nodes": [10292976998, 10292976999, 10292977000, 10292977001, 10292976998], "tags": {"addr:district": "\u0e1a\u0e36\u0e07\u0e01\u0e38\u0e48\u0e21", "addr:postcode": "10240", "addr:province": "\u0e01\u0e23\u0e38\u0e07\u0e40\u0e17\u0e1e\u0e21\u0e2b\u0e32\u0e19\u0e04\u0e23", "addr:subdistrict": "\u0e04\u0e25\u0e2d\u0e07\u0e01\u0e38\u0e48\u0e21", "amenity": "restaurant", "building": "yes", "name": "\u0e02\u0e49\u0e32\u0e27\u0e15\u0e49\u0e21\u0e2b\u0e31\u0e27\u0e1b\u0e25\u0e32 \u0e15\u0e25\u0e32\u0e14\u0e19\u0e32\u0e07\u0e25\u0e34\u0e49\u0e19\u0e08\u0e35\u0e48 (\u0e2a\u0e32\u0e02\u0e32\u0e1b\u0e23\u0e30\u0e40\u0e2a\u0e23\u0e34\u0e10\u0e21\u0e19\u0e39\u0e0d\u0e01\u0e34\u0e08 48)"}}, {"type": "way", "id": 1125594013, "nodes": [10293009593, 10293009594, 10293009595, 10293009596, 10293009593], "tags": {"addr:district": "\u0e1a\u0e36\u0e07\u0e01\u0e38\u0e48\u0e21", "addr:postcode": "10240", "addr:province": "\u0e01\u0e23\u0e38\u0e07\u0e40\u0e17\u0e1e\u0e21\u0e2b\u0e32\u0e19\u0e04\u0e23", "addr:subdistrict": "\u0e04\u0e25\u0e2d\u0e07\u0e01\u0e38\u0e48\u0e21", "amenity": "place_of_worship", "building": "yes", "religion": "buddhist"}}, {"type": "way", "id": 1125594014, "nodes": [10293009597, 10293009598, 10293009599, 10293009600, 10293009597], "tags": {"addr:district": "\u0e1a\u0e36\u0e07\u0e01\u0e38\u0e48\u0e21", "addr:postcode": "10240", "addr:province": "\u0e01\u0e23\u0e38\u0e07\u0e40\u0e17\u0e1e\u0e21\u0e2b\u0e32\u0e19\u0e04\u0e23", "addr:subdistrict": "\u0e04\u0e25\u0e2d\u0e07\u0e01\u0e38\u0e48\u0e21", "amenity": "place_of_worship", "building": "yes", "religion": "buddhist"}}, {"type": "way", "id": 1125594015, "nodes": [10293009601, 10293009602, 10293009603, 10293009604, 10293009601], "tags": {"addr:district": "\u0e1a\u0e36\u0e07\u0e01\u0e38\u0e48\u0e21", "addr:postcode": "10240", "addr:province": "\u0e01\u0e23\u0e38\u0e07\u0e40\u0e17\u0e1e\u0e21\u0e2b\u0e32\u0e19\u0e04\u0e23", "addr:subdistrict": "\u0e04\u0e25\u0e2d\u0e07\u0e01\u0e38\u0e48\u0e21", "amenity": "place_of_worship", "building": "yes", "religion": "buddhist"}}, {"type": "way", "id": 1125594016, "nodes": [10293009605, 10293009606, 10293009607, 10293009608, 10293009605], "tags": {"addr:district": "\u0e1a\u0e36\u0e07\u0e01\u0e38\u0e48\u0e21", "addr:postcode": "10240", "addr:province": "\u0e01\u0e23\u0e38\u0e07\u0e40\u0e17\u0e1e\u0e21\u0e2b\u0e32\u0e19\u0e04\u0e23", "addr:subdistrict": "\u0e04\u0e25\u0e2d\u0e07\u0e01\u0e38\u0e48\u0e21", "amenity": "place_of_worship", "building": "yes", "religion": "buddhist"}}, {"type": "way", "id": 1125594017, "nodes": [10293009609, 10293009610, 10293009611, 10293009612, 10293009609], "tags": {"addr:district": "\u0e1a\u0e36\u0e07\u0e01\u0e38\u0e48\u0e21", "addr:postcode": "10240", "addr:province": "\u0e01\u0e23\u0e38\u0e07\u0e40\u0e17\u0e1e\u0e21\u0e2b\u0e32\u0e19\u0e04\u0e23", "addr:subdistrict": "\u0e04\u0e25\u0e2d\u0e07\u0e01\u0e38\u0e48\u0e21", "amenity": "place_of_worship", "building": "yes", "religion": "buddhist"}}, {"type": "way", "id": 1125754815, "nodes": [10294396483, 10294396484, 10294396485, 10294396486, 10294396483], "tags": {"addr:district": "\u0e1a\u0e36\u0e07\u0e01\u0e38\u0e48\u0e21", "addr:postcode": "10240", "addr:province": "\u0e01\u0e23\u0e38\u0e07\u0e40\u0e17\u0e1e\u0e21\u0e2b\u0e32\u0e19\u0e04\u0e23", "addr:subdistrict": "\u0e04\u0e25\u0e2d\u0e07\u0e01\u0e38\u0e48\u0e21", "amenity": "restaurant", "building": "yes", "cuisine": "steak_house", "name": "\u0e2a\u0e40\u0e15\u0e4a\u0e01\u0e25\u0e38\u0e07\u0e2b\u0e19\u0e27\u0e14 \u0e2a\u0e32\u0e02\u0e32\u0e19\u0e27\u0e21\u0e34\u0e19\u0e17\u0e23\u0e4c74"}}, {"type": "way", "id": 1125766510, "nodes": [10294489581, 10294489582, 10294489583, 10294489584, 10294489581], "tags": {"addr:district": "\u0e1a\u0e36\u0e07\u0e01\u0e38\u0e48\u0e21", "addr:postcode": "10240", "addr:province": "\u0e01\u0e23\u0e38\u0e07\u0e40\u0e17\u0e1e\u0e21\u0e2b\u0e32\u0e19\u0e04\u0e23", "addr:subdistrict": "\u0e04\u0e25\u0e2d\u0e07\u0e01\u0e38\u0e48\u0e21", "amenity": "restaurant", "building": "yes", "cuisine": "noodle", "name": "\u0e40\u0e0a\u0e47\u0e04\u0e2d\u0e34\u0e19 \u0e01\u0e34\u0e19\u0e40\u0e15\u0e35\u0e4b\u0e22\u0e27 \u0e1b\u0e10\u0e27\u0e34\u0e01\u0e23\u0e13\u0e4c"}}, {"type": "way", "id": 1125766511, "nodes": [10294489585, 10294489586, 10294489587, 10294489588, 10294489585], "tags": {"addr:district": "\u0e1a\u0e36\u0e07\u0e01\u0e38\u0e48\u0e21", "addr:postcode": "10240", "addr:province": "\u0e01\u0e23\u0e38\u0e07\u0e40\u0e17\u0e1e\u0e21\u0e2b\u0e32\u0e19\u0e04\u0e23", "addr:subdistrict": "\u0e04\u0e25\u0e2d\u0e07\u0e01\u0e38\u0e48\u0e21", "amenity": "cafe", "building": "yes", "name": "\u0e14\u0e27\u0e07\u0e15\u0e30\u0e27\u0e31\u0e19 \u0e04\u0e4a\u0e2d\u0e1f\u0e1f\u0e35\u0e48 \u0e2a\u0e32\u0e02\u0e32\u0e1b\u0e31\u0e10\u0e27\u0e34\u0e01\u0e23\u0e13\u0e4c"}}, {"type": "way", "id": 1125766518, "nodes": [10294508219, 10294508220, 10294508221, 10294508222, 10294508223, 10294508224, 10294508225, 10294508226, 10294508227, 10294508228, 10294508229, 10294508230, 10294508231, 10294508232, 10294508233, 10294508234, 10294508235, 10294508236, 10294508237, 10294508238, 10294508219], "tags": {"building": "yes", "layer": "1", "tourism": "hotel"}}, {"type": "way", "id": 1216596432, "nodes": [11272504390, 11272504391, 11272504392, 11272504393, 11272504390], "tags": {"addr:district": "\u0e04\u0e31\u0e19\u0e19\u0e32\u0e22\u0e32\u0e27", "addr:postcode": "10230", "addr:province": "\u0e01\u0e23\u0e38\u0e07\u0e40\u0e17\u0e1e\u0e21\u0e2b\u0e32\u0e19\u0e04\u0e23", "addr:subdistrict": "\u0e23\u0e32\u0e21\u0e2d\u0e34\u0e19\u0e17\u0e23\u0e32", "amenity": "restaurant", "building": "yes", "cuisine": "noodle", "name": "\u0e01\u0e4b\u0e27\u0e22\u0e40\u0e15\u0e35\u0e4b\u0e22\u0e27\u0e40\u0e23\u0e37\u0e2d\u0e1a\u0e49\u0e32\u0e19\u0e41\u0e1e\u0e19"}}, {"type": "way", "id": 1216596433, "nodes": [11272504394, 11272504395, 11272504396, 11272504397, 11272504394], "tags": {"amenity": "marketplace"}}, {"type": "way", "id": 1216765078, "nodes": [11274288458, 11274288459, 11274288460, 11274288461, 11274288462, 11274288463, 11274288458], "tags": {"addr:district": "\u0e1a\u0e32\u0e07\u0e40\u0e02\u0e19", "addr:postcode": "10220", "addr:province": "\u0e01\u0e23\u0e38\u0e07\u0e40\u0e17\u0e1e\u0e21\u0e2b\u0e32\u0e19\u0e04\u0e23", "addr:subdistrict": "\u0e17\u0e48\u0e32\u0e41\u0e23\u0e49\u0e07", "amenity": "cafe", "brand": "\u0e04\u0e32\u0e40\u0e1f\u0e48 \u0e2d\u0e40\u0e21\u0e0b\u0e2d\u0e19", "brand:en": "Caf\u00e9 Amazon", "brand:th": "\u0e04\u0e32\u0e40\u0e1f\u0e48 \u0e2d\u0e40\u0e21\u0e0b\u0e2d\u0e19", "brand:wikidata": "Q43247503", "building": "yes", "cuisine": "coffee_shop", "name": "\u0e04\u0e32\u0e40\u0e1f\u0e48 \u0e2d\u0e40\u0e21\u0e0b\u0e2d\u0e19", "name:en": "Caf\u00e9 Amazon", "name:th": "\u0e04\u0e32\u0e40\u0e1f\u0e48 \u0e2d\u0e40\u0e21\u0e0b\u0e2d\u0e19", "takeaway": "yes"}}, {"type": "way", "id": 1216765081, "nodes": [11274290773, 11296058500, 11274290774, 11274290775, 11274290776, 11274290773], "tags": {"amenity": "marketplace", "name": "\u0e15\u0e25\u0e32\u0e14\u0e19\u0e31\u0e14 \u0e23\u0e32\u0e21\u0e2d\u0e34\u0e19\u0e17\u0e23\u0e32 67"}}, {"type": "way", "id": 1216846805, "nodes": [11275014761, 11275014762, 11275014763, 11275014764, 11275014761], "tags": {"landuse": "religious", "name": "\u0e25\u0e32\u0e19\u0e1e\u0e23\u0e30\u0e1e\u0e38\u0e17\u0e18\u0e23\u0e39\u0e1b", "religion": "buddhist"}}, {"type": "way", "id": 1355621920, "nodes": [12546024876, 12546024877, 12546024878, 12546024879, 12546024880, 12546024881, 12546024882, 12546024883, 12546024884, 12546024876], "tags": {"leisure": "park"}}, {"type": "way", "id": 1355621921, "nodes": [12546024885, 12546024886, 12546024887, 12546024888, 12546024889, 12546024890, 12546024891, 12546024892, 12546024893, 12546024894, 12546024895, 12546024896, 12546024897, 12546024898, 12546024899, 12546024900, 12546024885], "tags": {"addr:district": "\u0e04\u0e31\u0e19\u0e19\u0e32\u0e22\u0e32\u0e27", "addr:postcode": "10230", "addr:province": "\u0e01\u0e23\u0e38\u0e07\u0e40\u0e17\u0e1e\u0e21\u0e2b\u0e32\u0e19\u0e04\u0e23", "addr:subdistrict": "\u0e23\u0e32\u0e21\u0e2d\u0e34\u0e19\u0e17\u0e23\u0e32", "building": "yes", "name": "\u0e1e\u0e34\u0e1e\u0e34\u0e18\u0e20\u0e31\u0e13\u0e11\u0e4c\u0e21\u0e39\u0e25\u0e19\u0e34\u0e18\u0e34\u0e2a\u0e38\u0e02\u0e38\u0e42\u0e21", "name:th": "\u0e1e\u0e34\u0e1e\u0e34\u0e18\u0e20\u0e31\u0e13\u0e11\u0e4c\u0e21\u0e39\u0e25\u0e19\u0e34\u0e18\u0e34\u0e2a\u0e38\u0e02\u0e38\u0e42\u0e21", "tourism": "museum"}}, {"type": "way", "id": 1355626877, "nodes": [12546065792, 12546065793, 12546065794, 12546065795, 12546065796, 12546065797, 12546065798, 12546065799, 12546065800, 12546053257, 12546053258, 12546053259, 12546053260, 12546053261, 12546053262, 12546053263, 12546053264, 12546053265, 12546053266, 12546053267, 12546053268, 12546053269, 12546053270, 12546053271, 12546053272, 12546065801, 12546065802, 12546065803, 12546065804, 12546065805, 12546065806, 12546065807, 12546065808, 12546065792], "tags": {"name": "\u0e2b\u0e32\u0e14\u0e40\u0e17\u0e35\u0e22\u0e21", "name:th": "\u0e2b\u0e32\u0e14\u0e40\u0e17\u0e35\u0e22\u0e21", "natural": "beach", "surface": "concrete"}}, {"type": "way", "id": 1355635762, "nodes": [12546138707, 12546138958, 12546138959, 12546138960, 12546138708, 12546138709, 12546138962, 12546138710, 12546138711, 12546138963, 12546138712, 12546138713, 12546138961, 12546138714, 12546138707], "tags": {"addr:district": "\u0e04\u0e31\u0e19\u0e19\u0e32\u0e22\u0e32\u0e27", "addr:postcode": "10230", "addr:province": "\u0e01\u0e23\u0e38\u0e07\u0e40\u0e17\u0e1e\u0e21\u0e2b\u0e32\u0e19\u0e04\u0e23", "addr:subdistrict": "\u0e04\u0e31\u0e19\u0e19\u0e32\u0e22\u0e32\u0e27", "building": "retail", "historic": "city_gate", "name": "\u0e2a\u0e32\u0e21\u0e22\u0e2d\u0e14", "name:th": "\u0e2a\u0e32\u0e21\u0e22\u0e2d\u0e14"}}, {"type": "way", "id": 1355635774, "nodes": [12546138778, 12546138826, 12546138779, 12546138780, 12546138825, 12546138781, 12546138778], "tags": {"addr:district": "\u0e04\u0e31\u0e19\u0e19\u0e32\u0e22\u0e32\u0e27", "addr:postcode": "10230", "addr:province": "\u0e01\u0e23\u0e38\u0e07\u0e40\u0e17\u0e1e\u0e21\u0e2b\u0e32\u0e19\u0e04\u0e23", "addr:subdistrict": "\u0e04\u0e31\u0e19\u0e19\u0e32\u0e22\u0e32\u0e27", "building": "yes", "historic": "city_gate", "name": "\u0e1b\u0e23\u0e30\u0e15\u0e39\u0e08\u0e35\u0e19", "name:th": "\u0e1b\u0e23\u0e30\u0e15\u0e39\u0e08\u0e35\u0e19"}}, {"type": "way", "id": 1355635775, "nodes": [12546138782, 12546138811, 12546138783, 12546138784, 12546138812, 12546138785, 12546138782], "tags": {"addr:district": "\u0e04\u0e31\u0e19\u0e19\u0e32\u0e22\u0e32\u0e27", "addr:postcode": "10230", "addr:province": "\u0e01\u0e23\u0e38\u0e07\u0e40\u0e17\u0e1e\u0e21\u0e2b\u0e32\u0e19\u0e04\u0e23", "addr:subdistrict": "\u0e04\u0e31\u0e19\u0e19\u0e32\u0e22\u0e32\u0e27", "building": "yes", "historic": "city_gate", "name": "\u0e1b\u0e23\u0e30\u0e15\u0e39\u0e08\u0e35\u0e19", "name:th": "\u0e1b\u0e23\u0e30\u0e15\u0e39\u0e08\u0e35\u0e19"}}, {"type": "way", "id": 1355635821, "nodes": [12546138977, 12546138978, 12546138884, 12546138979, 12546138980, 12546138977], "tags": {"area": "yes", "artwork_type": "sculpture", "name": "\u0e40\u0e2a\u0e32\u0e0a\u0e34\u0e07\u0e0a\u0e49\u0e32\u0e08\u0e33\u0e25\u0e2d\u0e07", "name:th": "\u0e40\u0e2a\u0e32\u0e0a\u0e34\u0e07\u0e0a\u0e49\u0e32\u0e08\u0e33\u0e25\u0e2d\u0e07", "tourism": "artwork"}}, {"type": "way", "id": 1355635851, "nodes": [12546138985, 12546138986, 12546139160, 12546139153, 12546139154, 12546139155, 12546139156, 12546139157, 12546139158, 12546139292, 12546139185, 12546138984, 12546139188, 12546138985], "tags": {"area": "yes", "artwork_type": "sculpture", "name": "\u0e1b\u0e49\u0e2d\u0e21\u0e1e\u0e23\u0e30\u0e2a\u0e38\u0e40\u0e21\u0e23\u0e38\u0e08\u0e33\u0e25\u0e2d\u0e07", "name:th": "\u0e1b\u0e49\u0e2d\u0e21\u0e1e\u0e23\u0e30\u0e2a\u0e38\u0e40\u0e21\u0e23\u0e38\u0e08\u0e33\u0e25\u0e2d\u0e07", "tourism": "artwork"}}, {"type": "way", "id": 1355647119, "nodes": [12546238318, 12546238319, 12546238320, 12546238321, 12546238322, 12546238323, 12546238324, 12546238325, 7770413909, 7770413908, 7770413907, 7770413906, 12546114625, 12546238327, 12546238328, 12546238329, 12546238318], "tags": {"description": "\u0e04\u0e48\u0e32\u0e22\u0e25\u0e39\u0e01\u0e40\u0e2a\u0e37\u0e2d\u0e2a\u0e22\u0e32\u0e21\u0e2d\u0e30\u0e40\u0e21\u0e0b\u0e34\u0e48\u0e07\u0e1e\u0e32\u0e23\u0e4c\u0e04 \u0e04\u0e48\u0e32\u0e22\u0e25\u0e39\u0e01\u0e40\u0e2a\u0e37\u0e2d\u0e0a\u0e31\u0e49\u0e19\u0e19\u0e33\u0e02\u0e2d\u0e07\u0e1b\u0e23\u0e30\u0e40\u0e17\u0e28\u0e17\u0e35\u0e48\u0e1e\u0e23\u0e31\u0e48\u0e07\u0e1e\u0e23\u0e49\u0e2d\u0e21\u0e14\u0e49\u0e27\u0e22\u0e1a\u0e38\u0e04\u0e25\u0e32\u0e01\u0e23\u0e04\u0e23\u0e39 \u0e1c\u0e39\u0e49\u0e1d\u0e36\u0e01\u0e2a\u0e2d\u0e19\u0e0b\u0e36\u0e48\u0e07\u0e1c\u0e48\u0e32\u0e19\u0e01\u0e32\u0e23\u0e2d\u0e1a\u0e23\u0e21\u0e27\u0e34\u0e0a\u0e32\u0e1c\u0e39\u0e49\u0e01\u0e33\u0e01\u0e31\u0e1a\u0e25\u0e39\u0e01\u0e40\u0e2a\u0e37\u0e2d\u0e40\u0e0a\u0e35\u0e48\u0e22\u0e27\u0e0a\u0e32\u0e0d\u0e17\u0e31\u0e49\u0e07\u0e20\u0e32\u0e04\u0e17\u0e24\u0e29\u0e0e\u0e35\u0e41\u0e25\u0e30\u0e1b\u0e0f\u0e34\u0e1a\u0e31\u0e15\u0e34 \u0e1e\u0e23\u0e31\u0e48\u0e07\u0e1e\u0e23\u0e49\u0e2d\u0e21\u0e14\u0e49\u0e27\u0e22\u0e2a\u0e16\u0e32\u0e19\u0e17\u0e35\u0e48\u0e41\u0e25\u0e30\u0e2a\u0e34\u0e48\u0e07\u0e2d\u0e33\u0e19\u0e27\u0e22\u0e04\u0e27\u0e32\u0e21\u0e2a\u0e30\u0e14\u0e27\u0e01\u0e15\u0e48\u0e32\u0e07 \u0e46", "name": "\u0e04\u0e48\u0e32\u0e22\u0e25\u0e39\u0e01\u0e40\u0e2a\u0e37\u0e2d\u0e2a\u0e22\u0e32\u0e21\u0e2d\u0e30\u0e40\u0e21\u0e0b\u0e34\u0e48\u0e07\u0e1e\u0e32\u0e23\u0e4c\u0e04", "name:th": "\u0e04\u0e48\u0e32\u0e22\u0e25\u0e39\u0e01\u0e40\u0e2a\u0e37\u0e2d\u0e2a\u0e22\u0e32\u0e21\u0e2d\u0e30\u0e40\u0e21\u0e0b\u0e34\u0e48\u0e07\u0e1e\u0e32\u0e23\u0e4c\u0e04", "tourism": "camp_site", "website": "https://www.siamamazingpark.com/service-camping-scout"}}, {"type": "way", "id": 1365750417, "nodes": [12279532656, 12647710458, 12647710459, 12647710460, 12647710461, 12647710462, 12647710463, 12647710464, 12647710465, 12647710466, 12647710467, 12647710468, 12647710469, 12279532656], "tags": {"amenity": "place_of_worship", "denomination": "thai_mahanikaya", "name": "\u0e27\u0e31\u0e14\u0e1a\u0e32\u0e07\u0e40\u0e15\u0e22", "name:en": "Wat Bang Toei", "name:th": "\u0e27\u0e31\u0e14\u0e1a\u0e32\u0e07\u0e40\u0e15\u0e22", "religion": "buddhist", "wikidata": "Q16004313", "wikipedia": "th:\u0e27\u0e31\u0e14\u0e1a\u0e32\u0e07\u0e40\u0e15\u0e22"}}, {"type": "way", "id": 1376682436, "nodes": [12747377775, 12747377776, 12747377777, 12747377775], "tags": {"area": "yes", "artwork_type": "sculpture", "tourism": "artwork"}}, {"type": "way", "id": 1376759634, "nodes": [12748101591, 12748101592, 12748101593, 12748101594, 12748101595, 12748101596, 12748101597, 12748101598, 12748101599, 12748101600, 12748101601, 12748101602, 12748101603, 12748101604, 12748101605, 12748101606, 12748101607, 12748101608, 12748101609, 12748101610, 12748101611, 12748101612, 12748101613, 12748101614, 12748101615, 12748101591], "tags": {"leisure": "park"}}, {"type": "way", "id": 1415894721, "nodes": [10292498346, 510117160, 13011775207, 13011775208, 10292498346], "tags": {"alt_name:en": "Wat Khlong Khru", "amenity": "place_of_worship", "denomination": "thai_mahanikaya", "loc_name": "\u0e27\u0e31\u0e14\u0e1b\u0e31\u0e10\u0e27\u0e34\u0e01\u0e23\u0e13\u0e4c", "loc_name:en": "Wat Patthavikorn", "loc_name:th": "\u0e27\u0e31\u0e14\u0e1b\u0e31\u0e10\u0e27\u0e34\u0e01\u0e23\u0e13\u0e4c", "name": "\u0e27\u0e31\u0e14\u0e04\u0e25\u0e2d\u0e07\u0e04\u0e23\u0e38", "name:en": "Wat Khlong Kru", "name:th": "\u0e27\u0e31\u0e14\u0e04\u0e25\u0e2d\u0e07\u0e04\u0e23\u0e38", "religion": "buddhist", "wikidata": "Q100277936", "wikipedia": "th:\u0e27\u0e31\u0e14\u0e04\u0e25\u0e2d\u0e07\u0e04\u0e23\u0e38 (\u0e01\u0e23\u0e38\u0e07\u0e40\u0e17\u0e1e\u0e21\u0e2b\u0e32\u0e19\u0e04\u0e23)"}}, {"type": "node", "id": 12279532656, "lat": 13.8029008, "lon": 100.6489594}, {"type": "node", "id": 12647710458, "lat": 13.8020595, "lon": 100.6491365}, {"type": "node", "id": 12647710459, "lat": 13.8019996, "lon": 100.6489299}, {"type": "node", "id": 12647710460, "lat": 13.8015177, "lon": 100.6490077}, {"type": "node", "id": 12647710461, "lat": 13.8016349, "lon": 100.6492598}, {"type": "node", "id": 12647710462, "lat": 13.8017235, "lon": 100.6492491}, {"type": "node", "id": 12647710463, "lat": 13.8018146, "lon": 100.6498714}, {"type": "node", "id": 12647710464, "lat": 13.8014396, "lon": 100.6498848}, {"type": "node", "id": 12647710469, "lat": 13.8032368, "lon": 100.6500806}, {"type": "node", "id": 12647710465, "lat": 13.8019058, "lon": 100.6507726}, {"type": "node", "id": 12647710466, "lat": 13.802036, "lon": 100.6506948}, {"type": "node", "id": 12647710467, "lat": 13.8025622, "lon": 100.6505124}, {"type": "node", "id": 12647710468, "lat": 13.8030102, "lon": 100.6503113}, {"type": "node", "id": 10292713867, "lat": 13.811615, "lon": 100.6521054}, {"type": "node", "id": 10292713868, "lat": 13.8112842, "lon": 100.6519766}, {"type": "node", "id": 10292713869, "lat": 13.8110683, "lon": 100.6525646}, {"type": "node", "id": 10292713870, "lat": 13.8114881, "lon": 100.6527282}, {"type": "node", "id": 10292713871, "lat": 13.8116834, "lon": 100.6521967}, {"type": "node", "id": 10292713872, "lat": 13.8115942, "lon": 100.652162}, {"type": "node", "id": 2158601702, "lat": 13.8116677, "lon": 100.6630494}, {"type": "node", "id": 2158601707, "lat": 13.8111937, "lon": 100.6629958}, {"type": "node", "id": 2158601727, "lat": 13.8116183, "lon": 100.6630494}, {"type": "node", "id": 5369301161, "lat": 13.8066495, "lon": 100.6611337}, {"type": "node", "id": 5369301162, "lat": 13.8067526, "lon": 100.6624468}, {"type": "node", "id": 5369301163, "lat": 13.8055462, "lon": 100.6625105}, {"type": "node", "id": 5369301164, "lat": 13.8054328, "lon": 100.6613956}, {"type": "node", "id": 5915063304, "lat": 13.8114414, "lon": 100.6630901}, {"type": "node", "id": 5915063305, "lat": 13.8112954, "lon": 100.6631393}, {"type": "node", "id": 5915063306, "lat": 13.8113225, "lon": 100.6632246}, {"type": "node", "id": 5915063307, "lat": 13.8114685, "lon": 100.6631754}, {"type": "node", "id": 5915063308, "lat": 13.8114627, "lon": 100.6632145}, {"type": "node", "id": 5915063309, "lat": 13.81137, "lon": 100.6632441}, {"type": "node", "id": 10292957299, "lat": 13.8092005, "lon": 100.6616014}, {"type": "node", "id": 10292957300, "lat": 13.8090683, "lon": 100.6616349}, {"type": "node", "id": 10292957301, "lat": 13.8090813, "lon": 100.6616895}, {"type": "node", "id": 10292957302, "lat": 13.8092135, "lon": 100.661656}, {"type": "node", "id": 10292976998, "lat": 13.8082024, "lon": 100.6606365}, {"type": "node", "id": 10292976999, "lat": 13.8081108, "lon": 100.6606586}, {"type": "node", "id": 10292977000, "lat": 13.8081262, "lon": 100.6607265}, {"type": "node", "id": 10292977001, "lat": 13.8082179, "lon": 100.6607044}, {"type": "node", "id": 10292977594, "lat": 13.8087956, "lon": 100.6606911}, {"type": "node", "id": 10292977595, "lat": 13.808705, "lon": 100.6607075}, {"type": "node", "id": 10292977596, "lat": 13.8087274, "lon": 100.6608395}, {"type": "node", "id": 10292977597, "lat": 13.8088181, "lon": 100.6608231}, {"type": "node", "id": 10292977608, "lat": 13.8088034, "lon": 100.6604499}, {"type": "node", "id": 10292978115, "lat": 13.8086333, "lon": 100.6619232}, {"type": "node", "id": 10292978116, "lat": 13.8085212, "lon": 100.661951}, {"type": "node", "id": 10292978117, "lat": 13.8085593, "lon": 100.662114}, {"type": "node", "id": 10292978118, "lat": 13.8084724, "lon": 100.6621356}, {"type": "node", "id": 10292978119, "lat": 13.8084939, "lon": 100.6622274}, {"type": "node", "id": 10292978120, "lat": 13.808693, "lon": 100.662178}, {"type": "node", "id": 10292978126, "lat": 13.8089761, "lon": 100.6618303}, {"type": "node", "id": 10292978127, "lat": 13.8089024, "lon": 100.661853}, {"type": "node", "id": 10292978128, "lat": 13.8089156, "lon": 100.6618986}, {"type": "node", "id": 10292978129, "lat": 13.8088912, "lon": 100.6619061}, {"type": "node", "id": 10292978130, "lat": 13.8089028, "lon": 100.6619462}, {"type": "node", "id": 10292978131, "lat": 13.8089509, "lon": 100.6619313}, {"type": "node", "id": 10292978132, "lat": 13.8089365, "lon": 100.6618819}, {"type": "node", "id": 10292978133, "lat": 13.8089481, "lon": 100.6618784}, {"type": "node", "id": 10292978134, "lat": 13.8089636, "lon": 100.6619318}, {"type": "node", "id": 10292978135, "lat": 13.8089909, "lon": 100.6619233}, {"type": "node", "id": 10292978136, "lat": 13.8089761, "lon": 100.6618724}, {"type": "node", "id": 10292978137, "lat": 13.8089873, "lon": 100.6618689}, {"type": "node", "id": 10292978138, "lat": 13.8090455, "lon": 100.661151}, {"type": "node", "id": 10292978139, "lat": 13.8089399, "lon": 100.6611881}, {"type": "node", "id": 10292978140, "lat": 13.8089761, "lon": 100.6612975}, {"type": "node", "id": 10292978141, "lat": 13.8090818, "lon": 100.6612604}, {"type": "node", "id": 10292978143, "lat": 13.8089843, "lon": 100.6609565}, {"type": "node", "id": 10292978144, "lat": 13.8089002, "lon": 100.6609853}, {"type": "node", "id": 10292978145, "lat": 13.8089555, "lon": 100.6611561}, {"type": "node", "id": 10292978146, "lat": 13.8090396, "lon": 100.6611273}, {"type": "node", "id": 10292984709, "lat": 13.8087641, "lon": 100.6604614}, {"type": "node", "id": 10292984710, "lat": 13.8087958, "lon": 100.6605762}, {"type": "node", "id": 10292984711, "lat": 13.808835, "lon": 100.6605648}, {"type": "node", "id": 10292984712, "lat": 13.8085999, "lon": 100.6603415}, {"type": "node", "id": 10292984713, "lat": 13.8085224, "lon": 100.6603595}, {"type": "node", "id": 10292984714, "lat": 13.8085463, "lon": 100.6604689}, {"type": "node", "id": 10292984715, "lat": 13.8086238, "lon": 100.6604509}, {"type": "node", "id": 10293009593, "lat": 13.8061349, "lon": 100.6616677}, {"type": "node", "id": 10293009594, "lat": 13.8058353, "lon": 100.6617137}, {"type": "node", "id": 10293009595, "lat": 13.8058789, "lon": 100.6620148}, {"type": "node", "id": 10293009596, "lat": 13.8061786, "lon": 100.6619687}, {"type": "node", "id": 10293009597, "lat": 13.8066311, "lon": 100.6619506}, {"type": "node", "id": 10293009598, "lat": 13.8064558, "lon": 100.6619683}, {"type": "node", "id": 10293009599, "lat": 13.8064846, "lon": 100.6622705}, {"type": "node", "id": 10293009600, "lat": 13.8066599, "lon": 100.6622528}, {"type": "node", "id": 10293009601, "lat": 13.8057757, "lon": 100.6615342}, {"type": "node", "id": 10293009602, "lat": 13.8056731, "lon": 100.661537}, {"type": "node", "id": 10293009603, "lat": 13.8056775, "lon": 100.6617044}, {"type": "node", "id": 10293009604, "lat": 13.8057801, "lon": 100.6617016}, {"type": "node", "id": 10293009605, "lat": 13.8056443, "lon": 100.661566}, {"type": "node", "id": 10293009606, "lat": 13.8055719, "lon": 100.6615693}, {"type": "node", "id": 10293009607, "lat": 13.805577, "lon": 100.6616873}, {"type": "node", "id": 10293009608, "lat": 13.8056494, "lon": 100.661684}, {"type": "node", "id": 10293009609, "lat": 13.8056612, "lon": 100.661742}, {"type": "node", "id": 10293009610, "lat": 13.805583, "lon": 100.6617426}, {"type": "node", "id": 10293009611, "lat": 13.8055842, "lon": 100.6619017}, {"type": "node", "id": 10293009612, "lat": 13.8056624, "lon": 100.661901}, {"type": "node", "id": 12948745132, "lat": 13.8066834, "lon": 100.661565}, {"type": "node", "id": 10292698896, "lat": 13.8136772, "lon": 100.6520632}, {"type": "node", "id": 10292698897, "lat": 13.8132325, "lon": 100.6518732}, {"type": "node", "id": 10292698898, "lat": 13.813046, "lon": 100.6523363}, {"type": "node", "id": 10292698899, "lat": 13.8134905, "lon": 100.6525263}, {"type": "node", "id": 10292725704, "lat": 13.8140063, "lon": 100.6521767}, {"type": "node", "id": 10292725705, "lat": 13.8138044, "lon": 100.6521234}, {"type": "node", "id": 10292725706, "lat": 13.8136734, "lon": 100.6526487}, {"type": "node", "id": 10292725707, "lat": 13.8138755, "lon": 100.6527021}, {"type": "node", "id": 10292725708, "lat": 13.8141577, "lon": 100.6521482}, {"type": "node", "id": 10292742309, "lat": 13.8141031, "lon": 100.6521361}, {"type": "node", "id": 10292742310, "lat": 13.8139449, "lon": 100.6528946}, {"type": "node", "id": 10292742311, "lat": 13.8139993, "lon": 100.6529067}, {"type": "node", "id": 10292742312, "lat": 13.8142857, "lon": 100.6522297}, {"type": "node", "id": 10292742313, "lat": 13.8141625, "lon": 100.652206}, {"type": "node", "id": 10292742314, "lat": 13.8140506, "lon": 100.6528217}, {"type": "node", "id": 10292742315, "lat": 13.814174, "lon": 100.6528455}, {"type": "node", "id": 10292742316, "lat": 13.8158285, "lon": 100.6529563}, {"type": "node", "id": 10292742317, "lat": 13.8152859, "lon": 100.6528886}, {"type": "node", "id": 10292742318, "lat": 13.8151963, "lon": 100.6536502}, {"type": "node", "id": 10292742319, "lat": 13.8156748, "lon": 100.6537099}, {"type": "node", "id": 10292742320, "lat": 13.8156824, "lon": 100.6536456}, {"type": "node", "id": 10292742321, "lat": 13.8157546, "lon": 100.6536545}, {"type": "node", "id": 10292742322, "lat": 13.8157715, "lon": 100.6535105}, {"type": "node", "id": 10292742323, "lat": 13.8156079, "lon": 100.6534901}, {"type": "node", "id": 10292742324, "lat": 13.8156544, "lon": 100.6530932}, {"type": "node", "id": 10292742325, "lat": 13.8158102, "lon": 100.6531126}, {"type": "node", "id": 10292742326, "lat": 13.814649, "lon": 100.6524647}, {"type": "node", "id": 10292742327, "lat": 13.8144046, "lon": 100.6524116}, {"type": "node", "id": 10292742328, "lat": 13.8143172, "lon": 100.6528379}, {"type": "node", "id": 10292742329, "lat": 13.8144062, "lon": 100.6528572}, {"type": "node", "id": 10292742330, "lat": 13.814452, "lon": 100.6526337}, {"type": "node", "id": 10292742331, "lat": 13.814546, "lon": 100.6526542}, {"type": "node", "id": 10292742332, "lat": 13.81454, "lon": 100.6526836}, {"type": "node", "id": 10292742333, "lat": 13.8146014, "lon": 100.6526969}, {"type": "node", "id": 10292742338, "lat": 13.8147625, "lon": 100.6532811}, {"type": "node", "id": 10292742339, "lat": 13.8137655, "lon": 100.653}, {"type": "node", "id": 10292742340, "lat": 13.8136412, "lon": 100.6534678}, {"type": "node", "id": 10292742341, "lat": 13.8146383, "lon": 100.6537486}, {"type": "node", "id": 10294396483, "lat": 13.8171412, "lon": 100.6533985}, {"type": "node", "id": 10294396484, "lat": 13.8170594, "lon": 100.6533604}, {"type": "node", "id": 10294396485, "lat": 13.8170287, "lon": 100.6534303}, {"type": "node", "id": 10294396486, "lat": 13.8171104, "lon": 100.6534685}, {"type": "node", "id": 10294489581, "lat": 13.8151146, "lon": 100.6528319}, {"type": "node", "id": 10294489582, "lat": 13.8150663, "lon": 100.6528174}, {"type": "node", "id": 10294489583, "lat": 13.8150489, "lon": 100.6528783}, {"type": "node", "id": 10294489584, "lat": 13.8150973, "lon": 100.6528929}, {"type": "node", "id": 10294489585, "lat": 13.8152479, "lon": 100.6526073}, {"type": "node", "id": 10294489586, "lat": 13.8151651, "lon": 100.6525874}, {"type": "node", "id": 10294489587, "lat": 13.8151524, "lon": 100.6526435}, {"type": "node", "id": 10294489588, "lat": 13.8152352, "lon": 100.6526633}, {"type": "node", "id": 10294508219, "lat": 13.815796, "lon": 100.6518884}, {"type": "node", "id": 10294508220, "lat": 13.8157293, "lon": 100.6518836}, {"type": "node", "id": 10294508221, "lat": 13.8157189, "lon": 100.6519697}, {"type": "node", "id": 10294508222, "lat": 13.8155733, "lon": 100.6519561}, {"type": "node", "id": 10294508223, "lat": 13.8156203, "lon": 100.6513784}, {"type": "node", "id": 10294508224, "lat": 13.8157791, "lon": 100.6513968}, {"type": "node", "id": 10294508225, "lat": 13.8157856, "lon": 100.6512778}, {"type": "node", "id": 10294508226, "lat": 13.815625, "lon": 100.6512614}, {"type": "node", "id": 10294508227, "lat": 13.8156203, "lon": 100.6512972}, {"type": "node", "id": 10294508228, "lat": 13.8154897, "lon": 100.6512836}, {"type": "node", "id": 10294508229, "lat": 13.8154041, "lon": 100.6522048}, {"type": "node", "id": 10294508230, "lat": 13.8155047, "lon": 100.6522223}, {"type": "node", "id": 10294508231, "lat": 13.8155056, "lon": 100.652199}, {"type": "node", "id": 10294508232, "lat": 13.8155817, "lon": 100.6522029}, {"type": "node", "id": 10294508233, "lat": 13.8156024, "lon": 100.6520132}, {"type": "node", "id": 10294508234, "lat": 13.815672, "lon": 100.6520175}, {"type": "node", "id": 10294508235, "lat": 13.815643, "lon": 100.6523242}, {"type": "node", "id": 10294508236, "lat": 13.8156791, "lon": 100.6523248}, {"type": "node", "id": 10294508237, "lat": 13.8156768, "lon": 100.6523592}, {"type": "node", "id": 10294508238, "lat": 13.8158298, "lon": 100.6523577}, {"type": "node", "id": 9791720418, "lat": 13.8219438, "lon": 100.654772}, {"type": "node", "id": 9791720419, "lat": 13.8218324, "lon": 100.6547685}, {"type": "node", "id": 9791720420, "lat": 13.8218312, "lon": 100.6548078}, {"type": "node", "id": 9791720421, "lat": 13.8217427, "lon": 100.6548051}, {"type": "node", "id": 9791720422, "lat": 13.8217375, "lon": 100.6549787}, {"type": "node", "id": 9791720423, "lat": 13.8219374, "lon": 100.654985}, {"type": "node", "id": 11272504390, "lat": 13.8442719, "lon": 100.6538186}, {"type": "node", "id": 11272504391, "lat": 13.8442378, "lon": 100.6538289}, {"type": "node", "id": 11272504392, "lat": 13.8442752, "lon": 100.6539609}, {"type": "node", "id": 11272504393, "lat": 13.8443093, "lon": 100.6539507}, {"type": "node", "id": 11272504394, "lat": 13.8444182, "lon": 100.6536093}, {"type": "node", "id": 11272504395, "lat": 13.8442808, "lon": 100.6535341}, {"type": "node", "id": 11272504396, "lat": 13.8441972, "lon": 100.653696}, {"type": "node", "id": 11272504397, "lat": 13.8443347, "lon": 100.6537712}, {"type": "node", "id": 11274288458, "lat": 13.8479293, "lon": 100.653021}, {"type": "node", "id": 11274288459, "lat": 13.8478488, "lon": 100.6530323}, {"type": "node", "id": 11274288460, "lat": 13.8478613, "lon": 100.6531271}, {"type": "node", "id": 11274288461, "lat": 13.8479251, "lon": 100.6531181}, {"type": "node", "id": 11274288462, "lat": 13.8479226, "lon": 100.6530995}, {"type": "node", "id": 11274288463, "lat": 13.8479393, "lon": 100.6530972}, {"type": "node", "id": 11274290773, "lat": 13.8475012, "lon": 100.6527106}, {"type": "node", "id": 11274290774, "lat": 13.8471087, "lon": 100.6528031}, {"type": "node", "id": 11274290775, "lat": 13.8471567, "lon": 100.6530188}, {"type": "node", "id": 11274290776, "lat": 13.8475491, "lon": 100.6529262}, {"type": "node", "id": 11296058500, "lat": 13.8471886, "lon": 100.6527843}, {"type": "node", "id": 12546024880, "lat": 13.8041828, "lon": 100.679317}, {"type": "node", "id": 12546024881, "lat": 13.8031656, "lon": 100.6795745}, {"type": "node", "id": 12546024882, "lat": 13.8033865, "lon": 100.679347}, {"type": "node", "id": 12546024883, "lat": 13.8044288, "lon": 100.6785786}, {"type": "node", "id": 12546138708, "lat": 13.805079, "lon": 100.6919649}, {"type": "node", "id": 12546138709, "lat": 13.8050873, "lon": 100.6920593}, {"type": "node", "id": 12546138778, "lat": 13.804444, "lon": 100.6920346}, {"type": "node", "id": 12546138779, "lat": 13.804287, "lon": 100.692046}, {"type": "node", "id": 12546138780, "lat": 13.8042924, "lon": 100.6921244}, {"type": "node", "id": 12546138781, "lat": 13.8044493, "lon": 100.692113}, {"type": "node", "id": 12546138782, "lat": 13.8039481, "lon": 100.6929792}, {"type": "node", "id": 12546138783, "lat": 13.8038589, "lon": 100.6928457}, {"type": "node", "id": 12546138784, "lat": 13.803796, "lon": 100.6928903}, {"type": "node", "id": 12546138785, "lat": 13.8038852, "lon": 100.6930238}, {"type": "node", "id": 12546138811, "lat": 13.803902, "lon": 100.6929102}, {"type": "node", "id": 12546138812, "lat": 13.8038401, "lon": 100.6929563}, {"type": "node", "id": 12546138825, "lat": 13.8043884, "lon": 100.6921174}, {"type": "node", "id": 12546138826, "lat": 13.8043814, "lon": 100.6920392}, {"type": "node", "id": 12546138960, "lat": 13.8051444, "lon": 100.6919587}, {"type": "node", "id": 12546138962, "lat": 13.8051534, "lon": 100.6920531}, {"type": "node", "id": 7770413932, "lat": 13.8049556, "lon": 100.6998144}, {"type": "node", "id": 7770413933, "lat": 13.8048137, "lon": 100.6999327}, {"type": "node", "id": 7770413934, "lat": 13.8046605, "lon": 100.6999281}, {"type": "node", "id": 7770413935, "lat": 13.8045501, "lon": 100.6998423}, {"type": "node", "id": 7770413936, "lat": 13.8040373, "lon": 100.6991354}, {"type": "node", "id": 7770413937, "lat": 13.8035594, "lon": 100.6987376}, {"type": "node", "id": 7770413938, "lat": 13.8033991, "lon": 100.6983344}, {"type": "node", "id": 7770413939, "lat": 13.8034395, "lon": 100.6981906}, {"type": "node", "id": 7770413940, "lat": 13.8035251, "lon": 100.6980491}, {"type": "node", "id": 12546053264, "lat": 13.8051576, "lon": 100.6986287}, {"type": "node", "id": 12546053265, "lat": 13.8051041, "lon": 100.6986153}, {"type": "node", "id": 12546053266, "lat": 13.805056, "lon": 100.6985545}, {"type": "node", "id": 12546053267, "lat": 13.8049729, "lon": 100.6984308}, {"type": "node", "id": 12546053268, "lat": 13.8049175, "lon": 100.6983851}, {"type": "node", "id": 12546053269, "lat": 13.8048122, "lon": 100.6983319}, {"type": "node", "id": 12546053270, "lat": 13.8047216, "lon": 100.698309}, {"type": "node", "id": 12546053271, "lat": 13.8046145, "lon": 100.6982976}, {"type": "node", "id": 12546053272, "lat": 13.8044445, "lon": 100.6983566}, {"type": "node", "id": 12546065792, "lat": 13.8051357, "lon": 100.6985295}, {"type": "node", "id": 12546065793, "lat": 13.8051526, "lon": 100.6985508}, {"type": "node", "id": 12546065801, "lat": 13.8044308, "lon": 100.6982815}, {"type": "node", "id": 12546065802, "lat": 13.8045225, "lon": 100.6982425}, {"type": "node", "id": 12546065803, "lat": 13.8046538, "lon": 100.6982191}, {"type": "node", "id": 12546065804, "lat": 13.8047935, "lon": 100.6982183}, {"type": "node", "id": 12546065805, "lat": 13.8048827, "lon": 100.6982477}, {"type": "node", "id": 12546065806, "lat": 13.804987, "lon": 100.6983067}, {"type": "node", "id": 12546065807, "lat": 13.8050645, "lon": 100.6983621}, {"type": "node", "id": 12546065808, "lat": 13.8050981, "lon": 100.6984549}, {"type": "node", "id": 12546139434, "lat": 13.8049625, "lon": 100.6969332}, {"type": "node", "id": 1579262592, "lat": 13.8103348, "lon": 100.6636647}, {"type": "node", "id": 2158601705, "lat": 13.8106754, "lon": 100.6645756}, {"type": "node", "id": 2158601715, "lat": 13.8113474, "lon": 100.6634115}, {"type": "node", "id": 2158601728, "lat": 13.8108103, "lon": 100.6635269}, {"type": "node", "id": 2158601731, "lat": 13.8113187, "lon": 100.6643262}, {"type": "node", "id": 2158601734, "lat": 13.8116599, "lon": 100.6652864}, {"type": "node", "id": 5915063172, "lat": 13.8113196, "lon": 100.6637025}, {"type": "node", "id": 5915063173, "lat": 13.8111065, "lon": 100.6637692}, {"type": "node", "id": 5915063174, "lat": 13.8111473, "lon": 100.6639076}, {"type": "node", "id": 5915063175, "lat": 13.8113605, "lon": 100.6638409}, {"type": "node", "id": 5915063180, "lat": 13.8110356, "lon": 100.6637603}, {"type": "node", "id": 5915063181, "lat": 13.8109172, "lon": 100.6638003}, {"type": "node", "id": 5915063182, "lat": 13.8109492, "lon": 100.6639006}, {"type": "node", "id": 5915063183, "lat": 13.8110675, "lon": 100.6638607}, {"type": "node", "id": 5915063184, "lat": 13.8110994, "lon": 100.6639261}, {"type": "node", "id": 5915063285, "lat": 13.8110123, "lon": 100.6639556}, {"type": "node", "id": 5915063286, "lat": 13.8110448, "lon": 100.6640573}, {"type": "node", "id": 5915063287, "lat": 13.8111319, "lon": 100.6640278}, {"type": "node", "id": 5915063293, "lat": 13.811646, "lon": 100.6636871}, {"type": "node", "id": 5915063294, "lat": 13.8116884, "lon": 100.6638178}, {"type": "node", "id": 5915063310, "lat": 13.8114086, "lon": 100.663372}, {"type": "node", "id": 5915063311, "lat": 13.8115012, "lon": 100.6633424}, {"type": "node", "id": 5915063312, "lat": 13.8116952, "lon": 100.6633378}, {"type": "node", "id": 5915063313, "lat": 13.8115913, "lon": 100.6633742}, {"type": "node", "id": 5915063314, "lat": 13.8116278, "lon": 100.6634844}, {"type": "node", "id": 10290623571, "lat": 13.811538, "lon": 100.6693031}, {"type": "node", "id": 10290623572, "lat": 13.8113312, "lon": 100.6693767}, {"type": "node", "id": 10290623573, "lat": 13.8114291, "lon": 100.6696683}, {"type": "node", "id": 10290623574, "lat": 13.8116358, "lon": 100.6695947}, {"type": "node", "id": 10290623575, "lat": 13.8112962, "lon": 100.6693965}, {"type": "node", "id": 10290623576, "lat": 13.811042, "lon": 100.6695001}, {"type": "node", "id": 10290623577, "lat": 13.8111495, "lon": 100.6697798}, {"type": "node", "id": 10290623578, "lat": 13.8114037, "lon": 100.6696762}, {"type": "node", "id": 10290623579, "lat": 13.8110072, "lon": 100.6694913}, {"type": "node", "id": 10290623580, "lat": 13.8106738, "lon": 100.6696387}, {"type": "node", "id": 10290623582, "lat": 13.8111423, "lon": 100.6698153}, {"type": "node", "id": 10291378911, "lat": 13.8116742, "lon": 100.6642838}, {"type": "node", "id": 10291378912, "lat": 13.8115506, "lon": 100.6643221}, {"type": "node", "id": 10291378913, "lat": 13.811624, "lon": 100.6645734}, {"type": "node", "id": 10291378915, "lat": 13.8113612, "lon": 100.6634678}, {"type": "node", "id": 10291378916, "lat": 13.8112861, "lon": 100.6634881}, {"type": "node", "id": 10291378917, "lat": 13.8113089, "lon": 100.6635778}, {"type": "node", "id": 10291378918, "lat": 13.8113841, "lon": 100.6635575}, {"type": "node", "id": 10291378919, "lat": 13.8111946, "lon": 100.663511}, {"type": "node", "id": 10291378920, "lat": 13.8110933, "lon": 100.663538}, {"type": "node", "id": 10291378921, "lat": 13.8111163, "lon": 100.6636293}, {"type": "node", "id": 10291378922, "lat": 13.8112176, "lon": 100.6636023}, {"type": "node", "id": 10291378923, "lat": 13.8109631, "lon": 100.6635537}, {"type": "node", "id": 10291378924, "lat": 13.8108879, "lon": 100.6635741}, {"type": "node", "id": 10291378925, "lat": 13.8109108, "lon": 100.6636637}, {"type": "node", "id": 10291378926, "lat": 13.8109859, "lon": 100.6636434}, {"type": "node", "id": 376929242, "lat": 13.8103468, "lon": 100.6704549}, {"type": "node", "id": 376929252, "lat": 13.8105135, "lon": 100.6710986}, {"type": "node", "id": 10290585163, "lat": 13.8113207, "lon": 100.6716688}, {"type": "node", "id": 10290585164, "lat": 13.8112645, "lon": 100.6716978}, {"type": "node", "id": 10290585165, "lat": 13.8113577, "lon": 100.6718895}, {"type": "node", "id": 10290585166, "lat": 13.8114139, "lon": 100.6718605}, {"type": "node", "id": 10290623581, "lat": 13.8108089, "lon": 100.6699627}, {"type": "node", "id": 376929222, "lat": 13.814806, "lon": 100.6688241}, {"type": "node", "id": 376929233, "lat": 13.8145976, "lon": 100.6680087}, {"type": "node", "id": 510100456, "lat": 13.8127984, "lon": 100.6651128}, {"type": "node", "id": 510100459, "lat": 13.8140932, "lon": 100.6648349}, {"type": "node", "id": 519551890, "lat": 13.8143459, "lon": 100.6660318}, {"type": "node", "id": 1692760648, "lat": 13.8131536, "lon": 100.6650368}, {"type": "node", "id": 1692760652, "lat": 13.8135005, "lon": 100.6649617}, {"type": "node", "id": 1692760654, "lat": 13.8136067, "lon": 100.6661882}, {"type": "node", "id": 1692760659, "lat": 13.813857, "lon": 100.6648922}, {"type": "node", "id": 1692760660, "lat": 13.8139759, "lon": 100.666116}, {"type": "node", "id": 1692760662, "lat": 13.8141755, "lon": 100.665162}, {"type": "node", "id": 1692760664, "lat": 13.8142307, "lon": 100.6654553}, {"type": "node", "id": 1692760665, "lat": 13.8142854, "lon": 100.6657292}, {"type": "node", "id": 2158601706, "lat": 13.8123345, "lon": 100.6651469}, {"type": "node", "id": 3857235066, "lat": 13.8117504, "lon": 100.6633097}, {"type": "node", "id": 5915063292, "lat": 13.8118112, "lon": 100.6636304}, {"type": "node", "id": 5915063295, "lat": 13.8118535, "lon": 100.6637611}, {"type": "node", "id": 5915063296, "lat": 13.8119073, "lon": 100.6640192}, {"type": "node", "id": 5915063297, "lat": 13.8118273, "lon": 100.6640441}, {"type": "node", "id": 5915063298, "lat": 13.8118335, "lon": 100.6640651}, {"type": "node", "id": 5915063299, "lat": 13.8118094, "lon": 100.6640726}, {"type": "node", "id": 5915063300, "lat": 13.811824, "lon": 100.6641224}, {"type": "node", "id": 5915063301, "lat": 13.8118504, "lon": 100.6641141}, {"type": "node", "id": 5915063302, "lat": 13.8118567, "lon": 100.6641355}, {"type": "node", "id": 5915063303, "lat": 13.8119344, "lon": 100.6641113}, {"type": "node", "id": 5915063315, "lat": 13.8117316, "lon": 100.663448}, {"type": "node", "id": 7081933372, "lat": 13.8131707, "lon": 100.6662909}, {"type": "node", "id": 10291378914, "lat": 13.8117477, "lon": 100.664535}, {"type": "node", "id": 10292597907, "lat": 13.8118156, "lon": 100.6682297}, {"type": "node", "id": 10292597908, "lat": 13.811757, "lon": 100.6682599}, {"type": "node", "id": 10292662563, "lat": 13.8137776, "lon": 100.6684818}, {"type": "node", "id": 10292688109, "lat": 13.811784, "lon": 100.6683156}, {"type": "node", "id": 10292688110, "lat": 13.8118426, "lon": 100.6682854}, {"type": "node", "id": 10292688111, "lat": 13.8119022, "lon": 100.6684272}, {"type": "node", "id": 10292688112, "lat": 13.8118311, "lon": 100.6684566}, {"type": "node", "id": 10292688113, "lat": 13.8118193, "lon": 100.6685171}, {"type": "node", "id": 10292688114, "lat": 13.8119487, "lon": 100.6685465}, {"type": "node", "id": 10292688133, "lat": 13.8118871, "lon": 100.668527}, {"type": "node", "id": 10292688139, "lat": 13.8119021, "lon": 100.6685657}, {"type": "node", "id": 10292688140, "lat": 13.8118332, "lon": 100.6685525}, {"type": "node", "id": 10292688141, "lat": 13.8118497, "lon": 100.6685045}, {"type": "node", "id": 510117160, "lat": 13.8181116, "lon": 100.6716701}, {"type": "node", "id": 10292443738, "lat": 13.8157533, "lon": 100.6759034}, {"type": "node", "id": 10292443739, "lat": 13.8156938, "lon": 100.6759134}, {"type": "node", "id": 10292443740, "lat": 13.8157253, "lon": 100.6761112}, {"type": "node", "id": 10292443741, "lat": 13.8157848, "lon": 100.6761011}, {"type": "node", "id": 10292443766, "lat": 13.8152863, "lon": 100.6750825}, {"type": "node", "id": 10292443767, "lat": 13.8151959, "lon": 100.6751073}, {"type": "node", "id": 10292443768, "lat": 13.8152695, "lon": 100.6753916}, {"type": "node", "id": 10292443769, "lat": 13.8153599, "lon": 100.6753667}, {"type": "node", "id": 10292443770, "lat": 13.8152537, "lon": 100.674963}, {"type": "node", "id": 10292443771, "lat": 13.8151026, "lon": 100.6750051}, {"type": "node", "id": 10292443772, "lat": 13.8151245, "lon": 100.6750885}, {"type": "node", "id": 10292443773, "lat": 13.8152756, "lon": 100.6750464}, {"type": "node", "id": 10292443774, "lat": 13.8150177, "lon": 100.6751014}, {"type": "node", "id": 10292443775, "lat": 13.8148376, "lon": 100.6751469}, {"type": "node", "id": 10292443776, "lat": 13.8149118, "lon": 100.6754585}, {"type": "node", "id": 10292443777, "lat": 13.8150919, "lon": 100.675413}, {"type": "node", "id": 10292448957, "lat": 13.8133153, "lon": 100.6708556}, {"type": "node", "id": 10292448958, "lat": 13.8131011, "lon": 100.6709604}, {"type": "node", "id": 10292448959, "lat": 13.8129988, "lon": 100.6707385}, {"type": "node", "id": 10292448960, "lat": 13.8130494, "lon": 100.6707137}, {"type": "node", "id": 10292448961, "lat": 13.8131199, "lon": 100.6708667}, {"type": "node", "id": 10292448962, "lat": 13.8132836, "lon": 100.6707867}, {"type": "node", "id": 10292448968, "lat": 13.8131218, "lon": 100.6708658}, {"type": "node", "id": 10292448987, "lat": 13.8140464, "lon": 100.6708037}, {"type": "node", "id": 10292448988, "lat": 13.8138719, "lon": 100.6708787}, {"type": "node", "id": 10292448989, "lat": 13.8137965, "lon": 100.6709271}, {"type": "node", "id": 10292448990, "lat": 13.8138556, "lon": 100.671073}, {"type": "node", "id": 10292448991, "lat": 13.8141111, "lon": 100.6709631}, {"type": "node", "id": 10292448992, "lat": 13.8138774, "lon": 100.6708923}, {"type": "node", "id": 10292450752, "lat": 13.8178476, "lon": 100.6753217}, {"type": "node", "id": 10292450753, "lat": 13.8175796, "lon": 100.6754176}, {"type": "node", "id": 10292450754, "lat": 13.8176137, "lon": 100.6755188}, {"type": "node", "id": 10292450755, "lat": 13.8177037, "lon": 100.6754866}, {"type": "node", "id": 10292450756, "lat": 13.8177141, "lon": 100.6755175}, {"type": "node", "id": 10292450757, "lat": 13.8178921, "lon": 100.6754538}, {"type": "node", "id": 13011775207, "lat": 13.8181897, "lon": 100.6731882}, {"type": "node", "id": 12546024876, "lat": 13.8064507, "lon": 100.6776341}, {"type": "node", "id": 12546024877, "lat": 13.8065841, "lon": 100.6782309}, {"type": "node", "id": 12546024878, "lat": 13.8067175, "lon": 100.6781922}, {"type": "node", "id": 12546024879, "lat": 13.8067967, "lon": 100.6785786}, {"type": "node", "id": 12546024884, "lat": 13.8053584, "lon": 100.6780935}, {"type": "node", "id": 12546024885, "lat": 13.8071745, "lon": 100.6775346}, {"type": "node", "id": 12546024886, "lat": 13.8065576, "lon": 100.6777055}, {"type": "node", "id": 12546024887, "lat": 13.8066298, "lon": 100.6779821}, {"type": "node", "id": 12546024888, "lat": 13.8065667, "lon": 100.6779996}, {"type": "node", "id": 12546024889, "lat": 13.806601, "lon": 100.6781309}, {"type": "node", "id": 12546024890, "lat": 13.8068055, "lon": 100.6780743}, {"type": "node", "id": 12546024891, "lat": 13.806841, "lon": 100.6782105}, {"type": "node", "id": 12546024892, "lat": 13.8071607, "lon": 100.6781221}, {"type": "node", "id": 12546024893, "lat": 13.8071507, "lon": 100.6780839}, {"type": "node", "id": 12546024894, "lat": 13.8072517, "lon": 100.678056}, {"type": "node", "id": 12546024895, "lat": 13.8072398, "lon": 100.67801}, {"type": "node", "id": 12546024896, "lat": 13.8072866, "lon": 100.6779971}, {"type": "node", "id": 12546024897, "lat": 13.8072766, "lon": 100.6779589}, {"type": "node", "id": 12546024898, "lat": 13.8075017, "lon": 100.6778966}, {"type": "node", "id": 12546024899, "lat": 13.8074567, "lon": 100.6777244}, {"type": "node", "id": 12546024900, "lat": 13.8072398, "lon": 100.6777845}, {"type": "node", "id": 10292498346, "lat": 13.8191505, "lon": 100.671348}, {"type": "node", "id": 13011775208, "lat": 13.8190049, "lon": 100.6728905}, {"type": "node", "id": 6871531326, "lat": 13.8309726, "lon": 100.6748113}, {"type": "node", "id": 6871531327, "lat": 13.8305532, "lon": 100.6748126}, {"type": "node", "id": 6871531328, "lat": 13.830467, "lon": 100.6749387}, {"type": "node", "id": 6871531329, "lat": 13.8305033, "lon": 100.6750835}, {"type": "node", "id": 6873392937, "lat": 13.8265935, "lon": 100.6765531}, {"type": "node", "id": 6873392938, "lat": 13.8266442, "lon": 100.6765416}, {"type": "node", "id": 6873392939, "lat": 13.8267026, "lon": 100.6765416}, {"type": "node", "id": 6873392940, "lat": 13.8267421, "lon": 100.6765452}, {"type": "node", "id": 6873392941, "lat": 13.8267696, "lon": 100.6765682}, {"type": "node", "id": 6873392942, "lat": 13.8267937, "lon": 100.6766027}, {"type": "node", "id": 6873392943, "lat": 13.8268117, "lon": 100.6766337}, {"type": "node", "id": 6873392944, "lat": 13.8268289, "lon": 100.6766735}, {"type": "node", "id": 6873392945, "lat": 13.8268297, "lon": 100.6767053}, {"type": "node", "id": 6873392946, "lat": 13.8268272, "lon": 100.6767611}, {"type": "node", "id": 6873392947, "lat": 13.8268186, "lon": 100.6768062}, {"type": "node", "id": 6873392948, "lat": 13.8268014, "lon": 100.6768496}, {"type": "node", "id": 6873392949, "lat": 13.8267782, "lon": 100.6768779}, {"type": "node", "id": 6873392950, "lat": 13.8267395, "lon": 100.6769097}, {"type": "node", "id": 6873392951, "lat": 13.8267069, "lon": 100.6769345}, {"type": "node", "id": 6873392952, "lat": 13.8266691, "lon": 100.6769513}, {"type": "node", "id": 6873392953, "lat": 13.8266304, "lon": 100.6769655}, {"type": "node", "id": 6873392954, "lat": 13.8265814, "lon": 100.676969}, {"type": "node", "id": 6873392955, "lat": 13.8265411, "lon": 100.6769602}, {"type": "node", "id": 6873392956, "lat": 13.8264947, "lon": 100.6769398}, {"type": "node", "id": 6873392957, "lat": 13.8264569, "lon": 100.676908}, {"type": "node", "id": 6873392958, "lat": 13.8264345, "lon": 100.6768788}, {"type": "node", "id": 6873392959, "lat": 13.8264191, "lon": 100.6768363}, {"type": "node", "id": 6873392960, "lat": 13.8264096, "lon": 100.676785}, {"type": "node", "id": 6873392961, "lat": 13.8264191, "lon": 100.6767186}, {"type": "node", "id": 6873392962, "lat": 13.8264491, "lon": 100.6766487}, {"type": "node", "id": 6873392963, "lat": 13.8265196, "lon": 100.6765877}, {"type": "node", "id": 6873392964, "lat": 13.8265634, "lon": 100.6765611}, {"type": "node", "id": 5917500382, "lat": 13.8074635, "lon": 100.6950419}, {"type": "node", "id": 5917500383, "lat": 13.8074393, "lon": 100.6950343}, {"type": "node", "id": 5917500384, "lat": 13.8073934, "lon": 100.6951915}, {"type": "node", "id": 5917500385, "lat": 13.8074203, "lon": 100.6951992}, {"type": "node", "id": 5917500386, "lat": 13.807414, "lon": 100.6950348}, {"type": "node", "id": 5917500387, "lat": 13.8073901, "lon": 100.6950434}, {"type": "node", "id": 5917500388, "lat": 13.80737, "lon": 100.6950591}, {"type": "node", "id": 5917500389, "lat": 13.8073556, "lon": 100.6950805}, {"type": "node", "id": 5917500390, "lat": 13.8073483, "lon": 100.6951054}, {"type": "node", "id": 5917500391, "lat": 13.8073488, "lon": 100.6951314}, {"type": "node", "id": 5917500392, "lat": 13.8073572, "lon": 100.695156}, {"type": "node", "id": 5917500393, "lat": 13.8073726, "lon": 100.6951767}, {"type": "node", "id": 5917500394, "lat": 13.8074482, "lon": 100.695197}, {"type": "node", "id": 5917500395, "lat": 13.8074736, "lon": 100.6951852}, {"type": "node", "id": 5917500396, "lat": 13.8074936, "lon": 100.6951651}, {"type": "node", "id": 5917500397, "lat": 13.8075058, "lon": 100.6951392}, {"type": "node", "id": 5917500398, "lat": 13.8075086, "lon": 100.6951105}, {"type": "node", "id": 5917500399, "lat": 13.8075018, "lon": 100.6950826}, {"type": "node", "id": 5917500400, "lat": 13.8074861, "lon": 100.6950588}, {"type": "node", "id": 7770413906, "lat": 13.8071865, "lon": 100.6930346}, {"type": "node", "id": 7770413907, "lat": 13.8072529, "lon": 100.6931677}, {"type": "node", "id": 7770413908, "lat": 13.8073821, "lon": 100.6932513}, {"type": "node", "id": 7770413909, "lat": 13.8086022, "lon": 100.6931654}, {"type": "node", "id": 7770413910, "lat": 13.8100279, "lon": 100.6941529}, {"type": "node", "id": 7770413911, "lat": 13.8100478, "lon": 100.6944409}, {"type": "node", "id": 7770413912, "lat": 13.8095896, "lon": 100.6949809}, {"type": "node", "id": 7770413941, "lat": 13.8066427, "lon": 100.6956288}, {"type": "node", "id": 12546053238, "lat": 13.8057733, "lon": 100.6932028}, {"type": "node", "id": 12546053239, "lat": 13.8056246, "lon": 100.6937988}, {"type": "node", "id": 12546053240, "lat": 13.8061289, "lon": 100.6945296}, {"type": "node", "id": 12546053241, "lat": 13.8059887, "lon": 100.6946474}, {"type": "node", "id": 12546053297, "lat": 13.8063834, "lon": 100.6958301}, {"type": "node", "id": 12546114624, "lat": 13.8066102, "lon": 100.6934258}, {"type": "node", "id": 12546114625, "lat": 13.8071897, "lon": 100.692913}, {"type": "node", "id": 12546114644, "lat": 13.8056634, "lon": 100.6936433}, {"type": "node", "id": 12546138707, "lat": 13.8054264, "lon": 100.6919323}, {"type": "node", "id": 12546138710, "lat": 13.8051935, "lon": 100.6920493}, {"type": "node", "id": 12546138711, "lat": 13.8051947, "lon": 100.692063}, {"type": "node", "id": 12546138712, "lat": 13.8053323, "lon": 100.6920501}, {"type": "node", "id": 12546138713, "lat": 13.8053303, "lon": 100.6920272}, {"type": "node", "id": 12546138714, "lat": 13.8054339, "lon": 100.6920175}, {"type": "node", "id": 12546138884, "lat": 13.8062157, "lon": 100.6925444}, {"type": "node", "id": 12546138958, "lat": 13.8053459, "lon": 100.6919399}, {"type": "node", "id": 12546138959, "lat": 13.8052531, "lon": 100.6919486}, {"type": "node", "id": 12546138961, "lat": 13.8053551, "lon": 100.6920249}, {"type": "node", "id": 12546138963, "lat": 13.8052608, "lon": 100.6920568}, {"type": "node", "id": 12546138977, "lat": 13.8062464, "lon": 100.6925414}, {"type": "node", "id": 12546138978, "lat": 13.8062301, "lon": 100.692527}, {"type": "node", "id": 12546138979, "lat": 13.8061987, "lon": 100.6925648}, {"type": "node", "id": 12546138980, "lat": 13.806215, "lon": 100.6925791}, {"type": "node", "id": 12546138984, "lat": 13.8058008, "lon": 100.6930844}, {"type": "node", "id": 12546138985, "lat": 13.8058703, "lon": 100.6930422}, {"type": "node", "id": 12546138986, "lat": 13.8059227, "lon": 100.6930527}, {"type": "node", "id": 12546139153, "lat": 13.8059352, "lon": 100.6930354}, {"type": "node", "id": 12546139154, "lat": 13.8059501, "lon": 100.6930375}, {"type": "node", "id": 12546139155, "lat": 13.805979, "lon": 100.6931037}, {"type": "node", "id": 12546139156, "lat": 13.8059522, "lon": 100.6931844}, {"type": "node", "id": 12546139157, "lat": 13.8059072, "lon": 100.6932186}, {"type": "node", "id": 12546139158, "lat": 13.8057769, "lon": 100.6931873}, {"type": "node", "id": 12546139160, "lat": 13.8059296, "lon": 100.6930432}, {"type": "node", "id": 12546139185, "lat": 13.8057884, "lon": 100.6931379}, {"type": "node", "id": 12546139188, "lat": 13.805833, "lon": 100.6930649}, {"type": "node", "id": 12546139207, "lat": 13.8057593, "lon": 100.6932591}, {"type": "node", "id": 12546139292, "lat": 13.8057848, "lon": 100.6931534}, {"type": "node", "id": 12546139293, "lat": 13.8057687, "lon": 100.6932212}, {"type": "node", "id": 12546238318, "lat": 13.8069384, "lon": 100.6914913}, {"type": "node", "id": 12546238319, "lat": 13.8072309, "lon": 100.6914686}, {"type": "node", "id": 12546238320, "lat": 13.8074297, "lon": 100.691433}, {"type": "node", "id": 12546238321, "lat": 13.8084294, "lon": 100.6907744}, {"type": "node", "id": 12546238322, "lat": 13.8084582, "lon": 100.6913351}, {"type": "node", "id": 12546238323, "lat": 13.8078618, "lon": 100.6919611}, {"type": "node", "id": 12546238324, "lat": 13.8082018, "lon": 100.6923438}, {"type": "node", "id": 12546238325, "lat": 13.8079483, "lon": 100.6926227}, {"type": "node", "id": 12546238327, "lat": 13.8073, "lon": 100.6924536}, {"type": "node", "id": 12546238328, "lat": 13.8070552, "lon": 100.6921836}, {"type": "node", "id": 12546238329, "lat": 13.8070206, "lon": 100.6918632}, {"type": "node", "id": 7770413913, "lat": 13.8088523, "lon": 100.6962551}, {"type": "node", "id": 7770413926, "lat": 13.8076679, "lon": 100.6965829}, {"type": "node", "id": 7770413927, "lat": 13.8071723, "lon": 100.696801}, {"type": "node", "id": 7770413928, "lat": 13.8070574, "lon": 100.6967871}, {"type": "node", "id": 7770413929, "lat": 13.8068795, "lon": 100.6965621}, {"type": "node", "id": 7770413930, "lat": 13.8063185, "lon": 100.6978959}, {"type": "node", "id": 7770413931, "lat": 13.8059063, "lon": 100.6986012}, {"type": "node", "id": 12546053242, "lat": 13.8065622, "lon": 100.6973166}, {"type": "node", "id": 12546053243, "lat": 13.8058078, "lon": 100.696277}, {"type": "node", "id": 12546053257, "lat": 13.8054699, "lon": 100.6988379}, {"type": "node", "id": 12546053258, "lat": 13.8054625, "lon": 100.6987352}, {"type": "node", "id": 12546053259, "lat": 13.8054422, "lon": 100.6986705}, {"type": "node", "id": 12546053260, "lat": 13.8053701, "lon": 100.6986096}, {"type": "node", "id": 12546053261, "lat": 13.8053036, "lon": 100.6985925}, {"type": "node", "id": 12546053262, "lat": 13.80525, "lon": 100.698602}, {"type": "node", "id": 12546053263, "lat": 13.8052075, "lon": 100.6986267}, {"type": "node", "id": 12546065794, "lat": 13.8051841, "lon": 100.6985516}, {"type": "node", "id": 12546065795, "lat": 13.8052585, "lon": 100.6985342}, {"type": "node", "id": 12546065796, "lat": 13.8053215, "lon": 100.6985327}, {"type": "node", "id": 12546065797, "lat": 13.8053859, "lon": 100.6985516}, {"type": "node", "id": 12546065798, "lat": 13.8054473, "lon": 100.6985951}, {"type": "node", "id": 12546065799, "lat": 13.8054945, "lon": 100.6986966}, {"type": "node", "id": 12546065800, "lat": 13.8054928, "lon": 100.6987798}, {"type": "node", "id": 12748101591, "lat": 13.8175741, "lon": 100.689768}, {"type": "node", "id": 12748101592, "lat": 13.8168614, "lon": 100.6898953}, {"type": "node", "id": 12748101593, "lat": 13.8171478, "lon": 100.6911319}, {"type": "node", "id": 12748101594, "lat": 13.8171608, "lon": 100.6913296}, {"type": "node", "id": 12748101595, "lat": 13.8171673, "lon": 100.6919261}, {"type": "node", "id": 12748101596, "lat": 13.8172812, "lon": 100.6927539}, {"type": "node", "id": 12748101597, "lat": 13.8174145, "lon": 100.693187}, {"type": "node", "id": 12748101598, "lat": 13.8176029, "lon": 100.6935558}, {"type": "node", "id": 12748101599, "lat": 13.8180383, "lon": 100.694369}, {"type": "node", "id": 12748101600, "lat": 13.8182381, "lon": 100.6947843}, {"type": "node", "id": 12748101604, "lat": 13.8182286, "lon": 100.6933323}, {"type": "node", "id": 12748101605, "lat": 13.8181174, "lon": 100.6930546}, {"type": "node", "id": 12748101606, "lat": 13.8180299, "lon": 100.6928889}, {"type": "node", "id": 12748101607, "lat": 13.817772, "lon": 100.6924821}, {"type": "node", "id": 12748101608, "lat": 13.8176372, "lon": 100.6921459}, {"type": "node", "id": 12748101609, "lat": 13.817597, "lon": 100.691968}, {"type": "node", "id": 12748101610, "lat": 13.8175804, "lon": 100.6917683}, {"type": "node", "id": 12748101611, "lat": 13.817597, "lon": 100.6912347}, {"type": "node", "id": 12748101612, "lat": 13.817694, "lon": 100.6906427}, {"type": "node", "id": 12748101613, "lat": 13.8177011, "lon": 100.6902724}, {"type": "node", "id": 12748101614, "lat": 13.8176443, "lon": 100.6899387}, {"type": "node", "id": 12748101615, "lat": 13.8176348, "lon": 100.6898778}, {"type": "node", "id": 11275014761, "lat": 13.8179771, "lon": 100.6987872}, {"type": "node", "id": 11275014762, "lat": 13.8179819, "lon": 100.6989186}, {"type": "node", "id": 11275014763, "lat": 13.8178203, "lon": 100.6989249}, {"type": "node", "id": 11275014764, "lat": 13.8178155, "lon": 100.6987935}, {"type": "node", "id": 12748101601, "lat": 13.8184865, "lon": 100.6946966}, {"type": "node", "id": 12748101602, "lat": 13.8185078, "lon": 100.6946382}, {"type": "node", "id": 12748101603, "lat": 13.8182972, "lon": 100.6936515}, {"type": "node", "id": 3270271301, "lat": 13.8281144, "lon": 100.6990699}, {"type": "node", "id": 3270271302, "lat": 13.82894, "lon": 100.6989761}, {"type": "node", "id": 3270271303, "lat": 13.8288541, "lon": 100.69874}, {"type": "node", "id": 3270271304, "lat": 13.8286978, "lon": 100.6984423}, {"type": "node", "id": 3270271305, "lat": 13.8283514, "lon": 100.6985469}, {"type": "node", "id": 3270271306, "lat": 13.8280493, "lon": 100.6986086}, {"type": "node", "id": 3270271307, "lat": 13.827867, "lon": 100.6987937}, {"type": "node", "id": 7591723043, "lat": 13.8334371, "lon": 100.6681926}, {"type": "node", "id": 11116099773, "lat": 13.8329808, "lon": 100.6685686}, {"type": "node", "id": 1042474131, "lat": 13.836559, "lon": 100.6728483}, {"type": "node", "id": 6871531330, "lat": 13.8314057, "lon": 100.6760502}, {"type": "node", "id": 6871531331, "lat": 13.8317503, "lon": 100.6757186}, {"type": "node", "id": 6873351432, "lat": 13.8367994, "lon": 100.674597}, {"type": "node", "id": 6873351433, "lat": 13.8367213, "lon": 100.674361}, {"type": "node", "id": 6873351434, "lat": 13.8366718, "lon": 100.6743235}, {"type": "node", "id": 6873351435, "lat": 13.8366406, "lon": 100.674184}, {"type": "node", "id": 6873351436, "lat": 13.8367395, "lon": 100.674133}, {"type": "node", "id": 6873351437, "lat": 13.8368072, "lon": 100.6740365}, {"type": "node", "id": 6873351438, "lat": 13.8373177, "lon": 100.673897}, {"type": "node", "id": 6873351439, "lat": 13.8373203, "lon": 100.6739238}, {"type": "node", "id": 6873351440, "lat": 13.8377969, "lon": 100.6737763}, {"type": "node", "id": 7591723041, "lat": 13.8370932, "lon": 100.6726799}, {"type": "node", "id": 6873351431, "lat": 13.8380365, "lon": 100.6736985}, {"type": "node", "id": 12965561510, "lat": 13.8380185, "lon": 100.6737115}, {"type": "node", "id": 12747377775, "lat": 13.8345551, "lon": 100.6822356}, {"type": "node", "id": 12747377776, "lat": 13.8344901, "lon": 100.6822249}, {"type": "node", "id": 12747377777, "lat": 13.8345125, "lon": 100.6822934}, {"type": "node", "id": 3841765576, "lat": 13.8480354, "lon": 100.6647246}, {"type": "node", "id": 6873389177, "lat": 13.8478742, "lon": 100.6640772}, {"type": "node", "id": 6873389178, "lat": 13.8479294, "lon": 100.6641152}, {"type": "node", "id": 6873389179, "lat": 13.8480266, "lon": 100.6642245}, {"type": "node", "id": 6873389181, "lat": 13.8479365, "lon": 100.6643399}, {"type": "node", "id": 6873389182, "lat": 13.8475495, "lon": 100.6643621}, {"type": "node", "id": 6873389183, "lat": 13.847369, "lon": 100.6643868}, {"type": "node", "id": 6873389184, "lat": 13.8473347, "lon": 100.6643851}, {"type": "node", "id": 6873422385, "lat": 13.8473278, "lon": 100.6643497}, {"type": "node", "id": 6873422386, "lat": 13.8472814, "lon": 100.6643568}, {"type": "node", "id": 6873422387, "lat": 13.8472522, "lon": 100.6643603}, {"type": "node", "id": 6873422388, "lat": 13.8472625, "lon": 100.6644311}, {"type": "node", "id": 6873422389, "lat": 13.8472763, "lon": 100.6644859}, {"type": "node", "id": 6873422390, "lat": 13.8472419, "lon": 100.6644895}, {"type": "node", "id": 6873422391, "lat": 13.8472041, "lon": 100.6643037}, {"type": "node", "id": 6873422392, "lat": 13.8471749, "lon": 100.6643107}, {"type": "node", "id": 6873422393, "lat": 13.8471697, "lon": 100.664247}, {"type": "node", "id": 6873422394, "lat": 13.8470288, "lon": 100.6642541}, {"type": "node", "id": 6873422395, "lat": 13.8469807, "lon": 100.6640365}, {"type": "node", "id": 6873422396, "lat": 13.8470838, "lon": 100.6640064}, {"type": "node", "id": 6873422397, "lat": 13.8471766, "lon": 100.6640064}, {"type": "node", "id": 6873422398, "lat": 13.8473656, "lon": 100.6639958}, {"type": "node", "id": 6873422399, "lat": 13.8475443, "lon": 100.6639798}, {"type": "node", "id": 6873422400, "lat": 13.8476732, "lon": 100.6639958}, {"type": "node", "id": 6873422401, "lat": 13.8477866, "lon": 100.664017}, {"type": "node", "id": 6873422402, "lat": 13.8477556, "lon": 100.6640736}, {"type": "node", "id": 6873422403, "lat": 13.8478278, "lon": 100.664109}, {"type": "node", "id": 7693856658, "lat": 13.8482837, "lon": 100.6645989}, {"type": "node", "id": 7693856659, "lat": 13.8478811, "lon": 100.6642961}, {"type": "node", "id": 3841671250, "lat": 13.8468074, "lon": 100.6755506}, {"type": "node", "id": 6873386220, "lat": 13.8501647, "lon": 100.6753293}, {"type": "node", "id": 6873386221, "lat": 13.8502155, "lon": 100.6757421}, {"type": "node", "id": 6873386222, "lat": 13.8501676, "lon": 100.6761365}, {"type": "node", "id": 6873386234, "lat": 13.8482752, "lon": 100.6754911}, {"type": "node", "id": 6873386235, "lat": 13.8484702, "lon": 100.6751969}, {"type": "node", "id": 6873386236, "lat": 13.8487876, "lon": 100.6751315}, {"type": "node", "id": 6873386237, "lat": 13.8493453, "lon": 100.6751875}, {"type": "node", "id": 6873420363, "lat": 13.8472351, "lon": 100.6758449}, {"type": "node", "id": 6873420364, "lat": 13.8472351, "lon": 100.6758977}, {"type": "node", "id": 6873420365, "lat": 13.8472549, "lon": 100.6759343}, {"type": "node", "id": 6873386223, "lat": 13.850051, "lon": 100.6765894}, {"type": "node", "id": 6873386224, "lat": 13.8498984, "lon": 100.6768698}, {"type": "node", "id": 6873386225, "lat": 13.8496023, "lon": 100.6771902}, {"type": "node", "id": 6873386226, "lat": 13.8492194, "lon": 100.6775908}, {"type": "node", "id": 6873386227, "lat": 13.8490339, "lon": 100.677791}, {"type": "node", "id": 6873386228, "lat": 13.8488245, "lon": 100.6780314}, {"type": "node", "id": 6873386229, "lat": 13.8487856, "lon": 100.6780221}, {"type": "node", "id": 6873386230, "lat": 13.848624, "lon": 100.6776462}, {"type": "node", "id": 6873386231, "lat": 13.8484595, "lon": 100.6773166}, {"type": "node", "id": 6873386232, "lat": 13.8481928, "lon": 100.6770009}, {"type": "node", "id": 6873386233, "lat": 13.8476132, "lon": 100.6765045}, {"type": "node", "id": 6873420366, "lat": 13.8465641, "lon": 100.6772352}, {"type": "node", "id": 6873420367, "lat": 13.8465424, "lon": 100.6774556}, {"type": "node", "id": 6873420368, "lat": 13.846498, "lon": 100.677602}, {"type": "node", "id": 6873420369, "lat": 13.8464813, "lon": 100.6776772}, {"type": "node", "id": 6873420370, "lat": 13.8464329, "lon": 100.6776863}, {"type": "node", "id": 6873420371, "lat": 13.8463984, "lon": 100.6777026}, {"type": "node", "id": 6873420372, "lat": 13.8463707, "lon": 100.6776914}, {"type": "node", "id": 6873420373, "lat": 13.8463421, "lon": 100.6776792}, {"type": "node", "id": 6873420374, "lat": 13.8462563, "lon": 100.6776182}, {"type": "node", "id": 6873420375, "lat": 13.8457747, "lon": 100.6773985}]}