{"version": 0.6, "generator": "Overpass API 0.7.62.8 e802775f", "osm3s": {"timestamp_osm_base": "2025-11-20T03:20:30Z", "copyright": "The data included in this document is from www.openstreetmap.org. The data is made available under ODbL."}, "elements": [{"type": "node", "id": 370294708, "lat": 13.6817337, "lon": 100.6805188, "tags": {"alt_name": "\u0e27\u0e31\u0e14\u0e17\u0e38\u0e48\u0e07\u0e25\u0e32\u0e19\u0e19\u0e32 (\u0e0a\u0e21\u0e17\u0e2d\u0e07\u0e1c\u0e34\u0e19\u0e16\u0e27\u0e34\u0e25\u0e2d\u0e38\u0e1b\u0e16\u0e31\u0e21\u0e20\u0e4c)", "amenity": "place_of_worship", "denomination": "thai_mahanikaya", "name": "\u0e27\u0e31\u0e14\u0e17\u0e38\u0e48\u0e07\u0e25\u0e32\u0e19\u0e19\u0e32", "name:en": "Wat Thung Lanna", "name:th": "\u0e27\u0e31\u0e14\u0e17\u0e38\u0e48\u0e07\u0e25\u0e32\u0e19\u0e19\u0e32", "religion": "buddhist", "wikidata": "Q100698862", "wikipedia": "th:\u0e27\u0e31\u0e14\u0e17\u0e38\u0e48\u0e07\u0e25\u0e32\u0e19\u0e19\u0e32"}}, {"type": "node", "id": 393149686, "lat": 13.6874299, "lon": 100.6608332, "tags": {"amenity": "restaurant", "name": "S&P"}}, {"type": "node", "id": 1597532368, "lat": 13.6673711, "lon": 100.694695, "tags": {"amenity": "place_of_worship", "denomination": "thai_mahanikaya", "name": "\u0e27\u0e31\u0e14\u0e17\u0e38\u0e48\u0e07\u0e40\u0e28\u0e23\u0e29\u0e10\u0e35", "name:en": "Wat Thung Setthi", "name:th": "\u0e27\u0e31\u0e14\u0e17\u0e38\u0e48\u0e07\u0e40\u0e28\u0e23\u0e29\u0e10\u0e35", "religion": "buddhist", "wikidata": "Q100698861", "wikipedia": "th:\u0e27\u0e31\u0e14\u0e17\u0e38\u0e48\u0e07\u0e40\u0e28\u0e23\u0e29\u0e10\u0e35 (\u0e01\u0e23\u0e38\u0e07\u0e40\u0e17\u0e1e\u0e21\u0e2b\u0e32\u0e19\u0e04\u0e23)"}}, {"type": "node", "id": 1803593410, "lat": 13.663687, "lon": 100.652444, "tags": {"amenity": "restaurant"}}, {"type": "node", "id": 4484491436, "lat": 13.6528439, "lon": 100.6786554, "tags": {"amenity": "restaurant", "brand": "BAR B Q Plaza", "name": "BAR B Q Plaza"}}, {"type": "node", "id": 4484491445, "lat": 13.6530247, "lon": 100.6786647, "tags": {"amenity": "restaurant", "brand": "MK Restaurants", "brand:wikidata": "Q62075359", "cuisine": "thai", "name": "MK Restaurants"}}, {"type": "node", "id": 4580168819, "lat": 13.6956882, "lon": 100.695918, "tags": {"addr:housenumber": "64", "addr:street": "\u0e16\u0e19\u0e19\u0e01\u0e32\u0e0d\u0e08\u0e19\u0e32\u0e20\u0e34\u0e40\u0e29\u0e01 (\u0e14\u0e49\u0e32\u0e19\u0e15\u0e30\u0e27\u0e31\u0e19\u0e2d\u0e2d\u0e01)", "name:en": "\u0e44\u0e17\u0e22", "tourism": "information"}}, {"type": "node", "id": 4580189196, "lat": 13.6956887, "lon": 100.6961199, "tags": {"addr:housenumber": "64/117", "addr:street": "Soi 38", "opening_hours": "24/7", "operator": "\u0e2d\u0e2d\u0e42\u0e15\u0e49", "phone": "0881059628", "tourism": "caravan_site"}}, {"type": "node", "id": 4690042768, "lat": 13.6566544, "lon": 100.6680339, "tags": {"amenity": "cafe", "name": "Amazon"}}, {"type": "node", "id": 5457021221, "lat": 13.6712473, "lon": 100.6663634, "tags": {"addr:street": "\u0e40\u0e09\u0e25\u0e34\u0e21\u0e1e\u0e23\u0e30\u0e40\u0e01\u0e35\u0e22\u0e23\u0e15\u0e34 \u0e23.9 \u0e0b\u0e2d\u0e22 14", "name": "\u0e2b\u0e2d\u0e1e\u0e31\u0e01", "tourism": "hostel"}}, {"type": "node", "id": 6118707285, "lat": 13.6974512, "lon": 100.6992068, "tags": {"amenity": "restaurant", "name": "Bung Maa Ruay fishing"}}, {"type": "node", "id": 6173239996, "lat": 13.6920598, "lon": 100.6510199, "tags": {"name": "wait", "tourism": "viewpoint"}}, {"type": "node", "id": 6362274685, "lat": 13.6797833, "lon": 100.6529316, "tags": {"amenity": "restaurant", "name:en": "Paulaner Garden"}}, {"type": "node", "id": 6409490553, "lat": 13.6959349, "lon": 100.6510048, "tags": {"tourism": "museum"}}, {"type": "node", "id": 7207488536, "lat": 13.6741164, "lon": 100.6853687, "tags": {"addr:city": "\u0e14\u0e2d\u0e01\u0e44\u0e21\u0e49", "addr:housenumber": "277", "addr:postcode": "10250", "addr:street": "\u0e23\u0e32\u0e21\u0e04\u0e33\u0e41\u0e2b\u0e07 2", "amenity": "restaurant", "cuisine": "seafood", "name": "\u0e1a\u0e48\u0e2d\u0e15\u0e01\u0e01\u0e38\u0e49\u0e07 \u0e27\u0e34\u0e14\u0e40\u0e2b\u0e2d\u0e30 \u0e23\u0e32\u0e212 & \u0e2a\u0e27\u0e19\u0e2d\u0e32\u0e2b\u0e32\u0e23", "opening_hours": "12:00-00:00", "phone": "065 895 8956", "website": "https://www.facebook.com/widherram2/"}}, {"type": "node", "id": 7207507904, "lat": 13.6740941, "lon": 100.6853622, "tags": {"addr:city": "\u0e01\u0e23\u0e38\u0e07\u0e40\u0e17\u0e1e\u0e21\u0e2b\u0e32\u0e19\u0e04\u0e23", "addr:housenumber": "277", "addr:postcode": "10250", "addr:street": "\u0e23\u0e32\u0e21\u0e04\u0e33\u0e41\u0e2b\u0e07 2", "amenity": "restaurant", "cuisine": "seafood", "name": "Widher Ramk2", "opening_hours": "12:00-00:00", "phone": "0658958956", "website": "https://www.facebook.com/widherram2/"}}, {"type": "node", "id": 7899101785, "lat": 13.6881466, "lon": 100.6581251, "tags": {"leisure": "park", "name": "\u0e17\u0e32\u0e07\u0e40\u0e02\u0e49\u0e32\u0e1b\u0e23\u0e30\u0e15\u0e39\u0e14\u0e49\u0e32\u0e19\u0e2b\u0e25\u0e31\u0e07\u0e02\u0e2d\u0e07 Rama IX Park", "name:en": "Entrance to the back gate of Rama IX Park", "name:th": "\u0e17\u0e32\u0e07\u0e40\u0e02\u0e49\u0e32\u0e1b\u0e23\u0e30\u0e15\u0e39\u0e14\u0e49\u0e32\u0e19\u0e2b\u0e25\u0e31\u0e07\u0e02\u0e2d\u0e07 Rama IX Park", "name:zh": "\u4e5d\u4e16\u7687\u516c\u5712\u5f8c\u9580\u5165\u53e3\u8655"}}, {"type": "node", "id": 8545097701, "lat": 13.6679316, "lon": 100.6826611, "tags": {"addr:city": "\u0e14\u0e2d\u0e01\u0e44\u0e21\u0e49", "addr:housenumber": "20-001", "addr:postcode": "10250", "addr:street": "\u0e23\u0e32\u0e21\u0e04\u0e33\u0e41\u0e2b\u0e07 \u0e52 \u0e0a\u0e2d\u0e22 7", "air_conditioning": "yes", "amenity": "cafe", "bar": "yes", "cuisine": "coffee_shop;cafe;\u0e04\u0e32\u0e40\u0e1f\u0e48;spa;massage", "internet_access": "no", "name": "Saengcha Coffee & Spa", "opening_hours": "Mo-Su 06:00-22:00", "outdoor_seating": "yes", "phone": "0611119319", "website": "https://www.facebook.com/SaengchanCoffeeSpa"}}, {"type": "node", "id": 8819425549, "lat": 13.6652922, "lon": 100.6506971, "tags": {"amenity": "cafe", "cuisine": "coffee_shop", "name": "Black Canyon"}}, {"type": "node", "id": 8819425551, "lat": 13.6603531, "lon": 100.6617383, "tags": {"amenity": "cafe", "brand": "Starbucks", "brand:wikidata": "Q37158", "brand:wikipedia": "en:Starbucks", "cuisine": "coffee_shop", "name": "Starbucks", "official_name": "Starbucks Coffee", "takeaway": "yes"}}, {"type": "node", "id": 9694473138, "lat": 13.6613959, "lon": 100.6882784, "tags": {"access": "private", "historic": "wayside_shrine", "name": "\u0e28\u0e32\u0e25\u0e1e\u0e23\u0e30\u0e20\u0e39\u0e21\u0e34 \u0e2b\u0e21\u0e39\u0e48\u0e1a\u0e49\u0e32\u0e19 Anya"}}, {"type": "node", "id": 10538688472, "lat": 13.6865139, "lon": 100.6683119, "tags": {"amenity": "cafe", "brand": "\u0e04\u0e32\u0e40\u0e1f\u0e48 \u0e2d\u0e40\u0e21\u0e0b\u0e2d\u0e19", "brand:en": "Caf\u00e9 Amazon", "brand:th": "\u0e04\u0e32\u0e40\u0e1f\u0e48 \u0e2d\u0e40\u0e21\u0e0b\u0e2d\u0e19", "brand:wikidata": "Q43247503", "cuisine": "coffee_shop", "name": "\u0e04\u0e32\u0e40\u0e1f\u0e48 \u0e2d\u0e40\u0e21\u0e0b\u0e2d\u0e19", "name:en": "Caf\u00e9 Amazon", "name:th": "\u0e04\u0e32\u0e40\u0e1f\u0e48 \u0e2d\u0e40\u0e21\u0e0b\u0e2d\u0e19", "takeaway": "yes"}}, {"type": "node", "id": 10538688473, "lat": 13.6865203, "lon": 100.6682433, "tags": {"air_conditioning": "yes", "amenity": "restaurant", "brand": "MK Restaurants", "brand:wikidata": "Q62075359", "cuisine": "thai", "name": "MK Restaurants"}}, {"type": "node", "id": 10542537074, "lat": 13.6571768, "lon": 100.6778441, "tags": {"addr:city": "\u0e41\u0e02\u0e27\u0e07\u0e14\u0e2d\u0e01\u0e44\u0e21\u0e49", "addr:postcode": "10250", "addr:street": "\u0e23\u0e32\u0e21\u0e04\u0e33\u0e41\u0e2b\u0e07 2", "amenity": "cafe", "cuisine": "teahouse;matcha", "name": "CLEAR. Matcha bar", "outdoor_seating": "yes", "website": "www.facebook.com/ClearMatcha"}}, {"type": "node", "id": 10898466205, "lat": 13.6651797, "lon": 100.6513803, "tags": {"amenity": "cafe", "internet_access": "wlan", "name:en": "Inthanin", "opening_hours": "Mo-Su 06:30-19:00", "outdoor_seating": "no", "phone": "+66 65 9795242"}}, {"type": "node", "id": 11381220183, "lat": 13.6581778, "lon": 100.668654, "tags": {"air_conditioning": "yes", "amenity": "restaurant", "cuisine": "thai", "name": "\u0e1a\u0e49\u0e32\u0e19\u0e2a\u0e49\u0e21\u0e15\u0e33", "name:en": "Baan Somtum", "name:th": "\u0e1a\u0e49\u0e32\u0e19\u0e2a\u0e49\u0e21\u0e15\u0e33", "opening_hours": "Mo-Su 11:00-22:00"}}, {"type": "node", "id": 11642326646, "lat": 13.6778837, "lon": 100.6628505, "tags": {"amenity": "restaurant"}}, {"type": "node", "id": 11671609204, "lat": 13.6630995, "lon": 100.6972571, "tags": {"air_conditioning": "yes", "alt_name": "Buengyai Food Garden", "amenity": "restaurant", "cuisine": "thai", "name": "\u0e2a\u0e27\u0e19\u0e2d\u0e32\u0e2b\u0e32\u0e23\u0e1a\u0e36\u0e07\u0e43\u0e2b\u0e0d\u0e48 \u0e27\u0e07\u0e41\u0e2b\u0e27\u0e19\u0e2d\u0e48\u0e2d\u0e19\u0e19\u0e38\u0e0a-\u0e1a\u0e32\u0e07\u0e19\u0e32", "name:en": "Bueng Yai Food Garden", "name:th": "\u0e2a\u0e27\u0e19\u0e2d\u0e32\u0e2b\u0e32\u0e23\u0e1a\u0e36\u0e07\u0e43\u0e2b\u0e0d\u0e48 \u0e27\u0e07\u0e41\u0e2b\u0e27\u0e19\u0e2d\u0e48\u0e2d\u0e19\u0e19\u0e38\u0e0a-\u0e1a\u0e32\u0e07\u0e19\u0e32", "opening_hours": "Mo-Su 11:00-24:00", "outdoor_seating": "yes", "smoking": "no", "toilets": "customer", "toilets:handwashing": "yes", "toilets:position": "seated;urinal", "toilets:wheelchair": "yes", "wheelchair": "yes"}}, {"type": "node", "id": 11974779130, "lat": 13.6846256, "lon": 100.6822409, "tags": {"addr:city": "\u0e14\u0e2d\u0e01\u0e44\u0e21\u0e49 \u0e40\u0e02\u0e15\u0e1b\u0e23\u0e30\u0e40\u0e27\u0e28", "addr:housenumber": "23/1", "addr:postcode": "10250", "addr:street": "\u0e40\u0e09\u0e25\u0e34\u0e21\u0e1e\u0e23\u0e30\u0e40\u0e01\u0e35\u0e22\u0e23\u0e15\u0e34 \u0e23.9 \u0e0b\u0e2d\u0e22 30 \u0e41\u0e22\u0e01 14", "amenity": "cafe", "cuisine": "coffee_shop", "internet_access": "wlan", "internet_access:fee": "customers", "name": "Caf\u00e9 Amazon - \u0e2a\u0e32\u0e02\u0e32\u0e40\u0e09\u0e25\u0e34\u0e21\u0e1e\u0e23\u0e30\u0e40\u0e01\u0e35\u0e22\u0e23\u0e15\u0e34\u0e0b\u0e2d\u0e22 30 \u0e41\u0e22\u0e01 14", "not:brand:wikidata": "Q43247503", "opening_hours": "Mo-Su 06:30-19:00", "phone": "0889592592"}}, {"type": "node", "id": 12210822601, "lat": 13.6930727, "lon": 100.6711953, "tags": {"amenity": "cafe", "name": "Light Minute Home Cafe"}}, {"type": "way", "id": 33042465, "nodes": [372545591, 8370277226, 372545593, 372545596, 372545599, 372545601, 11822296764, 372545602, 12462919301, 380048712, 380048714, 372545604, 372545606, 372545607, 11563337678, 372545610, 372545611, 372545613, 372545616, 372545618, 372545621, 11652905489, 372545623, 372545626, 384741670, 12052507032, 372545631, 12052507033, 372545640, 11652905491, 11259011347, 11259011348, 11259011349, 11259011350, 11652905490, 372545591], "tags": {"access": "customers", "addr:street": "\u0e16\u0e19\u0e19\u0e40\u0e09\u0e25\u0e34\u0e21\u0e1e\u0e23\u0e30\u0e40\u0e01\u0e35\u0e22\u0e23\u0e15\u0e34 \u0e23.9", "alt_name": "King Rama IX Park", "charge": "10 THB", "fee": "yes", "leisure": "park", "name": "\u0e2a\u0e27\u0e19\u0e2b\u0e25\u0e27\u0e07 \u0e23.\u0e59", "name:en": "Suan Luang Rama IX", "name:etymology:wikidata": "Q855252", "name:ru": "\u041f\u0430\u0440\u043a \u043a\u043e\u0440\u043e\u043b\u044f \u0420\u0430\u043c\u044b IX", "name:th": "\u0e2a\u0e27\u0e19\u0e2b\u0e25\u0e27\u0e07 \u0e23.\u0e59", "name:zh": "\u4e5d\u4e16\u738b\u5fa1\u56ed", "opening_hours": "05:00-19:00", "website": "https://www.suanluangrama9.or.th/", "wikidata": "Q1795947", "wikimedia_commons": "Category:Suan Luang Rama 9 Park", "wikipedia": "th:\u0e2a\u0e27\u0e19\u0e2b\u0e25\u0e27\u0e07 \u0e23.9"}}, {"type": "way", "id": 33043019, "nodes": [372557211, 372557218, 372557222, 372557225, 372557229, 372557233, 387743533, 372557237, 372557239, 372557211], "tags": {"building": "yes", "name": "\u0e2b\u0e2d\u0e23\u0e31\u0e0a\u0e21\u0e07\u0e04\u0e25", "name:en": "Ratchamongkol Hall", "name:th": "\u0e2b\u0e2d\u0e23\u0e31\u0e0a\u0e21\u0e07\u0e04\u0e25", "tourism": "attraction"}}, {"type": "way", "id": 44365822, "nodes": [563853571, 563853572, 563853574, 563853576, 563853571], "tags": {"amenity": "marketplace", "building": "yes", "name": "\u0e15\u0e25\u0e32\u0e14\u0e04\u0e49\u0e32\u0e2a\u0e48\u0e07\u0e19\u0e31\u0e21\u0e40\u0e1a\u0e2d\u0e23\u0e4c\u0e27\u0e31\u0e19-\u0e23\u0e32\u0e212", "name:en": "Number One Market"}}, {"type": "way", "id": 44365823, "nodes": [563853577, 563853579, 563853591, 563853581, 563853577], "tags": {"amenity": "marketplace", "building": "yes", "name": "\u0e2d\u0e32\u0e04\u0e32\u0e23 2 \u0e15\u0e25\u0e32\u0e14\u0e2a\u0e14\u0e19\u0e31\u0e21\u0e40\u0e1a\u0e2d\u0e23\u0e4c\u0e27\u0e31\u0e19-\u0e23\u0e32\u0e212", "name:en": "Number One Market"}}, {"type": "way", "id": 44365824, "nodes": [563853585, 563853583, 563853587, 563853589, 563853585], "tags": {"amenity": "marketplace", "building": "yes", "name": "\u0e2d\u0e32\u0e04\u0e32\u0e23 1 \u0e15\u0e25\u0e32\u0e14\u0e2a\u0e14\u0e19\u0e31\u0e21\u0e40\u0e1a\u0e2d\u0e23\u0e4c\u0e27\u0e31\u0e19-\u0e23\u0e32\u0e212", "name:en": "Number One Market"}}, {"type": "way", "id": 44372568, "nodes": [563935114, 2179133250, 563935115, 563935120, 563935118, 563935114], "tags": {"alt_name:en": "50 years Royal Princess Maha Chakri Sirindhorn Park", "leisure": "park", "name": "\u0e2a\u0e27\u0e19 50 \u0e1e\u0e23\u0e23\u0e29\u0e32 \u0e21\u0e2b\u0e32\u0e08\u0e31\u0e01\u0e23\u0e35\u0e2a\u0e34\u0e23\u0e34\u0e19\u0e18\u0e23", "name:en": "Maha Chakri Sirindhorn's 50th Birthday Park", "name:th": "\u0e2a\u0e27\u0e19 \u0e55\u0e50 \u0e1e\u0e23\u0e23\u0e29\u0e32 \u0e21\u0e2b\u0e32\u0e08\u0e31\u0e01\u0e23\u0e35\u0e2a\u0e34\u0e23\u0e34\u0e19\u0e18\u0e23", "opening_hours": "05:00-21:00", "website": "http://203.155.220.217/office/ppdd/publicpark/thai/2011/park18.asp"}}, {"type": "way", "id": 92362832, "nodes": [1072089420, 1072089422, 1072089405, 1072089431, 1072089432, 1072089426, 1072089417, 1072089415, 1072089416, 1072089433, 1072089424, 1072089420], "tags": {"addr:street": "\u0e16\u0e19\u0e19\u0e40\u0e09\u0e25\u0e34\u0e21\u0e1e\u0e23\u0e30\u0e40\u0e01\u0e35\u0e22\u0e23\u0e15\u0e34 \u0e23.9 \u0e0b\u0e2d\u0e22 7", "leisure": "park", "name": "\u0e2a\u0e27\u0e19\u0e27\u0e19\u0e18\u0e23\u0e23\u0e21", "name:en": "Wanadharm Park", "name:th": "\u0e2a\u0e27\u0e19\u0e27\u0e19\u0e18\u0e23\u0e23\u0e21", "opening_hours": "05:00-21:00", "website": "http://203.155.220.217/office/ppdd/publicpark/thai/2011/park17.asp", "wikidata": "Q124023139", "wikipedia": "th:\u0e2a\u0e27\u0e19\u0e27\u0e19\u0e18\u0e23\u0e23\u0e21"}}, {"type": "way", "id": 289141447, "nodes": [2926963594, 2926963597, 2926963598, 2926963599, 2926963600, 2926963702, 2926963701, 2926963592, 2926963594], "tags": {"amenity": "restaurant", "building": "yes", "layer": "1"}}, {"type": "way", "id": 555890843, "nodes": [5362749744, 5362749745, 5362749746, 5362749747, 5362749744], "tags": {"leisure": "park", "name": "\u0e2a\u0e27\u0e19\u0e23\u0e27\u0e21\u0e43\u0e08"}}, {"type": "way", "id": 684178111, "nodes": [6409490547, 10275989207, 6409490541, 10204191815, 6409490488, 6409490546, 6409490492, 6409490525, 6409490512, 6409490548, 6409490540, 6409490489, 12248930260, 6409490514, 6409490516, 10204203718, 6559057888, 10204191809, 10204191813, 10204191806, 6409490547], "tags": {"addr:street": "Soi On Nut 46", "amenity": "marketplace", "contact:phone": "+66 81 827 5885;+66 86 126 7787;+66 81 732 8778;+66 81 752 5588", "name": "\u0e15\u0e25\u0e32\u0e14\u0e19\u0e31\u0e14\u0e23\u0e16\u0e44\u0e1f \u0e28\u0e23\u0e35\u0e19\u0e04\u0e23\u0e34\u0e19\u0e17\u0e23\u0e4c", "name:en": "Train Night Market Srinakarin", "opening_hours": "Th-Su 17:00-01:00", "wheelchair": "yes"}}, {"type": "way", "id": 1104847579, "nodes": [10110454431, 10110454432, 10110454433, 10110454434, 10110454431], "tags": {"amenity": "cafe", "building": "yes", "cuisine": "coffee_shop", "name": "Mikka"}}, {"type": "way", "id": 1115744625, "nodes": [10204191808, 10204191802, 10204191807, 10204203721, 10204191808], "tags": {"amenity": "restaurant"}}, {"type": "way", "id": 1115744626, "nodes": [10204191811, 10204191808, 10204203721, 10204191812, 10204191811], "tags": {"amenity": "restaurant"}}, {"type": "way", "id": 1130834322, "nodes": [10538688467, 10538688468, 10538688469, 10538688470, 10538688467], "tags": {"building": "yes", "name": "Meridian De Bangkok", "tourism": "hotel"}}, {"type": "way", "id": 1131109025, "nodes": [10542553957, 10542553958, 10542553959, 10542553960, 10542553957], "tags": {"amenity": "cafe", "building": "yes", "name": "Dog's paradise"}}, {"type": "way", "id": 1132753984, "nodes": [10562171714, 10562171715, 10562171716, 10562171717, 10562171714], "tags": {"amenity": "cafe", "building": "yes", "name": "Brazil Blue Coffee"}}, {"type": "way", "id": 1160630417, "nodes": [10794778245, 10794778246, 5862729778, 10794778260, 5862729777, 5862729776, 10794778247, 10794778248, 10794781146, 10794781156, 10794778249, 10794781153, 10794781151, 10794778250, 10794781149, 10794778251, 10958058905, 10794778238, 10794778236, 10794778235, 10794778231, 10794778234, 10794778252, 10794778253, 10794778254, 10794778255, 10794778256, 10794778257, 10794778245], "tags": {"amenity": "restaurant", "fixme": "Fix the number of karaoke room", "name": "ViewDee", "name:en": "ViewDee", "name:th": "\u0e27\u0e34\u0e27\u0e14\u0e35", "opening_hours": "Mo-Su 16:00-24:00"}}, {"type": "way", "id": 1199944496, "nodes": [11128264687, 11128264688, 11128264689, 11128264690, 11128264691, 11128264692, 11128264693, 11128264694, 11128264695, 11128264696, 11128264697, 11128264698, 11128264699, 11128264700, 11128264701, 11128264702, 11128264703, 11128264704, 11128322560, 11128322561, 11128264687], "tags": {"amenity": "place_of_worship", "denomination": "thai_mahanikaya", "name": "\u0e27\u0e31\u0e14\u0e04\u0e25\u0e2d\u0e07\u0e1b\u0e25\u0e31\u0e14\u0e40\u0e1b\u0e23\u0e35\u0e22\u0e07", "name:en": "Wat Khlong Palat Priang", "name:th": "\u0e27\u0e31\u0e14\u0e04\u0e25\u0e2d\u0e07\u0e1b\u0e25\u0e31\u0e14\u0e40\u0e1b\u0e23\u0e35\u0e22\u0e07", "religion": "buddhist", "wikidata": "Q100715982", "wikipedia": "th:\u0e27\u0e31\u0e14\u0e04\u0e25\u0e2d\u0e07\u0e1b\u0e25\u0e31\u0e14\u0e40\u0e1b\u0e23\u0e35\u0e22\u0e07"}}, {"type": "way", "id": 1203949014, "nodes": [11159140011, 11159140012, 11159140013, 11159140014, 11159140011], "tags": {"amenity": "restaurant", "building": "yes", "name": "360 Hours Cafe & Bar"}}, {"type": "way", "id": 1231698744, "nodes": [11422924393, 11422924394, 11422924395, 11422924396, 11422924397, 11422924398, 11422924399, 11422924400, 11422924401, 11422924402, 11422924403, 11422924404, 11422924405, 11422924406, 11422924407, 11422924408, 11422924393], "tags": {"leisure": "park", "name": "\u0e2a\u0e27\u0e19\u0e40\u0e09\u0e25\u0e34\u0e21\u0e1e\u0e31\u0e12\u0e19\u0e4c", "name:en": "Chaloem Pat Park", "name:th": "\u0e2a\u0e27\u0e19\u0e40\u0e09\u0e25\u0e34\u0e21\u0e1e\u0e31\u0e12\u0e19\u0e4c"}}, {"type": "way", "id": 1253286053, "nodes": [11649296045, 11649296046, 11649296047, 11649296048, 11649296045], "tags": {"amenity": "marketplace"}}, {"type": "way", "id": 1293428261, "nodes": [11990162243, 11990162244, 11990162245, 11990162246, 11990162247, 11990162248, 11990162249, 11990162250, 11990162251, 11990162252, 11990162253, 11990162254, 11990162255, 11990162256, 11990162257, 11990162258, 11990162259, 11990162260, 11990162261, 11990162262, 11990162263, 11990162264, 11990162265, 11990162243], "tags": {"leisure": "park"}}, {"type": "way", "id": 1303835961, "nodes": [12074805367, 12074807571, 12074807572, 12074807573, 12074807574, 12074805365, 12074805366, 12074805367], "tags": {"amenity": "place_of_worship", "denomination": "thai_mahanikaya", "name": "\u0e27\u0e31\u0e14\u0e15\u0e30\u0e01\u0e25\u0e48\u0e33", "name:en": "Wat Taklam", "name:th": "\u0e27\u0e31\u0e14\u0e15\u0e30\u0e01\u0e25\u0e48\u0e33", "religion": "buddhist", "wikidata": "Q100698863", "wikimedia_commons": "Category:Wat_Taklam", "wikipedia": "th:\u0e27\u0e31\u0e14\u0e15\u0e30\u0e01\u0e25\u0e48\u0e33"}}, {"type": "way", "id": 1303835962, "nodes": [12074807572, 12074807575, 12074807577, 12074807578, 12074807576, 12074807573, 12074807572], "tags": {"amenity": "marketplace", "name": "\u0e15\u0e25\u0e32\u0e14\u0e1a\u0e38\u0e0d\u0e40\u0e23\u0e37\u0e2d\u0e07", "name:en": "Boonruang Market", "name:th": "\u0e15\u0e25\u0e32\u0e14\u0e1a\u0e38\u0e0d\u0e40\u0e23\u0e37\u0e2d\u0e07"}}, {"type": "way", "id": 1311183530, "nodes": [12137141466, 12137141467, 12137141468, 12137141469, 12137141470, 12137141466], "tags": {"leisure": "park"}}, {"type": "way", "id": 1324384337, "nodes": [12255224553, 12255224554, 12255224555, 12255224556, 12255224557, 12255224553], "tags": {"addr:district": "\u0e1a\u0e32\u0e07\u0e1e\u0e25\u0e35", "addr:housenumber": "455", "addr:postcode": "10540", "addr:province": "\u0e2a\u0e21\u0e38\u0e17\u0e23\u0e1b\u0e23\u0e32\u0e01\u0e32\u0e23", "addr:street": "\u0e16\u0e19\u0e19\u0e1a\u0e32\u0e07\u0e19\u0e32-\u0e15\u0e23\u0e32\u0e14", "addr:subdistrict": "\u0e1a\u0e32\u0e07\u0e41\u0e01\u0e49\u0e27", "air_conditioning": "yes", "amenity": "cafe", "building": "yes", "cuisine": "coffee_shop;tea;thai", "delivery": "yes", "drive_through": "yes", "internet_access": "yes", "internet_access:fee": "no", "name": "A Matcha House", "opening_hours": "Sat-Sun 9.00-17.00", "phone": "0645499563", "takeaway": "yes", "toilets": "yes", "website": "https://www.instagram.com/a.matcha.house/profilecard/?igsh=MXhmZ2Rka2hyYzMyYg=="}}, {"type": "way", "id": 1358565007, "nodes": [12573851540, 12573851545, 12573851544, 12573851541, 12573851542, 12573851543, 12573851540], "tags": {"amenity": "school", "name": "\u0e42\u0e23\u0e07\u0e40\u0e23\u0e35\u0e22\u0e19\u0e41\u0e01\u0e48\u0e19\u0e17\u0e2d\u0e07\u0e2d\u0e38\u0e1b\u0e16\u0e31\u0e21\u0e20\u0e4c", "religion": "buddhist"}}, {"type": "way", "id": 1362672599, "nodes": [12616530283, 12616530284, 12616530285, 12616530286, 12616530287, 12616530288, 12616530289, 12616530290, 12616530291, 12616530292, 12616530293, 12616530294, 12616530295, 12616530283], "tags": {"amenity": "place_of_worship", "area": "yes", "denomination": "thai_mahanikaya", "name": "\u0e27\u0e31\u0e14\u0e1a\u0e32\u0e07\u0e41\u0e01\u0e49\u0e27", "name:en": "Wat Bang Kaeo", "name:th": "\u0e27\u0e31\u0e14\u0e1a\u0e32\u0e07\u0e41\u0e01\u0e49\u0e27", "religion": "buddhist", "wikidata": "Q100715983", "wikipedia": "th:\u0e27\u0e31\u0e14\u0e1a\u0e32\u0e07\u0e41\u0e01\u0e49\u0e27 (\u0e08\u0e31\u0e07\u0e2b\u0e27\u0e31\u0e14\u0e2a\u0e21\u0e38\u0e17\u0e23\u0e1b\u0e23\u0e32\u0e01\u0e32\u0e23)"}}, {"type": "way", "id": 1370280327, "nodes": [12690466605, 12690466606, 12690466607, 12690466608, 12690466609, 12690466610, 12690466605], "tags": {"building": "yes", "internet_access": "yes", "internet_access:fee": "customers", "name": "The Journey Hotel Bangna", "phone": "021026552", "tourism": "hotel", "website": "https://thejourneyhotel.com/"}}, {"type": "way", "id": 1431706434, "nodes": [13159850717, 13159850718, 13159850719, 13159850720, 13159850721, 13159850717], "tags": {"amenity": "marketplace", "name": "\u0e15\u0e25\u0e32\u0e14\u0e17\u0e38\u0e48\u0e07\u0e40\u0e28\u0e23\u0e29\u0e10\u0e35"}}, {"type": "way", "id": 1432038990, "nodes": [13162463518, 13162463519, 13162463520, 13162463521, 13162463522, 13162463523, 13162463524, 13162463525, 13162463526, 13162463527, 13162463528, 13162463529, 13162463530, 13162463518], "tags": {"landuse": "religious", "name": "\u0e27\u0e31\u0e14\u0e17\u0e38\u0e48\u0e07\u0e40\u0e28\u0e23\u0e29\u0e10\u0e35", "religion": "buddhist"}}, {"type": "node", "id": 11128264688, "lat": 13.6491299, "lon": 100.6564395}, {"type": "node", "id": 11128264689, "lat": 13.649351, "lon": 100.6558954}, {"type": "node", "id": 11128264690, "lat": 13.6494917, "lon": 100.6554518}, {"type": "node", "id": 11128264691, "lat": 13.6493555, "lon": 100.6552977}, {"type": "node", "id": 11128264692, "lat": 13.6491468, "lon": 100.6551202}, {"type": "node", "id": 11128264693, "lat": 13.648752, "lon": 100.6550455}, {"type": "node", "id": 11128264694, "lat": 13.6488337, "lon": 100.6547559}, {"type": "node", "id": 11128264695, "lat": 13.6487656, "lon": 100.6546906}, {"type": "node", "id": 11128264696, "lat": 13.6490016, "lon": 100.6542889}, {"type": "node", "id": 11128264697, "lat": 13.6492557, "lon": 100.6535557}, {"type": "node", "id": 11128264698, "lat": 13.6496687, "lon": 100.6537332}, {"type": "node", "id": 11128264699, "lat": 13.6496414, "lon": 100.6538967}, {"type": "node", "id": 11128264700, "lat": 13.6492058, "lon": 100.6550081}, {"type": "node", "id": 11128264701, "lat": 13.6495507, "lon": 100.6551856}, {"type": "node", "id": 11128264702, "lat": 13.649714, "lon": 100.6551295}, {"type": "node", "id": 11128264703, "lat": 13.650844, "lon": 100.6556479}, {"type": "node", "id": 11128264704, "lat": 13.6505899, "lon": 100.6561009}, {"type": "node", "id": 11128322560, "lat": 13.6503096, "lon": 100.6566469}, {"type": "node", "id": 11649296045, "lat": 13.6506241, "lon": 100.6562003}, {"type": "node", "id": 11649296046, "lat": 13.6503769, "lon": 100.6567}, {"type": "node", "id": 11649296048, "lat": 13.6510347, "lon": 100.6564153}, {"type": "node", "id": 11128264687, "lat": 13.6501481, "lon": 100.6569701}, {"type": "node", "id": 11128322561, "lat": 13.650177, "lon": 100.6569156}, {"type": "node", "id": 11649296047, "lat": 13.6507876, "lon": 100.656915}, {"type": "node", "id": 11990162243, "lat": 13.6521209, "lon": 100.6614969}, {"type": "node", "id": 11990162244, "lat": 13.6516456, "lon": 100.6612628}, {"type": "node", "id": 11990162245, "lat": 13.6512434, "lon": 100.6621574}, {"type": "node", "id": 11990162246, "lat": 13.6508656, "lon": 100.6623915}, {"type": "node", "id": 11990162247, "lat": 13.64959, "lon": 100.6627135}, {"type": "node", "id": 11990162248, "lat": 13.6495209, "lon": 100.6628514}, {"type": "node", "id": 11990162249, "lat": 13.6495884, "lon": 100.6630976}, {"type": "node", "id": 11990162250, "lat": 13.6498154, "lon": 100.6632006}, {"type": "node", "id": 11990162251, "lat": 13.6504501, "lon": 100.6630574}, {"type": "node", "id": 11990162263, "lat": 13.6525395, "lon": 100.6632357}, {"type": "node", "id": 11990162264, "lat": 13.6518023, "lon": 100.6628966}, {"type": "node", "id": 11990162265, "lat": 13.6517291, "lon": 100.6624043}, {"type": "node", "id": 2926963592, "lat": 13.6606657, "lon": 100.6591401}, {"type": "node", "id": 2926963594, "lat": 13.6606751, "lon": 100.6591006}, {"type": "node", "id": 2926963597, "lat": 13.66082, "lon": 100.6591372}, {"type": "node", "id": 2926963598, "lat": 13.6608446, "lon": 100.6590337}, {"type": "node", "id": 2926963599, "lat": 13.6608797, "lon": 100.6590425}, {"type": "node", "id": 2926963600, "lat": 13.66089, "lon": 100.6589995}, {"type": "node", "id": 2926963701, "lat": 13.6610249, "lon": 100.6592307}, {"type": "node", "id": 2926963702, "lat": 13.6610692, "lon": 100.6590448}, {"type": "node", "id": 12690466605, "lat": 13.6633024, "lon": 100.6596041}, {"type": "node", "id": 12690466606, "lat": 13.663282, "lon": 100.6597729}, {"type": "node", "id": 12690466607, "lat": 13.6634427, "lon": 100.6597935}, {"type": "node", "id": 12690466608, "lat": 13.6634268, "lon": 100.6599253}, {"type": "node", "id": 12690466609, "lat": 13.6631229, "lon": 100.6598864}, {"type": "node", "id": 12690466610, "lat": 13.6631593, "lon": 100.6595858}, {"type": "node", "id": 372545618, "lat": 13.680175, "lon": 100.6600525}, {"type": "node", "id": 372545621, "lat": 13.6790375, "lon": 100.6614726}, {"type": "node", "id": 11652905489, "lat": 13.6799887, "lon": 100.6621474}, {"type": "node", "id": 12074807575, "lat": 13.6770383, "lon": 100.6626852}, {"type": "node", "id": 12074807577, "lat": 13.6778426, "lon": 100.6631044}, {"type": "node", "id": 1072089415, "lat": 13.6830369, "lon": 100.6557034}, {"type": "node", "id": 1072089416, "lat": 13.6832906, "lon": 100.6555813}, {"type": "node", "id": 1072089417, "lat": 13.6827628, "lon": 100.6559203}, {"type": "node", "id": 1072089420, "lat": 13.6840839, "lon": 100.6555367}, {"type": "node", "id": 1072089422, "lat": 13.6839252, "lon": 100.6564783}, {"type": "node", "id": 1072089424, "lat": 13.6838406, "lon": 100.655491}, {"type": "node", "id": 1072089426, "lat": 13.6824621, "lon": 100.6562003}, {"type": "node", "id": 1072089433, "lat": 13.6835442, "lon": 100.6555034}, {"type": "node", "id": 372545604, "lat": 13.6870994, "lon": 100.6579015}, {"type": "node", "id": 372545606, "lat": 13.6866956, "lon": 100.6602261}, {"type": "node", "id": 372545607, "lat": 13.6860714, "lon": 100.6601361}, {"type": "node", "id": 372545610, "lat": 13.6853197, "lon": 100.6624612}, {"type": "node", "id": 372545611, "lat": 13.6834211, "lon": 100.661093}, {"type": "node", "id": 372545613, "lat": 13.6836418, "lon": 100.6607419}, {"type": "node", "id": 372545616, "lat": 13.6808802, "lon": 100.6585566}, {"type": "node", "id": 372545626, "lat": 13.6822363, "lon": 100.662939}, {"type": "node", "id": 1072089405, "lat": 13.6836281, "lon": 100.6580195}, {"type": "node", "id": 1072089431, "lat": 13.6833213, "lon": 100.6585122}, {"type": "node", "id": 1072089432, "lat": 13.6816826, "lon": 100.6572404}, {"type": "node", "id": 11563337678, "lat": 13.6858671, "lon": 100.6609222}, {"type": "node", "id": 6409490488, "lat": 13.6920452, "lon": 100.6507225}, {"type": "node", "id": 6409490492, "lat": 13.6929859, "lon": 100.6505961}, {"type": "node", "id": 6409490512, "lat": 13.6930743, "lon": 100.6507714}, {"type": "node", "id": 6409490525, "lat": 13.6930677, "lon": 100.6506853}, {"type": "node", "id": 6409490541, "lat": 13.692257, "lon": 100.6510261}, {"type": "node", "id": 6409490546, "lat": 13.6928762, "lon": 100.6505978}, {"type": "node", "id": 6409490547, "lat": 13.6923642, "lon": 100.6518996}, {"type": "node", "id": 10204191802, "lat": 13.6933103, "lon": 100.6519275}, {"type": "node", "id": 10204191806, "lat": 13.6931031, "lon": 100.6517911}, {"type": "node", "id": 10204191807, "lat": 13.693305, "lon": 100.6518761}, {"type": "node", "id": 10204191808, "lat": 13.6933648, "lon": 100.6519232}, {"type": "node", "id": 10204191811, "lat": 13.693428, "lon": 100.6519176}, {"type": "node", "id": 10204191812, "lat": 13.6934235, "lon": 100.6518637}, {"type": "node", "id": 10204191813, "lat": 13.6931246, "lon": 100.6519562}, {"type": "node", "id": 10204191815, "lat": 13.6920908, "lon": 100.6510472}, {"type": "node", "id": 10204203721, "lat": 13.6933603, "lon": 100.6518693}, {"type": "node", "id": 10275989207, "lat": 13.6922867, "lon": 100.6512681}, {"type": "node", "id": 372545599, "lat": 13.6911475, "lon": 100.6610517}, {"type": "node", "id": 372545601, "lat": 13.6907461, "lon": 100.6608865}, {"type": "node", "id": 372545602, "lat": 13.6911073, "lon": 100.6586764}, {"type": "node", "id": 372557211, "lat": 13.6881795, "lon": 100.6631063}, {"type": "node", "id": 372557218, "lat": 13.6883963, "lon": 100.6629545}, {"type": "node", "id": 372557222, "lat": 13.6887088, "lon": 100.663018}, {"type": "node", "id": 372557225, "lat": 13.6888697, "lon": 100.6632213}, {"type": "node", "id": 380048712, "lat": 13.6881722, "lon": 100.6581089}, {"type": "node", "id": 380048714, "lat": 13.6880845, "lon": 100.6580919}, {"type": "node", "id": 11822296764, "lat": 13.6909228, "lon": 100.6598052}, {"type": "node", "id": 12462919301, "lat": 13.6882265, "lon": 100.6581194}, {"type": "node", "id": 6409490489, "lat": 13.6961772, "lon": 100.650225}, {"type": "node", "id": 6409490514, "lat": 13.6964202, "lon": 100.6516257}, {"type": "node", "id": 6409490516, "lat": 13.6942257, "lon": 100.6516959}, {"type": "node", "id": 6409490540, "lat": 13.6960186, "lon": 100.6502499}, {"type": "node", "id": 6409490548, "lat": 13.6951057, "lon": 100.6504136}, {"type": "node", "id": 6559057888, "lat": 13.6939357, "lon": 100.6517581}, {"type": "node", "id": 10204191809, "lat": 13.6939245, "lon": 100.6518432}, {"type": "node", "id": 10204203718, "lat": 13.6939408, "lon": 100.6517193}, {"type": "node", "id": 12248930260, "lat": 13.6964041, "lon": 100.6515328}, {"type": "node", "id": 12573851540, "lat": 13.6974785, "lon": 100.6520289}, {"type": "node", "id": 12573851541, "lat": 13.6976286, "lon": 100.653025}, {"type": "node", "id": 12573851542, "lat": 13.6970873, "lon": 100.6530508}, {"type": "node", "id": 12573851543, "lat": 13.6969216, "lon": 100.6520899}, {"type": "node", "id": 12573851544, "lat": 13.6975253, "lon": 100.6523392}, {"type": "node", "id": 12573851545, "lat": 13.6975113, "lon": 100.6522467}, {"type": "node", "id": 11990162252, "lat": 13.6518023, "lon": 100.6636954}, {"type": "node", "id": 11990162253, "lat": 13.6522636, "lon": 100.6647001}, {"type": "node", "id": 11990162254, "lat": 13.6527201, "lon": 100.6649463}, {"type": "node", "id": 11990162255, "lat": 13.6527518, "lon": 100.6650317}, {"type": "node", "id": 11990162256, "lat": 13.6530764, "lon": 100.6651422}, {"type": "node", "id": 11990162257, "lat": 13.6532082, "lon": 100.6648031}, {"type": "node", "id": 11990162258, "lat": 13.6533889, "lon": 100.664361}, {"type": "node", "id": 11990162259, "lat": 13.652642, "lon": 100.6639742}, {"type": "node", "id": 11990162260, "lat": 13.6527323, "lon": 100.6635974}, {"type": "node", "id": 11990162261, "lat": 13.652952, "lon": 100.6634869}, {"type": "node", "id": 11990162262, "lat": 13.6528958, "lon": 100.6633588}, {"type": "node", "id": 10110454431, "lat": 13.6512076, "lon": 100.6735027}, {"type": "node", "id": 10110454432, "lat": 13.6511537, "lon": 100.6735037}, {"type": "node", "id": 10110454433, "lat": 13.6511528, "lon": 100.6735347}, {"type": "node", "id": 10110454434, "lat": 13.6512067, "lon": 100.6735356}, {"type": "node", "id": 12255224553, "lat": 13.6618095, "lon": 100.6698763}, {"type": "node", "id": 12255224554, "lat": 13.6617567, "lon": 100.6700275}, {"type": "node", "id": 12255224555, "lat": 13.6616548, "lon": 100.6699912}, {"type": "node", "id": 12255224556, "lat": 13.6617057, "lon": 100.6698582}, {"type": "node", "id": 12255224557, "lat": 13.6617429, "lon": 100.6698521}, {"type": "node", "id": 12616530283, "lat": 13.6641266, "lon": 100.6730673}, {"type": "node", "id": 12616530284, "lat": 13.6636898, "lon": 100.6729691}, {"type": "node", "id": 12616530285, "lat": 13.6632543, "lon": 100.6728678}, {"type": "node", "id": 12616530286, "lat": 13.6631766, "lon": 100.6731218}, {"type": "node", "id": 12616530287, "lat": 13.6631466, "lon": 100.6732319}, {"type": "node", "id": 12616530288, "lat": 13.6631186, "lon": 100.6733575}, {"type": "node", "id": 12616530289, "lat": 13.6630856, "lon": 100.6736569}, {"type": "node", "id": 12616530290, "lat": 13.6630706, "lon": 100.6737701}, {"type": "node", "id": 12616530291, "lat": 13.6630396, "lon": 100.6739636}, {"type": "node", "id": 12616530292, "lat": 13.6630436, "lon": 100.6739821}, {"type": "node", "id": 12616530293, "lat": 13.6630596, "lon": 100.6739955}, {"type": "node", "id": 12616530294, "lat": 13.6633786, "lon": 100.6741169}, {"type": "node", "id": 12616530295, "lat": 13.6638136, "lon": 100.6742723}, {"type": "node", "id": 563853572, "lat": 13.6698496, "lon": 100.6829174}, {"type": "node", "id": 563853571, "lat": 13.6695759, "lon": 100.6837492}, {"type": "node", "id": 563853574, "lat": 13.6703419, "lon": 100.6830889}, {"type": "node", "id": 563853576, "lat": 13.6700682, "lon": 100.6839207}, {"type": "node", "id": 563853577, "lat": 13.6705229, "lon": 100.6840916}, {"type": "node", "id": 563853579, "lat": 13.6708044, "lon": 100.6832546}, {"type": "node", "id": 563853581, "lat": 13.6707983, "lon": 100.6841898}, {"type": "node", "id": 563853583, "lat": 13.6711479, "lon": 100.6833688}, {"type": "node", "id": 563853585, "lat": 13.6708649, "lon": 100.6842203}, {"type": "node", "id": 563853587, "lat": 13.6713986, "lon": 100.6834571}, {"type": "node", "id": 563853589, "lat": 13.6711156, "lon": 100.6843085}, {"type": "node", "id": 563853591, "lat": 13.6710797, "lon": 100.6833527}, {"type": "node", "id": 5862729776, "lat": 13.658042, "lon": 100.6917564}, {"type": "node", "id": 5862729777, "lat": 13.6580157, "lon": 100.6917419}, {"type": "node", "id": 5862729778, "lat": 13.6579093, "lon": 100.6916371}, {"type": "node", "id": 10794778231, "lat": 13.6580881, "lon": 100.6908371}, {"type": "node", "id": 10794778234, "lat": 13.658015, "lon": 100.6908815}, {"type": "node", "id": 10794778235, "lat": 13.6581404, "lon": 100.6908206}, {"type": "node", "id": 10794778236, "lat": 13.6582288, "lon": 100.6908342}, {"type": "node", "id": 10794778238, "lat": 13.6582825, "lon": 100.6908701}, {"type": "node", "id": 10794778245, "lat": 13.6577877, "lon": 100.6914103}, {"type": "node", "id": 10794778246, "lat": 13.657874, "lon": 100.6915847}, {"type": "node", "id": 10794778247, "lat": 13.658181, "lon": 100.691771}, {"type": "node", "id": 10794778248, "lat": 13.65832, "lon": 100.6917159}, {"type": "node", "id": 10794778249, "lat": 13.6584083, "lon": 100.6915251}, {"type": "node", "id": 10794778250, "lat": 13.658497, "lon": 100.6910271}, {"type": "node", "id": 10794778251, "lat": 13.6583797, "lon": 100.6909987}, {"type": "node", "id": 10794778252, "lat": 13.6579754, "lon": 100.690792}, {"type": "node", "id": 10794778253, "lat": 13.6580463, "lon": 100.690561}, {"type": "node", "id": 10794778254, "lat": 13.6579594, "lon": 100.6905253}, {"type": "node", "id": 10794778255, "lat": 13.6579232, "lon": 100.6906698}, {"type": "node", "id": 10794778256, "lat": 13.6578755, "lon": 100.6909395}, {"type": "node", "id": 10794778257, "lat": 13.6578364, "lon": 100.6911138}, {"type": "node", "id": 10794778260, "lat": 13.6579575, "lon": 100.6916988}, {"type": "node", "id": 10794781146, "lat": 13.6583773, "lon": 100.6916231}, {"type": "node", "id": 10794781149, "lat": 13.658441, "lon": 100.6910135}, {"type": "node", "id": 10794781151, "lat": 13.6584785, "lon": 100.6911311}, {"type": "node", "id": 10794781153, "lat": 13.6584276, "lon": 100.6914169}, {"type": "node", "id": 10794781156, "lat": 13.658404, "lon": 100.6915388}, {"type": "node", "id": 10958058905, "lat": 13.6583638, "lon": 100.6909777}, {"type": "node", "id": 13162463523, "lat": 13.6674865, "lon": 100.6952248}, {"type": "node", "id": 13162463524, "lat": 13.6671399, "lon": 100.6950719}, {"type": "node", "id": 13162463525, "lat": 13.6670435, "lon": 100.6954045}, {"type": "node", "id": 13162463526, "lat": 13.6666343, "lon": 100.6952302}, {"type": "node", "id": 13162463527, "lat": 13.6665014, "lon": 100.6951444}, {"type": "node", "id": 13162463528, "lat": 13.6669601, "lon": 100.6936128}, {"type": "node", "id": 13159850717, "lat": 13.6672362, "lon": 100.6981717}, {"type": "node", "id": 5362749744, "lat": 13.6696645, "lon": 100.6904703}, {"type": "node", "id": 5362749745, "lat": 13.6695763, "lon": 100.6904489}, {"type": "node", "id": 5362749746, "lat": 13.6695137, "lon": 100.690652}, {"type": "node", "id": 5362749747, "lat": 13.6696324, "lon": 100.6906752}, {"type": "node", "id": 13162463518, "lat": 13.6683805, "lon": 100.6940125}, {"type": "node", "id": 13162463519, "lat": 13.6682058, "lon": 100.6945543}, {"type": "node", "id": 13162463520, "lat": 13.6681042, "lon": 100.6947501}, {"type": "node", "id": 13162463521, "lat": 13.6678748, "lon": 100.6954153}, {"type": "node", "id": 13162463522, "lat": 13.6675673, "lon": 100.6953536}, {"type": "node", "id": 13162463529, "lat": 13.667841, "lon": 100.6939132}, {"type": "node", "id": 13162463530, "lat": 13.6678853, "lon": 100.6938891}, {"type": "node", "id": 13159850718, "lat": 13.6681463, "lon": 100.6984459}, {"type": "node", "id": 13159850719, "lat": 13.6684546, "lon": 100.6977742}, {"type": "node", "id": 13159850720, "lat": 13.6685834, "lon": 100.6973706}, {"type": "node", "id": 13159850721, "lat": 13.6679277, "lon": 100.6967729}, {"type": "node", "id": 12074805365, "lat": 13.6771351, "lon": 100.6650964}, {"type": "node", "id": 12074805366, "lat": 13.6765035, "lon": 100.6647289}, {"type": "node", "id": 12074805367, "lat": 13.6760962, "lon": 100.6653759}, {"type": "node", "id": 12074807571, "lat": 13.6757391, "lon": 100.6651329}, {"type": "node", "id": 12074807572, "lat": 13.6766163, "lon": 100.6634625}, {"type": "node", "id": 12074807573, "lat": 13.6775565, "lon": 100.6639524}, {"type": "node", "id": 12074807574, "lat": 13.6773313, "lon": 100.6645854}, {"type": "node", "id": 12074807576, "lat": 13.6776197, "lon": 100.6637867}, {"type": "node", "id": 12074807578, "lat": 13.6776462, "lon": 100.6636961}, {"type": "node", "id": 372545623, "lat": 13.6818737, "lon": 100.6634846}, {"type": "node", "id": 372545631, "lat": 13.6871607, "lon": 100.6658227}, {"type": "node", "id": 372545640, "lat": 13.6868951, "lon": 100.668056}, {"type": "node", "id": 384741670, "lat": 13.6839753, "lon": 100.6640858}, {"type": "node", "id": 10538688467, "lat": 13.6863393, "lon": 100.6684384}, {"type": "node", "id": 10538688468, "lat": 13.68622, "lon": 100.6689362}, {"type": "node", "id": 10538688469, "lat": 13.6860295, "lon": 100.6688879}, {"type": "node", "id": 10538688470, "lat": 13.6861486, "lon": 100.6683901}, {"type": "node", "id": 10542553957, "lat": 13.685744, "lon": 100.669824}, {"type": "node", "id": 10542553958, "lat": 13.685792, "lon": 100.669607}, {"type": "node", "id": 10542553959, "lat": 13.6860306, "lon": 100.6696829}, {"type": "node", "id": 11652905491, "lat": 13.6870153, "lon": 100.6681252}, {"type": "node", "id": 12052507032, "lat": 13.6843052, "lon": 100.6642657}, {"type": "node", "id": 12052507033, "lat": 13.6868975, "lon": 100.6680359}, {"type": "node", "id": 10542553960, "lat": 13.6859746, "lon": 100.6698901}, {"type": "node", "id": 563935114, "lat": 13.6754505, "lon": 100.6768598}, {"type": "node", "id": 563935115, "lat": 13.6777294, "lon": 100.6775292}, {"type": "node", "id": 563935118, "lat": 13.6751623, "lon": 100.6778973}, {"type": "node", "id": 563935120, "lat": 13.6773647, "lon": 100.6786309}, {"type": "node", "id": 2179133250, "lat": 13.6756121, "lon": 100.6768178}, {"type": "node", "id": 372545591, "lat": 13.6898498, "lon": 100.6697369}, {"type": "node", "id": 372545593, "lat": 13.6905856, "lon": 100.6642739}, {"type": "node", "id": 372545596, "lat": 13.6902528, "lon": 100.664128}, {"type": "node", "id": 372557229, "lat": 13.6888577, "lon": 100.6635336}, {"type": "node", "id": 372557233, "lat": 13.6886758, "lon": 100.6637264}, {"type": "node", "id": 372557237, "lat": 13.6881917, "lon": 100.6636169}, {"type": "node", "id": 372557239, "lat": 13.6880748, "lon": 100.6633781}, {"type": "node", "id": 387743533, "lat": 13.6883971, "lon": 100.6637437}, {"type": "node", "id": 8370277226, "lat": 13.6904354, "lon": 100.6654147}, {"type": "node", "id": 11259011347, "lat": 13.6883966, "lon": 100.66892}, {"type": "node", "id": 11259011348, "lat": 13.6885223, "lon": 100.6689499}, {"type": "node", "id": 11259011349, "lat": 13.6891322, "lon": 100.669289}, {"type": "node", "id": 11259011350, "lat": 13.6892175, "lon": 100.6693964}, {"type": "node", "id": 11652905490, "lat": 13.6897209, "lon": 100.6696675}, {"type": "node", "id": 10562171714, "lat": 13.6898427, "lon": 100.6701362}, {"type": "node", "id": 10562171715, "lat": 13.6899032, "lon": 100.6701417}, {"type": "node", "id": 10562171716, "lat": 13.689896, "lon": 100.6702245}, {"type": "node", "id": 10562171717, "lat": 13.6898355, "lon": 100.6702189}, {"type": "node", "id": 12137141466, "lat": 13.6908861, "lon": 100.6727587}, {"type": "node", "id": 12137141467, "lat": 13.6909205, "lon": 100.6728458}, {"type": "node", "id": 12137141468, "lat": 13.6908704, "lon": 100.6729598}, {"type": "node", "id": 12137141469, "lat": 13.6906706, "lon": 100.6728897}, {"type": "node", "id": 12137141470, "lat": 13.6907312, "lon": 100.672704}, {"type": "node", "id": 11159140011, "lat": 13.696551, "lon": 100.6741102}, {"type": "node", "id": 11159140012, "lat": 13.6966362, "lon": 100.6741113}, {"type": "node", "id": 11159140013, "lat": 13.6966341, "lon": 100.6742907}, {"type": "node", "id": 11159140014, "lat": 13.696549, "lon": 100.6742896}, {"type": "node", "id": 11422924393, "lat": 13.6989261, "lon": 100.6749398}, {"type": "node", "id": 11422924394, "lat": 13.69907, "lon": 100.6748904}, {"type": "node", "id": 11422924395, "lat": 13.6993361, "lon": 100.6748206}, {"type": "node", "id": 11422924396, "lat": 13.6997867, "lon": 100.6747215}, {"type": "node", "id": 11422924397, "lat": 13.6999423, "lon": 100.6747194}, {"type": "node", "id": 11422924398, "lat": 13.7000386, "lon": 100.674751}, {"type": "node", "id": 11422924399, "lat": 13.7001184, "lon": 100.674829}, {"type": "node", "id": 11422924400, "lat": 13.7001635, "lon": 100.6748944}, {"type": "node", "id": 11422924401, "lat": 13.7001205, "lon": 100.6749723}, {"type": "node", "id": 11422924402, "lat": 13.6999775, "lon": 100.6751655}, {"type": "node", "id": 11422924403, "lat": 13.6999197, "lon": 100.675214}, {"type": "node", "id": 11422924404, "lat": 13.699861, "lon": 100.6752387}, {"type": "node", "id": 11422924405, "lat": 13.6997809, "lon": 100.6752333}, {"type": "node", "id": 11422924406, "lat": 13.6995334, "lon": 100.6751433}, {"type": "node", "id": 11422924407, "lat": 13.6992487, "lon": 100.6750052}, {"type": "node", "id": 11422924408, "lat": 13.6991515, "lon": 100.6749664}]}