{"version": 0.6, "generator": "Overpass API 0.7.62.8 e802775f", "osm3s": {"timestamp_osm_base": "2025-11-20T03:20:30Z", "copyright": "The data included in this document is from www.openstreetmap.org. The data is made available under ODbL."}, "elements": [{"type": "node", "id": 317050229, "lat": 13.7181753, "lon": 100.7648962, "tags": {"addr:housenumber": "56", "name": "Floral Shire Resort", "tourism": "hotel", "website": "http://www.floralshireresort.com"}}, {"type": "node", "id": 1620287270, "lat": 13.7195389, "lon": 100.7776203, "tags": {"name": "Orchid Resort", "source": "gps survey", "tourism": "hotel", "website": "http://orchidresort.net/"}}, {"type": "node", "id": 2013467426, "lat": 13.7280829, "lon": 100.7791403, "tags": {"amenity": "restaurant"}}, {"type": "node", "id": 2712348997, "lat": 13.7290265, "lon": 100.7794166, "tags": {"amenity": "restaurant", "check_date:opening_hours": "2023-09-08", "name": "\u0e42\u0e23\u0e07\u0e2d\u0e32\u0e2b\u0e32\u0e23\u0e43\u0e2b\u0e21\u0e48", "opening_hours:signed": "no"}}, {"type": "node", "id": 3282897700, "lat": 13.7213077, "lon": 100.7561819, "tags": {"name": "Convenient Resort", "source": "GPS, local_knowledge", "tourism": "hotel", "website": "https://www.convenientresort.com/"}}, {"type": "node", "id": 3282897719, "lat": 13.7232552, "lon": 100.7535351, "tags": {"air_conditioning": "yes", "amenity": "restaurant", "cuisine": "thai", "internet_access": "wlan", "internet_access:fee": "no", "name": "Catch Up Cafe", "opening_hours": "Mo-Su 07:00-22:00"}}, {"type": "node", "id": 4217097393, "lat": 13.7198236, "lon": 100.7756999, "tags": {"name": "Thong Ta Resort", "tourism": "hotel", "website": "https://www.thongtaresortandspa.com/"}}, {"type": "node", "id": 4217130189, "lat": 13.7163542, "lon": 100.7759533, "tags": {"amenity": "restaurant", "name": "The Great Restaurant"}}, {"type": "node", "id": 4217156090, "lat": 13.7208758, "lon": 100.7761286, "tags": {"amenity": "restaurant", "cuisine": "thai", "name": "Tee Jum Zap"}}, {"type": "node", "id": 4217162590, "lat": 13.7206681, "lon": 100.7761289, "tags": {"amenity": "restaurant", "cuisine": "grill", "name": "Shabu Indy", "opening_hours": "Mo-Su 17:00-23:00"}}, {"type": "node", "id": 4217163492, "lat": 13.7201645, "lon": 100.7743142, "tags": {"name": "Avion Village", "tourism": "hotel"}}, {"type": "node", "id": 4217163493, "lat": 13.7207466, "lon": 100.774263, "tags": {"amenity": "restaurant", "name": "Kokeshi"}}, {"type": "node", "id": 4217180090, "lat": 13.7211616, "lon": 100.7741827, "tags": {"amenity": "restaurant", "name": "Shabu U Like"}}, {"type": "node", "id": 4217180091, "lat": 13.7212877, "lon": 100.7741798, "tags": {"amenity": "restaurant", "cuisine": "korean", "name": "Nojeong Korea Restaurant "}}, {"type": "node", "id": 4428554995, "lat": 13.7233169, "lon": 100.7741566, "tags": {"name": "\u0440\u043e\u0431\u043e\u0442\u044b", "name:th": "\u0440\u043e\u0431\u043e\u0442\u044b", "tourism": "picnic_site"}}, {"type": "node", "id": 4483878559, "lat": 13.7183534, "lon": 100.7624623, "tags": {"addr:housenumber": "74", "addr:street": "Ladkrabang40", "name": "Wanderlust Hostel", "tourism": "hostel"}}, {"type": "node", "id": 4530210793, "lat": 13.7225348, "lon": 100.7843623, "tags": {"addr:housenumber": "2007", "addr:postcode": "10520", "addr:street": "\u0e16\u0e19\u0e19\u0e25\u0e32\u0e14\u0e01\u0e23\u0e30\u0e1a\u0e31\u0e07", "name": "\u0e44\u0e2d\u0e0a\u0e4c\u0e40\u0e23\u0e2a\u0e0b\u0e34\u0e40\u0e14\u0e47\u0e19\u0e0a\u0e4c", "name:en": "Ice Ressidence", "name:th": "\u0e44\u0e2d\u0e0a\u0e4c\u0e40\u0e23\u0e2a\u0e0b\u0e34\u0e40\u0e14\u0e47\u0e19\u0e0a\u0e4c", "tourism": "hotel"}}, {"type": "node", "id": 4570580097, "lat": 13.721466, "lon": 100.786399, "tags": {"addr:postcode": "10520", "addr:street": "\u0e16\u0e19\u0e19\u0e25\u0e32\u0e14\u0e01\u0e23\u0e30\u0e1a\u0e31\u0e07", "name": "\u0e1a\u0e49\u0e32\u0e19\u0e1b\u0e23\u0e34\u0e13\u0e14\u0e32", "tourism": "hostel"}}, {"type": "node", "id": 4828089322, "lat": 13.7411847, "lon": 100.7956898, "tags": {"amenity": "place_of_worship", "denomination": "thai_mahanikaya", "loc_name:th": "\u0e27\u0e31\u0e14\u0e21\u0e2d\u0e0d", "name": "\u0e27\u0e31\u0e14\u0e2a\u0e38\u0e17\u0e18\u0e32\u0e42\u0e20\u0e0a\u0e19\u0e4c", "name:en": "Wat Suttapot", "name:th": "\u0e27\u0e31\u0e14\u0e2a\u0e38\u0e17\u0e18\u0e32\u0e42\u0e20\u0e0a\u0e19\u0e4c", "old_name:th": "\u0e27\u0e31\u0e14\u0e2a\u0e38\u0e17\u0e18\u0e32\u0e27\u0e32\u0e2a", "religion": "buddhist", "wikidata": "Q100698827", "wikipedia": "th:\u0e27\u0e31\u0e14\u0e2a\u0e38\u0e17\u0e18\u0e32\u0e42\u0e20\u0e0a\u0e19\u0e4c"}}, {"type": "node", "id": 4828115524, "lat": 13.7241413, "lon": 100.7897084, "tags": {"name": "\u0e13 \u0e25\u0e32\u0e14\u0e01\u0e23\u0e30\u0e1a\u0e31\u0e07", "name:th": "\u0e13 \u0e25\u0e32\u0e14\u0e01\u0e23\u0e30\u0e1a\u0e31\u0e07", "tourism": "attraction"}}, {"type": "node", "id": 5098482286, "lat": 13.7235049, "lon": 100.7539801, "tags": {"air_conditioning": "yes", "contact:email": "lilac.100@hotmail.com", "contact:phone": "+66 2 734 4337", "description": "free airport shuttle", "dog": "no", "elevator": "yes", "internet_access": "wlan", "internet_access:fee": "no", "name": "Lilac Relax-Residence", "smoking": "no", "tourism": "hotel", "website": "http://www.lilac-suvarnabhumi.com/"}}, {"type": "node", "id": 5176632621, "lat": 13.7187861, "lon": 100.7891538, "tags": {"addr:district": "\u0e25\u0e32\u0e14\u0e01\u0e23\u0e30\u0e1a\u0e31\u0e07", "addr:postcode": "10520", "addr:province": "\u0e01\u0e23\u0e38\u0e07\u0e40\u0e17\u0e1e\u0e21\u0e2b\u0e32\u0e19\u0e04\u0e23", "building": "yes", "name": "Pongsakorn Boutique Resort", "tourism": "hotel", "website": "http://en.pongsakornboutiqueresort.com"}}, {"type": "node", "id": 5212483582, "lat": 13.7225792, "lon": 100.7528774, "tags": {"amenity": "restaurant", "name": "\u0e04\u0e39\u0e13\u0e2a\u0e34\u0e19\u0e23\u0e32\u0e0a\u0e32\u0e40\u0e1b\u0e47\u0e14\u0e22\u0e48\u0e32\u0e07", "name:en": "Khun Sin Roast Duck", "takeaway": "yes", "wheelchair": "no"}}, {"type": "node", "id": 5302477234, "lat": 13.7215043, "lon": 100.7952315, "tags": {"addr:street": "\u0e16\u0e19\u0e19\u0e2b\u0e25\u0e27\u0e07\u0e41\u0e1e\u0e48\u0e07", "email": "info@silvergoldgarden.com", "internet_access": "wlan", "name": "Golden Foyer Suvarnabhumi Airport Hotel", "name:en": "Silver Gold Garden Suvarnabhumi Airport", "phone": "+66273815334", "tourism": "hotel"}}, {"type": "node", "id": 5498144821, "lat": 13.7214132, "lon": 100.7951004, "tags": {"name": "Silver Gold Garden Hotel", "tourism": "hotel"}}, {"type": "node", "id": 5562240246, "lat": 13.7222425, "lon": 100.7641046, "tags": {"amenity": "restaurant", "name": "\u0e1b\u0e34\u0e49\u0e07\u0e22\u0e48\u0e32\u0e07\u0e0a\u0e32\u0e1a\u0e39\u0e04\u0e38\u0e13\u0e41\u0e21\u0e48", "name:en": "Khun Mae Grill & Chabu"}}, {"type": "node", "id": 5923649127, "lat": 13.7218174, "lon": 100.7979262, "tags": {"amenity": "place_of_worship", "denomination": "thai_mahanikaya", "name": "\u0e27\u0e31\u0e14\u0e1e\u0e25\u0e21\u0e32\u0e13\u0e35\u0e22\u0e4c", "name:en": "Wat Phon Mani", "name:th": "\u0e27\u0e31\u0e14\u0e1e\u0e25\u0e21\u0e13\u0e35\u0e22\u0e4c", "religion": "buddhist", "wikidata": "Q100698828", "wikipedia": "th:\u0e27\u0e31\u0e14\u0e1e\u0e25\u0e21\u0e32\u0e19\u0e35\u0e22\u0e4c"}}, {"type": "node", "id": 6047924585, "lat": 13.7387202, "lon": 100.796958, "tags": {"amenity": "cafe", "name:en": "Totti Bike Park Coffee", "opening_hours": "Mo-Su 08:00-17:00"}}, {"type": "node", "id": 6051103586, "lat": 13.7189511, "lon": 100.7640073, "tags": {"name": "Gold Airport Suites", "phone": "+66-99 285 1953", "tourism": "hotel"}}, {"type": "node", "id": 6542017221, "lat": 13.7235534, "lon": 100.7538021, "tags": {"name": "Lilac Relax-Residence, Chapter 2", "tourism": "hotel"}}, {"type": "node", "id": 6604775095, "lat": 13.7242195, "lon": 100.7528653, "tags": {"name:en": "Catfish Farm", "tourism": "attraction"}}, {"type": "node", "id": 6753255808, "lat": 13.7235985, "lon": 100.753054, "tags": {"airconditioned": "yes", "amenity": "cafe", "internet_access": "wlan", "internet_access:fee": "no", "name": "Catch up Cafe", "outdoor_seating": "yes"}}, {"type": "node", "id": 6789721685, "lat": 13.7221599, "lon": 100.7750868, "tags": {"addr:street": "\u0e16\u0e19\u0e19\u0e25\u0e32\u0e14\u0e01\u0e23\u0e30\u0e1a\u0e31\u0e07", "amenity": "restaurant", "name": "\u0e1b\u0e49\u0e32\u0e41\u0e01\u0e49\u0e27 \u0e44\u0e01\u0e48\u0e22\u0e48\u0e32\u0e07\u0e2b\u0e19\u0e31\u0e07\u0e01\u0e23\u0e2d\u0e1a", "name:en": "Krua Pa Keaw", "opening_hours": "Mo-Su 09:00-20:00"}}, {"type": "node", "id": 7155590485, "lat": 13.7491702, "lon": 100.7798791, "tags": {"addr:postcode": "10520", "amenity": "restaurant", "cuisine": "thai", "name:en": "Sabai Sabai", "phone": "02 360 6050"}}, {"type": "node", "id": 7319610185, "lat": 13.7187281, "lon": 100.772209, "tags": {"name": "P House", "tourism": "hotel"}}, {"type": "node", "id": 7321383285, "lat": 13.7179292, "lon": 100.7723025, "tags": {"name": "P House Apartment", "tourism": "hotel"}}, {"type": "node", "id": 7373845685, "lat": 13.7232419, "lon": 100.7538746, "tags": {"name:en": "Phenix Hotel", "tourism": "hotel"}}, {"type": "node", "id": 8068630501, "lat": 13.721958, "lon": 100.7644051, "tags": {"addr:city": "\u0e25\u0e32\u0e14\u0e01\u0e23\u0e30\u0e1a\u0e31\u0e07", "addr:housenumber": "1533/8", "addr:postcode": "10520", "addr:street": "\u0e16\u0e19\u0e19\u0e25\u0e32\u0e14\u0e01\u0e23\u0e30\u0e1a\u0e31\u0e07", "amenity": "restaurant", "cuisine": "international", "name": "\u0e40\u0e08\u0e2d\u0e19\u0e35\u0e48 journey.caf\u00e9.eatery.bar", "name:th": "\u0e40\u0e08\u0e2d\u0e19\u0e35\u0e48", "opening_hours": "Mo-Su 07:00-24:00", "phone": "0619496288", "website": "www.facebook.com/journey.cafe.eatery.bar/"}}, {"type": "node", "id": 8287376117, "lat": 13.7213283, "lon": 100.7658257, "tags": {"amenity": "restaurant", "cuisine": "thai", "name:en": "local food"}}, {"type": "node", "id": 9666882464, "lat": 13.7271949, "lon": 100.7650425, "tags": {"amenity": "restaurant", "cuisine": "sushi", "name": "\u0e2a\u0e16\u0e32\u0e19\u0e35\u0e1a\u0e49\u0e32\u0e19\u0e0b\u0e39\u0e0a\u0e34"}}, {"type": "node", "id": 9666882465, "lat": 13.7271933, "lon": 100.7650213, "tags": {"amenity": "restaurant", "cuisine": "thai", "name": "\u0e1a\u0e49\u0e32\u0e19\u0e02\u0e49\u0e32\u0e27\u0e0b\u0e2d\u0e22"}}, {"type": "node", "id": 9703135017, "lat": 13.7214225, "lon": 100.765002, "tags": {"name:en": "Morn-Ing Hostel", "tourism": "hostel"}}, {"type": "node", "id": 9869998096, "lat": 13.7273709, "lon": 100.7645463, "tags": {"amenity": "restaurant", "cuisine": "korean", "name": "Washi Korean Restaurant", "opening_hours:signed": "no"}}, {"type": "node", "id": 9869998102, "lat": 13.7261741, "lon": 100.7645395, "tags": {"amenity": "restaurant", "name": "\u0e02\u0e49\u0e32\u0e27\u0e44\u0e02\u0e48\u0e40\u0e08\u0e35\u0e22\u0e27\u0e17\u0e23\u0e07\u0e40\u0e04\u0e23\u0e37\u0e48\u0e2d\u0e07", "opening_hours:signed": "no"}}, {"type": "node", "id": 9869998110, "lat": 13.726167, "lon": 100.7645394, "tags": {"air_conditioning": "no", "amenity": "restaurant", "name": "\u0e23\u0e49\u0e32\u0e19\u0e0a\u0e21\u0e1e\u0e39 \u0e19\u0e21\u0e2a\u0e14 & \u0e1b\u0e31\u0e07\u0e40\u0e22\u0e47\u0e19", "opening_hours": "Mo-Su 08:30-20:00", "wheelchair": "no"}}, {"type": "node", "id": 9869998116, "lat": 13.7268437, "lon": 100.7645481, "tags": {"amenity": "restaurant", "check_date": "2024-08-15", "delivery": "yes", "name": "\u0e0a\u0e49\u0e2d\u0e19\u0e01\u0e30\u0e2a\u0e49\u0e2d\u0e21", "opening_hours": "09:00-23:00", "phone": "+66 64 926 4261", "wheelchair": "no"}}, {"type": "node", "id": 9936956748, "lat": 13.7272201, "lon": 100.7643414, "tags": {"amenity": "restaurant", "name": "\u0e2a\u0e2d\u0e07\u0e42\u0e17\u0e19 \u0e2b\u0e21\u0e35\u0e48 \u0e40\u0e01\u0e35\u0e4a\u0e22\u0e27", "opening_hours:signed": "no", "phone": "+66 81 777 7968"}}, {"type": "node", "id": 9936956752, "lat": 13.7250414, "lon": 100.7643646, "tags": {"amenity": "restaurant", "name": "\u0e23\u0e49\u0e32\u0e19\u0e1b\u0e49\u0e32\u0e17\u0e34\u0e1e\u0e22\u0e4c", "opening_hours:signed": "no"}}, {"type": "node", "id": 9936956754, "lat": 13.7249217, "lon": 100.76459, "tags": {"amenity": "restaurant", "name": "\u0e23\u0e49\u0e32\u0e19\u0e1b\u0e34\u0e48\u0e19\u0e42\u0e15", "opening_hours": "PH,Mo-Su 00:00-22:00"}}, {"type": "node", "id": 9936956756, "lat": 13.7270517, "lon": 100.764349, "tags": {"amenity": "restaurant", "name": "\u0e01\u0e4b\u0e27\u0e22\u0e40\u0e15\u0e35\u0e4b\u0e22\u0e27\u0e15\u0e49\u0e21\u0e22\u0e33\u0e2b\u0e21\u0e39\u0e40\u0e14\u0e49\u0e07", "opening_hours:signed": "no"}}, {"type": "node", "id": 9936956757, "lat": 13.725357, "lon": 100.7642842, "tags": {"amenity": "restaurant", "name": "\u0e23\u0e49\u0e32\u0e19\u0e21\u0e38\u0e21\u0e2d\u0e23\u0e48\u0e2d\u0e22 by \u0e41\u0e21\u0e48\u0e13\u0e35", "opening_hours": "10:00-19:30", "phone": "+66 81 936 4083;+66 96 718 2069;+66 98 251 9047"}}, {"type": "node", "id": 9936956760, "lat": 13.7265334, "lon": 100.7642613, "tags": {"amenity": "restaurant", "name": "\u0e04\u0e23\u0e31\u0e27\u0e43\u0e1a\u0e40\u0e1f\u0e34\u0e23\u0e4c\u0e19 RNP", "opening_hours:signed": "no"}}, {"type": "node", "id": 9939801434, "lat": 13.7274038, "lon": 100.769535, "tags": {"amenity": "restaurant", "name": "\u0e02\u0e49\u0e32\u0e27\u0e44\u0e02\u0e48\u0e40\u0e08\u0e35\u0e22\u0e27\u0e17\u0e23\u0e07\u0e40\u0e04\u0e23\u0e37\u0e48\u0e2d\u0e07"}}, {"type": "node", "id": 10250526654, "lat": 13.7170562, "lon": 100.7640954, "tags": {"internet_access": "yes", "name": "Ploy khumthong Boutique Resort", "tourism": "hotel"}}, {"type": "node", "id": 10763299051, "lat": 13.7234259, "lon": 100.7806214, "tags": {"amenity": "restaurant", "check_date": "2023-09-23", "name": "\u0e25\u0e07\u0e2b\u0e21\u0e49\u0e2d\u0e2a\u0e38\u0e01\u0e35\u0e49 \u0e25\u0e32\u0e14\u0e01\u0e23\u0e30\u0e1a\u0e31\u0e07", "opening_hours": "12:00-24:00"}}, {"type": "node", "id": 10796530672, "lat": 13.7203047, "lon": 100.7685656, "tags": {"addr:city": "\u0e01\u0e23\u0e38\u0e07\u0e40\u0e17\u0e1e\u0e21\u0e2b\u0e32\u0e19\u0e04\u0e23", "addr:housenumber": "1544", "addr:postcode": "10520", "addr:street": "\u0e0b\u0e2d\u0e22\u0e25\u0e32\u0e14\u0e01\u0e23\u0e30\u0e1a\u0e31\u0e07 42/3 \u0e16\u0e19\u0e19\u0e25\u0e32\u0e14\u0e01\u0e23\u0e30\u0e1a\u0e31\u0e07", "amenity": "restaurant", "cuisine": "thai", "diet:local": "yes", "name": "\u0e2e\u0e49\u0e32\u0e19\u0e02\u0e49\u0e32\u0e27\u0e0b\u0e2d\u0e22\u0e40\u0e08\u0e35\u0e22\u0e07\u0e43\u0e2b\u0e21\u0e48 Kaosoi CNX", "opening_hours": "Mo-Su 11:00-23:00", "phone": "+66616697169", "website": "https://www.facebook.com/kaosoi.cnx"}}, {"type": "node", "id": 10989111667, "lat": 13.7275143, "lon": 100.7706413, "tags": {"amenity": "restaurant", "check_date:opening_hours": "2023-07-05", "name": "\u0e25\u0e38\u0e07\u0e42\u0e25\u0e48\u0e2d\u0e32\u0e2b\u0e32\u0e23\u0e15\u0e32\u0e21\u0e2a\u0e31\u0e48\u0e07", "opening_hours:signed": "no"}}, {"type": "node", "id": 10989111670, "lat": 13.7275006, "lon": 100.7707967, "tags": {"amenity": "cafe", "check_date:opening_hours": "2023-07-05", "name": "Sum Fruit", "opening_hours:signed": "no"}}, {"type": "node", "id": 10989111675, "lat": 13.7271674, "lon": 100.7706745, "tags": {"amenity": "restaurant", "check_date:opening_hours": "2023-07-05", "name": "\u0e23\u0e49\u0e32\u0e19 P'a \u0e2d\u0e32\u0e2b\u0e32\u0e23\u0e15\u0e32\u0e21\u0e2a\u0e31\u0e48\u0e07", "opening_hours:signed": "no"}}, {"type": "node", "id": 10989111676, "lat": 13.7276716, "lon": 100.7706366, "tags": {"amenity": "restaurant", "check_date:opening_hours": "2023-07-05", "name": "\u0e01\u0e4b\u0e27\u0e22\u0e40\u0e15\u0e35\u0e4b\u0e22\u0e27\u0e44\u0e01\u0e48\u0e21\u0e30\u0e23\u0e30", "opening_hours:signed": "no"}}, {"type": "node", "id": 10989111680, "lat": 13.7277103, "lon": 100.7706359, "tags": {"amenity": "restaurant", "check_date:opening_hours": "2023-07-05", "name": "\u0e23\u0e49\u0e32\u0e19\u0e25\u0e38\u0e07\u0e40\u0e15\u0e35\u0e49\u0e22\u0e25\u0e32\u0e1a\u0e2d\u0e35\u0e2a\u0e32\u0e19\u0e23\u0e2a\u0e40\u0e14\u0e47\u0e14 (\u0e0b\u0e2d\u0e22\u0e40\u0e01\u0e01\u0e35\u0e07\u0e32\u0e21 1)", "opening_hours:signed": "no"}}, {"type": "node", "id": 10989111682, "lat": 13.7275555, "lon": 100.770796, "tags": {"amenity": "restaurant", "check_date:opening_hours": "2023-07-05", "name": "\u0e23\u0e49\u0e32\u0e19\u0e19\u0e49\u0e32\u0e44\u0e01\u0e48\u0e44\u0e02\u0e48\u0e19\u0e38\u0e48\u0e21", "opening_hours:signed": "no"}}, {"type": "node", "id": 11013367757, "lat": 13.7254698, "lon": 100.7799697, "tags": {"access": "yes", "historic": "monument", "name": "\u0e2d\u0e19\u0e38\u0e2a\u0e32\u0e27\u0e23\u0e35\u0e22\u0e4c\u0e40\u0e08\u0e49\u0e32\u0e1e\u0e23\u0e30\u0e22\u0e32\u0e2a\u0e38\u0e23\u0e27\u0e07\u0e29\u0e4c\u0e44\u0e27\u0e22\u0e27\u0e31\u0e12\u0e19\u0e4c (\u0e27\u0e23 \u0e1a\u0e38\u0e19\u0e19\u0e32\u0e04)", "name:en": "Monument of Chaophraya Surawong Waiyawat", "name:th": "\u0e2d\u0e19\u0e38\u0e2a\u0e32\u0e27\u0e23\u0e35\u0e22\u0e4c\u0e40\u0e08\u0e49\u0e32\u0e1e\u0e23\u0e30\u0e22\u0e32\u0e2a\u0e38\u0e23\u0e27\u0e07\u0e29\u0e4c\u0e44\u0e27\u0e22\u0e27\u0e31\u0e12\u0e19\u0e4c (\u0e27\u0e23 \u0e1a\u0e38\u0e19\u0e19\u0e32\u0e04)"}}, {"type": "node", "id": 11013367762, "lat": 13.7261991, "lon": 100.7825387, "tags": {"access": "yes", "historic": "monument", "name": "\u0e2d\u0e19\u0e38\u0e2a\u0e32\u0e27\u0e23\u0e35\u0e22\u0e4c\u0e2d\u0e32\u0e08\u0e32\u0e23\u0e22\u0e4c \u0e14\u0e23.\u0e1b\u0e34\u0e0f\u0e10\u0e30 \u0e1a\u0e38\u0e19\u0e19\u0e32\u0e04"}}, {"type": "node", "id": 11242732391, "lat": 13.7277491, "lon": 100.7703881, "tags": {"amenity": "cafe", "name": "Decisive Cafe & Film Lab", "opening_hours": "10:30-19:30", "wheelchair": "no"}}, {"type": "node", "id": 11308682555, "lat": 13.7271499, "lon": 100.7658164, "tags": {"amenity": "cafe", "cafe": "board_game", "contact:instagram": "luck.and.roll", "name": "Luck and Roll"}}, {"type": "node", "id": 11462301657, "lat": 13.7096994, "lon": 100.7784028, "tags": {"amenity": "cafe", "check_date": "2025-01-19", "cuisine": "coffee_shop", "name": "Inthanin Coffee", "opening_hours": "06:00-21:00", "outdoor_seating": "yes", "payment:cash": "yes", "payment:credit_cards": "yes", "payment:debit_cards": "yes"}}, {"type": "node", "id": 11462301658, "lat": 13.7097746, "lon": 100.7781014, "tags": {"amenity": "cafe", "brand": "\u0e04\u0e32\u0e40\u0e1f\u0e48 \u0e2d\u0e40\u0e21\u0e0b\u0e2d\u0e19", "brand:en": "Caf\u00e9 Amazon", "brand:th": "\u0e04\u0e32\u0e40\u0e1f\u0e48 \u0e2d\u0e40\u0e21\u0e0b\u0e2d\u0e19", "brand:wikidata": "Q43247503", "cuisine": "coffee_shop", "name": "\u0e04\u0e32\u0e40\u0e1f\u0e48 \u0e2d\u0e40\u0e21\u0e0b\u0e2d\u0e19", "name:en": "Caf\u00e9 Amazon", "name:th": "\u0e04\u0e32\u0e40\u0e1f\u0e48 \u0e2d\u0e40\u0e21\u0e0b\u0e2d\u0e19", "opening_hours": "Mo-Su 07:00-20:00", "takeaway": "yes"}}, {"type": "node", "id": 11462301659, "lat": 13.7099621, "lon": 100.7780627, "tags": {"amenity": "cafe", "name": "True Coffee", "opening_hours": "Mo-Su 07:00-21:00"}}, {"type": "node", "id": 11462301660, "lat": 13.7099569, "lon": 100.7782019, "tags": {"amenity": "restaurant", "branch": "Happy & Healthy Bike Lane (Skylane)", "name": "Acai Story", "opening_hours": "Mo-Su 07:30-20:30"}}, {"type": "node", "id": 11462488494, "lat": 13.7100661, "lon": 100.7777973, "tags": {"amenity": "cafe", "name": "Rideberry", "opening_hours": "Mo-Su 06:15-21:00"}}, {"type": "node", "id": 11462488555, "lat": 13.7096849, "lon": 100.7790336, "tags": {"amenity": "cafe", "name": "True Sphere", "opening_hours": "Mo-Su 07:00-20:00"}}, {"type": "node", "id": 11462497382, "lat": 13.7097927, "lon": 100.778745, "tags": {"amenity": "restaurant", "name": "ThaiBev Lounge", "opening_hours": "Mo-Su 06:00-21:00"}}, {"type": "node", "id": 11462599606, "lat": 13.7098099, "lon": 100.777731, "tags": {"amenity": "cafe", "name": "Power Drink"}}, {"type": "node", "id": 11462599607, "lat": 13.7098439, "lon": 100.7777405, "tags": {"amenity": "restaurant", "cuisine": "thai", "name": "Goden Spoon Kitchen"}}, {"type": "node", "id": 11462599608, "lat": 13.7098739, "lon": 100.7777452, "tags": {"amenity": "restaurant", "cuisine": "steak_house", "name": "I Am Steak The Best Is Here"}}, {"type": "node", "id": 11462599609, "lat": 13.7099047, "lon": 100.7777542, "tags": {"amenity": "restaurant", "cuisine": "thai", "name": "Patta"}}, {"type": "node", "id": 11462599610, "lat": 13.7099388, "lon": 100.7777637, "tags": {"amenity": "restaurant", "cuisine": "thai", "name": "Mommy Taste"}}, {"type": "node", "id": 11462599611, "lat": 13.7099734, "lon": 100.7777718, "tags": {"amenity": "restaurant", "cuisine": "thai", "name": "RawangThang"}}, {"type": "node", "id": 11462599612, "lat": 13.7100047, "lon": 100.7777827, "tags": {"amenity": "restaurant", "cuisine": "thai", "name": "Pad Thai Ekkamai"}}, {"type": "node", "id": 11462599613, "lat": 13.710037, "lon": 100.7777898, "tags": {"amenity": "cafe", "name": "Fresh Fruit"}}, {"type": "node", "id": 11462599614, "lat": 13.7100973, "lon": 100.7778064, "tags": {"amenity": "cafe", "name": "Gold Crown"}}, {"type": "node", "id": 11462599615, "lat": 13.7101236, "lon": 100.7778116, "tags": {"amenity": "cafe", "name": "100 Plus"}}, {"type": "node", "id": 11491927074, "lat": 13.7093856, "lon": 100.7800306, "tags": {"board_type": "notice", "information": "board", "tourism": "information"}}, {"type": "node", "id": 11545519069, "lat": 13.719449, "lon": 100.7537348, "tags": {"name:en": "yam yen hostel", "tourism": "hostel"}}, {"type": "node", "id": 11693409272, "lat": 13.7399626, "lon": 100.7677576, "tags": {"amenity": "restaurant", "name": "\u0e1b\u0e49\u0e32\u0e41\u0e21\u0e48\u0e2d\u0e49\u0e2d\u0e22", "name:th": "\u0e1b\u0e49\u0e32\u0e41\u0e21\u0e48\u0e2d\u0e49\u0e2d\u0e22"}}, {"type": "node", "id": 11693409289, "lat": 13.7408711, "lon": 100.7676969, "tags": {"amenity": "cafe", "name": "\u0e21\u0e35\u0e15\u0e31\u0e07 Coffee"}}, {"type": "node", "id": 11843043036, "lat": 13.7205384, "lon": 100.7949287, "tags": {"amenity": "restaurant"}}, {"type": "node", "id": 11880870069, "lat": 13.7455946, "lon": 100.7574386, "tags": {"amenity": "restaurant", "cuisine": "noodle", "name": "\u0e40\u0e15\u0e35\u0e4b\u0e22\u0e27\u0e1a\u0e31\u0e07"}}, {"type": "node", "id": 11885284369, "lat": 13.7197139, "lon": 100.7757855, "tags": {"addr:street": "Lat Krabang 46/4", "name:en": "Thong Ta Resort", "tourism": "hotel"}}, {"type": "node", "id": 11942066195, "lat": 13.7220126, "lon": 100.766003, "tags": {"amenity": "restaurant", "check_date": "2024-05-29", "cuisine": "steak_house", "name": "\u0e2a\u0e40\u0e15\u0e47\u0e01\u0e25\u0e38\u0e07\u0e2b\u0e19\u0e27\u0e14 \u0e2a\u0e32\u0e02\u0e32\u0e25\u0e32\u0e14\u0e01\u0e23\u0e30\u0e1a\u0e31\u0e07"}}, {"type": "node", "id": 12516843543, "lat": 13.7242112, "lon": 100.7884039, "tags": {"amenity": "marketplace", "name": "\u0e15\u0e25\u0e32\u0e14\u0e40\u0e01\u0e48\u0e32\u0e2b\u0e31\u0e27\u0e15\u0e30\u0e40\u0e02\u0e49", "name:en": "Hua Takhe Old Market", "name:th": "\u0e15\u0e25\u0e32\u0e14\u0e40\u0e01\u0e48\u0e32\u0e2b\u0e31\u0e27\u0e15\u0e30\u0e40\u0e02\u0e49"}}, {"type": "way", "id": 59283338, "nodes": [735096417, 735096416, 735096418, 735096419, 11078295473, 735113885, 735113891, 735113875, 735096417], "tags": {"alt_name": "\u0e2a\u0e27\u0e19\u0e25\u0e32\u0e14\u0e01\u0e23\u0e30\u0e1a\u0e31\u0e07", "alt_name:en": "Lat Krabang Park", "alt_name:th": "\u0e2a\u0e27\u0e19\u0e25\u0e32\u0e14\u0e01\u0e23\u0e30\u0e1a\u0e31\u0e07", "leisure": "park", "name": "\u0e2a\u0e27\u0e19\u0e1e\u0e23\u0e30\u0e19\u0e04\u0e23", "name:en": "Phra Nakhon Park", "name:th": "\u0e2a\u0e27\u0e19\u0e1e\u0e23\u0e30\u0e19\u0e04\u0e23", "opening_hours": "Mo-Su 05:00-21:00", "website": "http://203.155.220.217/office/ppdd/publicpark/thai/2011/park13.asp"}}, {"type": "way", "id": 265596517, "nodes": [2712349002, 2712349003, 2712349004, 2712349027, 2712349024, 2712349026, 2712349002], "tags": {"addr:district": "\u0e25\u0e32\u0e14\u0e01\u0e23\u0e30\u0e1a\u0e31\u0e07", "addr:postcode": "10520", "addr:province": "\u0e01\u0e23\u0e38\u0e07\u0e40\u0e17\u0e1e\u0e21\u0e2b\u0e32\u0e19\u0e04\u0e23", "amenity": "restaurant", "building": "yes", "check_date:opening_hours": "2023-09-08", "name": "\u0e42\u0e23\u0e07\u0e2d\u0e32\u0e2b\u0e32\u0e23 \u0e04\u0e13\u0e30\u0e27\u0e34\u0e17\u0e22\u0e32\u0e28\u0e32\u0e2a\u0e15\u0e23\u0e4c", "opening_hours:signed": "no"}}, {"type": "way", "id": 265602180, "nodes": [2712386213, 2712386217, 2712386214, 2712386215, 2712386216, 2712386213], "tags": {"leisure": "park"}}, {"type": "way", "id": 290104682, "nodes": [2936392669, 2936392673, 2936392670, 2936392671, 2936392676, 2936392672, 2936392669], "tags": {"addr:district": "\u0e25\u0e32\u0e14\u0e01\u0e23\u0e30\u0e1a\u0e31\u0e07", "addr:housenumber": "1675/1", "addr:postcode": "10520", "addr:province": "\u0e01\u0e23\u0e38\u0e07\u0e40\u0e17\u0e1e\u0e21\u0e2b\u0e32\u0e19\u0e04\u0e23", "addr:street": "Soi Latkrabang 11/13", "building": "yes", "contact:phone": "+662 327 4444", "contact:website": "www.suvarnabhumisuite.com", "name": "Suvarnabhumi Suite", "name:th": "\u0e42\u0e23\u0e07\u0e41\u0e23\u0e21\u0e2a\u0e38\u0e27\u0e23\u0e23\u0e13\u0e20\u0e39\u0e21\u0e34\u0e2a\u0e27\u0e35\u0e17", "source": "survey", "tourism": "hotel"}}, {"type": "way", "id": 309557500, "nodes": [3149002279, 3149002280, 3149002281, 3149002282, 3149002279], "tags": {"addr:district": "\u0e25\u0e32\u0e14\u0e01\u0e23\u0e30\u0e1a\u0e31\u0e07", "addr:postcode": "10520", "addr:province": "\u0e01\u0e23\u0e38\u0e07\u0e40\u0e17\u0e1e\u0e21\u0e2b\u0e32\u0e19\u0e04\u0e23", "amenity": "cafe", "building": "yes", "name": "\u0e42\u0e23\u0e07\u0e2d\u0e32\u0e2b\u0e32\u0e23 \u0e15\u0e36\u0e01 L", "opening_hours:signed": "no"}}, {"type": "way", "id": 309919518, "nodes": [3152519528, 3152519529, 10593194434, 10593194436, 10593194437, 3152519530, 10593194426, 10593194429, 10593194422, 10593194425, 10593194418, 10593194421, 10593194433, 3152519531, 3152519528], "tags": {"addr:district": "\u0e25\u0e32\u0e14\u0e01\u0e23\u0e30\u0e1a\u0e31\u0e07", "addr:postcode": "10520", "addr:province": "\u0e01\u0e23\u0e38\u0e07\u0e40\u0e17\u0e1e\u0e21\u0e2b\u0e32\u0e19\u0e04\u0e23", "amenity": "cafe", "building": "yes", "name": "\u0e42\u0e23\u0e07\u0e2d\u0e32\u0e2b\u0e32\u0e23 \u0e15\u0e36\u0e01\u0e1e\u0e23\u0e30\u0e40\u0e17\u0e1e\u0e2f", "opening_hours:signed": "no"}}, {"type": "way", "id": 314205127, "nodes": [3202523609, 3202523610, 3202523611, 3202523612, 3202523609], "tags": {"addr:district": "\u0e25\u0e32\u0e14\u0e01\u0e23\u0e30\u0e1a\u0e31\u0e07", "addr:postcode": "10520", "addr:province": "\u0e01\u0e23\u0e38\u0e07\u0e40\u0e17\u0e1e\u0e21\u0e2b\u0e32\u0e19\u0e04\u0e23", "amenity": "cafe", "area": "yes", "building": "yes", "internet_access": "wlan", "name": "\u0e42\u0e23\u0e07\u0e2d\u0e32\u0e2b\u0e32\u0e23 \u0e04\u0e13\u0e30\u0e40\u0e17\u0e04\u0e42\u0e19\u0e42\u0e25\u0e22\u0e35\u0e2a\u0e32\u0e23\u0e2a\u0e19\u0e40\u0e17\u0e28", "name:en": "Information Technology Cafeteria"}}, {"type": "way", "id": 321528547, "nodes": [1688189192, 11647511596, 11647511595, 3282887339, 3282887329, 7308680185, 3282887317, 3282886541, 11647511592, 3282887316, 3580070909, 3580070923, 11647511594, 1688189192], "tags": {"amenity": "place_of_worship", "area": "yes", "denomination": "thai_mahanikaya", "name": "\u0e27\u0e31\u0e14\u0e25\u0e32\u0e14\u0e01\u0e23\u0e30\u0e1a\u0e31\u0e07", "name:en": "Wat Lat Krabang", "name:th": "\u0e27\u0e31\u0e14\u0e25\u0e32\u0e14\u0e01\u0e23\u0e30\u0e1a\u0e31\u0e07", "old_name:th": "\u0e27\u0e31\u0e14\u0e2a\u0e32\u0e21", "religion": "buddhist", "source": "Bing", "wikidata": "Q64755601", "wikimedia_commons": "Category:Wat Lat Krabang, Bangkok", "wikipedia": "th:\u0e27\u0e31\u0e14\u0e25\u0e32\u0e14\u0e01\u0e23\u0e30\u0e1a\u0e31\u0e07"}}, {"type": "way", "id": 340713844, "nodes": [3479636867, 6753255814, 3479636866, 3479636864, 3479636865, 3479636867], "tags": {"access": "customers", "contact:phone": "+66 273 714 46", "landuse": "commercial", "name": "Phoenix Hotel", "source": "Bing", "tourism": "hotel", "website": "http://www.phoenixhotelbangkok.com/"}}, {"type": "way", "id": 345530159, "nodes": [3521693208, 3521693209, 3521693210, 3521693211, 3521693208], "tags": {"amenity": "marketplace", "name": "\u0e15\u0e25\u0e32\u0e14\u0e19\u0e31\u0e14\u0e2a\u0e38\u0e27\u0e23\u0e23\u0e13\u0e20\u0e39\u0e21\u0e34", "name:en": "Suvarnabhumi Flea Market", "name:th": "\u0e15\u0e25\u0e32\u0e14\u0e19\u0e31\u0e14\u0e2a\u0e38\u0e27\u0e23\u0e23\u0e13\u0e20\u0e39\u0e21\u0e34"}}, {"type": "way", "id": 345531351, "nodes": [3521702444, 3521702449, 3521702450, 3521702441, 3521702444], "tags": {"landuse": "brownfield", "name:en": "Mahanakhon Floating Market", "tourism": "attraction"}}, {"type": "way", "id": 421580660, "nodes": [2473619176, 4213314671, 4213314670, 4213314659, 2473619176], "tags": {"area": "yes", "internet_access": "wlan", "name": "The Great Residence", "tourism": "hotel", "website": "http://www.greatresidencehotel.com/"}}, {"type": "way", "id": 475087560, "nodes": [4688962948, 4688962949, 4688962950, 4688962951, 4688962952, 4688962953, 4688962954, 4232541922, 4232530893, 4688962955, 4688962956, 4232530873, 4232530907, 4232530891, 4232530994, 5673995635, 4232529869, 4688962948], "tags": {"amenity": "place_of_worship", "denomination": "thai_mahanikaya", "name": "\u0e27\u0e31\u0e14\u0e2b\u0e31\u0e27\u0e04\u0e39\u0e49", "name:en": "Wat Hua Koo", "name:th": "\u0e27\u0e31\u0e14\u0e2b\u0e31\u0e27\u0e04\u0e39\u0e49", "religion": "buddhist", "wikidata": "Q56528961", "wikimedia_commons": "Category:Wat Hua Ku", "wikipedia": "th:\u0e27\u0e31\u0e14\u0e2b\u0e31\u0e27\u0e04\u0e39\u0e49"}}, {"type": "way", "id": 488262147, "nodes": [4805856810, 11655652632, 11655652633, 4805856811, 4805856812, 4805856813, 4805856814, 4805856815, 4805856810], "tags": {"amenity": "place_of_worship", "denomination": "thai_mahanikaya", "name": "\u0e27\u0e31\u0e14\u0e1a\u0e33\u0e23\u0e38\u0e07\u0e23\u0e37\u0e48\u0e19", "name:en": "Wat Bamrung Ruen", "name:th": "\u0e27\u0e31\u0e14\u0e1a\u0e33\u0e23\u0e38\u0e07\u0e23\u0e37\u0e48\u0e19", "religion": "buddhist", "wikidata": "Q100698833", "wikipedia": "th:\u0e27\u0e31\u0e14\u0e1a\u0e33\u0e23\u0e38\u0e07\u0e23\u0e37\u0e48\u0e19"}}, {"type": "way", "id": 516308735, "nodes": [5040465501, 5040465502, 5040465503, 5040465504, 5040465501], "tags": {"area": "yes", "artwork_type": "statue", "name": "\u0e1e\u0e23\u0e30\u0e23\u0e39\u0e1b", "tourism": "artwork"}}, {"type": "way", "id": 516308736, "nodes": [5040465505, 5040465487, 5040465500, 12240584147, 12240584152, 5040465506, 5504399829, 3203038907, 12240584108, 5504399828, 12240584107, 12240584106, 3203038905, 12240584105, 3203038904, 3203038903, 5040465507, 12240584104, 3203038902, 12240581395, 5040465508, 12240581397, 10603518264, 3203038901, 12240584103, 12240584109, 5039570997, 12240584102, 10213786767, 12240581398, 12240584101, 12240581400, 12240581399, 12240581394, 12240581393, 12240584117, 12240584154, 12240584155, 12240584156, 12240584157, 5040465505], "tags": {"leisure": "park", "name": "\u0e25\u0e32\u0e19\u0e1e\u0e23\u0e30\u0e08\u0e2d\u0e21"}}, {"type": "way", "id": 516314058, "nodes": [5040496465, 5040496466, 5040496467, 12286715093, 5040496468, 12286715092, 5302767323, 5040496465], "tags": {"amenity": "place_of_worship", "denomination": "thai_mahanikaya", "loc_name:th": "\u0e27\u0e31\u0e14\u0e2a\u0e35\u0e48", "name": "\u0e27\u0e31\u0e14\u0e1b\u0e25\u0e39\u0e01\u0e28\u0e23\u0e31\u0e17\u0e18\u0e32", "name:en": "Wat Pluk Sattha", "name:th": "\u0e27\u0e31\u0e14\u0e1b\u0e25\u0e39\u0e01\u0e28\u0e23\u0e31\u0e17\u0e18\u0e32", "religion": "buddhist", "wheelchair": "no", "wikidata": "Q100698829", "wikipedia": "th:\u0e27\u0e31\u0e14\u0e1b\u0e25\u0e39\u0e01\u0e28\u0e23\u0e31\u0e17\u0e18\u0e32"}}, {"type": "way", "id": 518504284, "nodes": [5057725186, 5057725187, 5057725188, 5057725189, 5057725186], "tags": {"addr:district": "\u0e25\u0e32\u0e14\u0e01\u0e23\u0e30\u0e1a\u0e31\u0e07", "addr:housename": "Playlist", "addr:postcode": "10520", "addr:province": "\u0e01\u0e23\u0e38\u0e07\u0e40\u0e17\u0e1e\u0e21\u0e2b\u0e32\u0e19\u0e04\u0e23", "addr:street": "\u0e09\u0e25\u0e2d\u0e07\u0e01\u0e23\u0e38\u0e07 1", "air_conditioning": "yes", "amenity": "cafe", "building": "yes", "building:levels": "6", "name": "Playlist", "opening_hours": "PH,We-Mo 10:00-20:00", "roof:shape": "gabled"}}, {"type": "way", "id": 866145936, "nodes": [8073247417, 8073247421, 8073247418, 8073247419, 8073247420, 8073247417], "tags": {"addr:district": "\u0e25\u0e32\u0e14\u0e01\u0e23\u0e30\u0e1a\u0e31\u0e07", "addr:housenumber": "1533/8", "addr:postcode": "10520", "addr:province": "\u0e01\u0e23\u0e38\u0e07\u0e40\u0e17\u0e1e\u0e21\u0e2b\u0e32\u0e19\u0e04\u0e23", "addr:street": "\u0e16\u0e19\u0e19\u0e25\u0e32\u0e14\u0e01\u0e23\u0e30\u0e1a\u0e31\u0e07", "amenity": "restaurant", "building": "yes", "name": "\u0e40\u0e08\u0e2d\u0e19\u0e35\u0e48 journey.caf\u00e9.eatery.bar", "opening_hours": "Mo-Su 07:00-24:00", "phone": "0619496288", "website": "https://m.facebook.com/journey.cafe.eatery.bar/"}}, {"type": "way", "id": 1049141303, "nodes": [9641661308, 9641661310, 9641661311, 9641661309, 9641661308], "tags": {"addr:district": "\u0e25\u0e32\u0e14\u0e01\u0e23\u0e30\u0e1a\u0e31\u0e07", "addr:postcode": "10520", "addr:province": "\u0e01\u0e23\u0e38\u0e07\u0e40\u0e17\u0e1e\u0e21\u0e2b\u0e32\u0e19\u0e04\u0e23", "amenity": "restaurant", "building": "yes", "name": "\u0e01\u0e4b\u0e27\u0e22\u0e40\u0e15\u0e35\u0e4b\u0e22\u0e27\u0e40\u0e23\u0e37\u0e2d KL 19 \u0e1a\u0e32\u0e17"}}, {"type": "way", "id": 1049505362, "nodes": [9644788300, 9644788301, 9644788302, 9644788303, 9644788300], "tags": {"addr:district": "\u0e25\u0e32\u0e14\u0e01\u0e23\u0e30\u0e1a\u0e31\u0e07", "addr:postcode": "10520", "addr:province": "\u0e01\u0e23\u0e38\u0e07\u0e40\u0e17\u0e1e\u0e21\u0e2b\u0e32\u0e19\u0e04\u0e23", "air_conditioning": "no", "amenity": "restaurant", "building": "yes", "check_date:opening_hours": "2023-11-27", "diet:halal": "no", "diet:kosher": "no", "diet:vegetarian": "no", "indoor_seating": "yes", "name": "\u0e04\u0e23\u0e31\u0e27\u0e1b\u0e49\u0e32\u0e40\u0e25\u0e47\u0e01", "opening_hours:signed": "no", "outdoor_seating": "no", "wheelchair": "yes"}}, {"type": "way", "id": 1049561014, "nodes": [9641679726, 9645329736, 9645329737, 9641679727, 9645329739, 9641679726], "tags": {"addr:district": "\u0e25\u0e32\u0e14\u0e01\u0e23\u0e30\u0e1a\u0e31\u0e07", "addr:postcode": "10520", "addr:province": "\u0e01\u0e23\u0e38\u0e07\u0e40\u0e17\u0e1e\u0e21\u0e2b\u0e32\u0e19\u0e04\u0e23", "amenity": "restaurant", "building": "yes", "check_date:opening_hours": "2023-09-08", "internet_access": "wlan", "name": "Hotto Bun \u0e25\u0e32\u0e14\u0e01\u0e23\u0e30\u0e1a\u0e31\u0e07 \u30db\u30c3\u30c8\u30d0\u30f3", "opening_hours:signed": "no"}}, {"type": "way", "id": 1049561016, "nodes": [9641679727, 9641679721, 9645329738, 9645329739, 9641679727], "tags": {"addr:district": "\u0e25\u0e32\u0e14\u0e01\u0e23\u0e30\u0e1a\u0e31\u0e07", "addr:postcode": "10520", "addr:province": "\u0e01\u0e23\u0e38\u0e07\u0e40\u0e17\u0e1e\u0e21\u0e2b\u0e32\u0e19\u0e04\u0e23", "amenity": "cafe", "building": "yes", "check_date:opening_hours": "2023-09-08", "name": "EIGHT THIRTY-FIVE AM CAFE", "opening_hours": "PH,We-Mo 10:30-21:00"}}, {"type": "way", "id": 1049561017, "nodes": [9645329738, 9645329740, 9641679717, 9641679721, 9645329738], "tags": {"addr:district": "\u0e25\u0e32\u0e14\u0e01\u0e23\u0e30\u0e1a\u0e31\u0e07", "addr:postcode": "10520", "addr:province": "\u0e01\u0e23\u0e38\u0e07\u0e40\u0e17\u0e1e\u0e21\u0e2b\u0e32\u0e19\u0e04\u0e23", "amenity": "restaurant", "building": "retail", "check_date": "2023-07-27", "internet_access": "no", "name": "\u0e42\u0e1f\u0e01\u0e31\u0e2a \u0e2d\u0e32\u0e2b\u0e32\u0e23\u0e15\u0e32\u0e21\u0e2a\u0e31\u0e48\u0e07 \u0e40\u0e08\u0e49\u0e32\u0e40\u0e01\u0e48\u0e32 \u0e40\u0e014", "nohousenumber": "yes", "opening_hours": "Mo-Su 11:00-23:00", "payment:cards": "no", "payment:credit_cards": "no", "payment:debit_cards": "no", "wheelchair": "limited"}}, {"type": "way", "id": 1049561019, "nodes": [9645329740, 9645329745, 9645329742, 9641661316, 9645329740], "tags": {"addr:district": "\u0e25\u0e32\u0e14\u0e01\u0e23\u0e30\u0e1a\u0e31\u0e07", "addr:postcode": "10520", "addr:province": "\u0e01\u0e23\u0e38\u0e07\u0e40\u0e17\u0e1e\u0e21\u0e2b\u0e32\u0e19\u0e04\u0e23", "air_conditioning": "yes", "amenity": "restaurant", "building": "yes", "check_date": "2023-10-06", "check_date:opening_hours": "2023-09-08", "diet:halal": "no", "diet:kosher": "no", "diet:vegetarian": "no", "name": "\u0e2d\u0e34\u0e48\u0e21\u0e40\u0e2d\u0e21 \u0e04\u0e32\u0e40\u0e1f\u0e48", "opening_hours:signed": "no", "wheelchair": "limited"}}, {"type": "way", "id": 1049561021, "nodes": [9645329747, 9645329743, 9641679718, 9645329748, 9645329747], "tags": {"addr:district": "\u0e25\u0e32\u0e14\u0e01\u0e23\u0e30\u0e1a\u0e31\u0e07", "addr:postcode": "10520", "addr:province": "\u0e01\u0e23\u0e38\u0e07\u0e40\u0e17\u0e1e\u0e21\u0e2b\u0e32\u0e19\u0e04\u0e23", "air_conditioning": "yes", "amenity": "restaurant", "building": "yes", "cuisine": "korean", "diet:halal": "no", "diet:kosher": "no", "diet:vegetarian": "no", "name": "SUNBAE Korean Restaurant", "opening_hours": "Mo-Su 12:00-21:00", "wheelchair": "no"}}, {"type": "way", "id": 1049563752, "nodes": [9645353254, 9645353255, 9645353256, 9645353257, 9645353254], "tags": {"addr:district": "\u0e25\u0e32\u0e14\u0e01\u0e23\u0e30\u0e1a\u0e31\u0e07", "addr:postcode": "10520", "addr:province": "\u0e01\u0e23\u0e38\u0e07\u0e40\u0e17\u0e1e\u0e21\u0e2b\u0e32\u0e19\u0e04\u0e23", "air_conditioning": "no", "amenity": "restaurant", "building": "retail", "check_date": "2022-08-08", "diet:halal": "no", "diet:kosher": "no", "diet:vegetarian": "no", "name": "\u0e23\u0e49\u0e32\u0e19\u0e02\u0e49\u0e32\u0e27(\u0e21\u0e31\u0e19)\u0e01\u0e30\u0e40\u0e15\u0e35\u0e4b\u0e22\u0e27 @ \u0e40\u0e01\u0e01\u0e35 3", "opening_hours:signed": "no", "payment:mastercard": "yes", "payment:visa": "yes", "wheelchair": "yes"}}, {"type": "way", "id": 1049719853, "nodes": [9646781244, 9646781245, 9646781246, 9646781247, 9646781244], "tags": {"addr:district": "\u0e25\u0e32\u0e14\u0e01\u0e23\u0e30\u0e1a\u0e31\u0e07", "addr:postcode": "10520", "addr:province": "\u0e01\u0e23\u0e38\u0e07\u0e40\u0e17\u0e1e\u0e21\u0e2b\u0e32\u0e19\u0e04\u0e23", "air_conditioning": "yes", "amenity": "cafe", "building": "yes", "cuisine": "coffee_shop", "diet:halal": "no", "diet:kosher": "no", "diet:vegan": "yes", "diet:vegetarian": "yes", "name": "Inthanin", "opening_hours": "Mo-Su 08:00-19:00", "outdoor_seating": "yes", "wheelchair": "yes"}}, {"type": "way", "id": 1050242686, "nodes": [9651444978, 9651444979, 9709896158, 9709896159, 9651444978], "tags": {"addr:district": "\u0e25\u0e32\u0e14\u0e01\u0e23\u0e30\u0e1a\u0e31\u0e07", "addr:postcode": "10520", "addr:province": "\u0e01\u0e23\u0e38\u0e07\u0e40\u0e17\u0e1e\u0e21\u0e2b\u0e32\u0e19\u0e04\u0e23", "air_conditioning": "no", "amenity": "restaurant", "building": "yes", "cuisine": "steak_house", "diet:halal": "no", "diet:kosher": "no", "diet:vegan": "no", "diet:vegetarian": "yes", "name": "BT Steak Billion", "not:operator:wikidata": "Q593786", "opening_hours": "Mo-Su 16:00-23:00", "phone": "+66 94 338 0444", "wheelchair": "yes"}}, {"type": "way", "id": 1050577706, "nodes": [9651444979, 9654221347, 9709896156, 9709896158, 9651444979], "tags": {"addr:district": "\u0e25\u0e32\u0e14\u0e01\u0e23\u0e30\u0e1a\u0e31\u0e07", "addr:postcode": "10520", "addr:province": "\u0e01\u0e23\u0e38\u0e07\u0e40\u0e17\u0e1e\u0e21\u0e2b\u0e32\u0e19\u0e04\u0e23", "air_conditioning": "yes", "amenity": "restaurant", "building": "yes", "diet:halal": "no", "diet:kosher": "no", "diet:vegan": "yes", "diet:vegetarian": "yes", "name": "\u0e22\u0e33\u0e19\u0e31\u0e27", "opening_hours": "PH,Mo-Su 16:00-23:00", "wheelchair": "yes"}}, {"type": "way", "id": 1050627634, "nodes": [12914091542, 12914091543, 9935540417, 12914091544, 12914091542], "tags": {"addr:district": "\u0e25\u0e32\u0e14\u0e01\u0e23\u0e30\u0e1a\u0e31\u0e07", "addr:housenumber": "579", "addr:postcode": "10520", "addr:province": "\u0e01\u0e23\u0e38\u0e07\u0e40\u0e17\u0e1e\u0e21\u0e2b\u0e32\u0e19\u0e04\u0e23", "addr:subdistrict": "\u0e25\u0e32\u0e14\u0e01\u0e23\u0e30\u0e1a\u0e31\u0e07", "air_conditioning": "no", "amenity": "restaurant", "building": "yes", "changing_table": "no", "delivery": "yes", "diet:halal": "no", "diet:kosher": "no", "diet:vegan": "yes", "diet:vegetarian": "yes", "name": "\u0e02\u0e49\u0e32\u0e27\u0e1c\u0e31\u0e14\u0e01\u0e23\u0e30\u0e17\u0e30\u0e40\u0e2b\u0e25\u0e47\u0e01", "opening_hours": "PH,Mo-Su 11:00-22:00", "outdoor_seating": "yes", "phone": "+66817436197", "takeaway": "yes", "toilets": "no", "wheelchair": "limited"}}, {"type": "way", "id": 1050627637, "nodes": [9654702824, 9654702826, 9654702827, 9654702828, 9654702825, 9654702824], "tags": {"addr:district": "\u0e25\u0e32\u0e14\u0e01\u0e23\u0e30\u0e1a\u0e31\u0e07", "addr:postcode": "10520", "addr:province": "\u0e01\u0e23\u0e38\u0e07\u0e40\u0e17\u0e1e\u0e21\u0e2b\u0e32\u0e19\u0e04\u0e23", "air_conditioning": "no", "amenity": "restaurant", "building": "yes", "cuisine": "steak_house", "diet:halal": "no", "diet:kosher": "no", "diet:vegan": "yes", "diet:vegetarian": "yes", "name": "URBAN STREET Steak", "opening_hours:signed": "no", "wheelchair": "no"}}, {"type": "way", "id": 1051663277, "nodes": [9664334305, 9664334306, 9664334307, 9664334308, 9664334305], "tags": {"addr:district": "\u0e25\u0e32\u0e14\u0e01\u0e23\u0e30\u0e1a\u0e31\u0e07", "addr:postcode": "10520", "addr:province": "\u0e01\u0e23\u0e38\u0e07\u0e40\u0e17\u0e1e\u0e21\u0e2b\u0e32\u0e19\u0e04\u0e23", "air_conditioning": "yes", "amenity": "restaurant", "building": "yes", "name": "Timber Cafe", "opening_hours": "Mo-Su 11:00-22:00"}}, {"type": "way", "id": 1051933979, "nodes": [9664334307, 9666845015, 9666845016, 9664334308, 9664334307], "tags": {"addr:district": "\u0e25\u0e32\u0e14\u0e01\u0e23\u0e30\u0e1a\u0e31\u0e07", "addr:postcode": "10520", "addr:province": "\u0e01\u0e23\u0e38\u0e07\u0e40\u0e17\u0e1e\u0e21\u0e2b\u0e32\u0e19\u0e04\u0e23", "air_conditioning": "yes", "amenity": "restaurant", "building": "yes", "name": "Buta \u0e2b\u0e21\u0e39\u0e22\u0e48\u0e32\u0e07\u0e40\u0e01\u0e32\u0e2b\u0e25\u0e35", "opening_hours": "Mo-Su 011:00-22:00"}}, {"type": "way", "id": 1051935211, "nodes": [9666882460, 9709454708, 9666882461, 9666882462, 9666882463, 9740955333, 9709893349, 9666882460], "tags": {"addr:district": "\u0e25\u0e32\u0e14\u0e01\u0e23\u0e30\u0e1a\u0e31\u0e07", "addr:postcode": "10520", "addr:province": "\u0e01\u0e23\u0e38\u0e07\u0e40\u0e17\u0e1e\u0e21\u0e2b\u0e32\u0e19\u0e04\u0e23", "air_conditioning": "yes", "amenity": "restaurant", "building": "yes", "check_date": "2023-09-11", "cuisine": "japanese", "diet:halal": "yes", "name": "Smooth Japanese Food & Dessert", "opening_hours": "PH,Mo-Su 10:00-22:00", "wheelchair": "no"}}, {"type": "way", "id": 1053218480, "nodes": [9678994175, 9678994176, 9678994177, 9678994178, 9678994175], "tags": {"addr:district": "\u0e25\u0e32\u0e14\u0e01\u0e23\u0e30\u0e1a\u0e31\u0e07", "addr:postcode": "10520", "addr:province": "\u0e01\u0e23\u0e38\u0e07\u0e40\u0e17\u0e1e\u0e21\u0e2b\u0e32\u0e19\u0e04\u0e23", "addr:street": "\u0e09\u0e25\u0e2d\u0e07\u0e01\u0e23\u0e38\u0e07 1", "air_conditioning": "no", "amenity": "restaurant", "building": "yes", "diet:halal": "no", "diet:kosher": "no", "diet:vegetarian": "no", "name": "Food Sugar", "opening_hours": "Mo-Fr,Su 12:00-21:00", "phone": "+66 62 725 7725", "wheelchair": "yes"}}, {"type": "way", "id": 1053225101, "nodes": [9678994175, 9679075393, 9679075394, 9678994176, 9678994175], "tags": {"addr:district": "\u0e25\u0e32\u0e14\u0e01\u0e23\u0e30\u0e1a\u0e31\u0e07", "addr:postcode": "10520", "addr:province": "\u0e01\u0e23\u0e38\u0e07\u0e40\u0e17\u0e1e\u0e21\u0e2b\u0e32\u0e19\u0e04\u0e23", "amenity": "restaurant", "building": "yes", "name": "\u0e04\u0e23\u0e31\u0e27\u0e15\u0e49\u0e19\u0e01\u0e23\u0e30\u0e42\u0e14\u0e19"}}, {"type": "way", "id": 1053225102, "nodes": [9679075394, 9679075395, 9679075396, 9679075393, 9679075394], "tags": {"addr:district": "\u0e25\u0e32\u0e14\u0e01\u0e23\u0e30\u0e1a\u0e31\u0e07", "addr:housenumber": "657", "addr:postcode": "10520", "addr:province": "\u0e01\u0e23\u0e38\u0e07\u0e40\u0e17\u0e1e\u0e21\u0e2b\u0e32\u0e19\u0e04\u0e23", "addr:street": "\u0e09\u0e25\u0e2d\u0e07\u0e01\u0e23\u0e38\u0e07 1", "amenity": "restaurant", "building": "yes", "name": "Sho Ramen"}}, {"type": "way", "id": 1053225103, "nodes": [9679075396, 9680670478, 9680670477, 9679075397, 9679075398, 9680670480, 9679075395, 9679075396], "tags": {"addr:district": "\u0e25\u0e32\u0e14\u0e01\u0e23\u0e30\u0e1a\u0e31\u0e07", "addr:postcode": "10520", "addr:province": "\u0e01\u0e23\u0e38\u0e07\u0e40\u0e17\u0e1e\u0e21\u0e2b\u0e32\u0e19\u0e04\u0e23", "amenity": "restaurant", "building": "yes", "name": "Chick Strong"}}, {"type": "way", "id": 1053225104, "nodes": [9679075398, 9679075399, 9679075400, 9679075397, 9679075398], "tags": {"addr:district": "\u0e25\u0e32\u0e14\u0e01\u0e23\u0e30\u0e1a\u0e31\u0e07", "addr:postcode": "10520", "addr:province": "\u0e01\u0e23\u0e38\u0e07\u0e40\u0e17\u0e1e\u0e21\u0e2b\u0e32\u0e19\u0e04\u0e23", "amenity": "restaurant", "building": "yes", "changing_table": "no", "name": "\u0e23\u0e49\u0e32\u0e19\u0e2a\u0e32\u0e21\u0e0a\u0e31\u0e49\u0e19\u0e17\u0e2d\u0e14\u0e19\u0e49\u0e33\u0e1b\u0e25\u0e32 \u0e1a\u0e34\u0e25\u0e40\u0e25\u0e35\u0e48\u0e22\u0e19\u0e1b\u0e32\u0e23\u0e4c\u0e04", "opening_hours": "Mo-Su 10:00-24:00", "outdoor_seating": "yes", "phone": "+66 98 171 9079;+66 80 662 1571", "takeaway": "yes", "wheelchair": "limited"}}, {"type": "way", "id": 1053225105, "nodes": [9679075401, 9679075400, 9679075399, 9680670486, 9679075402, 9679075401], "tags": {"addr:district": "\u0e25\u0e32\u0e14\u0e01\u0e23\u0e30\u0e1a\u0e31\u0e07", "addr:postcode": "10520", "addr:province": "\u0e01\u0e23\u0e38\u0e07\u0e40\u0e17\u0e1e\u0e21\u0e2b\u0e32\u0e19\u0e04\u0e23", "amenity": "restaurant", "building": "yes", "name": "\u0e23\u0e49\u0e32\u0e19\u0e02\u0e49\u0e32\u0e27\u0e21\u0e31\u0e19\u0e44\u0e01\u0e48\u0e1b\u0e49\u0e32\u0e19\u0e49\u0e2d\u0e22"}}, {"type": "way", "id": 1053225106, "nodes": [9679075402, 9679075403, 9679075404, 9679075401, 9679075402], "tags": {"addr:district": "\u0e25\u0e32\u0e14\u0e01\u0e23\u0e30\u0e1a\u0e31\u0e07", "addr:postcode": "10520", "addr:province": "\u0e01\u0e23\u0e38\u0e07\u0e40\u0e17\u0e1e\u0e21\u0e2b\u0e32\u0e19\u0e04\u0e23", "amenity": "restaurant", "building": "yes", "check_date:opening_hours": "2022-10-06", "name": "\u0e04\u0e23\u0e31\u0e27\u0e44\u0e02\u0e48\u0e40\u0e08\u0e35\u0e22\u0e27 \u0e1a\u0e34\u0e25\u0e40\u0e25\u0e35\u0e48\u0e22\u0e19", "opening_hours:signed": "no"}}, {"type": "way", "id": 1053227533, "nodes": [9679093649, 9679093650, 9679093651, 9679093652, 9679093655, 9679093649], "tags": {"addr:district": "\u0e25\u0e32\u0e14\u0e01\u0e23\u0e30\u0e1a\u0e31\u0e07", "addr:postcode": "10520", "addr:province": "\u0e01\u0e23\u0e38\u0e07\u0e40\u0e17\u0e1e\u0e21\u0e2b\u0e32\u0e19\u0e04\u0e23", "amenity": "restaurant", "building": "yes", "check_date:opening_hours": "2022-08-23", "name": "\u0e02\u0e49\u0e32\u0e27\u0e2b\u0e19\u0e49\u0e32\u0e01\u0e2d\u0e23\u0e34\u0e25\u0e25\u0e32", "opening_hours:signed": "no"}}, {"type": "way", "id": 1053599313, "nodes": [9682535325, 9682535329, 9682535323, 9682535321, 9682535325], "tags": {"addr:district": "\u0e25\u0e32\u0e14\u0e01\u0e23\u0e30\u0e1a\u0e31\u0e07", "addr:postcode": "10520", "addr:province": "\u0e01\u0e23\u0e38\u0e07\u0e40\u0e17\u0e1e\u0e21\u0e2b\u0e32\u0e19\u0e04\u0e23", "air_conditioning": "no", "amenity": "restaurant", "building": "yes", "diet:halal": "no", "diet:kosher": "no", "diet:vegan": "yes", "diet:vegetarian": "yes", "name": "\u0e1c\u0e31\u0e14\u0e44\u0e17\u0e22\u0e04\u0e25\u0e32\u0e2a\u0e2a\u0e34\u0e04 \u0e25\u0e32\u0e14\u0e01\u0e23\u0e30\u0e1a\u0e31\u0e07", "opening_hours:signed": "no", "wheelchair": "no"}}, {"type": "way", "id": 1053599314, "nodes": [9682535327, 9682535325, 9682535321, 9682535332, 9682535327], "tags": {"addr:district": "\u0e25\u0e32\u0e14\u0e01\u0e23\u0e30\u0e1a\u0e31\u0e07", "addr:postcode": "10520", "addr:province": "\u0e01\u0e23\u0e38\u0e07\u0e40\u0e17\u0e1e\u0e21\u0e2b\u0e32\u0e19\u0e04\u0e23", "air_conditioning": "no", "amenity": "restaurant", "building": "yes", "diet:halal": "no", "diet:kosher": "no", "diet:vegetarian": "no", "name": "\u0e23\u0e49\u0e32\u0e19\u0e42\u0e15\u0e49\u0e23\u0e38\u0e48\u0e07 24 \u0e0a\u0e31\u0e48\u0e27\u0e42\u0e21\u0e07", "opening_hours:signed": "no", "wheelchair": "no"}}, {"type": "way", "id": 1053599316, "nodes": [9682535330, 9682535322, 9682535328, 9682535324, 9682535330], "tags": {"addr:district": "\u0e25\u0e32\u0e14\u0e01\u0e23\u0e30\u0e1a\u0e31\u0e07", "addr:postcode": "10520", "addr:province": "\u0e01\u0e23\u0e38\u0e07\u0e40\u0e17\u0e1e\u0e21\u0e2b\u0e32\u0e19\u0e04\u0e23", "air_conditioning": "yes", "amenity": "restaurant", "building": "yes", "diet:halal": "yes", "diet:kosher": "no", "diet:vegan": "no", "diet:vegetarian": "yes", "name": "\u0e01\u0e39 \u0e42\u0e23\u0e15\u0e35\u0e0a\u0e32\u0e0a\u0e31\u0e01", "opening_hours": "PH,Mo-Su 10:00-22:00", "wheelchair": "no"}}, {"type": "way", "id": 1053599317, "nodes": [9682535329, 9682535319, 9682535326, 9682535323, 9682535329], "tags": {"addr:district": "\u0e25\u0e32\u0e14\u0e01\u0e23\u0e30\u0e1a\u0e31\u0e07", "addr:postcode": "10520", "addr:province": "\u0e01\u0e23\u0e38\u0e07\u0e40\u0e17\u0e1e\u0e21\u0e2b\u0e32\u0e19\u0e04\u0e23", "air_conditioning": "yes", "amenity": "restaurant", "building": "yes", "cuisine": "curry;japanese;soba;sushi;thai", "diet:halal": "no", "diet:kosher": "no", "diet:vegetarian": "no", "name": "\u0e23\u0e49\u0e32\u0e19\u0e41\u0e21\u0e27\u0e01\u0e34\u0e19\u0e1b\u0e25\u0e32 @ \u0e40\u0e17\u0e04\u0e42\u0e19\u0e2f \u0e25\u0e32\u0e14\u0e01\u0e23\u0e30\u0e1a\u0e31\u0e07", "opening_hours": "PH,Mo-We,Fr-Su 11:30-22:00", "wheelchair": "no"}}, {"type": "way", "id": 1053599318, "nodes": [9682535319, 9682535328, 9682535324, 9682535326, 9682535319], "tags": {"addr:district": "\u0e25\u0e32\u0e14\u0e01\u0e23\u0e30\u0e1a\u0e31\u0e07", "addr:postcode": "10520", "addr:province": "\u0e01\u0e23\u0e38\u0e07\u0e40\u0e17\u0e1e\u0e21\u0e2b\u0e32\u0e19\u0e04\u0e23", "air_conditioning": "yes", "amenity": "restaurant", "building": "yes", "check_date": "2023-01-19", "diet:halal": "no", "diet:kosher": "no", "diet:vegetarian": "no", "internet_access": "wlan", "internet_access:fee": "customers", "name": "\u0e1a\u0e34\u0e07\u0e0b\u0e39 \u0e40\u0e25\u0e34\u0e1f\u0e40\u0e27\u0e48\u0e2d\u0e23\u0e4c", "opening_hours": "PH,Th-Tu 12:00-20:00", "wheelchair": "no"}}, {"type": "way", "id": 1056600189, "nodes": [9708948417, 9709896161, 9709896159, 9651444978, 9708948417], "tags": {"addr:district": "\u0e25\u0e32\u0e14\u0e01\u0e23\u0e30\u0e1a\u0e31\u0e07", "addr:postcode": "10520", "addr:province": "\u0e01\u0e23\u0e38\u0e07\u0e40\u0e17\u0e1e\u0e21\u0e2b\u0e32\u0e19\u0e04\u0e23", "air_conditioning": "yes", "amenity": "restaurant", "building": "yes", "diet:halal": "no", "diet:kosher": "no", "diet:vegan": "yes", "diet:vegetarian": "yes", "name": "Shabu 2N", "opening_hours": "PH,Mo-Su 16:00-23:00", "wheelchair": "yes"}}, {"type": "way", "id": 1056791775, "nodes": [9710456560, 9710456563, 9709896161, 9708948417, 9710456560], "tags": {"addr:district": "\u0e25\u0e32\u0e14\u0e01\u0e23\u0e30\u0e1a\u0e31\u0e07", "addr:postcode": "10520", "addr:province": "\u0e01\u0e23\u0e38\u0e07\u0e40\u0e17\u0e1e\u0e21\u0e2b\u0e32\u0e19\u0e04\u0e23", "amenity": "restaurant", "building": "yes", "check_date:opening_hours": "2022-10-06", "name": "\u0e2a\u0e49\u0e21\u0e15\u0e33 \u0e1a\u0e34\u0e25\u0e40\u0e25\u0e35\u0e48\u0e22\u0e19", "opening_hours:signed": "no"}}, {"type": "way", "id": 1084219678, "nodes": [9935413042, 9935413044, 9935413041, 9935413043, 9935413042], "tags": {"addr:district": "\u0e25\u0e32\u0e14\u0e01\u0e23\u0e30\u0e1a\u0e31\u0e07", "addr:postcode": "10520", "addr:province": "\u0e01\u0e23\u0e38\u0e07\u0e40\u0e17\u0e1e\u0e21\u0e2b\u0e32\u0e19\u0e04\u0e23", "air_conditioning": "yes", "amenity": "restaurant", "building": "yes", "check_date": "2024-08-22", "cuisine": "japanese;steak_house", "name": "\u0e2a\u0e36\u0e40\u0e15\u0e30\u0e01\u0e34 \u0e2a\u0e40\u0e15\u0e47\u0e01", "name:en": "Sute-ki", "name:th": "\u0e2a\u0e36\u0e40\u0e15\u0e30\u0e01\u0e34 \u0e2a\u0e40\u0e15\u0e47\u0e01", "opening_hours": "15:00-24:00", "wheelchair": "yes"}}, {"type": "way", "id": 1084227390, "nodes": [9935540425, 9935538014, 9935538012, 9935538006, 9935538011, 9935540425], "tags": {"addr:district": "\u0e25\u0e32\u0e14\u0e01\u0e23\u0e30\u0e1a\u0e31\u0e07", "addr:postcode": "10520", "addr:province": "\u0e01\u0e23\u0e38\u0e07\u0e40\u0e17\u0e1e\u0e21\u0e2b\u0e32\u0e19\u0e04\u0e23", "amenity": "restaurant", "building": "yes", "check_date": "2023-11-25", "name": "\u0e22\u0e31\u0e01\u0e29\u0e4c\u0e2d\u0e34\u0e48\u0e21"}}, {"type": "way", "id": 1084227391, "nodes": [9935540424, 9935538006, 9935538012, 9935538001, 9935540424], "tags": {"addr:district": "\u0e25\u0e32\u0e14\u0e01\u0e23\u0e30\u0e1a\u0e31\u0e07", "addr:postcode": "10520", "addr:province": "\u0e01\u0e23\u0e38\u0e07\u0e40\u0e17\u0e1e\u0e21\u0e2b\u0e32\u0e19\u0e04\u0e23", "amenity": "restaurant", "building": "yes", "check_date": "2023-11-25", "name": "\u0e40\u0e08\u0e49\u0e32\u0e04\u0e38\u0e13 \u0e15\u0e33\u0e41\u0e0b\u0e48\u0e1a"}}, {"type": "way", "id": 1084227393, "nodes": [9935538005, 9676340928, 9935538004, 9935540426, 9935538000, 9935538005], "tags": {"addr:district": "\u0e25\u0e32\u0e14\u0e01\u0e23\u0e30\u0e1a\u0e31\u0e07", "addr:postcode": "10520", "addr:province": "\u0e01\u0e23\u0e38\u0e07\u0e40\u0e17\u0e1e\u0e21\u0e2b\u0e32\u0e19\u0e04\u0e23", "air_conditioning": "no", "amenity": "restaurant", "building": "yes", "cuisine": "thai", "name": "\u0e23\u0e49\u0e32\u0e19\u0e2a\u0e49\u0e21\u0e15\u0e33\u0e2a\u0e2d\u0e07\u0e1e\u0e35\u0e48\u0e19\u0e49\u0e2d\u0e07 \u0e40\u0e01\u0e01\u0e35 4"}}, {"type": "way", "id": 1084227394, "nodes": [9935538008, 9935538015, 9935540421, 9935540434, 9935538008], "tags": {"abandoned": "yes", "addr:district": "\u0e25\u0e32\u0e14\u0e01\u0e23\u0e30\u0e1a\u0e31\u0e07", "addr:postcode": "10520", "addr:province": "\u0e01\u0e23\u0e38\u0e07\u0e40\u0e17\u0e1e\u0e21\u0e2b\u0e32\u0e19\u0e04\u0e23", "amenity": "restaurant", "building": "yes", "name": "\u0e2d\u0e2d\u0e2d \u0e2b\u0e21\u0e39\u0e01\u0e23\u0e30\u0e17\u0e30", "opening_hours": "PH,Mo-Su 15:30-00:30", "outdoor_seating": "yes"}}, {"type": "way", "id": 1084401070, "nodes": [9937073202, 9641661308, 9641661310, 9937073197, 9937073202], "tags": {"abandoned": "yes", "addr:district": "\u0e25\u0e32\u0e14\u0e01\u0e23\u0e30\u0e1a\u0e31\u0e07", "addr:postcode": "10520", "addr:province": "\u0e01\u0e23\u0e38\u0e07\u0e40\u0e17\u0e1e\u0e21\u0e2b\u0e32\u0e19\u0e04\u0e23", "amenity": "restaurant", "building": "retail", "check_date": "2023-09-08", "internet_access": "no", "name": "\u0e01\u0e4b\u0e27\u0e22\u0e40\u0e15\u0e35\u0e4b\u0e22\u0e27 11_\u0e21.\u0e19.", "opening_hours": "17:00-24:00", "wheelchair": "limited"}}, {"type": "way", "id": 1084401073, "nodes": [9937073205, 9937073188, 9937073195, 9641661304, 9937073205], "tags": {"addr:district": "\u0e25\u0e32\u0e14\u0e01\u0e23\u0e30\u0e1a\u0e31\u0e07", "addr:postcode": "10520", "addr:province": "\u0e01\u0e23\u0e38\u0e07\u0e40\u0e17\u0e1e\u0e21\u0e2b\u0e32\u0e19\u0e04\u0e23", "amenity": "restaurant", "building": "yes", "check_date": "2023-05-29", "check_date:opening_hours": "2023-09-08", "name": "Fresh Me", "opening_hours:signed": "no", "wheelchair": "no"}}, {"type": "way", "id": 1084401079, "nodes": [9937073190, 9937073192, 9937073188, 9937073184, 9937073190], "tags": {"abandoned": "yes", "addr:district": "\u0e25\u0e32\u0e14\u0e01\u0e23\u0e30\u0e1a\u0e31\u0e07", "addr:postcode": "10520", "addr:province": "\u0e01\u0e23\u0e38\u0e07\u0e40\u0e17\u0e1e\u0e21\u0e2b\u0e32\u0e19\u0e04\u0e23", "amenity": "restaurant", "building": "retail", "check_date": "2023-09-08", "internet_access": "wlan", "internet_access:fee": "customers", "name": "\u0e40\u0e0b\u0e19\u0e40\u0e0b-\u0e23\u0e32\u0e40\u0e21\u0e07", "opening_hours": "Mo-Fr 16:00-21:00; Sa 11:00-17:00; Su off", "phone": "+66 92 492 6287", "wheelchair": "no"}}, {"type": "way", "id": 1084401080, "nodes": [9937073203, 9937073192, 9937073188, 9937073205, 9937073203], "tags": {"abandoned": "yes", "addr:district": "\u0e25\u0e32\u0e14\u0e01\u0e23\u0e30\u0e1a\u0e31\u0e07", "addr:postcode": "10520", "addr:province": "\u0e01\u0e23\u0e38\u0e07\u0e40\u0e17\u0e1e\u0e21\u0e2b\u0e32\u0e19\u0e04\u0e23", "amenity": "restaurant", "building": "yes", "check_date:opening_hours": "2023-09-08", "name": "\u0e0a\u0e21\u0e28\u0e34\u0e25\u0e1b\u0e4c \u0e01\u0e34\u0e19\u0e2b\u0e2d\u0e22 Art & Gallery", "opening_hours:signed": "no"}}, {"type": "way", "id": 1084635045, "nodes": [9939179437, 9953300183, 9939179438, 9939179432, 9939179431, 9939179437], "tags": {"addr:district": "\u0e25\u0e32\u0e14\u0e01\u0e23\u0e30\u0e1a\u0e31\u0e07", "addr:postcode": "10520", "addr:province": "\u0e01\u0e23\u0e38\u0e07\u0e40\u0e17\u0e1e\u0e21\u0e2b\u0e32\u0e19\u0e04\u0e23", "amenity": "restaurant", "building": "yes", "check_date": "2022-08-08", "name": "\u0e25\u0e38\u0e07\u0e15\u0e23\u0e35\u0e44\u0e01\u0e48\u0e41\u0e0b\u0e48\u0e1a", "payment:mastercard": "yes", "payment:visa": "yes"}}, {"type": "way", "id": 1084635046, "nodes": [9939179436, 9939179437, 9939179431, 9939179430, 9939179436], "tags": {"addr:district": "\u0e25\u0e32\u0e14\u0e01\u0e23\u0e30\u0e1a\u0e31\u0e07", "addr:postcode": "10520", "addr:province": "\u0e01\u0e23\u0e38\u0e07\u0e40\u0e17\u0e1e\u0e21\u0e2b\u0e32\u0e19\u0e04\u0e23", "amenity": "cafe", "building": "yes", "name": "\u0e19\u0e49\u0e33\u0e40\u0e15\u0e49\u0e32\u0e2b\u0e39\u0e49 \u0e40\u0e15\u0e49\u0e32\u0e2e\u0e27\u0e22 \u0e19\u0e21\u0e40\u0e22\u0e47\u0e19 \u0e02\u0e19\u0e21\u0e1b\u0e31\u0e07\u0e2a\u0e31\u0e07\u0e02\u0e22\u0e32"}}, {"type": "way", "id": 1084983190, "nodes": [9941655007, 9941655004, 9941655005, 9941655006, 9941655007], "tags": {"amenity": "restaurant", "check_date:opening_hours": "2023-11-24", "name": "\u0e42\u0e23\u0e07\u0e2d\u0e32\u0e2b\u0e32\u0e23 \u0e40\u0e01 2", "opening_hours:signed": "no", "takeaway": "yes", "toilets:access": "yes", "wheelchair": "yes"}}, {"type": "way", "id": 1085058341, "nodes": [9942250815, 9942287218, 9942250816, 9942250813, 9942250815], "tags": {"addr:district": "\u0e25\u0e32\u0e14\u0e01\u0e23\u0e30\u0e1a\u0e31\u0e07", "addr:postcode": "10520", "addr:province": "\u0e01\u0e23\u0e38\u0e07\u0e40\u0e17\u0e1e\u0e21\u0e2b\u0e32\u0e19\u0e04\u0e23", "air_conditioning": "no", "amenity": "restaurant", "building": "yes", "name": "\u0e01\u0e4b\u0e27\u0e22\u0e40\u0e15\u0e35\u0e4b\u0e22\u0e27 \u0e1a\u0e30\u0e2b\u0e21\u0e35\u0e48\u0e2b\u0e21\u0e39\u0e41\u0e14\u0e07", "opening_hours": "PH,Mo-Su 17:00-24:00"}}, {"type": "way", "id": 1085342208, "nodes": [9945098067, 9945098060, 9945098068, 9945098058, 9945098067], "tags": {"addr:district": "\u0e25\u0e32\u0e14\u0e01\u0e23\u0e30\u0e1a\u0e31\u0e07", "addr:postcode": "10520", "addr:province": "\u0e01\u0e23\u0e38\u0e07\u0e40\u0e17\u0e1e\u0e21\u0e2b\u0e32\u0e19\u0e04\u0e23", "amenity": "restaurant", "building": "yes", "name": "\u0e2b\u0e21\u0e35\u0e0b\u0e48\u0e32\u0e2a\u0e4c \u0e23\u0e32\u0e40\u0e21\u0e19"}}, {"type": "way", "id": 1085342209, "nodes": [9945098065, 9945098067, 9945098058, 9945098062, 9945098065], "tags": {"addr:district": "\u0e25\u0e32\u0e14\u0e01\u0e23\u0e30\u0e1a\u0e31\u0e07", "addr:postcode": "10520", "addr:province": "\u0e01\u0e23\u0e38\u0e07\u0e40\u0e17\u0e1e\u0e21\u0e2b\u0e32\u0e19\u0e04\u0e23", "amenity": "restaurant", "building": "yes", "name": "\u0e2b\u0e2d\u0e21\u0e21\u0e19\u0e15\u0e4c \u0e40\u0e15\u0e35\u0e4b\u0e22\u0e27 \u0e22\u0e33\u0e41\u0e0b\u0e48\u0e1a"}}, {"type": "way", "id": 1085342210, "nodes": [9945098069, 9953300181, 9945098049, 9676340930, 9945098064, 9945098069], "tags": {"addr:district": "\u0e25\u0e32\u0e14\u0e01\u0e23\u0e30\u0e1a\u0e31\u0e07", "addr:postcode": "10520", "addr:province": "\u0e01\u0e23\u0e38\u0e07\u0e40\u0e17\u0e1e\u0e21\u0e2b\u0e32\u0e19\u0e04\u0e23", "amenity": "restaurant", "building": "yes", "name": "\u0e2d\u0e34\u0e48\u0e21\u0e40\u0e2d\u0e21 Steakhouse"}}, {"type": "way", "id": 1085342211, "nodes": [9945098050, 9945098055, 9945098051, 9945098057, 9945098050], "tags": {"addr:district": "\u0e25\u0e32\u0e14\u0e01\u0e23\u0e30\u0e1a\u0e31\u0e07", "addr:postcode": "10520", "addr:province": "\u0e01\u0e23\u0e38\u0e07\u0e40\u0e17\u0e1e\u0e21\u0e2b\u0e32\u0e19\u0e04\u0e23", "amenity": "cafe", "building": "yes", "name": "TOM HOUSE"}}, {"type": "way", "id": 1085342212, "nodes": [9945098054, 9945098050, 9945098057, 9949154220, 9945098054], "tags": {"addr:district": "\u0e25\u0e32\u0e14\u0e01\u0e23\u0e30\u0e1a\u0e31\u0e07", "addr:postcode": "10520", "addr:province": "\u0e01\u0e23\u0e38\u0e07\u0e40\u0e17\u0e1e\u0e21\u0e2b\u0e32\u0e19\u0e04\u0e23", "amenity": "restaurant", "building": "yes", "name": "B.T Steak Billion"}}, {"type": "way", "id": 1085342213, "nodes": [9945098060, 9935413042, 9935413043, 9945098068, 9945098060], "tags": {"addr:district": "\u0e25\u0e32\u0e14\u0e01\u0e23\u0e30\u0e1a\u0e31\u0e07", "addr:postcode": "10520", "addr:province": "\u0e01\u0e23\u0e38\u0e07\u0e40\u0e17\u0e1e\u0e21\u0e2b\u0e32\u0e19\u0e04\u0e23", "amenity": "cafe", "building": "yes", "cuisine": "ice_cream", "name": "Freeztory Dessert TechnoLadkrabang"}}, {"type": "way", "id": 1085583221, "nodes": [9947261372, 9947261370, 9646781224, 9947261371, 9947261369, 9947261372], "tags": {"addr:district": "\u0e25\u0e32\u0e14\u0e01\u0e23\u0e30\u0e1a\u0e31\u0e07", "addr:housenumber": "73", "addr:postcode": "10520", "addr:province": "\u0e01\u0e23\u0e38\u0e07\u0e40\u0e17\u0e1e\u0e21\u0e2b\u0e32\u0e19\u0e04\u0e23", "addr:street": "\u0e0b\u0e2d\u0e22\u0e09\u0e25\u0e2d\u0e07\u0e01\u0e23\u0e38\u0e07 1", "addr:subdistrict": "\u0e25\u0e32\u0e14\u0e01\u0e23\u0e30\u0e1a\u0e31\u0e07", "amenity": "restaurant", "buffet": "yes", "building": "commercial", "check_date": "2025-09-13", "check_date:currency:XBT": "2025-09-13", "contact:email": "laohutiger2022@gmail.com", "contact:facebook": "https://web.facebook.com/laohushabu", "cuisine": "chinese;shabu", "currency:XBT": "yes", "name": "Laohu Shabu", "name:th": "\u0e0a\u0e32\u0e1a\u0e39\u0e40\u0e2b\u0e25\u0e32\u0e2e\u0e39\u0e48", "opening_hours": "Mo-Su 16:00-22:00", "payment:lightning": "yes", "payment:lightning_contactless": "no", "payment:onchain": "no", "phone": "+66 65 681 6926", "survey:date": "2025-09-13"}}, {"type": "way", "id": 1085798780, "nodes": [9949114829, 9949114832, 9949114827, 9949114831, 9949160577, 9949114829], "tags": {"addr:district": "\u0e25\u0e32\u0e14\u0e01\u0e23\u0e30\u0e1a\u0e31\u0e07", "addr:postcode": "10520", "addr:province": "\u0e01\u0e23\u0e38\u0e07\u0e40\u0e17\u0e1e\u0e21\u0e2b\u0e32\u0e19\u0e04\u0e23", "amenity": "restaurant", "building": "yes", "name": "MAINA JAPANESE CURRY HOMEMADE"}}, {"type": "way", "id": 1085799456, "nodes": [9949154223, 9949154224, 9949154222, 9949154221, 9949154223], "tags": {"addr:district": "\u0e25\u0e32\u0e14\u0e01\u0e23\u0e30\u0e1a\u0e31\u0e07", "addr:postcode": "10520", "addr:province": "\u0e01\u0e23\u0e38\u0e07\u0e40\u0e17\u0e1e\u0e21\u0e2b\u0e32\u0e19\u0e04\u0e23", "amenity": "cafe", "building": "kiosk", "name": "CHAZUKE"}}, {"type": "way", "id": 1085800586, "nodes": [9949160576, 9949160574, 9949160575, 9945098054, 10090544678, 9949160570, 9949160576], "tags": {"addr:district": "\u0e25\u0e32\u0e14\u0e01\u0e23\u0e30\u0e1a\u0e31\u0e07", "addr:postcode": "10520", "addr:province": "\u0e01\u0e23\u0e38\u0e07\u0e40\u0e17\u0e1e\u0e21\u0e2b\u0e32\u0e19\u0e04\u0e23", "amenity": "cafe", "building": "yes", "check_date": "2023-01-20", "name": "\u0e21\u0e2d\u0e21\u0e32\u0e23\u0e4c\u0e2a \u0e0a\u0e32\u0e44\u0e02\u0e48\u0e21\u0e38\u0e01", "name:en": "M\u014dMa's bubble tea bar", "wheelchair": "no"}}, {"type": "way", "id": 1085800587, "nodes": [9949160579, 9949160576, 9949160570, 9949114829, 9949160579], "tags": {"addr:district": "\u0e25\u0e32\u0e14\u0e01\u0e23\u0e30\u0e1a\u0e31\u0e07", "addr:postcode": "10520", "addr:province": "\u0e01\u0e23\u0e38\u0e07\u0e40\u0e17\u0e1e\u0e21\u0e2b\u0e32\u0e19\u0e04\u0e23", "amenity": "cafe", "building": "yes", "check_date": "2023-01-20", "name": "\u0e17\u0e34\u0e04\u0e40\u0e04\u0e34\u0e25\u0e14\u0e4c \u0e1e\u0e34\u0e07\u0e04\u0e4c", "name:en": "Tickled Pink", "opening_hours": "Mo-Fr 15:00-23:00", "wheelchair": "no"}}, {"type": "way", "id": 1086027755, "nodes": [9951134516, 9951137738, 9951137717, 9951137730, 9951134516], "tags": {"addr:district": "\u0e25\u0e32\u0e14\u0e01\u0e23\u0e30\u0e1a\u0e31\u0e07", "addr:postcode": "10520", "addr:province": "\u0e01\u0e23\u0e38\u0e07\u0e40\u0e17\u0e1e\u0e21\u0e2b\u0e32\u0e19\u0e04\u0e23", "amenity": "restaurant", "building": "yes", "name": "\u0e04\u0e34\u0e19 \u0e2d\u0e34\u0e0b\u0e32\u0e01\u0e32\u0e22\u0e30", "name:en": "Kin Izakaya"}}, {"type": "way", "id": 1086027757, "nodes": [9951137731, 9951134511, 9951137735, 9951137740, 9951137731], "tags": {"addr:district": "\u0e25\u0e32\u0e14\u0e01\u0e23\u0e30\u0e1a\u0e31\u0e07", "addr:postcode": "10520", "addr:province": "\u0e01\u0e23\u0e38\u0e07\u0e40\u0e17\u0e1e\u0e21\u0e2b\u0e32\u0e19\u0e04\u0e23", "amenity": "restaurant", "building": "yes", "check_date:opening_hours": "2022-09-30", "name": "Akaw Cafe \u0e02\u0e49\u0e32\u0e27\u0e21\u0e31\u0e19\u0e44\u0e01\u0e48 \u0e2b\u0e21\u0e39\u0e2d\u0e49\u0e27\u0e19 \u0e2a\u0e32\u0e02\u0e32\u0e25\u0e32\u0e14\u0e01\u0e23\u0e30\u0e1a\u0e31\u0e07", "opening_hours:signed": "no"}}, {"type": "way", "id": 1086027758, "nodes": [9951137739, 9951137718, 9951134515, 9951137734, 9951137732, 9951004384, 9951137739], "tags": {"addr:district": "\u0e25\u0e32\u0e14\u0e01\u0e23\u0e30\u0e1a\u0e31\u0e07", "addr:postcode": "10520", "addr:province": "\u0e01\u0e23\u0e38\u0e07\u0e40\u0e17\u0e1e\u0e21\u0e2b\u0e32\u0e19\u0e04\u0e23", "amenity": "restaurant", "building": "yes", "name": "\u0e15\u0e31\u0e49\u0e07\u0e42\u0e15\u0e4a\u0e30 \u0e2b\u0e21\u0e48\u0e32\u0e25\u0e48\u0e32 \u0e2a\u0e32\u0e02\u0e32 5 \u0e25\u0e32\u0e14\u0e01\u0e23\u0e30\u0e1a\u0e31\u0e07"}}, {"type": "way", "id": 1086027760, "nodes": [9951137743, 9951134512, 9951137737, 9951137729, 9951137743], "tags": {"abandoned": "yes", "addr:district": "\u0e25\u0e32\u0e14\u0e01\u0e23\u0e30\u0e1a\u0e31\u0e07", "addr:postcode": "10520", "addr:province": "\u0e01\u0e23\u0e38\u0e07\u0e40\u0e17\u0e1e\u0e21\u0e2b\u0e32\u0e19\u0e04\u0e23", "amenity": "restaurant", "building": "yes", "check_date:opening_hours": "2022-09-30", "name": "\u0e2b\u0e25\u0e1a\u0e1a\u0e49\u0e32\u0e19 \u0e2d\u0e32\u0e2b\u0e32\u0e23\u0e43\u0e15\u0e49\u0e20\u0e39\u0e40\u0e01\u0e47\u0e15", "opening_hours:signed": "no"}}, {"type": "way", "id": 1086027761, "nodes": [9951137742, 9951137720, 9951137736, 9951137741, 9951137742], "tags": {"addr:district": "\u0e25\u0e32\u0e14\u0e01\u0e23\u0e30\u0e1a\u0e31\u0e07", "addr:postcode": "10520", "addr:province": "\u0e01\u0e23\u0e38\u0e07\u0e40\u0e17\u0e1e\u0e21\u0e2b\u0e32\u0e19\u0e04\u0e23", "amenity": "restaurant", "building": "yes", "name": "A Ramen", "opening_hours": "24/7"}}, {"type": "way", "id": 1086027763, "nodes": [9951134513, 9951137725, 9951004385, 9951137719, 9951153802, 9951134513], "tags": {"addr:district": "\u0e25\u0e32\u0e14\u0e01\u0e23\u0e30\u0e1a\u0e31\u0e07", "addr:postcode": "10520", "addr:province": "\u0e01\u0e23\u0e38\u0e07\u0e40\u0e17\u0e1e\u0e21\u0e2b\u0e32\u0e19\u0e04\u0e23", "amenity": "restaurant", "building": "yes", "name": "\u0e40\u0e1e\u0e35\u0e22\u0e23 \u0e2b\u0e21\u0e39\u0e01\u0e23\u0e30\u0e17\u0e30\u0e2d\u0e38\u0e14\u0e23 \u0e2a\u0e32\u0e02\u0e32 9", "opening_hours": "Mo-Su 16:00-23:00"}}, {"type": "way", "id": 1086265876, "nodes": [9939179432, 9953310260, 9953310261, 9939179438, 9939179432], "tags": {"addr:district": "\u0e25\u0e32\u0e14\u0e01\u0e23\u0e30\u0e1a\u0e31\u0e07", "addr:postcode": "10520", "addr:province": "\u0e01\u0e23\u0e38\u0e07\u0e40\u0e17\u0e1e\u0e21\u0e2b\u0e32\u0e19\u0e04\u0e23", "amenity": "restaurant", "building": "yes", "name": "\u0e02\u0e49\u0e32\u0e27\u0e04\u0e25\u0e38\u0e01\u0e19\u0e49\u0e33\u0e1e\u0e23\u0e34\u0e01\u0e40\u0e08\u0e49\u0e32\u0e04\u0e38\u0e13"}}, {"type": "way", "id": 1086265877, "nodes": [9953310260, 9953310262, 9953310263, 9953310261, 9953310260], "tags": {"addr:district": "\u0e25\u0e32\u0e14\u0e01\u0e23\u0e30\u0e1a\u0e31\u0e07", "addr:postcode": "10520", "addr:province": "\u0e01\u0e23\u0e38\u0e07\u0e40\u0e17\u0e1e\u0e21\u0e2b\u0e32\u0e19\u0e04\u0e23", "amenity": "restaurant", "building": "yes", "name": "\u0e19\u0e49\u0e33\u0e1c\u0e25\u0e44\u0e21\u0e49 \u0e19\u0e49\u0e33\u0e1b\u0e31\u0e48\u0e19 \u0e40\u0e1e\u0e37\u0e48\u0e2d\u0e2a\u0e38\u0e02\u0e20\u0e32\u0e1e"}}, {"type": "way", "id": 1086267330, "nodes": [9953310262, 9953300179, 9953300180, 9953310263, 9953310262], "tags": {"addr:district": "\u0e25\u0e32\u0e14\u0e01\u0e23\u0e30\u0e1a\u0e31\u0e07", "addr:postcode": "10520", "addr:province": "\u0e01\u0e23\u0e38\u0e07\u0e40\u0e17\u0e1e\u0e21\u0e2b\u0e32\u0e19\u0e04\u0e23", "amenity": "restaurant", "building": "yes", "name": "\u0e42\u0e08\u0e4a\u0e01\u0e08\u0e34\u0e4b\u0e27\u0e41\u0e15\u0e48\u0e41\u0e08\u0e4b\u0e27"}}, {"type": "way", "id": 1086267332, "nodes": [9953300179, 9953300185, 9953300186, 9953300180, 9953300179], "tags": {"addr:district": "\u0e25\u0e32\u0e14\u0e01\u0e23\u0e30\u0e1a\u0e31\u0e07", "addr:postcode": "10520", "addr:province": "\u0e01\u0e23\u0e38\u0e07\u0e40\u0e17\u0e1e\u0e21\u0e2b\u0e32\u0e19\u0e04\u0e23", "amenity": "restaurant", "building": "yes", "name": "\u0e0d\u0e32\u0e41\u0e1d\u0e14 \u0e02\u0e49\u0e32\u0e27\u0e21\u0e31\u0e19\u0e44\u0e01\u0e48\u0e40\u0e01\u0e01\u0e35"}}, {"type": "way", "id": 1086267333, "nodes": [9953300185, 9953300187, 9953300188, 9953300186, 9953300185], "tags": {"addr:district": "\u0e25\u0e32\u0e14\u0e01\u0e23\u0e30\u0e1a\u0e31\u0e07", "addr:postcode": "10520", "addr:province": "\u0e01\u0e23\u0e38\u0e07\u0e40\u0e17\u0e1e\u0e21\u0e2b\u0e32\u0e19\u0e04\u0e23", "amenity": "restaurant", "building": "yes", "name": "\u0e01\u0e4b\u0e27\u0e22\u0e40\u0e15\u0e35\u0e4b\u0e22\u0e27\u0e40\u0e23\u0e37\u0e2d\u0e2b\u0e21\u0e39\u0e19\u0e49\u0e33\u0e15\u0e01"}}, {"type": "way", "id": 1088128644, "nodes": [9969704932, 9969704929, 9969704931, 9969704930, 9969704932], "tags": {"addr:district": "\u0e25\u0e32\u0e14\u0e01\u0e23\u0e30\u0e1a\u0e31\u0e07", "addr:postcode": "10520", "addr:province": "\u0e01\u0e23\u0e38\u0e07\u0e40\u0e17\u0e1e\u0e21\u0e2b\u0e32\u0e19\u0e04\u0e23", "amenity": "restaurant", "building": "yes", "check_date:opening_hours": "2023-11-28", "cuisine": "thai", "name": "\u0e1c\u0e31\u0e14\u0e44\u0e17\u0e22-\u0e2b\u0e2d\u0e22\u0e17\u0e2d\u0e14 \u0e1b\u0e49\u0e32\u0e1e\u0e31\u0e0a\u0e23\u0e4c \u0e40\u0e014", "opening_hours:signed": "no", "takeaway": "yes"}}, {"type": "way", "id": 1111732605, "nodes": [10171054675, 10171054673, 10171054672, 10171054674, 10171054675], "tags": {"amenity": "cafe", "name": "Baan Cool Cafe & Arts Space", "opening_hours": "Mo-Su 08:30-16:30", "outdoor_seating": "yes"}}, {"type": "way", "id": 1117402764, "nodes": [10219782236, 10219782235, 10219782229, 10219782233, 10219782234, 10219782231, 10219782236], "tags": {"amenity": "restaurant", "name": "\u0e22\u0e48\u0e32\u0e07\u0e40\u0e19\u0e22 \u0e25\u0e32\u0e14\u0e01\u0e23\u0e30\u0e1a\u0e31\u0e07"}}, {"type": "way", "id": 1133457829, "nodes": [10567764123, 10567764122, 10567764125, 10567764124, 10567764123], "tags": {"amenity": "restaurant", "delivery": "yes", "name": "Kin Clean", "opening_hours": "Mo-Sa 11:00-21:00", "takeaway": "yes", "wheelchair": "no"}}, {"type": "way", "id": 1134493799, "nodes": [10576582132, 10576582097, 10576582129, 10576582139, 10576582128, 10576582132], "tags": {"addr:housenumber": "55/5", "addr:street": "\u0e17\u0e32\u0e07\u0e2b\u0e25\u0e27\u0e07\u0e0a\u0e19\u0e1a\u0e17 \u0e2a\u0e1b\u0e1b. 2001", "air_conditioning": "yes", "amenity": "restaurant", "check_date": "2023-01-23", "diet:halal": "no", "diet:vegan": "yes", "diet:vegetarian": "yes", "indoor_seating": "yes", "internet_access": "wlan", "internet_access:fee": "customers", "name": "\u0e19\u0e36\u0e48\u0e07\u0e40\u0e02\u0e48\u0e07 \u0e15\u0e34\u0e48\u0e21\u0e0b\u0e33", "opening_hours": "Mo-Fr 10:00-20:00; Sa,Su 08:00-20:00", "outdoor_seating": "no", "payment:credit_cards": "no", "payment:debit_cards": "no", "phone": "+66 61 751 9573", "smoking": "no", "wheelchair": "yes"}}, {"type": "way", "id": 1134493801, "nodes": [10576582120, 10576582099, 10576582138, 10576585844, 10576582120], "tags": {"amenity": "cafe", "check_date": "2023-01-23", "diet:halal": "no", "diet:vegan": "yes", "diet:vegetarian": "yes", "internet_access": "wlan", "internet_access:fee": "customers", "name": "GOOD BEANS CAFE", "opening_hours": "Mo-Fr 07:30-18:00; Sa,Su 09:00-18:00", "wheelchair": "no"}}, {"type": "way", "id": 1134493802, "nodes": [10576582109, 10576582103, 10576585845, 10576582107, 10576582109], "tags": {"amenity": "restaurant", "check_date": "2023-01-23", "name": "\u0e01\u0e4b\u0e27\u0e22\u0e40\u0e15\u0e35\u0e4b\u0e22\u0e27\u0e40\u0e23\u0e37\u0e2d \u0e0a\u0e32\u0e21\u0e44\u0e21\u0e49 @\u0e25\u0e32\u0e14\u0e01\u0e23\u0e30\u0e1a\u0e31\u0e07", "opening_hours": "Mo-Su 10:00-22:00", "wheelchair": "limited"}}, {"type": "way", "id": 1134493804, "nodes": [10576582105, 10576582109, 10576582107, 10576582125, 10576582105], "tags": {"amenity": "restaurant", "check_date": "2023-01-23", "check_date:opening_hours": "2023-01-23", "name": "\u0e42\u0e23\u0e07\u0e40\u0e15\u0e35\u0e4a\u0e22\u0e21", "opening_hours:signed": "no", "phone": "+66 96 719 3621", "wheelchair": "yes"}}, {"type": "way", "id": 1134493808, "nodes": [10576582100, 10576582105, 10576582125, 10576585842, 10576582100], "tags": {"amenity": "restaurant", "check_date": "2023-01-23", "internet_access": "wlan", "internet_access:fee": "customers", "name": "\u0e23\u0e2a\u0e41\u0e0b\u0e48\u0e1a\u0e40\u0e14\u0e2d\u0e23\u0e4c", "opening_hours": "Th-Tu 07:00-21:00", "phone": "+66 95 669 1974", "wheelchair": "yes"}}, {"type": "way", "id": 1136346802, "nodes": [10593194436, 10593194437, 10593194438, 10593194435, 10593194436], "tags": {"addr:district": "\u0e25\u0e32\u0e14\u0e01\u0e23\u0e30\u0e1a\u0e31\u0e07", "addr:postcode": "10520", "addr:province": "\u0e01\u0e23\u0e38\u0e07\u0e40\u0e17\u0e1e\u0e21\u0e2b\u0e32\u0e19\u0e04\u0e23", "amenity": "cafe", "building": "yes", "name": "\u0e2d\u0e34\u0e19\u0e17\u0e19\u0e34\u0e25"}}, {"type": "way", "id": 1138988422, "nodes": [10616456594, 10616456595, 10616456596, 10616456597, 10616456594], "tags": {"addr:district": "\u0e25\u0e32\u0e14\u0e01\u0e23\u0e30\u0e1a\u0e31\u0e07", "addr:postcode": "10520", "addr:province": "\u0e01\u0e23\u0e38\u0e07\u0e40\u0e17\u0e1e\u0e21\u0e2b\u0e32\u0e19\u0e04\u0e23", "amenity": "cafe", "brand": "\u0e04\u0e32\u0e40\u0e1f\u0e48 \u0e2d\u0e40\u0e21\u0e0b\u0e2d\u0e19", "brand:en": "Caf\u00e9 Amazon", "brand:th": "\u0e04\u0e32\u0e40\u0e1f\u0e48 \u0e2d\u0e40\u0e21\u0e0b\u0e2d\u0e19", "brand:wikidata": "Q43247503", "building": "yes", "cuisine": "coffee_shop", "name": "\u0e04\u0e32\u0e40\u0e1f\u0e48 \u0e2d\u0e40\u0e21\u0e0b\u0e2d\u0e19", "name:en": "Caf\u00e9 Amazon", "name:th": "\u0e04\u0e32\u0e40\u0e1f\u0e48 \u0e2d\u0e40\u0e21\u0e0b\u0e2d\u0e19", "takeaway": "yes"}}, {"type": "way", "id": 1185631518, "nodes": [11013367758, 11013367759, 11013367760, 11013367761, 11013367758], "tags": {"leisure": "park", "operator": "\u0e04\u0e13\u0e30\u0e40\u0e17\u0e04\u0e42\u0e19\u0e42\u0e25\u0e22\u0e35\u0e01\u0e32\u0e23\u0e40\u0e01\u0e29\u0e15\u0e23 \u0e2a\u0e16\u0e32\u0e1a\u0e31\u0e19\u0e40\u0e17\u0e04\u0e42\u0e19\u0e42\u0e25\u0e22\u0e35\u0e1e\u0e23\u0e30\u0e08\u0e2d\u0e21\u0e40\u0e01\u0e25\u0e49\u0e32\u0e40\u0e08\u0e49\u0e32\u0e04\u0e38\u0e13\u0e17\u0e2b\u0e32\u0e23\u0e25\u0e32\u0e14\u0e01\u0e23\u0e30\u0e1a\u0e31\u0e07", "operator:type": "government"}}, {"type": "way", "id": 1206068562, "nodes": [9947261372, 11176176790, 11176176791, 9947261369, 9947261372], "tags": {"addr:district": "\u0e25\u0e32\u0e14\u0e01\u0e23\u0e30\u0e1a\u0e31\u0e07", "addr:postcode": "10520", "addr:province": "\u0e01\u0e23\u0e38\u0e07\u0e40\u0e17\u0e1e\u0e21\u0e2b\u0e32\u0e19\u0e04\u0e23", "amenity": "restaurant", "building": "yes", "name": "\u0e02\u0e49\u0e32\u0e27\u0e23\u0e32\u0e14\u0e41\u0e01\u0e07 25 \u0e1a\u0e32\u0e17"}}, {"type": "way", "id": 1206068563, "nodes": [11176176790, 11176176792, 11176176789, 11176176791, 11176176790], "tags": {"addr:district": "\u0e25\u0e32\u0e14\u0e01\u0e23\u0e30\u0e1a\u0e31\u0e07", "addr:place": "KL villa", "addr:postcode": "10520", "addr:province": "\u0e01\u0e23\u0e38\u0e07\u0e40\u0e17\u0e1e\u0e21\u0e2b\u0e32\u0e19\u0e04\u0e23", "addr:street": "\u0e0b\u0e2d\u0e22\u0e09\u0e25\u0e2d\u0e07\u0e01\u0e23\u0e38\u0e07 1", "addr:subdistrict": "\u0e25\u0e32\u0e14\u0e01\u0e23\u0e30\u0e1a\u0e31\u0e07", "amenity": "cafe", "building": "yes", "check_date": "2025-09-13", "check_date:currency:XBT": "2025-09-13", "contact:facebook": "https://web.facebook.com/profile.php?id=61569404214355", "contact:instagram": "https://www.instagram.com/coffzilla", "cuisine": "coffee_shop;cake", "currency:XBT": "yes", "internet_access": "yes", "name": "Coffzilla Cafe", "opening_hours": "Mo-Sa 09:00-21:00", "payment:lightning": "yes", "payment:lightning_contactless": "no", "payment:onchain": "no", "phone": "+66 92 827 1601", "survey:date": "2025-09-13"}}, {"type": "way", "id": 1216396440, "nodes": [11270889254, 11270889261, 11270889259, 11270889264, 11270889254], "tags": {"amenity": "restaurant", "check_date:opening_hours": "2023-11-24", "name": "\u0e42\u0e0a\u0e04\u0e14\u0e35\u0e42\u0e20\u0e0a\u0e19\u0e32 \u0e01\u0e4b\u0e27\u0e22\u0e40\u0e15\u0e35\u0e4b\u0e22\u0e27-\u0e2d\u0e32\u0e2b\u0e32\u0e23\u0e15\u0e32\u0e21\u0e2a\u0e31\u0e48\u0e07", "opening_hours:signed": "no", "wheelchair": "yes"}}, {"type": "way", "id": 1216397891, "nodes": [5497084521, 11270929323, 11270929312, 11270929321, 5497084521], "tags": {"addr:district": "\u0e25\u0e32\u0e14\u0e01\u0e23\u0e30\u0e1a\u0e31\u0e07", "addr:postcode": "10520", "addr:province": "\u0e01\u0e23\u0e38\u0e07\u0e40\u0e17\u0e1e\u0e21\u0e2b\u0e32\u0e19\u0e04\u0e23", "air_conditioning": "yes", "building": "yes", "internet_access": "wlan", "name": "\u0e2b\u0e2d\u0e1e\u0e31\u0e01\u0e41\u0e15\u0e07\u0e01\u0e27\u0e32", "name:en": "Tangkwa \u2018s dormitory", "tourism": "apartment", "wheelchair": "no"}}, {"type": "way", "id": 1234754560, "nodes": [11461191844, 11461191843, 11461191842, 11461191841, 11461191840, 11461191839, 11461191838, 11461191837, 11461191836, 11461191835, 11461191844], "tags": {"building": "tent", "information": "office", "layer": "1", "name": "\u0e0b\u0e38\u0e49\u0e21\u0e01\u0e31\u0e25\u0e1f\u0e4c", "name:en": "Gulf Pavilion", "name:th": "\u0e0b\u0e38\u0e49\u0e21\u0e01\u0e31\u0e25\u0e1f\u0e4c", "tourism": "information"}}, {"type": "way", "id": 1234754575, "nodes": [11461192033, 11461192032, 11461192031, 11465185651, 11461192030, 11461192029, 11461192028, 11461192027, 11461192026, 11461192025, 11461192024, 11461192023, 11461192022, 11461192021, 11461192020, 11461192019, 11461192018, 11461192017, 11461192016, 11461192015, 11461192014, 11461192013, 11461192012, 11461192011, 11461192010, 11461192009, 11461192008, 11461192007, 11461192006, 11461192005, 11461192004, 11461192003, 11461192002, 11461192001, 11461192000, 11461191999, 11461191998, 11461191997, 11461191996, 11461191995, 11461191994, 11461191993, 11461191992, 11461191991, 11461191990, 11461191989, 11461191988, 11461191987, 11461191986, 11461191985, 11461191984, 11461191983, 11461191982, 11461191981, 11461191980, 11461191979, 11461191978, 11461191977, 11461191976, 11461191975, 11461191974, 11461191973, 11461191972, 11461191971, 11461191970, 11461191969, 11461191968, 11461191967, 11461191966, 11461191965, 11461191964, 11461191963, 11461192033], "tags": {"building": "tent", "layer": "1", "name": "Sky Wing", "name:en": "Sky Wing", "name:th": "\u0e2a\u0e01\u0e32\u0e22\u0e27\u0e34\u0e07\u0e04\u0e4c", "tourism": "attraction"}}, {"type": "way", "id": 1255454250, "nodes": [11671134724, 11671134725, 11671134726, 11671134727, 11671134724], "tags": {"addr:district": "\u0e25\u0e32\u0e14\u0e01\u0e23\u0e30\u0e1a\u0e31\u0e07", "addr:postcode": "10520", "addr:province": "\u0e01\u0e23\u0e38\u0e07\u0e40\u0e17\u0e1e\u0e21\u0e2b\u0e32\u0e19\u0e04\u0e23", "amenity": "restaurant", "building": "yes"}}, {"type": "way", "id": 1257741009, "nodes": [11693409217, 11693409218, 11693409219, 11693409220, 11693409221, 11693409222, 11693409217], "tags": {"addr:district": "\u0e25\u0e32\u0e14\u0e01\u0e23\u0e30\u0e1a\u0e31\u0e07", "addr:postcode": "10520", "addr:province": "\u0e01\u0e23\u0e38\u0e07\u0e40\u0e17\u0e1e\u0e21\u0e2b\u0e32\u0e19\u0e04\u0e23", "amenity": "restaurant", "building": "yes", "name": "\u0e25\u0e32\u0e1a\u0e40\u0e1b\u0e47\u0e14\u0e2d\u0e38\u0e1a\u0e25", "name:th": "\u0e25\u0e32\u0e1a\u0e40\u0e1b\u0e47\u0e14\u0e2d\u0e38\u0e1a\u0e25"}}, {"type": "way", "id": 1279852635, "nodes": [11880870051, 11880870052, 11880870053, 11880870054, 11880870051], "tags": {"addr:district": "\u0e25\u0e32\u0e14\u0e01\u0e23\u0e30\u0e1a\u0e31\u0e07", "addr:postcode": "10520", "addr:province": "\u0e01\u0e23\u0e38\u0e07\u0e40\u0e17\u0e1e\u0e21\u0e2b\u0e32\u0e19\u0e04\u0e23", "amenity": "cafe", "building": "yes", "name": "DSR Coffee"}}, {"type": "way", "id": 1279852646, "nodes": [11880870088, 11880870089, 11880870090, 11880870091, 11880870092, 11880870093, 11880870094, 11880870095, 11880870088], "tags": {"addr:district": "\u0e25\u0e32\u0e14\u0e01\u0e23\u0e30\u0e1a\u0e31\u0e07", "addr:postcode": "10520", "addr:province": "\u0e01\u0e23\u0e38\u0e07\u0e40\u0e17\u0e1e\u0e21\u0e2b\u0e32\u0e19\u0e04\u0e23", "amenity": "cafe", "building": "yes", "name": "\u0e21\u0e32\u0e25\u0e2d\u0e07\u0e14\u0e34"}}, {"type": "way", "id": 1328002829, "nodes": [12286715107, 12286715108, 12286715109, 12286715110, 12286715107], "tags": {"addr:district": "\u0e25\u0e32\u0e14\u0e01\u0e23\u0e30\u0e1a\u0e31\u0e07", "addr:postcode": "10520", "addr:province": "\u0e01\u0e23\u0e38\u0e07\u0e40\u0e17\u0e1e\u0e21\u0e2b\u0e32\u0e19\u0e04\u0e23", "air_conditioning": "no", "amenity": "restaurant", "bar": "no", "building": "yes", "cuisine": "thai;grill", "diet:meat": "yes", "diet:omnivore": "yes", "internet_access": "no", "name": "\u0e40\u0e2e\u0e37\u0e2d\u0e19 \u0e2d\u0e35\u0e2a\u0e32\u0e19 \u0e2b\u0e21\u0e39\u0e01\u0e30\u0e17\u0e30\u0e08\u0e34\u0e49\u0e21\u0e08\u0e38\u0e48\u0e21", "opening_hours": "Mo-Su 16:00-23:00", "outdoor_seating": "yes", "phone": "0909783144", "takeaway": "no"}}, {"type": "node", "id": 1688189192, "lat": 13.7241926, "lon": 100.7535334}, {"type": "node", "id": 3282886541, "lat": 13.7246514, "lon": 100.7515739}, {"type": "node", "id": 3282887316, "lat": 13.7242022, "lon": 100.7518723}, {"type": "node", "id": 3282887317, "lat": 13.7258579, "lon": 100.7515671}, {"type": "node", "id": 3282887329, "lat": 13.725818, "lon": 100.7522952}, {"type": "node", "id": 3282887339, "lat": 13.7257771, "lon": 100.7534373}, {"type": "node", "id": 3479636864, "lat": 13.7231518, "lon": 100.7539755}, {"type": "node", "id": 3479636865, "lat": 13.7231916, "lon": 100.7534718}, {"type": "node", "id": 3479636866, "lat": 13.7232908, "lon": 100.7539872}, {"type": "node", "id": 3479636867, "lat": 13.7233306, "lon": 100.7534834}, {"type": "node", "id": 3580070909, "lat": 13.7241618, "lon": 100.7526911}, {"type": "node", "id": 3580070923, "lat": 13.7241761, "lon": 100.752929}, {"type": "node", "id": 6753255814, "lat": 13.7233131, "lon": 100.7537044}, {"type": "node", "id": 7308680185, "lat": 13.7258533, "lon": 100.7516517}, {"type": "node", "id": 11647511592, "lat": 13.7246398, "lon": 100.7518702}, {"type": "node", "id": 11647511594, "lat": 13.7241765, "lon": 100.7531697}, {"type": "node", "id": 11647511595, "lat": 13.7257371, "lon": 100.7534832}, {"type": "node", "id": 11647511596, "lat": 13.7243339, "lon": 100.7534693}, {"type": "node", "id": 5040496465, "lat": 13.7262746, "lon": 100.7679599}, {"type": "node", "id": 5040496468, "lat": 13.7242241, "lon": 100.7679364}, {"type": "node", "id": 5302767323, "lat": 13.7253678, "lon": 100.7679516}, {"type": "node", "id": 8073247417, "lat": 13.7220692, "lon": 100.7643422}, {"type": "node", "id": 8073247418, "lat": 13.7218211, "lon": 100.7643407}, {"type": "node", "id": 8073247419, "lat": 13.7218233, "lon": 100.7645029}, {"type": "node", "id": 8073247420, "lat": 13.7220707, "lon": 100.7645052}, {"type": "node", "id": 8073247421, "lat": 13.7219436, "lon": 100.7643438}, {"type": "node", "id": 9644788300, "lat": 13.7259697, "lon": 100.7650921}, {"type": "node", "id": 9644788301, "lat": 13.7259716, "lon": 100.7652025}, {"type": "node", "id": 9644788302, "lat": 13.7260461, "lon": 100.7652013}, {"type": "node", "id": 9644788303, "lat": 13.7260451, "lon": 100.7650914}, {"type": "node", "id": 9942250813, "lat": 13.7253861, "lon": 100.7637382}, {"type": "node", "id": 9942250815, "lat": 13.7254525, "lon": 100.7637378}, {"type": "node", "id": 9942250816, "lat": 13.725386, "lon": 100.7637683}, {"type": "node", "id": 9942287218, "lat": 13.7254527, "lon": 100.7637682}, {"type": "node", "id": 12286715092, "lat": 13.724343, "lon": 100.7678509}, {"type": "node", "id": 12286715107, "lat": 13.7215107, "lon": 100.7677897}, {"type": "node", "id": 12286715108, "lat": 13.721511, "lon": 100.767983}, {"type": "node", "id": 12286715109, "lat": 13.7210992, "lon": 100.7679824}, {"type": "node", "id": 12286715110, "lat": 13.7210978, "lon": 100.7677936}, {"type": "node", "id": 5057725186, "lat": 13.7277108, "lon": 100.7656086}, {"type": "node", "id": 5057725187, "lat": 13.727586, "lon": 100.7656077}, {"type": "node", "id": 5057725188, "lat": 13.727587, "lon": 100.7654718}, {"type": "node", "id": 5057725189, "lat": 13.7277117, "lon": 100.7654727}, {"type": "node", "id": 9651444978, "lat": 13.7273779, "lon": 100.7651075}, {"type": "node", "id": 9651444979, "lat": 13.7273079, "lon": 100.7651064}, {"type": "node", "id": 9654221347, "lat": 13.7272692, "lon": 100.7651057}, {"type": "node", "id": 9664334305, "lat": 13.7276673, "lon": 100.7633383}, {"type": "node", "id": 9664334306, "lat": 13.7276671, "lon": 100.7634505}, {"type": "node", "id": 9664334307, "lat": 13.7275612, "lon": 100.7634504}, {"type": "node", "id": 9664334308, "lat": 13.7275621, "lon": 100.7633385}, {"type": "node", "id": 9666845015, "lat": 13.7274665, "lon": 100.7634511}, {"type": "node", "id": 9666845016, "lat": 13.7274663, "lon": 100.7633387}, {"type": "node", "id": 9666882460, "lat": 13.7272051, "lon": 100.7649562}, {"type": "node", "id": 9666882461, "lat": 13.7272033, "lon": 100.7651024}, {"type": "node", "id": 9666882462, "lat": 13.7271417, "lon": 100.7651017}, {"type": "node", "id": 9666882463, "lat": 13.7271441, "lon": 100.7648964}, {"type": "node", "id": 9678994175, "lat": 13.7272486, "lon": 100.764914}, {"type": "node", "id": 9678994176, "lat": 13.7272482, "lon": 100.7648486}, {"type": "node", "id": 9678994177, "lat": 13.7271867, "lon": 100.7648485}, {"type": "node", "id": 9678994178, "lat": 13.7271874, "lon": 100.7649144}, {"type": "node", "id": 9679075393, "lat": 13.7272752, "lon": 100.7649139}, {"type": "node", "id": 9679075394, "lat": 13.7272759, "lon": 100.7648487}, {"type": "node", "id": 9679075395, "lat": 13.7273032, "lon": 100.7648489}, {"type": "node", "id": 9679075396, "lat": 13.7273031, "lon": 100.7649132}, {"type": "node", "id": 9679075397, "lat": 13.727357, "lon": 100.7649125}, {"type": "node", "id": 9679075398, "lat": 13.7273577, "lon": 100.7648493}, {"type": "node", "id": 9679075399, "lat": 13.7273881, "lon": 100.7648498}, {"type": "node", "id": 9679075400, "lat": 13.7273881, "lon": 100.7649126}, {"type": "node", "id": 9679075401, "lat": 13.7274399, "lon": 100.7649117}, {"type": "node", "id": 9679075402, "lat": 13.7274397, "lon": 100.7648502}, {"type": "node", "id": 9679075403, "lat": 13.7274749, "lon": 100.7648504}, {"type": "node", "id": 9679075404, "lat": 13.727475, "lon": 100.7649118}, {"type": "node", "id": 9679093649, "lat": 13.7275284, "lon": 100.7648471}, {"type": "node", "id": 9679093650, "lat": 13.7275285, "lon": 100.7649015}, {"type": "node", "id": 9679093651, "lat": 13.7274932, "lon": 100.7649016}, {"type": "node", "id": 9679093652, "lat": 13.7274932, "lon": 100.7648471}, {"type": "node", "id": 9679093655, "lat": 13.7274973, "lon": 100.7648471}, {"type": "node", "id": 9680670477, "lat": 13.7273333, "lon": 100.7649124}, {"type": "node", "id": 9680670478, "lat": 13.7273264, "lon": 100.7649128}, {"type": "node", "id": 9680670480, "lat": 13.727323, "lon": 100.7648494}, {"type": "node", "id": 9680670486, "lat": 13.7274123, "lon": 100.7648503}, {"type": "node", "id": 9708948417, "lat": 13.7274484, "lon": 100.7651083}, {"type": "node", "id": 9709454708, "lat": 13.7272035, "lon": 100.7650813}, {"type": "node", "id": 9709893349, "lat": 13.7271738, "lon": 100.7649558}, {"type": "node", "id": 9709896156, "lat": 13.7272682, "lon": 100.7652089}, {"type": "node", "id": 9709896158, "lat": 13.7273068, "lon": 100.7652091}, {"type": "node", "id": 9709896159, "lat": 13.727377, "lon": 100.7652093}, {"type": "node", "id": 9709896161, "lat": 13.7274479, "lon": 100.7652095}, {"type": "node", "id": 9710456560, "lat": 13.7275635, "lon": 100.765109}, {"type": "node", "id": 9710456563, "lat": 13.7275632, "lon": 100.7652097}, {"type": "node", "id": 9740955333, "lat": 13.7271745, "lon": 100.7648968}, {"type": "node", "id": 11693409217, "lat": 13.738401, "lon": 100.7676819}, {"type": "node", "id": 11693409218, "lat": 13.7382497, "lon": 100.7676847}, {"type": "node", "id": 11693409219, "lat": 13.738252, "lon": 100.7678135}, {"type": "node", "id": 11693409220, "lat": 13.738371, "lon": 100.7678113}, {"type": "node", "id": 11693409221, "lat": 13.7383703, "lon": 100.7677717}, {"type": "node", "id": 11693409222, "lat": 13.7384026, "lon": 100.7677711}, {"type": "node", "id": 4805856810, "lat": 13.743904, "lon": 100.7541632}, {"type": "node", "id": 4805856815, "lat": 13.7422333, "lon": 100.7541474}, {"type": "node", "id": 4805856811, "lat": 13.7432677, "lon": 100.7554762}, {"type": "node", "id": 4805856812, "lat": 13.7425164, "lon": 100.7554412}, {"type": "node", "id": 4805856813, "lat": 13.7425186, "lon": 100.7551943}, {"type": "node", "id": 4805856814, "lat": 13.7422242, "lon": 100.7551916}, {"type": "node", "id": 11655652632, "lat": 13.7437816, "lon": 100.755284}, {"type": "node", "id": 11655652633, "lat": 13.7432845, "lon": 100.7552784}, {"type": "node", "id": 11880870051, "lat": 13.7456377, "lon": 100.7577338}, {"type": "node", "id": 11880870052, "lat": 13.745538, "lon": 100.7577355}, {"type": "node", "id": 11880870053, "lat": 13.7455393, "lon": 100.7578183}, {"type": "node", "id": 11880870054, "lat": 13.745639, "lon": 100.7578166}, {"type": "node", "id": 11880870088, "lat": 13.7458702, "lon": 100.7565436}, {"type": "node", "id": 11880870089, "lat": 13.7457699, "lon": 100.7565439}, {"type": "node", "id": 11880870090, "lat": 13.74577, "lon": 100.7565721}, {"type": "node", "id": 11880870091, "lat": 13.7457427, "lon": 100.7565722}, {"type": "node", "id": 11880870092, "lat": 13.745743, "lon": 100.7566511}, {"type": "node", "id": 11880870093, "lat": 13.7458933, "lon": 100.7566506}, {"type": "node", "id": 11880870094, "lat": 13.7458931, "lon": 100.7565669}, {"type": "node", "id": 11880870095, "lat": 13.7458703, "lon": 100.756567}, {"type": "node", "id": 11671134724, "lat": 13.7492831, "lon": 100.7619153}, {"type": "node", "id": 11671134725, "lat": 13.7491941, "lon": 100.7619153}, {"type": "node", "id": 11671134726, "lat": 13.7491941, "lon": 100.7620199}, {"type": "node", "id": 11671134727, "lat": 13.7492831, "lon": 100.7620199}, {"type": "node", "id": 11461191835, "lat": 13.7101989, "lon": 100.7777017}, {"type": "node", "id": 11461191836, "lat": 13.710155, "lon": 100.7777184}, {"type": "node", "id": 11461191837, "lat": 13.7101099, "lon": 100.7777054}, {"type": "node", "id": 11461191838, "lat": 13.7100809, "lon": 100.7776676}, {"type": "node", "id": 11461191839, "lat": 13.710079, "lon": 100.7776194}, {"type": "node", "id": 11461191840, "lat": 13.710105, "lon": 100.7775793}, {"type": "node", "id": 11461191841, "lat": 13.7101489, "lon": 100.7775626}, {"type": "node", "id": 11461191842, "lat": 13.710194, "lon": 100.7775757}, {"type": "node", "id": 11461191843, "lat": 13.710223, "lon": 100.7776135}, {"type": "node", "id": 11461191844, "lat": 13.7102248, "lon": 100.7776616}, {"type": "node", "id": 11461191963, "lat": 13.7096653, "lon": 100.7797752}, {"type": "node", "id": 11461191964, "lat": 13.7096744, "lon": 100.7797839}, {"type": "node", "id": 11461191965, "lat": 13.7097064, "lon": 100.7798148}, {"type": "node", "id": 11461191966, "lat": 13.7096842, "lon": 100.7797746}, {"type": "node", "id": 11461191967, "lat": 13.7096855, "lon": 100.7797605}, {"type": "node", "id": 11461191968, "lat": 13.7097285, "lon": 100.7797766}, {"type": "node", "id": 11461191969, "lat": 13.7097038, "lon": 100.7797585}, {"type": "node", "id": 11461191970, "lat": 13.7096979, "lon": 100.7797457}, {"type": "node", "id": 11461191971, "lat": 13.7096985, "lon": 100.779733}, {"type": "node", "id": 11461191972, "lat": 13.7097481, "lon": 100.7797417}, {"type": "node", "id": 11461191973, "lat": 13.7097305, "lon": 100.7797229}, {"type": "node", "id": 11461191974, "lat": 13.7097181, "lon": 100.7797042}, {"type": "node", "id": 11461191975, "lat": 13.7097461, "lon": 100.7797102}, {"type": "node", "id": 11461191976, "lat": 13.7097741, "lon": 100.7797055}, {"type": "node", "id": 11461191977, "lat": 13.7097389, "lon": 100.7796921}, {"type": "node", "id": 11461191978, "lat": 13.7097292, "lon": 100.779678}, {"type": "node", "id": 11461191979, "lat": 13.7097676, "lon": 100.779678}, {"type": "node", "id": 11461191980, "lat": 13.7097832, "lon": 100.7796666}, {"type": "node", "id": 11461191981, "lat": 13.70975, "lon": 100.7796673}, {"type": "node", "id": 11461191982, "lat": 13.7097324, "lon": 100.7796539}, {"type": "node", "id": 11461191983, "lat": 13.7097722, "lon": 100.7796378}, {"type": "node", "id": 11461191984, "lat": 13.7097546, "lon": 100.779627}, {"type": "node", "id": 11461191985, "lat": 13.7097702, "lon": 100.7796096}, {"type": "node", "id": 11461191986, "lat": 13.7097552, "lon": 100.7795935}, {"type": "node", "id": 11461191987, "lat": 13.7097656, "lon": 100.7795828}, {"type": "node", "id": 11461191988, "lat": 13.7097748, "lon": 100.779568}, {"type": "node", "id": 11461191989, "lat": 13.70978, "lon": 100.7795419}, {"type": "node", "id": 11461191990, "lat": 13.7097813, "lon": 100.7795191}, {"type": "node", "id": 11461191991, "lat": 13.7097767, "lon": 100.7794956}, {"type": "node", "id": 11461191992, "lat": 13.7097819, "lon": 100.7794856}, {"type": "node", "id": 11461191993, "lat": 13.709795, "lon": 100.7794782}, {"type": "node", "id": 11461191994, "lat": 13.7098132, "lon": 100.7794775}, {"type": "node", "id": 11461191995, "lat": 13.7098308, "lon": 100.7794862}, {"type": "node", "id": 11461191996, "lat": 13.7098471, "lon": 100.7794996}, {"type": "node", "id": 11461191997, "lat": 13.7098547, "lon": 100.7795213}, {"type": "node", "id": 11461191998, "lat": 13.7098557, "lon": 100.7795345}, {"type": "node", "id": 11461191999, "lat": 13.709877, "lon": 100.7795345}, {"type": "node", "id": 11461192000, "lat": 13.7098888, "lon": 100.7795405}, {"type": "node", "id": 11461192001, "lat": 13.7098959, "lon": 100.7795553}, {"type": "node", "id": 11461192002, "lat": 13.7098966, "lon": 100.7795767}, {"type": "node", "id": 11461192003, "lat": 13.7098909, "lon": 100.7795957}, {"type": "node", "id": 11461192004, "lat": 13.7099044, "lon": 100.7796036}, {"type": "node", "id": 11461192005, "lat": 13.7099129, "lon": 100.7796116}, {"type": "node", "id": 11461192006, "lat": 13.7099174, "lon": 100.779623}, {"type": "node", "id": 11461192007, "lat": 13.7099148, "lon": 100.7796378}, {"type": "node", "id": 11461192008, "lat": 13.7099017, "lon": 100.7796544}, {"type": "node", "id": 11461192009, "lat": 13.7099101, "lon": 100.7796655}, {"type": "node", "id": 11461192010, "lat": 13.7099174, "lon": 100.779682}, {"type": "node", "id": 11461192011, "lat": 13.7099174, "lon": 100.7796934}, {"type": "node", "id": 11461192012, "lat": 13.7099089, "lon": 100.7797064}, {"type": "node", "id": 11461192013, "lat": 13.709894, "lon": 100.7797181}, {"type": "node", "id": 11461192014, "lat": 13.7099064, "lon": 100.7797303}, {"type": "node", "id": 11461192015, "lat": 13.7099103, "lon": 100.7797484}, {"type": "node", "id": 11461192016, "lat": 13.7099057, "lon": 100.7797632}, {"type": "node", "id": 11461192017, "lat": 13.709894, "lon": 100.7797779}, {"type": "node", "id": 11461192018, "lat": 13.7098725, "lon": 100.7797873}, {"type": "node", "id": 11461192019, "lat": 13.7098814, "lon": 100.77981}, {"type": "node", "id": 11461192020, "lat": 13.7098799, "lon": 100.779833}, {"type": "node", "id": 11461192021, "lat": 13.7098627, "lon": 100.779845}, {"type": "node", "id": 11461192022, "lat": 13.7098348, "lon": 100.7798487}, {"type": "node", "id": 11461192023, "lat": 13.7098427, "lon": 100.7798784}, {"type": "node", "id": 11461192024, "lat": 13.709835, "lon": 100.7799028}, {"type": "node", "id": 11461192025, "lat": 13.7098157, "lon": 100.7799092}, {"type": "node", "id": 11461192026, "lat": 13.7097851, "lon": 100.7799059}, {"type": "node", "id": 11461192027, "lat": 13.7097884, "lon": 100.7799308}, {"type": "node", "id": 11461192028, "lat": 13.709779, "lon": 100.7799572}, {"type": "node", "id": 11461192029, "lat": 13.7097479, "lon": 100.7799552}, {"type": "node", "id": 11461192030, "lat": 13.7097226, "lon": 100.7799415}, {"type": "node", "id": 11461192031, "lat": 13.7096901, "lon": 100.779908}, {"type": "node", "id": 11461192032, "lat": 13.7096699, "lon": 100.7798322}, {"type": "node", "id": 11461192033, "lat": 13.7096519, "lon": 100.7797836}, {"type": "node", "id": 11465185651, "lat": 13.7097054, "lon": 100.7799238}, {"type": "node", "id": 4232529869, "lat": 13.7064446, "lon": 100.7857732}, {"type": "node", "id": 4232530873, "lat": 13.7064394, "lon": 100.7868199}, {"type": "node", "id": 4232530891, "lat": 13.7065436, "lon": 100.7866804}, {"type": "node", "id": 4232530893, "lat": 13.705567, "lon": 100.7866678}, {"type": "node", "id": 4232530907, "lat": 13.7065123, "lon": 100.7867824}, {"type": "node", "id": 4232530994, "lat": 13.7064394, "lon": 100.7859831}, {"type": "node", "id": 4232541922, "lat": 13.7049384, "lon": 100.7877265}, {"type": "node", "id": 4688962948, "lat": 13.706504, "lon": 100.78589}, {"type": "node", "id": 4688962949, "lat": 13.7067177, "lon": 100.7868459}, {"type": "node", "id": 4688962955, "lat": 13.705828, "lon": 100.7867051}, {"type": "node", "id": 4688962956, "lat": 13.7063345, "lon": 100.7868002}, {"type": "node", "id": 5673995635, "lat": 13.7064348, "lon": 100.785882}, {"type": "node", "id": 4688962951, "lat": 13.7063566, "lon": 100.7880825}, {"type": "node", "id": 4688962952, "lat": 13.7058259, "lon": 100.7881735}, {"type": "node", "id": 4688962953, "lat": 13.7054058, "lon": 100.7881356}, {"type": "node", "id": 4688962954, "lat": 13.7048898, "lon": 100.7878815}, {"type": "node", "id": 10576582097, "lat": 13.7126282, "lon": 100.7843284}, {"type": "node", "id": 10576582099, "lat": 13.7122495, "lon": 100.7841855}, {"type": "node", "id": 10576582100, "lat": 13.7121907, "lon": 100.7845024}, {"type": "node", "id": 10576582103, "lat": 13.7122466, "lon": 100.7842477}, {"type": "node", "id": 10576582105, "lat": 13.7122132, "lon": 100.7843993}, {"type": "node", "id": 10576582107, "lat": 13.7121203, "lon": 100.7843246}, {"type": "node", "id": 10576582109, "lat": 13.7122245, "lon": 100.7843488}, {"type": "node", "id": 10576582120, "lat": 13.7122389, "lon": 100.7842395}, {"type": "node", "id": 10576582125, "lat": 13.7121084, "lon": 100.7843751}, {"type": "node", "id": 10576582128, "lat": 13.7126334, "lon": 100.7843726}, {"type": "node", "id": 10576582129, "lat": 13.7127571, "lon": 100.7843464}, {"type": "node", "id": 10576582132, "lat": 13.7126226, "lon": 100.7843711}, {"type": "node", "id": 10576582138, "lat": 13.7121555, "lon": 100.7841658}, {"type": "node", "id": 10576582139, "lat": 13.7127514, "lon": 100.7843891}, {"type": "node", "id": 10576585842, "lat": 13.7120838, "lon": 100.7844795}, {"type": "node", "id": 10576585844, "lat": 13.7121449, "lon": 100.7842198}, {"type": "node", "id": 10576585845, "lat": 13.7121424, "lon": 100.7842235}, {"type": "node", "id": 4688962950, "lat": 13.7069314, "lon": 100.7878511}, {"type": "node", "id": 735096416, "lat": 13.7167068, "lon": 100.7804344}, {"type": "node", "id": 2473619176, "lat": 13.7163009, "lon": 100.7758047}, {"type": "node", "id": 3521693209, "lat": 13.7199381, "lon": 100.7783639}, {"type": "node", "id": 3521693210, "lat": 13.7199387, "lon": 100.7790198}, {"type": "node", "id": 4213314659, "lat": 13.7163068, "lon": 100.7761526}, {"type": "node", "id": 4213314670, "lat": 13.7169556, "lon": 100.7761409}, {"type": "node", "id": 4213314671, "lat": 13.7169498, "lon": 100.775793}, {"type": "node", "id": 2936392669, "lat": 13.723095, "lon": 100.7743854}, {"type": "node", "id": 2936392671, "lat": 13.7227956, "lon": 100.7745432}, {"type": "node", "id": 2936392672, "lat": 13.7229281, "lon": 100.7743891}, {"type": "node", "id": 2936392676, "lat": 13.7229312, "lon": 100.7745402}, {"type": "node", "id": 5040496466, "lat": 13.726289, "lon": 100.769115}, {"type": "node", "id": 5040496467, "lat": 13.7242013, "lon": 100.7691267}, {"type": "node", "id": 5497084521, "lat": 13.7264342, "lon": 100.770162}, {"type": "node", "id": 9951004384, "lat": 13.7200848, "lon": 100.7710262}, {"type": "node", "id": 9951004385, "lat": 13.7216064, "lon": 100.7713848}, {"type": "node", "id": 9951134511, "lat": 13.7212852, "lon": 100.7710201}, {"type": "node", "id": 9951134512, "lat": 13.7210128, "lon": 100.77102}, {"type": "node", "id": 9951134513, "lat": 13.721285, "lon": 100.771301}, {"type": "node", "id": 9951134515, "lat": 13.720184, "lon": 100.7711488}, {"type": "node", "id": 9951134516, "lat": 13.7204524, "lon": 100.7711297}, {"type": "node", "id": 9951137717, "lat": 13.720259, "lon": 100.7710238}, {"type": "node", "id": 9951137718, "lat": 13.7202425, "lon": 100.7711482}, {"type": "node", "id": 9951137719, "lat": 13.7212851, "lon": 100.7713856}, {"type": "node", "id": 9951137720, "lat": 13.721475, "lon": 100.7710198}, {"type": "node", "id": 9951137725, "lat": 13.7216065, "lon": 100.7713021}, {"type": "node", "id": 9951137729, "lat": 13.720831, "lon": 100.7711283}, {"type": "node", "id": 9951137730, "lat": 13.72026, "lon": 100.7711314}, {"type": "node", "id": 9951137731, "lat": 13.7212857, "lon": 100.7711259}, {"type": "node", "id": 9951137732, "lat": 13.7200857, "lon": 100.7711163}, {"type": "node", "id": 9951137734, "lat": 13.7201837, "lon": 100.7711153}, {"type": "node", "id": 9951137735, "lat": 13.7211743, "lon": 100.7710206}, {"type": "node", "id": 9951137736, "lat": 13.7212905, "lon": 100.7710201}, {"type": "node", "id": 9951137737, "lat": 13.7208308, "lon": 100.7710204}, {"type": "node", "id": 9951137738, "lat": 13.7204515, "lon": 100.771022}, {"type": "node", "id": 9951137739, "lat": 13.7202413, "lon": 100.7710247}, {"type": "node", "id": 9951137740, "lat": 13.7211748, "lon": 100.7711264}, {"type": "node", "id": 9951137741, "lat": 13.7212907, "lon": 100.7711247}, {"type": "node", "id": 9951137742, "lat": 13.7214752, "lon": 100.7711244}, {"type": "node", "id": 9951137743, "lat": 13.721013, "lon": 100.771128}, {"type": "node", "id": 9951153802, "lat": 13.721285, "lon": 100.7713129}, {"type": "node", "id": 10171054672, "lat": 13.7252223, "lon": 100.7739415}, {"type": "node", "id": 10171054673, "lat": 13.7252215, "lon": 100.7740073}, {"type": "node", "id": 10171054674, "lat": 13.7252862, "lon": 100.7739424}, {"type": "node", "id": 10171054675, "lat": 13.7252854, "lon": 100.7740082}, {"type": "node", "id": 11270889254, "lat": 13.7257129, "lon": 100.7703699}, {"type": "node", "id": 11270889259, "lat": 13.7258269, "lon": 100.7705086}, {"type": "node", "id": 11270889261, "lat": 13.7257154, "lon": 100.7705108}, {"type": "node", "id": 11270889264, "lat": 13.7258243, "lon": 100.7703677}, {"type": "node", "id": 11270929312, "lat": 13.7261785, "lon": 100.7702972}, {"type": "node", "id": 11270929321, "lat": 13.7261784, "lon": 100.7701623}, {"type": "node", "id": 11270929323, "lat": 13.7264343, "lon": 100.770297}, {"type": "node", "id": 12286715093, "lat": 13.7242134, "lon": 100.7685674}, {"type": "node", "id": 735096417, "lat": 13.7217037, "lon": 100.780549}, {"type": "node", "id": 735113875, "lat": 13.7217051, "lon": 100.7806023}, {"type": "node", "id": 735113891, "lat": 13.7217049, "lon": 100.7806775}, {"type": "node", "id": 2936392670, "lat": 13.7228002, "lon": 100.7747641}, {"type": "node", "id": 2936392673, "lat": 13.7231027, "lon": 100.7747575}, {"type": "node", "id": 3521693208, "lat": 13.7214425, "lon": 100.7783626}, {"type": "node", "id": 3521693211, "lat": 13.721443, "lon": 100.7790185}, {"type": "node", "id": 9682535319, "lat": 13.7229133, "lon": 100.7801137}, {"type": "node", "id": 9682535321, "lat": 13.722837, "lon": 100.7799451}, {"type": "node", "id": 9682535322, "lat": 13.7230546, "lon": 100.7801133}, {"type": "node", "id": 9682535323, "lat": 13.722875, "lon": 100.7799449}, {"type": "node", "id": 9682535324, "lat": 13.722944, "lon": 100.7799448}, {"type": "node", "id": 9682535325, "lat": 13.7228377, "lon": 100.7801144}, {"type": "node", "id": 9682535326, "lat": 13.7229124, "lon": 100.7799449}, {"type": "node", "id": 9682535327, "lat": 13.7227984, "lon": 100.7801146}, {"type": "node", "id": 9682535328, "lat": 13.7229445, "lon": 100.7801135}, {"type": "node", "id": 9682535329, "lat": 13.7228761, "lon": 100.7801142}, {"type": "node", "id": 9682535330, "lat": 13.7230538, "lon": 100.7799443}, {"type": "node", "id": 9682535332, "lat": 13.7227981, "lon": 100.7799449}, {"type": "node", "id": 10219782229, "lat": 13.7229659, "lon": 100.7770645}, {"type": "node", "id": 10219782231, "lat": 13.7228041, "lon": 100.7771352}, {"type": "node", "id": 10219782233, "lat": 13.7229647, "lon": 100.7768632}, {"type": "node", "id": 10219782234, "lat": 13.7228025, "lon": 100.7768642}, {"type": "node", "id": 10219782235, "lat": 13.7229435, "lon": 100.7770647}, {"type": "node", "id": 10219782236, "lat": 13.7229439, "lon": 100.7771344}, {"type": "node", "id": 10567764122, "lat": 13.7229157, "lon": 100.7807252}, {"type": "node", "id": 10567764123, "lat": 13.7229682, "lon": 100.7807252}, {"type": "node", "id": 10567764124, "lat": 13.7229682, "lon": 100.7806717}, {"type": "node", "id": 10567764125, "lat": 13.7229156, "lon": 100.7806718}, {"type": "node", "id": 11013367758, "lat": 13.7258613, "lon": 100.7798778}, {"type": "node", "id": 11013367759, "lat": 13.7258613, "lon": 100.7801111}, {"type": "node", "id": 11013367760, "lat": 13.7250903, "lon": 100.7801182}, {"type": "node", "id": 11013367761, "lat": 13.7250869, "lon": 100.7798849}, {"type": "node", "id": 735096418, "lat": 13.7166979, "lon": 100.7818136}, {"type": "node", "id": 735096419, "lat": 13.721718, "lon": 100.781899}, {"type": "node", "id": 735113885, "lat": 13.7217152, "lon": 100.7816393}, {"type": "node", "id": 11078295473, "lat": 13.7217163, "lon": 100.78174}, {"type": "node", "id": 3521702441, "lat": 13.7218228, "lon": 100.791365}, {"type": "node", "id": 3521702444, "lat": 13.722229, "lon": 100.7897501}, {"type": "node", "id": 3521702449, "lat": 13.7237199, "lon": 100.7901489}, {"type": "node", "id": 3521702450, "lat": 13.7231673, "lon": 100.7918154}, {"type": "node", "id": 9641661304, "lat": 13.7275892, "lon": 100.7714607}, {"type": "node", "id": 9641661308, "lat": 13.7273627, "lon": 100.7716156}, {"type": "node", "id": 9641661309, "lat": 13.7273885, "lon": 100.7716625}, {"type": "node", "id": 9641661310, "lat": 13.727291, "lon": 100.7716596}, {"type": "node", "id": 9641661311, "lat": 13.7272917, "lon": 100.7717233}, {"type": "node", "id": 9641661316, "lat": 13.7274097, "lon": 100.7711449}, {"type": "node", "id": 9641679717, "lat": 13.7274149, "lon": 100.7713009}, {"type": "node", "id": 9641679718, "lat": 13.7272361, "lon": 100.7713975}, {"type": "node", "id": 9641679721, "lat": 13.7274763, "lon": 100.7713005}, {"type": "node", "id": 9641679726, "lat": 13.7275396, "lon": 100.7711464}, {"type": "node", "id": 9641679727, "lat": 13.7275424, "lon": 100.7713007}, {"type": "node", "id": 9645329736, "lat": 13.7276676, "lon": 100.7711442}, {"type": "node", "id": 9645329737, "lat": 13.7276704, "lon": 100.7712984}, {"type": "node", "id": 9645329738, "lat": 13.7274743, "lon": 100.771222}, {"type": "node", "id": 9645329739, "lat": 13.7275409, "lon": 100.7712214}, {"type": "node", "id": 9645329740, "lat": 13.7274119, "lon": 100.771223}, {"type": "node", "id": 9645329742, "lat": 13.7272984, "lon": 100.771209}, {"type": "node", "id": 9645329743, "lat": 13.7273351, "lon": 100.7713459}, {"type": "node", "id": 9645329745, "lat": 13.7273322, "lon": 100.7712736}, {"type": "node", "id": 9645329747, "lat": 13.7273059, "lon": 100.7712883}, {"type": "node", "id": 9645329748, "lat": 13.7272353, "lon": 100.7713282}, {"type": "node", "id": 9645353254, "lat": 13.7277852, "lon": 100.7698988}, {"type": "node", "id": 9645353255, "lat": 13.7277851, "lon": 100.769936}, {"type": "node", "id": 9645353256, "lat": 13.7276248, "lon": 100.7699363}, {"type": "node", "id": 9645353257, "lat": 13.7276242, "lon": 100.7698995}, {"type": "node", "id": 9646781224, "lat": 13.7269789, "lon": 100.7711545}, {"type": "node", "id": 9646781244, "lat": 13.7277292, "lon": 100.7710512}, {"type": "node", "id": 9646781245, "lat": 13.7277292, "lon": 100.7709965}, {"type": "node", "id": 9646781246, "lat": 13.7276102, "lon": 100.7709964}, {"type": "node", "id": 9646781247, "lat": 13.7276101, "lon": 100.771051}, {"type": "node", "id": 9654702824, "lat": 13.7267274, "lon": 100.7692652}, {"type": "node", "id": 9654702825, "lat": 13.7267275, "lon": 100.7693867}, {"type": "node", "id": 9654702826, "lat": 13.7266461, "lon": 100.7692653}, {"type": "node", "id": 9654702827, "lat": 13.7266463, "lon": 100.7694315}, {"type": "node", "id": 9654702828, "lat": 13.7267275, "lon": 100.7694314}, {"type": "node", "id": 9676340928, "lat": 13.726929, "lon": 100.7695086}, {"type": "node", "id": 9676340930, "lat": 13.727145, "lon": 100.7694729}, {"type": "node", "id": 9935413041, "lat": 13.7271532, "lon": 100.7692649}, {"type": "node", "id": 9935413042, "lat": 13.727266, "lon": 100.7694142}, {"type": "node", "id": 9935413043, "lat": 13.7272659, "lon": 100.7692648}, {"type": "node", "id": 9935413044, "lat": 13.7271534, "lon": 100.7694143}, {"type": "node", "id": 9935538000, "lat": 13.7268616, "lon": 100.7694814}, {"type": "node", "id": 9935538001, "lat": 13.7271392, "lon": 100.7692649}, {"type": "node", "id": 9935538004, "lat": 13.726929, "lon": 100.7696184}, {"type": "node", "id": 9935538005, "lat": 13.726929, "lon": 100.7694813}, {"type": "node", "id": 9935538006, "lat": 13.7270696, "lon": 100.7694193}, {"type": "node", "id": 9935538008, "lat": 13.7267076, "lon": 100.7695276}, {"type": "node", "id": 9935538011, "lat": 13.7270696, "lon": 100.7694408}, {"type": "node", "id": 9935538012, "lat": 13.7270695, "lon": 100.7692649}, {"type": "node", "id": 9935538014, "lat": 13.7270312, "lon": 100.769265}, {"type": "node", "id": 9935538015, "lat": 13.7267078, "lon": 100.7695953}, {"type": "node", "id": 9935540417, "lat": 13.7273007, "lon": 100.7697145}, {"type": "node", "id": 9935540421, "lat": 13.7266601, "lon": 100.7695955}, {"type": "node", "id": 9935540424, "lat": 13.7271393, "lon": 100.7694193}, {"type": "node", "id": 9935540425, "lat": 13.7270314, "lon": 100.7694409}, {"type": "node", "id": 9935540426, "lat": 13.7268617, "lon": 100.7696184}, {"type": "node", "id": 9935540434, "lat": 13.7266599, "lon": 100.7695277}, {"type": "node", "id": 9937073184, "lat": 13.7275289, "lon": 100.7716209}, {"type": "node", "id": 9937073188, "lat": 13.7275279, "lon": 100.771542}, {"type": "node", "id": 9937073190, "lat": 13.7274638, "lon": 100.7716221}, {"type": "node", "id": 9937073192, "lat": 13.7274619, "lon": 100.7715419}, {"type": "node", "id": 9937073195, "lat": 13.7275911, "lon": 100.7715422}, {"type": "node", "id": 9937073197, "lat": 13.7272912, "lon": 100.7715662}, {"type": "node", "id": 9937073202, "lat": 13.7273258, "lon": 100.7715462}, {"type": "node", "id": 9937073203, "lat": 13.7274606, "lon": 100.7714601}, {"type": "node", "id": 9937073205, "lat": 13.7275269, "lon": 100.771461}, {"type": "node", "id": 9939179430, "lat": 13.7274554, "lon": 100.7695122}, {"type": "node", "id": 9939179431, "lat": 13.7274425, "lon": 100.7695121}, {"type": "node", "id": 9939179432, "lat": 13.7273899, "lon": 100.769512}, {"type": "node", "id": 9939179436, "lat": 13.7274553, "lon": 100.7695402}, {"type": "node", "id": 9939179437, "lat": 13.7274424, "lon": 100.7695401}, {"type": "node", "id": 9939179438, "lat": 13.7273898, "lon": 100.76954}, {"type": "node", "id": 9941655004, "lat": 13.7269738, "lon": 100.770174}, {"type": "node", "id": 9941655005, "lat": 13.7269744, "lon": 100.7702717}, {"type": "node", "id": 9941655006, "lat": 13.7273697, "lon": 100.7702695}, {"type": "node", "id": 9941655007, "lat": 13.7273692, "lon": 100.7701719}, {"type": "node", "id": 9945098049, "lat": 13.7271451, "lon": 100.7695109}, {"type": "node", "id": 9945098050, "lat": 13.7275564, "lon": 100.7694147}, {"type": "node", "id": 9945098051, "lat": 13.7275064, "lon": 100.7692646}, {"type": "node", "id": 9945098054, "lat": 13.7276345, "lon": 100.7694147}, {"type": "node", "id": 9945098055, "lat": 13.7275065, "lon": 100.7694147}, {"type": "node", "id": 9945098057, "lat": 13.7275563, "lon": 100.7692646}, {"type": "node", "id": 9945098058, "lat": 13.7274064, "lon": 100.7692647}, {"type": "node", "id": 9945098060, "lat": 13.7273378, "lon": 100.7694141}, {"type": "node", "id": 9945098062, "lat": 13.7274431, "lon": 100.7692647}, {"type": "node", "id": 9945098064, "lat": 13.727145, "lon": 100.7694584}, {"type": "node", "id": 9945098065, "lat": 13.7274433, "lon": 100.7694141}, {"type": "node", "id": 9945098067, "lat": 13.7274065, "lon": 100.7694141}, {"type": "node", "id": 9945098068, "lat": 13.7273377, "lon": 100.7692648}, {"type": "node", "id": 9945098069, "lat": 13.7272985, "lon": 100.7694582}, {"type": "node", "id": 9947261369, "lat": 13.7268907, "lon": 100.7710851}, {"type": "node", "id": 9947261370, "lat": 13.7270193, "lon": 100.7711542}, {"type": "node", "id": 9947261371, "lat": 13.7268915, "lon": 100.771155}, {"type": "node", "id": 9947261372, "lat": 13.7270185, "lon": 100.7710844}, {"type": "node", "id": 9949114827, "lat": 13.7276168, "lon": 100.7695295}, {"type": "node", "id": 9949114829, "lat": 13.7276345, "lon": 100.769472}, {"type": "node", "id": 9949114831, "lat": 13.7276346, "lon": 100.7695295}, {"type": "node", "id": 9949114832, "lat": 13.7276168, "lon": 100.769472}, {"type": "node", "id": 9949154220, "lat": 13.7276344, "lon": 100.7692645}, {"type": "node", "id": 9949154221, "lat": 13.7276399, "lon": 100.7695612}, {"type": "node", "id": 9949154222, "lat": 13.7276396, "lon": 100.7695803}, {"type": "node", "id": 9949154223, "lat": 13.727617, "lon": 100.7695608}, {"type": "node", "id": 9949154224, "lat": 13.7276167, "lon": 100.76958}, {"type": "node", "id": 9949160570, "lat": 13.7276345, "lon": 100.7694416}, {"type": "node", "id": 9949160574, "lat": 13.727747, "lon": 100.769411}, {"type": "node", "id": 9949160575, "lat": 13.7276345, "lon": 100.769411}, {"type": "node", "id": 9949160576, "lat": 13.727747, "lon": 100.7694415}, {"type": "node", "id": 9949160577, "lat": 13.7276345, "lon": 100.7695017}, {"type": "node", "id": 9949160579, "lat": 13.727747, "lon": 100.7694719}, {"type": "node", "id": 9953300179, "lat": 13.7273396, "lon": 100.7695118}, {"type": "node", "id": 9953300180, "lat": 13.7273395, "lon": 100.7695398}, {"type": "node", "id": 9953300181, "lat": 13.7272986, "lon": 100.7695107}, {"type": "node", "id": 9953300183, "lat": 13.7274106, "lon": 100.76954}, {"type": "node", "id": 9953300185, "lat": 13.7273234, "lon": 100.7695117}, {"type": "node", "id": 9953300186, "lat": 13.7273233, "lon": 100.7695397}, {"type": "node", "id": 9953300187, "lat": 13.7273087, "lon": 100.7695117}, {"type": "node", "id": 9953300188, "lat": 13.7273086, "lon": 100.7695397}, {"type": "node", "id": 9953310260, "lat": 13.7273744, "lon": 100.7695119}, {"type": "node", "id": 9953310261, "lat": 13.7273743, "lon": 100.7695399}, {"type": "node", "id": 9953310262, "lat": 13.7273586, "lon": 100.7695118}, {"type": "node", "id": 9953310263, "lat": 13.7273585, "lon": 100.7695399}, {"type": "node", "id": 9969704929, "lat": 13.727036, "lon": 100.7696493}, {"type": "node", "id": 9969704930, "lat": 13.7270981, "lon": 100.7695085}, {"type": "node", "id": 9969704931, "lat": 13.727036, "lon": 100.7695085}, {"type": "node", "id": 9969704932, "lat": 13.7270982, "lon": 100.7696493}, {"type": "node", "id": 10090544678, "lat": 13.7276345, "lon": 100.7694357}, {"type": "node", "id": 11176176789, "lat": 13.7268906, "lon": 100.7710018}, {"type": "node", "id": 11176176790, "lat": 13.7270179, "lon": 100.7710426}, {"type": "node", "id": 11176176791, "lat": 13.7268907, "lon": 100.7710434}, {"type": "node", "id": 11176176792, "lat": 13.7270171, "lon": 100.7710013}, {"type": "node", "id": 12914091542, "lat": 13.7273522, "lon": 100.7696095}, {"type": "node", "id": 12914091543, "lat": 13.7273527, "lon": 100.7697142}, {"type": "node", "id": 12914091544, "lat": 13.7273002, "lon": 100.7696098}, {"type": "node", "id": 2712349002, "lat": 13.7291306, "lon": 100.7792511}, {"type": "node", "id": 2712349003, "lat": 13.7291332, "lon": 100.7795772}, {"type": "node", "id": 2712349004, "lat": 13.728918, "lon": 100.7795853}, {"type": "node", "id": 2712349024, "lat": 13.7289764, "lon": 100.7792588}, {"type": "node", "id": 2712349026, "lat": 13.7289996, "lon": 100.7792572}, {"type": "node", "id": 2712349027, "lat": 13.7289149, "lon": 100.7792589}, {"type": "node", "id": 2712386213, "lat": 13.7299489, "lon": 100.7791636}, {"type": "node", "id": 2712386214, "lat": 13.7295795, "lon": 100.779211}, {"type": "node", "id": 2712386215, "lat": 13.7295658, "lon": 100.7789061}, {"type": "node", "id": 2712386216, "lat": 13.7296258, "lon": 100.778839}, {"type": "node", "id": 2712386217, "lat": 13.7299628, "lon": 100.779204}, {"type": "node", "id": 3149002279, "lat": 13.7287064, "lon": 100.7751903}, {"type": "node", "id": 3149002280, "lat": 13.7288846, "lon": 100.7751904}, {"type": "node", "id": 3149002281, "lat": 13.7288845, "lon": 100.7753789}, {"type": "node", "id": 3149002282, "lat": 13.7287062, "lon": 100.7753787}, {"type": "node", "id": 3152519528, "lat": 13.7300968, "lon": 100.7757502}, {"type": "node", "id": 3152519529, "lat": 13.7301013, "lon": 100.7762249}, {"type": "node", "id": 3152519530, "lat": 13.7298389, "lon": 100.7762275}, {"type": "node", "id": 3152519531, "lat": 13.7298344, "lon": 100.7757529}, {"type": "node", "id": 3203038901, "lat": 13.7293653, "lon": 100.7779135}, {"type": "node", "id": 3203038902, "lat": 13.7298146, "lon": 100.7783386}, {"type": "node", "id": 3203038903, "lat": 13.7303002, "lon": 100.7787959}, {"type": "node", "id": 3203038904, "lat": 13.7304334, "lon": 100.7789463}, {"type": "node", "id": 3203038905, "lat": 13.7305317, "lon": 100.7790997}, {"type": "node", "id": 3203038907, "lat": 13.7306241, "lon": 100.7795542}, {"type": "node", "id": 5039570997, "lat": 13.729344, "lon": 100.7776476}, {"type": "node", "id": 5040465487, "lat": 13.7314246, "lon": 100.778531}, {"type": "node", "id": 5040465500, "lat": 13.7314201, "lon": 100.7787381}, {"type": "node", "id": 5040465501, "lat": 13.7308472, "lon": 100.7785292}, {"type": "node", "id": 5040465502, "lat": 13.7308479, "lon": 100.7787036}, {"type": "node", "id": 5040465503, "lat": 13.73066, "lon": 100.7787061}, {"type": "node", "id": 5040465504, "lat": 13.7306612, "lon": 100.7785318}, {"type": "node", "id": 5040465505, "lat": 13.7314425, "lon": 100.7781124}, {"type": "node", "id": 5040465506, "lat": 13.7313935, "lon": 100.7797486}, {"type": "node", "id": 5040465507, "lat": 13.7301939, "lon": 100.7786955}, {"type": "node", "id": 5040465508, "lat": 13.7294811, "lon": 100.7780627}, {"type": "node", "id": 5504399828, "lat": 13.7306115, "lon": 100.7793418}, {"type": "node", "id": 5504399829, "lat": 13.730623, "lon": 100.7797384}, {"type": "node", "id": 10213786767, "lat": 13.7296561, "lon": 100.7776393}, {"type": "node", "id": 10593194418, "lat": 13.7298364, "lon": 100.7760178}, {"type": "node", "id": 10593194421, "lat": 13.7298365, "lon": 100.7759574}, {"type": "node", "id": 10593194422, "lat": 13.7298374, "lon": 100.7760894}, {"type": "node", "id": 10593194425, "lat": 13.7298375, "lon": 100.7760297}, {"type": "node", "id": 10593194426, "lat": 13.729838, "lon": 100.7761652}, {"type": "node", "id": 10593194429, "lat": 13.7298382, "lon": 100.7761053}, {"type": "node", "id": 10593194433, "lat": 13.7298358, "lon": 100.7758978}, {"type": "node", "id": 10593194434, "lat": 13.7300616, "lon": 100.7762257}, {"type": "node", "id": 10593194435, "lat": 13.7300034, "lon": 100.7763453}, {"type": "node", "id": 10593194436, "lat": 13.7300029, "lon": 100.7762261}, {"type": "node", "id": 10593194437, "lat": 13.7299266, "lon": 100.7762265}, {"type": "node", "id": 10593194438, "lat": 13.7299271, "lon": 100.7763455}, {"type": "node", "id": 10603518264, "lat": 13.7293653, "lon": 100.7779587}, {"type": "node", "id": 10616456594, "lat": 13.7312214, "lon": 100.7751047}, {"type": "node", "id": 10616456595, "lat": 13.7312215, "lon": 100.7752509}, {"type": "node", "id": 10616456596, "lat": 13.731062, "lon": 100.7752512}, {"type": "node", "id": 10616456597, "lat": 13.7310619, "lon": 100.7751049}, {"type": "node", "id": 12240581393, "lat": 13.7301292, "lon": 100.7780895}, {"type": "node", "id": 12240581394, "lat": 13.7301228, "lon": 100.7776965}, {"type": "node", "id": 12240581395, "lat": 13.7295749, "lon": 100.7781414}, {"type": "node", "id": 12240581397, "lat": 13.7293656, "lon": 100.7779918}, {"type": "node", "id": 12240581398, "lat": 13.7300714, "lon": 100.7776289}, {"type": "node", "id": 12240581399, "lat": 13.730116, "lon": 100.7776725}, {"type": "node", "id": 12240581400, "lat": 13.7301072, "lon": 100.7776567}, {"type": "node", "id": 12240584101, "lat": 13.7300909, "lon": 100.7776416}, {"type": "node", "id": 12240584102, "lat": 13.7295311, "lon": 100.7776477}, {"type": "node", "id": 12240584103, "lat": 13.7292605, "lon": 100.7779128}, {"type": "node", "id": 12240584104, "lat": 13.7300449, "lon": 100.7785549}, {"type": "node", "id": 12240584105, "lat": 13.7304893, "lon": 100.7790229}, {"type": "node", "id": 12240584106, "lat": 13.730569, "lon": 100.7791802}, {"type": "node", "id": 12240584107, "lat": 13.7305937, "lon": 100.7792585}, {"type": "node", "id": 12240584108, "lat": 13.7306228, "lon": 100.7794468}, {"type": "node", "id": 12240584109, "lat": 13.7292596, "lon": 100.7776501}, {"type": "node", "id": 12240584117, "lat": 13.730464, "lon": 100.7780837}, {"type": "node", "id": 12240584147, "lat": 13.7314152, "lon": 100.7789217}, {"type": "node", "id": 12240584152, "lat": 13.7314135, "lon": 100.7789871}, {"type": "node", "id": 12240584154, "lat": 13.7313996, "lon": 100.7780649}, {"type": "node", "id": 12240584155, "lat": 13.7314174, "lon": 100.7780685}, {"type": "node", "id": 12240584156, "lat": 13.7314306, "lon": 100.7780799}, {"type": "node", "id": 12240584157, "lat": 13.7314395, "lon": 100.7780961}, {"type": "node", "id": 3202523609, "lat": 13.731006, "lon": 100.7819656}, {"type": "node", "id": 3202523610, "lat": 13.7313109, "lon": 100.7819686}, {"type": "node", "id": 3202523611, "lat": 13.731305, "lon": 100.782294}, {"type": "node", "id": 3202523612, "lat": 13.7310035, "lon": 100.7822938}]}