{"version": 0.6, "generator": "Overpass API 0.7.62.8 e802775f", "osm3s": {"timestamp_osm_base": "2025-11-20T03:18:22Z", "copyright": "The data included in this document is from www.openstreetmap.org. The data is made available under ODbL."}, "elements": [{"type": "node", "id": 4713267991, "lat": 13.5719065, "lon": 100.4485474, "tags": {"amenity": "restaurant", "name": "\u0e04\u0e23\u0e31\u0e27\u0e27\u0e32\u0e2a\u0e19\u0e32", "name:th": "\u0e04\u0e23\u0e31\u0e27\u0e27\u0e32\u0e2a\u0e19\u0e32"}}, {"type": "node", "id": 4808909921, "lat": 13.5769967, "lon": 100.4173131, "tags": {"addr:street": "Bang Khun Thien Soi 25", "name": "\u0e15\u0e49\u0e2d\u0e21", "name:th": "\u0e15\u0e49\u0e2d\u0e21", "tourism": "hostel"}}, {"type": "node", "id": 4984977922, "lat": 13.5805901, "lon": 100.426659, "tags": {"amenity": "restaurant", "name": "\u0e04\u0e23\u0e31\u0e27\u0e17\u0e31\u0e1a\u0e17\u0e34\u0e21\u0e0b\u0e35\u0e1f\u0e39\u0e49\u0e14", "name:en": "Tubtim Seafood Resturant", "name:th": "\u0e04\u0e23\u0e31\u0e27\u0e17\u0e31\u0e1a\u0e17\u0e34\u0e21\u0e0b\u0e35\u0e1f\u0e39\u0e49\u0e14"}}, {"type": "node", "id": 5199820024, "lat": 13.5818473, "lon": 100.4260442, "tags": {"addr:street": "\u0e16\u0e19\u0e19\u0e1a\u0e32\u0e07\u0e02\u0e38\u0e19\u0e40\u0e17\u0e35\u0e22\u0e19\u0e0a\u0e32\u0e22\u0e17\u0e30\u0e40\u0e25", "amenity": "restaurant", "name": "\u0e04\u0e23\u0e31\u0e27\u0e27\u0e25\u0e31\u0e22\u0e1e\u0e23", "name:en": "kruawalaiporn"}}, {"type": "node", "id": 5553714821, "lat": 13.5834196, "lon": 100.4272753, "tags": {"amenity": "restaurant", "name": "\u0e23\u0e49\u0e32\u0e19\u0e01\u0e38\u0e49\u0e07\u0e41\u0e0a\u0e1a\u0e4a\u0e27\u0e22", "name:en": "Paa Beer Seafood", "name:th": "\u0e23\u0e49\u0e32\u0e19\u0e1b\u0e49\u0e32\u0e40\u0e1a\u0e35\u0e22\u0e23\u0e4c\u0e0b\u0e35\u0e1f\u0e39\u0e49\u0e14"}}, {"type": "node", "id": 5808868553, "lat": 13.5819024, "lon": 100.4261681, "tags": {"amenity": "restaurant", "name:en": "Kruawalaiporn Restaurant"}}, {"type": "node", "id": 6115921302, "lat": 13.5796217, "lon": 100.4493659, "tags": {"amenity": "restaurant", "name": "\u0e04\u0e23\u0e31\u0e27\u0e1a\u0e38\u0e0d\u0e19\u0e33\u0e0b\u0e35\u0e1f\u0e39\u0e4a\u0e14"}}, {"type": "node", "id": 11509032201, "lat": 13.5558585, "lon": 100.4338108, "tags": {"historic": "wayside_shrine"}}, {"type": "node", "id": 11601087642, "lat": 13.5909646, "lon": 100.4278653, "tags": {"artwork_type": "sculpture", "tourism": "artwork"}}, {"type": "node", "id": 11909545789, "lat": 13.5827146, "lon": 100.4210477, "tags": {"name": "\u0e1e\u0e34\u0e1e\u0e34\u0e18\u0e20\u0e31\u0e13\u0e11\u0e4c\u0e41\u0e2a\u0e14\u0e07\u0e27\u0e48\u0e32\u0e27\u0e44\u0e17\u0e22", "name:th": "\u0e1e\u0e34\u0e1e\u0e34\u0e18\u0e20\u0e31\u0e13\u0e11\u0e4c\u0e41\u0e2a\u0e14\u0e07\u0e27\u0e48\u0e32\u0e27\u0e44\u0e17\u0e22", "tourism": "museum"}}, {"type": "node", "id": 11919412248, "lat": 13.5632689, "lon": 100.4231604, "tags": {"historic": "wayside_shrine"}}, {"type": "node", "id": 11925157106, "lat": 13.5670045, "lon": 100.4324918, "tags": {"historic": "wayside_shrine"}}, {"type": "node", "id": 11925157119, "lat": 13.567092, "lon": 100.4328282, "tags": {"historic": "wayside_cross"}}, {"type": "node", "id": 11926153585, "lat": 13.5647198, "lon": 100.4313867, "tags": {"historic": "wayside_shrine"}}, {"type": "node", "id": 11926153603, "lat": 13.5646566, "lon": 100.4313065, "tags": {"historic": "wayside_shrine"}}, {"type": "node", "id": 11926153681, "lat": 13.5656881, "lon": 100.4310137, "tags": {"historic": "wayside_shrine"}}, {"type": "node", "id": 11926153700, "lat": 13.565824, "lon": 100.4309501, "tags": {"historic": "wayside_shrine"}}, {"type": "node", "id": 11944483922, "lat": 13.5675371, "lon": 100.4032057, "tags": {"historic": "wayside_shrine"}}, {"type": "node", "id": 11949409891, "lat": 13.5752881, "lon": 100.4114847, "tags": {"historic": "wayside_shrine"}}, {"type": "node", "id": 11949409975, "lat": 13.5736445, "lon": 100.4185342, "tags": {"historic": "wayside_shrine"}}, {"type": "node", "id": 11949715221, "lat": 13.5662704, "lon": 100.4067684, "tags": {"historic": "wayside_shrine"}}, {"type": "node", "id": 11949715222, "lat": 13.5659299, "lon": 100.4072623, "tags": {"historic": "wayside_shrine"}}, {"type": "node", "id": 11949715223, "lat": 13.5661149, "lon": 100.4070143, "tags": {"historic": "wayside_shrine"}}, {"type": "node", "id": 11949715358, "lat": 13.5656816, "lon": 100.4107367, "tags": {"historic": "wayside_shrine"}}, {"type": "node", "id": 11949715364, "lat": 13.5677019, "lon": 100.412864, "tags": {"historic": "wayside_shrine"}}, {"type": "node", "id": 11949715365, "lat": 13.567761, "lon": 100.4130752, "tags": {"historic": "wayside_shrine"}}, {"type": "node", "id": 11949715366, "lat": 13.567817, "lon": 100.4133059, "tags": {"historic": "wayside_shrine"}}, {"type": "node", "id": 11949715445, "lat": 13.5655557, "lon": 100.410115, "tags": {"historic": "wayside_shrine"}}, {"type": "node", "id": 11949715456, "lat": 13.5610904, "lon": 100.4095887, "tags": {"historic": "wayside_shrine"}}, {"type": "node", "id": 11961340238, "lat": 13.5788596, "lon": 100.4127465, "tags": {"historic": "wayside_shrine"}}, {"type": "node", "id": 11961340753, "lat": 13.5755785, "lon": 100.4108708, "tags": {"historic": "wayside_shrine"}}, {"type": "node", "id": 11961378115, "lat": 13.581876, "lon": 100.4152004, "tags": {"historic": "wayside_shrine"}}, {"type": "node", "id": 11961378290, "lat": 13.5817867, "lon": 100.4144018, "tags": {"historic": "wayside_shrine"}}, {"type": "node", "id": 11961378291, "lat": 13.5814529, "lon": 100.4143852, "tags": {"historic": "wayside_shrine"}}, {"type": "node", "id": 11961378454, "lat": 13.5800133, "lon": 100.4127947, "tags": {"historic": "wayside_shrine"}}, {"type": "node", "id": 12162171329, "lat": 13.5969072, "lon": 100.4321051, "tags": {"artwork_type": "sculpture", "name": "\u0e27\u0e32\u0e2c", "name:th": "\u0e27\u0e32\u0e2c", "tourism": "artwork"}}, {"type": "node", "id": 12162171361, "lat": 13.5958819, "lon": 100.4317492, "tags": {"artwork_type": "sculpture", "name": "\u0e27\u0e32\u0e2c", "name:th": "\u0e27\u0e32\u0e2c", "tourism": "artwork"}}, {"type": "node", "id": 12162171390, "lat": 13.5948572, "lon": 100.4314006, "tags": {"artwork_type": "sculpture", "name": "\u0e1b\u0e25\u0e32", "name:th": "\u0e1b\u0e25\u0e32", "tourism": "artwork"}}, {"type": "way", "id": 1237810948, "nodes": [11497536148, 11497536149, 11497536150, 11497536151, 11497536152, 11497536153, 11497536154, 11939142464, 11497536155, 11497536156, 11497536157, 11497536158, 11939144477, 11497536159, 11497536162, 11497536160, 11497536161, 11497536148], "tags": {"alt_name": "\u0e27\u0e31\u0e14\u0e25\u0e39\u0e01\u0e27\u0e31\u0e27", "alt_name:en": "Wat Luk Wua", "alt_name:th": "\u0e27\u0e31\u0e14\u0e25\u0e39\u0e01\u0e27\u0e31\u0e27", "amenity": "place_of_worship", "denomination": "thai_mahanikaya", "name": "\u0e27\u0e31\u0e14\u0e1b\u0e23\u0e30\u0e0a\u0e32\u0e1a\u0e4d\u0e32\u0e23\u0e38\u0e07", "name:en": "Wat Pracha Bamrung", "name:th": "\u0e27\u0e31\u0e14\u0e1b\u0e23\u0e30\u0e0a\u0e32\u0e1a\u0e4d\u0e32\u0e23\u0e38\u0e07", "religion": "buddhist", "wikidata": "Q100234748", "wikimedia_commons": "Category:Wat Pracha Bamrung, Bangkok", "wikipedia": "th:\u0e27\u0e31\u0e14\u0e1b\u0e23\u0e30\u0e0a\u0e32\u0e1a\u0e33\u0e23\u0e38\u0e07 (\u0e01\u0e23\u0e38\u0e07\u0e40\u0e17\u0e1e\u0e21\u0e2b\u0e32\u0e19\u0e04\u0e23)"}}, {"type": "way", "id": 1243380761, "nodes": [11556032425, 11556032872, 11556032860, 11556032858, 11556032861, 11556032862, 11556032425], "tags": {"addr:district": "\u0e1a\u0e32\u0e07\u0e02\u0e38\u0e19\u0e40\u0e17\u0e35\u0e22\u0e19", "addr:housenumber": "728/1", "addr:postcode": "10150", "addr:province": "\u0e01\u0e23\u0e38\u0e07\u0e40\u0e17\u0e1e\u0e21\u0e2b\u0e32\u0e19\u0e04\u0e23", "addr:street": "\u0e16\u0e19\u0e19\u0e1a\u0e32\u0e07\u0e02\u0e38\u0e19\u0e40\u0e17\u0e35\u0e22\u0e19\u0e0a\u0e32\u0e22\u0e17\u0e30\u0e40\u0e25", "addr:subdistrict": "\u0e17\u0e48\u0e32\u0e02\u0e49\u0e32\u0e21", "amenity": "restaurant", "building": "yes", "contact:facebook": "https://www.facebook.com/SeaFood.ThianThale/", "cuisine": "seafood", "name": "\u0e14\u0e35\u0e42\u0e2d\u0e42\u0e0b\u0e19", "name:en": "The Ozone", "name:th": "\u0e14\u0e35\u0e42\u0e2d\u0e42\u0e0b\u0e19", "phone": "+66 64 163 6962"}}, {"type": "way", "id": 1243380767, "nodes": [11556032873, 11556032876, 11556032877, 11556032878, 11556032874, 11556032873], "tags": {"addr:district": "\u0e1a\u0e32\u0e07\u0e02\u0e38\u0e19\u0e40\u0e17\u0e35\u0e22\u0e19", "addr:postcode": "10150", "addr:province": "\u0e01\u0e23\u0e38\u0e07\u0e40\u0e17\u0e1e\u0e21\u0e2b\u0e32\u0e19\u0e04\u0e23", "addr:subdistrict": "\u0e17\u0e48\u0e32\u0e02\u0e49\u0e32\u0e21", "amenity": "restaurant", "building": "commercial", "name": "\u0e15\u0e33\u0e40\u0e2b\u0e2d\u0e30"}}, {"type": "way", "id": 1243380768, "nodes": [11556032876, 11556032879, 11556032880, 11556032881, 11556032882, 11556032883, 11556032884, 11556032885, 11556032877, 11556032876], "tags": {"addr:district": "\u0e1a\u0e32\u0e07\u0e02\u0e38\u0e19\u0e40\u0e17\u0e35\u0e22\u0e19", "addr:postcode": "10150", "addr:province": "\u0e01\u0e23\u0e38\u0e07\u0e40\u0e17\u0e1e\u0e21\u0e2b\u0e32\u0e19\u0e04\u0e23", "addr:subdistrict": "\u0e17\u0e48\u0e32\u0e02\u0e49\u0e32\u0e21", "amenity": "restaurant", "building": "commercial", "name": "\u0e04\u0e23\u0e31\u0e27\u0e2a\u0e21\u0e1a\u0e39\u0e23\u0e13\u0e4c\u0e0b\u0e35\u0e1f\u0e39\u0e49\u0e14", "name:en": "Krua Somboon Seafood", "name:th": "\u0e04\u0e23\u0e31\u0e27\u0e2a\u0e21\u0e1a\u0e39\u0e23\u0e13\u0e4c\u0e0b\u0e35\u0e1f\u0e39\u0e49\u0e14"}}, {"type": "way", "id": 1243380772, "nodes": [11556032896, 11556032897, 11556032899, 11556032902, 11556032898, 11556032895, 11556032894, 11556032896], "tags": {"addr:district": "\u0e1a\u0e32\u0e07\u0e02\u0e38\u0e19\u0e40\u0e17\u0e35\u0e22\u0e19", "addr:postcode": "10150", "addr:province": "\u0e01\u0e23\u0e38\u0e07\u0e40\u0e17\u0e1e\u0e21\u0e2b\u0e32\u0e19\u0e04\u0e23", "addr:subdistrict": "\u0e17\u0e48\u0e32\u0e02\u0e49\u0e32\u0e21", "amenity": "restaurant", "building": "commercial", "cuisine": "seafood", "name": "\u0e04\u0e23\u0e31\u0e27\u0e40\u0e08\u0e4a\u0e21\u0e25 \u0e0b\u0e35\u0e1f\u0e39\u0e49\u0e14", "name:en": "Krua Jemon Seafood", "name:th": "\u0e04\u0e23\u0e31\u0e27\u0e40\u0e08\u0e4a\u0e21\u0e25 \u0e0b\u0e35\u0e1f\u0e39\u0e49\u0e14"}}, {"type": "way", "id": 1243380773, "nodes": [11556032899, 11556032900, 11556032901, 11556032902, 11556032899], "tags": {"addr:district": "\u0e1a\u0e32\u0e07\u0e02\u0e38\u0e19\u0e40\u0e17\u0e35\u0e22\u0e19", "addr:postcode": "10150", "addr:province": "\u0e01\u0e23\u0e38\u0e07\u0e40\u0e17\u0e1e\u0e21\u0e2b\u0e32\u0e19\u0e04\u0e23", "addr:subdistrict": "\u0e17\u0e48\u0e32\u0e02\u0e49\u0e32\u0e21", "amenity": "restaurant", "building": "yes", "cuisine": "noodle"}}, {"type": "way", "id": 1243380775, "nodes": [11556032904, 11556032906, 11556032911, 11556032907, 11556032908, 11556032903, 11556032904], "tags": {"addr:district": "\u0e1a\u0e32\u0e07\u0e02\u0e38\u0e19\u0e40\u0e17\u0e35\u0e22\u0e19", "addr:postcode": "10150", "addr:province": "\u0e01\u0e23\u0e38\u0e07\u0e40\u0e17\u0e1e\u0e21\u0e2b\u0e32\u0e19\u0e04\u0e23", "addr:subdistrict": "\u0e17\u0e48\u0e32\u0e02\u0e49\u0e32\u0e21", "amenity": "restaurant", "building": "yes", "cuisine": "seafood", "name": "\u0e40\u0e08\u0e4a\u0e41\u0e14\u0e07 \u0e0b\u0e35\u0e1f\u0e39\u0e49\u0e14", "name:en": "Jay Daeng Seafood", "name:th": "\u0e40\u0e08\u0e4a\u0e41\u0e14\u0e07 \u0e0b\u0e35\u0e1f\u0e39\u0e49\u0e14"}}, {"type": "way", "id": 1243380777, "nodes": [11556032909, 11556032912, 11556032913, 11556032914, 11556032909], "tags": {"addr:district": "\u0e1a\u0e32\u0e07\u0e02\u0e38\u0e19\u0e40\u0e17\u0e35\u0e22\u0e19", "addr:postcode": "10150", "addr:province": "\u0e01\u0e23\u0e38\u0e07\u0e40\u0e17\u0e1e\u0e21\u0e2b\u0e32\u0e19\u0e04\u0e23", "addr:subdistrict": "\u0e17\u0e48\u0e32\u0e02\u0e49\u0e32\u0e21", "amenity": "cafe", "building": "yes", "name": "\u0e19\u0e49\u0e33\u0e1b\u0e31\u0e48\u0e19\u0e01\u0e32\u0e41\u0e1f"}}, {"type": "way", "id": 1243380778, "nodes": [11556032912, 11556032915, 11556032916, 11556032917, 11556032913, 11556032912], "tags": {"addr:district": "\u0e1a\u0e32\u0e07\u0e02\u0e38\u0e19\u0e40\u0e17\u0e35\u0e22\u0e19", "addr:postcode": "10150", "addr:province": "\u0e01\u0e23\u0e38\u0e07\u0e40\u0e17\u0e1e\u0e21\u0e2b\u0e32\u0e19\u0e04\u0e23", "addr:subdistrict": "\u0e17\u0e48\u0e32\u0e02\u0e49\u0e32\u0e21", "amenity": "restaurant", "building": "yes", "cuisine": "seafood", "name": "\u0e19\u0e49\u0e33\u0e21\u0e19\u0e15\u0e4c \u0e0b\u0e35\u0e1f\u0e39\u0e4a\u0e14", "name:en": "Nammon Seafood", "name:th": "\u0e19\u0e49\u0e33\u0e21\u0e19\u0e15\u0e4c \u0e0b\u0e35\u0e1f\u0e39\u0e4a\u0e14"}}, {"type": "way", "id": 1243380779, "nodes": [11556032915, 11556032918, 11556032929, 11556032919, 11556032920, 11556032921, 11556032926, 11556032922, 11556032923, 11556032949, 11556032924, 11556032925, 11556032964, 11556032916, 11556032915], "tags": {"addr:district": "\u0e1a\u0e32\u0e07\u0e02\u0e38\u0e19\u0e40\u0e17\u0e35\u0e22\u0e19", "addr:postcode": "10150", "addr:province": "\u0e01\u0e23\u0e38\u0e07\u0e40\u0e17\u0e1e\u0e21\u0e2b\u0e32\u0e19\u0e04\u0e23", "addr:subdistrict": "\u0e17\u0e48\u0e32\u0e02\u0e49\u0e32\u0e21", "amenity": "restaurant", "building": "yes", "cuisine": "seafood", "name": "\u0e1d\u0e19\u0e0b\u0e35\u0e1f\u0e39\u0e49\u0e14", "name:en": "Fon Seafood", "name:th": "\u0e1d\u0e19\u0e0b\u0e35\u0e1f\u0e39\u0e49\u0e14"}}, {"type": "way", "id": 1243380780, "nodes": [11556032918, 11556032927, 11556032928, 11556032929, 11556032918], "tags": {"addr:district": "\u0e1a\u0e32\u0e07\u0e02\u0e38\u0e19\u0e40\u0e17\u0e35\u0e22\u0e19", "addr:postcode": "10150", "addr:province": "\u0e01\u0e23\u0e38\u0e07\u0e40\u0e17\u0e1e\u0e21\u0e2b\u0e32\u0e19\u0e04\u0e23", "addr:subdistrict": "\u0e17\u0e48\u0e32\u0e02\u0e49\u0e32\u0e21", "amenity": "restaurant", "building": "yes", "cuisine": "seafood", "name": "\u0e40\u0e2b\u0e19\u0e48\u0e07\u0e0b\u0e35\u0e1f\u0e39\u0e49\u0e14", "name:en": "Naeng Seafood", "name:th": "\u0e40\u0e2b\u0e19\u0e48\u0e07\u0e0b\u0e35\u0e1f\u0e39\u0e49\u0e14"}}, {"type": "way", "id": 1243380781, "nodes": [11556032927, 11556032930, 11556032935, 11556032938, 11556032931, 11556032932, 11556032928, 11556032927], "tags": {"addr:district": "\u0e1a\u0e32\u0e07\u0e02\u0e38\u0e19\u0e40\u0e17\u0e35\u0e22\u0e19", "addr:postcode": "10150", "addr:province": "\u0e01\u0e23\u0e38\u0e07\u0e40\u0e17\u0e1e\u0e21\u0e2b\u0e32\u0e19\u0e04\u0e23", "addr:subdistrict": "\u0e17\u0e48\u0e32\u0e02\u0e49\u0e32\u0e21", "amenity": "restaurant", "building": "yes", "cuisine": "seafood", "name": "\u0e40\u0e25\u0e47\u0e01\u0e2d\u0e32\u0e2b\u0e32\u0e23\u0e17\u0e30\u0e40\u0e25", "name:en": "Lek Seafood", "name:th": "\u0e40\u0e25\u0e47\u0e01\u0e2d\u0e32\u0e2b\u0e32\u0e23\u0e17\u0e30\u0e40\u0e25"}}, {"type": "way", "id": 1243380782, "nodes": [11556032930, 11556032933, 11556032934, 11556032935, 11556032930], "tags": {"addr:district": "\u0e1a\u0e32\u0e07\u0e02\u0e38\u0e19\u0e40\u0e17\u0e35\u0e22\u0e19", "addr:postcode": "10150", "addr:province": "\u0e01\u0e23\u0e38\u0e07\u0e40\u0e17\u0e1e\u0e21\u0e2b\u0e32\u0e19\u0e04\u0e23", "addr:subdistrict": "\u0e17\u0e48\u0e32\u0e02\u0e49\u0e32\u0e21", "amenity": "cafe", "building": "yes", "cuisine": "coffee_shop", "name": "\u0e13\u0e14\u0e25 \u0e01\u0e32\u0e41\u0e1f\u0e2a\u0e14", "name:en": "Nadol Coffeehouse", "name:th": "\u0e13\u0e14\u0e25 \u0e01\u0e32\u0e41\u0e1f\u0e2a\u0e14"}}, {"type": "way", "id": 1243380784, "nodes": [11556032937, 11556032939, 11556032940, 11556032941, 11556032942, 11556032943, 11556032944, 11556032948, 11556032945, 11556032946, 11556032947, 11556032937], "tags": {"addr:district": "\u0e1a\u0e32\u0e07\u0e02\u0e38\u0e19\u0e40\u0e17\u0e35\u0e22\u0e19", "addr:postcode": "10150", "addr:province": "\u0e01\u0e23\u0e38\u0e07\u0e40\u0e17\u0e1e\u0e21\u0e2b\u0e32\u0e19\u0e04\u0e23", "addr:subdistrict": "\u0e17\u0e48\u0e32\u0e02\u0e49\u0e32\u0e21", "amenity": "restaurant", "building": "yes", "cuisine": "seafood", "name": "\u0e04\u0e23\u0e31\u0e27\u0e15\u0e38\u0e4a\u0e01\u0e15\u0e32 \u0e0b\u0e35\u0e1f\u0e39\u0e49\u0e14", "name:en": "Krua Tukta Seafood"}}, {"type": "way", "id": 1243380787, "nodes": [11556032862, 11556032861, 11556032965, 11556032857, 11556032966, 11556032967, 11556032416, 11556032417, 11556032946, 11556032945, 11556032948, 11556032943, 11556032942, 11556032941, 11556032940, 11556032968, 11556032969, 11556032970, 11556032971, 11556032972, 11556032973, 11556032862], "tags": {"amenity": "marketplace", "landuse": "retail", "name": "\u0e15\u0e25\u0e32\u0e14\u0e04\u0e25\u0e2d\u0e07\u0e40\u0e0a\u0e34\u0e07\u0e15\u0e32\u0e41\u0e1e", "name:en": "Khlong Chenrg Ta Phae Marketplace", "name:th": "\u0e15\u0e25\u0e32\u0e14\u0e04\u0e25\u0e2d\u0e07\u0e40\u0e0a\u0e34\u0e07\u0e15\u0e32\u0e41\u0e1e"}}, {"type": "way", "id": 1243380793, "nodes": [11556033082, 11556033090, 11556033083, 11556033084, 11556033085, 11556033086, 11556033094, 11556033087, 11556033088, 11556033089, 11556033093, 11556033082], "tags": {"addr:district": "\u0e1a\u0e32\u0e07\u0e02\u0e38\u0e19\u0e40\u0e17\u0e35\u0e22\u0e19", "addr:postcode": "10150", "addr:province": "\u0e01\u0e23\u0e38\u0e07\u0e40\u0e17\u0e1e\u0e21\u0e2b\u0e32\u0e19\u0e04\u0e23", "addr:subdistrict": "\u0e17\u0e48\u0e32\u0e02\u0e49\u0e32\u0e21", "amenity": "cafe", "building": "yes", "name": "Pulse", "name:en": "Pulse", "name:th": "\u0e1e\u0e31\u0e25\u0e2a\u0e4c"}}, {"type": "way", "id": 1247100022, "nodes": [11593884414, 11593884415, 11593884416, 11593884417, 11593884414], "tags": {"addr:district": "\u0e1a\u0e32\u0e07\u0e02\u0e38\u0e19\u0e40\u0e17\u0e35\u0e22\u0e19", "addr:postcode": "10150", "addr:province": "\u0e01\u0e23\u0e38\u0e07\u0e40\u0e17\u0e1e\u0e21\u0e2b\u0e32\u0e19\u0e04\u0e23", "addr:subdistrict": "\u0e17\u0e48\u0e32\u0e02\u0e49\u0e32\u0e21", "amenity": "restaurant", "building": "yes", "cuisine": "thai"}}, {"type": "way", "id": 1247100024, "nodes": [11593884422, 11593884423, 11598592882, 11598592883, 11593884418, 11598592880, 11598592881, 11593884427, 11593884422], "tags": {"addr:district": "\u0e1a\u0e32\u0e07\u0e02\u0e38\u0e19\u0e40\u0e17\u0e35\u0e22\u0e19", "addr:postcode": "10150", "addr:province": "\u0e01\u0e23\u0e38\u0e07\u0e40\u0e17\u0e1e\u0e21\u0e2b\u0e32\u0e19\u0e04\u0e23", "addr:subdistrict": "\u0e17\u0e48\u0e32\u0e02\u0e49\u0e32\u0e21", "amenity": "restaurant", "building": "yes", "cuisine": "thai"}}, {"type": "way", "id": 1285067672, "nodes": [11921446971, 11921446980, 11921446981, 11921446973, 11921446982, 11921446983, 11921446974, 11921446975, 11921446976, 11921446977, 11921446978, 11921446979, 11921446971], "tags": {"addr:district": "\u0e1a\u0e32\u0e07\u0e02\u0e38\u0e19\u0e40\u0e17\u0e35\u0e22\u0e19", "addr:postcode": "10150", "addr:province": "\u0e01\u0e23\u0e38\u0e07\u0e40\u0e17\u0e1e\u0e21\u0e2b\u0e32\u0e19\u0e04\u0e23", "addr:subdistrict": "\u0e17\u0e48\u0e32\u0e02\u0e49\u0e32\u0e21", "amenity": "restaurant", "building": "yes", "cuisine": "seafood", "name": "\u0e04\u0e23\u0e31\u0e27\u0e19\u0e49\u0e32\u0e40\u0e19\u0e35\u0e22\u0e21\u0e0b\u0e35\u0e1f\u0e39\u0e49\u0e14", "name:th": "\u0e04\u0e23\u0e31\u0e27\u0e19\u0e49\u0e32\u0e40\u0e19\u0e35\u0e22\u0e21\u0e0b\u0e35\u0e1f\u0e39\u0e49\u0e14"}}, {"type": "way", "id": 1285082403, "nodes": [11921553425, 11909643603, 11909643602, 11921553426, 11921553427, 11921553448, 11921553428, 11921553429, 11921553430, 11921553431, 11921553432, 11921553433, 11921553434, 11921553425], "tags": {"landuse": "commercial", "name": "\u0e42\u0e15\u0e40\u0e01\u0e35\u0e22\u0e27\u0e23\u0e35\u0e0b\u0e2d\u0e23\u0e4c\u0e17", "name:en": "Tokyo Resort", "name:th": "\u0e42\u0e15\u0e40\u0e01\u0e35\u0e22\u0e27\u0e23\u0e35\u0e0b\u0e2d\u0e23\u0e4c\u0e17", "tourism": "motel"}}, {"type": "way", "id": 1314008676, "nodes": [12162171120, 12162171121, 12162171122, 12162171123, 12162171120], "tags": {"addr:district": "\u0e1a\u0e32\u0e07\u0e02\u0e38\u0e19\u0e40\u0e17\u0e35\u0e22\u0e19", "addr:housenumber": "1023/1", "addr:postcode": "10150", "addr:province": "\u0e01\u0e23\u0e38\u0e07\u0e40\u0e17\u0e1e\u0e21\u0e2b\u0e32\u0e19\u0e04\u0e23", "addr:street": "\u0e16\u0e19\u0e19\u0e1a\u0e32\u0e07\u0e02\u0e38\u0e19\u0e40\u0e17\u0e35\u0e22\u0e19\u0e0a\u0e32\u0e22\u0e17\u0e30\u0e40\u0e25", "addr:subdistrict": "\u0e17\u0e48\u0e32\u0e02\u0e49\u0e32\u0e21", "amenity": "restaurant", "building": "commercial", "building:levels": "4", "name": "\u0e40\u0e2e\u0e07\u0e2d\u0e38\u0e14\u0e21\u0e40\u0e08\u0e23\u0e34\u0e0d\u0e42\u0e20\u0e0a\u0e19\u0e32", "name:th": "\u0e40\u0e2e\u0e07\u0e2d\u0e38\u0e14\u0e21\u0e40\u0e08\u0e23\u0e34\u0e0d\u0e42\u0e20\u0e0a\u0e19\u0e32"}}, {"type": "way", "id": 1435590660, "nodes": [12556799491, 12556799492, 1098012295, 13195196318, 12556799494, 13195196319, 13195196320, 13195196321, 13195196322, 13195196323, 13195196324, 13195196325, 13195196326, 13195196327, 13195196328, 13195196329, 13195196330, 13195196331, 13195196332, 13195196333, 13195196334, 13195196335, 12556799491], "tags": {"amenity": "place_of_worship", "denomination": "thai_mahanikaya", "name": "\u0e27\u0e31\u0e14\u0e1a\u0e32\u0e07\u0e01\u0e23\u0e30\u0e14\u0e35\u0e48", "name:en": "Wat Bang Kradi", "name:th": "\u0e27\u0e31\u0e14\u0e1a\u0e32\u0e07\u0e01\u0e23\u0e30\u0e14\u0e35\u0e48", "religion": "buddhist", "wikidata": "Q13020711", "wikimedia_commons": "Category:Wat Bang Kradi", "wikipedia": "th:\u0e27\u0e31\u0e14\u0e1a\u0e32\u0e07\u0e01\u0e23\u0e30\u0e14\u0e35\u0e48"}}, {"type": "node", "id": 11556033082, "lat": 13.5533245, "lon": 100.4203885}, {"type": "node", "id": 11556033083, "lat": 13.5531098, "lon": 100.4204285}, {"type": "node", "id": 11556033084, "lat": 13.5531171, "lon": 100.4204913}, {"type": "node", "id": 11556033085, "lat": 13.5530729, "lon": 100.4204989}, {"type": "node", "id": 11556033086, "lat": 13.553074, "lon": 100.420527}, {"type": "node", "id": 11556033087, "lat": 13.5532382, "lon": 100.4205086}, {"type": "node", "id": 11556033088, "lat": 13.5532529, "lon": 100.4206028}, {"type": "node", "id": 11556033089, "lat": 13.5533634, "lon": 100.4205757}, {"type": "node", "id": 11556033090, "lat": 13.5532048, "lon": 100.4204108}, {"type": "node", "id": 11556033093, "lat": 13.5533491, "lon": 100.4205068}, {"type": "node", "id": 11556033094, "lat": 13.5532192, "lon": 100.4205107}, {"type": "node", "id": 11556032416, "lat": 13.559122, "lon": 100.4195701}, {"type": "node", "id": 11556032417, "lat": 13.5590881, "lon": 100.4195005}, {"type": "node", "id": 11556032425, "lat": 13.5573133, "lon": 100.4193406}, {"type": "node", "id": 11556032857, "lat": 13.5572761, "lon": 100.4197425}, {"type": "node", "id": 11556032858, "lat": 13.5572616, "lon": 100.4196236}, {"type": "node", "id": 11556032860, "lat": 13.5573329, "lon": 100.4196185}, {"type": "node", "id": 11556032861, "lat": 13.5569633, "lon": 100.4196504}, {"type": "node", "id": 11556032862, "lat": 13.5569323, "lon": 100.4194547}, {"type": "node", "id": 11556032872, "lat": 13.557326, "lon": 100.41952}, {"type": "node", "id": 11556032873, "lat": 13.5574627, "lon": 100.4195082}, {"type": "node", "id": 11556032874, "lat": 13.5574699, "lon": 100.4196162}, {"type": "node", "id": 11556032876, "lat": 13.5575423, "lon": 100.4195019}, {"type": "node", "id": 11556032877, "lat": 13.5575535, "lon": 100.4196309}, {"type": "node", "id": 11556032878, "lat": 13.5574709, "lon": 100.4196351}, {"type": "node", "id": 11556032879, "lat": 13.5575698, "lon": 100.4194998}, {"type": "node", "id": 11556032880, "lat": 13.5575617, "lon": 100.4194169}, {"type": "node", "id": 11556032881, "lat": 13.5576443, "lon": 100.4194127}, {"type": "node", "id": 11556032882, "lat": 13.5576494, "lon": 100.4195071}, {"type": "node", "id": 11556032883, "lat": 13.5576636, "lon": 100.4195082}, {"type": "node", "id": 11556032884, "lat": 13.5576698, "lon": 100.4196362}, {"type": "node", "id": 11556032885, "lat": 13.5575576, "lon": 100.4196435}, {"type": "node", "id": 11556032894, "lat": 13.5578127, "lon": 100.4195218}, {"type": "node", "id": 11556032895, "lat": 13.5578211, "lon": 100.4196221}, {"type": "node", "id": 11556032896, "lat": 13.557804, "lon": 100.4194181}, {"type": "node", "id": 11556032897, "lat": 13.5579066, "lon": 100.419409}, {"type": "node", "id": 11556032898, "lat": 13.5579237, "lon": 100.419613}, {"type": "node", "id": 11556032899, "lat": 13.5579144, "lon": 100.4195025}, {"type": "node", "id": 11556032900, "lat": 13.5579483, "lon": 100.4195001}, {"type": "node", "id": 11556032901, "lat": 13.5579545, "lon": 100.4196004}, {"type": "node", "id": 11556032902, "lat": 13.5579228, "lon": 100.4196027}, {"type": "node", "id": 11556032903, "lat": 13.5579881, "lon": 100.4194975}, {"type": "node", "id": 11556032904, "lat": 13.5579956, "lon": 100.4196132}, {"type": "node", "id": 11556032906, "lat": 13.5580889, "lon": 100.4196063}, {"type": "node", "id": 11556032907, "lat": 13.5580725, "lon": 100.4193612}, {"type": "node", "id": 11556032908, "lat": 13.5579796, "lon": 100.4193676}, {"type": "node", "id": 11556032909, "lat": 13.5581485, "lon": 100.419602}, {"type": "node", "id": 11556032911, "lat": 13.5580736, "lon": 100.4193823}, {"type": "node", "id": 11556032912, "lat": 13.5581857, "lon": 100.4195991}, {"type": "node", "id": 11556032913, "lat": 13.5581743, "lon": 100.4194735}, {"type": "node", "id": 11556032914, "lat": 13.5581399, "lon": 100.4194764}, {"type": "node", "id": 11556032915, "lat": 13.5583659, "lon": 100.4195819}, {"type": "node", "id": 11556032916, "lat": 13.5583431, "lon": 100.419331}, {"type": "node", "id": 11556032917, "lat": 13.558163, "lon": 100.4193482}, {"type": "node", "id": 11556032918, "lat": 13.5584596, "lon": 100.4195709}, {"type": "node", "id": 11556032919, "lat": 13.5584525, "lon": 100.4193685}, {"type": "node", "id": 11556032920, "lat": 13.5584143, "lon": 100.4193685}, {"type": "node", "id": 11556032921, "lat": 13.5584072, "lon": 100.4193158}, {"type": "node", "id": 11556032922, "lat": 13.5583428, "lon": 100.4191269}, {"type": "node", "id": 11556032923, "lat": 13.5583595, "lon": 100.4191269}, {"type": "node", "id": 11556032924, "lat": 13.5583464, "lon": 100.4190275}, {"type": "node", "id": 11556032925, "lat": 13.5583118, "lon": 100.4190324}, {"type": "node", "id": 11556032926, "lat": 13.5583641, "lon": 100.4193183}, {"type": "node", "id": 11556032927, "lat": 13.5585272, "lon": 100.4195685}, {"type": "node", "id": 11556032928, "lat": 13.5585166, "lon": 100.4193933}, {"type": "node", "id": 11556032929, "lat": 13.5584535, "lon": 100.4193964}, {"type": "node", "id": 11556032930, "lat": 13.5585837, "lon": 100.4195629}, {"type": "node", "id": 11556032931, "lat": 13.5585754, "lon": 100.4193328}, {"type": "node", "id": 11556032932, "lat": 13.5585136, "lon": 100.4193375}, {"type": "node", "id": 11556032933, "lat": 13.5586087, "lon": 100.419562}, {"type": "node", "id": 11556032934, "lat": 13.5586051, "lon": 100.4194567}, {"type": "node", "id": 11556032935, "lat": 13.5585801, "lon": 100.4194576}, {"type": "node", "id": 11556032937, "lat": 13.5586685, "lon": 100.419379}, {"type": "node", "id": 11556032938, "lat": 13.5585772, "lon": 100.419379}, {"type": "node", "id": 11556032939, "lat": 13.5587776, "lon": 100.4193743}, {"type": "node", "id": 11556032940, "lat": 13.5587627, "lon": 100.4191798}, {"type": "node", "id": 11556032941, "lat": 13.5588335, "lon": 100.4191722}, {"type": "node", "id": 11556032942, "lat": 13.5588344, "lon": 100.4191923}, {"type": "node", "id": 11556032943, "lat": 13.5588596, "lon": 100.4191904}, {"type": "node", "id": 11556032944, "lat": 13.5588698, "lon": 100.4193819}, {"type": "node", "id": 11556032945, "lat": 13.5589099, "lon": 100.4193781}, {"type": "node", "id": 11556032946, "lat": 13.5589117, "lon": 100.4195141}, {"type": "node", "id": 11556032947, "lat": 13.5586736, "lon": 100.4195304}, {"type": "node", "id": 11556032948, "lat": 13.5588815, "lon": 100.4193808}, {"type": "node", "id": 11556032949, "lat": 13.558349, "lon": 100.4190473}, {"type": "node", "id": 11556032964, "lat": 13.5583142, "lon": 100.4190567}, {"type": "node", "id": 11556032965, "lat": 13.556971, "lon": 100.419766}, {"type": "node", "id": 11556032966, "lat": 13.5581641, "lon": 100.4196568}, {"type": "node", "id": 11556032967, "lat": 13.5591228, "lon": 100.419616}, {"type": "node", "id": 11556032968, "lat": 13.5583195, "lon": 100.4193185}, {"type": "node", "id": 11556032969, "lat": 13.5579592, "lon": 100.4193542}, {"type": "node", "id": 11556032970, "lat": 13.5575443, "lon": 100.4194103}, {"type": "node", "id": 11556032971, "lat": 13.5575525, "lon": 100.4194868}, {"type": "node", "id": 11556032972, "lat": 13.5573377, "lon": 100.4195038}, {"type": "node", "id": 11556032973, "lat": 13.5573295, "lon": 100.419336}, {"type": "node", "id": 11921446971, "lat": 13.5597015, "lon": 100.419108}, {"type": "node", "id": 11921446973, "lat": 13.5596456, "lon": 100.4193741}, {"type": "node", "id": 11921446974, "lat": 13.5598198, "lon": 100.4194361}, {"type": "node", "id": 11921446975, "lat": 13.5598673, "lon": 100.4194234}, {"type": "node", "id": 11921446976, "lat": 13.5598543, "lon": 100.4193722}, {"type": "node", "id": 11921446977, "lat": 13.5598058, "lon": 100.4193852}, {"type": "node", "id": 11921446978, "lat": 13.5597915, "lon": 100.4193288}, {"type": "node", "id": 11921446979, "lat": 13.5597595, "lon": 100.4193373}, {"type": "node", "id": 11921446980, "lat": 13.5595589, "lon": 100.4191461}, {"type": "node", "id": 11921446981, "lat": 13.5596184, "lon": 100.4193814}, {"type": "node", "id": 11921446982, "lat": 13.5596804, "lon": 100.4195117}, {"type": "node", "id": 11921446983, "lat": 13.5598289, "lon": 100.419472}, {"type": "node", "id": 11497536149, "lat": 13.5685759, "lon": 100.439154}, {"type": "node", "id": 11497536150, "lat": 13.5685039, "lon": 100.4393138}, {"type": "node", "id": 11497536151, "lat": 13.5683975, "lon": 100.4397371}, {"type": "node", "id": 11497536152, "lat": 13.5683658, "lon": 100.4401053}, {"type": "node", "id": 11497536153, "lat": 13.5683645, "lon": 100.440225}, {"type": "node", "id": 11497536154, "lat": 13.5684027, "lon": 100.440384}, {"type": "node", "id": 11497536155, "lat": 13.5686135, "lon": 100.4404546}, {"type": "node", "id": 11497536156, "lat": 13.5688445, "lon": 100.4404565}, {"type": "node", "id": 11497536157, "lat": 13.5691206, "lon": 100.4404204}, {"type": "node", "id": 11939142464, "lat": 13.568421, "lon": 100.4404642}, {"type": "node", "id": 11909643602, "lat": 13.5721146, "lon": 100.4207742}, {"type": "node", "id": 11909643603, "lat": 13.5725149, "lon": 100.420202}, {"type": "node", "id": 11921553425, "lat": 13.5727181, "lon": 100.4199005}, {"type": "node", "id": 11921553433, "lat": 13.572903, "lon": 100.4202808}, {"type": "node", "id": 11921553434, "lat": 13.5728264, "lon": 100.4200698}, {"type": "node", "id": 11921553426, "lat": 13.5719314, "lon": 100.4210554}, {"type": "node", "id": 11921553427, "lat": 13.571972, "lon": 100.4211945}, {"type": "node", "id": 11921553428, "lat": 13.571733, "lon": 100.4215493}, {"type": "node", "id": 11921553429, "lat": 13.5717894, "lon": 100.4216143}, {"type": "node", "id": 11921553430, "lat": 13.5720396, "lon": 100.4212386}, {"type": "node", "id": 11921553431, "lat": 13.5721591, "lon": 100.4212061}, {"type": "node", "id": 11921553432, "lat": 13.572247, "lon": 100.4212154}, {"type": "node", "id": 11921553448, "lat": 13.5718419, "lon": 100.4213877}, {"type": "node", "id": 11497536148, "lat": 13.5696952, "lon": 100.4387692}, {"type": "node", "id": 11497536158, "lat": 13.5695407, "lon": 100.4402138}, {"type": "node", "id": 11497536159, "lat": 13.5696411, "lon": 100.4401432}, {"type": "node", "id": 11497536160, "lat": 13.5699524, "lon": 100.4388847}, {"type": "node", "id": 11497536161, "lat": 13.5697147, "lon": 100.4389019}, {"type": "node", "id": 11497536162, "lat": 13.5697269, "lon": 100.4397186}, {"type": "node", "id": 11939144477, "lat": 13.5696255, "lon": 100.4401542}, {"type": "node", "id": 11593884414, "lat": 13.5949486, "lon": 100.4319286}, {"type": "node", "id": 11593884415, "lat": 13.5949549, "lon": 100.432214}, {"type": "node", "id": 11593884416, "lat": 13.594666, "lon": 100.4322247}, {"type": "node", "id": 11593884417, "lat": 13.5946598, "lon": 100.4319286}, {"type": "node", "id": 11593884418, "lat": 13.5948412, "lon": 100.4318772}, {"type": "node", "id": 11593884422, "lat": 13.5945113, "lon": 100.4316227}, {"type": "node", "id": 11593884423, "lat": 13.5946921, "lon": 100.4316507}, {"type": "node", "id": 11593884427, "lat": 13.5945033, "lon": 100.4318921}, {"type": "node", "id": 11598592880, "lat": 13.5946676, "lon": 100.4318817}, {"type": "node", "id": 11598592881, "lat": 13.594665, "lon": 100.4319116}, {"type": "node", "id": 11598592882, "lat": 13.5946909, "lon": 100.4317595}, {"type": "node", "id": 11598592883, "lat": 13.5948407, "lon": 100.4317602}, {"type": "node", "id": 1098012295, "lat": 13.5990603, "lon": 100.4055489}, {"type": "node", "id": 12556799491, "lat": 13.6000638, "lon": 100.4047645}, {"type": "node", "id": 12556799492, "lat": 13.5997249, "lon": 100.4049737}, {"type": "node", "id": 12556799494, "lat": 13.5981503, "lon": 100.4057247}, {"type": "node", "id": 13195196318, "lat": 13.5987861, "lon": 100.4051778}, {"type": "node", "id": 13195196319, "lat": 13.5979137, "lon": 100.4063915}, {"type": "node", "id": 13195196320, "lat": 13.5979597, "lon": 100.406492}, {"type": "node", "id": 13195196321, "lat": 13.5980172, "lon": 100.4065482}, {"type": "node", "id": 13195196322, "lat": 13.5980631, "lon": 100.4065482}, {"type": "node", "id": 13195196323, "lat": 13.5982011, "lon": 100.4064654}, {"type": "node", "id": 13195196324, "lat": 13.5983218, "lon": 100.4064211}, {"type": "node", "id": 13195196325, "lat": 13.5987097, "lon": 100.4064181}, {"type": "node", "id": 13195196326, "lat": 13.5988704, "lon": 100.4063919}, {"type": "node", "id": 13195196327, "lat": 13.5989847, "lon": 100.406344}, {"type": "node", "id": 13195196328, "lat": 13.5990503, "lon": 100.4062895}, {"type": "node", "id": 13195196329, "lat": 13.5992641, "lon": 100.406026}, {"type": "node", "id": 13195196330, "lat": 13.5993487, "lon": 100.4059847}, {"type": "node", "id": 13195196331, "lat": 13.5995702, "lon": 100.406049}, {"type": "node", "id": 13195196332, "lat": 13.5997161, "lon": 100.406049}, {"type": "node", "id": 13195196333, "lat": 13.5998959, "lon": 100.4060142}, {"type": "node", "id": 13195196334, "lat": 13.6001121, "lon": 100.4059498}, {"type": "node", "id": 13195196335, "lat": 13.6006407, "lon": 100.405564}, {"type": "node", "id": 12162171120, "lat": 13.5987215, "lon": 100.4330076}, {"type": "node", "id": 12162171121, "lat": 13.5986427, "lon": 100.4329829}, {"type": "node", "id": 12162171122, "lat": 13.598608, "lon": 100.4331}, {"type": "node", "id": 12162171123, "lat": 13.5986868, "lon": 100.4331247}]}