{"version": 0.6, "generator": "Overpass API 0.7.62.8 e802775f", "osm3s": {"timestamp_osm_base": "2025-11-20T03:20:30Z", "copyright": "The data included in this document is from www.openstreetmap.org. The data is made available under ODbL."}, "elements": [{"type": "node", "id": 776323165, "lat": 13.6742796, "lon": 100.6385404, "tags": {"amenity": "restaurant"}}, {"type": "node", "id": 776323172, "lat": 13.674978, "lon": 100.6410403, "tags": {"amenity": "restaurant"}}, {"type": "node", "id": 776323178, "lat": 13.6744777, "lon": 100.6406218, "tags": {"amenity": "restaurant"}}, {"type": "node", "id": 776323242, "lat": 13.6720044, "lon": 100.6359092, "tags": {"amenity": "restaurant"}}, {"type": "node", "id": 1699712038, "lat": 13.6512553, "lon": 100.6412176, "tags": {"amenity": "restaurant", "cuisine": "italian", "name": "Scoozi"}}, {"type": "node", "id": 1699712180, "lat": 13.6510833, "lon": 100.641628, "tags": {"amenity": "restaurant", "cuisine": "thai", "name": "\u0e15\u0e49\u0e21 \u0e15\u0e33 \u0e22\u0e33 \u0e22\u0e48\u0e32\u0e07", "name:th": "\u0e15\u0e49\u0e21 \u0e15\u0e33 \u0e22\u0e33 \u0e22\u0e48\u0e32\u0e07"}}, {"type": "node", "id": 1699712249, "lat": 13.651052, "lon": 100.6417084, "tags": {"amenity": "restaurant", "cuisine": "Hot Pot", "name": "Mama Do By Ter", "name:en": "Mama Do By Ter", "name:th": "\u0e21\u0e32\u0e21\u0e48\u0e32\u0e14\u0e39\u0e1a\u0e32\u0e22\u0e40\u0e18\u0e2d"}}, {"type": "node", "id": 1803586485, "lat": 13.656004, "lon": 100.643345, "tags": {"amenity": "restaurant", "name": "Noodles Of Siam"}}, {"type": "node", "id": 2027316839, "lat": 13.6883655, "lon": 100.6101909, "tags": {"amenity": "restaurant", "cuisine": "thai", "name": "Bistro 54"}}, {"type": "node", "id": 2027316841, "lat": 13.6846016, "lon": 100.6132914, "tags": {"internet_access": "wlan", "name": "Golden Pearl Bangkok", "phone": "+66 2 393 2122", "tourism": "hotel", "website": "http://www.goldenpearlbangkok.com", "wheelchair": "yes"}}, {"type": "node", "id": 2079751192, "lat": 13.6710162, "lon": 100.64367, "tags": {"amenity": "restaurant", "name": "\u0e2a\u0e27\u0e19\u0e2d\u0e32\u0e2b\u0e32\u0e23\u0e40\u0e1a\u0e34\u0e01\u0e44\u0e1e\u0e23", "wheelchair": "yes"}}, {"type": "node", "id": 2591624460, "lat": 13.6841234, "lon": 100.6120054, "tags": {"amenity": "restaurant", "cuisine": "thai", "name": "Gold Bay Leafs"}}, {"type": "node", "id": 3244058082, "lat": 13.684608, "lon": 100.6125198, "tags": {"amenity": "restaurant", "cuisine": "Thai_and_International", "name": "The Glass Room", "smoking": "outside"}}, {"type": "node", "id": 3248639785, "lat": 13.6844288, "lon": 100.6123389, "tags": {"amenity": "cafe", "internet_access": "yes", "name": "Sip A Cup", "smoking": "outside"}}, {"type": "node", "id": 3248647870, "lat": 13.6843404, "lon": 100.6226225, "tags": {"amenity": "restaurant", "cuisine": "burger", "name": "Big Burger", "smoking": "outside"}}, {"type": "node", "id": 3248991261, "lat": 13.6842445, "lon": 100.6126107, "tags": {"amenity": "cafe", "name": "Coffee To Go"}}, {"type": "node", "id": 3380822111, "lat": 13.6590884, "lon": 100.642588, "tags": {"amenity": "restaurant", "cuisine": "thai", "name": "Steel Roses Restaurant & Book Shop", "opening_hours": "Tu-Su", "phone": "+6623988488"}}, {"type": "node", "id": 3431296252, "lat": 13.6691267, "lon": 100.6340678, "tags": {"amenity": "cafe", "brand": "Starbucks", "brand:wikidata": "Q37158", "brand:wikipedia": "en:Starbucks", "check_date:opening_hours": "2023-01-10", "cuisine": "coffee_shop", "level": "1", "name": "\u0e2a\u0e15\u0e32\u0e23\u0e4c\u0e1a\u0e31\u0e04\u0e2a\u0e4c", "name:en": "Starbucks Coffee", "name:th": "\u0e2a\u0e15\u0e32\u0e23\u0e4c\u0e1a\u0e31\u0e04\u0e2a\u0e4c", "official_name": "Starbucks Coffee", "opening_hours:signed": "no", "shop": "coffee", "smoking": "no", "takeaway": "yes", "website": "https://www.starbucks.com/", "wheelchair": "yes"}}, {"type": "node", "id": 3431296253, "lat": 13.6875773, "lon": 100.6473656, "tags": {"amenity": "cafe", "brand": "Starbucks", "brand:wikidata": "Q37158", "brand:wikipedia": "en:Starbucks", "check_date:opening_hours": "2022-10-23", "cuisine": "coffee_shop", "diet:halal": "yes", "diet:vegan": "yes", "diet:vegetarian": "yes", "name": "Starbucks", "name:en": "Starbucks Coffee", "name:th": "\u0e2a\u0e15\u0e32\u0e23\u0e4c\u0e1a\u0e31\u0e04\u0e2a\u0e4c", "official_name": "Starbucks Coffee", "opening_hours:signed": "no", "shop": "coffee", "smoking": "no", "takeaway": "yes", "website": "https://www.starbucks.com/", "wheelchair": "yes"}}, {"type": "node", "id": 3431296254, "lat": 13.6898881, "lon": 100.647371, "tags": {"air_conditioning": "yes", "amenity": "cafe", "brand": "Starbucks", "brand:wikidata": "Q37158", "brand:wikipedia": "en:Starbucks", "check_date": "2022-10-23", "cuisine": "coffee_shop", "diet:vegan": "yes", "diet:vegetarian": "yes", "indoor_seating": "yes", "internet_access": "wlan", "internet_access:fee": "customers", "name": "Starbucks", "name:en": "Starbucks Coffee", "name:th": "\u0e2a\u0e15\u0e32\u0e23\u0e4c\u0e1a\u0e31\u0e04\u0e2a\u0e4c", "official_name": "Starbucks Coffee", "opening_hours": "06:30-20:00", "outdoor_seating": "no", "shop": "coffee", "smoking": "no", "takeaway": "yes", "website": "https://www.starbucks.com/", "wheelchair": "yes"}}, {"type": "node", "id": 3431296257, "lat": 13.6944307, "lon": 100.6479265, "tags": {"amenity": "cafe", "brand": "Starbucks", "brand:wikidata": "Q37158", "brand:wikipedia": "en:Starbucks", "cuisine": "coffee_shop", "diet:halal": "yes", "diet:vegan": "yes", "diet:vegetarian": "yes", "name": "Starbucks", "name:en": "Starbucks Coffee", "name:th": "\u0e2a\u0e15\u0e32\u0e23\u0e4c\u0e1a\u0e31\u0e04\u0e2a\u0e4c", "official_name": "Starbucks Coffee", "opening_hours": "Mo-Fr 10:30-21:00; Sa,Su 10:00-21:00", "shop": "coffee", "smoking": "no", "takeaway": "yes", "website": "https://www.starbucks.com/", "wheelchair": "yes"}}, {"type": "node", "id": 4144120990, "lat": 13.6844579, "lon": 100.6140022, "tags": {"name": "Marsi hotel ", "tourism": "hotel"}}, {"type": "node", "id": 4164238989, "lat": 13.6932883, "lon": 100.6463321, "tags": {"name": "KC Place", "tourism": "hotel"}}, {"type": "node", "id": 4241048828, "lat": 13.6916471, "lon": 100.6208262, "tags": {"addr:housenumber": "1040/44-45", "addr:postcode": "10260", "addr:street": "\u0e2a\u0e38\u0e02\u0e38\u0e21\u0e27\u0e34\u0e17 101 (\u0e1b\u0e38\u0e13\u0e13\u0e27\u0e34\u0e16\u0e35)", "amenity": "restaurant", "cuisine": "thai", "name": "\u0e04\u0e23\u0e31\u0e27\u0e43\u0e19\u0e1d\u0e31\u0e19", "opening_hours": "Th-Tu 11:00-21:00", "phone": "023314577", "smoking": "no"}}, {"type": "node", "id": 4371551893, "lat": 13.6875346, "lon": 100.6075175, "tags": {"addr:housenumber": "49/2", "addr:postcode": "10260", "addr:street": "\u0e0b\u0e2d\u0e22\u0e2a\u0e38\u0e02\u0e38\u0e21\u0e27\u0e34\u0e17 64", "amenity": "cafe", "cuisine": "thai", "internet_access": "wlan", "name:en": "The 64 Cafe"}}, {"type": "node", "id": 4417342893, "lat": 13.6903737, "lon": 100.6095771, "tags": {"amenity": "cafe", "name:en": "BaanSabieng"}}, {"type": "node", "id": 4484491446, "lat": 13.6683058, "lon": 100.6470646, "tags": {"name": "Maple Hotel", "tourism": "hotel"}}, {"type": "node", "id": 4484525095, "lat": 13.6684437, "lon": 100.635558, "tags": {"amenity": "restaurant", "brand": "MK Restaurants", "brand:wikidata": "Q62075359", "check_date:opening_hours": "2023-01-10", "cuisine": "thai", "name": "MK Restaurants", "opening_hours:signed": "no"}}, {"type": "node", "id": 4571565789, "lat": 13.6894827, "lon": 100.6466166, "tags": {"amenity": "restaurant", "name": "\u0e42\u0e08\u0e4a\u0e01\u0e40\u0e1b\u0e34\u0e14\u0e2b\u0e21\u0e49\u0e2d", "name:en": "Claypot Lobster Porridge"}}, {"type": "node", "id": 4589676295, "lat": 13.6832992, "lon": 100.6028251, "tags": {"description": "Exit Din Daeng", "information": "guidepost", "name": "Exit Din Daeng", "note": "Exit Din Daeng", "tourism": "information"}}, {"type": "node", "id": 4611678689, "lat": 13.6856347, "lon": 100.6209908, "tags": {"addr:postcode": "10260", "addr:street": "Chula 2 Alley", "amenity": "restaurant", "name:en": "Som Tam Khun Kan", "opening_hours": "Mo-Su 10:00-00:00", "phone": "023970770"}}, {"type": "node", "id": 4778503430, "lat": 13.6779012, "lon": 100.6339481, "tags": {"amenity": "restaurant", "cuisine": "sushi", "name": "Daruma Sushi"}}, {"type": "node", "id": 4801119921, "lat": 13.6604431, "lon": 100.6121066, "tags": {"email": "dodee105hostel@gmail.com", "internet_access": "wlan", "name": "\u0e14\u0e39\u0e14\u0e35 105 \u0e42\u0e2e\u0e2a\u0e40\u0e17\u0e25 \u0e41\u0e2d\u0e19\u0e14\u0e4c \u0e04\u0e32\u0e40\u0e1f\u0e48", "name:en": "Do Dee 105 Hostel & Cafe", "name:th": "\u0e14\u0e39\u0e14\u0e35 105 \u0e42\u0e2e\u0e2a\u0e40\u0e17\u0e25 \u0e41\u0e2d\u0e19\u0e14\u0e4c \u0e04\u0e32\u0e40\u0e1f\u0e48", "opening_hours": "Mo-Su 08:00-20:00", "phone": "097-276-8190", "tourism": "hostel", "website": "http://www.dodee105.com"}}, {"type": "node", "id": 5044231726, "lat": 13.6602119, "lon": 100.626547, "tags": {"amenity": "cafe", "name:en": "Caf\u00e9 D'Oro"}}, {"type": "node", "id": 5155209123, "lat": 13.6503468, "lon": 100.6228463, "tags": {"amenity": "cafe", "name:en": "Buna Organic Coffee", "website": "https://m.facebook.com/bunaorganiccoffee/?ref=page_internal"}}, {"type": "node", "id": 5458124622, "lat": 13.6573654, "lon": 100.6042308, "tags": {"name": "The Gallery Condominium", "tourism": "apartment"}}, {"type": "node", "id": 5501715357, "lat": 13.6930075, "lon": 100.6450548, "tags": {"name": "Mii", "tourism": "hotel"}}, {"type": "node", "id": 5501747078, "lat": 13.6930094, "lon": 100.6450869, "tags": {"amenity": "restaurant", "level": "6", "name": "Seventh Floor", "opening_hours": "7:00-10:00 open \"breakfast\"; 10:00-23:00 open; 23:00-24:00 open \"no new orders\""}}, {"type": "node", "id": 5503957052, "lat": 13.6913618, "lon": 100.6467622, "tags": {"addr:postcode": "10250", "amenity": "cafe", "cuisine": "coffee_shop", "name": "Cafe Amazon", "opening_hours": "Mo-Su 06:00-21:00"}}, {"type": "node", "id": 5901259634, "lat": 13.6937254, "lon": 100.6392962, "tags": {"addr:housenumber": "27", "addr:postcode": "10250", "addr:province": "\u0e01\u0e23\u0e38\u0e07\u0e40\u0e17\u0e1e\u0e21\u0e2b\u0e32\u0e19\u0e04\u0e23", "addr:street": "Srinakarin", "email": "reservation@thespringbangkok.com", "fax": "66(2)02330-8832", "internet_access": "yes", "internet_access:fee": "yes", "name": "The Spring Bangkok", "operator": "66(0)2330-8855", "phone": "66(0)86-3273-3346", "rooms": "243", "smoking": "no", "tourism": "hotel"}}, {"type": "node", "id": 6007414854, "lat": 13.680974, "lon": 100.6058121, "tags": {"addr:housenumber": "119", "addr:street": "Sukhumvit 66/1", "name": "Hush Hush Cabina", "phone": "+66970027460", "tourism": "hostel", "website": "https://www.airbnb.com/rooms/16787156"}}, {"type": "node", "id": 6031151086, "lat": 13.6784581, "lon": 100.6297408, "tags": {"name:en": "Udomsuk Walk", "tourism": "attraction"}}, {"type": "node", "id": 6114644388, "lat": 13.6792384, "lon": 100.61641, "tags": {"name:en": "Niran Grand Hotel", "tourism": "hotel"}}, {"type": "node", "id": 6207205985, "lat": 13.6980833, "lon": 100.604841, "tags": {"addr:housenumber": "2347", "addr:street": "\u0e16\u0e19\u0e19\u0e2a\u0e38\u0e02\u0e38\u0e21\u0e27\u0e34\u0e17", "amenity": "restaurant", "cuisine": "thai", "name": "\u0e23\u0e32\u0e0a\u0e32", "name:zh": "\u6d77\u5357\u9e21\u996d", "outdoor_seating": "no", "self_service": "no"}}, {"type": "node", "id": 6207205986, "lat": 13.6983104, "lon": 100.6048531, "tags": {"amenity": "restaurant", "name:zh": "\u5c0f\u5403\u8857"}}, {"type": "node", "id": 6207205987, "lat": 13.6989571, "lon": 100.6044832, "tags": {"amenity": "restaurant", "name:zh": "\u9e21\u996d\u5e97"}}, {"type": "node", "id": 6207206885, "lat": 13.6991712, "lon": 100.6043827, "tags": {"amenity": "restaurant", "name:zh": "\u83dc\u996d\u5e97"}}, {"type": "node", "id": 6207207085, "lat": 13.6986104, "lon": 100.6048001, "tags": {"amenity": "cafe", "brand": "Starbucks", "brand:wikidata": "Q37158", "cuisine": "coffee_shop", "name": "Starbucks", "name:zh": "\u661f\u5df4\u514b", "official_name": "Starbucks Coffee", "takeaway": "yes"}}, {"type": "node", "id": 6308020698, "lat": 13.6827156, "lon": 100.616283, "tags": {"name": "Townhouse Bangkok", "tourism": "guest_house"}}, {"type": "node", "id": 6533236686, "lat": 13.6905682, "lon": 100.605861, "tags": {"name": "I", "name:en": "Impala 64 hostel Bangkok", "tourism": "hotel"}}, {"type": "node", "id": 6558234310, "lat": 13.6844696, "lon": 100.6143115, "tags": {"addr:housenumber": "101/3", "addr:postcode": "10260", "addr:province": "\u0e01\u0e23\u0e38\u0e07\u0e40\u0e17\u0e1e\u0e21\u0e2b\u0e32\u0e19\u0e04\u0e23", "addr:street": "\u0e2a\u0e38\u0e02\u0e38\u0e21\u0e27\u0e34\u0e17 101/1", "brand": "Host Rooms", "name": "Hostel Rooms@Sukhumvit 101/1", "power": "yes", "tourism": "hotel"}}, {"type": "node", "id": 6746468337, "lat": 13.6712018, "lon": 100.6293544, "tags": {"addr:city": "\u0e1a\u0e32\u0e07\u0e19\u0e32", "addr:housenumber": "926/12", "addr:postcode": "10260", "addr:street": "\u0e16\u0e19\u0e19\u0e1a\u0e32\u0e07\u0e19\u0e32-\u0e15\u0e23\u0e32\u0e14 17", "amenity": "restaurant", "cuisine": "\u0e2d\u0e32\u0e2b\u0e32\u0e23\u0e15\u0e32\u0e21\u0e2a\u0e31\u0e48\u0e07", "delivery": "yes", "name": "\u0e15\u0e36\u0e01\u0e23\u0e34\u0e0a\u0e2d\u0e1e\u0e32\u0e23\u0e4c\u0e17\u0e40\u0e21\u0e49\u0e19\u0e17\u0e4c", "phone": "064-8604952"}}, {"type": "node", "id": 7031960586, "lat": 13.6615606, "lon": 100.6068443, "tags": {"name:en": "Notting Hill Sukhumvit 105", "tourism": "apartment"}}, {"type": "node", "id": 7164426387, "lat": 13.6822542, "lon": 100.6089017, "tags": {"name:en": "Udomsuk Inn @ BTS Udon Suk", "tourism": "hotel"}}, {"type": "node", "id": 7775009874, "lat": 13.6553857, "lon": 100.6463761, "tags": {"amenity": "restaurant", "cuisine": "coffee_shop;italian", "name": "Pola Pola caf\u00e9", "opening_hours": "Mo-Su 08:00-21:00"}}, {"type": "node", "id": 7786117890, "lat": 13.6640006, "lon": 100.6498134, "tags": {"addr:city": "\u0e1a\u0e32\u0e07\u0e19\u0e32\u0e43\u0e15\u0e49 \u0e1a\u0e32\u0e07\u0e19\u0e32 \u0e01\u0e17\u0e21.", "addr:housenumber": "4 \u0e0b.\u0e1a\u0e32\u0e07\u0e19\u0e32-\u0e15\u0e23\u0e32\u0e1454", "addr:postcode": "10260", "addr:street": "\u0e16\u0e19\u0e19\u0e40\u0e17\u0e1e\u0e23\u0e31\u0e15\u0e19", "amenity": "restaurant", "cuisine": "chinese", "name": "Xingfu Bangna Chinese Restaurant", "opening_hours": "Mo-Su 10:00-22:00", "phone": "+66631943561", "website": "https://www.facebook.com/xingfu.bangna2016/"}}, {"type": "node", "id": 7996298931, "lat": 13.6906697, "lon": 100.6154139, "tags": {"name": "Unico Hostel", "tourism": "hostel"}}, {"type": "node", "id": 8269208040, "lat": 13.6689339, "lon": 100.6426514, "tags": {"addr:city": "Bangna", "addr:housenumber": "150", "addr:postcode": "10260", "addr:street": "Bang Na Trat 27 Alley (Muban Phairot 2 Soi 3)", "amenity": "restaurant", "cuisine": "chinese;thai", "delivery": "yes", "diet:omnivore": "yes", "name": "Stewed pork leg Kuaichap 100 million", "name:th": "\u0e02\u0e32\u0e2b\u0e21\u0e39\u0e01\u0e4b\u0e27\u0e22\u0e08\u0e31\u0e4a\u0e1a\u0e23\u0e49\u0e2d\u0e22\u0e25\u0e49\u0e32\u0e19", "opening_hours": "Mo-Sa 07:00-15:00", "phone": "0933383108", "takeaway": "yes", "website": "https://www.facebook.com/%E0%B8%82%E0%B8%B2%E0%B8%AB%E0%B8%A1%E0%B8%B9%E0%B8%A3%E0%B9%89%E0%B8%AD%E0%B8%A2%E0%B8%A5%E0%B9%89%E0%B8%B2%E0%B8%99Kamoo100-110423067541235/"}}, {"type": "node", "id": 8274256538, "lat": 13.6551075, "lon": 100.6455967, "tags": {"amenity": "cafe", "brand": "Starbucks", "brand:wikidata": "Q37158", "brand:wikipedia": "en:Starbucks", "cuisine": "coffee_shop", "name": "Starbucks", "official_name": "Starbucks Coffee", "takeaway": "yes"}}, {"type": "node", "id": 8274952685, "lat": 13.657577, "lon": 100.623822, "tags": {"amenity": "restaurant", "cuisine": "japanese", "name": "Ryoshi Sushi"}}, {"type": "node", "id": 8274952686, "lat": 13.6574862, "lon": 100.6237829, "tags": {"amenity": "restaurant", "cuisine": "italian", "name": "Orca Baker & Butcher"}}, {"type": "node", "id": 8283712859, "lat": 13.6503204, "lon": 100.6236568, "tags": {"amenity": "restaurant", "name": "Eva Shabu"}}, {"type": "node", "id": 8293950986, "lat": 13.6571782, "lon": 100.6242058, "tags": {"amenity": "restaurant", "cuisine": "thai", "name": "By Bua"}}, {"type": "node", "id": 8293950987, "lat": 13.6573189, "lon": 100.6242346, "tags": {"amenity": "cafe", "name": "Caf\u00e9 Amazon"}}, {"type": "node", "id": 8293950988, "lat": 13.6572479, "lon": 100.6242198, "tags": {"amenity": "restaurant", "cuisine": "japanese", "name": "Sukiya"}}, {"type": "node", "id": 8294128167, "lat": 13.650552, "lon": 100.621478, "tags": {"amenity": "restaurant", "name": "Grillman"}}, {"type": "node", "id": 8416466460, "lat": 13.685183, "lon": 100.6110252, "tags": {"amenity": "restaurant", "currency:BCH": "yes", "name": "GetFresh", "opening_hours": "Mo-Su 07:00-21:00", "website": "https://www.facebook.com/getfreshth"}}, {"type": "node", "id": 8533355609, "lat": 13.6846777, "lon": 100.6124244, "tags": {"addr:district": "\u0e40\u0e02\u0e15\u0e1e\u0e23\u0e30\u0e42\u0e02\u0e19\u0e07", "addr:housenumber": "29-29/1", "addr:postcode": "10260", "addr:province": "\u0e01\u0e23\u0e38\u0e07\u0e40\u0e17\u0e1e\u0e21\u0e2b\u0e32\u0e19\u0e04\u0e23", "addr:street": "\u0e0b\u0e2d\u0e22\u0e2a\u0e38\u0e02\u0e38\u0e21\u0e27\u0e34\u0e17 101/1", "addr:subdistrict": "\u0e41\u0e02\u0e27\u0e07\u0e1a\u0e32\u0e07\u0e08\u0e32\u0e01", "air_conditioning": "yes", "amenity": "restaurant", "bar": "yes", "brand": "Devilish", "brewery": "Budweiser", "check_date": "2025-09-01", "check_date:currency:XBT": "2025-09-01", "contact:email": "devilisheats@gmail.com", "contact:facebook": "https://www.facebook.com/devilisheats", "contact:instagram": "https://www.instagram.com/devilisheats", "cuisine": "american;barbecue;australian;pie", "currency:XBT": "yes", "delivery": "yes", "description": "American BBQ and Australian Pub Grub. Craft and Draft beers. Desserts and Bakery.", "diet:meat": "yes", "email": "eat@iamdevilish.com", "image": "https://i2.wp.com/www.iamdevilish.com/wp-content/uploads/2020/07/beef_shortribs.jpg", "name": "Devilish Chews and Brews", "opening_hours": "Tu-Su 16:00-23:00", "outdoor_seating": "yes", "payment:lightning": "yes", "payment:lightning_contactless": "no", "payment:onchain": "no", "phone": "+66 21 014 935", "reservation": "recommended", "smoking": "outside", "start_date": "2011-12-16", "survey:date": "2025-09-01", "takeaway": "yes", "website": "https://www.iamdevilish.com", "wheelchair": "yes"}}, {"type": "node", "id": 8555962836, "lat": 13.6863192, "lon": 100.6204433, "tags": {"addr:housenumber": "25", "addr:postcode": "10260", "addr:province": "\u0e01\u0e23\u0e38\u0e07\u0e40\u0e17\u0e1e\u0e21\u0e2b\u0e32\u0e19\u0e04\u0e23", "addr:street": "Wachiratham Sathit 23 Sukhumvit101/1", "amenity": "cafe", "cuisine": "coffee_shop;italian_Gelaro;ice_cream;juice;Dim_Sum;french;fish_and_chips", "internet_access": "yes", "internet_access:fee": "no", "name": "65Cafe'", "opening_hours": "Mo-Su 07:30-18:00", "outdoor_seating": "yes", "phone": "+66619645654", "website": "https://www.facebook.com/sixtyfivecafe"}}, {"type": "node", "id": 8962646326, "lat": 13.6832118, "lon": 100.6120629, "tags": {"amenity": "cafe", "cuisine": "pizza", "name": "\u0e1a\u0e49\u0e32\u0e19\u0e40\u0e1b\u0e32\u0e40\u0e2d\u0e07"}}, {"type": "node", "id": 9515504254, "lat": 13.6678432, "lon": 100.6204529, "tags": {"addr:housenumber": "900", "addr:postcode": "10260", "addr:province": "\u0e01\u0e23\u0e38\u0e07\u0e40\u0e17\u0e1e\u0e21\u0e2b\u0e32\u0e19\u0e04\u0e23", "addr:street": "\u0e1a\u0e32\u0e07\u0e19\u0e32-\u0e15\u0e23\u0e32\u0e14 12/1", "brand": "AVANA", "name": "AVANA Bangkok Hotel", "phone": "+662 763 2900", "tourism": "hotel", "website": "https://bkk.avanahotel.com/th/"}}, {"type": "node", "id": 9751068856, "lat": 13.6697801, "lon": 100.6157445, "tags": {"addr:city": "\u0e01\u0e23\u0e38\u0e07\u0e40\u0e17\u0e1e\u0e21\u0e2b\u0e32\u0e19\u0e04\u0e23", "addr:housenumber": "8", "addr:postcode": "10260", "addr:street": "Bangna-Trat 6", "name": "S&P Court", "tourism": "apartment"}}, {"type": "node", "id": 9751068858, "lat": 13.6703613, "lon": 100.6165947, "tags": {"amenity": "restaurant", "name": "Sab Indy"}}, {"type": "node", "id": 9751068859, "lat": 13.668081, "lon": 100.6152288, "tags": {"addr:city": "\u0e01\u0e23\u0e38\u0e07\u0e40\u0e17\u0e1e\u0e21\u0e2b\u0e32\u0e19\u0e04\u0e23", "addr:postcode": "10260", "addr:street": "Bangna-Trat 6", "name": "SP Home", "tourism": "apartment"}}, {"type": "node", "id": 9751068860, "lat": 13.6703891, "lon": 100.6146805, "tags": {"amenity": "cafe", "brand": "Starbucks", "brand:wikidata": "Q37158", "cuisine": "coffee_shop", "name": "Starbucks", "official_name": "Starbucks Coffee", "takeaway": "yes"}}, {"type": "node", "id": 9751068862, "lat": 13.6783726, "lon": 100.6181952, "tags": {"amenity": "restaurant"}}, {"type": "node", "id": 9751068863, "lat": 13.6782796, "lon": 100.6182979, "tags": {"amenity": "restaurant"}}, {"type": "node", "id": 9751175387, "lat": 13.6637841, "lon": 100.6099249, "tags": {"leisure": "park", "name": "Phuti Anun Park"}}, {"type": "node", "id": 9751175390, "lat": 13.6709722, "lon": 100.6155217, "tags": {"amenity": "restaurant", "name": "Guru Fried Rice"}}, {"type": "node", "id": 9751175391, "lat": 13.6708321, "lon": 100.6220615, "tags": {"amenity": "restaurant", "cuisine": "sushi", "name": "Tora Sushi"}}, {"type": "node", "id": 9751175392, "lat": 13.6709195, "lon": 100.6160282, "tags": {"amenity": "cafe", "name": "Nana Coffee Roasters"}}, {"type": "node", "id": 9751175393, "lat": 13.66721, "lon": 100.640481, "tags": {"amenity": "restaurant", "cuisine": "sushi", "name": "Hoshi"}}, {"type": "node", "id": 9753381194, "lat": 13.6713347, "lon": 100.6055538, "tags": {"amenity": "restaurant", "name": "MK Restaurant"}}, {"type": "node", "id": 9753518249, "lat": 13.6703638, "lon": 100.6144468, "tags": {"amenity": "restaurant", "cuisine": "sushi", "name": "Kabocha Sushi"}}, {"type": "node", "id": 9753541180, "lat": 13.6757499, "lon": 100.6034818, "tags": {"amenity": "cafe", "brand": "\u0e04\u0e32\u0e40\u0e1f\u0e48 \u0e2d\u0e40\u0e21\u0e0b\u0e2d\u0e19", "brand:en": "Caf\u00e9 Amazon", "brand:th": "\u0e04\u0e32\u0e40\u0e1f\u0e48 \u0e2d\u0e40\u0e21\u0e0b\u0e2d\u0e19", "brand:wikidata": "Q43247503", "cuisine": "coffee_shop", "name": "\u0e04\u0e32\u0e40\u0e1f\u0e48 \u0e2d\u0e40\u0e21\u0e0b\u0e2d\u0e19", "name:en": "Caf\u00e9 Amazon", "name:th": "\u0e04\u0e32\u0e40\u0e1f\u0e48 \u0e2d\u0e40\u0e21\u0e0b\u0e2d\u0e19", "takeaway": "yes"}}, {"type": "node", "id": 9753541196, "lat": 13.6703765, "lon": 100.6096668, "tags": {"amenity": "cafe", "brand": "Starbucks", "brand:wikidata": "Q37158", "cuisine": "coffee_shop", "name": "Starbucks", "official_name": "Starbucks Coffee", "takeaway": "yes"}}, {"type": "node", "id": 9753541197, "lat": 13.6705305, "lon": 100.6088537, "tags": {"amenity": "cafe", "brand": "\u0e04\u0e32\u0e40\u0e1f\u0e48 \u0e2d\u0e40\u0e21\u0e0b\u0e2d\u0e19", "brand:en": "Caf\u00e9 Amazon", "brand:th": "\u0e04\u0e32\u0e40\u0e1f\u0e48 \u0e2d\u0e40\u0e21\u0e0b\u0e2d\u0e19", "brand:wikidata": "Q43247503", "cuisine": "coffee_shop", "name": "\u0e04\u0e32\u0e40\u0e1f\u0e48 \u0e2d\u0e40\u0e21\u0e0b\u0e2d\u0e19", "name:en": "Caf\u00e9 Amazon", "name:th": "\u0e04\u0e32\u0e40\u0e1f\u0e48 \u0e2d\u0e40\u0e21\u0e0b\u0e2d\u0e19", "takeaway": "yes"}}, {"type": "node", "id": 9753541198, "lat": 13.663409, "lon": 100.6141591, "tags": {"amenity": "cafe", "name": "Roots at Lasalle"}}, {"type": "node", "id": 9772105504, "lat": 13.6750841, "lon": 100.6418909, "tags": {"amenity": "restaurant"}}, {"type": "node", "id": 9772105507, "lat": 13.6739465, "lon": 100.6370783, "tags": {"amenity": "restaurant"}}, {"type": "node", "id": 9772105511, "lat": 13.6683431, "lon": 100.6153346, "tags": {"amenity": "restaurant"}}, {"type": "node", "id": 9958928550, "lat": 13.668759, "lon": 100.6347407, "tags": {"name": "Pororo Aqua Park", "tourism": "theme_park"}}, {"type": "node", "id": 10086575212, "lat": 13.6639354, "lon": 100.6312643, "tags": {"name": "Orion Hotel", "tourism": "hotel", "website": "https://www.orionhotelbangna.com/"}}, {"type": "node", "id": 10086588111, "lat": 13.6653734, "lon": 100.6312804, "tags": {"amenity": "restaurant", "name": "Bulldog Burger"}}, {"type": "node", "id": 10086588112, "lat": 13.6656861, "lon": 100.6311691, "tags": {"amenity": "cafe", "name": "Belong U Cafe"}}, {"type": "node", "id": 10086588113, "lat": 13.6650437, "lon": 100.6309157, "tags": {"amenity": "cafe", "name": "Cafe Amazon"}}, {"type": "node", "id": 10088402218, "lat": 13.6637384, "lon": 100.6305157, "tags": {"amenity": "restaurant", "cuisine": "thai", "survey:date": "2022-10-10"}}, {"type": "node", "id": 10135837517, "lat": 13.6832652, "lon": 100.6107908, "tags": {"name:ja": "Buri hostel", "tourism": "guest_house"}}, {"type": "node", "id": 10172679217, "lat": 13.6578706, "lon": 100.6029785, "tags": {"name:en": "KnightBridge", "tourism": "apartment"}}, {"type": "node", "id": 10245741622, "lat": 13.6794928, "lon": 100.6067158, "tags": {"addr:housenumber": "111/1", "addr:postcode": "10260", "addr:street": "\u0e0b\u0e2d\u0e22\u0e2a\u0e38\u0e02\u0e38\u0e21\u0e27\u0e34\u0e17 66/1", "internet_access": "wlan", "name:en": "Gfeel Hostel", "tourism": "hotel"}}, {"type": "node", "id": 10245741625, "lat": 13.6990718, "lon": 100.6049035, "tags": {"addr:housenumber": "63", "addr:postcode": "10260", "addr:street": "\u0e0b\u0e2d\u0e22\u0e2a\u0e38\u0e02\u0e38\u0e21\u0e27\u0e34\u0e17 93", "internet_access": "wlan", "name:en": "Hostel 24", "tourism": "hostel"}}, {"type": "node", "id": 10316166094, "lat": 13.6756864, "lon": 100.6034154, "tags": {"name": "The Old Whiskey Museum", "tourism": "museum"}}, {"type": "node", "id": 10316166096, "lat": 13.6704821, "lon": 100.6037296, "tags": {"name": "Bangkok Local Museum Bang Na District", "tourism": "museum"}}, {"type": "node", "id": 10316166097, "lat": 13.6879433, "lon": 100.6155596, "tags": {"name": "Museum of the Heart Lantern", "tourism": "museum"}}, {"type": "node", "id": 10316351147, "lat": 13.6636292, "lon": 100.6098848, "tags": {"artwork_type": "statue", "name": "\u0e2d\u0e19\u0e38\u0e2a\u0e32\u0e27\u0e23\u0e35\u0e22\u0e4c \u0e1e\u0e25.\u0e23.\u0e2d.\u0e2a\u0e27\u0e31\u0e2a\u0e14\u0e34\u0e4c \u0e20\u0e39\u0e15\u0e34\u0e2d\u0e19\u0e31\u0e19\u0e15\u0e4c", "tourism": "artwork"}}, {"type": "node", "id": 10536576066, "lat": 13.6686062, "lon": 100.6340629, "tags": {"amenity": "cafe", "brand": "Starbucks", "brand:wikidata": "Q37158", "brand:wikipedia": "en:Starbucks", "cuisine": "coffee_shop", "level": "0", "name": "\u0e2a\u0e15\u0e32\u0e23\u0e4c\u0e1a\u0e31\u0e04\u0e2a\u0e4c", "name:en": "Starbucks Coffee", "name:th": "\u0e2a\u0e15\u0e32\u0e23\u0e4c\u0e1a\u0e31\u0e04\u0e2a\u0e4c", "official_name": "Starbucks Coffee", "opening_hours:signed": "no", "shop": "coffee", "smoking": "no", "takeaway": "yes", "website": "https://www.starbucks.com/", "wheelchair": "yes"}}, {"type": "node", "id": 10549021725, "lat": 13.6880685, "lon": 100.6478296, "tags": {"amenity": "restaurant", "name": "MK"}}, {"type": "node", "id": 10581777646, "lat": 13.6891669, "lon": 100.6465169, "tags": {"amenity": "restaurant", "name": "\u0e2a\u0e38\u0e01\u0e35\u0e49 \u0e15\u0e35\u0e4b\u0e19\u0e49\u0e2d\u0e22", "name:en": "Suki Teenoi", "name:th": "\u0e2a\u0e38\u0e01\u0e35\u0e49 \u0e15\u0e35\u0e4b\u0e19\u0e49\u0e2d\u0e22"}}, {"type": "node", "id": 10581777647, "lat": 13.688582, "lon": 100.6464649, "tags": {"amenity": "restaurant", "name": "James Korean"}}, {"type": "node", "id": 10654143305, "lat": 13.6644741, "lon": 100.6182854, "tags": {"addr:housenumber": "19", "addr:postcode": "10260", "addr:street": "\u0e0b\u0e2d\u0e22\u0e25\u0e32\u0e0b\u0e32\u0e25 33", "email": "lasallesuites19@gmail.com", "internet_access": "wlan", "name:en": "Lasalle Suites & Spa", "phone": "02-095-2770", "tourism": "hotel", "website": "https://lasallesuitesandspa.com/"}}, {"type": "node", "id": 10656640063, "lat": 13.6785983, "lon": 100.6143128, "tags": {"amenity": "restaurant", "brand": "Pizza Hut", "brand:wikidata": "Q191615", "cuisine": "pizza", "name": "Pizza Hut"}}, {"type": "node", "id": 10656700011, "lat": 13.6852582, "lon": 100.6113615, "tags": {"amenity": "restaurant", "cuisine": "pizza", "name": "Tiga Pizza"}}, {"type": "node", "id": 10656700012, "lat": 13.661533, "lon": 100.6212703, "tags": {"amenity": "restaurant", "cuisine": "pizza", "name": "Premium Craft Pizza"}}, {"type": "node", "id": 10741176422, "lat": 13.6763214, "lon": 100.6442857, "tags": {"air_conditioning": "yes", "amenity": "restaurant", "cuisine": "seafood", "name": "\u0e40\u0e23\u0e37\u0e2d\u0e42\u0e1b\u0e4a\u0e30 \u0e0b\u0e35\u0e1f\u0e39\u0e49\u0e14", "name:en": "Ruepoh Seafood", "name:th": "\u0e40\u0e23\u0e37\u0e2d\u0e42\u0e1b\u0e4a\u0e30 \u0e0b\u0e35\u0e1f\u0e39\u0e49\u0e14", "outdoor_seating": "yes", "website": "https://www.facebook.com/ruepohseafood/?locale=th_TH"}}, {"type": "node", "id": 10768611005, "lat": 13.6792524, "lon": 100.6158981, "tags": {"name:en": "Elio Del Nest", "tourism": "apartment"}}, {"type": "node", "id": 10907097305, "lat": 13.6764778, "lon": 100.6078133, "tags": {"addr:housenumber": "3048", "air_conditioning": "yes", "email": "vasawat.takka@gmail.com", "internet_access": "wlan", "internet_access:fee": "customers", "name": "Takka Hotel - Bangna", "name:en": "Takka Hotel - Bangna", "name:th": "\u0e42\u0e23\u0e07\u0e41\u0e23\u0e21\u0e15\u0e23\u0e23\u0e01\u0e30-\u0e1a\u0e32\u0e07\u0e19\u0e32", "phone": "+66 97 373 4343", "tourism": "hotel"}}, {"type": "node", "id": 10951512605, "lat": 13.6911934, "lon": 100.6140834, "tags": {"amenity": "restaurant", "diet:vegan": "yes", "name:en": "May Veggie Home"}}, {"type": "node", "id": 11001000726, "lat": 13.6549154, "lon": 100.6416132, "tags": {"addr:city": "\u0e41\u0e02\u0e27\u0e07\u0e1a\u0e32\u0e07\u0e19\u0e32\u0e43\u0e15\u0e49", "addr:housenumber": "86", "addr:postcode": "10260", "addr:street": "\u0e16\u0e19\u0e19\u0e25\u0e32\u0e0b\u0e32\u0e25", "amenity": "cafe", "cuisine": "coffee_shop;\u0e02\u0e19\u0e21\u0e1b\u0e31\u0e07\u0e1b\u0e34\u0e49\u0e07;\u0e02\u0e2d\u0e07\u0e17\u0e32\u0e19\u0e40\u0e25\u0e48\u0e19", "name": "Pawich Coffee House", "opening_hours": "Mo-Sa 08:00-17:00", "phone": "0926748325"}}, {"type": "node", "id": 11046034514, "lat": 13.6844973, "lon": 100.6190999, "tags": {"amenity": "cafe", "brand": "\u0e04\u0e32\u0e40\u0e1f\u0e48 \u0e2d\u0e40\u0e21\u0e0b\u0e2d\u0e19", "brand:en": "Caf\u00e9 Amazon", "brand:th": "\u0e04\u0e32\u0e40\u0e1f\u0e48 \u0e2d\u0e40\u0e21\u0e0b\u0e2d\u0e19", "brand:wikidata": "Q43247503", "cuisine": "coffee_shop", "name": "\u0e04\u0e32\u0e40\u0e1f\u0e48 \u0e2d\u0e40\u0e21\u0e0b\u0e2d\u0e19", "name:en": "Caf\u00e9 Amazon", "name:th": "\u0e04\u0e32\u0e40\u0e1f\u0e48 \u0e2d\u0e40\u0e21\u0e0b\u0e2d\u0e19", "takeaway": "yes"}}, {"type": "node", "id": 11061142158, "lat": 13.6860548, "lon": 100.6334095, "tags": {"amenity": "place_of_worship", "name": "Thailand Joss Paper Supply", "religion": "buddhist"}}, {"type": "node", "id": 11217357897, "lat": 13.6772829, "lon": 100.6360598, "tags": {"addr:housenumber": "5", "addr:postcode": "10260", "addr:province": "\u0e01\u0e23\u0e38\u0e07\u0e40\u0e17\u0e1e\u0e21\u0e2b\u0e32\u0e19\u0e04\u0e23", "addr:street": "Soi Udom Suk 56, Bang Na", "air_conditioning": "yes", "email": "contact@56hotel.com", "image": "https://56hotel.com/gallery/", "internet_access": "yes", "internet_access:fee": "no", "name": "56 Hotel (Sukhumvit 103)", "opening_hours": "24/7", "phone": "+66 023995646", "tourism": "hotel", "website": "https://56hotel.com"}}, {"type": "node", "id": 11556059313, "lat": 13.6905418, "lon": 100.60555, "tags": {"amenity": "restaurant"}}, {"type": "node", "id": 11613644835, "lat": 13.6614662, "lon": 100.6217544, "tags": {"addr:postcode": "10260", "addr:street": "\u0e0b\u0e2d\u0e22\u0e25\u0e32\u0e0b\u0e32\u0e25 36", "air_conditioning": "yes", "amenity": "cafe", "cuisine": "coffee_shop;burger;cake;juice", "delivery": "yes", "name": "Premium Bakery Lasalle \u2022 \u0e1e\u0e23\u0e35\u0e40\u0e21\u0e35\u0e48\u0e22\u0e21 \u0e40\u0e1a\u0e40\u0e01\u0e2d\u0e23\u0e35\u0e48 \u0e25\u0e32\u0e0b\u0e32\u0e25", "name:th": "\u0e1e\u0e23\u0e35\u0e40\u0e21\u0e35\u0e48\u0e22\u0e21 \u0e40\u0e1a\u0e40\u0e01\u0e2d\u0e23\u0e35\u0e48 \u0e25\u0e32\u0e0b\u0e32\u0e25", "opening_hours": "Mo-Sa 08:00-21:00", "outdoor_seating": "no", "phone": "+66928545894", "website": "https://www.facebook.com/PremiumB.Lasalle"}}, {"type": "node", "id": 11660041869, "lat": 13.6643605, "lon": 100.6159567, "tags": {"tourism": "apartment"}}, {"type": "node", "id": 12169287823, "lat": 13.6844333, "lon": 100.6122887, "tags": {"addr:housenumber": "101/1", "amenity": "cafe", "check_date": "2024-09-13", "contact:facebook": "https://www.facebook.com/huan.roastery", "email": "huan.roastery@gmail.com", "name": "Huan Roastery", "phone": "+66 91 858 5136", "website": "https://linktr.ee/huan.roastery"}}, {"type": "node", "id": 12304722062, "lat": 13.6949362, "lon": 100.6485721, "tags": {"addr:floor": "G", "addr:housenumber": "55", "addr:place": "Seacon Square Srinagarindra", "addr:postcode": "10250", "addr:province": "\u0e01\u0e23\u0e38\u0e07\u0e40\u0e17\u0e1e\u0e21\u0e2b\u0e32\u0e19\u0e04\u0e23", "amenity": "cafe", "bar": "yes", "branch": "Seacon Square", "check_date": "2025-08-09", "check_date:currency:XBT": "2025-08-09", "contact:facebook": "gattacafe", "contact:instagram": "gattacafe", "cuisine": "coffee_shop", "currency:XBT": "yes", "name": "Gatta Caf\u00e9 - Seacon Square", "opening_hours": "Mo-Fr 10:30-19:30; Sa-Su 10:00-19:30", "payment:lightning": "yes", "payment:lightning_contactless": "no", "payment:onchain": "no", "phone": "+66 96 268 5522", "survey:date": "2024-11-01", "website": "https://www.gattacafe.com/"}}, {"type": "node", "id": 12463441203, "lat": 13.6722608, "lon": 100.6158257, "tags": {"name": "HOP INN", "tourism": "hotel"}}, {"type": "node", "id": 12507145708, "lat": 13.6937005, "lon": 100.6430908, "tags": {"addr:housenumber": "21/48", "addr:street": "\u0e0b\u0e2d\u0e22\u0e28\u0e23\u0e35\u0e19\u0e04\u0e23\u0e34\u0e19\u0e17\u0e23\u0e4c 40", "internet_access": "wlan", "name": "Saffron Hill Bangkok", "opening_hours": "24/7", "phone": "+66 88 8936333;+66 99 052 9292", "tourism": "guest_house"}}, {"type": "node", "id": 12508775701, "lat": 13.685891, "lon": 100.6472624, "tags": {"amenity": "cafe", "cuisine": "cake;coffee_shop;tea", "internet_access": "wlan", "name": "Mivana Organic Forest Coffee", "opening_hours": "Mo-Su 07:30-17:30"}}, {"type": "node", "id": 12511999901, "lat": 13.6944855, "lon": 100.6430979, "tags": {"addr:housenumber": "1/69", "addr:street": "\u0e0b\u0e2d\u0e22\u0e2a\u0e38\u0e20\u0e32\u0e1e\u0e07\u0e29\u0e4c 3 \u0e41\u0e22\u0e01 8", "air_conditioning": "yes", "amenity": "cafe", "contact:facebook": "part.of.moon", "contact:instagram": "partofmoon", "cuisine": "coffee_shop;tea", "internet_access": "wlan", "name": "Part of Moon", "opening_hours": "We-Mo 09:30-17:30", "outdoor_seating": "no", "phone": "+66 83 253 5049"}}, {"type": "node", "id": 12513316101, "lat": 13.6944699, "lon": 100.6430062, "tags": {"addr:housenumber": "1/71", "addr:street": "\u0e0b\u0e2d\u0e22\u0e2a\u0e38\u0e20\u0e32\u0e1e\u0e07\u0e29\u0e4c 3 \u0e41\u0e22\u0e01 8", "air_conditioning": "yes", "contact:facebook": "61568152775772", "contact:instagram": "lune_bkk", "email": "lunebangkok.official@gmail.com", "internet_access": "wlan", "internet_access:fee": "customers", "name": "Lune Bangkok", "opening_hours": "24/7", "phone": "+66 83 253 5049;+66 94 165 3529", "self_service": "only", "smoking": "no", "tourism": "hotel", "website": "https://lunebangkok.my.canva.site/lune-bangkok"}}, {"type": "node", "id": 12513366301, "lat": 13.6936875, "lon": 100.6429974, "tags": {"addr:housenumber": "66/5", "amenity": "cafe", "contact:facebook": "saffronhillcafe", "contact:instagram": "saffronhillcafe", "cuisine": "coffee_shop;tea", "internet_access": "wlan", "name": "Saffron Hill Cafe", "opening_hours": "Mo-Su 08:00-18:00", "phone": "+66 96 849 2641"}}, {"type": "node", "id": 12533914627, "lat": 13.6692954, "lon": 100.6050074, "tags": {"board_type": "public_transport", "image": "https://commons.wikimedia.org/wiki/File:2025-01-26_BTS_Bang_Na_motorcycle_taxi_fare.JPG", "information": "board", "name": "fee moto-taxi", "source": "survey", "source:date": "2025-01-26", "tourism": "information"}}, {"type": "node", "id": 12593017744, "lat": 13.6732815, "lon": 100.6047062, "tags": {"addr:district": "Bang Na", "addr:place": "Ideo O2", "addr:postcode": "10260", "addr:province": "Bangkok", "addr:street": "Sanphawut Road", "addr:subdistrict": "Bang Na Tai", "amenity": "cafe", "internet_access": "wlan", "internet_access:fee": "customers", "name": "Kong Kung Wan Cafe' & Bistro", "opening_hours": "Mo-Fr 07:00-18:00, Sa-Su 08:00-18:00", "outdoor_seating": "no"}}, {"type": "node", "id": 12645185283, "lat": 13.6847819, "lon": 100.6090075, "tags": {"air_conditioning": "yes", "amenity": "cafe", "delivery": "yes", "name": "Mellow Morning Coffee & Caf\u00e9", "outdoor_seating": "no", "toilets": "yes"}}, {"type": "node", "id": 12761939009, "lat": 13.6607939, "lon": 100.609996, "tags": {"historic": "wayside_shrine", "religion": "spiritualist"}}, {"type": "node", "id": 12761961270, "lat": 13.6608739, "lon": 100.6094707, "tags": {"historic": "wayside_shrine", "religion": "spiritualist"}}, {"type": "node", "id": 12856853018, "lat": 13.6695699, "lon": 100.6320507, "tags": {"addr:housenumber": "477", "addr:place": "42 \u0e17\u0e32\u0e07\u0e04\u0e39\u0e48\u0e02\u0e19\u0e32\u0e19 \u0e16\u0e19\u0e19\u0e1a\u0e32\u0e07\u0e19\u0e32-\u0e15\u0e23\u0e32\u0e14 \u0e41\u0e02\u0e27\u0e07\u0e1a\u0e32\u0e07\u0e19\u0e32\u0e43\u0e15\u0e49 \u0e40\u0e02\u0e15\u0e1a\u0e32\u0e07\u0e19\u0e32 \u0e01\u0e23\u0e38\u0e07\u0e40\u0e17\u0e1e\u0e21\u0e2b\u0e32\u0e19\u0e04\u0e23 10260", "amenity": "restaurant", "diet:chicken": "yes", "name": "\u0e02\u0e49\u0e32\u0e27\u0e23\u0e32\u0e14\u0e41\u0e01\u0e07 & \u0e01\u0e4b\u0e27\u0e22\u0e40\u0e15\u0e35\u0e4b\u0e22\u0e27\u0e2b\u0e21\u0e39\u0e1a\u0e49\u0e32\u0e19\u0e1a\u0e36\u0e07 \u0e1b\u0e31\u0e4a\u0e21\u0e1a\u0e32\u0e07\u0e08\u0e32\u0e01", "name:th": "\u0e02\u0e49\u0e32\u0e27\u0e23\u0e32\u0e14\u0e41\u0e01\u0e07 & \u0e01\u0e4b\u0e27\u0e22\u0e40\u0e15\u0e35\u0e4b\u0e22\u0e27\u0e2b\u0e21\u0e39\u0e1a\u0e49\u0e32\u0e19\u0e1a\u0e36\u0e07 \u0e1b\u0e31\u0e4a\u0e21\u0e1a\u0e32\u0e07\u0e08\u0e32\u0e01", "opening_hours": "7:00-1400"}}, {"type": "node", "id": 12949873002, "lat": 13.6599737, "lon": 100.6016208, "tags": {"addr:district": "Bangna", "addr:housenumber": "4479-4481", "addr:postcode": "10260", "addr:province": "bangkok", "addr:street": "Sukhumvit Road", "addr:subdistrict": "Bangna Tai", "air_conditioning": "yes", "brand": "Takka Hotel", "contact:facebook": "www.facebook.com/takkahotel", "email": "vasawat.takkabearing@gmail.com", "internet_access": "wlan", "internet_access:fee": "customers", "name": "Takka Hotel - Bearing", "name:th": "\u0e42\u0e23\u0e07\u0e41\u0e23\u0e21\u0e15\u0e23\u0e23\u0e01\u0e30-\u0e41\u0e1a\u0e23\u0e34\u0e48\u0e07", "phone": "+66933243434", "rooms": "21", "tourism": "hotel"}}, {"type": "node", "id": 13019049316, "lat": 13.6549561, "lon": 100.6465388, "tags": {"amenity": "cafe", "brand": "\u0e04\u0e32\u0e40\u0e1f\u0e48 \u0e2d\u0e40\u0e21\u0e0b\u0e2d\u0e19", "brand:en": "Caf\u00e9 Amazon", "brand:th": "\u0e04\u0e32\u0e40\u0e1f\u0e48 \u0e2d\u0e40\u0e21\u0e0b\u0e2d\u0e19", "brand:wikidata": "Q43247503", "check_date": "2025-07-23", "cuisine": "coffee_shop", "name": "\u0e04\u0e32\u0e40\u0e1f\u0e48 \u0e2d\u0e40\u0e21\u0e0b\u0e2d\u0e19", "name:en": "Caf\u00e9 Amazon", "name:th": "\u0e04\u0e32\u0e40\u0e1f\u0e48 \u0e2d\u0e40\u0e21\u0e0b\u0e2d\u0e19", "takeaway": "yes"}}, {"type": "node", "id": 13020785040, "lat": 13.6548606, "lon": 100.6480025, "tags": {"amenity": "restaurant", "check_date": "2025-07-24", "name": "\u0e40\u0e15\u0e35\u0e4b\u0e22\u0e27\u0e28\u0e23\u0e35 \u0e2a\u0e32\u0e02\u0e32\u0e28\u0e34\u0e04\u0e23\u0e34\u0e19\u0e17\u0e23\u0e4c"}}, {"type": "node", "id": 13039310967, "lat": 13.6561164, "lon": 100.6453062, "tags": {"amenity": "restaurant", "check_date": "2025-07-31", "name": "\u0e2d\u0e35\u0e2a\u0e01\u0e30\u0e42\u0e2d\u0e4a\u0e04 \u0e2d\u0e32\u0e2b\u0e32\u0e23\u0e15\u0e32\u0e21\u0e2a\u0e31\u0e48\u0e07", "wheelchair": "yes"}}, {"type": "node", "id": 13046926601, "lat": 13.6910192, "lon": 100.640515, "tags": {"addr:housenumber": "68", "addr:street": "\u0e0b\u0e2d\u0e22\u0e28\u0e23\u0e35\u0e19\u0e04\u0e23\u0e34\u0e19\u0e17\u0e23\u0e4c 42", "internet_access": "wlan", "name": "42 Place", "name:th": "42 \u0e40\u0e1e\u0e25\u0e2a", "opening_hours": "Mo-Su 08:00-21:00", "phone": "+66 95 9568315", "tourism": "hotel"}}, {"type": "node", "id": 13049832643, "lat": 13.6556497, "lon": 100.6453391, "tags": {"amenity": "restaurant", "check_date": "2025-08-05", "name": "Many Don", "phone": "+66 64 224 1625"}}, {"type": "node", "id": 13058033201, "lat": 13.6993091, "lon": 100.6073521, "tags": {"addr:housenumber": "134", "addr:postcode": "10260", "addr:street": "\u0e0b\u0e2d\u0e22\u0e2a\u0e38\u0e02\u0e38\u0e21\u0e27\u0e34\u0e17 95", "internet_access": "wlan", "name": "\u0e2d\u0e31\u0e21\u0e2a\u0e40\u0e15\u0e2d\u0e23\u0e4c\u0e14\u0e31\u0e21\u0e14\u0e4c", "name:en": "Amsterdamned", "opening_hours": "Mo-Su 10:00-20:00", "phone": "+6682-738-1283", "tourism": "hostel"}}, {"type": "node", "id": 13112377492, "lat": 13.6561745, "lon": 100.6455411, "tags": {"amenity": "restaurant", "check_date": "2025-09-01", "cuisine": "thai", "name": "\u0e02\u0e22\u0e38\u0e49\u0e21", "name:en": "Khyum", "opening_hours": "09:00-21:00", "wheelchair": "yes"}}, {"type": "way", "id": 113544089, "nodes": [1287346036, 10277507565, 10277507564, 10277507563, 1287345999, 1287346018, 1287345986, 1287345729, 10277507566, 1287346036], "tags": {"leisure": "park"}}, {"type": "way", "id": 156367563, "nodes": [1686244452, 1686244445, 1686244385, 1686244389, 1686244421, 1686244430, 1686244452], "tags": {"addr:housenumber": "53", "addr:postcode": "10250", "addr:province": "\u0e01\u0e23\u0e38\u0e07\u0e40\u0e17\u0e1e\u0e21\u0e2b\u0e32\u0e19\u0e04\u0e23", "addr:street": "\u0e16\u0e19\u0e19\u0e28\u0e23\u0e35\u0e19\u0e04\u0e23\u0e34\u0e19\u0e17\u0e23\u0e4c", "building": "yes", "name": "Dusit Princess Srinakarin", "operator": "Dusit", "phone": "+66 (0) 2721 8400", "tourism": "hotel", "website": "https://www.dusit.com/dusit-princess/dusit-princess-srinakarin.html", "wheelchair": "yes"}}, {"type": "way", "id": 156403808, "nodes": [1686472124, 1686472118, 1686472117, 1686472116, 1686472119, 1686472126, 1686472128, 1686472124], "tags": {"leisure": "park"}}, {"type": "way", "id": 318460613, "nodes": [3248653978, 3248653979, 3248653980, 3248653981, 3248653982, 3248653983, 3248653984, 3248653985, 3248653986, 3248653978], "tags": {"amenity": "marketplace", "name": "\u0e15\u0e25\u0e32\u0e14\u0e04\u0e38\u0e13\u0e22\u0e34\u0e49\u0e21", "name:en": "Khun-Yim Market", "name:th": "\u0e15\u0e25\u0e32\u0e14\u0e04\u0e38\u0e13\u0e22\u0e34\u0e49\u0e21"}}, {"type": "way", "id": 332038781, "nodes": [3391461175, 3391461187, 5179795910, 5179795911, 3391461180, 5179795909, 5179795908, 5179795907, 5179795906, 3391461173, 3391461175], "tags": {"building": "yes", "name": "Viva Garden Residence", "tourism": "hotel", "wheelchair": "yes"}}, {"type": "way", "id": 332038782, "nodes": [3391461099, 3391461104, 3391461063, 6457015936, 3391461057, 3391461099], "tags": {"amenity": "place_of_worship", "denomination": "thai_thammayut", "name": "\u0e27\u0e31\u0e14\u0e18\u0e23\u0e23\u0e21\u0e21\u0e07\u0e04\u0e25", "name:en": "Wat Dhammongkol", "name:th": "\u0e27\u0e31\u0e14\u0e18\u0e23\u0e23\u0e21\u0e21\u0e07\u0e04\u0e25", "official_name": "\u0e27\u0e31\u0e14\u0e18\u0e23\u0e23\u0e21\u0e21\u0e07\u0e04\u0e25\u0e40\u0e16\u0e32\u0e1a\u0e38\u0e0d\u0e0d\u0e19\u0e19\u0e17\u0e27\u0e34\u0e2b\u0e32\u0e23", "official_name:en": "Wat Tham Mongkhon Thao Bunya Nontha Wihan", "official_name:th": "\u0e27\u0e31\u0e14\u0e18\u0e23\u0e23\u0e21\u0e21\u0e07\u0e04\u0e25\u0e40\u0e16\u0e32\u0e1a\u0e38\u0e0d\u0e0d\u0e19\u0e19\u0e17\u0e27\u0e34\u0e2b\u0e32\u0e23", "religion": "buddhist", "wikidata": "Q10834360", "wikipedia": "th:\u0e27\u0e31\u0e14\u0e18\u0e23\u0e23\u0e21\u0e21\u0e07\u0e04\u0e25\u0e40\u0e16\u0e32\u0e1a\u0e38\u0e0d\u0e0d\u0e19\u0e19\u0e17\u0e27\u0e34\u0e2b\u0e32\u0e23"}}, {"type": "way", "id": 336447586, "nodes": [1688943636, 3434800679, 3434800680, 3434800681, 3434800682, 1688943636], "tags": {"addr:housenumber": "107", "addr:postcode": "10270", "addr:province": "\u0e01\u0e23\u0e38\u0e07\u0e40\u0e17\u0e1e\u0e21\u0e2b\u0e32\u0e19\u0e04\u0e23", "addr:street": "\u0e16\u0e19\u0e19\u0e2a\u0e38\u0e02\u0e38\u0e21\u0e27\u0e34\u0e17", "building": "yes", "contact:facebook": "Marigoldsukhumvit107", "contact:instagram": "marigold107", "internet_access": "wlan", "name": "Hotel Marigold Sukhumvit 107", "phone": "02 754 0355", "tourism": "hotel", "website": "https://www.marigoldsukhumvit.com/"}}, {"type": "way", "id": 353882592, "nodes": [3596792528, 3596792530, 3596792522, 3596792518, 3596792528], "tags": {"addr:housenumber": "117", "addr:postcode": "12060", "addr:street": "\u0e0b\u0e2d\u0e22\u0e2a\u0e38\u0e02\u0e38\u0e21\u0e27\u0e34\u0e17 97", "building": "yes", "building:levels": "8", "internet_access": "wlan", "name": "U-Sabuy", "phone": "+6627303000", "tourism": "guest_house"}}, {"type": "way", "id": 439476659, "nodes": [4371013428, 4371013429, 4371013430, 4371013431, 4371013428], "tags": {"building": "yes", "name": "Olive Residence", "tourism": "hotel"}}, {"type": "way", "id": 533320659, "nodes": [9589541713, 5174270920, 5174271721, 9589541714, 9589541713], "tags": {"addr:city": "\u0e01\u0e23\u0e38\u0e07\u0e40\u0e17\u0e1e\u0e21\u0e2b\u0e32\u0e19\u0e04\u0e23", "addr:postcode": "10260", "addr:street": "\u0e16\u0e19\u0e19\u0e28\u0e23\u0e35\u0e19\u0e04\u0e23\u0e34\u0e19\u0e17\u0e23\u0e4c", "amenity": "cafe", "building": "yes", "internet_access:fee": "no", "name": "Amazon Cafe"}}, {"type": "way", "id": 540148000, "nodes": [5226074854, 5226074855, 6513896945, 6513896944, 5226074854], "tags": {"amenity": "restaurant", "building": "yes"}}, {"type": "way", "id": 540204064, "nodes": [5226570314, 5226570315, 5226570316, 5226570317, 5226570314], "tags": {"building": "yes", "internet_access": "yes", "internet_access:fee": "customers", "name": "The Vertical Suite", "tourism": "hotel"}}, {"type": "way", "id": 543808085, "nodes": [5256938635, 5256938636, 5256938637, 12890487993, 5256938638, 5256938635], "tags": {"leisure": "park", "name": "\u0e2a\u0e27\u0e19\u0e2a\u0e38\u0e02\u0e20\u0e32\u0e1e\u0e20\u0e39\u0e15\u0e34\u0e2d\u0e19\u0e31\u0e19\u0e15\u0e4c", "name:en": "Putianan Park", "name:th": "\u0e2a\u0e27\u0e19\u0e2a\u0e38\u0e02\u0e20\u0e32\u0e1e\u0e20\u0e39\u0e15\u0e34\u0e2d\u0e19\u0e31\u0e19\u0e15\u0e4c"}}, {"type": "way", "id": 544308065, "nodes": [5261769619, 5261769620, 5261770921, 5261770922, 5261769619], "tags": {"leisure": "park", "name": "Healty park sumrong"}}, {"type": "way", "id": 733467220, "nodes": [6868888058, 6868888052, 6868904885, 6868888053, 6868888058], "tags": {"amenity": "restaurant"}}, {"type": "way", "id": 733467222, "nodes": [6868888064, 6868888057, 6868888054, 6868888082, 6868888064], "tags": {"amenity": "restaurant"}}, {"type": "way", "id": 733467224, "nodes": [6868888078, 6868888077, 6868888063, 6868888061, 6868888078], "tags": {"amenity": "restaurant"}}, {"type": "way", "id": 733467226, "nodes": [6868888062, 6868888084, 6868888076, 6868888080, 6868888062], "tags": {"amenity": "restaurant"}}, {"type": "way", "id": 733467229, "nodes": [6868888071, 6868888068, 6868888050, 6868888059, 6868888071], "tags": {"amenity": "restaurant"}}, {"type": "way", "id": 749765721, "nodes": [7011156534, 7011156535, 7011156536, 7011156537, 7011156534], "tags": {"air_conditioning": "yes", "amenity": "cafe", "building": "yes", "cuisine": "ice_cream;pizza;coffee_shop", "internet_access": "wlan", "internet_access:fee": "no", "name": "Cafe 107", "outdoor_seating": "yes"}}, {"type": "way", "id": 803391154, "nodes": [7515101516, 7515101517, 7515101518, 7515101519, 7515221053, 7515101516], "tags": {"amenity": "marketplace"}}, {"type": "way", "id": 819301685, "nodes": [7651079046, 7651079047, 7651079048, 7651079049, 7651079050, 9164047023, 7651079051, 7651079046], "tags": {"amenity": "restaurant", "building": "yes", "layer": "1", "name": "Sab Indy"}}, {"type": "way", "id": 819301754, "nodes": [7651083858, 7651083859, 7651083860, 7651083861, 7651083858], "tags": {"leaf_type": "mixed", "leisure": "park"}}, {"type": "way", "id": 829231222, "nodes": [4778503560, 7740315027, 7740315028, 7740315029, 7740315030, 7740315031, 4778503560], "tags": {"brand": "Novotel", "brand:wikidata": "Q420545", "building": "yes", "name": "Novotel Bangna", "tourism": "hotel"}}, {"type": "way", "id": 856434464, "nodes": [7985375459, 7985375460, 7985375461, 7985375462, 7985375463, 7985375464, 7985375465, 7985375466, 7985375467, 7985375468, 7985375469, 7985375470, 7985375471, 7985375472, 7985375459], "tags": {"building": "yes", "name": "Maple Hotel", "tourism": "hotel"}}, {"type": "way", "id": 883844643, "nodes": [8220056080, 8220056081, 8220056082, 8220056083, 8220056080], "tags": {"amenity": "cafe", "building": "yes", "name": "Coffee by Sukhum"}}, {"type": "way", "id": 889455340, "nodes": [776527399, 8269194732, 8269194733, 8269194734, 776527399], "tags": {"addr:city": "Bangna", "addr:housenumber": "150", "addr:postcode": "10260", "addr:street": "Bang Na Trat 27 Alley (Muban Phairot 2 Soi 3)", "amenity": "restaurant", "area": "yes", "building": "house", "cuisine": "chinese;thai", "delivery": "yes", "description": "Family friendly Stewed pork leg & Kuaichap Restaurant", "diet:omnivore": "yes", "name": "Stewed pork leg Kuaichap 100 million", "name:th": "\u0e02\u0e32\u0e2b\u0e21\u0e39\u0e01\u0e4b\u0e27\u0e22\u0e08\u0e31\u0e4a\u0e1a\u0e23\u0e49\u0e32\u0e22\u0e25\u0e49\u0e32\u0e19", "opening_hours": "Mo-Sa 07:00-15:00", "phone": "0933383108", "takeaway": "yes", "website": "https://www.facebook.com/%E0%B8%82%E0%B8%B2%E0%B8%AB%E0%B8%A1%E0%B8%B9%E0%B8%A3%E0%B9%89%E0%B8%AD%E0%B8%A2%E0%B8%A5%E0%B9%89%E0%B8%B2%E0%B8%99Kamoo100-110423067541235/", "wheelchair": "yes"}}, {"type": "way", "id": 890076150, "nodes": [8273464711, 8273464712, 8273464713, 8273464714, 8273464711], "tags": {"amenity": "cafe", "brand": "Starbucks", "brand:wikidata": "Q37158", "brand:wikipedia": "en:Starbucks", "building": "yes", "cuisine": "coffee_shop", "name": "Starbucks", "official_name": "Starbucks Coffee", "takeaway": "yes"}}, {"type": "way", "id": 890265111, "nodes": [8275054101, 8275054102, 8275054103, 8275054104, 8275054105, 8275054106, 8275054101], "tags": {"amenity": "marketplace", "name": "TT Market Bearing"}}, {"type": "way", "id": 890292012, "nodes": [8275202272, 8275202273, 8275202274, 8275202275, 8275202276, 8275202277, 8275202278, 8275202279, 8275202272], "tags": {"amenity": "restaurant", "building": "yes", "name": "\u0e04\u0e23\u0e31\u0e27\u0e22\u0e48\u0e32\u0e1a\u0e38\u0e0d"}}, {"type": "way", "id": 890650611, "nodes": [8277791336, 8277791337, 8277791338, 8277791339, 8277791336], "tags": {"amenity": "restaurant", "building": "yes", "cuisine": "seafood", "name": "\u0e1b\u0e37\u0e49\u0e14 \u0e01\u0e38\u0e49\u0e07\u0e41\u0e21\u0e48\u0e19\u0e49\u0e33"}}, {"type": "way", "id": 890839063, "nodes": [8279495515, 8279495516, 12945885337, 12945885333, 12945885342, 12945885340, 12945885341, 8279601917, 8279601918, 8279495515], "tags": {"amenity": "marketplace", "name": "\u0e15\u0e25\u0e32\u0e14\u0e19\u0e31\u0e14\u0e41\u0e2d\u0e17\u0e41\u0e1a\u0e23\u0e34\u0e48\u0e07"}}, {"type": "way", "id": 892466761, "nodes": [8294890233, 8294890230, 8294890231, 8294890232, 8294890233], "tags": {"amenity": "marketplace", "building": "roof"}}, {"type": "way", "id": 921572613, "nodes": [8555923472, 8555923473, 8555923474, 8555923475, 8555923472], "tags": {"addr:housenumber": "25", "addr:postcode": "10260", "addr:province": "\u0e01\u0e23\u0e38\u0e07\u0e40\u0e17\u0e1e\u0e21\u0e2b\u0e32\u0e19\u0e04\u0e23", "addr:street": "Wachiratham Sathit 23 Sujhumvit 101/1", "amenity": "cafe", "building": "yes", "building:levels": "1", "cuisine": "coffee_shop;gelato;ice_cream;Dim_Sum", "height": "6", "internet_access": "wlan", "internet_access:fee": "no", "name": "65Cafe'", "opening_hours": "Mo-Su 07:30-17:30", "outdoor_seating": "yes", "phone": "+66619645654", "website": "www.facebook.com/sixtyfivecafe"}}, {"type": "way", "id": 991853814, "nodes": [9164047020, 9164047021, 9164047022, 9164047023, 9164047020], "tags": {"amenity": "restaurant", "building": "yes", "name": "Sab Indy"}}, {"type": "way", "id": 1061601913, "nodes": [9753541181, 10828645986, 10828645987, 9753541182, 9753541183, 9753541184, 9753541185, 9753541186, 9753541187, 9753541188, 9753541189, 9753541190, 9753541191, 9753541192, 9753541193, 9753541194, 9753541181], "tags": {"leisure": "park"}}, {"type": "way", "id": 1104559611, "nodes": [10107566039, 10107566040, 10107566041, 10107566042, 10107566043, 10107566044, 10107566045, 10107566046, 10107566047, 10107566048, 10107566049, 10107566050, 10107566039], "tags": {"building": "yes", "name": "\u0e1e\u0e34\u0e1e\u0e34\u0e18\u0e20\u0e31\u0e13\u0e11\u0e4c\u0e01\u0e32\u0e23\u0e40\u0e23\u0e35\u0e22\u0e19\u0e23\u0e39\u0e49\u0e2d\u0e38\u0e15\u0e38\u0e19\u0e34\u0e22\u0e21\u0e27\u0e34\u0e17\u0e22\u0e32", "name:th": "\u0e1e\u0e34\u0e1e\u0e34\u0e18\u0e20\u0e31\u0e13\u0e11\u0e4c\u0e01\u0e32\u0e23\u0e40\u0e23\u0e35\u0e22\u0e19\u0e23\u0e39\u0e49\u0e2d\u0e38\u0e15\u0e38\u0e19\u0e34\u0e22\u0e21\u0e27\u0e34\u0e17\u0e22\u0e32", "tourism": "museum"}}, {"type": "way", "id": 1124382693, "nodes": [10281994241, 10281994242, 10281994243, 10281994244, 10281994241], "tags": {"amenity": "marketplace"}}, {"type": "way", "id": 1128384545, "nodes": [10316166082, 10316166083, 10316166084, 10316166085, 10316166086, 10316166087, 10316166082], "tags": {"building": "yes", "name": "\u0e1e\u0e34\u0e1e\u0e34\u0e18\u0e20\u0e31\u0e13\u0e11\u0e4c\u0e40\u0e2b\u0e25\u0e49\u0e32\u0e42\u0e1a\u0e23\u0e32\u0e13", "tourism": "museum"}}, {"type": "way", "id": 1271826749, "nodes": [11810360567, 11810360568, 11810382169, 11810382170, 11810360567], "tags": {"air_conditioning": "yes", "amenity": "restaurant", "building": "yes", "cuisine": "sushi", "name": "Sushi Hana"}}, {"type": "way", "id": 1271826750, "nodes": [11810382171, 11810382172, 11810382173, 11810382174, 11810382175, 11810382176, 11810382171], "tags": {"air_conditioning": "yes", "amenity": "restaurant", "building": "yes", "cuisine": "steak_house;pizza;burger", "name": "Pink Tender", "name:en": "Pink Tender", "opening_hours": "Fr-Sa 11:00-23:00; Sun-Thu 11:00-21:00", "outdoor_seating": "yes"}}, {"type": "way", "id": 1315379859, "nodes": [12175353461, 12175353463, 12846461456, 7986517780, 12846461457, 12846461458, 12846461459, 12846461460, 12846461466, 12846461461, 12846461470, 12846461510, 12846461462, 12846461468, 12846461463, 12846461464, 12846461465, 12175353461], "tags": {"addr:district": "\u0e40\u0e02\u0e15\u0e1e\u0e23\u0e30\u0e42\u0e02\u0e19", "addr:housenumber": "1253", "addr:place": "\u0e0b\u0e2d\u0e22\u0e27\u0e0a\u0e34\u0e23\u0e18\u0e23\u0e23\u0e21\u0e2a\u0e32\u0e18\u0e34\u0e15 57", "addr:postcode": "10260", "addr:province": "\u0e01\u0e23\u0e38\u0e07\u0e40\u0e17\u0e1e\u0e21\u0e2b\u0e32\u0e19\u0e04\u0e23", "addr:street": "\u0e16\u0e19\u0e19\u0e2a\u0e38\u0e02\u0e38\u0e21\u0e27\u0e34\u0e17 101/1", "addr:subdistrict": "\u0e41\u0e02\u0e27\u0e07\u0e1a\u0e32\u0e07\u0e08\u0e32\u0e01", "amenity": "school", "capacity": "1500", "charge": "[\u0e2b\u0e49\u0e2d\u0e07\u0e1b\u0e01\u0e15\u0e34 4630\u0e1a\u0e32\u0e17,5830\u0e1a\u0e32\u0e17],[\u0e2b\u0e49\u0e2d\u0e07\u0e1e\u0e34\u0e40\u0e28\u0e2920000\u0e1a\u0e32\u0e17,25000\u0e1a\u0e32\u0e17]", "check_date": "2024-09-14", "email": "wachirathamsatit@wt.ac.th", "fax": "023937794", "fee": "yes", "grades": "7-12", "image": "https://map.longdo.com/image/ooi/765903/730x382", "internet_access": "wlan", "internet_access:fee": "no", "loc_name": "\u0e27\u0e0a\u0e34\u0e23\u0e18\u0e23\u0e23\u0e21", "loc_name:th": "\u0e42\u0e23\u0e07\u0e40\u0e23\u0e35\u0e22\u0e19\u0e27\u0e0a\u0e34", "name": "\u0e42\u0e23\u0e07\u0e40\u0e23\u0e35\u0e22\u0e19\u0e27\u0e0a\u0e34\u0e23\u0e18\u0e23\u0e23\u0e21\u0e2a\u0e32\u0e18\u0e34\u0e15", "name:en": "Wachirathamsatit School", "name:th": "\u0e42\u0e23\u0e07\u0e40\u0e23\u0e35\u0e22\u0e19\u0e27\u0e0a\u0e34\u0e23\u0e18\u0e23\u0e23\u0e21\u0e2a\u0e32\u0e18\u0e34\u0e15", "note": "\u0e23\u0e2b\u0e31\u0e2a\u0e2a\u0e16\u0e32\u0e19\u0e28\u0e36\u0e01\u0e29\u0e32\t1010720066", "official_name": "\u0e42\u0e23\u0e07\u0e40\u0e23\u0e35\u0e22\u0e19\u0e27\u0e0a\u0e34\u0e23\u0e18\u0e23\u0e23\u0e21\u0e2a\u0e32\u0e18\u0e34\u0e15", "phone": "023616692", "polling_station": "yes", "religion": "buddhist", "short_name": "\u0e27\u0e0a\u0e34", "short_name:th": "\u0e2a\u0e32\u0e18\u0e34\u0e15", "start_date": "1967-02-23", "website": "www.wt.ac.th", "wheelchair": "limited", "wikipedia": "th:\u0e42\u0e23\u0e07\u0e40\u0e23\u0e35\u0e22\u0e19\u0e27\u0e0a\u0e34\u0e23\u0e18\u0e23\u0e23\u0e21\u0e2a\u0e32\u0e18\u0e34\u0e15"}}, {"type": "way", "id": 1354538137, "nodes": [12535343873, 12535343871, 12535343874, 12535343875, 12535343876, 12535343877, 12535343878, 12535343879, 12535343880, 12535343881, 12535343882, 12535343883, 12535343884, 12535343885, 12535343886, 12535343889, 12535343887, 12535343888, 12535343873], "tags": {"amenity": "place_of_worship", "denomination": "thai_mahanikaya", "landuse": "religious", "name": "\u0e27\u0e31\u0e14\u0e1a\u0e32\u0e07\u0e19\u0e32\u0e43\u0e19", "name:en": "Wat Bang Na Nai", "name:th": "\u0e27\u0e31\u0e14\u0e1a\u0e32\u0e07\u0e19\u0e32\u0e43\u0e19", "religion": "buddhist", "wikidata": "Q66458801", "wikimedia_commons": "Category:Wat Bang Na Nai, Bangkok", "wikipedia": "th:\u0e27\u0e31\u0e14\u0e1a\u0e32\u0e07\u0e19\u0e32\u0e43\u0e19 (\u0e01\u0e23\u0e38\u0e07\u0e40\u0e17\u0e1e\u0e21\u0e2b\u0e32\u0e19\u0e04\u0e23)"}}, {"type": "way", "id": 1355986410, "nodes": [12549475747, 12549475748, 12549475749, 12549475750, 12549475751, 12549475752, 12549475747], "tags": {"leisure": "park"}}, {"type": "way", "id": 1360223580, "nodes": [12591780878, 12591780879, 12591780880, 12591780881, 12591780878], "tags": {"amenity": "cafe", "brand": "\u0e04\u0e32\u0e40\u0e1f\u0e48 \u0e2d\u0e40\u0e21\u0e0b\u0e2d\u0e19", "brand:en": "Caf\u00e9 Amazon", "brand:th": "\u0e04\u0e32\u0e40\u0e1f\u0e48 \u0e2d\u0e40\u0e21\u0e0b\u0e2d\u0e19", "brand:wikidata": "Q43247503", "building": "yes", "cuisine": "coffee_shop", "name": "\u0e04\u0e32\u0e40\u0e1f\u0e48 \u0e2d\u0e40\u0e21\u0e0b\u0e2d\u0e19", "name:en": "Caf\u00e9 Amazon", "name:th": "\u0e04\u0e32\u0e40\u0e1f\u0e48 \u0e2d\u0e40\u0e21\u0e0b\u0e2d\u0e19", "takeaway": "yes"}}, {"type": "way", "id": 1369186783, "nodes": [12681217238, 12681217247, 12681217253, 12681217239, 12681217240, 12681217241, 12681217238], "tags": {"addr:housenumber": "3070", "addr:street": "\u0e0b\u0e2d\u0e22\u0e2a\u0e38\u0e02\u0e38\u0e21\u0e27\u0e34\u0e17 70", "amenity": "restaurant", "building": "yes", "cuisine": "seafood", "name": "\u0e42\u0e04\u0e15\u0e23\u0e17\u0e30\u0e40\u0e25 \u0e0b\u0e35\u0e1f\u0e39\u0e14 \u0e1a\u0e38\u0e1f\u0e40\u0e1f\u0e48\u0e15\u0e4c", "name:en": "Kodtalay Seafood Buffet"}}, {"type": "way", "id": 1386057109, "nodes": [12833107005, 12833107006, 12833107007, 12833107008, 12833107009, 12833107010, 13049541242, 13049541243, 12833107005], "tags": {"amenity": "marketplace", "landuse": "retail", "name": "\u0e28\u0e39\u0e19\u0e22\u0e4c\u0e01\u0e32\u0e23\u0e04\u0e49\u0e32\u0e25\u0e32\u0e0b\u0e32\u0e25\u0e2a\u0e41\u0e04\u0e27\u0e23\u0e4c", "name:th": "\u0e28\u0e39\u0e19\u0e22\u0e4c\u0e01\u0e32\u0e23\u0e04\u0e49\u0e32\u0e25\u0e32\u0e0b\u0e32\u0e25\u0e2a\u0e41\u0e04\u0e27\u0e23\u0e4c", "shop": "mall"}}, {"type": "way", "id": 1387734046, "nodes": [12846461383, 12846461384, 12846461385, 12846461386, 12846461387, 12846461388, 12846461383], "tags": {"amenity": "marketplace", "building": "roof", "name": "\u0e15\u0e25\u0e32\u0e14\u0e19\u0e31\u0e14\u0e1a\u0e48\u0e2d\u0e1b\u0e25\u0e32", "name:th": "\u0e15\u0e25\u0e32\u0e14\u0e19\u0e31\u0e14\u0e1a\u0e48\u0e2d\u0e1b\u0e25\u0e32"}}, {"type": "way", "id": 1387734060, "nodes": [12279532671, 12846461445, 12846461446, 12846461447, 12846461448, 12846461449, 12846461450, 12846461451, 12279532671], "tags": {"amenity": "place_of_worship", "denomination": "thai_mahanikaya", "name": "\u0e27\u0e31\u0e14\u0e27\u0e0a\u0e34\u0e23\u0e18\u0e23\u0e23\u0e21\u0e2a\u0e32\u0e18\u0e34\u0e15\u0e27\u0e23\u0e27\u0e34\u0e2b\u0e32\u0e23", "name:en": "Wat Wachiratham Sathit Worawihan", "name:th": "\u0e27\u0e31\u0e14\u0e27\u0e0a\u0e34\u0e23\u0e18\u0e23\u0e23\u0e21\u0e2a\u0e32\u0e18\u0e34\u0e15\u0e27\u0e23\u0e27\u0e34\u0e2b\u0e32\u0e23", "religion": "buddhist", "wikidata": "Q63975498", "wikipedia": "th:\u0e27\u0e31\u0e14\u0e27\u0e0a\u0e34\u0e23\u0e18\u0e23\u0e23\u0e21\u0e2a\u0e32\u0e18\u0e34\u0e15\u0e27\u0e23\u0e27\u0e34\u0e2b\u0e32\u0e23"}}, {"type": "way", "id": 1408713046, "nodes": [12945884827, 12945884927, 12945884824, 12945884825, 12945884826, 12945884827], "tags": {"amenity": "place_of_worship", "denomination": "thai_thammayut", "name": "\u0e27\u0e31\u0e14\u0e1c\u0e48\u0e2d\u0e07\u0e1e\u0e25\u0e2d\u0e22\u0e27\u0e34\u0e23\u0e34\u0e22\u0e32\u0e23\u0e32\u0e21", "name:en": "Wat Pongploy Wiriyaram", "name:th": "\u0e27\u0e31\u0e14\u0e1c\u0e48\u0e2d\u0e07\u0e1e\u0e25\u0e2d\u0e22\u0e27\u0e34\u0e23\u0e34\u0e22\u0e32\u0e23\u0e32\u0e21", "old_name": "\u0e27\u0e31\u0e14\u0e43\u0e2b\u0e21\u0e48\u0e27\u0e34\u0e23\u0e34\u0e22\u0e2a\u0e31\u0e07\u0e06\u0e32\u0e23\u0e32\u0e21", "old_name:th": "\u0e27\u0e31\u0e14\u0e43\u0e2b\u0e21\u0e48\u0e27\u0e34\u0e23\u0e34\u0e22\u0e2a\u0e31\u0e07\u0e06\u0e32\u0e23\u0e32\u0e21", "religion": "buddhist", "wikidata": "Q99601925", "wikipedia": "th:\u0e27\u0e31\u0e14\u0e1c\u0e48\u0e2d\u0e07\u0e1e\u0e25\u0e2d\u0e22\u0e27\u0e34\u0e23\u0e34\u0e22\u0e32\u0e23\u0e32\u0e21"}}, {"type": "way", "id": 1408713073, "nodes": [12945885074, 1759881447, 12945885077, 12945885078, 12945885079, 12945885071, 12945885070, 12945885076, 12945885075, 13063114928, 13063114929, 12945885074], "tags": {"amenity": "marketplace", "name": "\u0e15\u0e25\u0e32\u0e14\u0e19\u0e31\u0e14\u0e25\u0e32\u0e0b\u0e32\u0e25 48"}}, {"type": "way", "id": 1411364165, "nodes": [4484525099, 12968676190, 12968676191, 12968676192, 12968676193, 12968676194, 12968676195, 12968676196, 12968676197, 12968676198, 4484525099], "tags": {"amenity": "place_of_worship", "denomination": "thai_mahanikaya", "name": "\u0e27\u0e31\u0e14\u0e28\u0e23\u0e35\u0e40\u0e2d\u0e35\u0e48\u0e22\u0e21", "name:en": "Wat Sri Iam", "name:th": "\u0e27\u0e31\u0e14\u0e28\u0e23\u0e35\u0e40\u0e2d\u0e35\u0e48\u0e22\u0e21", "religion": "buddhist", "wikidata": "Q99601625", "wikimedia_commons": "Category:Wat Si Iam", "wikipedia": "th:\u0e27\u0e31\u0e14\u0e28\u0e23\u0e35\u0e40\u0e2d\u0e35\u0e48\u0e22\u0e21"}}, {"type": "way", "id": 1416960190, "nodes": [13020896637, 13020896638, 13020896641, 13020896639, 13020896640, 13020896637], "tags": {"amenity": "restaurant", "building": "yes", "check_date": "2025-07-28", "name": "\u0e01\u0e4b\u0e27\u0e22\u0e40\u0e15\u0e35\u0e4b\u0e22\u0e27\u0e42\u0e04\u0e02\u0e38\u0e19\u0e40\u0e08\u0e49\u0e32\u0e40\u0e19\u0e37\u0e49\u0e2d \u0e04\u0e38\u0e13\u0e2d\u0e32\u0e23\u0e35\u0e22\u0e4c"}}, {"type": "way", "id": 1416960194, "nodes": [13020896653, 13020896654, 13020896657, 13020896655, 13020896656, 13020896651, 13020896653], "tags": {"amenity": "restaurant", "building": "yes", "name": "\u0e23\u0e49\u0e32\u0e19\u0e41\u0e0b\u0e48\u0e1a\u0e2d\u0e35\u0e2b\u0e25\u0e35 (\u0e25\u0e32\u0e0b\u0e32\u0e25)"}}, {"type": "way", "id": 1416960196, "nodes": [13020896661, 13020896662, 13020896663, 13020896664, 13020896659, 13020896661], "tags": {"amenity": "restaurant", "building": "yes", "cuisine": "burger;steak_house;pasta", "name": "La Maison by Chef Billy", "name:th": "\u0e23\u0e49\u0e32\u0e19\u0e25\u0e32\u0e40\u0e21\u0e0b\u0e2d\u0e07 \u0e1a\u0e32\u0e22\u0e40\u0e0a\u0e1f\u0e1a\u0e34\u0e25\u0e25\u0e35\u0e48"}}, {"type": "way", "id": 1436724045, "nodes": [13205161056, 13205161055, 13205161059, 8274799369, 13205161057, 13205161056], "tags": {"amenity": "marketplace", "area": "yes", "name": "\u0e15\u0e25\u0e32\u0e14\u0e2a\u0e14\u0e25\u0e32\u0e0b\u0e32\u0e25 2000", "name:en": "Lasalle 2K Market", "name:th": "\u0e15\u0e25\u0e32\u0e14\u0e2a\u0e14\u0e25\u0e32\u0e0b\u0e32\u0e25 2000"}}, {"type": "way", "id": 1436724059, "nodes": [13205161124, 13205161103, 13205161104, 13205161088, 13205161089, 13205161090, 1795353318, 13205161125, 13205161124], "tags": {"amenity": "marketplace", "name": "\u0e15\u0e25\u0e32\u0e14\u0e14\u0e27\u0e07\u0e1e\u0e25\u0e2d\u0e22", "name:en": "Duangploy Market", "name:th": "\u0e15\u0e25\u0e32\u0e14\u0e14\u0e27\u0e07\u0e1e\u0e25\u0e2d\u0e22"}}, {"type": "node", "id": 1688943636, "lat": 13.652398, "lon": 100.5995649}, {"type": "node", "id": 3434800679, "lat": 13.6521258, "lon": 100.6000568}, {"type": "node", "id": 3434800680, "lat": 13.6519609, "lon": 100.5999672}, {"type": "node", "id": 3434800681, "lat": 13.6521021, "lon": 100.5997103}, {"type": "node", "id": 3434800682, "lat": 13.6522162, "lon": 100.5994919}, {"type": "node", "id": 5261769619, "lat": 13.6515776, "lon": 100.601453}, {"type": "node", "id": 5261769620, "lat": 13.6508379, "lon": 100.6010421}, {"type": "node", "id": 5261770921, "lat": 13.6507018, "lon": 100.6013036}, {"type": "node", "id": 5261770922, "lat": 13.6514369, "lon": 100.6017099}, {"type": "node", "id": 7011156534, "lat": 13.6594148, "lon": 100.6016662}, {"type": "node", "id": 7011156535, "lat": 13.6593628, "lon": 100.6016475}, {"type": "node", "id": 7011156536, "lat": 13.6593338, "lon": 100.6017326}, {"type": "node", "id": 7011156537, "lat": 13.6593859, "lon": 100.6017513}, {"type": "node", "id": 5256938635, "lat": 13.6642798, "lon": 100.6097853}, {"type": "node", "id": 5256938636, "lat": 13.6640682, "lon": 100.6103864}, {"type": "node", "id": 5256938637, "lat": 13.6632008, "lon": 100.61005}, {"type": "node", "id": 5256938638, "lat": 13.6634062, "lon": 100.6094748}, {"type": "node", "id": 12890487993, "lat": 13.6633963, "lon": 100.6095026}, {"type": "node", "id": 12535343877, "lat": 13.6697781, "lon": 100.6042631}, {"type": "node", "id": 12535343878, "lat": 13.6698015, "lon": 100.6038876}, {"type": "node", "id": 12535343879, "lat": 13.6698888, "lon": 100.603512}, {"type": "node", "id": 12535343880, "lat": 13.6699357, "lon": 100.6033364}, {"type": "node", "id": 12535343881, "lat": 13.6700452, "lon": 100.6031459}, {"type": "node", "id": 12535343882, "lat": 13.6701052, "lon": 100.6031499}, {"type": "node", "id": 12535343883, "lat": 13.6703593, "lon": 100.6032116}, {"type": "node", "id": 12535343884, "lat": 13.6710616, "lon": 100.6033712}, {"type": "node", "id": 1287345729, "lat": 13.6736768, "lon": 100.6055025}, {"type": "node", "id": 1287345986, "lat": 13.6735569, "lon": 100.6055401}, {"type": "node", "id": 1287345999, "lat": 13.6735451, "lon": 100.6051533}, {"type": "node", "id": 1287346018, "lat": 13.6734683, "lon": 100.6055294}, {"type": "node", "id": 1287346036, "lat": 13.673952, "lon": 100.6051418}, {"type": "node", "id": 10107566039, "lat": 13.6686118, "lon": 100.6051847}, {"type": "node", "id": 10107566040, "lat": 13.6686344, "lon": 100.6052633}, {"type": "node", "id": 10107566041, "lat": 13.6686146, "lon": 100.605336}, {"type": "node", "id": 10107566042, "lat": 13.6685383, "lon": 100.6054087}, {"type": "node", "id": 10107566043, "lat": 13.6684337, "lon": 100.6053971}, {"type": "node", "id": 10107566044, "lat": 13.6683658, "lon": 100.6053564}, {"type": "node", "id": 10107566045, "lat": 13.6683432, "lon": 100.6052865}, {"type": "node", "id": 10107566046, "lat": 13.6683545, "lon": 100.6051847}, {"type": "node", "id": 10107566047, "lat": 13.6684026, "lon": 100.6051352}, {"type": "node", "id": 10107566048, "lat": 13.6684563, "lon": 100.6051091}, {"type": "node", "id": 10107566049, "lat": 13.6685157, "lon": 100.6051149}, {"type": "node", "id": 10107566050, "lat": 13.6685722, "lon": 100.6051352}, {"type": "node", "id": 10277507563, "lat": 13.673735, "lon": 100.6051632}, {"type": "node", "id": 10277507564, "lat": 13.6738251, "lon": 100.6051543}, {"type": "node", "id": 10277507565, "lat": 13.6739313, "lon": 100.6051058}, {"type": "node", "id": 10277507566, "lat": 13.6738373, "lon": 100.60533}, {"type": "node", "id": 10281994241, "lat": 13.6729192, "lon": 100.6050627}, {"type": "node", "id": 10281994242, "lat": 13.6728085, "lon": 100.6056481}, {"type": "node", "id": 10281994243, "lat": 13.6725061, "lon": 100.605588}, {"type": "node", "id": 10281994244, "lat": 13.6726228, "lon": 100.6050057}, {"type": "node", "id": 12535343871, "lat": 13.6702826, "lon": 100.6053844}, {"type": "node", "id": 12535343873, "lat": 13.6703058, "lon": 100.6053883}, {"type": "node", "id": 12535343874, "lat": 13.6696999, "lon": 100.6051616}, {"type": "node", "id": 12535343875, "lat": 13.6697129, "lon": 100.6049765}, {"type": "node", "id": 12535343876, "lat": 13.669722, "lon": 100.6045595}, {"type": "node", "id": 12535343885, "lat": 13.6708101, "lon": 100.604416}, {"type": "node", "id": 12535343886, "lat": 13.6711972, "lon": 100.6044964}, {"type": "node", "id": 12535343887, "lat": 13.670882, "lon": 100.6048118}, {"type": "node", "id": 12535343888, "lat": 13.6704644, "lon": 100.604689}, {"type": "node", "id": 12535343889, "lat": 13.6716494, "lon": 100.6049666}, {"type": "node", "id": 10316166082, "lat": 13.6757093, "lon": 100.603331}, {"type": "node", "id": 10316166083, "lat": 13.6757049, "lon": 100.6035344}, {"type": "node", "id": 10316166084, "lat": 13.6756285, "lon": 100.6035328}, {"type": "node", "id": 10316166085, "lat": 13.6756308, "lon": 100.6034381}, {"type": "node", "id": 10316166086, "lat": 13.6756575, "lon": 100.6034385}, {"type": "node", "id": 10316166087, "lat": 13.6756607, "lon": 100.6033295}, {"type": "node", "id": 3248653978, "lat": 13.6802105, "lon": 100.6097707}, {"type": "node", "id": 3248653979, "lat": 13.679785, "lon": 100.6101611}, {"type": "node", "id": 3248653980, "lat": 13.6795699, "lon": 100.6102641}, {"type": "node", "id": 3248653981, "lat": 13.6791468, "lon": 100.6104773}, {"type": "node", "id": 3248653982, "lat": 13.6788714, "lon": 100.6106053}, {"type": "node", "id": 3248653983, "lat": 13.6788584, "lon": 100.6104363}, {"type": "node", "id": 3248653984, "lat": 13.679132, "lon": 100.610278}, {"type": "node", "id": 3248653985, "lat": 13.6793718, "lon": 100.6100903}, {"type": "node", "id": 3248653986, "lat": 13.6800103, "lon": 100.6096799}, {"type": "node", "id": 9753541181, "lat": 13.6745742, "lon": 100.6071705}, {"type": "node", "id": 9753541182, "lat": 13.6752379, "lon": 100.6074643}, {"type": "node", "id": 9753541183, "lat": 13.675274, "lon": 100.6074625}, {"type": "node", "id": 9753541184, "lat": 13.6752843, "lon": 100.6074448}, {"type": "node", "id": 9753541185, "lat": 13.6752809, "lon": 100.6074059}, {"type": "node", "id": 9753541186, "lat": 13.6750832, "lon": 100.6071688}, {"type": "node", "id": 9753541187, "lat": 13.6749164, "lon": 100.6068874}, {"type": "node", "id": 9753541188, "lat": 13.6747909, "lon": 100.6066202}, {"type": "node", "id": 9753541189, "lat": 13.6748098, "lon": 100.6067423}, {"type": "node", "id": 9753541190, "lat": 13.6748046, "lon": 100.6068432}, {"type": "node", "id": 9753541191, "lat": 13.6747668, "lon": 100.6069688}, {"type": "node", "id": 9753541192, "lat": 13.6747358, "lon": 100.6070467}, {"type": "node", "id": 9753541193, "lat": 13.6746756, "lon": 100.6071139}, {"type": "node", "id": 9753541194, "lat": 13.6746223, "lon": 100.6071511}, {"type": "node", "id": 10828645986, "lat": 13.6747638, "lon": 100.6072145}, {"type": "node", "id": 10828645987, "lat": 13.6750885, "lon": 100.6073545}, {"type": "node", "id": 12591780878, "lat": 13.6764889, "lon": 100.6083529}, {"type": "node", "id": 12591780879, "lat": 13.6764439, "lon": 100.6083344}, {"type": "node", "id": 12591780880, "lat": 13.6763939, "lon": 100.6084635}, {"type": "node", "id": 12591780881, "lat": 13.676439, "lon": 100.608482}, {"type": "node", "id": 12681217238, "lat": 13.6762459, "lon": 100.6072088}, {"type": "node", "id": 12681217239, "lat": 13.6761608, "lon": 100.6075619}, {"type": "node", "id": 12681217240, "lat": 13.6760169, "lon": 100.6075251}, {"type": "node", "id": 12681217241, "lat": 13.676102, "lon": 100.6071721}, {"type": "node", "id": 12681217247, "lat": 13.6762362, "lon": 100.6072491}, {"type": "node", "id": 12681217253, "lat": 13.676196, "lon": 100.6074161}, {"type": "node", "id": 8220056080, "lat": 13.6866519, "lon": 100.6056915}, {"type": "node", "id": 8220056081, "lat": 13.6866344, "lon": 100.6057046}, {"type": "node", "id": 8220056082, "lat": 13.6866519, "lon": 100.6057356}, {"type": "node", "id": 8220056083, "lat": 13.6866709, "lon": 100.6057209}, {"type": "node", "id": 4371013428, "lat": 13.6878048, "lon": 100.6069043}, {"type": "node", "id": 4371013429, "lat": 13.6878729, "lon": 100.6070794}, {"type": "node", "id": 4371013430, "lat": 13.687474, "lon": 100.6072273}, {"type": "node", "id": 4371013431, "lat": 13.6873889, "lon": 100.6070503}, {"type": "node", "id": 3391461173, "lat": 13.6979775, "lon": 100.6034414}, {"type": "node", "id": 3391461175, "lat": 13.6980479, "lon": 100.6034097}, {"type": "node", "id": 3391461180, "lat": 13.6981711, "lon": 100.6042994}, {"type": "node", "id": 3391461187, "lat": 13.6983139, "lon": 100.604036}, {"type": "node", "id": 5179795906, "lat": 13.6980292, "lon": 100.6035632}, {"type": "node", "id": 5179795907, "lat": 13.697937, "lon": 100.6036046}, {"type": "node", "id": 5179795908, "lat": 13.6979643, "lon": 100.6036689}, {"type": "node", "id": 5179795909, "lat": 13.6979131, "lon": 100.6036919}, {"type": "node", "id": 5179795910, "lat": 13.6981659, "lon": 100.6041026}, {"type": "node", "id": 5179795911, "lat": 13.6982369, "lon": 100.6042697}, {"type": "node", "id": 3596792518, "lat": 13.698686, "lon": 100.6095042}, {"type": "node", "id": 3596792522, "lat": 13.6987363, "lon": 100.6096259}, {"type": "node", "id": 3596792528, "lat": 13.6989384, "lon": 100.6093939}, {"type": "node", "id": 3596792530, "lat": 13.6989886, "lon": 100.6095156}, {"type": "node", "id": 8275054101, "lat": 13.6525977, "lon": 100.6188851}, {"type": "node", "id": 8275054102, "lat": 13.651875, "lon": 100.6185833}, {"type": "node", "id": 8275054103, "lat": 13.6517134, "lon": 100.6190227}, {"type": "node", "id": 8275054104, "lat": 13.6520078, "lon": 100.6191315}, {"type": "node", "id": 8275054105, "lat": 13.6519758, "lon": 100.6192222}, {"type": "node", "id": 8275054106, "lat": 13.6524063, "lon": 100.6193892}, {"type": "node", "id": 8275202272, "lat": 13.6523228, "lon": 100.6196018}, {"type": "node", "id": 8275202273, "lat": 13.6522406, "lon": 100.619812}, {"type": "node", "id": 8275202274, "lat": 13.6520624, "lon": 100.6197325}, {"type": "node", "id": 8275202275, "lat": 13.6520947, "lon": 100.6196382}, {"type": "node", "id": 8275202276, "lat": 13.6520399, "lon": 100.6196147}, {"type": "node", "id": 8275202277, "lat": 13.6520574, "lon": 100.6195741}, {"type": "node", "id": 8275202278, "lat": 13.6519168, "lon": 100.6195181}, {"type": "node", "id": 8275202279, "lat": 13.6519374, "lon": 100.6194519}, {"type": "node", "id": 8277791336, "lat": 13.6503578, "lon": 100.6232388}, {"type": "node", "id": 8277791337, "lat": 13.6502653, "lon": 100.6232073}, {"type": "node", "id": 8277791338, "lat": 13.650228, "lon": 100.6233232}, {"type": "node", "id": 8277791339, "lat": 13.6503205, "lon": 100.6233547}, {"type": "node", "id": 8294890230, "lat": 13.6512327, "lon": 100.6198109}, {"type": "node", "id": 8294890231, "lat": 13.6509772, "lon": 100.6196862}, {"type": "node", "id": 8294890232, "lat": 13.6510134, "lon": 100.6196078}, {"type": "node", "id": 8294890233, "lat": 13.6512688, "lon": 100.6197325}, {"type": "node", "id": 12945885340, "lat": 13.6544119, "lon": 100.6226405}, {"type": "node", "id": 8273464711, "lat": 13.6572174, "lon": 100.623611}, {"type": "node", "id": 8273464712, "lat": 13.6572948, "lon": 100.6236545}, {"type": "node", "id": 8273464713, "lat": 13.6571979, "lon": 100.623837}, {"type": "node", "id": 8273464714, "lat": 13.6571205, "lon": 100.6237935}, {"type": "node", "id": 8279495515, "lat": 13.6557375, "lon": 100.6220225}, {"type": "node", "id": 8279495516, "lat": 13.6554503, "lon": 100.6225267}, {"type": "node", "id": 8279601917, "lat": 13.6546854, "lon": 100.6220349}, {"type": "node", "id": 8279601918, "lat": 13.6549134, "lon": 100.6215056}, {"type": "node", "id": 12945885333, "lat": 13.6552208, "lon": 100.6228166}, {"type": "node", "id": 12945885337, "lat": 13.655327, "lon": 100.6228367}, {"type": "node", "id": 12945885341, "lat": 13.6547534, "lon": 100.6220786}, {"type": "node", "id": 12945885342, "lat": 13.6544713, "lon": 100.6226534}, {"type": "node", "id": 12945884825, "lat": 13.6530334, "lon": 100.6298706}, {"type": "node", "id": 12945884826, "lat": 13.6541652, "lon": 100.6299524}, {"type": "node", "id": 12945884824, "lat": 13.6527971, "lon": 100.6310937}, {"type": "node", "id": 12945884827, "lat": 13.6539425, "lon": 100.6310867}, {"type": "node", "id": 12945884927, "lat": 13.6529457, "lon": 100.6310928}, {"type": "node", "id": 1759881447, "lat": 13.6585588, "lon": 100.6329921}, {"type": "node", "id": 12945885070, "lat": 13.658231, "lon": 100.6331461}, {"type": "node", "id": 12945885071, "lat": 13.6579834, "lon": 100.6330819}, {"type": "node", "id": 12945885074, "lat": 13.6584412, "lon": 100.6333844}, {"type": "node", "id": 12945885075, "lat": 13.6582506, "lon": 100.6333423}, {"type": "node", "id": 12945885076, "lat": 13.6581954, "lon": 100.6333294}, {"type": "node", "id": 12945885077, "lat": 13.6576609, "lon": 100.6328033}, {"type": "node", "id": 12945885078, "lat": 13.6576253, "lon": 100.6329939}, {"type": "node", "id": 12945885079, "lat": 13.6579852, "lon": 100.6330636}, {"type": "node", "id": 13063114928, "lat": 13.6582671, "lon": 100.6333446}, {"type": "node", "id": 13063114929, "lat": 13.6584045, "lon": 100.6333778}, {"type": "node", "id": 8274799369, "lat": 13.6631991, "lon": 100.6160129}, {"type": "node", "id": 13205161055, "lat": 13.6632851, "lon": 100.6165842}, {"type": "node", "id": 13205161056, "lat": 13.6639002, "lon": 100.616729}, {"type": "node", "id": 13205161057, "lat": 13.6640305, "lon": 100.6162033}, {"type": "node", "id": 13205161059, "lat": 13.6630766, "lon": 100.6165332}, {"type": "node", "id": 1795353318, "lat": 13.6626316, "lon": 100.6182767}, {"type": "node", "id": 13205161088, "lat": 13.6635588, "lon": 100.6186576}, {"type": "node", "id": 13205161089, "lat": 13.6633086, "lon": 100.6186254}, {"type": "node", "id": 13205161090, "lat": 13.6633451, "lon": 100.6184027}, {"type": "node", "id": 13205161103, "lat": 13.6632708, "lon": 100.6188024}, {"type": "node", "id": 13205161104, "lat": 13.6635269, "lon": 100.6188235}, {"type": "node", "id": 13205161124, "lat": 13.6629209, "lon": 100.6187568}, {"type": "node", "id": 13205161125, "lat": 13.6624987, "lon": 100.6187246}, {"type": "node", "id": 7651079046, "lat": 13.670257, "lon": 100.6164146}, {"type": "node", "id": 7651079047, "lat": 13.6707421, "lon": 100.6166743}, {"type": "node", "id": 7651079048, "lat": 13.6706983, "lon": 100.6167625}, {"type": "node", "id": 7651079049, "lat": 13.6706411, "lon": 100.6167356}, {"type": "node", "id": 7651079050, "lat": 13.6705775, "lon": 100.6168571}, {"type": "node", "id": 7651079051, "lat": 13.6701458, "lon": 100.6166224}, {"type": "node", "id": 7651083858, "lat": 13.6698412, "lon": 100.6161229}, {"type": "node", "id": 7651083859, "lat": 13.6699953, "lon": 100.6162082}, {"type": "node", "id": 7651083860, "lat": 13.6698462, "lon": 100.6164888}, {"type": "node", "id": 7651083861, "lat": 13.6696901, "lon": 100.6163963}, {"type": "node", "id": 9164047020, "lat": 13.6705469, "lon": 100.6168412}, {"type": "node", "id": 9164047021, "lat": 13.6705044, "lon": 100.6169275}, {"type": "node", "id": 9164047022, "lat": 13.6701667, "lon": 100.6167029}, {"type": "node", "id": 9164047023, "lat": 13.6701974, "lon": 100.6166509}, {"type": "node", "id": 11810360567, "lat": 13.6715514, "lon": 100.6361248}, {"type": "node", "id": 11810360568, "lat": 13.6716404, "lon": 100.6361468}, {"type": "node", "id": 11810382169, "lat": 13.6715252, "lon": 100.6365524}, {"type": "node", "id": 11810382170, "lat": 13.671441, "lon": 100.6365288}, {"type": "node", "id": 11810382171, "lat": 13.6717524, "lon": 100.6361884}, {"type": "node", "id": 11810382172, "lat": 13.6718415, "lon": 100.6362153}, {"type": "node", "id": 11810382173, "lat": 13.6718608, "lon": 100.6361478}, {"type": "node", "id": 11810382174, "lat": 13.6719136, "lon": 100.6361638}, {"type": "node", "id": 11810382175, "lat": 13.671845, "lon": 100.6364045}, {"type": "node", "id": 11810382176, "lat": 13.671703, "lon": 100.6363617}, {"type": "node", "id": 5174270920, "lat": 13.657302, "lon": 100.6432119}, {"type": "node", "id": 5174271721, "lat": 13.6573335, "lon": 100.6432114}, {"type": "node", "id": 9589541713, "lat": 13.6573023, "lon": 100.6431389}, {"type": "node", "id": 9589541714, "lat": 13.6573326, "lon": 100.643138}, {"type": "node", "id": 12833107005, "lat": 13.6575301, "lon": 100.6377161}, {"type": "node", "id": 12833107006, "lat": 13.6572957, "lon": 100.6385386}, {"type": "node", "id": 12833107007, "lat": 13.658427, "lon": 100.638705}, {"type": "node", "id": 12833107008, "lat": 13.6602846, "lon": 100.6390216}, {"type": "node", "id": 12833107009, "lat": 13.6605354, "lon": 100.6381069}, {"type": "node", "id": 12833107010, "lat": 13.6599915, "lon": 100.6379398}, {"type": "node", "id": 13049541242, "lat": 13.6597984, "lon": 100.6378969}, {"type": "node", "id": 13049541243, "lat": 13.6588544, "lon": 100.6378327}, {"type": "node", "id": 13020896637, "lat": 13.655655, "lon": 100.6457115}, {"type": "node", "id": 13020896638, "lat": 13.6556582, "lon": 100.6457534}, {"type": "node", "id": 13020896639, "lat": 13.6555469, "lon": 100.6457626}, {"type": "node", "id": 13020896640, "lat": 13.6555436, "lon": 100.6457207}, {"type": "node", "id": 13020896641, "lat": 13.6556463, "lon": 100.6457544}, {"type": "node", "id": 13020896651, "lat": 13.6555166, "lon": 100.6458795}, {"type": "node", "id": 13020896653, "lat": 13.6556169, "lon": 100.6458689}, {"type": "node", "id": 13020896654, "lat": 13.6556211, "lon": 100.6459072}, {"type": "node", "id": 13020896655, "lat": 13.6555086, "lon": 100.6459202}, {"type": "node", "id": 13020896656, "lat": 13.6555043, "lon": 100.6458811}, {"type": "node", "id": 13020896657, "lat": 13.6556078, "lon": 100.6459087}, {"type": "node", "id": 13020896659, "lat": 13.6554994, "lon": 100.6459588}, {"type": "node", "id": 13020896661, "lat": 13.6555939, "lon": 100.6459475}, {"type": "node", "id": 13020896662, "lat": 13.6555982, "lon": 100.6459833}, {"type": "node", "id": 13020896663, "lat": 13.6554912, "lon": 100.6459971}, {"type": "node", "id": 13020896664, "lat": 13.6554868, "lon": 100.6459611}, {"type": "node", "id": 776527399, "lat": 13.668904, "lon": 100.6426073}, {"type": "node", "id": 8269194732, "lat": 13.6688806, "lon": 100.642656}, {"type": "node", "id": 8269194733, "lat": 13.6689613, "lon": 100.6426968}, {"type": "node", "id": 8269194734, "lat": 13.6689841, "lon": 100.6426474}, {"type": "node", "id": 12968676190, "lat": 13.6679817, "lon": 100.6435892}, {"type": "node", "id": 12968676191, "lat": 13.6679253, "lon": 100.6435592}, {"type": "node", "id": 12968676192, "lat": 13.6680872, "lon": 100.6430255}, {"type": "node", "id": 12968676193, "lat": 13.6688781, "lon": 100.6433511}, {"type": "node", "id": 12968676194, "lat": 13.6692934, "lon": 100.6435327}, {"type": "node", "id": 4484525099, "lat": 13.6678215, "lon": 100.644108}, {"type": "node", "id": 4778503560, "lat": 13.6730527, "lon": 100.6467887}, {"type": "node", "id": 7740315027, "lat": 13.6731696, "lon": 100.6470546}, {"type": "node", "id": 7740315028, "lat": 13.6730033, "lon": 100.647132}, {"type": "node", "id": 7740315029, "lat": 13.6729322, "lon": 100.6469702}, {"type": "node", "id": 7740315030, "lat": 13.6727207, "lon": 100.6468915}, {"type": "node", "id": 7740315031, "lat": 13.672791, "lon": 100.6466913}, {"type": "node", "id": 7985375459, "lat": 13.6683945, "lon": 100.6477319}, {"type": "node", "id": 7985375460, "lat": 13.6684261, "lon": 100.6473985}, {"type": "node", "id": 7985375461, "lat": 13.668197, "lon": 100.6473789}, {"type": "node", "id": 7985375462, "lat": 13.6681985, "lon": 100.6473327}, {"type": "node", "id": 7985375463, "lat": 13.6684298, "lon": 100.6473579}, {"type": "node", "id": 7985375464, "lat": 13.6684484, "lon": 100.6471671}, {"type": "node", "id": 7985375465, "lat": 13.6682129, "lon": 100.6471495}, {"type": "node", "id": 7985375466, "lat": 13.6682187, "lon": 100.6471044}, {"type": "node", "id": 7985375467, "lat": 13.6684499, "lon": 100.647121}, {"type": "node", "id": 7985375468, "lat": 13.6684705, "lon": 100.6469484}, {"type": "node", "id": 7985375469, "lat": 13.6685002, "lon": 100.6467041}, {"type": "node", "id": 7985375470, "lat": 13.668186, "lon": 100.6466591}, {"type": "node", "id": 7985375471, "lat": 13.6681219, "lon": 100.6470819}, {"type": "node", "id": 7985375472, "lat": 13.6680611, "lon": 100.6477164}, {"type": "node", "id": 12968676195, "lat": 13.6688582, "lon": 100.6442714}, {"type": "node", "id": 12968676196, "lat": 13.6687945, "lon": 100.6443751}, {"type": "node", "id": 12968676197, "lat": 13.6686791, "lon": 100.6443806}, {"type": "node", "id": 12968676198, "lat": 13.6685004, "lon": 100.6443222}, {"type": "node", "id": 6868888050, "lat": 13.6781839, "lon": 100.6184326}, {"type": "node", "id": 6868888052, "lat": 13.6783616, "lon": 100.618399}, {"type": "node", "id": 6868888053, "lat": 13.6781831, "lon": 100.6181995}, {"type": "node", "id": 6868888054, "lat": 13.6780431, "lon": 100.6180178}, {"type": "node", "id": 6868888057, "lat": 13.6782518, "lon": 100.6180895}, {"type": "node", "id": 6868888058, "lat": 13.6784003, "lon": 100.6182738}, {"type": "node", "id": 6868888059, "lat": 13.6782088, "lon": 100.6183612}, {"type": "node", "id": 6868888061, "lat": 13.6782425, "lon": 100.6181276}, {"type": "node", "id": 6868888062, "lat": 13.6784757, "lon": 100.618102}, {"type": "node", "id": 6868888063, "lat": 13.6782274, "lon": 100.6181701}, {"type": "node", "id": 6868888064, "lat": 13.6782681, "lon": 100.6180339}, {"type": "node", "id": 6868888068, "lat": 13.6784067, "lon": 100.6185099}, {"type": "node", "id": 6868888071, "lat": 13.6784182, "lon": 100.6184346}, {"type": "node", "id": 6868888076, "lat": 13.6782817, "lon": 100.618101}, {"type": "node", "id": 6868888077, "lat": 13.6784607, "lon": 100.6182518}, {"type": "node", "id": 6868888078, "lat": 13.6784666, "lon": 100.6182029}, {"type": "node", "id": 6868888080, "lat": 13.6783, "lon": 100.6180447}, {"type": "node", "id": 6868888082, "lat": 13.6780606, "lon": 100.6179636}, {"type": "node", "id": 6868888084, "lat": 13.6784698, "lon": 100.6181639}, {"type": "node", "id": 6868904885, "lat": 13.6781422, "lon": 100.6183232}, {"type": "node", "id": 3391461057, "lat": 13.6868563, "lon": 100.6153535}, {"type": "node", "id": 3391461063, "lat": 13.687179, "lon": 100.6163052}, {"type": "node", "id": 6457015936, "lat": 13.6871708, "lon": 100.6162847}, {"type": "node", "id": 8555923472, "lat": 13.6863435, "lon": 100.6204034}, {"type": "node", "id": 8555923473, "lat": 13.6862836, "lon": 100.6204289}, {"type": "node", "id": 8555923474, "lat": 13.6863031, "lon": 100.6204866}, {"type": "node", "id": 8555923475, "lat": 13.6863683, "lon": 100.6204624}, {"type": "node", "id": 3391461099, "lat": 13.6889948, "lon": 100.6145854}, {"type": "node", "id": 3391461104, "lat": 13.6893175, "lon": 100.6155371}, {"type": "node", "id": 7986517780, "lat": 13.6914803, "lon": 100.6342628}, {"type": "node", "id": 12175353461, "lat": 13.6909726, "lon": 100.6328398}, {"type": "node", "id": 12175353463, "lat": 13.6912941, "lon": 100.6339569}, {"type": "node", "id": 12279532671, "lat": 13.6918209, "lon": 100.6342084}, {"type": "node", "id": 12846461445, "lat": 13.6915813, "lon": 100.6342925}, {"type": "node", "id": 12846461446, "lat": 13.6912565, "lon": 100.6343656}, {"type": "node", "id": 12846461447, "lat": 13.6905411, "lon": 100.6344788}, {"type": "node", "id": 12846461448, "lat": 13.6907523, "lon": 100.6359843}, {"type": "node", "id": 12846461449, "lat": 13.6918596, "lon": 100.6358195}, {"type": "node", "id": 12846461450, "lat": 13.6922326, "lon": 100.6357712}, {"type": "node", "id": 12846461451, "lat": 13.6919239, "lon": 100.6345612}, {"type": "node", "id": 12846461456, "lat": 13.6913988, "lon": 100.6342831}, {"type": "node", "id": 12846461457, "lat": 13.6915335, "lon": 100.6342592}, {"type": "node", "id": 12846461458, "lat": 13.691643, "lon": 100.6342143}, {"type": "node", "id": 12846461459, "lat": 13.6917518, "lon": 100.6341753}, {"type": "node", "id": 12846461460, "lat": 13.6919369, "lon": 100.6341126}, {"type": "node", "id": 12846461461, "lat": 13.6923123, "lon": 100.6339302}, {"type": "node", "id": 12846461462, "lat": 13.6916708, "lon": 100.6324527}, {"type": "node", "id": 12846461463, "lat": 13.6914814, "lon": 100.6325184}, {"type": "node", "id": 12846461464, "lat": 13.6913066, "lon": 100.6325832}, {"type": "node", "id": 12846461465, "lat": 13.6909386, "lon": 100.6327017}, {"type": "node", "id": 12846461466, "lat": 13.6922979, "lon": 100.6339559}, {"type": "node", "id": 12846461468, "lat": 13.6915061, "lon": 100.6325099}, {"type": "node", "id": 12846461470, "lat": 13.691979, "lon": 100.6331625}, {"type": "node", "id": 12846461510, "lat": 13.6917194, "lon": 100.6325645}, {"type": "node", "id": 12549475747, "lat": 13.696874, "lon": 100.6266492}, {"type": "node", "id": 12549475748, "lat": 13.6953678, "lon": 100.6271642}, {"type": "node", "id": 12549475749, "lat": 13.695558, "lon": 100.6277301}, {"type": "node", "id": 12549475750, "lat": 13.6955997, "lon": 100.6277569}, {"type": "node", "id": 12549475751, "lat": 13.6970252, "lon": 100.6272339}, {"type": "node", "id": 12549475752, "lat": 13.6970434, "lon": 100.627191}, {"type": "node", "id": 12846461383, "lat": 13.6949279, "lon": 100.6308025}, {"type": "node", "id": 12846461384, "lat": 13.6947531, "lon": 100.6308534}, {"type": "node", "id": 12846461385, "lat": 13.6947591, "lon": 100.6308753}, {"type": "node", "id": 12846461386, "lat": 13.6947386, "lon": 100.6308812}, {"type": "node", "id": 12846461387, "lat": 13.6948203, "lon": 100.6311783}, {"type": "node", "id": 12846461388, "lat": 13.6950156, "lon": 100.6311215}, {"type": "node", "id": 5226074854, "lat": 13.6935896, "lon": 100.6417422}, {"type": "node", "id": 5226074855, "lat": 13.6935552, "lon": 100.641581}, {"type": "node", "id": 6513896944, "lat": 13.6934677, "lon": 100.6417698}, {"type": "node", "id": 6513896945, "lat": 13.6934333, "lon": 100.6416085}, {"type": "node", "id": 1686472116, "lat": 13.6913058, "lon": 100.6452776}, {"type": "node", "id": 1686472117, "lat": 13.691352, "lon": 100.6461225}, {"type": "node", "id": 1686472118, "lat": 13.6914894, "lon": 100.6461075}, {"type": "node", "id": 1686472119, "lat": 13.6914992, "lon": 100.6452325}, {"type": "node", "id": 1686472124, "lat": 13.6915077, "lon": 100.6460849}, {"type": "node", "id": 1686472126, "lat": 13.6915429, "lon": 100.6452563}, {"type": "node", "id": 1686472128, "lat": 13.6915624, "lon": 100.6453602}, {"type": "node", "id": 5226570314, "lat": 13.6906075, "lon": 100.6464634}, {"type": "node", "id": 5226570315, "lat": 13.6903743, "lon": 100.6464881}, {"type": "node", "id": 5226570316, "lat": 13.6903998, "lon": 100.6467427}, {"type": "node", "id": 5226570317, "lat": 13.6906329, "lon": 100.646718}, {"type": "node", "id": 7515101516, "lat": 13.690803, "lon": 100.6472809}, {"type": "node", "id": 7515101517, "lat": 13.690485, "lon": 100.647254}, {"type": "node", "id": 7515101518, "lat": 13.6907639, "lon": 100.6494803}, {"type": "node", "id": 7515101519, "lat": 13.6911704, "lon": 100.6493837}, {"type": "node", "id": 7515221053, "lat": 13.6908171, "lon": 100.6473201}, {"type": "node", "id": 1686244385, "lat": 13.6969222, "lon": 100.647826}, {"type": "node", "id": 1686244389, "lat": 13.6969704, "lon": 100.6480597}, {"type": "node", "id": 1686244421, "lat": 13.6973212, "lon": 100.6479677}, {"type": "node", "id": 1686244430, "lat": 13.6973935, "lon": 100.6483819}, {"type": "node", "id": 1686244445, "lat": 13.6974657, "lon": 100.6477092}, {"type": "node", "id": 1686244452, "lat": 13.6975758, "lon": 100.6483394}]}