{"version": 0.6, "generator": "Overpass API 0.7.62.8 e802775f", "osm3s": {"timestamp_osm_base": "2025-11-20T03:22:29Z", "copyright": "The data included in this document is from www.openstreetmap.org. The data is made available under ODbL."}, "elements": [{"type": "node", "id": 449818880, "lat": 13.8212743, "lon": 100.6306935, "tags": {"amenity": "restaurant", "name:en": "Koh Lanta"}}, {"type": "node", "id": 518820818, "lat": 13.8225798, "lon": 100.6308558, "tags": {"amenity": "restaurant"}}, {"type": "node", "id": 1276699579, "lat": 13.809583, "lon": 100.616898, "tags": {"amenity": "restaurant", "name": "Oregano Italian Restaurant"}}, {"type": "node", "id": 1597644402, "lat": 13.833508, "lon": 100.6266186, "tags": {"addr:city": "\u0e41\u0e02\u0e27\u0e07\u0e25\u0e32\u0e14\u0e1e\u0e23\u0e49\u0e32\u0e27", "addr:housenumber": "508/2 \u0e04\u0e32\u0e0b\u0e48\u0e32\u0e0b\u0e34\u0e15\u0e35\u0e49", "addr:postcode": "10230", "addr:street": "\u0e2a\u0e38\u0e04\u0e19\u0e18\u0e2a\u0e27\u0e31\u0e2a\u0e14\u0e34\u0e4c", "amenity": "cafe", "cuisine": "coffee_shop", "delivery": "yes", "email": "bicocafe@outlook.com", "internet_access": "yes", "internet_access:fee": "no", "name": "Bico : Specialty Coffee & Homemade Bakery", "outdoor_seating": "yes", "phone": "+66896661491", "takeaway": "yes", "website": "https://www.facebook.com/bicocafe"}}, {"type": "node", "id": 2064781160, "lat": 13.8339472, "lon": 100.6104417, "tags": {"Number zone": "A105", "amenity": "cafe", "cuisine": "ice_cream", "level": "0", "name": "Swensens", "name:th": "\u0e2a\u0e40\u0e27\u0e19\u0e40\u0e0b\u0e19\u0e2a\u0e4c", "website": "https://www.swensens1112.com/", "wifi": "no"}}, {"type": "node", "id": 2064781161, "lat": 13.8342024, "lon": 100.6105409, "tags": {"Number zone": "A108", "amenity": "cafe", "brand": "Starbucks", "brand:wikidata": "Q37158", "brand:wikipedia": "en:Starbucks", "cuisine": "coffee_shop", "internet_access": "wlan", "level": "0", "name": "Starbucks", "name:en": "Starbucks Coffee", "name:th": "\u0e2a\u0e15\u0e32\u0e23\u0e4c\u0e1a\u0e31\u0e04\u0e2a\u0e4c", "official_name": "Starbucks Coffee", "shop": "coffee", "smoking": "no", "takeaway": "yes", "website": "https://www.starbucks.com/"}}, {"type": "node", "id": 2064781194, "lat": 13.8337727, "lon": 100.6103612, "tags": {"Number zone": "A101-102", "amenity": "restaurant", "brand": "MK Restaurants", "brand:wikidata": "Q62075359", "cuisine": "thai", "level": "0", "name": "MK Restaurants", "name:en": "MK Restaurants", "old_name": "\u0e2a\u0e38\u0e01\u0e35\u0e49\u0e40\u0e2d\u0e47\u0e21\u0e40\u0e04", "operator": "MK Restaurants", "phone": "1642", "website": "https://www.mkrestaurant.com/"}}, {"type": "node", "id": 2064781204, "lat": 13.8338664, "lon": 100.6104095, "tags": {"amenity": "restaurant", "cuisine": "japanese", "image": "http://farm9.staticflickr.com/8192/8386453930_8b5262f428_m.jpg", "level": "0", "name": "Yayoi"}}, {"type": "node", "id": 2064798501, "lat": 13.8346478, "lon": 100.6108038, "tags": {"Number zone": "B105", "amenity": "cafe", "image": "http://farm9.staticflickr.com/8373/8385621505_185bc77449_m.jpg", "internet_access": "wlan", "level": "0", "name": "Pancake Cafe"}}, {"type": "node", "id": 2064798506, "lat": 13.8341425, "lon": 100.6107877, "tags": {"amenity": "marketplace", "level": "0", "name": "\u0e15\u0e25\u0e32\u0e14\u0e19\u0e31\u0e14"}}, {"type": "node", "id": 2064800871, "lat": 13.8350503, "lon": 100.6110841, "tags": {"amenity": "restaurant", "cuisine": "thai", "image": "http://farm9.staticflickr.com/8049/8385571841_6fbb3086b0_m.jpg", "name": "\u0e04\u0e23\u0e31\u0e27\u0e40\u0e08\u0e4a\u0e07\u0e49\u0e2d"}}, {"type": "node", "id": 2066489647, "lat": 13.8343627, "lon": 100.6110505, "tags": {"Number zone": "C105", "amenity": "cafe", "image": "http://farm9.staticflickr.com/8046/8385499945_29c0d8489b_m.jpg", "level": "0", "name": "My Cafe"}}, {"type": "node", "id": 2066489651, "lat": 13.8347091, "lon": 100.6110478, "tags": {"amenity": "cafe", "cuisine": "thai", "image": "http://farm9.staticflickr.com/8378/8385500261_7066e53c2c_m.jpg", "level": "0", "name": "Kopitiam", "wifi": "no"}}, {"type": "node", "id": 2066654942, "lat": 13.8340032, "lon": 100.6110372, "tags": {"amenity": "restaurant", "cuisine": "japanese", "image": "http://farm9.staticflickr.com/8187/8385670697_6476162801_m.jpg", "level": "0", "name": "Grill 101", "number zone": "C101"}}, {"type": "node", "id": 2066654956, "lat": 13.8341439, "lon": 100.6110451, "tags": {"amenity": "cafe", "cuisine": "ice_cream", "image": "http://farm9.staticflickr.com/8043/8386657972_7e0abb5038_m.jpg", "level": "0", "name": "Iberry", "number zone": "C102", "website": "http://www.iberryhomemade.com"}}, {"type": "node", "id": 2068128184, "lat": 13.834071, "lon": 100.6110625, "tags": {"amenity": "restaurant", "cuisine": "sushi", "level": "1", "name": "Kazokutei"}}, {"type": "node", "id": 2068128185, "lat": 13.8338679, "lon": 100.6103718, "tags": {"Number zone": "A203", "amenity": "restaurant", "cuisine": "thai", "level": "1", "name": "Chom Poo Dung"}}, {"type": "node", "id": 2068128188, "lat": 13.8340696, "lon": 100.6110987, "tags": {"amenity": "restaurant", "level": "1", "name": "BBQ Plaza", "number zone": "C202-203"}}, {"type": "node", "id": 2068128190, "lat": 13.8341296, "lon": 100.6110785, "tags": {"amenity": "restaurant", "cuisine": "thai", "image": "http://farm9.staticflickr.com/8333/8385661653_9eff6c0dc2_m.jpg", "name": "\u0e15\u0e33\u0e41\u0e2b\u0e25\u0e01", "number zone": "C204-205"}}, {"type": "node", "id": 2068128191, "lat": 13.8342155, "lon": 100.6105166, "tags": {"amenity": "restaurant", "image": "http://farm9.staticflickr.com/8183/8385398979_e6228f7f9f_m.jpg", "level": "1", "name": "Kimju Korean Restaurant"}}, {"type": "node", "id": 2068128192, "lat": 13.8340176, "lon": 100.6110799, "tags": {"amenity": "restaurant", "cuisine": "international", "image": "http://farm9.staticflickr.com/8187/8386756312_f16c727574_m.jpg", "level": "1", "name": "Wine Connection", "number zone": "C201"}}, {"type": "node", "id": 2068128193, "lat": 13.8337741, "lon": 100.6103316, "tags": {"Number zone": "A201-202", "amenity": "restaurant", "cuisine": "japanese", "image": "http://farm9.staticflickr.com/8219/8385572271_e94b7c17af_m.jpg", "level": "1", "name": "Otoro Tokyo"}}, {"type": "node", "id": 2068128195, "lat": 13.8344316, "lon": 100.61062, "tags": {"Number zone": "B201", "amenity": "restaurant", "image": "http://farm9.staticflickr.com/8494/8386657910_61585145ff_m.jpg", "level": "1", "name": "Fuji"}}, {"type": "node", "id": 2111898189, "lat": 13.8339728, "lon": 100.6119158, "tags": {"amenity": "restaurant", "cuisine": "ice_cream", "description": "food & dessert", "image": "http://pic.free.in.th/id/9abc25b745b23198479e3b92b70ddd6e", "level": "0", "name": "Alahcus", "network": "free wifi", "opening_hours": "Mo-Fr 12:00-23:00; Sa-Su 10:00-23:00", "phone": "+6629070634", "website": "http://www.alahcus.com/"}}, {"type": "node", "id": 2111918428, "lat": 13.8334544, "lon": 100.6121278, "tags": {"amenity": "restaurant", "cuisine": "international", "description": "\u0e2d\u0e34\u0e15\u0e32\u0e40\u0e25\u0e35\u0e48\u0e22\u0e19 \u0e44\u0e17\u0e22", "facebook": "imyourscafe", "image": "http://pic.free.in.th/id/a52394d52e2b155718fc0ae8e8ced236", "level": "0", "name": "I'm Yours", "opening_hours": "Mo-Su 16:00-01:00", "phone": "+6629070855;+66805559222", "price": "\u0e23\u0e31\u0e1a\u0e08\u0e31\u0e14\u0e40\u0e25\u0e35\u0e49\u0e22\u0e07\u0e23\u0e32\u0e04\u0e32\u0e2b\u0e31\u0e27\u0e25\u0e30 200-300 \u0e1a\u0e32\u0e17"}}, {"type": "node", "id": 2111918432, "lat": 13.8334026, "lon": 100.6121222, "tags": {"amenity": "restaurant", "description": "\u0e02\u0e19\u0e21\u0e41\u0e25\u0e30\u0e02\u0e2d\u0e07\u0e2b\u0e27\u0e32\u0e19", "image": "http://pic.free.in.th/id/96c96cc6588b13412d4a5b5418a82826", "level": "0", "name": "Lanna House", "opening_hours": "Mo-Su 10:00-22:00", "phone": "+6629070662;+66815644281", "social": "www.lannahouse.com"}}, {"type": "node", "id": 2111918435, "lat": 13.8334156, "lon": 100.6116795, "tags": {"amenity": "restaurant", "cuisine": "vietnamese", "description": "\u0e23\u0e49\u0e32\u0e19\u0e2d\u0e32\u0e2b\u0e32\u0e23\u0e1f\u0e34\u0e27\u0e0a\u0e31\u0e48\u0e19\u0e1f\u0e39\u0e4a\u0e14", "image": "http://pic.free.in.th/id/dd3eb30b7db0466054eae82a09373a66", "level": "0", "name": "Red Basket", "opening_hours": "Mo-Su 18:00-21:00", "phone": "+66841090271;+6629071909"}}, {"type": "node", "id": 2111918437, "lat": 13.8331838, "lon": 100.6121569, "tags": {"amenity": "cafe", "brand": "Wawee Coffee", "image": "http://pic.free.in.th/id/218bb4005d56006f2e8cefd5258fa42a", "level": "0", "name": "Wawee Coffee", "opening_hours": "Mo-Su 10:00-20:00"}}, {"type": "node", "id": 2111918440, "lat": 13.8334469, "lon": 100.6121918, "tags": {"amenity": "restaurant", "cuisine": "thai", "description": "Tea noodles", "description:th": "\u0e0a\u0e32\u0e1a\u0e39 \u0e01\u0e4b\u0e27\u0e22\u0e40\u0e15\u0e35\u0e4b\u0e22\u0e27", "image": "http://pic.free.in.th/id/99f24937c9810a594782c9e92183b33b", "level": "0", "name": "\u0e01\u0e4b\u0e27\u0e22\u0e40\u0e15\u0e35\u0e4b\u0e22\u0e27\u0e40\u0e23\u0e37\u0e2d\u0e01\u0e25\u0e32\u0e07\u0e01\u0e23\u0e38\u0e07", "opening_hours": "Mo-Su 10:00-21:00", "phone": "+66895285305"}}, {"type": "node", "id": 2111918445, "lat": 13.8339339, "lon": 100.6119665, "tags": {"amenity": "cafe", "cuisine": "coffee_shop", "description": "coffee and foods", "image": "http://pic.free.in.th/id/eb5c8220bc584eadcd856401e4015771", "name": "Interiaby Black Canyon", "opening_hours": "10:00-22:00", "phone": "+6625531120", "social": "facebook/blackcantonthailand"}}, {"type": "node", "id": 2111925801, "lat": 13.833176, "lon": 100.6122751, "tags": {"amenity": "restaurant", "cuisine": "japanese", "image": "http://pic.free.in.th/id/3f222d7183f8a3155cf92d54d33e5b2d", "level": "0", "name": "Okashi by Pooni", "opening_hours": "Mo-Su 11:00-22:00"}}, {"type": "node", "id": 2111925802, "lat": 13.8331054, "lon": 100.6122136, "tags": {"amenity": "cafe", "cuisine": "ice_cream", "description": "\u0e23\u0e49\u0e32\u0e19\u0e02\u0e19\u0e21\u0e2b\u0e27\u0e32\u0e19 \u0e40\u0e1a\u0e40\u0e01\u0e2d\u0e23\u0e35\u0e48", "image": "http://pic.free.in.th/id/09e50cb3ea4f0c90eb38dba72d5b1d11", "level": "0", "name": "Eskimo Bites", "opening_hours": "Mo-Su 11:30-22:00", "phone": "+6626609020", "social": "facebook/a.cup.a.day"}}, {"type": "node", "id": 2111937261, "lat": 13.8342308, "lon": 100.6116071, "tags": {"amenity": "restaurant", "cuisine": "french", "level": "0", "name": "Brin de lavance", "opening_hours": "Mo-Su 10:00-22:00", "phone": "+6629072018;+66818166655"}}, {"type": "node", "id": 2111937264, "lat": 13.8332151, "lon": 100.611819, "tags": {"amenity": "cafe", "cuisine": "coffee_shop", "image": "http://pic.free.in.th/id/354150e658c54d9f4263c4e95bd79966", "name": "Seventyseven", "network": "free wifi", "opening_hours": "Mo-Su 11:00-22:00", "phone": "+66834252777", "social": "facebook/seventysevencafe"}}, {"type": "node", "id": 2111937268, "lat": 13.833116, "lon": 100.6120042, "tags": {"amenity": "restaurant", "cuisine": "thai", "description": "\u0e44\u0e17\u0e22 \u0e2d\u0e35\u0e2a\u0e32\u0e19", "image": "http://pic.free.in.th/id/e12739d70bd7946c0c72a44814041cc4", "level": "1", "name": "Noreste", "opening_hours": "Mo-Su 16:00-02:00", "phone": "+6629070858"}}, {"type": "node", "id": 2111937272, "lat": 13.8342295, "lon": 100.6116513, "tags": {"amenity": "restaurant", "cuisine": "thai", "image": "http://pic.free.in.th/id/3fa06a401a01a61f06d6ec81952490b0", "level": "0", "name": "Hip hut cafe", "opening_hours": "Mo-Su 10:00-21:00", "phone": "+6629072405"}}, {"type": "node", "id": 2111937274, "lat": 13.8331681, "lon": 100.6119186, "tags": {"amenity": "restaurant", "image": "http://pic.free.in.th/id/8bf4f0341587b74d33a032fbe9cbeb56", "level": "0", "name": "Thirst Day", "opening_hours": "Mo-Su 14:00-01:00", "phone": "+6629070456"}}, {"type": "node", "id": 2111937276, "lat": 13.8331759, "lon": 100.611645, "tags": {"amenity": "restaurant", "cuisine": "italian", "facebook": "felicehomecooking", "image": "http://pic.free.in.th/id/111849f06053596c6ddf29ece47579bd", "level": "0", "name": "Felice", "opening_hours": "Mo-Su 11:00-22:00", "phone": "+66818555777"}}, {"type": "node", "id": 3015634930, "lat": 13.8230127, "lon": 100.6297569, "tags": {"amenity": "cafe", "brand": "\u0e04\u0e32\u0e40\u0e1f\u0e48 \u0e2d\u0e40\u0e21\u0e0b\u0e2d\u0e19", "brand:en": "Caf\u00e9 Amazon", "brand:th": "\u0e04\u0e32\u0e40\u0e1f\u0e48 \u0e2d\u0e40\u0e21\u0e0b\u0e2d\u0e19", "brand:wikidata": "Q43247503", "cuisine": "coffee_shop", "name": "\u0e04\u0e32\u0e40\u0e1f\u0e48 \u0e2d\u0e40\u0e21\u0e0b\u0e2d\u0e19", "name:en": "Caf\u00e9 Amazon", "name:th": "\u0e04\u0e32\u0e40\u0e1f\u0e48 \u0e2d\u0e40\u0e21\u0e0b\u0e2d\u0e19", "operator": "PTT", "shop": "coffee", "smoking": "no", "takeaway": "yes"}}, {"type": "node", "id": 3431296268, "lat": 13.8114115, "lon": 100.6190799, "tags": {"amenity": "cafe", "brand": "Starbucks", "brand:wikidata": "Q37158", "brand:wikipedia": "en:Starbucks", "cuisine": "coffee_shop", "name": "Starbucks", "name:en": "Starbucks Coffee", "name:th": "\u0e2a\u0e15\u0e32\u0e23\u0e4c\u0e1a\u0e31\u0e04\u0e2a\u0e4c", "official_name": "Starbucks Coffee", "shop": "coffee", "smoking": "no", "takeaway": "yes", "website": "https://www.starbucks.com/"}}, {"type": "node", "id": 3431296269, "lat": 13.8285866, "lon": 100.6271988, "tags": {"amenity": "cafe", "brand": "Starbucks", "brand:wikidata": "Q37158", "brand:wikipedia": "en:Starbucks", "cuisine": "coffee_shop", "name": "Starbucks", "name:en": "Starbucks Coffee", "name:th": "\u0e2a\u0e15\u0e32\u0e23\u0e4c\u0e1a\u0e31\u0e04\u0e2a\u0e4c", "official_name": "Starbucks Coffee", "shop": "coffee", "smoking": "no", "takeaway": "yes", "website": "https://www.starbucks.com/"}}, {"type": "node", "id": 3431296270, "lat": 13.8337915, "lon": 100.6108829, "tags": {"amenity": "cafe", "brand": "Starbucks", "brand:wikidata": "Q37158", "brand:wikipedia": "en:Starbucks", "cuisine": "coffee_shop", "name": "Starbucks", "name:en": "Starbucks Coffee", "name:th": "\u0e2a\u0e15\u0e32\u0e23\u0e4c\u0e1a\u0e31\u0e04\u0e2a\u0e4c", "official_name": "Starbucks Coffee", "shop": "coffee", "smoking": "no", "takeaway": "yes", "website": "https://www.starbucks.com/"}}, {"type": "node", "id": 4296637389, "lat": 13.8037626, "lon": 100.6488349, "tags": {"tourism": "caravan_site"}}, {"type": "node", "id": 4413157093, "lat": 13.836725, "lon": 100.60483, "tags": {"amenity": "restaurant", "name": "\u0e23\u0e49\u0e32\u0e19\u0e22\u0e39\u0e0b\u0e38\u0e1b\u0e42\u0e20\u0e0a\u0e19\u0e32", "name:th": "\u0e23\u0e49\u0e32\u0e19\u0e22\u0e39\u0e0b\u0e38\u0e1b\u0e42\u0e20\u0e0a\u0e19\u0e32"}}, {"type": "node", "id": 4466296593, "lat": 13.824177, "lon": 100.61183, "tags": {"amenity": "restaurant", "name": "\u0e01\u0e4b\u0e27\u0e22\u0e08\u0e31\u0e4a\u0e1a\u0e0d\u0e27\u0e19", "name:th": "\u0e01\u0e4b\u0e27\u0e22\u0e08\u0e31\u0e4a\u0e1a\u0e0d\u0e27\u0e19"}}, {"type": "node", "id": 4707124896, "lat": 13.8088207, "lon": 100.6463519, "tags": {"amenity": "cafe"}}, {"type": "node", "id": 4811252428, "lat": 13.8455466, "lon": 100.6332135, "tags": {"amenity": "cafe", "cuisine": "thai", "name": "Sweet Kiss"}}, {"type": "node", "id": 4895036321, "lat": 13.8106842, "lon": 100.610289, "tags": {"amenity": "cafe", "name:en": "Hip Incy FarmVille"}}, {"type": "node", "id": 4945081921, "lat": 13.8291577, "lon": 100.6267563, "tags": {"amenity": "cafe", "name": "\u0e23\u0e49\u0e32\u0e19Cavern", "name:th": "\u0e23\u0e49\u0e32\u0e19Cavern"}}, {"type": "node", "id": 5043010222, "lat": 13.8445094, "lon": 100.6328208, "tags": {"amenity": "restaurant", "cuisine": "steak_house;breakfast;thai;coffee_shop;asian", "internet_access": "wlan", "name:en": "Bon de Bang"}}, {"type": "node", "id": 5336036021, "lat": 13.8225755, "lon": 100.6071644, "tags": {"name": "Kiattida", "tourism": "hotel"}}, {"type": "node", "id": 5352185226, "lat": 13.8212802, "lon": 100.6268561, "tags": {"amenity": "cafe", "name:en": "plantation"}}, {"type": "node", "id": 5620851121, "lat": 13.8222702, "lon": 100.6245565, "tags": {"name": "\u0e40\u0e23\u0e37\u0e2d\u0e19\u0e44\u0e17\u0e22\u0e27\u0e34\u0e08\u0e34\u0e15\u0e23\u0e32", "name:en": "RUENTHAI VIJITTRA", "tourism": "guest_house"}}, {"type": "node", "id": 5649401522, "lat": 13.8006105, "lon": 100.6423734, "tags": {"amenity": "restaurant", "name": "\u0e04\u0e23\u0e31\u0e27\u0e41\u0e21\u0e48\u0e28\u0e23\u0e35 \u0e20\u0e39\u0e40\u0e01\u0e47\u0e15"}}, {"type": "node", "id": 5758166121, "lat": 13.8149387, "lon": 100.6091716, "tags": {"name": "\u0e2a\u0e15\u0e32\u0e23\u0e4c\u0e41\u0e21\u0e19\u0e0a\u0e31\u0e48\u0e19", "name:en": "star mansion", "tourism": "hostel"}}, {"type": "node", "id": 5913806286, "lat": 13.8374124, "lon": 100.6043652, "tags": {"amenity": "restaurant", "name": "Snow beer restaurant"}}, {"type": "node", "id": 5953042387, "lat": 13.8474547, "lon": 100.6475821, "tags": {"amenity": "cafe", "brand": "\u0e04\u0e32\u0e40\u0e1f\u0e48 \u0e2d\u0e40\u0e21\u0e0b\u0e2d\u0e19", "brand:en": "Caf\u00e9 Amazon", "brand:th": "\u0e04\u0e32\u0e40\u0e1f\u0e48 \u0e2d\u0e40\u0e21\u0e0b\u0e2d\u0e19", "brand:wikidata": "Q43247503", "brand:wikipedia": "en:Caf\u00e9 Amazon", "cuisine": "coffee_shop", "name": "\u0e04\u0e32\u0e40\u0e1f\u0e48 \u0e2d\u0e40\u0e21\u0e0b\u0e2d\u0e19", "name:en": "Caf\u00e9 Amazon", "name:th": "\u0e04\u0e32\u0e40\u0e1f\u0e48 \u0e2d\u0e40\u0e21\u0e0b\u0e2d\u0e19", "takeaway": "yes"}}, {"type": "node", "id": 6318385985, "lat": 13.8268245, "lon": 100.6261098, "tags": {"addr:street": "\u0e16\u0e19\u0e19\u0e1b\u0e23\u0e30\u0e40\u0e2a\u0e23\u0e34\u0e10\u0e21\u0e19\u0e39\u0e01\u0e34\u0e08", "amenity": "restaurant", "name": "Stameeneehoi"}}, {"type": "node", "id": 6944970835, "lat": 13.8216202, "lon": 100.6275299, "tags": {"addr:city": "\u0e19\u0e27\u0e21\u0e34\u0e19\u0e17\u0e23\u0e4c", "addr:housenumber": "102", "addr:postcode": "10230", "addr:street": "\u0e16\u0e19\u0e19\u0e04\u0e25\u0e2d\u0e07\u0e25\u0e33\u0e40\u0e08\u0e35\u0e22\u0e01", "air_conditioning": "yes", "amenity": "restaurant", "internet_access": "yes", "name": "\u0e25\u0e32\u0e27\u0e40\u0e21\u0e07", "name:en": "Laomeng", "opening_hours": "24/7", "phone": "020626102"}}, {"type": "node", "id": 7055785586, "lat": 13.8080374, "lon": 100.6094369, "tags": {"addr:housenumber": "31/11", "addr:postcode": "10230", "addr:street": "\u0e16\u0e19\u0e19\u0e19\u0e32\u0e04\u0e19\u0e34\u0e27\u0e32\u0e2a", "name": "\u0e1a\u0e49\u0e32\u0e19\u0e01\u0e38\u0e2a\u0e38\u0e21\u0e32", "name:en": "Baan Kusuma", "opening_hours": "Mo, We, Fr 17:00-20:00", "phone": "0818071819", "tourism": "attraction"}}, {"type": "node", "id": 7187473385, "lat": 13.8245116, "lon": 100.6288663, "tags": {"amenity": "restaurant"}}, {"type": "node", "id": 7876007507, "lat": 13.8019807, "lon": 100.6479299, "tags": {"addr:city": "\u0e41\u0e02\u0e27\u0e07\u0e19\u0e27\u0e21\u0e34\u0e19\u0e17\u0e23\u0e4c", "addr:housenumber": "18/2", "addr:postcode": "10230", "addr:street": "\u0e16\u0e19\u0e19\u0e19\u0e27\u0e21\u0e34\u0e19\u0e17\u0e23\u0e4c", "admin_level": "8", "amenity": "restaurant", "name": "\u0e21\u0e32\u0e25\u0e32\u0e40\u0e04\u0e23\u0e1b\u0e2a\u0e32\u0e02\u0e323\u0e19\u0e27\u0e21\u0e34\u0e19\u0e17\u0e23\u0e4c163", "name:en": "Nawamin", "official_name": "\u0e41\u0e02\u0e27\u0e07\u0e19\u0e27\u0e21\u0e34\u0e19\u0e17\u0e23\u0e4c", "official_name:en": "Nawamin Subdistrict", "opening_hours": "Mo-Su 10:00-22:00", "phone": "0813554591"}}, {"type": "node", "id": 9582532631, "lat": 13.8494141, "lon": 100.6049139, "tags": {"addr:city": "\u0e41\u0e02\u0e27\u0e07\u0e2d\u0e19\u0e38\u0e2a\u0e32\u0e27\u0e23\u0e35\u0e22\u0e4c", "addr:housenumber": "44/1", "addr:postcode": "10220", "addr:street": "\u0e16\u0e19\u0e19\u0e25\u0e32\u0e14\u0e1b\u0e25\u0e32\u0e40\u0e04\u0e49\u0e32", "amenity": "cafe", "cuisine": "coffee_shop", "name": "baan44cafe", "phone": "+66859060634", "website": "https://www.facebook.com/Jteerayuth"}}, {"type": "node", "id": 9603405880, "lat": 13.841656, "lon": 100.6003863, "tags": {"tourism": "hotel"}}, {"type": "node", "id": 10146692014, "lat": 13.8072639, "lon": 100.6492977, "tags": {"addr:city": "\u0e41\u0e02\u0e27\u0e07\u0e04\u0e25\u0e2d\u0e07\u0e01\u0e38\u0e48\u0e21", "addr:housenumber": "4/1477-79", "addr:postcode": "10230", "addr:street": "\u0e0b\u0e2d\u0e22\u0e19\u0e27\u0e21\u0e34\u0e19\u0e17\u0e23\u0e4c 66", "amenity": "restaurant", "name": "\u0e42\u0e0a\u0e04\u0e14\u0e35\u0e15\u0e34\u0e48\u0e21\u0e0b\u0e33 \u0e2a\u0e32\u0e02\u0e32\u0e19\u0e27\u0e21\u0e34\u0e19\u0e17\u0e23\u0e4c", "opening_hours": "Mo-Su 06:00-22:00", "phone": "029449105", "website": "https://www.chokdeedimsum.com/"}}, {"type": "node", "id": 10245741621, "lat": 13.8086553, "lon": 100.6061339, "tags": {"addr:housenumber": "100/38-39", "addr:postcode": "10230", "name:en": "Big Bird Palace", "tourism": "guest_house"}}, {"type": "node", "id": 11269563729, "lat": 13.8098794, "lon": 100.6199989, "tags": {"amenity": "cafe", "brand": "\u0e04\u0e32\u0e40\u0e1f\u0e48 \u0e2d\u0e40\u0e21\u0e0b\u0e2d\u0e19", "brand:en": "Caf\u00e9 Amazon", "brand:th": "\u0e04\u0e32\u0e40\u0e1f\u0e48 \u0e2d\u0e40\u0e21\u0e0b\u0e2d\u0e19", "brand:wikidata": "Q43247503", "cuisine": "coffee_shop", "name": "\u0e04\u0e32\u0e40\u0e1f\u0e48 \u0e2d\u0e40\u0e21\u0e0b\u0e2d\u0e19", "name:en": "Caf\u00e9 Amazon", "name:th": "\u0e04\u0e32\u0e40\u0e1f\u0e48 \u0e2d\u0e40\u0e21\u0e0b\u0e2d\u0e19", "takeaway": "yes"}}, {"type": "node", "id": 11269563733, "lat": 13.8099301, "lon": 100.6200859, "tags": {"amenity": "restaurant", "cuisine": "thai", "name": "Moo & More"}}, {"type": "node", "id": 11269563756, "lat": 13.8099129, "lon": 100.6204033, "tags": {"amenity": "restaurant", "diet:meat": "yes", "name": "\u0e44\u0e08\u0e41\u0e2d\u0e49\u0e19 \u0e25\u0e39\u0e01\u0e0a\u0e34\u0e49\u0e19\u0e23\u0e30\u0e40\u0e1a\u0e34\u0e14"}}, {"type": "node", "id": 11269563757, "lat": 13.8099129, "lon": 100.6203615, "tags": {"amenity": "restaurant", "name": "\u0e01\u0e25\u0e49\u0e27\u0e22\u0e17\u0e2d\u0e14\u0e2d\u0e31\u0e21\u0e20\u0e27\u0e32"}}, {"type": "node", "id": 11269563758, "lat": 13.8099178, "lon": 100.6202637, "tags": {"amenity": "restaurant", "name": "\u0e1e\u0e31\u0e1f\u0e2a\u0e15\u0e34\u0e4a\u0e01", "name:en": "Puff Stick"}}, {"type": "node", "id": 11269563759, "lat": 13.8099178, "lon": 100.6202308, "tags": {"amenity": "restaurant", "name": "\u0e40\u0e2e\u0e35\u0e22\u0e42\u0e01\u0e4b \u0e40\u0e19\u0e37\u0e49\u0e2d\u0e42\u0e04\u0e02\u0e38\u0e19\u0e22\u0e48\u0e32\u0e07"}}, {"type": "node", "id": 11280287580, "lat": 13.846268, "lon": 100.6487146, "tags": {"amenity": "cafe", "cuisine": "coffee_shop"}}, {"type": "node", "id": 11280287582, "lat": 13.8463968, "lon": 100.648766, "tags": {"amenity": "restaurant", "name": "\u0e23\u0e32\u0e14\u0e2b\u0e19\u0e49\u0e32 \u0e40\u0e2b\u0e21\u0e37\u0e2d\u0e19\u0e1d\u0e31\u0e19"}}, {"type": "node", "id": 11280287593, "lat": 13.8471229, "lon": 100.6487405, "tags": {"amenity": "restaurant", "cuisine": "noodle", "name": "\u0e1a\u0e30\u0e2b\u0e21\u0e35\u0e48 \u0e40\u0e01\u0e35\u0e4a\u0e22\u0e27 \u0e15\u0e49\u0e21\u0e22\u0e33"}}, {"type": "node", "id": 11280287595, "lat": 13.8470743, "lon": 100.6486799, "tags": {"amenity": "cafe", "cuisine": "bubble_tea", "name": "CHA King"}}, {"type": "node", "id": 11280287597, "lat": 13.8472342, "lon": 100.6487553, "tags": {"amenity": "restaurant", "cuisine": "asian", "name": "\u0e2b\u0e49\u0e32\u0e07\u0e17\u0e2d\u0e07\u0e23\u0e32\u0e21\u0e2d\u0e34\u0e19\u0e17\u0e23\u0e32 65"}}, {"type": "node", "id": 11280287598, "lat": 13.8473388, "lon": 100.6489491, "tags": {"amenity": "restaurant"}}, {"type": "node", "id": 11296058516, "lat": 13.847872, "lon": 100.6488725, "tags": {"amenity": "restaurant", "cuisine": "thai", "name": "\u0e1c\u0e31\u0e14\u0e44\u0e17\u0e22 \u0e2b\u0e2d\u0e22\u0e17\u0e2d\u0e14"}}, {"type": "node", "id": 11296058536, "lat": 13.848898, "lon": 100.648996, "tags": {"amenity": "restaurant", "name": "\u0e15\u0e34\u0e4a\u0e01 & \u0e15\u0e48\u0e2d \u0e2d\u0e32\u0e2b\u0e32\u0e23\u0e15\u0e32\u0e21\u0e2a\u0e31\u0e48\u0e07"}}, {"type": "node", "id": 11296058537, "lat": 13.8490123, "lon": 100.6489941, "tags": {"amenity": "restaurant", "name": "\u0e23\u0e49\u0e32\u0e19\u0e14\u0e32\u0e14\u0e32\u0e23\u0e34\u0e0a"}}, {"type": "node", "id": 11296058542, "lat": 13.8496173, "lon": 100.6490101, "tags": {"amenity": "restaurant", "cuisine": "noodle", "name": "\u0e23\u0e33\u0e44\u0e17\u0e22 \u0e01\u0e4b\u0e27\u0e22\u0e40\u0e15\u0e35\u0e4b\u0e22\u0e27\u0e40\u0e23\u0e37\u0e2d"}}, {"type": "node", "id": 11358362706, "lat": 13.8499286, "lon": 100.6424791, "tags": {"amenity": "restaurant", "name": "Niku King"}}, {"type": "node", "id": 11384919667, "lat": 13.8198911, "lon": 100.6425489, "tags": {"addr:city": "\u0e41\u0e02\u0e27\u0e07\u0e19\u0e27\u0e25\u0e08\u0e31\u0e19\u0e17\u0e23\u0e4c", "addr:housenumber": "222", "addr:postcode": "10230", "addr:street": "\u0e16\u0e19\u0e19\u0e04\u0e25\u0e2d\u0e07\u0e25\u0e33\u0e40\u0e08\u0e35\u0e22\u0e01", "amenity": "cafe", "cuisine": "coffee_shop", "internet_access": "yes", "internet_access:fee": "customers", "name": "EP.1 COFFEE & ROASTERY", "opening_hours": "Mo-Sa 08:00-18:00", "outdoor_seating": "yes", "phone": "0900904222", "website": "https://maps.app.goo.gl/9XnypuJQqTbr54iN6"}}, {"type": "node", "id": 11478481310, "lat": 13.8088703, "lon": 100.6177644, "tags": {"addr:city": "\u0e01\u0e23\u0e38\u0e07\u0e40\u0e17\u0e1e\u0e21\u0e2b\u0e32\u0e19\u0e04\u0e23", "addr:housenumber": "BEANHOUND by Greyhound Cafe - \u0e41\u0e21\u0e47\u0e04\u0e42\u0e04\u0e23 \u0e1b\u0e23\u0e30\u0e14\u0e34\u0e29\u0e10\u0e4c\u0e21\u0e19\u0e39\u0e18\u0e23\u0e23\u0e21 \u0e40\u0e25\u0e02\u0e17\u0e35\u0e48 173", "addr:postcode": "10230", "addr:street": "\u0e16\u0e19\u0e19\u0e1b\u0e23\u0e30\u0e14\u0e34\u0e29\u0e10\u0e4c\u0e21\u0e19\u0e39\u0e18\u0e23\u0e23\u0e21", "amenity": "cafe", "brand": "BEANHOUND by Greyhound Cafe", "cuisine": "coffee_shop", "internet_access": "no", "name": "BEANHOUND by Greyhound Cafe - \u0e41\u0e21\u0e47\u0e04\u0e42\u0e04\u0e23 \u0e1b\u0e23\u0e30\u0e14\u0e34\u0e29\u0e10\u0e4c\u0e21\u0e19\u0e39\u0e18\u0e23\u0e23\u0e21", "name:th": "BEANHOUND by Greyhound Cafe - \u0e41\u0e21\u0e47\u0e04\u0e42\u0e04\u0e23 \u0e1b\u0e23\u0e30\u0e14\u0e34\u0e29\u0e10\u0e4c\u0e21\u0e19\u0e39\u0e18\u0e23\u0e23\u0e21", "opening_hours": "Mo-Su 07:00-21:00", "phone": "+66 63 079 0875", "website": "https://www.facebook.com/beanhoundcoffee/"}}, {"type": "node", "id": 11601019569, "lat": 13.8208575, "lon": 100.6242239, "tags": {"amenity": "restaurant", "diet:vegan": "yes", "diet:vegetarian": "yes", "name:en": "Kind Cafe", "opening_hours": "We-Mo 10:00-19:00"}}, {"type": "node", "id": 11675957770, "lat": 13.8403379, "lon": 100.6267537, "tags": {"name": "\u0e1a\u0e49\u0e32\u0e19\u0e08\u0e38\u0e4b\u0e21 \u0e01\u0e17\u0e21", "tourism": "attraction"}}, {"type": "node", "id": 12246199524, "lat": 13.8494202, "lon": 100.6186038, "tags": {"amenity": "place_of_worship", "denomination": "thai_mahanikaya", "name": "\u0e27\u0e31\u0e14\u0e44\u0e15\u0e23\u0e23\u0e31\u0e15\u0e19\u0e32\u0e23\u0e32\u0e21", "name:en": "Wat Trai Rattanaram", "name:th": "\u0e27\u0e31\u0e14\u0e44\u0e15\u0e23\u0e23\u0e31\u0e15\u0e19\u0e32\u0e23\u0e32\u0e21", "old_name:th": "\u0e27\u0e31\u0e14\u0e2a\u0e32\u0e21\u0e02\u0e32", "religion": "buddhist", "wikidata": "Q100698793", "wikipedia": "th:\u0e27\u0e31\u0e14\u0e44\u0e15\u0e23\u0e23\u0e31\u0e15\u0e19\u0e32\u0e23\u0e32\u0e21 (\u0e01\u0e23\u0e38\u0e07\u0e40\u0e17\u0e1e\u0e21\u0e2b\u0e32\u0e19\u0e04\u0e23)"}}, {"type": "node", "id": 12397908597, "lat": 13.8192481, "lon": 100.6257019, "tags": {"amenity": "cafe", "brand": "Starbucks", "brand:wikidata": "Q37158", "cuisine": "coffee_shop", "name": "Starbucks", "official_name": "Starbucks Coffee", "takeaway": "yes"}}, {"type": "node", "id": 12444832614, "lat": 13.8380402, "lon": 100.6355728, "tags": {"amenity": "cafe", "brand": "\u0e04\u0e32\u0e40\u0e1f\u0e48 \u0e2d\u0e40\u0e21\u0e0b\u0e2d\u0e19", "brand:en": "Caf\u00e9 Amazon", "brand:th": "\u0e04\u0e32\u0e40\u0e1f\u0e48 \u0e2d\u0e40\u0e21\u0e0b\u0e2d\u0e19", "brand:wikidata": "Q43247503", "cuisine": "coffee_shop", "name": "\u0e04\u0e32\u0e40\u0e1f\u0e48 \u0e2d\u0e40\u0e21\u0e0b\u0e2d\u0e19", "name:en": "Caf\u00e9 Amazon", "name:th": "\u0e04\u0e32\u0e40\u0e1f\u0e48 \u0e2d\u0e40\u0e21\u0e0b\u0e2d\u0e19", "takeaway": "yes"}}, {"type": "node", "id": 12444832641, "lat": 13.8280458, "lon": 100.6400324, "tags": {"amenity": "marketplace", "name": "\u0e15\u0e25\u0e32\u0e14\u0e19\u0e27\u0e25\u0e08\u0e31\u0e19\u0e17\u0e23\u0e4c 38"}}, {"type": "node", "id": 12444832646, "lat": 13.8266541, "lon": 100.6406427, "tags": {"amenity": "restaurant", "brand": "Pizza Hut", "brand:wikidata": "Q191615", "cuisine": "pizza", "departures_board": "no", "name": "Pizza Hut", "shelter": "yes"}}, {"type": "node", "id": 12745895479, "lat": 13.8035407, "lon": 100.6146545, "tags": {"addr:district": "\u0e25\u0e32\u0e14\u0e1e\u0e23\u0e49\u0e32\u0e27", "addr:housenumber": "69/3, FL.1", "addr:place": "Central Eastville", "addr:postcode": "10230", "addr:province": "\u0e01\u0e23\u0e38\u0e07\u0e40\u0e17\u0e1e\u0e21\u0e2b\u0e32\u0e19\u0e04\u0e23", "addr:street": "\u0e16\u0e19\u0e19\u0e1b\u0e23\u0e30\u0e14\u0e34\u0e29\u0e10\u0e4c\u0e21\u0e19\u0e39\u0e18\u0e23\u0e23\u0e21", "addr:subdistrict": "\u0e25\u0e32\u0e14\u0e1e\u0e23\u0e49\u0e32\u0e27", "amenity": "cafe", "bar": "yes", "branch": "Central Eastville", "check_date": "2025-08-09", "check_date:currency:XBT": "2025-08-09", "contact:facebook": "gattacafe", "contact:instagram": "gattacafe", "cuisine": "coffee_shop", "currency:XBT": "yes", "name": "Gatta Caf\u00e9 - Central Eastville", "opening_hours": "Mo-Fr 10:30-21:30; Sa-Su 10:00-21:30", "payment:lightning": "yes", "payment:lightning_contactless": "no", "payment:onchain": "no", "phone": "+66 84 252 8922", "survey:date": "2025-04-11", "website": "https://www.gattacafe.com/"}}, {"type": "node", "id": 12852650548, "lat": 13.8400535, "lon": 100.6337755, "tags": {"addr:district": "\u0e40\u0e02\u0e15\u0e25\u0e32\u0e14\u0e1e\u0e23\u0e49\u0e32\u0e27", "addr:housenumber": "21", "addr:place": "\u0e23\u0e32\u0e21\u0e2d\u0e34\u0e19\u0e17\u0e23\u0e3234", "addr:postcode": "10230", "addr:province": "\u0e01\u0e23\u0e38\u0e07\u0e40\u0e17\u0e1e\u0e21\u0e2b\u0e32\u0e19\u0e04\u0e23", "addr:street": "\u0e0b\u0e2d\u0e22\u0e2d\u0e22\u0e39\u0e48\u0e40\u0e22\u0e47\u0e19 1", "addr:subdistrict": "\u0e25\u0e32\u0e14\u0e1e\u0e23\u0e49\u0e32\u0e27", "brand": "\u0e1a\u0e23\u0e34\u0e01\u0e32\u0e23", "email": "pakdresort3@gmail.com", "internet_access": "yes", "internet_access:fee": "no", "name": "\u0e1e\u0e31\u0e01\u0e14\u0e35\u0e23\u0e35\u0e2a\u0e2d\u0e23\u0e4c\u0e17", "phone": "0639962830", "rooms": "27", "tourism": "hotel"}}, {"type": "node", "id": 13245234499, "lat": 13.842958, "lon": 100.6406901, "tags": {"amenity": "cafe"}}, {"type": "way", "id": 205873178, "nodes": [2158601703, 2158601716, 2158601719, 2158601698, 2158601704, 2158601703], "tags": {"amenity": "restaurant", "name": "Waterside Resort Restaurant"}}, {"type": "way", "id": 242431544, "nodes": [2499049178, 12408912399, 12408933601, 2499049181, 2499049178], "tags": {"amenity": "marketplace"}}, {"type": "way", "id": 468345132, "nodes": [4628763068, 4628763070, 4628763071, 4628763067, 4628763068], "tags": {"amenity": "marketplace", "building": "yes", "name": "\u0e15\u0e25\u0e32\u0e14\u0e42\u0e1e\u0e18\u0e34\u0e4c\u0e2a\u0e38\u0e27\u0e23\u0e23\u0e13"}}, {"type": "way", "id": 468346244, "nodes": [4628774599, 4628774598, 4628774594, 11255953365, 11255953364, 11255953363, 11255953362, 4628774596, 4628774599], "tags": {"amenity": "marketplace", "building": "yes", "name": "\u0e15\u0e25\u0e32\u0e14\u0e42\u0e1e\u0e18\u0e34\u0e4c\u0e2a\u0e38\u0e27\u0e23\u0e23\u0e13", "source": "http://www.mapillary.com/map/im/xGuCQKT6DUKuxpNQLaBKyw/photo"}}, {"type": "way", "id": 555897429, "nodes": [10978739927, 449817645, 449817644, 449817640, 449817636, 8012137527, 449817634, 3870108011, 3870108006, 1692108883, 10978739927], "tags": {"leisure": "park", "name": "The Pud English garden"}}, {"type": "way", "id": 557709795, "nodes": [5378427601, 3788808696, 1692427834, 1692427828, 5378427602, 5378427601], "tags": {"leisure": "park", "name": "\u0e2a\u0e27\u0e19\u0e40\u0e2a\u0e19\u0e32", "name:en": "Sena Park", "name:th": "\u0e2a\u0e27\u0e19\u0e40\u0e2a\u0e19\u0e32"}}, {"type": "way", "id": 741876060, "nodes": [6944982135, 6945256616, 6945102092, 6944982136, 6944982137, 6944982138, 6944982135], "tags": {"amenity": "restaurant", "building": "yes"}}, {"type": "way", "id": 1216274723, "nodes": [11269563748, 11269563749, 11269563750, 11269563751, 11269563748], "tags": {"addr:district": "\u0e1a\u0e32\u0e07\u0e01\u0e30\u0e1b\u0e34", "addr:postcode": "10240", "addr:province": "\u0e01\u0e23\u0e38\u0e07\u0e40\u0e17\u0e1e\u0e21\u0e2b\u0e32\u0e19\u0e04\u0e23", "addr:subdistrict": "\u0e04\u0e25\u0e2d\u0e07\u0e08\u0e31\u0e48\u0e19", "amenity": "cafe", "brand": "Black Canyon", "brand:wikidata": "Q125870828", "building": "yes", "cuisine": "coffee_shop", "name": "Black Canyon", "takeaway": "yes"}}, {"type": "way", "id": 1216274725, "nodes": [11269563760, 11269563761, 11269563762, 11269563763, 11269563760], "tags": {"addr:district": "\u0e1a\u0e32\u0e07\u0e01\u0e30\u0e1b\u0e34", "addr:postcode": "10240", "addr:province": "\u0e01\u0e23\u0e38\u0e07\u0e40\u0e17\u0e1e\u0e21\u0e2b\u0e32\u0e19\u0e04\u0e23", "addr:subdistrict": "\u0e04\u0e25\u0e2d\u0e07\u0e08\u0e31\u0e48\u0e19", "amenity": "cafe", "brand": "Starbucks", "brand:wikidata": "Q37158", "building": "yes", "cuisine": "coffee_shop", "name": "Starbucks", "official_name": "Starbucks Coffee", "takeaway": "yes"}}, {"type": "way", "id": 1217419683, "nodes": [11280287587, 11280287588, 11280287589, 11280287590, 11280287591, 11280287587], "tags": {"addr:district": "\u0e1a\u0e32\u0e07\u0e40\u0e02\u0e19", "addr:postcode": "10220", "addr:province": "\u0e01\u0e23\u0e38\u0e07\u0e40\u0e17\u0e1e\u0e21\u0e2b\u0e32\u0e19\u0e04\u0e23", "addr:subdistrict": "\u0e17\u0e48\u0e32\u0e41\u0e23\u0e49\u0e07", "building": "yes", "name": "\u0e40\u0e2d\u0e2a\u0e40\u0e2d\u0e47\u0e19 \u0e2d\u0e1e\u0e32\u0e23\u0e4c\u0e17\u0e40\u0e21\u0e49\u0e19\u0e17\u0e4c", "name:en": "SN Apartment", "name:th": "\u0e40\u0e2d\u0e2a\u0e40\u0e2d\u0e47\u0e19 \u0e2d\u0e1e\u0e32\u0e23\u0e4c\u0e17\u0e40\u0e21\u0e49\u0e19\u0e17\u0e4c", "tourism": "apartment"}}, {"type": "way", "id": 1224793866, "nodes": [11358362697, 11358362698, 11358362699, 11358362700, 11358362697], "tags": {"addr:district": "\u0e1a\u0e32\u0e07\u0e40\u0e02\u0e19", "addr:postcode": "10220", "addr:province": "\u0e01\u0e23\u0e38\u0e07\u0e40\u0e17\u0e1e\u0e21\u0e2b\u0e32\u0e19\u0e04\u0e23", "addr:subdistrict": "\u0e17\u0e48\u0e32\u0e41\u0e23\u0e49\u0e07", "amenity": "cafe", "building": "yes", "name": "Hiro Keki"}}, {"type": "way", "id": 1224793867, "nodes": [11358362701, 11358362702, 11358362703, 11358362704, 11358362705, 11358362701], "tags": {"addr:district": "\u0e1a\u0e32\u0e07\u0e40\u0e02\u0e19", "addr:postcode": "10220", "addr:province": "\u0e01\u0e23\u0e38\u0e07\u0e40\u0e17\u0e1e\u0e21\u0e2b\u0e32\u0e19\u0e04\u0e23", "addr:subdistrict": "\u0e17\u0e48\u0e32\u0e41\u0e23\u0e49\u0e07", "amenity": "restaurant", "building": "yes", "cuisine": "sushi", "name": "Sushi Hiro"}}, {"type": "way", "id": 1225025801, "nodes": [11360383284, 11360383285, 11360383286, 11360383287, 11360383284], "tags": {"addr:district": "\u0e1a\u0e32\u0e07\u0e40\u0e02\u0e19", "addr:postcode": "10220", "addr:province": "\u0e01\u0e23\u0e38\u0e07\u0e40\u0e17\u0e1e\u0e21\u0e2b\u0e32\u0e19\u0e04\u0e23", "addr:subdistrict": "\u0e17\u0e48\u0e32\u0e41\u0e23\u0e49\u0e07", "building": "yes", "name": "ML Mansion", "tourism": "apartment"}}, {"type": "way", "id": 1225025802, "nodes": [11360383288, 11360383289, 11360383290, 11360383291, 11360383288], "tags": {"addr:district": "\u0e1a\u0e32\u0e07\u0e40\u0e02\u0e19", "addr:postcode": "10220", "addr:province": "\u0e01\u0e23\u0e38\u0e07\u0e40\u0e17\u0e1e\u0e21\u0e2b\u0e32\u0e19\u0e04\u0e23", "addr:subdistrict": "\u0e17\u0e48\u0e32\u0e41\u0e23\u0e49\u0e07", "amenity": "cafe", "building": "yes", "cuisine": "coffee_shop"}}, {"type": "way", "id": 1225025803, "nodes": [11360383292, 11360383293, 11360383294, 11360383295, 11360383292], "tags": {"addr:district": "\u0e1a\u0e32\u0e07\u0e40\u0e02\u0e19", "addr:postcode": "10220", "addr:province": "\u0e01\u0e23\u0e38\u0e07\u0e40\u0e17\u0e1e\u0e21\u0e2b\u0e32\u0e19\u0e04\u0e23", "addr:subdistrict": "\u0e17\u0e48\u0e32\u0e41\u0e23\u0e49\u0e07", "amenity": "restaurant", "building": "yes"}}, {"type": "way", "id": 1226419516, "nodes": [5354453021, 11372952989, 11372952990, 11372952991, 11372952992, 11372952993, 11372952994, 11372952995, 11372952996, 11372952997, 11372952998, 11372952999, 11372953000, 11372953001, 11372953002, 11372953003, 11372953004, 11372953005, 11372953006, 11372953007, 11372953008, 11372953009, 11372953010, 11372953011, 11372953012, 11372953013, 11372953014, 11372953015, 11372953016, 11372953017, 11372953018, 11372953019, 11372953020, 11372953021, 11372953022, 11372953023, 5354453021], "tags": {"addr:housenumber": "234", "addr:street": "\u0e16\u0e19\u0e19\u0e1b\u0e23\u0e30\u0e14\u0e34\u0e29\u0e10\u0e4c\u0e21\u0e19\u0e39\u0e18\u0e23\u0e23\u0e21", "air_conditioning": "yes", "building": "yes", "email": "front@siamgemsheritage.com", "fax": "+662-949-9526", "fee": "yes", "museum": "art", "name": "\u0e1e\u0e34\u0e1e\u0e34\u0e18\u0e20\u0e31\u0e13\u0e11\u0e4c\u0e2d\u0e31\u0e0d\u0e21\u0e13\u0e35\u0e2a\u0e22\u0e32\u0e21\u0e40\u0e08\u0e21\u0e2a\u0e4c\u0e40\u0e2e\u0e2d\u0e23\u0e34\u0e40\u0e17\u0e08", "name:en": "Siam Gems Heritage", "name:th": "\u0e1e\u0e34\u0e1e\u0e34\u0e18\u0e20\u0e31\u0e13\u0e11\u0e4c\u0e2d\u0e31\u0e0d\u0e21\u0e13\u0e35\u0e2a\u0e22\u0e32\u0e21\u0e40\u0e08\u0e21\u0e2a\u0e4c\u0e40\u0e2e\u0e2d\u0e23\u0e34\u0e40\u0e17\u0e08", "name:zh": "\u65b0\u7f57\u73e0\u5b9d", "phone": "+66 2766 9500", "shop": "jewelry", "tourism": "museum", "website": "https://siamgemsheritage.com/"}}, {"type": "way", "id": 1226419529, "nodes": [11372955778, 11372955779, 11372955780, 11372955781, 11372955782, 11372955783, 11372955784, 11372955785, 11372955778], "tags": {"amenity": "cafe", "building": "yes", "cuisine": "bubble_tea", "name": "\u0e0a\u0e323\u0e2b\u0e21\u0e32", "name:en": "Cha3Ma", "name:th": "\u0e0a\u0e323\u0e2b\u0e21\u0e32"}}, {"type": "way", "id": 1228223229, "nodes": [11389685391, 11389685393, 11389685394, 11389685392, 11389685391], "tags": {"addr:district": "\u0e04\u0e31\u0e19\u0e19\u0e32\u0e22\u0e32\u0e27", "addr:postcode": "10230", "addr:province": "\u0e01\u0e23\u0e38\u0e07\u0e40\u0e17\u0e1e\u0e21\u0e2b\u0e32\u0e19\u0e04\u0e23", "addr:subdistrict": "\u0e23\u0e32\u0e21\u0e2d\u0e34\u0e19\u0e17\u0e23\u0e32", "amenity": "restaurant", "building": "yes", "name": "\u0e23\u0e49\u0e32\u0e22\u0e41\u0e0b\u0e48\u0e1a \u0e14\u0e34\u0e19\u0e40\u0e19\u0e2d\u0e23\u0e4c"}}, {"type": "way", "id": 1313952865, "nodes": [12161735315, 12161735316, 12161735317, 12161735318, 12161735319, 12161735320, 12161735321, 12161735322, 12161735323, 12161735324, 12161735325, 12161735326, 12161735327, 12161735328, 12161735329, 12161735330, 12161735331, 12161735332, 12161735333, 12161735334, 12161735335, 12161735336, 12161735337, 12161735338, 12161735339, 12161735340, 12161735341, 12161735342, 12161735343, 12161735344, 12161735315], "tags": {"amenity": "marketplace", "name": "\u0e15\u0e25\u0e32\u0e14\u0e40\u0e25\u0e35\u0e22\u0e1a\u0e17\u0e32\u0e07\u0e14\u0e48\u0e27\u0e19 \u0e23\u0e32\u0e21\u0e2d\u0e34\u0e19\u0e17\u0e23\u0e32", "name:en": "Liab Duan Night Market"}}, {"type": "way", "id": 1346847035, "nodes": [1890998274, 12458593944, 12458593945, 12458593946, 12458593947, 12458593948, 12458593949, 12458593950, 12458593951, 1890998274], "tags": {"amenity": "place_of_worship", "denomination": "thai_mahanikaya", "name": "\u0e27\u0e31\u0e14\u0e25\u0e32\u0e14\u0e1b\u0e25\u0e32\u0e40\u0e04\u0e49\u0e32", "name:en": "Wat Latplakhao", "name:th": "\u0e27\u0e31\u0e14\u0e25\u0e32\u0e14\u0e1b\u0e25\u0e32\u0e40\u0e04\u0e49\u0e32", "religion": "buddhist", "website": "https://www.watladplakhao.com", "wikidata": "Q98114647", "wikipedia": "th:\u0e27\u0e31\u0e14\u0e25\u0e32\u0e14\u0e1b\u0e25\u0e32\u0e40\u0e04\u0e49\u0e32 (\u0e01\u0e23\u0e38\u0e07\u0e40\u0e17\u0e1e\u0e21\u0e2b\u0e32\u0e19\u0e04\u0e23)"}}, {"type": "way", "id": 1365750417, "nodes": [12279532656, 12647710458, 12647710459, 12647710460, 12647710461, 12647710462, 12647710463, 12647710464, 12647710465, 12647710466, 12647710467, 12647710468, 12647710469, 12279532656], "tags": {"amenity": "place_of_worship", "denomination": "thai_mahanikaya", "name": "\u0e27\u0e31\u0e14\u0e1a\u0e32\u0e07\u0e40\u0e15\u0e22", "name:en": "Wat Bang Toei", "name:th": "\u0e27\u0e31\u0e14\u0e1a\u0e32\u0e07\u0e40\u0e15\u0e22", "religion": "buddhist", "wikidata": "Q16004313", "wikipedia": "th:\u0e27\u0e31\u0e14\u0e1a\u0e32\u0e07\u0e40\u0e15\u0e22"}}, {"type": "way", "id": 1390451751, "nodes": [12871102516, 12871102514, 12871102513, 12871102519, 12871102520, 12871102521, 12871102522, 12871102523, 12871102516], "tags": {"amenity": "place_of_worship", "denomination": "thai_mahanikaya", "name": "\u0e27\u0e31\u0e14\u0e2a\u0e32\u0e04\u0e23\u0e2a\u0e38\u0e48\u0e19\u0e1b\u0e23\u0e30\u0e0a\u0e32\u0e2a\u0e23\u0e23\u0e04\u0e4c", "name:en": "Wat Sakhon Sun Pracha San", "name:th": "\u0e27\u0e31\u0e14\u0e2a\u0e32\u0e04\u0e23\u0e2a\u0e38\u0e48\u0e19\u0e1b\u0e23\u0e30\u0e0a\u0e32\u0e2a\u0e23\u0e23\u0e04\u0e4c", "religion": "buddhist", "wikidata": "Q100698866", "wikipedia": "th:\u0e27\u0e31\u0e14\u0e2a\u0e32\u0e04\u0e23\u0e2a\u0e38\u0e48\u0e19\u0e1b\u0e23\u0e30\u0e0a\u0e32\u0e2a\u0e23\u0e23\u0e04\u0e4c"}}, {"type": "way", "id": 1413558425, "nodes": [12990311138, 12990311139, 12990311140, 12990311141, 12990311142, 12990311143, 12990311144, 12990311145, 12990311146, 12990311147, 12990311148, 12990311149, 12990311150, 12990311151, 12990311152, 12990311153, 12990311154, 12990311166, 12990311155, 12990311156, 12990311157, 12990311158, 12990311159, 12990311160, 12990311161, 12990311162, 12990311163, 12990311164, 12990311165, 12990311138], "tags": {"amenity": "place_of_worship", "area": "yes", "denomination": "thai_mahanikaya", "name": "\u0e27\u0e31\u0e14\u0e19\u0e27\u0e25\u0e08\u0e31\u0e19\u0e17\u0e23\u0e4c", "name:en": "Wat Nuan Chan", "name:th": "\u0e27\u0e31\u0e14\u0e19\u0e27\u0e25\u0e08\u0e31\u0e19\u0e17\u0e23\u0e4c", "old_name:th": "\u0e27\u0e31\u0e14\u0e1a\u0e32\u0e07\u0e02\u0e27\u0e14", "religion": "buddhist", "wikidata": "Q99542872", "wikimedia_commons": "Category:Wat_Nuan_Chan,_Bangkok", "wikipedia": "th:\u0e27\u0e31\u0e14\u0e19\u0e27\u0e25\u0e08\u0e31\u0e19\u0e17\u0e23\u0e4c (\u0e01\u0e23\u0e38\u0e07\u0e40\u0e17\u0e1e\u0e21\u0e2b\u0e32\u0e19\u0e04\u0e23)"}}, {"type": "way", "id": 1413871240, "nodes": [12992823254, 12992823255, 12992823256, 12992823257, 12992823258, 12992823259, 12992823260, 12992823261, 12992823262, 12992823263, 12992823264, 12992823265, 12992823266, 12992823267, 12992823268, 12992823269, 12992823270, 12992823271, 12992823272, 12992823273, 12992823254], "tags": {"amenity": "place_of_worship", "area": "yes", "denomination": "thai_mahanikaya", "name": "\u0e27\u0e31\u0e14\u0e1a\u0e38\u0e0d\u0e28\u0e23\u0e35\u0e21\u0e38\u0e19\u0e35\u0e01\u0e23\u0e13\u0e4c", "name:en": "Wat Bun Si Munikon", "name:th": "\u0e27\u0e31\u0e14\u0e1a\u0e38\u0e0d\u0e28\u0e23\u0e35\u0e21\u0e38\u0e19\u0e35\u0e01\u0e23\u0e13\u0e4c", "religion": "buddhist", "wikidata": "Q100698850", "wikipedia": "th:\u0e27\u0e31\u0e14\u0e1a\u0e38\u0e0d\u0e28\u0e23\u0e35\u0e21\u0e38\u0e19\u0e35\u0e01\u0e23\u0e13\u0e4c"}}, {"type": "node", "id": 11269563760, "lat": 13.8033616, "lon": 100.6179706}, {"type": "node", "id": 11269563761, "lat": 13.8032175, "lon": 100.6179928}, {"type": "node", "id": 11269563762, "lat": 13.8032384, "lon": 100.6180779}, {"type": "node", "id": 11269563763, "lat": 13.8033515, "lon": 100.6180772}, {"type": "node", "id": 12279532656, "lat": 13.8029008, "lon": 100.6489594}, {"type": "node", "id": 12647710458, "lat": 13.8020595, "lon": 100.6491365}, {"type": "node", "id": 12647710459, "lat": 13.8019996, "lon": 100.6489299}, {"type": "node", "id": 12647710460, "lat": 13.8015177, "lon": 100.6490077}, {"type": "node", "id": 12647710461, "lat": 13.8016349, "lon": 100.6492598}, {"type": "node", "id": 12647710462, "lat": 13.8017235, "lon": 100.6492491}, {"type": "node", "id": 12647710463, "lat": 13.8018146, "lon": 100.6498714}, {"type": "node", "id": 12647710464, "lat": 13.8014396, "lon": 100.6498848}, {"type": "node", "id": 12647710469, "lat": 13.8032368, "lon": 100.6500806}, {"type": "node", "id": 12647710465, "lat": 13.8019058, "lon": 100.6507726}, {"type": "node", "id": 12647710466, "lat": 13.802036, "lon": 100.6506948}, {"type": "node", "id": 12647710467, "lat": 13.8025622, "lon": 100.6505124}, {"type": "node", "id": 12647710468, "lat": 13.8030102, "lon": 100.6503113}, {"type": "node", "id": 1692427828, "lat": 13.8273151, "lon": 100.6084915}, {"type": "node", "id": 1692427834, "lat": 13.8273758, "lon": 100.6098322}, {"type": "node", "id": 3788808696, "lat": 13.8287338, "lon": 100.6097738}, {"type": "node", "id": 5378427601, "lat": 13.8287342, "lon": 100.6084663}, {"type": "node", "id": 5378427602, "lat": 13.8273706, "lon": 100.6084905}, {"type": "node", "id": 12458593944, "lat": 13.8460367, "lon": 100.604231}, {"type": "node", "id": 12458593945, "lat": 13.8463214, "lon": 100.6039624}, {"type": "node", "id": 12458593946, "lat": 13.8465101, "lon": 100.6037257}, {"type": "node", "id": 12458593947, "lat": 13.8466164, "lon": 100.6038706}, {"type": "node", "id": 12458593948, "lat": 13.8468223, "lon": 100.6037398}, {"type": "node", "id": 1890998274, "lat": 13.8456868, "lon": 100.6054252}, {"type": "node", "id": 12458593949, "lat": 13.8473986, "lon": 100.6047185}, {"type": "node", "id": 12458593950, "lat": 13.8471217, "lon": 100.6052237}, {"type": "node", "id": 12458593951, "lat": 13.8468326, "lon": 100.6056902}, {"type": "node", "id": 11269563748, "lat": 13.8099168, "lon": 100.6204789}, {"type": "node", "id": 11269563749, "lat": 13.8099194, "lon": 100.6205755}, {"type": "node", "id": 11269563750, "lat": 13.8098498, "lon": 100.6205775}, {"type": "node", "id": 11269563751, "lat": 13.8098472, "lon": 100.6204809}, {"type": "node", "id": 12871102513, "lat": 13.8268514, "lon": 100.6162564}, {"type": "node", "id": 12871102514, "lat": 13.8263497, "lon": 100.6162604}, {"type": "node", "id": 12871102519, "lat": 13.8274259, "lon": 100.6162623}, {"type": "node", "id": 12871102520, "lat": 13.8274271, "lon": 100.6170664}, {"type": "node", "id": 12871102516, "lat": 13.8263498, "lon": 100.6175839}, {"type": "node", "id": 12871102521, "lat": 13.8274233, "lon": 100.6176033}, {"type": "node", "id": 12871102522, "lat": 13.8270492, "lon": 100.6175693}, {"type": "node", "id": 12871102523, "lat": 13.826673, "lon": 100.6175756}, {"type": "node", "id": 449817634, "lat": 13.8212483, "lon": 100.6279555}, {"type": "node", "id": 449817636, "lat": 13.8212841, "lon": 100.6278156}, {"type": "node", "id": 449817640, "lat": 13.8213675, "lon": 100.6275493}, {"type": "node", "id": 449817644, "lat": 13.821529, "lon": 100.6271539}, {"type": "node", "id": 449817645, "lat": 13.8216292, "lon": 100.6269464}, {"type": "node", "id": 1692108883, "lat": 13.8199293, "lon": 100.6263124}, {"type": "node", "id": 3870108006, "lat": 13.8198967, "lon": 100.6277277}, {"type": "node", "id": 3870108011, "lat": 13.8205189, "lon": 100.6277772}, {"type": "node", "id": 6944982135, "lat": 13.8216452, "lon": 100.627468}, {"type": "node", "id": 6944982136, "lat": 13.8216109, "lon": 100.6275563}, {"type": "node", "id": 6944982137, "lat": 13.8215277, "lon": 100.6275355}, {"type": "node", "id": 6944982138, "lat": 13.8215477, "lon": 100.6274398}, {"type": "node", "id": 6945102092, "lat": 13.8217229, "lon": 100.6275697}, {"type": "node", "id": 6945256616, "lat": 13.8217428, "lon": 100.6275044}, {"type": "node", "id": 8012137527, "lat": 13.8212639, "lon": 100.6278468}, {"type": "node", "id": 10978739927, "lat": 13.8217221, "lon": 100.6267318}, {"type": "node", "id": 2158601698, "lat": 13.8292441, "lon": 100.6322912}, {"type": "node", "id": 2158601703, "lat": 13.8286794, "lon": 100.6319747}, {"type": "node", "id": 2158601704, "lat": 13.8290487, "lon": 100.6323046}, {"type": "node", "id": 2158601716, "lat": 13.8286846, "lon": 100.6308401}, {"type": "node", "id": 2158601719, "lat": 13.82918, "lon": 100.6308197}, {"type": "node", "id": 5354453021, "lat": 13.8360361, "lon": 100.633263}, {"type": "node", "id": 11372952989, "lat": 13.8359784, "lon": 100.6332899}, {"type": "node", "id": 11372952990, "lat": 13.8359468, "lon": 100.6333267}, {"type": "node", "id": 11372952991, "lat": 13.8358658, "lon": 100.633362}, {"type": "node", "id": 11372952992, "lat": 13.8358067, "lon": 100.6333903}, {"type": "node", "id": 11372952993, "lat": 13.8354249, "lon": 100.6334667}, {"type": "node", "id": 11372952994, "lat": 13.8353947, "lon": 100.6334823}, {"type": "node", "id": 11372952995, "lat": 13.8353892, "lon": 100.6335247}, {"type": "node", "id": 11372952996, "lat": 13.8354441, "lon": 100.6338232}, {"type": "node", "id": 11372952997, "lat": 13.8354675, "lon": 100.6338501}, {"type": "node", "id": 11372952998, "lat": 13.8352642, "lon": 100.6338883}, {"type": "node", "id": 11372952999, "lat": 13.8351845, "lon": 100.6334681}, {"type": "node", "id": 11372953000, "lat": 13.8351007, "lon": 100.6334837}, {"type": "node", "id": 11372953001, "lat": 13.8352395, "lon": 100.6343013}, {"type": "node", "id": 11372953002, "lat": 13.8358617, "lon": 100.6341655}, {"type": "node", "id": 11372953003, "lat": 13.8358507, "lon": 100.6340934}, {"type": "node", "id": 11372953004, "lat": 13.835918, "lon": 100.6340821}, {"type": "node", "id": 11372953005, "lat": 13.8359345, "lon": 100.6341613}, {"type": "node", "id": 11372953006, "lat": 13.8362009, "lon": 100.6341019}, {"type": "node", "id": 11372953007, "lat": 13.8362284, "lon": 100.6340608}, {"type": "node", "id": 11372953008, "lat": 13.8362586, "lon": 100.6340354}, {"type": "node", "id": 11372953009, "lat": 13.836282, "lon": 100.6340043}, {"type": "node", "id": 11372953010, "lat": 13.836282, "lon": 100.6339689}, {"type": "node", "id": 11372953011, "lat": 13.8362545, "lon": 100.6337864}, {"type": "node", "id": 11372953012, "lat": 13.8362545, "lon": 100.6337482}, {"type": "node", "id": 11372953013, "lat": 13.8362696, "lon": 100.6337213}, {"type": "node", "id": 11372953014, "lat": 13.8362696, "lon": 100.6336902}, {"type": "node", "id": 11372953015, "lat": 13.836249, "lon": 100.6336619}, {"type": "node", "id": 11372953016, "lat": 13.8362367, "lon": 100.6336379}, {"type": "node", "id": 11372953017, "lat": 13.8362078, "lon": 100.6334724}, {"type": "node", "id": 11372953018, "lat": 13.8362174, "lon": 100.6334243}, {"type": "node", "id": 11372953019, "lat": 13.8362202, "lon": 100.6333762}, {"type": "node", "id": 11372953020, "lat": 13.8362078, "lon": 100.6333267}, {"type": "node", "id": 11372953021, "lat": 13.8361831, "lon": 100.6332899}, {"type": "node", "id": 11372953022, "lat": 13.8361433, "lon": 100.6332672}, {"type": "node", "id": 11372953023, "lat": 13.8360993, "lon": 100.6332531}, {"type": "node", "id": 11372955778, "lat": 13.8350411, "lon": 100.6324968}, {"type": "node", "id": 11372955779, "lat": 13.8349817, "lon": 100.6324649}, {"type": "node", "id": 11372955780, "lat": 13.8349502, "lon": 100.6325273}, {"type": "node", "id": 11372955781, "lat": 13.8349234, "lon": 100.632513}, {"type": "node", "id": 11372955782, "lat": 13.8348917, "lon": 100.6325757}, {"type": "node", "id": 11372955783, "lat": 13.8349538, "lon": 100.632609}, {"type": "node", "id": 11372955784, "lat": 13.8349846, "lon": 100.632548}, {"type": "node", "id": 11372955785, "lat": 13.8350087, "lon": 100.6325609}, {"type": "node", "id": 12990311138, "lat": 13.8367761, "lon": 100.6367172}, {"type": "node", "id": 12990311139, "lat": 13.83679, "lon": 100.6367228}, {"type": "node", "id": 12990311140, "lat": 13.8368113, "lon": 100.6367081}, {"type": "node", "id": 12990311141, "lat": 13.8368461, "lon": 100.63675}, {"type": "node", "id": 12990311142, "lat": 13.8369126, "lon": 100.6368556}, {"type": "node", "id": 12990311143, "lat": 13.8369291, "lon": 100.6368756}, {"type": "node", "id": 12990311144, "lat": 13.83703, "lon": 100.6370159}, {"type": "node", "id": 12990311145, "lat": 13.8370454, "lon": 100.6370321}, {"type": "node", "id": 12990311165, "lat": 13.8363086, "lon": 100.6370259}, {"type": "node", "id": 2499049178, "lat": 13.8459146, "lon": 100.6333972}, {"type": "node", "id": 2499049181, "lat": 13.8458102, "lon": 100.6336751}, {"type": "node", "id": 12408912399, "lat": 13.8456368, "lon": 100.6332978}, {"type": "node", "id": 12408933601, "lat": 13.8455247, "lon": 100.6336141}, {"type": "node", "id": 4628763067, "lat": 13.8325962, "lon": 100.6378022}, {"type": "node", "id": 4628763068, "lat": 13.8324324, "lon": 100.6378018}, {"type": "node", "id": 4628763070, "lat": 13.8327472, "lon": 100.6382501}, {"type": "node", "id": 4628763071, "lat": 13.8328542, "lon": 100.6381746}, {"type": "node", "id": 4628774594, "lat": 13.8333044, "lon": 100.6385471}, {"type": "node", "id": 4628774596, "lat": 13.8330137, "lon": 100.6381512}, {"type": "node", "id": 4628774598, "lat": 13.8330913, "lon": 100.6387259}, {"type": "node", "id": 4628774599, "lat": 13.8327965, "lon": 100.6383015}, {"type": "node", "id": 11255953362, "lat": 13.8330009, "lon": 100.6380947}, {"type": "node", "id": 11255953363, "lat": 13.8333618, "lon": 100.6378493}, {"type": "node", "id": 11255953364, "lat": 13.8335683, "lon": 100.6381744}, {"type": "node", "id": 11255953365, "lat": 13.8332189, "lon": 100.6384052}, {"type": "node", "id": 12990311146, "lat": 13.8371297, "lon": 100.6371492}, {"type": "node", "id": 12990311147, "lat": 13.8371414, "lon": 100.6371564}, {"type": "node", "id": 12990311148, "lat": 13.8372172, "lon": 100.6372727}, {"type": "node", "id": 12990311149, "lat": 13.8373643, "lon": 100.6374661}, {"type": "node", "id": 12990311150, "lat": 13.8375, "lon": 100.6376576}, {"type": "node", "id": 12990311151, "lat": 13.8375788, "lon": 100.637754}, {"type": "node", "id": 12990311152, "lat": 13.8376568, "lon": 100.6378593}, {"type": "node", "id": 12990311153, "lat": 13.837578, "lon": 100.6379298}, {"type": "node", "id": 12990311154, "lat": 13.8373613, "lon": 100.6380984}, {"type": "node", "id": 12990311155, "lat": 13.837107, "lon": 100.6383139}, {"type": "node", "id": 12990311156, "lat": 13.8369052, "lon": 100.6384733}, {"type": "node", "id": 12990311157, "lat": 13.8369183, "lon": 100.6384982}, {"type": "node", "id": 12990311158, "lat": 13.8368099, "lon": 100.6385816}, {"type": "node", "id": 12990311159, "lat": 13.8367985, "lon": 100.6385687}, {"type": "node", "id": 12990311160, "lat": 13.8362615, "lon": 100.6389582}, {"type": "node", "id": 12990311161, "lat": 13.8361008, "lon": 100.638667}, {"type": "node", "id": 12990311162, "lat": 13.8356493, "lon": 100.6379703}, {"type": "node", "id": 12990311163, "lat": 13.8354116, "lon": 100.6376163}, {"type": "node", "id": 12990311164, "lat": 13.8356492, "lon": 100.6374551}, {"type": "node", "id": 12990311166, "lat": 13.8373684, "lon": 100.638107}, {"type": "node", "id": 12992823254, "lat": 13.8358022, "lon": 100.6486381}, {"type": "node", "id": 12992823255, "lat": 13.8355181, "lon": 100.6486389}, {"type": "node", "id": 12992823256, "lat": 13.8351182, "lon": 100.6486461}, {"type": "node", "id": 12992823257, "lat": 13.8346062, "lon": 100.6486668}, {"type": "node", "id": 12992823258, "lat": 13.8341439, "lon": 100.6486099}, {"type": "node", "id": 12992823259, "lat": 13.833872, "lon": 100.6485776}, {"type": "node", "id": 12992823260, "lat": 13.8339746, "lon": 100.6490882}, {"type": "node", "id": 12992823261, "lat": 13.8341708, "lon": 100.6498648}, {"type": "node", "id": 12992823262, "lat": 13.8344138, "lon": 100.6498483}, {"type": "node", "id": 12992823263, "lat": 13.8346227, "lon": 100.6498345}, {"type": "node", "id": 12992823264, "lat": 13.8348926, "lon": 100.6498193}, {"type": "node", "id": 12992823265, "lat": 13.8350505, "lon": 100.649811}, {"type": "node", "id": 12992823266, "lat": 13.8351531, "lon": 100.6498071}, {"type": "node", "id": 12992823267, "lat": 13.8351917, "lon": 100.6497928}, {"type": "node", "id": 12992823268, "lat": 13.8353468, "lon": 100.6497865}, {"type": "node", "id": 12992823269, "lat": 13.8354043, "lon": 100.6497874}, {"type": "node", "id": 12992823270, "lat": 13.8356287, "lon": 100.6497686}, {"type": "node", "id": 12992823271, "lat": 13.8357616, "lon": 100.649757}, {"type": "node", "id": 12992823272, "lat": 13.8354946, "lon": 100.6488309}, {"type": "node", "id": 12992823273, "lat": 13.8358106, "lon": 100.6487891}, {"type": "node", "id": 11358362697, "lat": 13.8500364, "lon": 100.6423925}, {"type": "node", "id": 11358362698, "lat": 13.8500369, "lon": 100.6424544}, {"type": "node", "id": 11358362699, "lat": 13.8499341, "lon": 100.6424553}, {"type": "node", "id": 11358362700, "lat": 13.8499303, "lon": 100.6423934}, {"type": "node", "id": 11358362701, "lat": 13.8499117, "lon": 100.6424324}, {"type": "node", "id": 11358362702, "lat": 13.8499134, "lon": 100.642538}, {"type": "node", "id": 11358362703, "lat": 13.8497814, "lon": 100.6425427}, {"type": "node", "id": 11358362704, "lat": 13.849782, "lon": 100.6424571}, {"type": "node", "id": 11358362705, "lat": 13.8498039, "lon": 100.6424333}, {"type": "node", "id": 12161735315, "lat": 13.845316, "lon": 100.6376097}, {"type": "node", "id": 12161735316, "lat": 13.8453269, "lon": 100.637695}, {"type": "node", "id": 12161735317, "lat": 13.8453394, "lon": 100.6377981}, {"type": "node", "id": 12161735318, "lat": 13.8453394, "lon": 100.6378682}, {"type": "node", "id": 12161735319, "lat": 13.8453176, "lon": 100.6379406}, {"type": "node", "id": 12161735320, "lat": 13.8452972, "lon": 100.6379624}, {"type": "node", "id": 12161735321, "lat": 13.8455841, "lon": 100.6383691}, {"type": "node", "id": 12161735322, "lat": 13.8458064, "lon": 100.6386859}, {"type": "node", "id": 12161735323, "lat": 13.8460383, "lon": 100.6389855}, {"type": "node", "id": 12161735324, "lat": 13.846122, "lon": 100.6391416}, {"type": "node", "id": 12161735325, "lat": 13.8462205, "lon": 100.6393646}, {"type": "node", "id": 12161735326, "lat": 13.8462658, "lon": 100.6395378}, {"type": "node", "id": 12161735327, "lat": 13.8463401, "lon": 100.6397864}, {"type": "node", "id": 12161735328, "lat": 13.8464222, "lon": 100.640015}, {"type": "node", "id": 12161735329, "lat": 13.8466474, "lon": 100.6399503}, {"type": "node", "id": 12161735330, "lat": 13.8470154, "lon": 100.6398287}, {"type": "node", "id": 12161735331, "lat": 13.8472491, "lon": 100.6397524}, {"type": "node", "id": 12161735332, "lat": 13.847356, "lon": 100.640332}, {"type": "node", "id": 12161735333, "lat": 13.8474251, "lon": 100.640332}, {"type": "node", "id": 12161735334, "lat": 13.8474424, "lon": 100.640132}, {"type": "node", "id": 12161735335, "lat": 13.8474635, "lon": 100.6399203}, {"type": "node", "id": 12161735336, "lat": 13.8474987, "lon": 100.6396964}, {"type": "node", "id": 12161735337, "lat": 13.8475933, "lon": 100.6392503}, {"type": "node", "id": 12161735338, "lat": 13.8476371, "lon": 100.639049}, {"type": "node", "id": 12161735339, "lat": 13.8476239, "lon": 100.6389485}, {"type": "node", "id": 12161735340, "lat": 13.8475601, "lon": 100.6388651}, {"type": "node", "id": 12161735341, "lat": 13.8473112, "lon": 100.6387146}, {"type": "node", "id": 12161735342, "lat": 13.8469605, "lon": 100.6385183}, {"type": "node", "id": 12161735343, "lat": 13.846694, "lon": 100.6383692}, {"type": "node", "id": 12161735344, "lat": 13.8462507, "lon": 100.6381363}, {"type": "node", "id": 11280287587, "lat": 13.8472398, "lon": 100.6489079}, {"type": "node", "id": 11280287588, "lat": 13.8471074, "lon": 100.6488821}, {"type": "node", "id": 11280287589, "lat": 13.8470928, "lon": 100.6488845}, {"type": "node", "id": 11280287590, "lat": 13.8471154, "lon": 100.6490814}, {"type": "node", "id": 11280287591, "lat": 13.8472578, "lon": 100.649053}, {"type": "node", "id": 11360383284, "lat": 13.8494639, "lon": 100.6439008}, {"type": "node", "id": 11360383285, "lat": 13.8493919, "lon": 100.6440481}, {"type": "node", "id": 11360383286, "lat": 13.8489995, "lon": 100.6439994}, {"type": "node", "id": 11360383287, "lat": 13.8490704, "lon": 100.6438473}, {"type": "node", "id": 11360383288, "lat": 13.8488616, "lon": 100.6439193}, {"type": "node", "id": 11360383289, "lat": 13.8488433, "lon": 100.6439598}, {"type": "node", "id": 11360383290, "lat": 13.8489188, "lon": 100.6439744}, {"type": "node", "id": 11360383291, "lat": 13.8489216, "lon": 100.6439277}, {"type": "node", "id": 11360383292, "lat": 13.849004, "lon": 100.6438358}, {"type": "node", "id": 11360383293, "lat": 13.8490008, "lon": 100.6438641}, {"type": "node", "id": 11360383294, "lat": 13.8489024, "lon": 100.6438547}, {"type": "node", "id": 11360383295, "lat": 13.8489161, "lon": 100.6438292}, {"type": "node", "id": 11389685391, "lat": 13.8472758, "lon": 100.6472111}, {"type": "node", "id": 11389685392, "lat": 13.8471671, "lon": 100.6471449}, {"type": "node", "id": 11389685393, "lat": 13.8472407, "lon": 100.6472695}, {"type": "node", "id": 11389685394, "lat": 13.8471204, "lon": 100.6472322}]}