{"version": 0.6, "generator": "Overpass API 0.7.62.8 e802775f", "osm3s": {"timestamp_osm_base": "2025-11-20T03:19:23Z", "copyright": "The data included in this document is from www.openstreetmap.org. The data is made available under ODbL."}, "elements": [{"type": "node", "id": 4527735484, "lat": 13.6762075, "lon": 100.3262975, "tags": {"amenity": "marketplace", "name": "\u0e15\u0e25\u0e32\u0e14\u0e20\u0e39\u0e48\u0e22\u0e2d\u0e14\u0e22\u0e34\u0e48\u0e07"}}, {"type": "node", "id": 4529443214, "lat": 13.6857799, "lon": 100.343579, "tags": {"amenity": "cafe", "name": "Nun Coffee"}}, {"type": "node", "id": 4529486572, "lat": 13.6886622, "lon": 100.3425249, "tags": {"amenity": "restaurant", "name": "\u0e23\u0e2a\u0e40\u0e14\u0e47\u0e14\u0e1e\u0e38\u0e14\u0e15\u0e32\u0e19"}}, {"type": "node", "id": 4529606497, "lat": 13.6914233, "lon": 100.3418805, "tags": {"amenity": "restaurant", "name": "MK Restaurant"}}, {"type": "node", "id": 4529606499, "lat": 13.6913261, "lon": 100.3422648, "tags": {"amenity": "cafe", "name": "Black Berry Coffee"}}, {"type": "node", "id": 4529726041, "lat": 13.6979043, "lon": 100.3406896, "tags": {"amenity": "restaurant", "name": "\u0e23\u0e49\u0e32\u0e19\u0e15\u0e30\u0e27\u0e31\u0e19\u0e01\u0e4b\u0e27\u0e22\u0e40\u0e15\u0e35\u0e4b\u0e22\u0e27\u0e2b\u0e21\u0e39\u0e15\u0e38\u0e4b\u0e19\u0e40\u0e2b\u0e47\u0e14\u0e2b\u0e2d\u0e21"}}, {"type": "node", "id": 7088134320, "lat": 13.6596273, "lon": 100.3102188, "tags": {"leisure": "park", "name": "OH DEER Samutsakhon"}}, {"type": "node", "id": 7264332303, "lat": 13.6943289, "lon": 100.3315529, "tags": {"addr:city": "\u0e2d\u0e49\u0e2d\u0e21\u0e19\u0e49\u0e2d\u0e22, \u0e01\u0e23\u0e30\u0e17\u0e38\u0e48\u0e21\u0e41\u0e1a\u0e19 \u0e2a\u0e21\u0e38\u0e17\u0e23\u0e2a\u0e32\u0e04\u0e23", "addr:housenumber": "12/87 moo11", "addr:postcode": "74130", "addr:street": "\u0e1e\u0e38\u0e17\u0e18\u0e2a\u0e32\u0e04\u0e23 3", "amenity": "restaurant", "cuisine": "thai;sweet;dessert", "facebook": "https://www.facebook.com/dessertthaisweetbyrien", "name": "DESSERTBYRIEN", "name:th": "\u0e02\u0e19\u0e21\u0e44\u0e17\u0e22\u0e41\u0e21\u0e48\u0e40\u0e2b\u0e23\u0e35\u0e22\u0e0d", "opening_hours": "06:00-19:00", "phone": "+66617946194;+6624204410;+6624203015", "website": "https://dessertbyrien.wixsite.com/sweet"}}, {"type": "node", "id": 11377465164, "lat": 13.6967736, "lon": 100.3299066, "tags": {"amenity": "cafe"}}, {"type": "node", "id": 11887688013, "lat": 13.6710361, "lon": 100.3385243, "tags": {"amenity": "restaurant", "name": "\u0e02\u0e49\u0e32\u0e27\u0e15\u0e49\u0e21\u0e1b\u0e25\u0e32\u0e01\u0e30\u0e1e\u0e07\u0e23\u0e49\u0e32\u0e19\u0e15\u0e32\u0e27\u0e23", "start_date": "5/2/2021"}}, {"type": "node", "id": 12438400244, "lat": 13.6774486, "lon": 100.3387904, "tags": {"amenity": "marketplace"}}, {"type": "node", "id": 12438400247, "lat": 13.6555791, "lon": 100.3439997, "tags": {"amenity": "place_of_worship", "denomination": "thai_mahanikaya", "name": "\u0e27\u0e31\u0e14\u0e28\u0e23\u0e35\u0e19\u0e27\u0e25\u0e18\u0e23\u0e23\u0e21\u0e27\u0e34\u0e21\u0e25", "name:en": "Wat Si Nuan Tham Wimon", "name:th": "\u0e27\u0e31\u0e14\u0e28\u0e23\u0e35\u0e19\u0e27\u0e25\u0e18\u0e23\u0e23\u0e21\u0e27\u0e34\u0e21\u0e25", "religion": "buddhist", "wikidata": "Q100234735", "wikipedia": "th:\u0e27\u0e31\u0e14\u0e28\u0e23\u0e35\u0e19\u0e27\u0e25\u0e18\u0e23\u0e23\u0e21\u0e27\u0e34\u0e21\u0e25"}}, {"type": "way", "id": 378636213, "nodes": [3820486242, 3820486245, 340134285, 3820486246, 3820486244, 3820486242], "tags": {"amenity": "place_of_worship", "denomination": "thai_mahanikaya", "name": "\u0e27\u0e31\u0e14\u0e2b\u0e19\u0e2d\u0e07\u0e41\u0e02\u0e21", "name:en": "Wat Nong Khaem", "name:th": "\u0e27\u0e31\u0e14\u0e2b\u0e19\u0e2d\u0e07\u0e41\u0e02\u0e21", "religion": "buddhist", "wikidata": "Q98840907", "wikipedia": "th:\u0e27\u0e31\u0e14\u0e2b\u0e19\u0e2d\u0e07\u0e41\u0e02\u0e21 (\u0e01\u0e23\u0e38\u0e07\u0e40\u0e17\u0e1e\u0e21\u0e2b\u0e32\u0e19\u0e04\u0e23)"}}, {"type": "way", "id": 591920113, "nodes": [5650532847, 5650532190, 5650532852, 5650532202, 5650532847], "tags": {"amenity": "place_of_worship", "name": "\u0e27\u0e31\u0e14\u0e43\u0e2b\u0e21\u0e48\u0e2b\u0e19\u0e2d\u0e07\u0e1e\u0e30\u0e2d\u0e07", "name:en": "Wat Mai Pha Ong", "religion": "buddhist", "source": "https//data.go.th", "wikidata": "Q99748071"}}, {"type": "node", "id": 5650532190, "lat": 13.6731056, "lon": 100.3223475}, {"type": "node", "id": 5650532852, "lat": 13.6737293, "lon": 100.3244337}, {"type": "node", "id": 5650532847, "lat": 13.6746539, "lon": 100.3219714}, {"type": "node", "id": 5650532202, "lat": 13.6751173, "lon": 100.3240415}, {"type": "node", "id": 340134285, "lat": 13.6776747, "lon": 100.3389078}, {"type": "node", "id": 3820486242, "lat": 13.6761212, "lon": 100.3380354}, {"type": "node", "id": 3820486244, "lat": 13.6766417, "lon": 100.3398663}, {"type": "node", "id": 3820486245, "lat": 13.6773354, "lon": 100.3376926}, {"type": "node", "id": 3820486246, "lat": 13.6778615, "lon": 100.3395235}]}