{"version": 0.6, "generator": "Overpass API 0.7.62.8 e802775f", "osm3s": {"timestamp_osm_base": "2025-11-20T03:22:29Z", "copyright": "The data included in this document is from www.openstreetmap.org. The data is made available under ODbL."}, "elements": [{"type": "node", "id": 1673820706, "lat": 13.8026309, "lon": 100.4084473, "tags": {"addr:district": "\u0e1a\u0e32\u0e07\u0e01\u0e23\u0e27\u0e22", "addr:province": "\u0e19\u0e19\u0e17\u0e1a\u0e38\u0e23\u0e35", "amenity": "place_of_worship", "name": "\u0e27\u0e31\u0e14\u0e28\u0e23\u0e35\u0e1b\u0e23\u0e30\u0e27\u0e31\u0e15\u0e34", "religion": "buddhist", "wikidata": "Q99641765"}}, {"type": "node", "id": 3431325834, "lat": 13.8036567, "lon": 100.4487711, "tags": {"amenity": "cafe", "brand": "Starbucks", "brand:wikidata": "Q37158", "brand:wikipedia": "en:Starbucks", "cuisine": "coffee_shop", "name": "Starbucks", "name:en": "Starbucks Coffee", "name:th": "\u0e2a\u0e15\u0e32\u0e23\u0e4c\u0e1a\u0e31\u0e04\u0e2a\u0e4c", "official_name": "Starbucks Coffee", "shop": "coffee", "smoking": "no", "takeaway": "yes", "website": "https://www.starbucks.com/"}}, {"type": "node", "id": 3431325837, "lat": 13.8196914, "lon": 100.4498456, "tags": {"amenity": "cafe", "brand": "Starbucks", "brand:wikidata": "Q37158", "brand:wikipedia": "en:Starbucks", "cuisine": "coffee_shop", "name": "Starbucks", "name:en": "Starbucks Coffee", "name:th": "\u0e2a\u0e15\u0e32\u0e23\u0e4c\u0e1a\u0e31\u0e04\u0e2a\u0e4c", "official_name": "Starbucks Coffee", "shop": "coffee", "smoking": "no", "takeaway": "yes", "website": "https://www.starbucks.com/"}}, {"type": "node", "id": 4479133182, "lat": 13.804518, "lon": 100.4127239, "tags": {"amenity": "place_of_worship", "religion": "buddhist"}}, {"type": "node", "id": 4479133369, "lat": 13.8060825, "lon": 100.4233833, "tags": {"amenity": "place_of_worship", "religion": "buddhist"}}, {"type": "node", "id": 4483606791, "lat": 13.8277766, "lon": 100.4301669, "tags": {"amenity": "place_of_worship", "name": "\u0e27\u0e31\u0e14\u0e42\u0e1e\u0e18\u0e34\u0e4c\u0e40\u0e2d\u0e19", "name:en": "Wat Pho En", "name:th": "\u0e27\u0e31\u0e14\u0e42\u0e1e\u0e18\u0e34\u0e4c\u0e40\u0e2d\u0e19", "religion": "buddhist", "wikidata": "Q99641753"}}, {"type": "node", "id": 4487677911, "lat": 13.8133887, "lon": 100.4096831, "tags": {"amenity": "place_of_worship", "name": "\u0e27\u0e31\u0e14\u0e2a\u0e49\u0e21\u0e40\u0e01\u0e25\u0e35\u0e49\u0e22\u0e07", "name:en": "Wat Som Kliang", "name:th": "\u0e27\u0e31\u0e14\u0e2a\u0e49\u0e21\u0e40\u0e01\u0e25\u0e35\u0e49\u0e22\u0e07", "religion": "buddhist", "wikidata": "Q99641762"}}, {"type": "node", "id": 4561184592, "lat": 13.808643, "lon": 100.439063, "tags": {"name": "\u0e1a\u0e49\u0e32\u0e19\u0e1e\u0e35\u0e48\u0e15\u0e31\u0e49\u0e21 50/270", "name:th": "\u0e1a\u0e49\u0e32\u0e19\u0e1e\u0e35\u0e48\u0e15\u0e31\u0e49\u0e21 50/270", "tourism": "guest_house"}}, {"type": "node", "id": 5265310928, "lat": 13.8241492, "lon": 100.4191942, "tags": {"name": "\u0e27\u0e31\u0e14\u0e2a\u0e34\u0e07\u0e2b\u0e4c", "tourism": "attraction"}}, {"type": "node", "id": 5265311023, "lat": 13.8274062, "lon": 100.4406595, "tags": {"alt_name": "\u0e27\u0e31\u0e14\u0e1a\u0e32\u0e07\u0e19\u0e32\u0e22\u0e44\u0e01\u0e23\u0e19\u0e2d\u0e01", "alt_name:th": "\u0e27\u0e31\u0e14\u0e1a\u0e32\u0e07\u0e19\u0e32\u0e22\u0e44\u0e01\u0e23\u0e19\u0e2d\u0e01", "amenity": "place_of_worship", "name": "\u0e27\u0e31\u0e14\u0e1a\u0e32\u0e07\u0e44\u0e01\u0e23\u0e19\u0e2d\u0e01", "name:en": "Wat Bang Krai Nok", "name:th": "\u0e27\u0e31\u0e14\u0e1a\u0e32\u0e07\u0e44\u0e01\u0e23\u0e19\u0e2d\u0e01", "religion": "buddhist", "wikidata": "Q99641751"}}, {"type": "node", "id": 5362733473, "lat": 13.8146853, "lon": 100.4067541, "tags": {"amenity": "place_of_worship", "name": "\u0e27\u0e31\u0e14\u0e41\u0e1e\u0e23\u0e01", "name:en": "Praek Temple", "religion": "buddhist", "tourism": "attraction", "wikidata": "Q99641763"}}, {"type": "node", "id": 6544918173, "lat": 13.8266723, "lon": 100.4465173, "tags": {"amenity": "place_of_worship", "name": "\u0e27\u0e31\u0e14\u0e44\u0e17\u0e22\u0e40\u0e08\u0e23\u0e34\u0e0d (\u0e1a\u0e49\u0e32\u0e19\u0e08\u0e35\u0e19)", "name:en": "Wat Thai Charoen (Baan Chin)", "name:th": "\u0e27\u0e31\u0e14\u0e44\u0e17\u0e22\u0e40\u0e08\u0e23\u0e34\u0e0d (\u0e1a\u0e49\u0e32\u0e19\u0e08\u0e35\u0e19)", "religion": "buddhist"}}, {"type": "node", "id": 6997798292, "lat": 13.8483819, "lon": 100.4237893, "tags": {"addr:housenumber": "5", "addr:street": "Long Klong Homestay 63 Moo 5 Bangkrui, Srainoi road, T.Bang Lane, A.Bang Yai, Nonthaburi, Thailand", "description": "nise hostel , river house", "email": "dome.dtk@gmail.com", "name": "Long Klong Homestay 63 Moo 5 Bangkrui", "phone": "+66-616456229, +66-628293693, +66-616456229", "tourism": "hostel"}}, {"type": "node", "id": 9029177253, "lat": 13.813371, "lon": 100.4127612, "tags": {"amenity": "place_of_worship", "name": "Wat Klang Suan", "name:th": "\u0e2b\u0e25\u0e27\u0e07\u0e1e\u0e48\u0e2d\u0e27\u0e31\u0e14\u0e01\u0e25\u0e32\u0e07\u0e2a\u0e27\u0e19", "religion": "buddhist"}}, {"type": "node", "id": 9029177254, "lat": 13.8136038, "lon": 100.4130646, "tags": {"historic": "monument", "name": "Rampoei Monument", "name:th": "\u0e2d\u0e19\u0e38\u0e2a\u0e32\u0e27\u0e23\u0e35\u0e22\u0e4c\u0e41\u0e21\u0e48\u0e23\u0e33\u0e40\u0e1e\u0e22"}}, {"type": "node", "id": 12020465161, "lat": 13.8281692, "lon": 100.4394882, "tags": {"amenity": "restaurant", "cuisine": "thai", "name": "\u0e01\u0e4b\u0e27\u0e22\u0e40\u0e15\u0e35\u0e4b\u0e22\u0e27\u0e17\u0e2d\u0e07\u0e22\u0e49\u0e2d\u0e22 & \u0e04\u0e32\u0e40\u0e1f\u0e48 \u0e19\u0e19\u0e17\u0e1a\u0e38\u0e23\u0e35", "name:en": "Thongyoi Noodle & Cafe", "name:th": "\u0e01\u0e4b\u0e27\u0e22\u0e40\u0e15\u0e35\u0e4b\u0e22\u0e27\u0e17\u0e2d\u0e07\u0e22\u0e49\u0e2d\u0e22 & \u0e04\u0e32\u0e40\u0e1f\u0e48 \u0e19\u0e19\u0e17\u0e1a\u0e38\u0e23\u0e35", "opening_hours": "Sa-Su 09:00-21:00", "phone": "0859159692", "website": "https://www.facebook.com/thongyoinoodleandcafe"}}, {"type": "node", "id": 12020481778, "lat": 13.8281192, "lon": 100.4397345, "tags": {"name": "Humz Canal Stay", "tourism": "guest_house", "website": "https://www.facebook.com/humzcanalstay/"}}, {"type": "node", "id": 12064700152, "lat": 13.8291964, "lon": 100.4494638, "tags": {"addr:city": "\u0e15\u0e33\u0e1a\u0e25\u0e1a\u0e32\u0e07\u0e02\u0e38\u0e19\u0e01\u0e2d\u0e07", "addr:housenumber": "89/275", "addr:postcode": "11130", "addr:street": "\u0e19\u0e04\u0e23\u0e2d\u0e34\u0e19\u0e17\u0e23\u0e4c", "amenity": "cafe", "cuisine": "coffee_shop", "name": "89/275 PerfectPlace"}}, {"type": "node", "id": 12600727450, "lat": 13.8255242, "lon": 100.4479677, "tags": {"addr:district": "\u0e2d\u0e33\u0e40\u0e20\u0e2d\u0e1a\u0e32\u0e07\u0e01\u0e23\u0e27\u0e22", "addr:housenumber": "168/9", "addr:place": "3", "addr:postcode": "11130", "addr:province": "\u0e19\u0e19\u0e17\u0e1a\u0e38\u0e23\u0e35", "addr:street": "\u0e16\u0e19\u0e19\u0e23\u0e32\u0e0a\u0e1e\u0e24\u0e01\u0e29\u0e4c", "addr:subdistrict": "\u0e1a\u0e32\u0e07\u0e02\u0e38\u0e19\u0e01\u0e2d\u0e07", "amenity": "cafe", "name": "\u0e1d\u0e49\u0e32\u0e2a\u0e22\u0e32\u0e21"}}, {"type": "node", "id": 13196081351, "lat": 13.8348129, "lon": 100.413178, "tags": {"addr:district": "\u0e1a\u0e32\u0e07\u0e43\u0e2b\u0e0d\u0e48", "addr:housenumber": "31", "addr:place": "1", "addr:postcode": "11140", "addr:province": "\u0e19\u0e19\u0e17\u0e1a\u0e38\u0e23\u0e35", "addr:street": "\u0e16\u0e19\u0e19\u0e01\u0e32\u0e0d\u0e08\u0e19\u0e32\u0e20\u0e34\u0e40\u0e29\u0e01", "addr:subdistrict": "\u0e1a\u0e32\u0e07\u0e21\u0e48\u0e27\u0e07", "amenity": "restaurant", "cuisine": "thai", "diet:local": "yes", "diet:meat": "yes", "diet:seafood": "yes", "name": "\u0e23\u0e49\u0e32\u0e19\u0e2b\u0e31\u0e27\u0e1b\u0e25\u0e32\u0e2b\u0e21\u0e49\u0e2d\u0e44\u0e1f by \u0e01\u0e38\u0e4a\u0e01\u0e44\u0e01\u0e48", "opening_hours": "16.00-00.00", "phone": "0944626543", "website": "https://facebook.com/profile.php?id=100062940986009"}}, {"type": "node", "id": 13243193339, "lat": 13.8229742, "lon": 100.4439189, "tags": {"amenity": "restaurant", "check_date": "2025-10-19"}}, {"type": "way", "id": 126027140, "nodes": [1398185268, 1398185262, 1398185259, 1398185499, 1398185498, 1398185497, 1398185496, 1398185327, 1398185488, 1398185268], "tags": {"amenity": "place_of_worship", "name": "\u0e27\u0e31\u0e14\u0e22\u0e38\u0e04\u0e31\u0e19\u0e18\u0e23\u0e32\u0e27\u0e32\u0e2a", "name:en": "Wat Yu Khan Thara Wat", "name:th": "\u0e27\u0e31\u0e14\u0e22\u0e38\u0e04\u0e31\u0e19\u0e18\u0e23\u0e32\u0e27\u0e32\u0e2a", "religion": "buddhist", "wikidata": "Q99462107", "wikimedia_commons": "Category:Wat Yukhantharawat"}}, {"type": "way", "id": 126060355, "nodes": [1398482419, 1398482438, 7278377372, 1398482425, 7278377373, 1398482430, 1398482431, 1398482419], "tags": {"amenity": "place_of_worship", "denomination": "thai_mahanikaya", "name": "\u0e27\u0e31\u0e14\u0e1a\u0e32\u0e07\u0e40\u0e25\u0e19\u0e40\u0e08\u0e23\u0e34\u0e0d", "name:en": "Wat Bang Len Charoen", "name:th": "\u0e27\u0e31\u0e14\u0e1a\u0e32\u0e07\u0e40\u0e25\u0e19\u0e40\u0e08\u0e23\u0e34\u0e0d", "religion": "buddhist", "wikidata": "Q99642749"}}, {"type": "way", "id": 376378285, "nodes": [3798127994, 3798127993, 3798127991, 3798127992, 3798127994], "tags": {"amenity": "place_of_worship", "religion": "buddhist"}}, {"type": "way", "id": 376904784, "nodes": [3802835524, 3802835523, 3802835513, 3802835514, 3802835512, 3802835510, 3802835518, 3802835521, 3802835524], "tags": {"amenity": "place_of_worship", "religion": "buddhist"}}, {"type": "way", "id": 376904785, "nodes": [3802835695, 3802835688, 3802835690, 3802835697, 4027772988, 3802835705, 3802835704, 3802835703, 3802835702, 3802835699, 3802835695], "tags": {"amenity": "place_of_worship", "religion": "buddhist"}}, {"type": "way", "id": 377844185, "nodes": [3812476110, 3812476109, 6397529959, 6397529958, 6397529960, 6397529957, 3812476104, 6397529956, 6397529955, 6397529954, 3812476105, 3812476110], "tags": {"amenity": "place_of_worship", "denomination": "thai_mahanikaya", "fixme": "Estimated land size.", "name": "\u0e27\u0e31\u0e14\u0e42\u0e1a\u0e2a\u0e16\u0e4c\u0e14\u0e2d\u0e19\u0e1e\u0e23\u0e2b\u0e21", "name:en": "Wat Bot Don Prom", "name:th": "\u0e27\u0e31\u0e14\u0e42\u0e1a\u0e2a\u0e16\u0e4c\u0e14\u0e2d\u0e19\u0e1e\u0e23\u0e2b\u0e21", "religion": "buddhist", "wikidata": "Q99630929"}}, {"type": "way", "id": 377879325, "nodes": [3812862375, 3812862378, 3812862376, 3812862370, 3812862375], "tags": {"amenity": "place_of_worship", "name": "\u0e27\u0e31\u0e14\u0e15\u0e30\u0e40\u0e04\u0e35\u0e22\u0e19", "name:en": "Wat Takien", "name:th": "\u0e27\u0e31\u0e14\u0e15\u0e30\u0e40\u0e04\u0e35\u0e22\u0e19", "religion": "buddhist", "wikidata": "Q99641760"}}, {"type": "way", "id": 377879327, "nodes": [3812862388, 12120345418, 5250159165, 3812862391, 12122014064, 12120345406, 12120345405, 3812862395, 3812862388], "tags": {"landuse": "religious", "name": "\u0e27\u0e31\u0e14\u0e42\u0e1a\u0e2a\u0e16\u0e4c\u0e1a\u0e19", "name:en": "Wat Botbon", "name:th": "\u0e27\u0e31\u0e14\u0e42\u0e1a\u0e2a\u0e16\u0e4c\u0e1a\u0e19", "religion": "buddhist", "wikidata": "Q99461609", "wikimedia_commons": "Category:Wat Bot Bon, Nonthaburi"}}, {"type": "way", "id": 377879328, "nodes": [3812862381, 3812862371, 3812862369, 3812862373, 3812862372, 3812862377, 3812862381], "tags": {"amenity": "place_of_worship", "name": "\u0e27\u0e31\u0e14\u0e2d\u0e38\u0e17\u0e22\u0e32\u0e19", "name:en": "Wat Utthayan", "name:th": "\u0e27\u0e31\u0e14\u0e2d\u0e38\u0e17\u0e22\u0e32\u0e19", "religion": "buddhist", "wikidata": "Q99641752"}}, {"type": "way", "id": 377879330, "nodes": [3812862148, 3812862147, 3812862145, 3812862144, 3812862142, 3812862139, 3812862138, 3812862141, 3812862148], "tags": {"amenity": "place_of_worship", "name": "\u0e27\u0e31\u0e14\u0e1a\u0e32\u0e07\u0e44\u0e01\u0e23\u0e43\u0e19", "name:en": "Wat Bang Krai Nai", "name:th": "\u0e27\u0e31\u0e14\u0e1a\u0e32\u0e07\u0e44\u0e01\u0e23\u0e43\u0e19", "religion": "buddhist", "wikidata": "Q16004194", "wikimedia_commons": "Category:Wat Bang Krai Nai, Nonthaburi"}}, {"type": "way", "id": 426065672, "nodes": [4253845506, 9029177247, 4253845507, 4253845508, 4253845509, 4253845510, 4253845506], "tags": {"amenity": "restaurant", "building": "yes", "capacity": "20-50", "level": "1", "name": "Canteen", "name:th": "\u0e42\u0e23\u0e07\u0e2d\u0e32\u0e2b\u0e32\u0e23", "smoking": "no", "takeaway": "no"}}, {"type": "way", "id": 451963457, "nodes": [4487678656, 4487678655, 4487678654, 4487678653, 4487678652, 4487678651, 4487678650, 4487678649, 4487678648, 4487678647, 4487678656], "tags": {"amenity": "place_of_worship", "name": "\u0e27\u0e31\u0e14\u0e1a\u0e32\u0e07\u0e04\u0e49\u0e2d", "name:en": "Wat Bang Koh", "name:th": "\u0e27\u0e31\u0e14\u0e1a\u0e32\u0e07\u0e04\u0e49\u0e2d", "religion": "buddhist", "wikidata": "Q99641761"}}, {"type": "way", "id": 469366914, "nodes": [4637026960, 4637026961, 4637026962, 4637026963, 4637026964, 4637026965, 4637026960], "tags": {"leisure": "park", "name": "\u0e2a\u0e27\u0e19\u0e2a\u0e32\u0e18\u0e32\u0e23\u0e13\u0e30 \u0e2b\u0e21\u0e39\u0e48\u0e1a\u0e49\u0e32\u0e19\u0e04\u0e32\u0e0b\u0e48\u0e32\u0e1e\u0e23\u0e35\u0e40\u0e21\u0e35\u0e48\u0e22\u0e21 \u0e23\u0e32\u0e0a\u0e1e\u0e24\u0e01\u0e29\u0e4c-\u0e1e\u0e23\u0e30\u0e23\u0e32\u0e21 5 (1)"}}, {"type": "way", "id": 469366915, "nodes": [4637026966, 4637026967, 4637026968, 4637026969, 4637026970, 4637026971, 4637026972, 4637026973, 4637026974, 4637026975, 4637026966], "tags": {"leisure": "park", "name": "\u0e2a\u0e27\u0e19\u0e2a\u0e32\u0e18\u0e32\u0e23\u0e13\u0e30 \u0e2b\u0e21\u0e39\u0e48\u0e1a\u0e49\u0e32\u0e19\u0e04\u0e32\u0e0b\u0e48\u0e32\u0e1e\u0e23\u0e35\u0e40\u0e21\u0e35\u0e48\u0e22\u0e21 \u0e23\u0e32\u0e0a\u0e1e\u0e24\u0e01\u0e29\u0e4c-\u0e1e\u0e23\u0e30\u0e23\u0e32\u0e21 5 (2)"}}, {"type": "way", "id": 555888776, "nodes": [4487679193, 5362733474, 5362733475, 5362733476, 5362733477, 5362733478, 4487679193], "tags": {"leisure": "playground", "tourism": "viewpoint"}}, {"type": "way", "id": 556417677, "nodes": [5367561619, 5367561620, 5367561621, 5367561624, 5367561625, 5367561626, 5367561622, 5367561627, 4027771046, 4027771037, 4027771031, 4027771024, 5367561623, 4027771013, 5367561619], "tags": {"leisure": "park", "name": "Mantana park"}}, {"type": "way", "id": 556417678, "nodes": [5367561628, 5367561629, 5367561632, 5367561630, 5367561631, 5367561628], "tags": {"leisure": "park"}}, {"type": "way", "id": 561180440, "nodes": [4027922787, 4027922788, 4027922783, 5411676270, 4027922778, 4027922775, 4027922773, 4027922777, 4027922782, 5411676269, 4027922787], "tags": {"leisure": "park", "name": "\u0e2a\u0e27\u0e19\u0e2b\u0e22\u0e48\u0e2d\u0e21"}}, {"type": "way", "id": 563575527, "nodes": [8008142862, 8008142863, 8008142866, 4027911776, 5430896603, 5430896604, 5430896605, 5430896606, 5430896607, 5430896608, 5430896609, 5430896610, 5430896611, 5430896612, 8008142861, 8008142862], "tags": {"leisure": "park"}}, {"type": "way", "id": 563575529, "nodes": [4027769824, 4027769807, 4027767486, 4027767471, 4027767465, 4027767481, 4027769795, 4027769818, 4027769824], "tags": {"leisure": "park"}}, {"type": "way", "id": 658718222, "nodes": [6168046746, 6168046747, 6168046748, 6168046749, 6168046750, 6168046746], "tags": {"amenity": "marketplace", "building": "roof", "name": "\u0e15\u0e25\u0e32\u0e14\u0e2a\u0e14\u0e14\u0e2d\u0e19\u0e1e\u0e23\u0e2b\u0e21", "name:en": "Don Phrom Market", "name:th": "\u0e15\u0e25\u0e32\u0e14\u0e2a\u0e14\u0e14\u0e2d\u0e19\u0e1e\u0e23\u0e2b\u0e21"}}, {"type": "way", "id": 682332352, "nodes": [6389845448, 6389845449, 6389845452, 6389845453, 6389845450, 6389845451, 6389845448], "tags": {"building": "yes", "level": "8", "tourism": "apartment"}}, {"type": "way", "id": 683098612, "nodes": [6398210906, 6398210907, 6398210908, 6398210909, 6398210906], "tags": {"area": "yes", "artwork_type": "statue", "tourism": "artwork"}}, {"type": "way", "id": 700619542, "nodes": [6579501016, 6579501017, 6579501018, 6579501019, 6579501020, 6579501021, 6579501022, 6579501023, 6579501016], "tags": {"amenity": "place_of_worship", "name": "\u0e27\u0e31\u0e14\u0e41\u0e04\u0e43\u0e19", "name:en": "Wat Khaenai", "name:th": "\u0e27\u0e31\u0e14\u0e41\u0e04\u0e43\u0e19", "religion": "buddhist", "wikidata": "Q16004161", "wikipedia": "th:\u0e27\u0e31\u0e14\u0e41\u0e04\u0e43\u0e19"}}, {"type": "way", "id": 779435916, "nodes": [3812476057, 7278377370, 3812475848, 7278377371, 7278377380, 7278377379, 7278377378, 7278377377, 7278420356, 7278419775, 7278420355, 7278420354, 7278420353, 7278420352, 7278420351, 7278420350, 7278419772, 7278419773, 7278419774, 7278377368, 3812475855, 3812476057], "tags": {"amenity": "marketplace", "landuse": "retail", "name": "\u0e15\u0e25\u0e32\u0e14\u0e40\u0e08\u0e49\u0e32\u0e1e\u0e23\u0e30\u0e22\u0e32 \u0e1a\u0e32\u0e07\u0e43\u0e2b\u0e0d\u0e48", "name:en": "Chao Phra Ya Market Bangyai", "name:th": "\u0e15\u0e25\u0e32\u0e14\u0e40\u0e08\u0e49\u0e32\u0e1e\u0e23\u0e30\u0e22\u0e32 \u0e1a\u0e32\u0e07\u0e43\u0e2b\u0e0d\u0e48"}}, {"type": "way", "id": 1289814369, "nodes": [11959767869, 11959767870, 11959767871, 11959767872, 11959767873, 11959767874, 11959767875, 11959767876, 11959767877, 11959767878, 11959767879, 11959767880, 11959767881, 11959767882, 11959767883, 11959767884, 11959767869], "tags": {"addr:city": "\u0e15\u0e33\u0e1a\u0e25\u0e1a\u0e32\u0e07\u0e21\u0e48\u0e27\u0e07", "addr:housenumber": "32", "addr:postcode": "11140", "addr:street": "\u0e16\u0e19\u0e19\u0e27\u0e31\u0e14\u0e1b\u0e23\u0e32\u0e07\u0e04\u0e4c\u0e2b\u0e25\u0e27\u0e07", "amenity": "place_of_worship", "name": "\u0e27\u0e31\u0e14\u0e1b\u0e23\u0e32\u0e07\u0e04\u0e4c\u0e2b\u0e25\u0e27\u0e07", "name:th": "\u0e27\u0e31\u0e14\u0e1b\u0e23\u0e32\u0e07\u0e04\u0e4c\u0e2b\u0e25\u0e27\u0e07", "religion": "buddhist"}}, {"type": "way", "id": 1308823369, "nodes": [3812862388, 12120345407, 12120345408, 12120345409, 12120345410, 3812862395, 3812862388], "tags": {"amenity": "marketplace", "name": "\u0e15\u0e25\u0e32\u0e14\u0e19\u0e49\u0e33\u0e27\u0e31\u0e14\u0e42\u0e1a\u0e2a\u0e16\u0e4c\u0e1a\u0e19", "name:en": "Wat Bot Bon Floating Market"}}, {"type": "way", "id": 1308825364, "nodes": [12120337118, 12120337145, 12120337119, 12120337120, 12120337121, 12120337122, 12120337123, 12120337124, 12120337125, 12120337126, 12120337118], "tags": {"landuse": "religious", "name": "\u0e27\u0e31\u0e14\u0e2d\u0e31\u0e21\u0e1e\u0e27\u0e31\u0e19", "religion": "buddhist"}}, {"type": "way", "id": 1317833065, "nodes": [12196597419, 12196597420, 12196597421, 12196597422, 12196597423, 12196597424, 12196597425, 12196597419], "tags": {"leisure": "park"}}, {"type": "node", "id": 3802835510, "lat": 13.8045563, "lon": 100.4435258}, {"type": "node", "id": 3802835512, "lat": 13.8044794, "lon": 100.4437749}, {"type": "node", "id": 3802835513, "lat": 13.8046016, "lon": 100.4448048}, {"type": "node", "id": 3802835514, "lat": 13.8046127, "lon": 100.4442326}, {"type": "node", "id": 3802835518, "lat": 13.8049961, "lon": 100.4434831}, {"type": "node", "id": 4487679193, "lat": 13.8152463, "lon": 100.4066904}, {"type": "node", "id": 5362733474, "lat": 13.8147814, "lon": 100.4069455}, {"type": "node", "id": 5362733475, "lat": 13.8149662, "lon": 100.4073283}, {"type": "node", "id": 5362733476, "lat": 13.8145898, "lon": 100.4074661}, {"type": "node", "id": 5362733478, "lat": 13.8156074, "lon": 100.4073281}, {"type": "node", "id": 4253845506, "lat": 13.813062, "lon": 100.4128627}, {"type": "node", "id": 4253845507, "lat": 13.8127621, "lon": 100.4130253}, {"type": "node", "id": 4253845508, "lat": 13.8128879, "lon": 100.413252}, {"type": "node", "id": 4253845509, "lat": 13.8131795, "lon": 100.4130574}, {"type": "node", "id": 4253845510, "lat": 13.8131332, "lon": 100.4129722}, {"type": "node", "id": 5362733477, "lat": 13.8148704, "lon": 100.407829}, {"type": "node", "id": 9029177247, "lat": 13.8129215, "lon": 100.412941}, {"type": "node", "id": 3802835688, "lat": 13.8171452, "lon": 100.4242745}, {"type": "node", "id": 3802835690, "lat": 13.8176318, "lon": 100.4245951}, {"type": "node", "id": 3802835695, "lat": 13.8181096, "lon": 100.4233094}, {"type": "node", "id": 4487678647, "lat": 13.8266696, "lon": 100.4112699}, {"type": "node", "id": 4487678648, "lat": 13.827285, "lon": 100.4124152}, {"type": "node", "id": 4487678649, "lat": 13.8279745, "lon": 100.4120437}, {"type": "node", "id": 4487678650, "lat": 13.82822, "lon": 100.4118694}, {"type": "node", "id": 4487678651, "lat": 13.8287317, "lon": 100.4117232}, {"type": "node", "id": 4487678652, "lat": 13.8287252, "lon": 100.4116762}, {"type": "node", "id": 4487678653, "lat": 13.8283827, "lon": 100.4108032}, {"type": "node", "id": 4487678654, "lat": 13.8280705, "lon": 100.4102426}, {"type": "node", "id": 4487678655, "lat": 13.8278566, "lon": 100.4099838}, {"type": "node", "id": 4487678656, "lat": 13.8263281, "lon": 100.4107006}, {"type": "node", "id": 3802835697, "lat": 13.8183239, "lon": 100.4251057}, {"type": "node", "id": 3802835699, "lat": 13.8184168, "lon": 100.4236444}, {"type": "node", "id": 3802835702, "lat": 13.8188145, "lon": 100.4242275}, {"type": "node", "id": 3802835703, "lat": 13.8190049, "lon": 100.4245727}, {"type": "node", "id": 3802835704, "lat": 13.8186867, "lon": 100.4247881}, {"type": "node", "id": 3802835705, "lat": 13.8189209, "lon": 100.4251872}, {"type": "node", "id": 4027772988, "lat": 13.8188523, "lon": 100.4253053}, {"type": "node", "id": 3812862370, "lat": 13.8278168, "lon": 100.4220001}, {"type": "node", "id": 3812862375, "lat": 13.8281355, "lon": 100.4218008}, {"type": "node", "id": 3812862376, "lat": 13.8282209, "lon": 100.4226857}, {"type": "node", "id": 3812862378, "lat": 13.8285397, "lon": 100.4224864}, {"type": "node", "id": 4027767465, "lat": 13.8059885, "lon": 100.4391852}, {"type": "node", "id": 4027767471, "lat": 13.8060974, "lon": 100.4394108}, {"type": "node", "id": 4027767481, "lat": 13.8062539, "lon": 100.4391559}, {"type": "node", "id": 4027767486, "lat": 13.806412, "lon": 100.4396255}, {"type": "node", "id": 4027769795, "lat": 13.806576, "lon": 100.4393584}, {"type": "node", "id": 4027769807, "lat": 13.8067265, "lon": 100.4398402}, {"type": "node", "id": 4027769818, "lat": 13.806898, "lon": 100.4395609}, {"type": "node", "id": 4027769824, "lat": 13.8070097, "lon": 100.4398512}, {"type": "node", "id": 4027771013, "lat": 13.8130549, "lon": 100.4297485}, {"type": "node", "id": 4027771024, "lat": 13.8134048, "lon": 100.4300548}, {"type": "node", "id": 4027771031, "lat": 13.8136935, "lon": 100.4302346}, {"type": "node", "id": 4027771037, "lat": 13.8140169, "lon": 100.4304649}, {"type": "node", "id": 4027771046, "lat": 13.8143, "lon": 100.4306488}, {"type": "node", "id": 5367561619, "lat": 13.8130506, "lon": 100.4296841}, {"type": "node", "id": 5367561620, "lat": 13.8130747, "lon": 100.4296336}, {"type": "node", "id": 5367561621, "lat": 13.8132562, "lon": 100.4296052}, {"type": "node", "id": 5367561622, "lat": 13.8145106, "lon": 100.4305488}, {"type": "node", "id": 5367561623, "lat": 13.8131208, "lon": 100.4298379}, {"type": "node", "id": 5367561624, "lat": 13.8139068, "lon": 100.4300202}, {"type": "node", "id": 5367561625, "lat": 13.8142735, "lon": 100.4302789}, {"type": "node", "id": 5367561626, "lat": 13.8144788, "lon": 100.4304289}, {"type": "node", "id": 5367561627, "lat": 13.8144452, "lon": 100.430663}, {"type": "node", "id": 4027922773, "lat": 13.8126416, "lon": 100.4403202}, {"type": "node", "id": 4027922777, "lat": 13.8128526, "lon": 100.4403165}, {"type": "node", "id": 5367561628, "lat": 13.8162251, "lon": 100.4362028}, {"type": "node", "id": 5367561629, "lat": 13.815684, "lon": 100.4359338}, {"type": "node", "id": 5367561630, "lat": 13.8165703, "lon": 100.4357416}, {"type": "node", "id": 5367561631, "lat": 13.816477, "lon": 100.4359434}, {"type": "node", "id": 5367561632, "lat": 13.8159592, "lon": 100.4352612}, {"type": "node", "id": 3802835521, "lat": 13.8051795, "lon": 100.4431627}, {"type": "node", "id": 3802835523, "lat": 13.8054628, "lon": 100.4447819}, {"type": "node", "id": 3802835524, "lat": 13.8055351, "lon": 100.4433401}, {"type": "node", "id": 4027911776, "lat": 13.8114184, "lon": 100.4462261}, {"type": "node", "id": 5430896603, "lat": 13.8113889, "lon": 100.4464197}, {"type": "node", "id": 5430896604, "lat": 13.8116577, "lon": 100.446683}, {"type": "node", "id": 5430896606, "lat": 13.8109135, "lon": 100.4466653}, {"type": "node", "id": 5430896607, "lat": 13.8110043, "lon": 100.4465312}, {"type": "node", "id": 5430896608, "lat": 13.811107, "lon": 100.4463686}, {"type": "node", "id": 5430896609, "lat": 13.8111899, "lon": 100.4462141}, {"type": "node", "id": 5430896610, "lat": 13.8112728, "lon": 100.4460433}, {"type": "node", "id": 5430896611, "lat": 13.811407, "lon": 100.4458279}, {"type": "node", "id": 5430896612, "lat": 13.8114899, "lon": 100.4457384}, {"type": "node", "id": 8008142861, "lat": 13.8115862, "lon": 100.4457041}, {"type": "node", "id": 8008142862, "lat": 13.8116686, "lon": 100.4456846}, {"type": "node", "id": 5430896605, "lat": 13.8115057, "lon": 100.4470434}, {"type": "node", "id": 3798127991, "lat": 13.8136816, "lon": 100.4420634}, {"type": "node", "id": 3798127992, "lat": 13.8145146, "lon": 100.440873}, {"type": "node", "id": 3798127993, "lat": 13.8145629, "lon": 100.4427174}, {"type": "node", "id": 3798127994, "lat": 13.8153958, "lon": 100.4415269}, {"type": "node", "id": 4027922775, "lat": 13.8127106, "lon": 100.4405377}, {"type": "node", "id": 4027922778, "lat": 13.8129728, "lon": 100.4407522}, {"type": "node", "id": 4027922782, "lat": 13.8131303, "lon": 100.4405417}, {"type": "node", "id": 4027922783, "lat": 13.8132272, "lon": 100.4409416}, {"type": "node", "id": 4027922787, "lat": 13.8133795, "lon": 100.4407499}, {"type": "node", "id": 4027922788, "lat": 13.8133663, "lon": 100.4409087}, {"type": "node", "id": 5411676269, "lat": 13.8132766, "lon": 100.4406638}, {"type": "node", "id": 5411676270, "lat": 13.8131204, "lon": 100.4408507}, {"type": "node", "id": 8008142863, "lat": 13.8118152, "lon": 100.4457613}, {"type": "node", "id": 8008142866, "lat": 13.8117326, "lon": 100.4457959}, {"type": "node", "id": 3812862138, "lat": 13.818573, "lon": 100.4394687}, {"type": "node", "id": 3812862139, "lat": 13.8189048, "lon": 100.4397169}, {"type": "node", "id": 3812862141, "lat": 13.8191588, "lon": 100.4386146}, {"type": "node", "id": 3812862142, "lat": 13.8194309, "lon": 100.4399891}, {"type": "node", "id": 3812862144, "lat": 13.8194983, "lon": 100.4398824}, {"type": "node", "id": 3812862145, "lat": 13.8196486, "lon": 100.4395781}, {"type": "node", "id": 3812862147, "lat": 13.8197342, "lon": 100.4393539}, {"type": "node", "id": 3812862148, "lat": 13.8198741, "lon": 100.439135}, {"type": "node", "id": 3812862369, "lat": 13.8275652, "lon": 100.436874}, {"type": "node", "id": 3812862371, "lat": 13.8279826, "lon": 100.4358346}, {"type": "node", "id": 3812862372, "lat": 13.8279826, "lon": 100.4372062}, {"type": "node", "id": 3812862373, "lat": 13.8280357, "lon": 100.4370968}, {"type": "node", "id": 3812862377, "lat": 13.8284949, "lon": 100.4374133}, {"type": "node", "id": 3812862381, "lat": 13.828935, "lon": 100.4362527}, {"type": "node", "id": 3812862388, "lat": 13.8345006, "lon": 100.426573}, {"type": "node", "id": 3812862391, "lat": 13.8347842, "lon": 100.4246936}, {"type": "node", "id": 3812862395, "lat": 13.8352908, "lon": 100.426099}, {"type": "node", "id": 5250159165, "lat": 13.8337179, "lon": 100.4251782}, {"type": "node", "id": 12120345405, "lat": 13.8352191, "lon": 100.4259979}, {"type": "node", "id": 12120345406, "lat": 13.8353524, "lon": 100.4259064}, {"type": "node", "id": 12120345407, "lat": 13.834537, "lon": 100.4266541}, {"type": "node", "id": 12120345408, "lat": 13.834604, "lon": 100.426624}, {"type": "node", "id": 12120345409, "lat": 13.8346556, "lon": 100.4267036}, {"type": "node", "id": 12120345410, "lat": 13.8353687, "lon": 100.4262347}, {"type": "node", "id": 12120345418, "lat": 13.8337593, "lon": 100.4252305}, {"type": "node", "id": 12122014064, "lat": 13.8348308, "lon": 100.4247931}, {"type": "node", "id": 11959767869, "lat": 13.8393626, "lon": 100.4238315}, {"type": "node", "id": 11959767870, "lat": 13.8397472, "lon": 100.423715}, {"type": "node", "id": 11959767871, "lat": 13.8398231, "lon": 100.423698}, {"type": "node", "id": 11959767872, "lat": 13.8398582, "lon": 100.4237226}, {"type": "node", "id": 11959767873, "lat": 13.8406505, "lon": 100.4234899}, {"type": "node", "id": 11959767874, "lat": 13.8405976, "lon": 100.4233128}, {"type": "node", "id": 11959767875, "lat": 13.840705, "lon": 100.4232792}, {"type": "node", "id": 11959767876, "lat": 13.8407007, "lon": 100.4232527}, {"type": "node", "id": 11959767877, "lat": 13.8405778, "lon": 100.4229171}, {"type": "node", "id": 11959767878, "lat": 13.8403874, "lon": 100.4224661}, {"type": "node", "id": 11959767879, "lat": 13.840231, "lon": 100.4223812}, {"type": "node", "id": 11959767880, "lat": 13.8400669, "lon": 100.4221742}, {"type": "node", "id": 11959767881, "lat": 13.839963, "lon": 100.4222352}, {"type": "node", "id": 11959767882, "lat": 13.8396692, "lon": 100.4221927}, {"type": "node", "id": 11959767883, "lat": 13.8395778, "lon": 100.4222427}, {"type": "node", "id": 11959767884, "lat": 13.8388834, "lon": 100.4225794}, {"type": "node", "id": 12120337118, "lat": 13.8426096, "lon": 100.4220066}, {"type": "node", "id": 12120337119, "lat": 13.8415325, "lon": 100.4223425}, {"type": "node", "id": 12120337120, "lat": 13.8415731, "lon": 100.4225189}, {"type": "node", "id": 12120337121, "lat": 13.8418882, "lon": 100.4231278}, {"type": "node", "id": 12120337122, "lat": 13.8419507, "lon": 100.4233022}, {"type": "node", "id": 12120337123, "lat": 13.84212, "lon": 100.4233048}, {"type": "node", "id": 12120337124, "lat": 13.8432633, "lon": 100.4231037}, {"type": "node", "id": 12120337125, "lat": 13.8431097, "lon": 100.4227094}, {"type": "node", "id": 12120337126, "lat": 13.8427763, "lon": 100.4222051}, {"type": "node", "id": 12120337145, "lat": 13.841957, "lon": 100.4221304}, {"type": "node", "id": 1398185259, "lat": 13.8374515, "lon": 100.429704}, {"type": "node", "id": 1398185262, "lat": 13.8372054, "lon": 100.4299493}, {"type": "node", "id": 1398185268, "lat": 13.8370253, "lon": 100.4301324}, {"type": "node", "id": 1398185327, "lat": 13.8364882, "lon": 100.4295749}, {"type": "node", "id": 1398185488, "lat": 13.8367884, "lon": 100.4298853}, {"type": "node", "id": 1398185496, "lat": 13.836775, "lon": 100.4292807}, {"type": "node", "id": 1398185497, "lat": 13.837024, "lon": 100.4290314}, {"type": "node", "id": 1398185498, "lat": 13.8372317, "lon": 100.4292514}, {"type": "node", "id": 1398185499, "lat": 13.8375556, "lon": 100.429602}, {"type": "node", "id": 1398482425, "lat": 13.8441848, "lon": 100.4371914}, {"type": "node", "id": 1398482430, "lat": 13.844229, "lon": 100.4361279}, {"type": "node", "id": 1398482431, "lat": 13.8442824, "lon": 100.4359052}, {"type": "node", "id": 3812475848, "lat": 13.8435012, "lon": 100.4396719}, {"type": "node", "id": 3812475855, "lat": 13.8444206, "lon": 100.4402732}, {"type": "node", "id": 3812476057, "lat": 13.8444668, "lon": 100.439722}, {"type": "node", "id": 4637026960, "lat": 13.8428308, "lon": 100.4372751}, {"type": "node", "id": 4637026961, "lat": 13.8430663, "lon": 100.4373084}, {"type": "node", "id": 4637026962, "lat": 13.8429186, "lon": 100.4385488}, {"type": "node", "id": 4637026963, "lat": 13.8428762, "lon": 100.4385241}, {"type": "node", "id": 4637026964, "lat": 13.8427531, "lon": 100.4380644}, {"type": "node", "id": 4637026965, "lat": 13.8427508, "lon": 100.4379209}, {"type": "node", "id": 4637026966, "lat": 13.8424498, "lon": 100.4371918}, {"type": "node", "id": 4637026967, "lat": 13.8424454, "lon": 100.4373594}, {"type": "node", "id": 4637026968, "lat": 13.8423498, "lon": 100.4380493}, {"type": "node", "id": 4637026969, "lat": 13.8423146, "lon": 100.4380731}, {"type": "node", "id": 4637026970, "lat": 13.8421782, "lon": 100.4378216}, {"type": "node", "id": 4637026971, "lat": 13.8421782, "lon": 100.4376687}, {"type": "node", "id": 4637026972, "lat": 13.8421639, "lon": 100.4376234}, {"type": "node", "id": 4637026973, "lat": 13.8421276, "lon": 100.4375101}, {"type": "node", "id": 4637026974, "lat": 13.8420792, "lon": 100.4374342}, {"type": "node", "id": 4637026975, "lat": 13.8420561, "lon": 100.437381}, {"type": "node", "id": 6579501016, "lat": 13.8398484, "lon": 100.4399166}, {"type": "node", "id": 6579501017, "lat": 13.839598, "lon": 100.4398284}, {"type": "node", "id": 6579501018, "lat": 13.8395473, "lon": 100.4399525}, {"type": "node", "id": 6579501019, "lat": 13.83885, "lon": 100.4396881}, {"type": "node", "id": 6579501020, "lat": 13.8394871, "lon": 100.4383236}, {"type": "node", "id": 6579501021, "lat": 13.8404633, "lon": 100.4388622}, {"type": "node", "id": 6579501022, "lat": 13.8402668, "lon": 100.439391}, {"type": "node", "id": 6579501023, "lat": 13.8400386, "lon": 100.4394302}, {"type": "node", "id": 7278377368, "lat": 13.8442855, "lon": 100.4402761}, {"type": "node", "id": 7278377370, "lat": 13.843596, "lon": 100.4396259}, {"type": "node", "id": 7278377371, "lat": 13.8434443, "lon": 100.4395777}, {"type": "node", "id": 7278377373, "lat": 13.8442234, "lon": 100.436435}, {"type": "node", "id": 7278377377, "lat": 13.8433815, "lon": 100.4390933}, {"type": "node", "id": 7278377378, "lat": 13.8436516, "lon": 100.4391212}, {"type": "node", "id": 7278377379, "lat": 13.8436071, "lon": 100.4395066}, {"type": "node", "id": 7278377380, "lat": 13.8435313, "lon": 100.4395168}, {"type": "node", "id": 7278419775, "lat": 13.8433474, "lon": 100.4395787}, {"type": "node", "id": 7278420353, "lat": 13.8434231, "lon": 100.4400875}, {"type": "node", "id": 7278420354, "lat": 13.8433893, "lon": 100.4397637}, {"type": "node", "id": 7278420355, "lat": 13.8433495, "lon": 100.4396576}, {"type": "node", "id": 7278420356, "lat": 13.8433413, "lon": 100.4393436}, {"type": "node", "id": 12196597419, "lat": 13.8370702, "lon": 100.4495798}, {"type": "node", "id": 12196597420, "lat": 13.8365348, "lon": 100.4494229}, {"type": "node", "id": 12196597421, "lat": 13.8365793, "lon": 100.4491441}, {"type": "node", "id": 12196597422, "lat": 13.8366396, "lon": 100.449085}, {"type": "node", "id": 12196597423, "lat": 13.8372188, "lon": 100.449186}, {"type": "node", "id": 12196597424, "lat": 13.8372595, "lon": 100.4492536}, {"type": "node", "id": 12196597425, "lat": 13.8371253, "lon": 100.4495441}, {"type": "node", "id": 7278419772, "lat": 13.8444637, "lon": 100.4411503}, {"type": "node", "id": 7278419773, "lat": 13.8443371, "lon": 100.4410326}, {"type": "node", "id": 7278419774, "lat": 13.8443196, "lon": 100.441001}, {"type": "node", "id": 7278420350, "lat": 13.8441045, "lon": 100.4415044}, {"type": "node", "id": 7278420351, "lat": 13.843918, "lon": 100.4411269}, {"type": "node", "id": 7278420352, "lat": 13.8436634, "lon": 100.4406859}, {"type": "node", "id": 6389845448, "lat": 13.8394253, "lon": 100.4487898}, {"type": "node", "id": 6389845449, "lat": 13.8395301, "lon": 100.4488425}, {"type": "node", "id": 6389845450, "lat": 13.8394093, "lon": 100.4491851}, {"type": "node", "id": 6389845451, "lat": 13.8392708, "lon": 100.4491154}, {"type": "node", "id": 6389845452, "lat": 13.8394908, "lon": 100.4489254}, {"type": "node", "id": 6389845453, "lat": 13.8395244, "lon": 100.4489424}, {"type": "node", "id": 1398482419, "lat": 13.8450872, "lon": 100.436097}, {"type": "node", "id": 1398482438, "lat": 13.8449816, "lon": 100.4372718}, {"type": "node", "id": 6168046746, "lat": 13.8454681, "lon": 100.4403448}, {"type": "node", "id": 7278377372, "lat": 13.8447069, "lon": 100.4372399}, {"type": "node", "id": 3812476104, "lat": 13.849025, "lon": 100.4451169}, {"type": "node", "id": 3812476105, "lat": 13.8496655, "lon": 100.4438748}, {"type": "node", "id": 3812476109, "lat": 13.8509472, "lon": 100.4450095}, {"type": "node", "id": 3812476110, "lat": 13.8509972, "lon": 100.4440025}, {"type": "node", "id": 6168046747, "lat": 13.8456671, "lon": 100.4405081}, {"type": "node", "id": 6168046748, "lat": 13.8456416, "lon": 100.4406467}, {"type": "node", "id": 6168046749, "lat": 13.8454322, "lon": 100.4406375}, {"type": "node", "id": 6168046750, "lat": 13.8452872, "lon": 100.4405527}, {"type": "node", "id": 6397529954, "lat": 13.8495299, "lon": 100.4438875}, {"type": "node", "id": 6397529955, "lat": 13.8494332, "lon": 100.4441372}, {"type": "node", "id": 6397529956, "lat": 13.8493467, "lon": 100.4443648}, {"type": "node", "id": 6397529957, "lat": 13.8499662, "lon": 100.4455766}, {"type": "node", "id": 6397529958, "lat": 13.8502793, "lon": 100.4450416}, {"type": "node", "id": 6397529959, "lat": 13.8508285, "lon": 100.4450772}, {"type": "node", "id": 6397529960, "lat": 13.8502328, "lon": 100.4455524}, {"type": "node", "id": 6398210906, "lat": 13.8495871, "lon": 100.4445344}, {"type": "node", "id": 6398210907, "lat": 13.8495729, "lon": 100.4445712}, {"type": "node", "id": 6398210908, "lat": 13.8495119, "lon": 100.4445462}, {"type": "node", "id": 6398210909, "lat": 13.8495261, "lon": 100.4445094}]}