{"version": 0.6, "generator": "Overpass API 0.7.62.8 e802775f", "osm3s": {"timestamp_osm_base": "2025-11-20T03:20:30Z", "copyright": "The data included in this document is from www.openstreetmap.org. The data is made available under ODbL."}, "elements": [{"type": "node", "id": 317050266, "lat": 13.7462462, "lon": 100.6085348, "tags": {"ele": "2", "name": "Patra Place", "tourism": "hotel"}}, {"type": "node", "id": 566131232, "lat": 13.7119996, "lon": 100.6066815, "tags": {"amenity": "restaurant", "name": "\u0e1a\u0e30\u0e2b\u0e21\u0e35\u0e48\u0e19\u0e32\u0e22\u0e14\u0e33", "note": "\u0e15\u0e31\u0e49\u0e07\u0e2d\u0e22\u0e39\u0e48\u0e1b\u0e32\u0e01\u0e0b\u0e2d\u0e22\u0e2d\u0e48\u0e2d\u0e19\u0e19\u0e38\u0e0a 13 \u0e2b\u0e19\u0e49\u0e32\u0e23\u0e49\u0e32\u0e19 7-Eleven \u0e40\u0e1b\u0e34\u0e14\u0e1a\u0e23\u0e34\u0e01\u0e32\u0e23 : \u0e1b\u0e23\u0e30\u0e21\u0e32\u0e13 17.30 \u0e19."}}, {"type": "node", "id": 1088409371, "lat": 13.7055017, "lon": 100.6003804, "tags": {"amenity": "restaurant", "brand": "Pizza Hut", "brand:wikidata": "Q191615", "cuisine": "pizza", "name": "Pizza Hut"}}, {"type": "node", "id": 1088409398, "lat": 13.7097069, "lon": 100.6017638, "tags": {"amenity": "restaurant", "brand": "MK Restaurants", "brand:wikidata": "Q62075359", "cuisine": "thai", "name": "MK Restaurants", "name:en": "MK Restaurants", "operator": "MK Restaurants", "phone": "1642", "website": "https://www.mkrestaurant.com/"}}, {"type": "node", "id": 1088409420, "lat": 13.7125063, "lon": 100.6052019, "tags": {"amenity": "restaurant", "name": "Spoons"}}, {"type": "node", "id": 1088409423, "lat": 13.7133543, "lon": 100.6048591, "tags": {"amenity": "restaurant", "name": "Chor Chaba"}}, {"type": "node", "id": 1283649193, "lat": 13.7095724, "lon": 100.6015429, "tags": {"alt_name": "Black Canyon", "amenity": "cafe", "cuisine": "coffee_shop", "name": "Black Canyon Coffee"}}, {"type": "node", "id": 3431296259, "lat": 13.741577, "lon": 100.6252419, "tags": {"amenity": "cafe", "brand": "Starbucks", "brand:wikidata": "Q37158", "brand:wikipedia": "en:Starbucks", "cuisine": "coffee_shop", "name": "Starbucks", "name:en": "Starbucks Coffee", "name:th": "\u0e2a\u0e15\u0e32\u0e23\u0e4c\u0e1a\u0e31\u0e04\u0e2a\u0e4c", "official_name": "Starbucks Coffee", "shop": "coffee", "smoking": "no", "takeaway": "yes", "website": "https://www.starbucks.com/"}}, {"type": "node", "id": 3871022579, "lat": 13.7368381, "lon": 100.6322318, "tags": {"beds": "20", "email": "aroundtheworldbnb@gmail.com", "fax": "+6627229881", "internet_access": "wlan", "name": "Arownd the World Bed & Breakfast", "phone": "+6627229881", "rooms": "9", "stars": "3", "tourism": "hotel", "website": "http://www.aroundtheworldbnb.com", "wheelchair": "no"}}, {"type": "node", "id": 3874650035, "lat": 13.7116576, "lon": 100.6354798, "tags": {"amenity": "cafe", "name": "Coffee"}}, {"type": "node", "id": 3930464071, "lat": 13.7430536, "lon": 100.6010588, "tags": {"amenity": "cafe", "brand": "Starbucks", "brand:wikidata": "Q37158", "brand:wikipedia": "en:Starbucks", "cuisine": "coffee_shop", "name": "Starbucks", "name:en": "Starbucks Coffee", "name:ja": "Starbucks Coffee", "name:th": "\u0e2a\u0e15\u0e32\u0e23\u0e4c\u0e1a\u0e31\u0e04\u0e2a\u0e4c", "official_name": "Starbucks Coffee", "shop": "coffee", "smoking": "no", "status": "closed", "survey:date": "2024-12-18", "takeaway": "yes", "website": "https://www.starbucks.com/"}}, {"type": "node", "id": 3939206266, "lat": 13.7410968, "lon": 100.6250081, "tags": {"amenity": "cafe", "name": "Au Bon Pain"}}, {"type": "node", "id": 3939206267, "lat": 13.7414208, "lon": 100.625638, "tags": {"amenity": "restaurant", "name": "Domino's Pizza"}}, {"type": "node", "id": 3939206272, "lat": 13.7415165, "lon": 100.6246125, "tags": {"amenity": "restaurant", "name": "S&P"}}, {"type": "node", "id": 3939206273, "lat": 13.7412553, "lon": 100.6249015, "tags": {"amenity": "restaurant", "name": "Scoozi"}}, {"type": "node", "id": 3939206274, "lat": 13.7415549, "lon": 100.6253156, "tags": {"amenity": "cafe", "name": "Swensen's"}}, {"type": "node", "id": 4107052790, "lat": 13.7107191, "lon": 100.6101003, "tags": {"name": "Chic", "tourism": "hotel"}}, {"type": "node", "id": 4107060890, "lat": 13.7104596, "lon": 100.6100912, "tags": {"name": "Hotel", "tourism": "hotel"}}, {"type": "node", "id": 4131983648, "lat": 13.7331144, "lon": 100.6458489, "tags": {"addr:street": "\u0e16\u0e19\u0e19\u0e1e\u0e31\u0e12\u0e19\u0e32\u0e01\u0e32\u0e23", "amenity": "restaurant", "name": "Cobana 56", "name:en": "Cobana 56", "name:th": "\u0e42\u0e04\u0e1a\u0e32\u0e19\u0e32 56"}}, {"type": "node", "id": 4132009652, "lat": 13.7322752, "lon": 100.6498532, "tags": {"amenity": "restaurant", "name": "\u0e2a\u0e49\u0e21\u0e15\u0e33\u0e40\u0e21\u0e37\u0e2d\u0e07\u0e17\u0e2d\u0e07"}}, {"type": "node", "id": 4201668190, "lat": 13.7029917, "lon": 100.6020145, "tags": {"addr:street": "\u0e16\u0e19\u0e19\u0e2a\u0e38\u0e02\u0e38\u0e21\u0e27\u0e34\u0e17", "amenity": "cafe"}}, {"type": "node", "id": 4258020090, "lat": 13.7062172, "lon": 100.6054094, "tags": {"internet_access": "wlan", "name": "Solo Express", "tourism": "hotel"}}, {"type": "node", "id": 4345171289, "lat": 13.7091587, "lon": 100.6050613, "tags": {"addr:housenumber": "199/112", "addr:postcode": "10250", "addr:street": "\u0e0b\u0e2d\u0e22 \u0e2a\u0e38\u0e02\u0e38\u0e21\u0e27\u0e34\u0e1777", "name": "81\u0e41\u0e21\u0e19\u0e0a\u0e31\u0e48\u0e19", "opening_hours": "24/7", "tourism": "hostel"}}, {"type": "node", "id": 4380077590, "lat": 13.7122791, "lon": 100.6066365, "tags": {"addr:street": "On Nut Soi 8", "amenity": "restaurant", "name": "\ud3c9\uc591 \uc544\ub9ac\ub791 \ubd81\ud55c \uc2dd\ub2f9", "name:en": "Pyongyang Arirang North Korean Restautrant", "name:th": "\ud3c9\uc591 \uc544\ub9ac\ub791 \ubd81\ud55c \uc2dd\ub2f9"}}, {"type": "node", "id": 4405467089, "lat": 13.7093382, "lon": 100.6022994, "tags": {"name": "The Bedrooms Boutique Hotel", "tourism": "hotel", "website": "https://www.thebedrooms.com/"}}, {"type": "node", "id": 4405467090, "lat": 13.7094383, "lon": 100.6022432, "tags": {"amenity": "cafe", "name": "The Bedrooms Cafe"}}, {"type": "node", "id": 4405551821, "lat": 13.7100133, "lon": 100.6012513, "tags": {"amenity": "cafe", "name": "Cafe'77"}}, {"type": "node", "id": 4406456089, "lat": 13.7228231, "lon": 100.6152307, "tags": {"amenity": "cafe", "name:en": "VeganOrganic"}}, {"type": "node", "id": 4408378896, "lat": 13.7066805, "lon": 100.605878, "tags": {"amenity": "restaurant"}}, {"type": "node", "id": 4408378898, "lat": 13.7066557, "lon": 100.6057935, "tags": {"amenity": "restaurant"}}, {"type": "node", "id": 4408378899, "lat": 13.7067124, "lon": 100.6059593, "tags": {"amenity": "restaurant"}}, {"type": "node", "id": 4410717693, "lat": 13.7417647, "lon": 100.6260421, "tags": {"addr:postcode": "10320", "addr:street": "\u0e2b\u0e21\u0e39\u0e48\u0e1a\u0e49\u0e32\u0e19\u0e40\u0e2a\u0e23\u0e35", "amenity": "cafe", "cuisine": "coffee_shop", "internet_access": "wlan", "name": "\u0e44\u0e25-\u0e1a\u0e23\u0e32-\u0e23\u0e35\u0e48", "name:en": "Library", "name:th": "\u0e44\u0e25-\u0e1a\u0e23\u0e32-\u0e23\u0e35\u0e48", "phone": "+6627183993"}}, {"type": "node", "id": 4410717694, "lat": 13.7415238, "lon": 100.626107, "tags": {"name:en": "Nine Forty One Hotel", "tourism": "hotel"}}, {"type": "node", "id": 4410735791, "lat": 13.7410462, "lon": 100.6247876, "tags": {"amenity": "restaurant", "cuisine": "italian_pizza", "name:en": "Scoozi"}}, {"type": "node", "id": 4410735792, "lat": 13.74117, "lon": 100.6262352, "tags": {"amenity": "restaurant", "name:en": "A List Bar & Bistro"}}, {"type": "node", "id": 4412447599, "lat": 13.7417525, "lon": 100.628997, "tags": {"addr:postcode": "10320", "amenity": "cafe", "cuisine": "coffee_shop", "name:en": "Rabica Coffee"}}, {"type": "node", "id": 4412504089, "lat": 13.7420531, "lon": 100.6301055, "tags": {"addr:housenumber": "1077", "addr:postcode": "10320", "addr:street": "\u0e16\u0e19\u0e19\u0e1e\u0e23\u0e30\u0e23\u0e32\u0e21 9", "amenity": "restaurant", "cuisine": "thai", "name": "\u0e40\u0e23\u0e37\u0e2d\u0e19\u0e19\u0e32\u0e22\u0e44\u0e17", "name:en": "Nine Thai Cuisine", "name:th": "\u0e40\u0e23\u0e37\u0e2d\u0e19\u0e19\u0e32\u0e22\u0e44\u0e17", "phone": "+6627183724"}}, {"type": "node", "id": 4412727689, "lat": 13.7424452, "lon": 100.634495, "tags": {"name": "UBER wasutha", "name:th": "UBER wasutha", "opening_hours": "Mo-Su 09:30-18:30", "tourism": "attraction"}}, {"type": "node", "id": 4450401391, "lat": 13.738783, "lon": 100.6140644, "tags": {"addr:postcode": "10250", "addr:street": "\u0e1e\u0e31\u0e12\u0e19\u0e32\u0e01\u0e32\u0e23 25", "name": "\u0e1e\u0e31\u0e12\u0e19\u0e32\u0e01\u0e32\u0e23 \u0e44\u0e25\u0e1f\u0e4c \u0e04\u0e2d\u0e21\u0e40\u0e1e\u0e25\u0e01\u0e0b\u0e4c", "name:en": "Pattanakarn life complex", "name:th": "\u0e1e\u0e31\u0e12\u0e19\u0e32\u0e01\u0e32\u0e23 \u0e44\u0e25\u0e1f\u0e4c \u0e04\u0e2d\u0e21\u0e40\u0e1e\u0e25\u0e01\u0e0b\u0e4c", "tourism": "hotel"}}, {"type": "node", "id": 4465807589, "lat": 13.7424787, "lon": 100.6316437, "tags": {"amenity": "restaurant", "name:en": "Tai food", "name:ru": "\u0422\u0430\u0439\u0441\u043a\u0438\u0439 \u0440\u0435\u0441\u0442\u043e\u0440\u0430\u043d"}}, {"type": "node", "id": 4465807590, "lat": 13.7428536, "lon": 100.63243, "tags": {"amenity": "cafe", "name:en": "Coffee place", "name:ru": "\u041a\u043e\u0444\u0435\u0439\u043d\u044f"}}, {"type": "node", "id": 4466101896, "lat": 13.7027674, "lon": 100.6032222, "tags": {"amenity": "cafe", "cuisine": "coffee_shop", "name:en": "Cup Zee"}}, {"type": "node", "id": 4466102102, "lat": 13.7050133, "lon": 100.6010153, "tags": {"amenity": "restaurant", "cuisine": "chinese", "name": "MK Restaurant", "name:en": "MK Restaurant"}}, {"type": "node", "id": 4467234293, "lat": 13.7041465, "lon": 100.6021859, "tags": {"amenity": "cafe", "cuisine": "coffee_shop", "name": "True Coffee", "name:en": "True Coffee", "opening_hours": "Mo-Su 07:00-20:00", "source": "GPS"}}, {"type": "node", "id": 4564420090, "lat": 13.7106166, "lon": 100.6013026, "tags": {"amenity": "restaurant", "cuisine": "japanese", "name:en": "Fukuichi", "opening_hours": "Mo-Su 17:30-00:00", "operator": "Shoichi Ishihara", "phone": "0925674320", "website": "http://fb.com/fukuichi.291/"}}, {"type": "node", "id": 4589687512, "lat": 13.7346844, "lon": 100.6041204, "tags": {"description": "Exit 4", "information": "guidepost", "name": "Exit 4", "note": "Exit 4", "tourism": "information"}}, {"type": "node", "id": 4594362260, "lat": 13.7130258, "lon": 100.6009249, "tags": {"addr:postcode": "10110", "addr:province": "\u0e01\u0e23\u0e38\u0e07\u0e40\u0e17\u0e1e\u0e21\u0e2b\u0e32\u0e19\u0e04\u0e23", "addr:street": "\u0e0b\u0e2d\u0e22 \u0e2d\u0e48\u0e2d\u0e19\u0e19\u0e38\u0e0a 1/1", "amenity": "cafe", "brand": "Starbucks", "brand:wikidata": "Q37158", "brand:wikipedia": "en:Starbucks", "cuisine": "coffee_shop", "level": "0", "name": "Starbucks", "official_name": "Starbucks Coffee", "takeaway": "yes"}}, {"type": "node", "id": 4627494090, "lat": 13.7410739, "lon": 100.6185017, "tags": {"name": "woraburi hotel", "name:th": "woraburi hotel", "tourism": "hotel"}}, {"type": "node", "id": 4630729989, "lat": 13.740642, "lon": 100.60141, "tags": {"amenity": "restaurant", "name:en": "Chua Kim Heng"}}, {"type": "node", "id": 4677450589, "lat": 13.705143, "lon": 100.6025008, "tags": {"name:en": "New On Nut Night Market", "tourism": "attraction"}}, {"type": "node", "id": 4683378651, "lat": 13.7418156, "lon": 100.6206754, "tags": {"amenity": "cafe", "name": "Coffee Today", "opening_hours": "Mo-Su 07:30-17:00"}}, {"type": "node", "id": 4721474692, "lat": 13.7044141, "lon": 100.6365363, "tags": {"amenity": "cafe", "name": "Lunch location 7 mar17 1235", "name:th": "Lunch location 7 mar17 1235"}}, {"type": "node", "id": 4757962654, "lat": 13.7127923, "lon": 100.6007761, "tags": {"addr:postcode": "10110", "addr:province": "\u0e01\u0e23\u0e38\u0e07\u0e40\u0e17\u0e1e\u0e21\u0e2b\u0e32\u0e19\u0e04\u0e23", "addr:street": "\u0e0b\u0e2d\u0e22\u0e2d\u0e48\u0e2d\u0e19\u0e19\u0e38\u0e0a 1/1", "amenity": "restaurant", "cuisine": "vietnamese", "level": "2", "name": "Muine", "opening_hours": "Mo-Su 11:00-21:30", "outdoor_seating": "yes", "phone": "0929594629", "takeaway": "yes"}}, {"type": "node", "id": 4784305721, "lat": 13.7427231, "lon": 100.6189926, "tags": {"addr:postcode": "10250", "amenity": "restaurant", "name:en": "The Hub Cafe and Eatery", "opening_hours": "Tu-Su 09:00-21:00", "phone": "0927897181"}}, {"type": "node", "id": 4824674909, "lat": 13.742882, "lon": 100.6347771, "tags": {"amenity": "restaurant", "description": "Coffee style restaurant serving food too and good wines.", "name": "Hey 53 Coffee and kitchen"}}, {"type": "node", "id": 4827556825, "lat": 13.7072076, "lon": 100.6078435, "tags": {"internet_access": "wlan", "name:en": "Pillow Land On Nut", "tourism": "hostel"}}, {"type": "node", "id": 4838209921, "lat": 13.7088184, "lon": 100.6173718, "tags": {"addr:housenumber": "914", "addr:postcode": "10110", "addr:street": "On Nut Soi 28", "amenity": "cafe", "name:en": "Magpie", "opening_hours": "Mo-Su 08:00-20:00", "phone": "02-116-1670"}}, {"type": "node", "id": 4853578423, "lat": 13.7128773, "lon": 100.600753, "tags": {"addr:postcode": "10110", "addr:province": "\u0e01\u0e23\u0e38\u0e07\u0e40\u0e17\u0e1e\u0e21\u0e2b\u0e32\u0e19\u0e04\u0e23", "addr:street": "\u0e0b\u0e2d\u0e22\u0e2d\u0e48\u0e2d\u0e19\u0e19\u0e38\u0e0a 1/1", "amenity": "cafe", "level": "1", "name:en": "Green Geek", "opening_hours": "Th-Tu 08:00-20:30; We 09:00-20:30"}}, {"type": "node", "id": 4867303021, "lat": 13.7466607, "lon": 100.6087031, "tags": {"name:en": "Patra", "tourism": "hotel"}}, {"type": "node", "id": 4907161421, "lat": 13.7351662, "lon": 100.6036046, "tags": {"name": "\u0e40\u0e1e\u0e34\u0e48\u0e21\u0e2a\u0e38\u0e02\u0e41\u0e21\u0e19\u0e0a\u0e31\u0e48\u0e19", "name:th": "\u0e40\u0e1e\u0e34\u0e48\u0e21\u0e2a\u0e38\u0e02\u0e41\u0e21\u0e19\u0e0a\u0e31\u0e48\u0e19", "phone": "0891098540", "tourism": "information"}}, {"type": "node", "id": 5023347205, "lat": 13.7110028, "lon": 100.6033412, "tags": {"addr:housenumber": "266", "addr:postcode": "10110", "addr:province": "\u0e01\u0e23\u0e38\u0e07\u0e40\u0e17\u0e1e\u0e21\u0e2b\u0e32\u0e19\u0e04\u0e23", "addr:street": "\u0e16\u0e19\u0e19\u0e2d\u0e48\u0e2d\u0e19\u0e19\u0e38\u0e0a", "amenity": "cafe", "cuisine": "cafe", "name": "Yada Cafe"}}, {"type": "node", "id": 5072593361, "lat": 13.7108039, "lon": 100.602956, "tags": {"addr:housenumber": "252/1-2", "addr:postcode": "10110", "addr:province": "\u0e01\u0e23\u0e38\u0e07\u0e40\u0e17\u0e1e\u0e21\u0e2b\u0e32\u0e19\u0e04\u0e23", "addr:street": "\u0e16\u0e19\u0e19\u0e2d\u0e48\u0e2d\u0e19\u0e19\u0e38\u0e0a", "amenity": "cafe", "name": "Trica", "website": "http://trica-hostel.com/"}}, {"type": "node", "id": 5082788127, "lat": 13.7135294, "lon": 100.6014737, "tags": {"amenity": "restaurant", "name": "Fish & Chips"}}, {"type": "node", "id": 5170565122, "lat": 13.7123031, "lon": 100.6052147, "tags": {"addr:housenumber": "607/3", "addr:postcode": "10250", "addr:street": "\u0e16\u0e19\u0e19\u0e2d\u0e48\u0e2d\u0e19\u0e19\u0e38\u0e0a", "amenity": "restaurant", "cuisine": "chicken;korean", "name:en": "Charm Chicken", "name:ko": "\ucc38\uce58\ud0a8", "opening_hours": "Mo-Su 11:30-22:00"}}, {"type": "node", "id": 5294929223, "lat": 13.7048017, "lon": 100.6068938, "tags": {"addr:street": "\u0e0b\u0e2d\u0e22\u0e2a\u0e38\u0e02\u0e38\u0e21\u0e27\u0e34\u0e17 85", "name": "Regent Home 22", "tourism": "apartment"}}, {"type": "node", "id": 5315842221, "lat": 13.7121728, "lon": 100.6232384, "tags": {"name": "\u0e2b\u0e21\u0e39\u0e48\u0e1a\u0e49\u0e32\u0e19 mj", "tourism": "hostel"}}, {"type": "node", "id": 5338639725, "lat": 13.7048725, "lon": 100.6070012, "tags": {"name": "Regent Home 22", "tourism": "apartment"}}, {"type": "node", "id": 5537728921, "lat": 13.7005887, "lon": 100.6081953, "tags": {"amenity": "restaurant", "cuisine": "japanese;sushi", "name:en": "Yao Chan Sushi (Best Sushis Ever)"}}, {"type": "node", "id": 5660175921, "lat": 13.7057164, "lon": 100.6016159, "tags": {"amenity": "cafe", "diet:vegan": "yes", "level": "0", "name:en": "So Vegan", "opening_hours": "Mo-Su 11:00-20:00"}}, {"type": "node", "id": 5729895918, "lat": 13.7128575, "lon": 100.6010078, "tags": {"addr:postcode": "10110", "addr:province": "\u0e01\u0e23\u0e38\u0e07\u0e40\u0e17\u0e1e\u0e21\u0e2b\u0e32\u0e19\u0e04\u0e23", "addr:street": "\u0e0b\u0e2d\u0e22\u0e2d\u0e48\u0e2d\u0e19\u0e19\u0e38\u0e0a 1/1", "amenity": "restaurant", "cuisine": "japanese", "level": "2", "name": "TEIEN SUSHI", "opening_hours": "Mo-Su 11:00-21:30"}}, {"type": "node", "id": 5872770587, "lat": 13.7135489, "lon": 100.6336034, "tags": {"addr:housenumber": "234", "addr:street": "\u0e16\u0e19\u0e19\u0e2d\u0e48\u0e2d\u0e19\u0e19\u0e38\u0e0a", "name:en": "A space", "tourism": "apartment"}}, {"type": "node", "id": 6007541311, "lat": 13.7088172, "lon": 100.618287, "tags": {"name": "Empo", "tourism": "hotel"}}, {"type": "node", "id": 6008057085, "lat": 13.7472218, "lon": 100.6127201, "tags": {"name": "\u0e19\u0e34\u0e20\u0e32 \u0e2d\u0e1e\u0e32\u0e23\u0e4c\u0e15\u0e40\u0e21\u0e19\u0e15\u0e4c", "name:en": "Nipa Apartment", "tourism": "apartment"}}, {"type": "node", "id": 6008063085, "lat": 13.7493539, "lon": 100.6127098, "tags": {"name": "\u0e23\u0e32\u0e21 12 \u0e04\u0e2d\u0e19\u0e42\u0e14\u0e21\u0e34\u0e40\u0e19\u0e35\u0e22\u0e21", "name:en": "Ram 12 Condominium", "tourism": "apartment"}}, {"type": "node", "id": 6140128127, "lat": 13.7456547, "lon": 100.6240188, "tags": {"amenity": "restaurant", "name": "\u0e04\u0e23\u0e31\u0e27\u0e41\u0e21\u0e48\u0e40\u0e08\u0e35\u0e4a\u0e22\u0e1a", "name:en": "Kruamaejeab", "opening_hours": "Mo-Su 10:30-22:00", "phone": "+66996524656", "toilets:access": "customers"}}, {"type": "node", "id": 6175942185, "lat": 13.733446, "lon": 100.6493654, "tags": {"amenity": "restaurant", "name": "\u0e01\u0e4b\u0e27\u0e22\u0e40\u0e15\u0e35\u0e4b\u0e22\u0e27\u0e40\u0e23\u0e37\u0e2d \u0e40\u0e27\u0e19\u0e34\u0e0a", "name:en": "Kway Teow Ruea Venice"}}, {"type": "node", "id": 6207487615, "lat": 13.7149213, "lon": 100.6024711, "tags": {"historic": "wayside_shrine"}}, {"type": "node", "id": 6218332485, "lat": 13.7146209, "lon": 100.6021801, "tags": {"amenity": "cafe", "name:en": "BEANS", "opening_hours": "Mo-Su 07:00-07:00"}}, {"type": "node", "id": 6330379285, "lat": 13.7364321, "lon": 100.6196197, "tags": {"amenity": "restaurant", "name:en": "LONDONER"}}, {"type": "node", "id": 6447902712, "lat": 13.7103485, "lon": 100.6013312, "tags": {"name:ja": "\u3059\u3044\u304b\u30cf\u30a6\u30b9", "tourism": "hostel"}}, {"type": "node", "id": 6447948095, "lat": 13.716189, "lon": 100.6432147, "tags": {"name:ja": "\u30a4\u30a2\u30e0\u30fb\u30bd\u30d0\u30c3\u30c8\u5e02\u5834", "tourism": "viewpoint"}}, {"type": "node", "id": 6467545070, "lat": 13.7386277, "lon": 100.6056508, "tags": {"amenity": "restaurant", "name": "\u0e2d\u0e35\u0e2a\u0e32\u0e19\u0e15\u0e30\u0e27\u0e31\u0e19\u0e41\u0e14\u0e07", "name:de": "Tawan Deng Isaan", "name:en": "Tawan deng esan"}}, {"type": "node", "id": 6757006841, "lat": 13.7126363, "lon": 100.600827, "tags": {"addr:postcode": "10110", "addr:street": "\u0e0b\u0e2d\u0e22 \u0e2d\u0e48\u0e2d\u0e19\u0e19\u0e38\u0e0a 1/1", "amenity": "restaurant", "name": "Tonic", "opening_hours": "Mo-Su 08:00-20:30", "website": "https://tonicbkk.com"}}, {"type": "node", "id": 6757017128, "lat": 13.7127431, "lon": 100.600788, "tags": {"amenity": "cafe", "brand": "\u0e04\u0e32\u0e40\u0e1f\u0e48 \u0e2d\u0e40\u0e21\u0e0b\u0e2d\u0e19", "brand:en": "Caf\u00e9 Amazon", "brand:th": "\u0e04\u0e32\u0e40\u0e1f\u0e48 \u0e2d\u0e40\u0e21\u0e0b\u0e2d\u0e19", "brand:wikidata": "Q43247503", "cuisine": "coffee_shop", "name": "\u0e04\u0e32\u0e40\u0e1f\u0e48 \u0e2d\u0e40\u0e21\u0e0b\u0e2d\u0e19", "name:en": "Caf\u00e9 Amazon", "name:th": "\u0e04\u0e32\u0e40\u0e1f\u0e48 \u0e2d\u0e40\u0e21\u0e0b\u0e2d\u0e19", "takeaway": "yes"}}, {"type": "node", "id": 7035595185, "lat": 13.7071145, "lon": 100.6010382, "tags": {"amenity": "restaurant", "cuisine": "pizza", "name:en": "Cafe Di Maria"}}, {"type": "node", "id": 7085692176, "lat": 13.7199523, "lon": 100.6015703, "tags": {"amenity": "restaurant", "cuisine": "italian", "name": "Bon Amici", "operator": "Bon Amici"}}, {"type": "node", "id": 7944235785, "lat": 13.7117992, "lon": 100.6086726, "tags": {"addr:housenumber": "608", "addr:postcode": "10250", "addr:province": "\u0e01\u0e23\u0e38\u0e07\u0e40\u0e17\u0e1e\u0e21\u0e2b\u0e32\u0e19\u0e04\u0e23", "addr:street": "\u0e16\u0e19\u0e19\u0e2d\u0e48\u0e2d\u0e19\u0e19\u0e38\u0e0a", "amenity": "cafe", "name:en": "Coffee Is Coming", "opening_hours": "Mo-Su 07:30-19:00", "outdoor_seating": "yes", "phone": "084 348 3583"}}, {"type": "node", "id": 8006789685, "lat": 13.7107469, "lon": 100.6028324, "tags": {"addr:postcode": "10110", "addr:street": "\u0e16\u0e19\u0e19\u0e2d\u0e48\u0e2d\u0e19\u0e19\u0e38\u0e0a", "amenity": "restaurant", "cuisine": "mexican", "name:en": "Tacos & Salsa", "phone": "02 004 7932"}}, {"type": "node", "id": 8090122737, "lat": 13.7374287, "lon": 100.6265454, "tags": {"amenity": "cafe", "brand": "\u0e04\u0e32\u0e40\u0e1f\u0e48 \u0e2d\u0e40\u0e21\u0e0b\u0e2d\u0e19", "brand:en": "Caf\u00e9 Amazon", "brand:th": "\u0e04\u0e32\u0e40\u0e1f\u0e48 \u0e2d\u0e40\u0e21\u0e0b\u0e2d\u0e19", "brand:wikidata": "Q43247503", "cuisine": "coffee_shop", "internet_access": "wlan", "internet_access:fee": "customers", "name": "\u0e04\u0e32\u0e40\u0e1f\u0e48 \u0e2d\u0e40\u0e21\u0e0b\u0e2d\u0e19", "name:en": "Caf\u00e9 Amazon", "name:th": "\u0e04\u0e32\u0e40\u0e1f\u0e48 \u0e2d\u0e40\u0e21\u0e0b\u0e2d\u0e19", "opening_hours": "06:00-20:00", "outdoor_seating": "no", "takeaway": "yes", "wheelchair": "no"}}, {"type": "node", "id": 8172762767, "lat": 13.7476327, "lon": 100.623764, "tags": {"amenity": "restaurant", "description": "Simply amazing pizza on a homemade rustic pizza dough, with homemade pastas, salads and desserts. A must try.", "name": "Yeast Rustic Pizza", "opening_hours": "Tu-Su 11:00-21:00", "phone": "081-646-9527", "website": "https://m.facebook.com/yeastbkk/"}}, {"type": "node", "id": 8569010517, "lat": 13.711909, "lon": 100.6084765, "tags": {"amenity": "restaurant", "brand": "Bonchon Chicken", "brand:wikidata": "Q4941248", "cuisine": "chicken;korean;sushi", "name": "Bonchon Chicken", "name:en": "Bonchon"}}, {"type": "node", "id": 8617235885, "lat": 13.7363067, "lon": 100.6342955, "tags": {"air_conditioning": "no", "amenity": "restaurant", "cuisine": "duck", "delivery": "yes", "name": "\u0e02\u0e49\u0e32\u0e27\u0e2b\u0e19\u0e49\u0e32\u0e40\u0e1b\u0e47\u0e14\u0e1e\u0e31\u0e12\u0e19\u0e32\u0e01\u0e32\u0e23", "takeaway": "yes"}}, {"type": "node", "id": 8617235887, "lat": 13.7363385, "lon": 100.6339326, "tags": {"air_conditioning": "no", "amenity": "restaurant", "cuisine": "chicken", "name": "\u0e02\u0e49\u0e32\u0e27\u0e21\u0e31\u0e19\u0e44\u0e01\u0e48\u0e15\u0e2d\u0e07 8"}}, {"type": "node", "id": 9201498976, "lat": 13.7004603, "lon": 100.6031404, "tags": {"addr:city": "\u0e41\u0e02\u0e27\u0e07\u0e1e\u0e23\u0e30\u0e42\u0e02\u0e19\u0e07\u0e43\u0e15\u0e49", "addr:housenumber": "1", "addr:postcode": "10260", "addr:street": "\u0e0b\u0e2d\u0e22\u0e2a\u0e38\u0e02\u0e38\u0e21\u0e27\u0e34\u0e17 58", "name": "The Quarter Onnut by UHG", "tourism": "hotel"}}, {"type": "node", "id": 9874611617, "lat": 13.7316663, "lon": 100.6381671, "tags": {"addr:street": "\u0e0b\u0e2d\u0e22\u0e1e\u0e31\u0e12\u0e19\u0e32\u0e01\u0e32\u0e23 54", "name": "\u0e40\u0e2d. \u0e40\u0e2d\u0e1f. \u0e41\u0e21\u0e19\u0e0a\u0e31\u0e48\u0e19", "name:en": "A.F. Mansios", "phone": "0899660817", "tourism": "apartment"}}, {"type": "node", "id": 9917226418, "lat": 13.7116583, "lon": 100.6082212, "tags": {"amenity": "cafe", "name": "Green Season", "opening_hours": "Mo-Su 10:00-21:00"}}, {"type": "node", "id": 9984514617, "lat": 13.7125417, "lon": 100.6008299, "tags": {"amenity": "cafe", "contact:instagram": "EasyHealth", "name": "Easy Health", "name:en": "Easy Health", "opening_hours": "Mo-Su 11:00-22:00"}}, {"type": "node", "id": 10120223518, "lat": 13.7469098, "lon": 100.6449179, "tags": {"addr:street": "399 Srinagarindra Rd, Hua Mak, Bang Kapi District, Bangkok 10240, Thailand", "amenity": "restaurant", "name:en": "Mod Daeng"}}, {"type": "node", "id": 10262493509, "lat": 13.7065678, "lon": 100.6052965, "tags": {"amenity": "restaurant", "cuisine": "thai", "name:en": "RK food garden 81"}}, {"type": "node", "id": 10542441065, "lat": 13.7335039, "lon": 100.6473064, "tags": {"air_conditioning": "yes", "amenity": "cafe", "internet_access": "wlan", "name": "Mor Mor Cafe", "opening_hours": "Mo-Su 10:30-18:30", "outdoor_seating": "no", "website": "https://th-th.facebook.com/mormormilkcafe/"}}, {"type": "node", "id": 10548743389, "lat": 13.7359937, "lon": 100.6423535, "tags": {"amenity": "restaurant", "name": "\u0e04\u0e23\u0e31\u0e27\u0e04\u0e38\u0e13\u0e41\u0e21\u0e48", "phone": "0847330022"}}, {"type": "node", "id": 10548743390, "lat": 13.7360315, "lon": 100.6422828, "tags": {"amenity": "restaurant", "name": "\u0e2d\u0e34\u0e19\u0e40\u0e15\u0e2d\u0e23\u0e4c"}}, {"type": "node", "id": 10833478305, "lat": 13.7057254, "lon": 100.6014699, "tags": {"amenity": "restaurant", "level": "1", "name:en": "Salad Factory"}}, {"type": "node", "id": 10910504939, "lat": 13.7039809, "lon": 100.6004494, "tags": {"addr:housenumber": "3", "addr:postcode": "10260", "addr:province": "\u0e01\u0e23\u0e38\u0e07\u0e40\u0e17\u0e1e\u0e21\u0e2b\u0e32\u0e19\u0e04\u0e23", "addr:street": "\u0e0b\u0e2d\u0e22\u0e2a\u0e38\u0e02\u0e38\u0e21\u0e27\u0e34\u0e17 52", "air_conditioning": "yes", "brand": "HOP INN", "email": "info@hopinnhotel.com", "internet_access": "wlan", "internet_access:fee": "customers", "name": "HOP INN Bangkok Onnut Station", "phone": "+66 2659 2899", "rooms": "133", "tourism": "hotel", "website": "https://www.hopinnhotel.com/our-hotels/hop-inn-bangkok-onnut-station"}}, {"type": "node", "id": 10968775106, "lat": 13.7102443, "lon": 100.6004837, "tags": {"amenity": "restaurant", "cuisine": "thai", "diet:vegan": "yes", "name": "So Vegan", "opening_hours": "Mo-Su 06:00-15:00"}}, {"type": "node", "id": 11095255405, "lat": 13.7069694, "lon": 100.6047368, "tags": {"addr:housenumber": "85", "addr:street": "\u0e0b\u0e2d\u0e22\u0e2a\u0e38\u0e02\u0e38\u0e21\u0e27\u0e34\u0e17 81", "amenity": "cafe", "cuisine": "coffee_shop;sandwich;tea", "internet_access": "wlan", "name:en": "Princess Cafe", "opening_hours": "We-Mo 08:30-17:00", "phone": "+66 81 867 50 15"}}, {"type": "node", "id": 11414615269, "lat": 13.7367605, "lon": 100.6160947, "tags": {"addr:housenumber": "1050", "addr:postcode": "10250", "addr:street": "\u0e16\u0e19\u0e19\u0e1e\u0e31\u0e12\u0e19\u0e32\u0e01\u0e32\u0e23", "amenity": "cafe", "cuisine": "asian;breakfast;coffee_shop;sandwich", "internet_access": "wlan", "name:en": "Bytengraph"}}, {"type": "node", "id": 11502432569, "lat": 13.719585, "lon": 100.6401099, "tags": {"amenity": "restaurant", "cuisine": "japanese", "name:en": "Sushi food", "opening_hours": "Mo-Su 12:00-20:00"}}, {"type": "node", "id": 11752122869, "lat": 13.7052416, "lon": 100.6015603, "tags": {"name:en": "Avani", "tourism": "hotel"}}, {"type": "node", "id": 11921812304, "lat": 13.7113667, "lon": 100.6084421, "tags": {"addr:housenumber": "486", "addr:place": "\u0e2d\u0e48\u0e2d\u0e19\u0e19\u0e38\u0e0a", "addr:province": "\u0e01\u0e23\u0e38\u0e07\u0e40\u0e17\u0e1e\u0e21\u0e2b\u0e32\u0e19\u0e04\u0e23", "addr:street": "\u0e16\u0e19\u0e19\u0e2d\u0e48\u0e2d\u0e19\u0e19\u0e38\u0e0a", "amenity": "cafe", "description": "Animal cafe featuring dogs, cats, and a raccoon", "name": "Little Zoo Cafe", "opening_hours": "Mo-Su 11:00-19:00"}}, {"type": "node", "id": 12038995757, "lat": 13.7106017, "lon": 100.6008884, "tags": {"addr:city": "\u0e41\u0e02\u0e27\u0e07\u0e1e\u0e23\u0e30\u0e42\u0e02\u0e19\u0e07\u0e40\u0e2b\u0e19\u0e37\u0e2d", "addr:housenumber": "64/17 Soi", "addr:postcode": "10110", "addr:street": "75 Sukhumvit Rd", "amenity": "restaurant", "cuisine": "american;sandwich", "name": "Five Dollar Diner", "opening_hours": "Mo-Su 10:00-22:00", "phone": "+66610245929"}}, {"type": "node", "id": 12049726765, "lat": 13.7363767, "lon": 100.6362858, "tags": {"historic": "wayside_shrine"}}, {"type": "node", "id": 12309632101, "lat": 13.741238, "lon": 100.6132369, "tags": {"addr:housenumber": "154", "addr:postcode": "10250", "addr:street": "\u0e16\u0e19\u0e19\u0e01\u0e33\u0e41\u0e1e\u0e07\u0e40\u0e1e\u0e0a\u0e23 7", "amenity": "restaurant", "contact:facebook": "BuddiesCafebkk", "cuisine": "pakistani", "internet_access": "wlan", "name": "Buddies Caf\u00e9 & Restaurant", "opening_hours": "Mo-Su 11:30-23:30", "phone": "+66 66 027 8697"}}, {"type": "node", "id": 12310928601, "lat": 13.7359184, "lon": 100.6188604, "tags": {"addr:housenumber": "17", "addr:postcode": "10250", "addr:street": "\u0e0b\u0e2d\u0e22\u0e1e\u0e31\u0e12\u0e19\u0e32\u0e01\u0e32\u0e23 30", "amenity": "cafe", "brand": "\u0e04\u0e32\u0e40\u0e1f\u0e48 \u0e2d\u0e40\u0e21\u0e0b\u0e2d\u0e19", "brand:en": "Caf\u00e9 Amazon", "brand:th": "\u0e04\u0e32\u0e40\u0e1f\u0e48 \u0e2d\u0e40\u0e21\u0e0b\u0e2d\u0e19", "brand:wikidata": "Q43247503", "cuisine": "coffee_shop", "internet_access": "wlan", "name": "\u0e04\u0e32\u0e40\u0e1f\u0e48 \u0e2d\u0e40\u0e21\u0e0b\u0e2d\u0e19", "name:en": "Caf\u00e9 Amazon", "name:th": "\u0e04\u0e32\u0e40\u0e1f\u0e48 \u0e2d\u0e40\u0e21\u0e0b\u0e2d\u0e19", "opening_hours": "Mo-Fr 07:00-18:00; Sa-Su 07:30-18:00", "phone": "+66 80 095 5446", "takeaway": "yes"}}, {"type": "node", "id": 12311211201, "lat": 13.7443612, "lon": 100.6243531, "tags": {"addr:housenumber": "1", "addr:postcode": "10250", "addr:street": "\u0e0b\u0e2d\u0e22\u0e1e\u0e23\u0e30\u0e23\u0e32\u0e21 9 \u0e0b\u0e2d\u0e22 41", "amenity": "restaurant", "branch": "\u0e1e\u0e23\u0e30\u0e23\u0e32\u0e21\u0e40\u0e01\u0e49\u0e3241", "contact:facebook": "TeamCareforU", "cuisine": "asian;local", "diet:healthy": "yes", "internet_access": "wlan", "name": "Green Season Healthy", "opening_hours": "Mo-Su 10:00-21:00", "phone": "+66 98 212 1499"}}, {"type": "node", "id": 12311586501, "lat": 13.7437633, "lon": 100.6244708, "tags": {"addr:housenumber": "2", "addr:postcode": "10250", "addr:street": "\u0e0b\u0e2d\u0e22\u0e1e\u0e23\u0e30\u0e23\u0e32\u0e21 9 \u0e0b\u0e2d\u0e22 41", "amenity": "cafe", "cuisine": "cake;coffee_shop;japanese;tea", "internet_access": "wlan", "name": "Time's House Thailand", "opening_hours": "Mo-Su 10:00-19:00", "phone": "+66 84 333 3191"}}, {"type": "node", "id": 12317273101, "lat": 13.7070558, "lon": 100.6078642, "tags": {"name": "Yowgo", "tourism": "hostel"}}, {"type": "node", "id": 12339938001, "lat": 13.7380755, "lon": 100.6313175, "tags": {"addr:postcode": "10250", "addr:street": "Pattanakarn Road", "name": "420 House- up to 10 guests in central Bangkok", "tourism": "guest_house"}}, {"type": "node", "id": 12464787501, "lat": 13.7057308, "lon": 100.6018126, "tags": {"amenity": "cafe", "brand": "\u0e04\u0e32\u0e40\u0e1f\u0e48 \u0e2d\u0e40\u0e21\u0e0b\u0e2d\u0e19", "brand:en": "Caf\u00e9 Amazon", "brand:th": "\u0e04\u0e32\u0e40\u0e1f\u0e48 \u0e2d\u0e40\u0e21\u0e0b\u0e2d\u0e19", "brand:wikidata": "Q43247503", "cuisine": "coffee_shop", "name": "\u0e04\u0e32\u0e40\u0e1f\u0e48 \u0e2d\u0e40\u0e21\u0e0b\u0e2d\u0e19", "name:en": "Caf\u00e9 Amazon", "name:th": "\u0e04\u0e32\u0e40\u0e1f\u0e48 \u0e2d\u0e40\u0e21\u0e0b\u0e2d\u0e19", "takeaway": "yes"}}, {"type": "node", "id": 12464848901, "lat": 13.7053349, "lon": 100.6014658, "tags": {"amenity": "cafe", "brand": "Starbucks", "brand:wikidata": "Q37158", "cuisine": "coffee_shop", "name": "Starbucks", "official_name": "Starbucks Coffee", "opening_hours": "Mo-Su 06:30-22:00", "takeaway": "yes"}}, {"type": "node", "id": 12464848902, "lat": 13.7052394, "lon": 100.6015031, "tags": {"amenity": "cafe", "brand": "The Coffee Club", "brand:wikidata": "Q7726599", "cuisine": "coffee_shop", "name": "The Coffee Club", "opening_hours": "Su-Th 07:00-22:00; Fr-Sa 07:00-23:00", "takeaway": "yes"}}, {"type": "node", "id": 12580961902, "lat": 13.7052653, "lon": 100.6457537, "tags": {"amenity": "restaurant", "name": "Dar Al-Yemen Restaurant Bangkok"}}, {"type": "node", "id": 12619823328, "lat": 13.7136653, "lon": 100.6427105, "tags": {"amenity": "marketplace", "name": "\u0e15\u0e25\u0e32\u0e14\u0e40\u0e2d\u0e35\u0e48\u0e22\u0e21\u0e2a\u0e21\u0e1a\u0e31\u0e15\u0e34"}}, {"type": "node", "id": 12619899546, "lat": 13.7312744, "lon": 100.6499979, "tags": {"amenity": "cafe", "brand": "\u0e04\u0e32\u0e40\u0e1f\u0e48 \u0e2d\u0e40\u0e21\u0e0b\u0e2d\u0e19", "brand:en": "Caf\u00e9 Amazon", "brand:th": "\u0e04\u0e32\u0e40\u0e1f\u0e48 \u0e2d\u0e40\u0e21\u0e0b\u0e2d\u0e19", "brand:wikidata": "Q43247503", "cuisine": "coffee_shop", "name": "\u0e04\u0e32\u0e40\u0e1f\u0e48 \u0e2d\u0e40\u0e21\u0e0b\u0e2d\u0e19", "name:en": "Caf\u00e9 Amazon", "name:th": "\u0e04\u0e32\u0e40\u0e1f\u0e48 \u0e2d\u0e40\u0e21\u0e0b\u0e2d\u0e19", "takeaway": "yes"}}, {"type": "node", "id": 12619899547, "lat": 13.7320715, "lon": 100.6491812, "tags": {"amenity": "cafe", "cuisine": "coffee_shop"}}, {"type": "node", "id": 12680497638, "lat": 13.7190704, "lon": 100.6333477, "tags": {"amenity": "restaurant", "cuisine": "thai", "name": "\u0e2d\u0e31\u0e2a\u0e21\u0e32 \u0e15\u0e33\u0e41\u0e0b\u0e48\u0e1a"}}, {"type": "node", "id": 12680497639, "lat": 13.7190624, "lon": 100.6332892, "tags": {"amenity": "cafe", "cuisine": "coffee_shop", "name": "YourMine"}}, {"type": "node", "id": 12680497641, "lat": 13.7192185, "lon": 100.6336328, "tags": {"amenity": "restaurant", "cuisine": "thai", "name": "\u0e40\u0e19\u0e37\u0e49\u0e2d\u0e15\u0e38\u0e4b\u0e19\u0e1e\u0e31\u0e19\u0e25\u0e49\u0e32\u0e19"}}, {"type": "node", "id": 12731416537, "lat": 13.7052196, "lon": 100.6009953, "tags": {"amenity": "marketplace", "check_date": "2025-04-05"}}, {"type": "node", "id": 12736990345, "lat": 13.7016728, "lon": 100.603628, "tags": {"amenity": "restaurant"}}, {"type": "node", "id": 12736990346, "lat": 13.7016783, "lon": 100.603207, "tags": {"historic": "wayside_shrine", "religion": "buddhist"}}, {"type": "node", "id": 12772546901, "lat": 13.7091615, "lon": 100.6070016, "tags": {"name": "GP House", "tourism": "hotel"}}, {"type": "node", "id": 12813805013, "lat": 13.7018051, "lon": 100.6037105, "tags": {"addr:district": "\u0e1e\u0e23\u0e30\u0e42\u0e02\u0e19\u0e07", "addr:housenumber": "9", "addr:postcode": "10260", "addr:province": "\u0e01\u0e23\u0e38\u0e07\u0e40\u0e17\u0e1e\u0e21\u0e2b\u0e32\u0e19\u0e04\u0e23", "addr:street": "\u0e0b\u0e2d\u0e22\u0e2a\u0e38\u0e02\u0e38\u0e21\u0e27\u0e34\u0e17 87", "addr:subdistrict": "\u0e1a\u0e32\u0e07\u0e08\u0e32\u0e01", "brand": "Ramada", "brand:wikidata": "Q1502859", "email": "info@ramadasukhumvitbangkok.com", "internet_access": "yes", "internet_access:fee": "customers", "name": "Ramada by Wyndham Bangkok Sukhumvit 87", "official_name": "Ramada by Wyndham Bangkok Sukhumvit 87", "phone": "023311325", "tourism": "hotel", "website": "https://www.ramadasukhumvitbangkok.com/"}}, {"type": "node", "id": 13108115701, "lat": 13.7281908, "lon": 100.6100246, "tags": {"name": "Podtel", "tourism": "hotel"}}, {"type": "node", "id": 13164366401, "lat": 13.7359126, "lon": 100.6402606, "tags": {"addr:housenumber": "2525", "addr:street": "\u0e16\u0e19\u0e19\u0e1e\u0e31\u0e12\u0e19\u0e32\u0e01\u0e32\u0e23", "internet_access": "wlan", "name": "silpasala stayz", "opening_hours": "Mo-Su 11:00-19:00", "phone": "+66 81 512 6396", "tourism": "hostel"}}, {"type": "node", "id": 13164412001, "lat": 13.7358554, "lon": 100.6402506, "tags": {"amenity": "cafe", "internet_access": "wlan", "name": "\u0e41\u0e21\u0e48\u0e44\u0e21\u0e49", "name:en": "Mae Mai", "name:th": "\u0e41\u0e21\u0e48\u0e44\u0e21\u0e49", "opening_hours": "Mo-Su 11:00-20:00"}}, {"type": "node", "id": 13270274676, "lat": 13.701708, "lon": 100.6027787, "tags": {"addr:district": "\u0e1e\u0e23\u0e30\u0e42\u0e02\u0e19\u0e07", "addr:housenumber": "1810", "addr:place": "Phra Khanong Tai, Phra Khanong,", "addr:postcode": "10260", "addr:province": "\u0e01\u0e23\u0e38\u0e07\u0e40\u0e17\u0e1e\u0e21\u0e2b\u0e32\u0e19\u0e04\u0e23", "addr:street": "Sukhumvit Rd", "addr:subdistrict": "\u0e1a\u0e32\u0e07\u0e08\u0e32\u0e01", "amenity": "restaurant", "contact:facebook": "https://www.facebook.com/malanthailand", "cuisine": "chinese;asian", "name": "Mala N", "name:en": "Mala N", "opening_hours": "Mo-Su 11:00-21:00", "parking": "yes", "takeaway": "yes"}}, {"type": "way", "id": 113107209, "nodes": [1283649218, 1283649041, 1283649220, 1283649128, 1283649218], "tags": {"addr:district": "\u0e27\u0e31\u0e12\u0e19\u0e32", "addr:province": "\u0e01\u0e23\u0e38\u0e07\u0e40\u0e17\u0e1e\u0e21\u0e2b\u0e32\u0e19\u0e04\u0e23", "addr:subdistrict": "\u0e1e\u0e23\u0e30\u0e42\u0e02\u0e19\u0e07\u0e40\u0e2b\u0e19\u0e37\u0e2d", "amenity": "marketplace", "building": "roof", "name": "\u0e15\u0e25\u0e32\u0e14\u0e2d\u0e48\u0e2d\u0e19\u0e19\u0e38\u0e0a", "name:en": "On Nut Fresh Market", "name:th": "\u0e15\u0e25\u0e32\u0e14\u0e2d\u0e48\u0e2d\u0e19\u0e19\u0e38\u0e0a"}}, {"type": "way", "id": 113107217, "nodes": [1283649082, 1283649043, 1283653318, 1283653316, 1283649198, 1283649073, 1088409629, 8627959462, 4923930194, 1283649082], "tags": {"amenity": "place_of_worship", "denomination": "thai_mahanikaya", "name": "\u0e27\u0e31\u0e14\u0e43\u0e15\u0e49", "name:en": "Wat Tai", "name:th": "\u0e27\u0e31\u0e14\u0e43\u0e15\u0e49", "religion": "buddhist", "wikidata": "Q99602754", "wikimedia_commons": "Category:Wat Tai, Bangkok", "wikipedia": "th:\u0e27\u0e31\u0e14\u0e43\u0e15\u0e49 (\u0e01\u0e23\u0e38\u0e07\u0e40\u0e17\u0e1e\u0e21\u0e2b\u0e32\u0e19\u0e04\u0e23)"}}, {"type": "way", "id": 113135449, "nodes": [1283869597, 1283869428, 1283868903, 1283868880, 1283869597], "tags": {"addr:district": "\u0e27\u0e31\u0e12\u0e19\u0e32", "addr:province": "\u0e01\u0e23\u0e38\u0e07\u0e40\u0e17\u0e1e\u0e21\u0e2b\u0e32\u0e19\u0e04\u0e23", "addr:subdistrict": "\u0e1e\u0e23\u0e30\u0e42\u0e02\u0e19\u0e07\u0e40\u0e2b\u0e19\u0e37\u0e2d", "building": "yes", "building:levels": "47", "name": "Knightsbridge Prime Onnut", "opening_date": "Q4 2020", "tourism": "apartment"}}, {"type": "way", "id": 113135457, "nodes": [1283869114, 1283869545, 5858830644, 1283868994, 1283868991, 1283869142, 1283869337, 1283869125, 1283869453, 1283868975, 1283868925, 1283869077, 1283869323, 1283869114], "tags": {"amenity": "place_of_worship", "denomination": "thai_mahanikaya", "name": "\u0e27\u0e31\u0e14\u0e21\u0e2b\u0e32\u0e1a\u0e38\u0e28\u0e22\u0e4c", "name:en": "Wat Maha But", "name:th": "\u0e27\u0e31\u0e14\u0e21\u0e2b\u0e32\u0e1a\u0e38\u0e28\u0e22\u0e4c", "religion": "buddhist", "wikidata": "Q66385373", "wikimedia_commons": "Category:Wat Mahabut", "wikipedia": "th:\u0e27\u0e31\u0e14\u0e21\u0e2b\u0e32\u0e1a\u0e38\u0e28\u0e22\u0e4c"}}, {"type": "way", "id": 153174623, "nodes": [1658905073, 1658904970, 1658904972, 1658904959, 1658904962, 1658904975, 1658904978, 1658904964, 1658904967, 1658904980, 1658904981, 1658905091, 1658905088, 1658905100, 1658905099, 1658905078, 1658905077, 1658905095, 1658905093, 1658905075, 1658905073], "tags": {"addr:district": "\u0e27\u0e31\u0e12\u0e19\u0e32", "addr:postcode": "10110", "addr:province": "\u0e01\u0e23\u0e38\u0e07\u0e40\u0e17\u0e1e\u0e21\u0e2b\u0e32\u0e19\u0e04\u0e23", "addr:subdistrict": "\u0e04\u0e25\u0e2d\u0e07\u0e15\u0e31\u0e19\u0e40\u0e2b\u0e19\u0e37\u0e2d", "building": "yes", "name": "Alberry Palace", "tourism": "hotel"}}, {"type": "way", "id": 153174628, "nodes": [1658905118, 1658905059, 1658905056, 1658905116, 1658905118], "tags": {"addr:district": "\u0e27\u0e31\u0e12\u0e19\u0e32", "addr:postcode": "10110", "addr:province": "\u0e01\u0e23\u0e38\u0e07\u0e40\u0e17\u0e1e\u0e21\u0e2b\u0e32\u0e19\u0e04\u0e23", "addr:subdistrict": "\u0e04\u0e25\u0e2d\u0e07\u0e15\u0e31\u0e19\u0e40\u0e2b\u0e19\u0e37\u0e2d", "building": "yes", "internet_access": "wlan", "name": "Refill Now", "tourism": "hostel", "website": "http://www.refillnow.co.th/"}}, {"type": "way", "id": 253320959, "nodes": [2592655828, 2592655826, 2592655822, 2592655824, 2592655828], "tags": {"addr:postcode": "10250", "addr:province": "\u0e01\u0e23\u0e38\u0e07\u0e40\u0e17\u0e1e\u0e21\u0e2b\u0e32\u0e19\u0e04\u0e23", "addr:street": "44 Sukhumvit 71 - Ramkhamhaeng Road", "air_conditioning": "yes", "building": "yes", "building:levels": "25", "internet_access": "wlan", "internet_access:fee": "no", "name": "Nasa Bangkok", "name:th": "\u0e19\u0e32\u0e0b\u0e48\u0e32 \u0e41\u0e1a\u0e07\u0e04\u0e2d\u0e01", "pets": "no", "phone": "+66 2 719 9888", "smoking": "no", "stars": "4", "tourism": "hotel", "website": "https://nasabangkok.thailandhotels.site/"}}, {"type": "way", "id": 274287224, "nodes": [2790450342, 2790450345, 2790450350, 5792736026, 5792736029, 12619899555, 12619899554, 12619899558, 2790450353, 2790450356, 2790450359, 2790450362, 2790459468, 8189458122, 12573733819, 2790450342], "tags": {"addr:city": "\u0e2a\u0e27\u0e19\u0e2b\u0e25\u0e27\u0e07", "addr:housenumber": "499", "addr:postcode": "10250", "addr:street": "\u0e16\u0e19\u0e19\u0e1e\u0e31\u0e12\u0e19\u0e32\u0e01\u0e32\u0e23", "amenity": "school", "grades": "7-12", "layer": "-1", "name": "\u0e42\u0e23\u0e07\u0e40\u0e23\u0e35\u0e22\u0e19\u0e40\u0e15\u0e23\u0e35\u0e22\u0e21\u0e2d\u0e38\u0e14\u0e21\u0e28\u0e36\u0e01\u0e29\u0e32\u0e1e\u0e31\u0e12\u0e19\u0e32\u0e01\u0e32\u0e23", "name:en": "Triam Udom Suksa Pattanakarn School", "name:th": "\u0e42\u0e23\u0e07\u0e40\u0e23\u0e35\u0e22\u0e19\u0e40\u0e15\u0e23\u0e35\u0e22\u0e21\u0e2d\u0e38\u0e14\u0e21\u0e28\u0e36\u0e01\u0e29\u0e32\u0e1e\u0e31\u0e12\u0e19\u0e32\u0e01\u0e32\u0e23", "religion": "buddhist", "website": "http://tup.ac.th/", "wikidata": "Q6673646", "wikipedia": "en:Triam Udom Suksa Pattanakarn School"}}, {"type": "way", "id": 316372604, "nodes": [3224798666, 3224798667, 3224798671, 3224798673, 3224798666], "tags": {"landuse": "residential", "name": "IDEO Mobi Sukhumvit", "tourism": "hotel"}}, {"type": "way", "id": 332038790, "nodes": [3391461525, 5096662651, 3391461536, 5096662653, 3391461528, 5096662654, 5096662652, 3391461519, 12736990344, 3391461525], "tags": {"addr:district": "\u0e1e\u0e23\u0e30\u0e42\u0e02\u0e19\u0e07", "addr:housenumber": "9", "addr:postcode": "10260", "addr:province": "\u0e01\u0e23\u0e38\u0e07\u0e40\u0e17\u0e1e\u0e21\u0e2b\u0e32\u0e19\u0e04\u0e23", "addr:street": "\u0e0b\u0e2d\u0e22\u0e2a\u0e38\u0e02\u0e38\u0e21\u0e27\u0e34\u0e17 87", "addr:subdistrict": "\u0e1a\u0e32\u0e07\u0e08\u0e32\u0e01", "brand": "Ramada", "brand:wikidata": "Q1502859", "building": "hotel", "email": "info@ramadasukhumvitbangkok.com", "internet_access": "yes", "internet_access:fee": "customers", "name": "Ramada by Wyndham Bangkok Sukhumvit 87", "official_name": "Ramada by Wyndham Bangkok Sukhumvit 87", "phone": "023311325", "tourism": "hotel", "website": "https://www.ramadasukhumvitbangkok.com/"}}, {"type": "way", "id": 355244688, "nodes": [3608539837, 3608541921, 3608541923, 3608541922, 3608535043, 3608535040, 3608535044, 3608541924, 3608541925, 3608539856, 3608539855, 3608539854, 1286878106, 1286879120, 1286879041, 1286879178, 1286878569, 3608535334, 3608535335, 1286878489, 1286879025, 1286878011, 3608539836, 3608539834, 3608539835, 3608539833, 3608539838, 3608539837], "tags": {"amenity": "place_of_worship", "denomination": "thai_mahanikaya", "name": "\u0e27\u0e31\u0e14\u0e22\u0e32\u0e07", "name:en": "Wat Yang", "name:th": "\u0e27\u0e31\u0e14\u0e22\u0e32\u0e07", "religion": "buddhist", "source:name": "http://www.mapillary.com/map/im/XZ265HWYeMx6mfiXDNzevw", "wikidata": "Q66385406", "wikimedia_commons": "Category:Wat Yang, Bangkok", "wikipedia": "th:\u0e27\u0e31\u0e14\u0e22\u0e32\u0e07 (\u0e01\u0e23\u0e38\u0e07\u0e40\u0e17\u0e1e\u0e21\u0e2b\u0e32\u0e19\u0e04\u0e23)"}}, {"type": "way", "id": 390783350, "nodes": [3939188960, 3939188961, 1590267086, 3939188959, 3939188958, 3939188960], "tags": {"addr:postcode": "10250", "addr:province": "\u0e01\u0e23\u0e38\u0e07\u0e40\u0e17\u0e1e\u0e21\u0e2b\u0e32\u0e19\u0e04\u0e23", "addr:street": "\u0e16\u0e19\u0e19\u0e1e\u0e23\u0e30\u0e23\u0e32\u0e21 9", "amenity": "place_of_worship", "denomination": "thai_mahanikaya", "name": "\u0e27\u0e31\u0e14\u0e1a\u0e49\u0e32\u0e19\u0e17\u0e38\u0e48\u0e07\u0e40\u0e2a\u0e23\u0e35", "name:en": "Wat Ban Thung Seri", "name:th": "\u0e27\u0e31\u0e14\u0e1a\u0e49\u0e32\u0e19\u0e17\u0e38\u0e48\u0e07\u0e40\u0e2a\u0e23\u0e35", "religion": "buddhist", "wikidata": "Q100698852"}}, {"type": "way", "id": 390895605, "nodes": [3940465945, 3940465938, 3940465939, 3940465940, 3940465941, 3940465942, 3940465943, 3940465944, 3940465946, 3940465947, 3940465948, 3940465950, 3940465952, 3940465953, 3940465954, 3940465945], "tags": {"amenity": "place_of_worship", "denomination": "thai_mahanikaya", "loc_name": "\u0e27\u0e31\u0e14\u0e42\u0e04\u0e01", "loc_name:en": "Wat Khok", "loc_name:th": "\u0e27\u0e31\u0e14\u0e42\u0e04\u0e01", "name": "\u0e27\u0e31\u0e14\u0e23\u0e32\u0e29\u0e0e\u0e23\u0e4c\u0e28\u0e23\u0e31\u0e17\u0e18\u0e32\u0e18\u0e23\u0e23\u0e21", "name:en": "Wat Rat Satthatham", "name:th": "\u0e27\u0e31\u0e14\u0e23\u0e32\u0e29\u0e0e\u0e23\u0e4c\u0e28\u0e23\u0e31\u0e17\u0e18\u0e32\u0e18\u0e23\u0e23\u0e21", "religion": "buddhist"}}, {"type": "way", "id": 390895606, "nodes": [3608331445, 3608331442, 3940470957, 3940465955, 3940465956, 3940470958, 3608331445], "tags": {"amenity": "place_of_worship", "denomination": "thai_mahanikaya", "name": "\u0e27\u0e31\u0e14\u0e17\u0e2d\u0e07\u0e43\u0e19", "name:en": "Wat Thong Nai", "name:th": "\u0e27\u0e31\u0e14\u0e17\u0e2d\u0e07\u0e43\u0e19", "religion": "buddhist", "wikidata": "Q100698853", "wikipedia": "th:\u0e27\u0e31\u0e14\u0e17\u0e2d\u0e07\u0e43\u0e19"}}, {"type": "way", "id": 391004998, "nodes": [1286878607, 3941583057, 3941583058, 3941583059, 3941583060, 6513896970, 1286877965, 10277179800, 1286877860, 1371997418, 1286878607], "tags": {"amenity": "place_of_worship", "denomination": "thai_mahanikaya", "name": "\u0e27\u0e31\u0e14\u0e15\u0e49\u0e19\u0e44\u0e17\u0e23\u0e22\u0e4c", "name:en": "Wat Ton Sai", "name:th": "\u0e27\u0e31\u0e14\u0e15\u0e49\u0e19\u0e44\u0e17\u0e23\u0e22\u0e4c", "religion": "buddhist", "wikidata": "Q100698854", "wikipedia": "th:\u0e27\u0e31\u0e14\u0e15\u0e49\u0e19\u0e44\u0e17\u0e23\u0e22\u0e4c"}}, {"type": "way", "id": 391005000, "nodes": [3941583108, 3941583072, 3941583073, 3941583061, 3941583063, 3941583107, 1286879275, 3608332518, 3941583108], "tags": {"amenity": "place_of_worship", "denomination": "thai_mahanikaya", "name": "\u0e27\u0e31\u0e14\u0e1b\u0e32\u0e01\u0e1a\u0e48\u0e2d", "name:en": "Wat Pak Bo", "name:th": "\u0e27\u0e31\u0e14\u0e1b\u0e32\u0e01\u0e1a\u0e48\u0e2d", "religion": "buddhist", "wikidata": "Q16004203", "wikimedia_commons": "Category:Wat Pak Bo, Bangkok", "wikipedia": "th:\u0e27\u0e31\u0e14\u0e1b\u0e32\u0e01\u0e1a\u0e48\u0e2d"}}, {"type": "way", "id": 391006537, "nodes": [3941606134, 3941606133, 12619693349, 12619693359, 12619693360, 3941606132, 1286877795, 3941606135, 10275321134, 3941606134], "tags": {"amenity": "place_of_worship", "denomination": "thai_mahanikaya", "loc_name": "\u0e27\u0e31\u0e14\u0e02\u0e2d\u0e21", "name": "\u0e27\u0e31\u0e14\u0e02\u0e08\u0e23\u0e28\u0e34\u0e23\u0e34", "name:en": "Wat Khachon Siri", "name:th": "\u0e27\u0e31\u0e14\u0e02\u0e08\u0e23\u0e28\u0e34\u0e23\u0e34", "religion": "buddhist", "wikidata": "Q100698856", "wikimedia_commons": "Category:Wat Khachon Siri", "wikipedia": "th:\u0e27\u0e31\u0e14\u0e02\u0e08\u0e23\u0e28\u0e34\u0e23\u0e34"}}, {"type": "way", "id": 450147867, "nodes": [4465657189, 5179795936, 5179795937, 4470678310, 5179795938, 5179795935, 4470678309, 4470678303, 4470678312, 4470678302, 4465657189], "tags": {"building": "yes", "name": "@Mind Executive Suites", "phone": "+6653114444", "tourism": "hotel"}}, {"type": "way", "id": 450147868, "nodes": [4465842815, 4470678308, 4470678301, 4470678311, 4470678306, 4470678304, 4470678307, 4470678305, 4465842815], "tags": {"building": "yes", "name": "Gardenville", "phone": "+66 27303330", "tourism": "hotel"}}, {"type": "way", "id": 515847763, "nodes": [5036829910, 5036829911, 5036829912, 5036829913, 5036829910], "tags": {"addr:district": "\u0e27\u0e31\u0e12\u0e19\u0e32", "addr:province": "\u0e01\u0e23\u0e38\u0e07\u0e40\u0e17\u0e1e\u0e21\u0e2b\u0e32\u0e19\u0e04\u0e23", "addr:subdistrict": "\u0e1e\u0e23\u0e30\u0e42\u0e02\u0e19\u0e07\u0e40\u0e2b\u0e19\u0e37\u0e2d", "amenity": "restaurant", "building": "yes", "name": "Papa Shabu Farm"}}, {"type": "way", "id": 515847765, "nodes": [5036829914, 5036829915, 5036829916, 5036829917, 5036829918, 5036829919, 5036829920, 5036830121, 5036829914], "tags": {"addr:district": "\u0e27\u0e31\u0e12\u0e19\u0e32", "addr:province": "\u0e01\u0e23\u0e38\u0e07\u0e40\u0e17\u0e1e\u0e21\u0e2b\u0e32\u0e19\u0e04\u0e23", "addr:subdistrict": "\u0e1e\u0e23\u0e30\u0e42\u0e02\u0e19\u0e07\u0e40\u0e2b\u0e19\u0e37\u0e2d", "amenity": "restaurant", "building": "yes", "cuisine": "lao", "name": "Lao Garden", "opening_hours": "Mo-Su 08:00-24:00", "phone": "061-553-3928", "takeaway": "yes"}}, {"type": "way", "id": 516171345, "nodes": [5039263336, 7372690238, 7372690237, 7372690236, 7372690235, 7372690230, 7372690239, 5039263337, 7372690229, 7372690231, 7372690233, 7372690234, 7372690232, 5039263339, 5039263336], "tags": {"leisure": "park"}}, {"type": "way", "id": 556192221, "nodes": [1283649179, 5365353607, 5365353608, 280188503, 5365353609, 4821851081, 4821851080, 4821851078, 280188496, 5365353610, 1283649179], "tags": {"leisure": "park"}}, {"type": "way", "id": 563091152, "nodes": [1690443461, 1690443350, 313121994, 1690443373, 5427157571, 5427157572, 5427157573, 5427157574, 5427157608, 5427157575, 5427157576, 5427157577, 5427157578, 5427157579, 5427157580, 5427157581, 5427157582, 5427157583, 5427157584, 5427157585, 5427157586, 5427157587, 5427157588, 1690443461], "tags": {"leisure": "park"}}, {"type": "way", "id": 584625158, "nodes": [5588081639, 5588081640, 5588081641, 5588081642, 5588081639], "tags": {"leisure": "park"}}, {"type": "way", "id": 584626484, "nodes": [5588091824, 5588091825, 5588091826, 5588091827, 5588091824], "tags": {"leisure": "park"}}, {"type": "way", "id": 676838387, "nodes": [6338020956, 6338020957, 6338020958, 6338020959, 6338020956], "tags": {"addr:district": "\u0e27\u0e31\u0e12\u0e19\u0e32", "addr:province": "\u0e01\u0e23\u0e38\u0e07\u0e40\u0e17\u0e1e\u0e21\u0e2b\u0e32\u0e19\u0e04\u0e23", "addr:subdistrict": "\u0e1e\u0e23\u0e30\u0e42\u0e02\u0e19\u0e07\u0e40\u0e2b\u0e19\u0e37\u0e2d", "amenity": "restaurant", "building": "yes", "name": "Krua Baan Suan"}}, {"type": "way", "id": 762237175, "nodes": [7122172492, 7122172491, 7122172490, 7122172489, 7122172492], "tags": {"amenity": "cafe", "building": "yes", "cuisine": "coffee_shop", "name": "Rabika Coffee"}}, {"type": "way", "id": 795573464, "nodes": [7441211674, 7441211675, 7441211676, 7441211677, 7441211674], "tags": {"building": "yes", "name": "Al Meroz Hotel", "tourism": "hotel"}}, {"type": "way", "id": 865232192, "nodes": [8064612001, 8064612002, 8064612003, 8064612004, 8064612001], "tags": {"addr:city": "\u0e41\u0e02\u0e27\u0e07\u0e1e\u0e23\u0e30\u0e42\u0e02\u0e19\u0e07\u0e43\u0e15\u0e49", "addr:housenumber": "1", "addr:postcode": "10260", "addr:street": "\u0e0b\u0e2d\u0e22\u0e2a\u0e38\u0e02\u0e38\u0e21\u0e27\u0e34\u0e17 58", "brand": "UHG", "internet_access": "wlan", "internet_access:fee": "customers", "name": "The Quarter Onnut by UHG", "tourism": "hotel"}}, {"type": "way", "id": 1159561157, "nodes": [10783542427, 10783542428, 10783542429, 10783542430, 10783542427], "tags": {"amenity": "restaurant", "building": "yes", "name": "Cobana 56"}}, {"type": "way", "id": 1395669324, "nodes": [12918846691, 12918846692, 12918846693, 12918846694, 12918846695, 12918846696, 12918846697, 12918846698, 12918846699, 12918846700, 12918846701, 12918846691], "tags": {"leisure": "park"}}, {"type": "way", "id": 1414871967, "nodes": [13001425174, 13001425175, 13001425176, 13001425177, 13001425174], "tags": {"alt_name": "Little Zoo Cafe", "alt_name:en": "Little Zoo Garden", "facebook": "littlezoocafe", "name": "Little Zoo", "tourism": "zoo", "zoo": "petting_zoo"}}, {"type": "node", "id": 8064612003, "lat": 13.700303, "lon": 100.6034856}, {"type": "node", "id": 8064612004, "lat": 13.7001292, "lon": 100.6031868}, {"type": "node", "id": 3224798666, "lat": 13.7046329, "lon": 100.601763}, {"type": "node", "id": 3224798667, "lat": 13.7037759, "lon": 100.6021896}, {"type": "node", "id": 3224798671, "lat": 13.7040557, "lon": 100.6027852}, {"type": "node", "id": 3224798673, "lat": 13.7049127, "lon": 100.6023586}, {"type": "node", "id": 3391461519, "lat": 13.7015893, "lon": 100.6036484}, {"type": "node", "id": 3391461525, "lat": 13.7018089, "lon": 100.6035276}, {"type": "node", "id": 3391461528, "lat": 13.7017655, "lon": 100.6038507}, {"type": "node", "id": 3391461536, "lat": 13.7019075, "lon": 100.6037445}, {"type": "node", "id": 4465657189, "lat": 13.7027312, "lon": 100.6034115}, {"type": "node", "id": 4465842815, "lat": 13.7027136, "lon": 100.6029527}, {"type": "node", "id": 4470678301, "lat": 13.702731, "lon": 100.6028624}, {"type": "node", "id": 4470678302, "lat": 13.7027796, "lon": 100.6034857}, {"type": "node", "id": 4470678303, "lat": 13.7022547, "lon": 100.6033017}, {"type": "node", "id": 4470678304, "lat": 13.7028528, "lon": 100.6030181}, {"type": "node", "id": 4470678305, "lat": 13.7028122, "lon": 100.6030962}, {"type": "node", "id": 4470678306, "lat": 13.7028972, "lon": 100.6029857}, {"type": "node", "id": 4470678307, "lat": 13.702875, "lon": 100.6030505}, {"type": "node", "id": 4470678308, "lat": 13.7027666, "lon": 100.6029141}, {"type": "node", "id": 4470678309, "lat": 13.7023473, "lon": 100.6032378}, {"type": "node", "id": 4470678310, "lat": 13.7025266, "lon": 100.6035871}, {"type": "node", "id": 4470678311, "lat": 13.7027852, "lon": 100.6028229}, {"type": "node", "id": 4470678312, "lat": 13.7025002, "lon": 100.6036786}, {"type": "node", "id": 5096662651, "lat": 13.7018976, "lon": 100.6036984}, {"type": "node", "id": 5096662652, "lat": 13.701677, "lon": 100.6038174}, {"type": "node", "id": 5096662653, "lat": 13.7018831, "lon": 100.6037843}, {"type": "node", "id": 5096662654, "lat": 13.7017209, "lon": 100.6038563}, {"type": "node", "id": 5179795935, "lat": 13.7024921, "lon": 100.6034601}, {"type": "node", "id": 5179795936, "lat": 13.7026242, "lon": 100.6034854}, {"type": "node", "id": 5179795937, "lat": 13.7026396, "lon": 100.6035091}, {"type": "node", "id": 5179795938, "lat": 13.7024588, "lon": 100.603483}, {"type": "node", "id": 8064612001, "lat": 13.7005578, "lon": 100.6029754}, {"type": "node", "id": 8064612002, "lat": 13.7007454, "lon": 100.6032721}, {"type": "node", "id": 12736990344, "lat": 13.7017089, "lon": 100.6035826}, {"type": "node", "id": 280188496, "lat": 13.70934, "lon": 100.6009046}, {"type": "node", "id": 280188503, "lat": 13.7098412, "lon": 100.6017782}, {"type": "node", "id": 1088409629, "lat": 13.7125978, "lon": 100.6036898}, {"type": "node", "id": 1283649041, "lat": 13.7104744, "lon": 100.6008583}, {"type": "node", "id": 1283649073, "lat": 13.7123101, "lon": 100.6028075}, {"type": "node", "id": 1283649128, "lat": 13.7098821, "lon": 100.6004809}, {"type": "node", "id": 1283649179, "lat": 13.7094278, "lon": 100.6008156}, {"type": "node", "id": 1283649198, "lat": 13.7124451, "lon": 100.6026508}, {"type": "node", "id": 1283649218, "lat": 13.7101813, "lon": 100.6003111}, {"type": "node", "id": 1283649220, "lat": 13.7101752, "lon": 100.6010281}, {"type": "node", "id": 1283653316, "lat": 13.7131621, "lon": 100.6022135}, {"type": "node", "id": 1283653318, "lat": 13.7133355, "lon": 100.6023816}, {"type": "node", "id": 1283868880, "lat": 13.7095624, "lon": 100.6025744}, {"type": "node", "id": 1283868903, "lat": 13.7094931, "lon": 100.6024161}, {"type": "node", "id": 1283869428, "lat": 13.7099846, "lon": 100.6021879}, {"type": "node", "id": 1283869597, "lat": 13.7100539, "lon": 100.6023461}, {"type": "node", "id": 4821851078, "lat": 13.7095063, "lon": 100.6011793}, {"type": "node", "id": 4821851080, "lat": 13.7095737, "lon": 100.6012701}, {"type": "node", "id": 4821851081, "lat": 13.7096188, "lon": 100.6013627}, {"type": "node", "id": 4923930194, "lat": 13.7129871, "lon": 100.6035177}, {"type": "node", "id": 5036829910, "lat": 13.7133685, "lon": 100.600944}, {"type": "node", "id": 5036829911, "lat": 13.7132624, "lon": 100.6009739}, {"type": "node", "id": 5036829912, "lat": 13.7132796, "lon": 100.6010384}, {"type": "node", "id": 5036829913, "lat": 13.7133857, "lon": 100.6010085}, {"type": "node", "id": 5036829914, "lat": 13.7133087, "lon": 100.6012283}, {"type": "node", "id": 5036829917, "lat": 13.7133425, "lon": 100.60136}, {"type": "node", "id": 5036829918, "lat": 13.7133344, "lon": 100.6013308}, {"type": "node", "id": 5036830121, "lat": 13.7133169, "lon": 100.6012582}, {"type": "node", "id": 5365353607, "lat": 13.7099173, "lon": 100.6016775}, {"type": "node", "id": 5365353608, "lat": 13.7098825, "lon": 100.6017469}, {"type": "node", "id": 5365353609, "lat": 13.7096522, "lon": 100.6014589}, {"type": "node", "id": 5365353610, "lat": 13.7093233, "lon": 100.6008749}, {"type": "node", "id": 8627959462, "lat": 13.7127033, "lon": 100.6036431}, {"type": "node", "id": 1283649043, "lat": 13.7134657, "lon": 100.6027187}, {"type": "node", "id": 1283649082, "lat": 13.7136167, "lon": 100.6033822}, {"type": "node", "id": 5036829915, "lat": 13.713472, "lon": 100.6011806}, {"type": "node", "id": 5036829916, "lat": 13.7135081, "lon": 100.6013117}, {"type": "node", "id": 5036829919, "lat": 13.7134606, "lon": 100.601294}, {"type": "node", "id": 5036829920, "lat": 13.7134407, "lon": 100.601222}, {"type": "node", "id": 5039263336, "lat": 13.7145574, "lon": 100.6021443}, {"type": "node", "id": 5039263337, "lat": 13.7149444, "lon": 100.6023094}, {"type": "node", "id": 5039263339, "lat": 13.7147837, "lon": 100.6026259}, {"type": "node", "id": 6338020956, "lat": 13.7135685, "lon": 100.6014912}, {"type": "node", "id": 6338020957, "lat": 13.7136128, "lon": 100.6015917}, {"type": "node", "id": 6338020958, "lat": 13.7137014, "lon": 100.6015475}, {"type": "node", "id": 6338020959, "lat": 13.7136545, "lon": 100.6014469}, {"type": "node", "id": 7372690229, "lat": 13.7148539, "lon": 100.6026338}, {"type": "node", "id": 7372690230, "lat": 13.7145884, "lon": 100.602105}, {"type": "node", "id": 7372690231, "lat": 13.7148449, "lon": 100.6026411}, {"type": "node", "id": 7372690232, "lat": 13.7147951, "lon": 100.6026374}, {"type": "node", "id": 7372690233, "lat": 13.7148275, "lon": 100.602647}, {"type": "node", "id": 7372690234, "lat": 13.7148103, "lon": 100.6026437}, {"type": "node", "id": 7372690235, "lat": 13.7145781, "lon": 100.6021057}, {"type": "node", "id": 7372690236, "lat": 13.7145686, "lon": 100.6021127}, {"type": "node", "id": 7372690237, "lat": 13.7145606, "lon": 100.602123}, {"type": "node", "id": 7372690238, "lat": 13.7145575, "lon": 100.6021331}, {"type": "node", "id": 7372690239, "lat": 13.7145997, "lon": 100.6021065}, {"type": "node", "id": 1283868925, "lat": 13.7155749, "lon": 100.6070475}, {"type": "node", "id": 1283868975, "lat": 13.7155958, "lon": 100.607144}, {"type": "node", "id": 1283868991, "lat": 13.7142616, "lon": 100.6073264}, {"type": "node", "id": 1283868994, "lat": 13.7141556, "lon": 100.606657}, {"type": "node", "id": 1283869077, "lat": 13.7155479, "lon": 100.6070208}, {"type": "node", "id": 1283869114, "lat": 13.7145524, "lon": 100.6061015}, {"type": "node", "id": 1283869125, "lat": 13.7150069, "lon": 100.6072352}, {"type": "node", "id": 1283869142, "lat": 13.7143554, "lon": 100.6079165}, {"type": "node", "id": 1283869323, "lat": 13.7150642, "lon": 100.6065432}, {"type": "node", "id": 1283869337, "lat": 13.7151007, "lon": 100.6078361}, {"type": "node", "id": 1283869453, "lat": 13.715502, "lon": 100.607144}, {"type": "node", "id": 1283869545, "lat": 13.714112, "lon": 100.6063209}, {"type": "node", "id": 5858830644, "lat": 13.7142158, "lon": 100.6066338}, {"type": "node", "id": 1658904959, "lat": 13.7345253, "lon": 100.6012943}, {"type": "node", "id": 1658904962, "lat": 13.7345355, "lon": 100.6013987}, {"type": "node", "id": 1658904964, "lat": 13.7345454, "lon": 100.6014548}, {"type": "node", "id": 1658904967, "lat": 13.7345539, "lon": 100.601543}, {"type": "node", "id": 1658904970, "lat": 13.7345653, "lon": 100.6012733}, {"type": "node", "id": 1658904972, "lat": 13.734567, "lon": 100.6012901}, {"type": "node", "id": 1658904975, "lat": 13.7345832, "lon": 100.6013938}, {"type": "node", "id": 1658904978, "lat": 13.7345887, "lon": 100.6014503}, {"type": "node", "id": 1658904980, "lat": 13.7346032, "lon": 100.6015379}, {"type": "node", "id": 1658904981, "lat": 13.7346051, "lon": 100.601558}, {"type": "node", "id": 1658905056, "lat": 13.7348508, "lon": 100.6008075}, {"type": "node", "id": 1658905059, "lat": 13.7348662, "lon": 100.6009563}, {"type": "node", "id": 1658905073, "lat": 13.734877, "lon": 100.6012412}, {"type": "node", "id": 1658905075, "lat": 13.7348802, "lon": 100.601274}, {"type": "node", "id": 1658905077, "lat": 13.7348882, "lon": 100.6013657}, {"type": "node", "id": 1658905078, "lat": 13.7348932, "lon": 100.6014175}, {"type": "node", "id": 1658905088, "lat": 13.7349082, "lon": 100.6015046}, {"type": "node", "id": 1658905091, "lat": 13.7349104, "lon": 100.6015266}, {"type": "node", "id": 1658905093, "lat": 13.7349289, "lon": 100.601269}, {"type": "node", "id": 1658905095, "lat": 13.7349378, "lon": 100.6013606}, {"type": "node", "id": 1658905099, "lat": 13.7349459, "lon": 100.6014121}, {"type": "node", "id": 1658905100, "lat": 13.7349544, "lon": 100.6014998}, {"type": "node", "id": 1658905116, "lat": 13.7349831, "lon": 100.6007929}, {"type": "node", "id": 1658905118, "lat": 13.7349985, "lon": 100.6009417}, {"type": "node", "id": 2592655822, "lat": 13.7428032, "lon": 100.6024027}, {"type": "node", "id": 2592655824, "lat": 13.7428779, "lon": 100.6015991}, {"type": "node", "id": 2592655826, "lat": 13.7429461, "lon": 100.6024167}, {"type": "node", "id": 2592655828, "lat": 13.7430277, "lon": 100.6016132}, {"type": "node", "id": 7441211675, "lat": 13.7460494, "lon": 100.6038799}, {"type": "node", "id": 7441211674, "lat": 13.7462392, "lon": 100.6034038}, {"type": "node", "id": 7441211676, "lat": 13.7464041, "lon": 100.6040299}, {"type": "node", "id": 7441211677, "lat": 13.746594, "lon": 100.6035538}, {"type": "node", "id": 3940465938, "lat": 13.7022173, "lon": 100.6225347}, {"type": "node", "id": 3940465939, "lat": 13.7022563, "lon": 100.6230195}, {"type": "node", "id": 3940465940, "lat": 13.702343, "lon": 100.6231145}, {"type": "node", "id": 3940465941, "lat": 13.702441, "lon": 100.623168}, {"type": "node", "id": 3940465942, "lat": 13.7029459, "lon": 100.6231719}, {"type": "node", "id": 3940465943, "lat": 13.7031471, "lon": 100.623168}, {"type": "node", "id": 3940465944, "lat": 13.7032088, "lon": 100.6231476}, {"type": "node", "id": 3940465945, "lat": 13.7032686, "lon": 100.622488}, {"type": "node", "id": 3940465946, "lat": 13.7032945, "lon": 100.6230704}, {"type": "node", "id": 3940465947, "lat": 13.7033631, "lon": 100.6229888}, {"type": "node", "id": 3940465948, "lat": 13.7034188, "lon": 100.6228829}, {"type": "node", "id": 3940465950, "lat": 13.7034617, "lon": 100.6227042}, {"type": "node", "id": 3940465952, "lat": 13.7035131, "lon": 100.622605}, {"type": "node", "id": 3940465953, "lat": 13.7035838, "lon": 100.6225454}, {"type": "node", "id": 3940465954, "lat": 13.7036095, "lon": 100.6224726}, {"type": "node", "id": 13001425174, "lat": 13.7131359, "lon": 100.6111293}, {"type": "node", "id": 13001425175, "lat": 13.7127267, "lon": 100.6110932}, {"type": "node", "id": 13001425176, "lat": 13.7126922, "lon": 100.6115083}, {"type": "node", "id": 13001425177, "lat": 13.7131014, "lon": 100.6115444}, {"type": "node", "id": 1286878011, "lat": 13.7103561, "lon": 100.6182114}, {"type": "node", "id": 1286878106, "lat": 13.710387, "lon": 100.6206532}, {"type": "node", "id": 1286878489, "lat": 13.7111582, "lon": 100.6188412}, {"type": "node", "id": 1286878569, "lat": 13.7113779, "lon": 100.6195361}, {"type": "node", "id": 1286879025, "lat": 13.7105804, "lon": 100.6184851}, {"type": "node", "id": 1286879041, "lat": 13.7112254, "lon": 100.6200537}, {"type": "node", "id": 1286879120, "lat": 13.7110152, "lon": 100.6202544}, {"type": "node", "id": 1286879178, "lat": 13.7112997, "lon": 100.6198419}, {"type": "node", "id": 3608331442, "lat": 13.7121036, "lon": 100.6214971}, {"type": "node", "id": 3608331445, "lat": 13.7122226, "lon": 100.6215209}, {"type": "node", "id": 3608535040, "lat": 13.7098269, "lon": 100.6189192}, {"type": "node", "id": 3608535043, "lat": 13.7098608, "lon": 100.6186349}, {"type": "node", "id": 3608535044, "lat": 13.7097307, "lon": 100.6197105}, {"type": "node", "id": 3608535334, "lat": 13.7113831, "lon": 100.6192467}, {"type": "node", "id": 3608535335, "lat": 13.7113048, "lon": 100.6190071}, {"type": "node", "id": 3608539833, "lat": 13.7098219, "lon": 100.6179724}, {"type": "node", "id": 3608539834, "lat": 13.7101372, "lon": 100.6178141}, {"type": "node", "id": 3608539835, "lat": 13.7100643, "lon": 100.6179617}, {"type": "node", "id": 3608539836, "lat": 13.7101839, "lon": 100.6178064}, {"type": "node", "id": 3608539837, "lat": 13.7093425, "lon": 100.6177203}, {"type": "node", "id": 3608539838, "lat": 13.7098193, "lon": 100.6178088}, {"type": "node", "id": 3608539854, "lat": 13.7103037, "lon": 100.6207402}, {"type": "node", "id": 3608539855, "lat": 13.7101763, "lon": 100.6205795}, {"type": "node", "id": 3608539856, "lat": 13.7101998, "lon": 100.6198687}, {"type": "node", "id": 3608541921, "lat": 13.7093685, "lon": 100.6180234}, {"type": "node", "id": 3608541922, "lat": 13.7094543, "lon": 100.6185142}, {"type": "node", "id": 3608541923, "lat": 13.7094571, "lon": 100.6180126}, {"type": "node", "id": 3608541924, "lat": 13.7097203, "lon": 100.6197695}, {"type": "node", "id": 3608541925, "lat": 13.7102047, "lon": 100.6198257}, {"type": "node", "id": 3940465955, "lat": 13.7111793, "lon": 100.6214962}, {"type": "node", "id": 3940465956, "lat": 13.7113926, "lon": 100.6223135}, {"type": "node", "id": 3940470957, "lat": 13.7115417, "lon": 100.6214217}, {"type": "node", "id": 3940470958, "lat": 13.7123452, "lon": 100.6222104}, {"type": "node", "id": 1286877860, "lat": 13.7127959, "lon": 100.6262579}, {"type": "node", "id": 1286877965, "lat": 13.7130228, "lon": 100.6266905}, {"type": "node", "id": 1286878607, "lat": 13.7122046, "lon": 100.6259436}, {"type": "node", "id": 1371997418, "lat": 13.7125133, "lon": 100.6260802}, {"type": "node", "id": 3941583057, "lat": 13.7120901, "lon": 100.6270343}, {"type": "node", "id": 3941583058, "lat": 13.7125941, "lon": 100.6270414}, {"type": "node", "id": 3941583059, "lat": 13.7129198, "lon": 100.6269037}, {"type": "node", "id": 3941583060, "lat": 13.7131099, "lon": 100.6267751}, {"type": "node", "id": 6513896970, "lat": 13.7130815, "lon": 100.6267478}, {"type": "node", "id": 10277179800, "lat": 13.7129232, "lon": 100.6265089}, {"type": "node", "id": 3941583061, "lat": 13.7131212, "lon": 100.6309023}, {"type": "node", "id": 3941583063, "lat": 13.7131782, "lon": 100.6314494}, {"type": "node", "id": 3941583072, "lat": 13.7134439, "lon": 100.6303669}, {"type": "node", "id": 3941583108, "lat": 13.7151839, "lon": 100.6302886}, {"type": "node", "id": 1286879275, "lat": 13.7149938, "lon": 100.6310014}, {"type": "node", "id": 3608332518, "lat": 13.7150006, "lon": 100.6309247}, {"type": "node", "id": 3941583073, "lat": 13.7134895, "lon": 100.6308788}, {"type": "node", "id": 3941583107, "lat": 13.7149211, "lon": 100.6312874}, {"type": "node", "id": 1286877795, "lat": 13.7154704, "lon": 100.6417055}, {"type": "node", "id": 3941606132, "lat": 13.7140679, "lon": 100.641863}, {"type": "node", "id": 3941606133, "lat": 13.7141145, "lon": 100.6407633}, {"type": "node", "id": 3941606134, "lat": 13.7152269, "lon": 100.6408033}, {"type": "node", "id": 3941606135, "lat": 13.7153047, "lon": 100.6409662}, {"type": "node", "id": 10275321134, "lat": 13.715269, "lon": 100.6408915}, {"type": "node", "id": 12619693349, "lat": 13.7141009, "lon": 100.6410835}, {"type": "node", "id": 12619693359, "lat": 13.7140869, "lon": 100.6414158}, {"type": "node", "id": 12619693360, "lat": 13.7140809, "lon": 100.6415568}, {"type": "node", "id": 5588081639, "lat": 13.7358071, "lon": 100.6249326}, {"type": "node", "id": 5588081640, "lat": 13.7359443, "lon": 100.6253912}, {"type": "node", "id": 5588081641, "lat": 13.7358194, "lon": 100.6254373}, {"type": "node", "id": 5588081642, "lat": 13.7356577, "lon": 100.6249829}, {"type": "node", "id": 5588091824, "lat": 13.7363502, "lon": 100.6247651}, {"type": "node", "id": 5588091825, "lat": 13.7364137, "lon": 100.6249698}, {"type": "node", "id": 5588091826, "lat": 13.7361714, "lon": 100.6250534}, {"type": "node", "id": 5588091827, "lat": 13.7360996, "lon": 100.6248632}, {"type": "node", "id": 1590267086, "lat": 13.7456279, "lon": 100.6220908}, {"type": "node", "id": 3939188958, "lat": 13.7454291, "lon": 100.6213754}, {"type": "node", "id": 3939188959, "lat": 13.7455748, "lon": 100.6221021}, {"type": "node", "id": 3939188960, "lat": 13.7462123, "lon": 100.621209}, {"type": "node", "id": 3939188961, "lat": 13.746358, "lon": 100.6219357}, {"type": "node", "id": 7122172489, "lat": 13.7278177, "lon": 100.6418154}, {"type": "node", "id": 7122172490, "lat": 13.7277819, "lon": 100.64185}, {"type": "node", "id": 7122172491, "lat": 13.7278503, "lon": 100.6419248}, {"type": "node", "id": 7122172492, "lat": 13.727886, "lon": 100.6418903}, {"type": "node", "id": 2790450342, "lat": 13.7304055, "lon": 100.6477548}, {"type": "node", "id": 2790450345, "lat": 13.7305385, "lon": 100.6466329}, {"type": "node", "id": 2790450350, "lat": 13.7289692, "lon": 100.6449983}, {"type": "node", "id": 2790450353, "lat": 13.7278878, "lon": 100.6457637}, {"type": "node", "id": 2790450356, "lat": 13.7279774, "lon": 100.6460208}, {"type": "node", "id": 2790450359, "lat": 13.7283559, "lon": 100.6469003}, {"type": "node", "id": 2790450362, "lat": 13.7286767, "lon": 100.6475918}, {"type": "node", "id": 2790459468, "lat": 13.7294782, "lon": 100.6476657}, {"type": "node", "id": 5792736026, "lat": 13.7289475, "lon": 100.6450137}, {"type": "node", "id": 5792736029, "lat": 13.7288735, "lon": 100.645066}, {"type": "node", "id": 8189458122, "lat": 13.7298103, "lon": 100.647698}, {"type": "node", "id": 10783542427, "lat": 13.732818, "lon": 100.6468259}, {"type": "node", "id": 10783542428, "lat": 13.732917, "lon": 100.6468794}, {"type": "node", "id": 10783542429, "lat": 13.7328714, "lon": 100.6469651}, {"type": "node", "id": 10783542430, "lat": 13.7327702, "lon": 100.6469083}, {"type": "node", "id": 12573733819, "lat": 13.7298698, "lon": 100.6477319}, {"type": "node", "id": 12619899554, "lat": 13.7282209, "lon": 100.645528}, {"type": "node", "id": 12619899555, "lat": 13.7288065, "lon": 100.6451134}, {"type": "node", "id": 12619899558, "lat": 13.7281008, "lon": 100.6456129}, {"type": "node", "id": 5427157580, "lat": 13.7396092, "lon": 100.6417097}, {"type": "node", "id": 5427157581, "lat": 13.7395686, "lon": 100.6415533}, {"type": "node", "id": 5427157582, "lat": 13.7395696, "lon": 100.6413687}, {"type": "node", "id": 5427157583, "lat": 13.7396246, "lon": 100.6412181}, {"type": "node", "id": 12918846691, "lat": 13.7341908, "lon": 100.6405195}, {"type": "node", "id": 12918846692, "lat": 13.7345729, "lon": 100.6405612}, {"type": "node", "id": 12918846693, "lat": 13.7355068, "lon": 100.6407364}, {"type": "node", "id": 12918846694, "lat": 13.7354982, "lon": 100.6407862}, {"type": "node", "id": 12918846695, "lat": 13.7353945, "lon": 100.6408217}, {"type": "node", "id": 12918846696, "lat": 13.735303, "lon": 100.6408217}, {"type": "node", "id": 12918846697, "lat": 13.7351216, "lon": 100.6407915}, {"type": "node", "id": 12918846698, "lat": 13.734999, "lon": 100.6407862}, {"type": "node", "id": 12918846699, "lat": 13.7348383, "lon": 100.6407951}, {"type": "node", "id": 12918846700, "lat": 13.734669, "lon": 100.6408608}, {"type": "node", "id": 12918846701, "lat": 13.7341594, "lon": 100.6409177}, {"type": "node", "id": 313121994, "lat": 13.7412874, "lon": 100.6404807}, {"type": "node", "id": 1690443350, "lat": 13.7411429, "lon": 100.6403707}, {"type": "node", "id": 1690443373, "lat": 13.7413826, "lon": 100.6406665}, {"type": "node", "id": 1690443461, "lat": 13.7410181, "lon": 100.6403097}, {"type": "node", "id": 5427157571, "lat": 13.7414264, "lon": 100.6408022}, {"type": "node", "id": 5427157572, "lat": 13.7413782, "lon": 100.6410402}, {"type": "node", "id": 5427157573, "lat": 13.7413377, "lon": 100.6412704}, {"type": "node", "id": 5427157574, "lat": 13.7412768, "lon": 100.6416159}, {"type": "node", "id": 5427157575, "lat": 13.7411202, "lon": 100.6423263}, {"type": "node", "id": 5427157576, "lat": 13.7404547, "lon": 100.6421646}, {"type": "node", "id": 5427157577, "lat": 13.7401811, "lon": 100.642098}, {"type": "node", "id": 5427157578, "lat": 13.7398135, "lon": 100.6419502}, {"type": "node", "id": 5427157579, "lat": 13.7396951, "lon": 100.6418352}, {"type": "node", "id": 5427157584, "lat": 13.7397198, "lon": 100.6410768}, {"type": "node", "id": 5427157585, "lat": 13.7400575, "lon": 100.6407221}, {"type": "node", "id": 5427157586, "lat": 13.7405223, "lon": 100.6404158}, {"type": "node", "id": 5427157587, "lat": 13.7406712, "lon": 100.6403404}, {"type": "node", "id": 5427157588, "lat": 13.7408698, "lon": 100.6402949}, {"type": "node", "id": 5427157608, "lat": 13.7411949, "lon": 100.6419874}]}