{"version": 0.6, "generator": "Overpass API 0.7.62.8 e802775f", "osm3s": {"timestamp_osm_base": "2025-11-20T03:17:17Z", "copyright": "The data included in this document is from www.openstreetmap.org. The data is made available under ODbL."}, "elements": [{"type": "node", "id": 1669111106, "lat": 13.5474649, "lon": 100.6079739, "tags": {"amenity": "place_of_worship", "denomination": "thai_thammayut", "name": "\u0e27\u0e31\u0e14\u0e2d\u0e42\u0e28\u0e01\u0e32\u0e23\u0e32\u0e21", "name:en": "Wat Asokaram", "name:th": "\u0e27\u0e31\u0e14\u0e2d\u0e42\u0e28\u0e01\u0e32\u0e23\u0e32\u0e21", "religion": "buddhist", "wikidata": "Q16004403", "wikimedia_commons": "Category:Wat Asokaram, Samut Prakan", "wikipedia": "th:\u0e27\u0e31\u0e14\u0e2d\u0e42\u0e28\u0e01\u0e32\u0e23\u0e32\u0e21 (\u0e08\u0e31\u0e07\u0e2b\u0e27\u0e31\u0e14\u0e2a\u0e21\u0e38\u0e17\u0e23\u0e1b\u0e23\u0e32\u0e01\u0e32\u0e23)"}}, {"type": "node", "id": 1754863651, "lat": 13.5478605, "lon": 100.6353656, "tags": {"name": "Lan Chang Styled Scripture Repository and Wihan (070)", "tourism": "attraction"}}, {"type": "node", "id": 1760997792, "lat": 13.549113, "lon": 100.6303692, "tags": {"amenity": "restaurant", "name": "Rim Nam"}}, {"type": "node", "id": 3185776432, "lat": 13.5166927, "lon": 100.6434886, "tags": {"tourism": "viewpoint"}}, {"type": "node", "id": 4240101592, "lat": 13.5410428, "lon": 100.624182, "tags": {"addr:housenumber": "1", "addr:postcode": "10110", "addr:street": "\u0e16\u0e19\u0e19\u0e2a\u0e38\u0e02\u0e38\u0e21\u0e27\u0e34\u0e17", "name": "Muang Boran Ancient Siam", "name:th": "\u0e1e\u0e34\u0e1e\u0e34\u0e18\u0e20\u0e31\u0e13\u0e11\u0e4c\u0e40\u0e21\u0e37\u0e2d\u0e07\u0e42\u0e1a\u0e23\u0e32\u0e13", "opening_hours": "Mo-Su 09:00-18:00", "phone": "+66 2026 88009", "tourism": "attraction", "website": "http://www.ancientcitygroup.net/ancientsiam/en/"}}, {"type": "node", "id": 4504470589, "lat": 13.5381325, "lon": 100.6215554, "tags": {"name": "1122.1", "name:th": "1122.1", "tourism": "attraction"}}, {"type": "node", "id": 4627914389, "lat": 13.5423605, "lon": 100.6189291, "tags": {"name": "\u0e44\u0e21\u0e2d\u0e32\u0e21\u0e35\u0e48 \u0e1a\u0e32\u0e07\u0e1b\u0e39", "name:en": "Miami Bangpoo", "tourism": "attraction"}}, {"type": "node", "id": 5160197921, "lat": 13.5330924, "lon": 100.6176119, "tags": {"addr:street": "\u0e16\u0e19\u0e19\u0e2a\u0e38\u0e02\u0e38\u0e21\u0e27\u0e34\u0e17", "amenity": "restaurant", "cuisine": "asian;thai;seafood", "name": "\u0e2a\u0e27\u0e19 \u0e2d\u0e32\u0e2b\u0e32\u0e23\u0e42\u0e1e\u0e18\u0e34\u0e4c\u0e17\u0e30\u0e40\u0e25", "name:en": "Phon Talay Restaurant", "opening_hours": "Mo-Su 10:00-23:30", "phone": "+66818094714"}}, {"type": "node", "id": 5960714086, "lat": 13.5453419, "lon": 100.6315046, "tags": {"name": "Prasat Sikhoraphum (090)", "tourism": "attraction"}}, {"type": "node", "id": 5960714087, "lat": 13.545997, "lon": 100.6321448, "tags": {"name": "The Phanom Rung Sanctuary (087)", "tourism": "attraction"}}, {"type": "node", "id": 5960719586, "lat": 13.5449927, "lon": 100.6316264, "tags": {"name": "Dvaravati Wihan (091)", "tourism": "attraction"}}, {"type": "node", "id": 5960719587, "lat": 13.5452854, "lon": 100.6321403, "tags": {"amenity": "restaurant"}}, {"type": "node", "id": 6269477530, "lat": 13.5499322, "lon": 100.6283577, "tags": {"name": "Sumeru Mountain (102)", "tourism": "attraction"}}, {"type": "node", "id": 6269510392, "lat": 13.5486701, "lon": 100.6293347, "tags": {"name": "The Rainbow Bridge (111)", "tourism": "attraction"}}, {"type": "node", "id": 6269514732, "lat": 13.5488068, "lon": 100.6284463, "tags": {"name": "Sala of Ten Reincarnations (100)", "tourism": "attraction"}}, {"type": "node", "id": 6269588927, "lat": 13.5452076, "lon": 100.6308064, "tags": {"name": "The Garden of Sacred Stupa (092)", "tourism": "attraction"}}, {"type": "node", "id": 6269594084, "lat": 13.5444626, "lon": 100.6305604, "tags": {"name": "Prasat Sadok Kok Thom (093)", "tourism": "attraction"}}, {"type": "node", "id": 6269598120, "lat": 13.5446527, "lon": 100.6291722, "tags": {"name": "The Garden of Phra Aphaimani (096)", "tourism": "attraction"}}, {"type": "node", "id": 6269598121, "lat": 13.5450521, "lon": 100.630096, "tags": {"name": "The Ancient Theatrical Pavillion (094)", "tourism": "attraction"}}, {"type": "node", "id": 6269607219, "lat": 13.5443555, "lon": 100.6293854, "tags": {"name": "The Hall of Wat Nimit (095)", "tourism": "attraction"}}, {"type": "node", "id": 6269607220, "lat": 13.5454241, "lon": 100.6279056, "tags": {"name": "\u1405 Dusit Maha Prasat Palace (023)", "name:en": "The Grand Palace", "tourism": "attraction"}}, {"type": "node", "id": 6269607221, "lat": 13.5451431, "lon": 100.6283142, "tags": {"name": "Rattanakosin Dwelling (024)", "tourism": "attraction"}}, {"type": "node", "id": 6269609370, "lat": 13.5463654, "lon": 100.6282168, "tags": {"name": "Khun Phaen House (019)", "tourism": "attraction"}}, {"type": "node", "id": 6269609371, "lat": 13.5460128, "lon": 100.6285113, "tags": {"name": "Sanpet Prasat Palace (027)", "tourism": "attraction"}}, {"type": "node", "id": 6269610640, "lat": 13.5464679, "lon": 100.6288172, "tags": {"name": "The Kam Yaad Palace Hall (029)", "tourism": "attraction"}}, {"type": "node", "id": 6269627489, "lat": 13.5459725, "lon": 100.6296957, "tags": {"name": "The Footprint of the Lord Buddha (033)", "tourism": "attraction"}}, {"type": "node", "id": 6269629976, "lat": 13.5471603, "lon": 100.6330728, "tags": {"name": "The Churning of the Ocean (089)", "tourism": "attraction"}}, {"type": "node", "id": 6269629977, "lat": 13.5462835, "lon": 100.6307992, "tags": {"name": "The Primai Sanctuary (086)", "tourism": "attraction"}}, {"type": "node", "id": 6269630866, "lat": 13.5469693, "lon": 100.6328596, "tags": {"name": "The Octagonal Sala (088)", "tourism": "attraction"}}, {"type": "node", "id": 6269636624, "lat": 13.545888, "lon": 100.6343919, "tags": {"name": "The Reclining Bhudda (073)", "tourism": "attraction"}}, {"type": "node", "id": 6269636625, "lat": 13.5461216, "lon": 100.6338793, "tags": {"name": "Prasat Phra Wihan (072)", "tourism": "attraction"}}, {"type": "node", "id": 6269805790, "lat": 13.547644, "lon": 100.6355882, "tags": {"name": "Phrat That Phanom (071)", "tourism": "attraction"}}, {"type": "node", "id": 7684784433, "lat": 13.5417793, "lon": 100.6189012, "tags": {"amenity": "marketplace", "name": "\u0e44\u0e21\u0e2d\u0e32\u0e21\u0e35\u0e48 \u0e1a\u0e32\u0e07\u0e1b\u0e39", "name:en": "Maiami Bazaar Bang Pu", "name:th": "\u0e44\u0e21\u0e2d\u0e32\u0e21\u0e35\u0e48 \u0e1a\u0e32\u0e07\u0e1b\u0e39"}}, {"type": "node", "id": 9283274733, "lat": 13.5391525, "lon": 100.6227655, "tags": {"name": "The Biographical Exhibition of Founders (119)", "tourism": "attraction"}}, {"type": "node", "id": 9283274734, "lat": 13.5408102, "lon": 100.6238775, "tags": {"description": "AS+001.11_00000 (nn) 013.5407850 100.6239340 - The Royal Stand", "name": "The Royal Stand (001)", "tourism": "attraction"}}, {"type": "node", "id": 9283274735, "lat": 13.540968, "lon": 100.6242483, "tags": {"name": "The Information Pavilion (002)", "tourism": "attraction"}}, {"type": "node", "id": 9283274736, "lat": 13.5415241, "lon": 100.6244572, "tags": {"name": "The City Sala (005)", "tourism": "attraction"}}, {"type": "node", "id": 9283274737, "lat": 13.5420919, "lon": 100.6248186, "tags": {"name": "The Manohra Garden (006)", "tourism": "attraction"}}, {"type": "node", "id": 9283274738, "lat": 13.5422539, "lon": 100.6249797, "tags": {"name": "The Stupa of Phra Maha That, Nakhon Si Thammarat (007)", "tourism": "attraction"}}, {"type": "node", "id": 9283274739, "lat": 13.5424543, "lon": 100.6251725, "tags": {"name": "The Pallava Group of Images, Phangnga (008)", "tourism": "attraction"}}, {"type": "node", "id": 9283274740, "lat": 13.5426778, "lon": 100.6254113, "tags": {"name": "The Stupa of Phra Maha That, Surat Thani (009)", "tourism": "attraction"}}, {"type": "node", "id": 9283274741, "lat": 13.543199, "lon": 100.6257534, "tags": {"name": "The Old Market Town (010)", "tourism": "attraction"}}, {"type": "node", "id": 9283274742, "lat": 13.5443114, "lon": 100.6261839, "tags": {"name": "The Tiger King's Palace, Phetchaburi (011)", "tourism": "attraction"}}, {"type": "node", "id": 9283274743, "lat": 13.5446529, "lon": 100.626274, "tags": {"name": "The Scripture Repository (012)", "tourism": "attraction"}}, {"type": "node", "id": 9283274744, "lat": 13.5412511, "lon": 100.6242785, "tags": {"name": "The City Wall and Gate (003)", "tourism": "attraction"}}, {"type": "node", "id": 9283274745, "lat": 13.5416017, "lon": 100.6246016, "tags": {"name": "I-Nao Garden (004)", "tourism": "attraction"}}, {"type": "node", "id": 9283274746, "lat": 13.5447583, "lon": 100.6264645, "tags": {"name": "The Bell Tower (013)", "tourism": "attraction"}}, {"type": "node", "id": 9283274747, "lat": 13.5449666, "lon": 100.6261836, "tags": {"name": "The Stupa of Phra Maha That, Ratchaburi (014)", "tourism": "attraction"}}, {"type": "node", "id": 9283274748, "lat": 13.5452325, "lon": 100.6270313, "tags": {"name": "The Palace Garden (015)", "tourism": "attraction"}}, {"type": "node", "id": 9283274749, "lat": 13.5455768, "lon": 100.6272077, "tags": {"name": "The Audience Hall of Thon Buri (016)", "tourism": "attraction"}}, {"type": "node", "id": 9283274750, "lat": 13.5458848, "lon": 100.6272048, "tags": {"name": "The Buddha Image of Dvaravati Period (017)", "tourism": "attraction"}}, {"type": "node", "id": 9283274751, "lat": 13.5461797, "lon": 100.6273182, "tags": {"name": "The Dvaravati House (018)", "tourism": "attraction"}}, {"type": "node", "id": 9283274752, "lat": 13.5466306, "lon": 100.6276849, "tags": {"name": "The Great Battle of Yuthahathi (020)", "tourism": "attraction"}}, {"type": "node", "id": 9283274753, "lat": 13.5472512, "lon": 100.6281221, "tags": {"name": "The Monument of Krom Phra Ratchawan (021)", "tourism": "attraction"}}, {"type": "node", "id": 9283274754, "lat": 13.5473576, "lon": 100.6287601, "tags": {"name": "The Three Pagodas Pass (022)", "tourism": "attraction"}}, {"type": "node", "id": 9283274755, "lat": 13.545888, "lon": 100.6288506, "tags": {"name": "The Chom Thong Palace Hall (026)", "tourism": "attraction"}}, {"type": "node", "id": 9283274756, "lat": 13.5456513, "lon": 100.6287263, "tags": {"name": "The Wihan at Wat Phra Sri Sanphet (025)", "tourism": "attraction"}}, {"type": "node", "id": 9283439896, "lat": 13.5453547, "lon": 100.629386, "tags": {"name": "The Ramayana Garden (028)", "tourism": "attraction"}}, {"type": "node", "id": 9283439897, "lat": 13.5469166, "lon": 100.6284003, "tags": {"name": "The Phra Kaew Pavillon (030)", "tourism": "attraction"}}, {"type": "node", "id": 9283439898, "lat": 13.5468831, "lon": 100.6289885, "tags": {"name": "The Khun Chang-Khun Phaen Garden (031)", "tourism": "attraction"}}, {"type": "node", "id": 9283439899, "lat": 13.5472165, "lon": 100.6291552, "tags": {"name": "The Fruit-Shape Tower (032)", "tourism": "attraction"}}, {"type": "node", "id": 9283439900, "lat": 13.5463651, "lon": 100.6298277, "tags": {"name": "A Monk's Residence (034)", "tourism": "attraction"}}, {"type": "node", "id": 9283439901, "lat": 13.5465993, "lon": 100.6295609, "tags": {"name": "Prang Sam Yod, Lop Bur (035)", "tourism": "attraction"}}, {"type": "node", "id": 9283439902, "lat": 13.5469531, "lon": 100.6300006, "tags": {"name": "The Wihan of Wat Pho Kao Ton, Singburi (036)", "tourism": "attraction"}}, {"type": "node", "id": 9283439903, "lat": 13.5472309, "lon": 100.6302617, "tags": {"name": "The Courage of the People of Bang Rachan (037)", "tourism": "attraction"}}, {"type": "node", "id": 9283439904, "lat": 13.5474645, "lon": 100.6305806, "tags": {"name": "The Thai Hamlet from the Central Plains (038)", "tourism": "attraction"}}, {"type": "node", "id": 9283439905, "lat": 13.547828, "lon": 100.6313573, "tags": {"name": "The Gateway of Wat Pho Prathap Chang, Phichit (039)", "tourism": "attraction"}}, {"type": "node", "id": 9283439906, "lat": 13.5484548, "lon": 100.631264, "tags": {"name": "The Krai Thong Garden (040)", "tourism": "attraction"}}, {"type": "node", "id": 9283439907, "lat": 13.5484861, "lon": 100.6316682, "tags": {"name": "The Prang of Wat Chulamanee, Phitsanulok (041)", "tourism": "attraction"}}, {"type": "node", "id": 9283439908, "lat": 13.5483248, "lon": 100.632142, "tags": {"name": "The Sukhothai Wihan (042)", "tourism": "attraction"}}, {"type": "node", "id": 9283439909, "lat": 13.549817, "lon": 100.63262, "tags": {"name": "Garden of the Gods (043)", "tourism": "attraction"}}, {"type": "node", "id": 9283439910, "lat": 13.5488502, "lon": 100.630807, "tags": {"name": "The Fortified Wall around Kamphaeng Phet (044)", "tourism": "attraction"}}, {"type": "node", "id": 9283439911, "lat": 13.5495745, "lon": 100.6310289, "tags": {"name": "The Floating Market (045)", "tourism": "attraction"}}, {"type": "node", "id": 9283439912, "lat": 13.5494902, "lon": 100.6309118, "tags": {"name": "The Wihan at Wat Phrao (046)", "tourism": "attraction"}}, {"type": "node", "id": 9283439913, "lat": 13.5496756, "lon": 100.6311059, "tags": {"name": "The Lotus-Bud Tower (047)", "tourism": "attraction"}}, {"type": "node", "id": 9283439914, "lat": 13.5490915, "lon": 100.6313968, "tags": {"name": "The Bench of Public Appeals (048)", "tourism": "attraction"}}, {"type": "node", "id": 9283439915, "lat": 13.549253, "lon": 100.6315624, "tags": {"name": "Noen Prasat, Sukhothai (049)", "tourism": "attraction"}}, {"type": "node", "id": 9283439916, "lat": 13.5497586, "lon": 100.6317621, "tags": {"name": "The Grand Hall of Wat Maha That, Sukhothai (050)", "tourism": "attraction"}}, {"type": "node", "id": 9336897562, "lat": 13.5497484, "lon": 100.6335335, "tags": {"name": "Phra Chedi Si Song Rak (063)", "tourism": "attraction"}}, {"type": "node", "id": 9336897563, "lat": 13.5491408, "lon": 100.6343445, "tags": {"name": "Phra That Bang Phuan, Nong Khai (066)", "tourism": "attraction"}}, {"type": "node", "id": 9336897564, "lat": 13.5491988, "lon": 100.6327756, "tags": {"name": "Footprints of the Lord Buddha (064)", "tourism": "attraction"}}, {"type": "node", "id": 9339998748, "lat": 13.5490229, "lon": 100.6336448, "tags": {"name": "The Yamaka Patihan (065)", "tourism": "attraction"}}, {"type": "node", "id": 9339998749, "lat": 13.548649, "lon": 100.6338245, "tags": {"name": "The Shrines (067)", "tourism": "attraction"}}, {"type": "node", "id": 9339998750, "lat": 13.5483095, "lon": 100.6348108, "tags": {"name": "Phra That Narai Cheng Weng (069)", "tourism": "attraction"}}, {"type": "node", "id": 9339998751, "lat": 13.5485901, "lon": 100.6344578, "tags": {"name": "Garden of Pha Daeng-Nang Ai (068)", "tourism": "attraction"}}, {"type": "node", "id": 9339998752, "lat": 13.5484689, "lon": 100.63394, "tags": {"name": "Nang Usa's Look-Out Tower (074)", "tourism": "attraction"}}, {"type": "node", "id": 9339998753, "lat": 13.5483916, "lon": 100.6335942, "tags": {"name": "Dharma Center (The Folk Museum) (075)", "tourism": "attraction"}}, {"type": "node", "id": 9339998754, "lat": 13.5481588, "lon": 100.6339725, "tags": {"name": "Phra That Ya Khu, Kalasin (076)", "tourism": "attraction"}}, {"type": "node", "id": 9339998755, "lat": 13.5475474, "lon": 100.6339095, "tags": {"name": "Prasat Hin Nong Ku (078)", "tourism": "attraction"}}, {"type": "node", "id": 9339998756, "lat": 13.5474554, "lon": 100.6320764, "tags": {"name": "The Buddha Image Being Protected by the Naga (083)", "tourism": "attraction"}}, {"type": "node", "id": 9339998757, "lat": 13.5478124, "lon": 100.6325263, "tags": {"name": "An Image of Hindu Deity with a Mitred Crown (081)", "tourism": "attraction"}}, {"type": "node", "id": 9339998758, "lat": 13.5482761, "lon": 100.63278, "tags": {"name": "The Prang at Si Thep (080)", "tourism": "attraction"}}, {"type": "node", "id": 9339998759, "lat": 13.5483071, "lon": 100.6340976, "tags": {"name": "The Garden of the Prince of the Golden Conch (079)", "tourism": "attraction"}}, {"type": "node", "id": 9339998764, "lat": 13.5488289, "lon": 100.6253784, "tags": {"name": "Pavilion of the Enlightened (110)", "tourism": "attraction"}}, {"type": "node", "id": 9339998765, "lat": 13.5496764, "lon": 100.6290801, "tags": {"name": "Sala of 80 Yogi (103)", "tourism": "attraction"}}, {"type": "node", "id": 9339998770, "lat": 13.5444077, "lon": 100.626628, "tags": {"name": "The Peasant Museum (121)", "tourism": "attraction"}}, {"type": "node", "id": 9407468241, "lat": 13.5496579, "lon": 100.6273712, "tags": {"name": "Elephant Kraal", "tourism": "attraction"}}, {"type": "node", "id": 9407468242, "lat": 13.54854, "lon": 100.6277852, "tags": {"name": "Giant Swing and Brahmin Temple (101)", "tourism": "attraction"}}, {"type": "node", "id": 9407468243, "lat": 13.5477111, "lon": 100.6333232, "tags": {"name": "Ku Khu Maha That, Maha Sarakham (077)", "tourism": "attraction"}}, {"type": "node", "id": 9407468244, "lat": 13.5447583, "lon": 100.6290113, "tags": {"name": "The Old Fort and Wall at Chachoengsao (097)", "tourism": "attraction"}}, {"type": "node", "id": 9407468245, "lat": 13.5443879, "lon": 100.6290199, "tags": {"name": "The Red Block Building (098)", "tourism": "attraction"}}, {"type": "node", "id": 9407468246, "lat": 13.5449563, "lon": 100.6285835, "tags": {"name": "The Shrine Housing the City Pillar (099)", "tourism": "attraction"}}, {"type": "node", "id": 9407468247, "lat": 13.5474179, "lon": 100.6314006, "tags": {"name": "The Stupa of Wat Phra That Sam Muen, Chayiaphum (085)", "tourism": "attraction"}}, {"type": "node", "id": 9407468248, "lat": 13.5469952, "lon": 100.6318342, "tags": {"name": "The Thai-Songdam Village (084)", "tourism": "attraction"}}, {"type": "node", "id": 9407468249, "lat": 13.5475477, "lon": 100.6315944, "tags": {"name": "The Meditation Retreat (082)", "tourism": "attraction"}}, {"type": "node", "id": 10870500769, "lat": 13.5383546, "lon": 100.6129762, "tags": {"amenity": "restaurant", "cuisine": "seafood;thai", "name": "Sailom Bang Pu", "opening_hours": "Mo-Su 11:00-22:00", "outdoor_seating": "yes", "takeaway": "yes", "wheelchair": "limited"}}, {"type": "node", "id": 11622043131, "lat": 13.5405466, "lon": 100.6239998, "tags": {"name": "The Ancient City", "name:th": "\u0e40\u0e21\u0e37\u0e2d\u0e07 \u0e42\u0e1a\u0e23\u0e32\u0e13", "tourism": "attraction"}}, {"type": "node", "id": 12397335514, "lat": 13.5447348, "lon": 100.6251621, "tags": {"name": "The Great Hall of Vajradhamma", "tourism": "attraction"}}, {"type": "node", "id": 12610203590, "lat": 13.5203004, "lon": 100.6437661, "tags": {"amenity": "place_of_worship", "denomination": "thai_mahanikaya", "name": "\u0e27\u0e31\u0e14\u0e28\u0e23\u0e35\u0e08\u0e31\u0e19\u0e17\u0e23\u0e4c\u0e1b\u0e23\u0e30\u0e14\u0e34\u0e29\u0e10\u0e4c", "name:en": "Wat Si Chan Pradit", "name:th": "\u0e27\u0e31\u0e14\u0e28\u0e23\u0e35\u0e08\u0e31\u0e19\u0e17\u0e23\u0e4c\u0e1b\u0e23\u0e30\u0e14\u0e34\u0e29\u0e10\u0e4c", "religion": "buddhist", "wikidata": "Q100715952", "wikipedia": "th:\u0e27\u0e31\u0e14\u0e28\u0e23\u0e35\u0e08\u0e31\u0e19\u0e17\u0e23\u0e4c\u0e1b\u0e23\u0e30\u0e14\u0e34\u0e29\u0e10\u0e4c"}}, {"type": "node", "id": 12610203591, "lat": 13.5346242, "lon": 100.6256606, "tags": {"alt_name": "\u0e27\u0e31\u0e14 12 \u0e18\u0e31\u0e19\u0e27\u0e32\u0e23\u0e32\u0e21", "alt_name:en": "Wat 12 Thanwaram", "alt_name:th": "\u0e27\u0e31\u0e14 12 \u0e18\u0e31\u0e19\u0e27\u0e32\u0e23\u0e32\u0e21", "amenity": "place_of_worship", "denomination": "thai_thammayut", "name": "\u0e27\u0e31\u0e14\u0e2b\u0e31\u0e27\u0e25\u0e33\u0e20\u0e39\u0e17\u0e2d\u0e07", "name:en": "Wat Hua Lam Phu Thong", "name:th": "\u0e27\u0e31\u0e14\u0e2b\u0e31\u0e27\u0e25\u0e33\u0e20\u0e39\u0e17\u0e2d\u0e07", "religion": "buddhist", "wikidata": "Q99414243", "wikipedia": "th:\u0e27\u0e31\u0e14\u0e2b\u0e31\u0e27\u0e25\u0e33\u0e20\u0e39\u0e17\u0e2d\u0e07"}}, {"type": "node", "id": 13042397801, "lat": 13.541739, "lon": 100.6191118, "tags": {"amenity": "cafe", "cuisine": "coffee_shop;tea", "internet_access": "wlan", "name": "MIAMI COFFEE", "opening_hours": "Mo-Su 09:00-17:00"}}, {"type": "way", "id": 166114555, "nodes": [1775971919, 1775971903, 1775971902, 1775971901, 1775971900, 1775971898, 1775971897, 1775971899, 1775971896, 12397329749, 12397329748, 1775971895, 1775965562, 1775965561, 1775965536, 1775965488, 1775965516, 1775965485, 1775965486, 1775965483, 1775965475, 1775965473, 1775965472, 1775965470, 1775965590, 1775965589, 1775965514, 1775965588, 1775965587, 1775965515, 1775965584, 1775965580, 1775965577, 1775965525, 1775965507, 1775965508, 1775965527, 1775965591, 1775965564, 1775965566, 1775965570, 1775965573, 1775965575, 1775965567, 1775965568, 1775965571, 1775965574, 1775971906, 1775971907, 1775971908, 1775971909, 1775971905, 1775972542, 1775971919], "tags": {"area": "yes", "name": "\u0e40\u0e21\u0e37\u0e2d\u0e07\u0e42\u0e1a\u0e23\u0e32\u0e13", "name:en": "Ancient Siam", "name:ru": "\u0414\u0440\u0435\u0432\u043d\u0438\u0439 \u0421\u0438\u0430\u043c", "tourism": "theme_park", "wikidata": "Q257554", "wikimedia_commons": "Category:Mueang Boran", "wikipedia": "en:Ancient Siam"}}, {"type": "way", "id": 857734146, "nodes": [7996655712, 7996655711, 7996655708, 7996655707, 7996655706, 7996655709, 7996655710, 7996655713, 7996655715, 7996655716, 7996655718, 7996655721, 7996655725, 7996655697, 7996655694, 7996655695, 7996655696, 7996655722, 7996655699, 7996655705, 7996655701, 7996655703, 7996655702, 7996655700, 7996655704, 7996655698, 7996655723, 7996655691, 7996655693, 7996655692, 7996655690, 7996655724, 7996655720, 7996655719, 7996655717, 7996655714, 7996655712], "tags": {"building": "yes", "castle_type": "palace", "historic": "castle"}}, {"type": "way", "id": 1340214895, "nodes": [12397225235, 12397225236, 12397225237, 12397225238, 12397225239, 12397225240, 12397225241, 12397225242, 12397225243, 12397225244, 12397225245, 12397225246, 12397225235], "tags": {"building": "yes", "castle_type": "palace", "historic": "castle"}}, {"type": "way", "id": 1340214896, "nodes": [12397225247, 12397225248, 12397225249, 12397225250, 12397225247], "tags": {"building": "yes", "castle_type": "palace", "historic": "castle"}}, {"type": "way", "id": 1340218334, "nodes": [12397258558, 12397258559, 12397258560, 12397258561, 12397258558], "tags": {"amenity": "place_of_worship", "building": "yes", "religion": "buddhist"}}, {"type": "way", "id": 1340219510, "nodes": [12397242812, 12397242813, 12397242814, 12397242815, 12397242812], "tags": {"amenity": "place_of_worship", "building": "yes", "religion": "buddhist"}}, {"type": "way", "id": 1340223095, "nodes": [12397305343, 12397305344, 12397305345, 12397305346, 12397305343], "tags": {"amenity": "place_of_worship", "building": "yes", "religion": "buddhist"}}, {"type": "way", "id": 1340226130, "nodes": [12397299195, 12397299196, 12397299197, 12397299198, 12397299195], "tags": {"amenity": "place_of_worship", "building": "yes", "religion": "buddhist"}}, {"type": "way", "id": 1340228437, "nodes": [12397338134, 12397338135, 12397338136, 12397338137, 12397338134], "tags": {"amenity": "place_of_worship", "building": "yes", "religion": "buddhist"}}, {"type": "node", "id": 1775971902, "lat": 13.5415524, "lon": 100.6237901}, {"type": "node", "id": 1775971903, "lat": 13.5398944, "lon": 100.6226795}, {"type": "node", "id": 1775971905, "lat": 13.5385306, "lon": 100.6232723}, {"type": "node", "id": 1775971908, "lat": 13.5394068, "lon": 100.6234091}, {"type": "node", "id": 1775971909, "lat": 13.5390469, "lon": 100.6236183}, {"type": "node", "id": 1775971919, "lat": 13.5393755, "lon": 100.6223229}, {"type": "node", "id": 1775972542, "lat": 13.5389413, "lon": 100.6228149}, {"type": "node", "id": 1775971901, "lat": 13.5413469, "lon": 100.6241199}, {"type": "node", "id": 1775971906, "lat": 13.5425699, "lon": 100.6255629}, {"type": "node", "id": 1775971907, "lat": 13.5406741, "lon": 100.6242701}, {"type": "node", "id": 12397299195, "lat": 13.542678, "lon": 100.6253439}, {"type": "node", "id": 12397299196, "lat": 13.5427598, "lon": 100.6253967}, {"type": "node", "id": 12397299197, "lat": 13.542704, "lon": 100.6254882}, {"type": "node", "id": 12397299198, "lat": 13.5426222, "lon": 100.6254354}, {"type": "node", "id": 1775965483, "lat": 13.5484578, "lon": 100.6239293}, {"type": "node", "id": 1775965475, "lat": 13.5490107, "lon": 100.624278}, {"type": "node", "id": 1775965485, "lat": 13.548364, "lon": 100.6254796}, {"type": "node", "id": 1775965486, "lat": 13.5484161, "lon": 100.6247554}, {"type": "node", "id": 1775965488, "lat": 13.5481142, "lon": 100.6266163}, {"type": "node", "id": 1775965516, "lat": 13.548171, "lon": 100.6262253}, {"type": "node", "id": 1775965536, "lat": 13.5479363, "lon": 100.6270514}, {"type": "node", "id": 1775965561, "lat": 13.5479937, "lon": 100.6273196}, {"type": "node", "id": 1775965562, "lat": 13.5479593, "lon": 100.6274218}, {"type": "node", "id": 1775965567, "lat": 13.5442179, "lon": 100.6297819}, {"type": "node", "id": 1775965568, "lat": 13.5441814, "lon": 100.6296156}, {"type": "node", "id": 1775965571, "lat": 13.5440432, "lon": 100.6289511}, {"type": "node", "id": 1775965574, "lat": 13.5451008, "lon": 100.6272888}, {"type": "node", "id": 1775971895, "lat": 13.5477303, "lon": 100.6278428}, {"type": "node", "id": 1775971896, "lat": 13.5452349, "lon": 100.6264266}, {"type": "node", "id": 1775971897, "lat": 13.5451984, "lon": 100.6258794}, {"type": "node", "id": 1775971898, "lat": 13.5437668, "lon": 100.6251177}, {"type": "node", "id": 1775971899, "lat": 13.5454351, "lon": 100.6260566}, {"type": "node", "id": 1775971900, "lat": 13.5434721, "lon": 100.625571}, {"type": "node", "id": 7996655690, "lat": 13.5461, "lon": 100.6287678}, {"type": "node", "id": 7996655691, "lat": 13.5461435, "lon": 100.6287497}, {"type": "node", "id": 7996655692, "lat": 13.5461095, "lon": 100.6287921}, {"type": "node", "id": 7996655693, "lat": 13.5461531, "lon": 100.628774}, {"type": "node", "id": 7996655694, "lat": 13.5458979, "lon": 100.6282551}, {"type": "node", "id": 7996655695, "lat": 13.5459414, "lon": 100.628237}, {"type": "node", "id": 7996655696, "lat": 13.5459525, "lon": 100.6282653}, {"type": "node", "id": 7996655697, "lat": 13.545909, "lon": 100.6282834}, {"type": "node", "id": 7996655698, "lat": 13.5460901, "lon": 100.6285584}, {"type": "node", "id": 7996655699, "lat": 13.5460456, "lon": 100.6284456}, {"type": "node", "id": 7996655700, "lat": 13.5460954, "lon": 100.6285308}, {"type": "node", "id": 7996655701, "lat": 13.5460689, "lon": 100.6284637}, {"type": "node", "id": 7996655702, "lat": 13.5461118, "lon": 100.6285239}, {"type": "node", "id": 7996655703, "lat": 13.5460854, "lon": 100.6284569}, {"type": "node", "id": 7996655704, "lat": 13.546104, "lon": 100.6285526}, {"type": "node", "id": 7996655705, "lat": 13.5460595, "lon": 100.6284398}, {"type": "node", "id": 7996655706, "lat": 13.5459313, "lon": 100.6285212}, {"type": "node", "id": 7996655707, "lat": 13.5459577, "lon": 100.6285882}, {"type": "node", "id": 7996655708, "lat": 13.5459772, "lon": 100.6285801}, {"type": "node", "id": 7996655709, "lat": 13.5459508, "lon": 100.628513}, {"type": "node", "id": 7996655710, "lat": 13.5459413, "lon": 100.6284891}, {"type": "node", "id": 7996655711, "lat": 13.5459858, "lon": 100.6286018}, {"type": "node", "id": 7996655712, "lat": 13.5460059, "lon": 100.6285935}, {"type": "node", "id": 7996655713, "lat": 13.5459615, "lon": 100.6284807}, {"type": "node", "id": 7996655714, "lat": 13.5460187, "lon": 100.628626}, {"type": "node", "id": 7996655715, "lat": 13.5459519, "lon": 100.6284566}, {"type": "node", "id": 7996655716, "lat": 13.5459201, "lon": 100.6284698}, {"type": "node", "id": 7996655717, "lat": 13.5459869, "lon": 100.6286392}, {"type": "node", "id": 7996655718, "lat": 13.5458991, "lon": 100.6284166}, {"type": "node", "id": 7996655719, "lat": 13.5460041, "lon": 100.6286829}, {"type": "node", "id": 7996655720, "lat": 13.5460359, "lon": 100.6286696}, {"type": "node", "id": 7996655721, "lat": 13.5459309, "lon": 100.6284033}, {"type": "node", "id": 7996655722, "lat": 13.5459714, "lon": 100.6282574}, {"type": "node", "id": 7996655723, "lat": 13.5461624, "lon": 100.6287418}, {"type": "node", "id": 7996655724, "lat": 13.5460782, "lon": 100.6287769}, {"type": "node", "id": 7996655725, "lat": 13.5458873, "lon": 100.6282925}, {"type": "node", "id": 12397225235, "lat": 13.5455925, "lon": 100.6278848}, {"type": "node", "id": 12397225236, "lat": 13.5454845, "lon": 100.627865}, {"type": "node", "id": 12397225237, "lat": 13.5455017, "lon": 100.6277658}, {"type": "node", "id": 12397225238, "lat": 13.5454024, "lon": 100.6277476}, {"type": "node", "id": 12397225239, "lat": 13.5453838, "lon": 100.6278548}, {"type": "node", "id": 12397225240, "lat": 13.5452619, "lon": 100.6278324}, {"type": "node", "id": 12397225241, "lat": 13.5452453, "lon": 100.6279279}, {"type": "node", "id": 12397225242, "lat": 13.5453768, "lon": 100.6279521}, {"type": "node", "id": 12397225243, "lat": 13.5453635, "lon": 100.628029}, {"type": "node", "id": 12397225244, "lat": 13.545457, "lon": 100.6280461}, {"type": "node", "id": 12397225245, "lat": 13.5454705, "lon": 100.6279678}, {"type": "node", "id": 12397225246, "lat": 13.5455748, "lon": 100.6279869}, {"type": "node", "id": 12397225247, "lat": 13.5452422, "lon": 100.6281894}, {"type": "node", "id": 12397225248, "lat": 13.5451902, "lon": 100.6284377}, {"type": "node", "id": 12397225249, "lat": 13.545048, "lon": 100.6284062}, {"type": "node", "id": 12397225250, "lat": 13.5451, "lon": 100.6281579}, {"type": "node", "id": 12397242812, "lat": 13.5461658, "lon": 100.6296761}, {"type": "node", "id": 12397242813, "lat": 13.5460901, "lon": 100.6298848}, {"type": "node", "id": 12397242814, "lat": 13.5458246, "lon": 100.6297829}, {"type": "node", "id": 12397242815, "lat": 13.5459002, "lon": 100.6295742}, {"type": "node", "id": 12397329748, "lat": 13.5466929, "lon": 100.6272633}, {"type": "node", "id": 12397329749, "lat": 13.5460474, "lon": 100.6268771}, {"type": "node", "id": 12397338134, "lat": 13.5450291, "lon": 100.6261236}, {"type": "node", "id": 12397338135, "lat": 13.5450155, "lon": 100.6262928}, {"type": "node", "id": 12397338136, "lat": 13.5449214, "lon": 100.6262848}, {"type": "node", "id": 12397338137, "lat": 13.544935, "lon": 100.6261156}, {"type": "node", "id": 1775965507, "lat": 13.5480041, "lon": 100.6359402}, {"type": "node", "id": 1775965508, "lat": 13.5477121, "lon": 100.6362728}, {"type": "node", "id": 1775965525, "lat": 13.547879, "lon": 100.635833}, {"type": "node", "id": 1775965527, "lat": 13.5472062, "lon": 100.6356935}, {"type": "node", "id": 1775965564, "lat": 13.546862, "lon": 100.6353394}, {"type": "node", "id": 1775965566, "lat": 13.5465543, "lon": 100.6351302}, {"type": "node", "id": 1775965570, "lat": 13.5454591, "lon": 100.6344221}, {"type": "node", "id": 1775965573, "lat": 13.5455061, "lon": 100.6332044}, {"type": "node", "id": 1775965575, "lat": 13.5440667, "lon": 100.6309728}, {"type": "node", "id": 1775965591, "lat": 13.5470518, "lon": 100.6355328}, {"type": "node", "id": 12397258558, "lat": 13.5474421, "lon": 100.6313111}, {"type": "node", "id": 12397258559, "lat": 13.5475096, "lon": 100.6314182}, {"type": "node", "id": 12397258560, "lat": 13.5474067, "lon": 100.6314868}, {"type": "node", "id": 12397258561, "lat": 13.5473392, "lon": 100.6313797}, {"type": "node", "id": 1775965470, "lat": 13.554523, "lon": 100.6278775}, {"type": "node", "id": 1775965472, "lat": 13.5528907, "lon": 100.6268207}, {"type": "node", "id": 1775965473, "lat": 13.5510393, "lon": 100.6256137}, {"type": "node", "id": 1775965514, "lat": 13.5543926, "lon": 100.6289933}, {"type": "node", "id": 1775965588, "lat": 13.5540797, "lon": 100.6299482}, {"type": "node", "id": 1775965589, "lat": 13.5543373, "lon": 100.6289239}, {"type": "node", "id": 1775965590, "lat": 13.554476, "lon": 100.628371}, {"type": "node", "id": 12397305343, "lat": 13.5500203, "lon": 100.628358}, {"type": "node", "id": 12397305344, "lat": 13.5499693, "lon": 100.6284157}, {"type": "node", "id": 12397305345, "lat": 13.5498808, "lon": 100.628333}, {"type": "node", "id": 12397305346, "lat": 13.5499317, "lon": 100.6282753}, {"type": "node", "id": 1775965515, "lat": 13.5532891, "lon": 100.6319118}, {"type": "node", "id": 1775965577, "lat": 13.5500015, "lon": 100.6338535}, {"type": "node", "id": 1775965580, "lat": 13.5516599, "lon": 100.6322656}, {"type": "node", "id": 1775965584, "lat": 13.5527447, "lon": 100.6331025}, {"type": "node", "id": 1775965587, "lat": 13.5534487, "lon": 100.6316863}]}