{"version": 0.6, "generator": "Overpass API 0.7.62.8 e802775f", "osm3s": {"timestamp_osm_base": "2025-11-23T10:00:44Z", "copyright": "The data included in this document is from www.openstreetmap.org. The data is made available under ODbL."}, "elements": [{"type": "node", "id": 3289870862, "lat": 41.3614567, "lon": 48.5124984, "tags": {"historic": "memorial", "name": "D\u0259d\u0259 Qorqut"}}, {"type": "node", "id": 4559114490, "lat": 41.3632065, "lon": 48.5193415, "tags": {"amenity": "restaurant", "name": "Mahir Restoran \\ Quba"}}, {"type": "node", "id": 5071551125, "lat": 41.3621149, "lon": 48.526757, "tags": {"description": "G\u00fcnstiges Hotel 40 AZN/DZ. Etwas laut, direkt an Hauptstra\u00dfe", "name": "Oscar Hotel", "name:en": "Oscar Hotel", "tourism": "hotel"}}, {"type": "node", "id": 5370845822, "lat": 41.3638802, "lon": 48.5399828, "tags": {"addr:postcode": "4000", "addr:street": "prospekt Heydar Aliev", "amenity": "cafe", "internet_access": "wlan", "name:en": "Hay-K\u00fcy", "name:ru": "Hay-K\u00fcy", "phone": "+994557030030"}}, {"type": "node", "id": 5498137525, "lat": 41.3721117, "lon": 48.5012959, "tags": {"addr:housenumber": "2 ci m\u0259h\u0259ll\u0259 1&", "addr:postcode": "Az4000", "addr:street": "Da\u011fl\u0131 kendi", "name:en": "Qubadakirayev", "name:tr": "Gubada kiraye ev", "phone": "+994555482232", "tourism": "guest_house"}}, {"type": "node", "id": 5540929075, "lat": 41.3611644, "lon": 48.5133158, "tags": {"description": "Rechten Seiteneingang benutzen (vorne links befindet sich nur eine Verwaltung)", "name": "Turizm Ofisi", "name:en": "Guba tourism information centre", "name:pl": "Informacja turystyczna", "phone": "+994233353618", "tourism": "information", "website": "http://www.guba.travel"}}, {"type": "node", "id": 5540929076, "lat": 41.3620534, "lon": 48.5055115, "tags": {"amenity": "cafe", "description": "Teestube", "name": "Kafe Nikat (Teahouse)"}}, {"type": "node", "id": 5640622421, "lat": 41.3626842, "lon": 48.5228599, "tags": {"addr:street": "Heyder.Eliyev prospekti", "amenity": "restaurant", "cuisine": "arab;american;coffee_shop;grill;ice_cream;italian_pizza;kebab;pizza", "internet_access": "wlan", "name:en": "Lucky cafe & restaurant \\ Quba", "opening_hours": "24/7", "phone": "+994507770609"}}, {"type": "node", "id": 5871094894, "lat": 41.3632541, "lon": 48.5045027, "tags": {"amenity": "cafe", "internet_access": "wlan"}}, {"type": "node", "id": 5871094895, "lat": 41.3667517, "lon": 48.5050955, "tags": {"historic": "memorial", "name:en": "II war monument 1941-1945", "name:ru": "1941-1945"}}, {"type": "node", "id": 5871094896, "lat": 41.3683207, "lon": 48.5096647, "tags": {"amenity": "cafe"}}, {"type": "node", "id": 5871095096, "lat": 41.3632962, "lon": 48.5359566, "tags": {"amenity": "restaurant", "name:en": "Praga"}}, {"type": "node", "id": 5871095097, "lat": 41.3637594, "lon": 48.5402209, "tags": {"amenity": "restaurant"}}, {"type": "node", "id": 5871095287, "lat": 41.3670186, "lon": 48.5052163, "tags": {"amenity": "cafe"}}, {"type": "node", "id": 5871104087, "lat": 41.3621784, "lon": 48.5023162, "tags": {"amenity": "cafe", "name:en": "Biklam dizaiyn \\ Quba"}}, {"type": "node", "id": 5871104089, "lat": 41.3634138, "lon": 48.5052062, "tags": {"amenity": "cafe"}}, {"type": "node", "id": 5871104090, "lat": 41.3638879, "lon": 48.5051415, "tags": {"amenity": "cafe", "name:en": "\u0130sm\u0259t \u018fmi"}}, {"type": "node", "id": 5871104091, "lat": 41.3650899, "lon": 48.5046019, "tags": {"amenity": "cafe", "name": "Diyar kafe", "name:en": "Diyar"}}, {"type": "node", "id": 5871104092, "lat": 41.3691362, "lon": 48.5094489, "tags": {"building": "bath", "name": "Mikva Sloboda", "name:pl": "Mykwa", "name:ru": "\u041c\u0438\u043a\u0432\u0430 (\u0441\u0432\u044f\u0442\u043e\u0435 \u043c\u0435\u0441\u0442\u043e \u0438\u0443\u0434\u0435\u0435\u0432)", "tourism": "attraction"}}, {"type": "node", "id": 5871104103, "lat": 41.3629654, "lon": 48.5336057, "tags": {"amenity": "cafe"}}, {"type": "node", "id": 5871104187, "lat": 41.3689129, "lon": 48.509036, "tags": {"name": "Mikva Qur\u015fum", "name:pl": "Mykwa", "name:ru": "\u041c\u0438\u043a\u0432\u0430 (\u043a\u0443\u043f\u0435\u043b\u044c) \u0440\u0430\u0431\u0438 \u0413\u0443\u0440\u0448\u0443\u043c\u0430 (\u0441\u0432\u044f\u0442\u043e\u0435 \u043c\u0435\u0441\u0442\u043e \u0438\u0443\u0434\u0435\u0435\u0432)", "tourism": "attraction"}}, {"type": "node", "id": 5898410185, "lat": 41.3686601, "lon": 48.5305918, "tags": {"name:en": "F\u0259rhad", "tourism": "guest_house"}}, {"type": "node", "id": 5913499489, "lat": 41.3706006, "lon": 48.5146901, "tags": {"name:en": "Qirmizi Qasaba", "tourism": "attraction"}}, {"type": "node", "id": 5933384087, "lat": 41.362835, "lon": 48.5096732, "tags": {"addr:city": "Quba", "addr:street": "\u018frd\u0259bil", "amenity": "place_of_worship", "building": "mosque", "historic": "yes", "name": "Hac\u0131 C\u0259f\u0259r M\u0259scidi", "name:az": "Hac\u0131 C\u0259f\u0259r M\u0259scidi", "name:en": "Haji Jafar Mosque", "religion": "muslim", "tourism": "attraction"}}, {"type": "node", "id": 5933384088, "lat": 41.363195, "lon": 48.5121203, "tags": {"addr:city": "Quba", "amenity": "place_of_worship", "building": "mosque", "historic": "yes", "name": "C\u00fcm\u0259 M\u0259scidi \\ Quba", "name:az": "C\u00fcm\u0259 M\u0259scidi", "name:en": "Juma Mosque", "religion": "muslim", "tourism": "attraction"}}, {"type": "node", "id": 5933384506, "lat": 41.3639384, "lon": 48.5126273, "tags": {"name:en": "Quba History Museum", "tourism": "museum"}}, {"type": "node", "id": 5962143685, "lat": 41.3607344, "lon": 48.521956, "tags": {"name:en": "House", "name:tr": "Ev", "tourism": "guest_house"}}, {"type": "node", "id": 5990508687, "lat": 41.3611151, "lon": 48.5284681, "tags": {"name:en": "Xinaliq Motel \\ Quba", "tourism": "hotel"}}, {"type": "node", "id": 5995668088, "lat": 41.3623669, "lon": 48.5074648, "tags": {"addr:city": "Quba", "amenity": "public_bath", "historic": "ruins", "name": "H\u00fcnd\u00fcr K\u00fcmb\u0259zli Hamam \\ Quba", "name:az": "H\u00fcnd\u00fcr K\u00fcmb\u0259zli Hamam \\ Quba", "name:en": "Old doomed Turkish bathroom - Hundur Gumbazli High Domed Hamam", "phone": "+994702441154;+994702046400", "tourism": "attraction"}}, {"type": "node", "id": 5995679686, "lat": 41.371228, "lon": 48.5190415, "tags": {"amenity": "cafe"}}, {"type": "node", "id": 5995679785, "lat": 41.3666213, "lon": 48.5096061, "tags": {"addr:city": "Quba", "addr:street": "Isaak Xanukov", "alt_name": "Gilaki Synagogue", "amenity": "place_of_worship", "building": "synagogue", "name:en": "Gilyaki Synagogue", "name:pl": "Synagoga w Quba", "religion": "jewish", "tourism": "attraction"}}, {"type": "node", "id": 5995679786, "lat": 41.3674368, "lon": 48.5097155, "tags": {"addr:city": "Quba", "amenity": "place_of_worship", "building": "synagogue", "historic": "yes", "name": "Da\u011f y\u0259hudil\u0259rin muzeyi", "name:en": "Jewish Museum", "name:pl": "Stara synagoga w Quba", "religion": "jewish", "tourism": "museum"}}, {"type": "node", "id": 5995679787, "lat": 41.3625587, "lon": 48.5056999, "tags": {"addr:city": "Quba", "name": "Quba Tarix v\u0259 Etnoqrafiya muzeyi", "name:en": "History and Ethnography Museum", "name:pl": "Muzeum Historyczno-Etnograficzne", "opening_hours": "Tu-Sa 10:00-13:00, 14:00-18:00", "tourism": "museum"}}, {"type": "node", "id": 6048682991, "lat": 41.3672981, "lon": 48.5214247, "tags": {"addr:street": "223-c\u00fc at\u0131c\u0131 diviziya k\u00fc\u00e7\u0259si", "amenity": "restaurant", "cuisine": "regional;tea;persian;asian;beef_bowl;chicken;diner;kebab", "name:en": "Alma restoran\u0131 (Quba)", "phone": "+994515544000"}}, {"type": "node", "id": 6639751909, "lat": 41.3600127, "lon": 48.5071122, "tags": {"amenity": "restaurant", "name:en": "Cinar"}}, {"type": "node", "id": 6639760285, "lat": 41.3624626, "lon": 48.5160092, "tags": {"amenity": "restaurant", "name:en": "Cinar"}}, {"type": "node", "id": 6660801386, "lat": 41.3653082, "lon": 48.5185968, "tags": {"addr:housenumber": "133", "addr:street": "F\u0259t\u0259li Xan k\u00fc\u00e7\u0259si", "internet_access": "wlan", "name": "ElVin (Real Location, as of 2019)", "tourism": "guest_house", "website": "https://www.booking.com/hotel/az/elvin.html"}}, {"type": "node", "id": 7020247585, "lat": 41.3660001, "lon": 48.5221556, "tags": {"amenity": "cafe", "cuisine": "tea", "internet_access": "wlan", "name:en": "L\u0259zz\u0259t Shisa", "name:tr": "Lezzet Nargile", "opening_hours": "Mo-Su 09:00-03:00", "phone": "0233351200"}}, {"type": "node", "id": 7281820786, "lat": 41.3671824, "lon": 48.5065347, "tags": {"name:en": "Pharmacy at the Synagogue", "tourism": "attraction"}}, {"type": "node", "id": 7281826885, "lat": 41.3683017, "lon": 48.5100109, "tags": {"name": "Turizm Ofisi \\ Q\u0131rm\u0131z\u0131 Q\u0259s\u0259b\u0259", "name:en": "Tourist information", "tourism": "information"}}, {"type": "node", "id": 7281827085, "lat": 41.3694433, "lon": 48.5091869, "tags": {"name": "Mikve Ritual Hamam", "name:en": "Ritual Bath (Mikveh)", "name:ru": "\u0420\u0438\u0442\u0443\u0430\u043b\u044c\u043d\u0430\u044f \u0411\u0430\u043d\u044f (\u041c\u0438\u043a\u0432\u0435)", "tourism": "attraction"}}, {"type": "node", "id": 11067570729, "lat": 41.3650616, "lon": 48.5290253, "tags": {"amenity": "restaurant", "name": "M\u00fcbar\u0259k \u015eadl\u0131q Saray\u0131"}}, {"type": "node", "id": 11067570736, "lat": 41.364975, "lon": 48.5282421, "tags": {"amenity": "cafe", "name": "Napoleon Kafe \\ Quba"}}, {"type": "node", "id": 11067570850, "lat": 41.3613615, "lon": 48.5283279, "tags": {"amenity": "marketplace", "name": "Quba Bazar\u0131"}}, {"type": "node", "id": 11086803012, "lat": 41.3630284, "lon": 48.5490748, "tags": {"amenity": "restaurant", "name": "\u00dc\u00e7 G\u00f6z\u0259l \u015eadl\u0131q Saray\u0131 \\ Quba"}}, {"type": "node", "id": 11086803033, "lat": 41.3636484, "lon": 48.5497132, "tags": {"name": "Orxan Motel \\ Quba", "tourism": "motel"}}, {"type": "node", "id": 11087006102, "lat": 41.3654652, "lon": 48.5221173, "tags": {"amenity": "restaurant", "name": "Buta Restoran \\ Quba"}}, {"type": "way", "id": 181056972, "nodes": [1915090929, 1915090926], "tags": {"bridge": "yes", "highway": "unclassified", "historic": "yes", "layer": "1", "motor_vehicle": "no"}}, {"type": "way", "id": 322215658, "nodes": [3289870870, 3289870868, 3289870869, 3289870866, 3289870867, 3289870871, 3289870870], "tags": {"leisure": "park", "name": "D\u0259d\u0259 Qorqut Park\u0131"}}, {"type": "way", "id": 322215659, "nodes": [3289870897, 3289870899, 3289870901, 3289870892, 3289870878, 3289870872, 3289870887, 3289870897], "tags": {"leisure": "park", "name": "Meydan Park\u0131 \\ Quba"}}, {"type": "way", "id": 639309010, "nodes": [6024318688, 6024318689, 6024318690, 6024318691, 7434932488, 6024318692, 6024318693, 6024318694, 6024318695, 6024318696, 6024318697, 6024318688], "tags": {"leisure": "park", "name": "Nizami Parki \\ Quba"}}, {"type": "way", "id": 794943219, "nodes": [7435221973, 7435221972, 7435221971, 7435221970, 7435221969, 7435221968, 7435221967, 7435221966, 7435221965, 7435221964, 7435221973], "tags": {"landuse": "grass", "name": "Q\u0131rm\u0131z\u0131 Q\u0259s\u0259b\u0259 Dair\u0259si", "tourism": "attraction"}}, {"type": "way", "id": 794943228, "nodes": [7435222067, 7435222066, 7435222065, 7435222064, 7435222067], "tags": {"historic": "archaeological_site"}}, {"type": "way", "id": 795207511, "nodes": [7437630286, 7437630285, 7437630284, 7437630283, 7437630282, 7437630281, 7437630286], "tags": {"leisure": "park", "name": "Heyd\u0259r Park\u0131 \\ Q\u0131rm\u0131z\u0131 Q\u0259s\u0259b\u0259"}}, {"type": "way", "id": 1192154844, "nodes": [11067487697, 11067487696, 11067487695, 11067487694, 11067487693, 11067487692, 11067487691, 11067487697], "tags": {"leisure": "park"}}, {"type": "way", "id": 1192184768, "nodes": [11067772307, 11067772303, 11067772306, 11067772305, 11067772302, 11067772304, 11067772307], "tags": {"leisure": "park"}}, {"type": "way", "id": 1192184784, "nodes": [11067772476, 11067772475, 11067772474, 11067772473, 11067772476], "tags": {"leisure": "park"}}, {"type": "way", "id": 1192184813, "nodes": [11067772637, 11067772636, 11067772624, 11067772635, 11067772634, 11067772633, 11067772632, 11067772631, 11067772630, 11067772629, 11067772628, 11067772627, 11067772626, 11067772625, 11067772637], "tags": {"leisure": "park"}}, {"type": "way", "id": 1194478535, "nodes": [11086803011, 11086803010, 11086803009, 11086803008, 11086803011], "tags": {"leisure": "park"}}, {"type": "way", "id": 1194478546, "nodes": [11086803070, 11086803069, 11086803068, 11086803067, 11086803070], "tags": {"leisure": "park"}}, {"type": "way", "id": 1194502166, "nodes": [11087082505, 11087006104, 11087006103, 11067772778, 11087082505], "tags": {"leisure": "park"}}, {"type": "way", "id": 1319991062, "nodes": [12215162993, 12215162994, 12215162995, 12215162996, 12215162993], "tags": {"building": "yes", "name": "Da\u011f y\u0259hudil\u0259rin muzeyi", "tourism": "museum"}}, {"type": "node", "id": 6024318692, "lat": 41.3625548, "lon": 48.5061758}, {"type": "node", "id": 6024318693, "lat": 41.3620494, "lon": 48.5047272}, {"type": "node", "id": 6024318694, "lat": 41.3625024, "lon": 48.5045341}, {"type": "node", "id": 6024318695, "lat": 41.3628184, "lon": 48.5045664}, {"type": "node", "id": 7435222064, "lat": 41.3626157, "lon": 48.5074402}, {"type": "node", "id": 7435222065, "lat": 41.3623258, "lon": 48.5075877}, {"type": "node", "id": 7435222066, "lat": 41.3622573, "lon": 48.5074013}, {"type": "node", "id": 7435222067, "lat": 41.3625573, "lon": 48.5072511}, {"type": "node", "id": 11067772624, "lat": 41.357498, "lon": 48.504996}, {"type": "node", "id": 11067772625, "lat": 41.3579658, "lon": 48.5048344}, {"type": "node", "id": 11067772626, "lat": 41.3579783, "lon": 48.5048801}, {"type": "node", "id": 11067772627, "lat": 41.3578474, "lon": 48.5049739}, {"type": "node", "id": 11067772628, "lat": 41.3578907, "lon": 48.5051483}, {"type": "node", "id": 11067772629, "lat": 41.3580025, "lon": 48.505096}, {"type": "node", "id": 11067772630, "lat": 41.3580357, "lon": 48.5052448}, {"type": "node", "id": 11067772631, "lat": 41.357776, "lon": 48.5053642}, {"type": "node", "id": 11067772632, "lat": 41.3577307, "lon": 48.5052167}, {"type": "node", "id": 11067772633, "lat": 41.357625, "lon": 48.5052623}, {"type": "node", "id": 11067772634, "lat": 41.3575636, "lon": 48.5050879}, {"type": "node", "id": 11067772635, "lat": 41.3575253, "lon": 48.5050946}, {"type": "node", "id": 11067772636, "lat": 41.3574699, "lon": 48.5048948}, {"type": "node", "id": 11067772637, "lat": 41.3579229, "lon": 48.5046776}, {"type": "node", "id": 6024318688, "lat": 41.3635109, "lon": 48.5022543}, {"type": "node", "id": 6024318697, "lat": 41.3634546, "lon": 48.5022489}, {"type": "node", "id": 1915090926, "lat": 41.3647278, "lon": 48.5048108}, {"type": "node", "id": 1915090929, "lat": 41.3661495, "lon": 48.5051443}, {"type": "node", "id": 6024318689, "lat": 41.3638572, "lon": 48.504679}, {"type": "node", "id": 6024318690, "lat": 41.3640665, "lon": 48.5048882}, {"type": "node", "id": 6024318691, "lat": 41.3641269, "lon": 48.5052959}, {"type": "node", "id": 6024318696, "lat": 41.3631405, "lon": 48.5043732}, {"type": "node", "id": 7434932488, "lat": 41.3634431, "lon": 48.5056257}, {"type": "node", "id": 11067487691, "lat": 41.3651662, "lon": 48.5062212}, {"type": "node", "id": 11067487692, "lat": 41.3649045, "lon": 48.5069936}, {"type": "node", "id": 11067487693, "lat": 41.3643248, "lon": 48.5068434}, {"type": "node", "id": 11067487694, "lat": 41.3643168, "lon": 48.5064813}, {"type": "node", "id": 11067487695, "lat": 41.3642765, "lon": 48.5055989}, {"type": "node", "id": 11067487696, "lat": 41.3641879, "lon": 48.5048586}, {"type": "node", "id": 11067487697, "lat": 41.3653514, "lon": 48.5050785}, {"type": "node", "id": 12215162993, "lat": 41.3674902, "lon": 48.5095086}, {"type": "node", "id": 12215162994, "lat": 41.3673384, "lon": 48.5095746}, {"type": "node", "id": 12215162996, "lat": 41.3675422, "lon": 48.5097209}, {"type": "node", "id": 3289870866, "lat": 41.3608027, "lon": 48.5123612}, {"type": "node", "id": 3289870867, "lat": 41.36098, "lon": 48.5129057}, {"type": "node", "id": 3289870868, "lat": 41.3609464, "lon": 48.5120586}, {"type": "node", "id": 3289870869, "lat": 41.3610058, "lon": 48.5122484}, {"type": "node", "id": 3289870870, "lat": 41.3613839, "lon": 48.5118157}, {"type": "node", "id": 3289870871, "lat": 41.3616408, "lon": 48.5125582}, {"type": "node", "id": 3289870872, "lat": 41.3617802, "lon": 48.5126056}, {"type": "node", "id": 3289870878, "lat": 41.3620295, "lon": 48.5133397}, {"type": "node", "id": 3289870887, "lat": 41.3622285, "lon": 48.5123505}, {"type": "node", "id": 3289870892, "lat": 41.3624602, "lon": 48.5130969}, {"type": "node", "id": 3289870897, "lat": 41.362869, "lon": 48.5120222}, {"type": "node", "id": 3289870899, "lat": 41.3629724, "lon": 48.5123719}, {"type": "node", "id": 11067772302, "lat": 41.3619836, "lon": 48.5140319}, {"type": "node", "id": 11067772303, "lat": 41.3615869, "lon": 48.5127399}, {"type": "node", "id": 11067772304, "lat": 41.3620681, "lon": 48.5139835}, {"type": "node", "id": 11067772305, "lat": 41.361895, "lon": 48.5140827}, {"type": "node", "id": 11067772306, "lat": 41.3614964, "lon": 48.5127899}, {"type": "node", "id": 11067772307, "lat": 41.3616614, "lon": 48.5126987}, {"type": "node", "id": 11067772473, "lat": 41.3598184, "lon": 48.5107085}, {"type": "node", "id": 11067772474, "lat": 41.3596211, "lon": 48.5108212}, {"type": "node", "id": 11067772475, "lat": 41.359462, "lon": 48.5102673}, {"type": "node", "id": 11067772476, "lat": 41.3596, "lon": 48.5100487}, {"type": "node", "id": 3289870901, "lat": 41.3630996, "lon": 48.5127421}, {"type": "node", "id": 12215162995, "lat": 41.3673904, "lon": 48.5097869}, {"type": "node", "id": 11067772778, "lat": 41.3656443, "lon": 48.5220905}, {"type": "node", "id": 11087006103, "lat": 41.365251, "lon": 48.5223143}, {"type": "node", "id": 11087006104, "lat": 41.3651179, "lon": 48.5219282}, {"type": "node", "id": 11087082505, "lat": 41.3655487, "lon": 48.5216895}, {"type": "node", "id": 7435221964, "lat": 41.3713355, "lon": 48.5192029}, {"type": "node", "id": 7435221965, "lat": 41.3713465, "lon": 48.5192195}, {"type": "node", "id": 7435221966, "lat": 41.371348, "lon": 48.5192416}, {"type": "node", "id": 7435221967, "lat": 41.3713395, "lon": 48.5192607}, {"type": "node", "id": 7435221968, "lat": 41.3713242, "lon": 48.5192694}, {"type": "node", "id": 7435221969, "lat": 41.371308, "lon": 48.5192646}, {"type": "node", "id": 7435221970, "lat": 41.371297, "lon": 48.5192479}, {"type": "node", "id": 7435221971, "lat": 41.3712955, "lon": 48.5192258}, {"type": "node", "id": 7435221972, "lat": 41.371304, "lon": 48.5192068}, {"type": "node", "id": 7435221973, "lat": 41.3713193, "lon": 48.519198}, {"type": "node", "id": 7437630281, "lat": 41.3715814, "lon": 48.517693}, {"type": "node", "id": 7437630282, "lat": 41.37104, "lon": 48.5181007}, {"type": "node", "id": 7437630283, "lat": 41.3708025, "lon": 48.5175535}, {"type": "node", "id": 7437630284, "lat": 41.3709011, "lon": 48.5174811}, {"type": "node", "id": 7437630285, "lat": 41.3708085, "lon": 48.5172531}, {"type": "node", "id": 7437630286, "lat": 41.3712493, "lon": 48.516942}, {"type": "node", "id": 11086803010, "lat": 41.3627244, "lon": 48.5485813}, {"type": "node", "id": 11086803011, "lat": 41.3634269, "lon": 48.5485411}, {"type": "node", "id": 11086803009, "lat": 41.3627526, "lon": 48.5495603}, {"type": "node", "id": 11086803008, "lat": 41.3634592, "lon": 48.5495201}, {"type": "node", "id": 11086803067, "lat": 41.3651099, "lon": 48.5509175}, {"type": "node", "id": 11086803068, "lat": 41.3643469, "lon": 48.5510007}, {"type": "node", "id": 11086803069, "lat": 41.3643248, "lon": 48.5497856}, {"type": "node", "id": 11086803070, "lat": 41.3648683, "lon": 48.5496891}]}