{"version": 0.6, "generator": "Overpass API 0.7.62.8 e802775f", "osm3s": {"timestamp_osm_base": "2025-11-23T10:03:44Z", "copyright": "The data included in this document is from www.openstreetmap.org. The data is made available under ODbL."}, "elements": [{"type": "node", "id": 4784204704, "lat": 40.8501388, "lon": 48.3938787, "tags": {"addr:street": "N. Huseynov Street 57", "capacity:beds": "1-4", "description:payment": "AZN35 (for 3)", "internet_access:type": "WiFi", "name": "Ancient Lahij Guest House \\ \u018fr\u0259kit", "opening_hours": "Mo-Su 07:00-23:00", "operator": "Dadash", "phone": "+994506777517", "tourism": "guest_house"}}, {"type": "node", "id": 6673235987, "lat": 40.8510023, "lon": 48.3910196, "tags": {"name:en": "Hotel \\ \u018fr\u0259kit", "opening_hours": "24/7", "phone": "+994505283227", "tourism": "hotel"}}, {"type": "node", "id": 6771578085, "lat": 40.8508998, "lon": 48.3911075, "tags": {"name": "Lah\u0131c Hostel \\ \u018fr\u0259kit", "phone": "+994 50 250 28 80", "tourism": "guest_house"}}, {"type": "node", "id": 7774166033, "lat": 40.851248, "lon": 48.38855, "tags": {"name": "Otel \\ \u018fr\u0259kit", "tourism": "hotel"}}, {"type": "node", "id": 7774166034, "lat": 40.8510512, "lon": 48.3886841, "tags": {"name": "Tarix muzeyi \\ \u018fr\u0259kit", "tourism": "museum"}}, {"type": "node", "id": 7774166035, "lat": 40.8514793, "lon": 48.3889336, "tags": {"name": "Gurbulaq Karvansara 15-ci \u0259sr \\ \u018fr\u0259kit", "name:en": "Gurbulaq caravanserai 15th c. \\ \u018fr\u0259kit", "name:ru": "\u041a\u0430\u0440\u0430\u0432\u0430\u043d\u0441\u0430\u0440\u0430\u0439 \u0413\u044e\u0440\u0431\u0443\u043b\u0430\u0433 15-\u0439 \u0432\u0435\u043a \\ \u0410\u0440\u0430\u0433\u0438\u0442", "tourism": "museum"}}, {"type": "node", "id": 7947791985, "lat": 40.8509536, "lon": 48.3894691, "tags": {"historic": "memorial", "name:en": "Hamam"}}, {"type": "node", "id": 10939915505, "lat": 40.8508727, "lon": 48.3946953, "tags": {"name": "Mir Hotel (Deniz Guest House) \\ \u018fr\u0259kit", "tourism": "guest_house"}}, {"type": "node", "id": 12912630401, "lat": 40.851282, "lon": 48.3821195, "tags": {"tourism": "viewpoint"}}]}